<?xml version="1.0" encoding="UTF-8"?>
<gpx xmlns="http://www.topografix.com/GPX/1/1" xmlns:xsi="http://www.w3.org/2001/XMLSchema-instance" xsi:schemaLocation="http://www.topografix.com/GPX/1/1 http://www.topografix.com/GPX/1/1/gpx.xsd" version="1.1" creator="Xplova">
  <metadata>
    <link href="http://www.xplova.com">
      <text>Xplova Inc.</text>
    </link>
  </metadata>
  <trk>
    <name>La_Perico-2015</name>
    <trkseg>
      <trkpt lat="40.94807" lon="-4.11695">
        <ele>989.0</ele>
      </trkpt>
      <trkpt lat="40.94858" lon="-4.11461">
        <ele>986.0</ele>
      </trkpt>
      <trkpt lat="40.94854" lon="-4.11399">
        <ele>988.0</ele>
      </trkpt>
      <trkpt lat="40.94832" lon="-4.11354">
        <ele>994.0</ele>
      </trkpt>
      <trkpt lat="40.94723" lon="-4.11261">
        <ele>1007.0</ele>
      </trkpt>
      <trkpt lat="40.94706" lon="-4.11267">
        <ele>1008.0</ele>
      </trkpt>
      <trkpt lat="40.94697" lon="-4.11244">
        <ele>1009.0</ele>
      </trkpt>
      <trkpt lat="40.9462" lon="-4.11198">
        <ele>1012.0</ele>
      </trkpt>
      <trkpt lat="40.94269" lon="-4.10873">
        <ele>1025.0</ele>
      </trkpt>
      <trkpt lat="40.94245" lon="-4.1081">
        <ele>1027.0</ele>
      </trkpt>
      <trkpt lat="40.94029" lon="-4.10426">
        <ele>1047.0</ele>
      </trkpt>
      <trkpt lat="40.93989" lon="-4.10406">
        <ele>1051.0</ele>
      </trkpt>
      <trkpt lat="40.93972" lon="-4.10348">
        <ele>1055.0</ele>
      </trkpt>
      <trkpt lat="40.93645" lon="-4.09962">
        <ele>1077.0</ele>
      </trkpt>
      <trkpt lat="40.9359" lon="-4.09941">
        <ele>1077.0</ele>
      </trkpt>
      <trkpt lat="40.93559" lon="-4.09869">
        <ele>1079.0</ele>
      </trkpt>
      <trkpt lat="40.93267" lon="-4.0951">
        <ele>1083.0</ele>
      </trkpt>
      <trkpt lat="40.92952" lon="-4.09016">
        <ele>1075.0</ele>
      </trkpt>
      <trkpt lat="40.92921" lon="-4.08971">
        <ele>1074.0</ele>
      </trkpt>
      <trkpt lat="40.92898" lon="-4.08959">
        <ele>1074.0</ele>
      </trkpt>
      <trkpt lat="40.92846" lon="-4.08826">
        <ele>1073.0</ele>
      </trkpt>
      <trkpt lat="40.92795" lon="-4.08744">
        <ele>1070.0</ele>
      </trkpt>
      <trkpt lat="40.92769" lon="-4.08719">
        <ele>1069.0</ele>
      </trkpt>
      <trkpt lat="40.9273" lon="-4.08712">
        <ele>1070.0</ele>
      </trkpt>
      <trkpt lat="40.92715" lon="-4.08617">
        <ele>1068.0</ele>
      </trkpt>
      <trkpt lat="40.92349" lon="-4.08043">
        <ele>1066.0</ele>
      </trkpt>
      <trkpt lat="40.92297" lon="-4.07996">
        <ele>1067.0</ele>
      </trkpt>
      <trkpt lat="40.9226" lon="-4.07903">
        <ele>1069.0</ele>
      </trkpt>
      <trkpt lat="40.91633" lon="-4.06914">
        <ele>1092.0</ele>
      </trkpt>
      <trkpt lat="40.91589" lon="-4.06865">
        <ele>1090.0</ele>
      </trkpt>
      <trkpt lat="40.91586" lon="-4.06843">
        <ele>1089.0</ele>
      </trkpt>
      <trkpt lat="40.91454" lon="-4.06634">
        <ele>1090.0</ele>
      </trkpt>
      <trkpt lat="40.91405" lon="-4.0659">
        <ele>1092.0</ele>
      </trkpt>
      <trkpt lat="40.91376" lon="-4.0651">
        <ele>1094.0</ele>
      </trkpt>
      <trkpt lat="40.91191" lon="-4.06229">
        <ele>1100.0</ele>
      </trkpt>
      <trkpt lat="40.91105" lon="-4.06067">
        <ele>1101.0</ele>
      </trkpt>
      <trkpt lat="40.91047" lon="-4.05873">
        <ele>1104.0</ele>
      </trkpt>
      <trkpt lat="40.91052" lon="-4.05789">
        <ele>1104.0</ele>
      </trkpt>
      <trkpt lat="40.90893" lon="-4.04706">
        <ele>1124.0</ele>
      </trkpt>
      <trkpt lat="40.90873" lon="-4.04575">
        <ele>1127.0</ele>
      </trkpt>
      <trkpt lat="40.90838" lon="-4.04502">
        <ele>1126.0</ele>
      </trkpt>
      <trkpt lat="40.90849" lon="-4.04414">
        <ele>1127.0</ele>
      </trkpt>
      <trkpt lat="40.90799" lon="-4.04092">
        <ele>1128.0</ele>
      </trkpt>
      <trkpt lat="40.90464" lon="-4.03098">
        <ele>1114.0</ele>
      </trkpt>
      <trkpt lat="40.90419" lon="-4.03021">
        <ele>1111.0</ele>
      </trkpt>
      <trkpt lat="40.90403" lon="-4.02801">
        <ele>1105.0</ele>
      </trkpt>
      <trkpt lat="40.90453" lon="-4.02123">
        <ele>1125.0</ele>
      </trkpt>
      <trkpt lat="40.90448" lon="-4.02051">
        <ele>1125.0</ele>
      </trkpt>
      <trkpt lat="40.90279" lon="-4.01515">
        <ele>1140.0</ele>
      </trkpt>
      <trkpt lat="40.90059" lon="-4.00975">
        <ele>1165.0</ele>
      </trkpt>
      <trkpt lat="40.90034" lon="-4.00943">
        <ele>1168.0</ele>
      </trkpt>
      <trkpt lat="40.90013" lon="-4.00955">
        <ele>1169.0</ele>
      </trkpt>
      <trkpt lat="40.89937" lon="-4.01162">
        <ele>1162.0</ele>
      </trkpt>
      <trkpt lat="40.89898" lon="-4.01199">
        <ele>1164.0</ele>
      </trkpt>
      <trkpt lat="40.89845" lon="-4.01224">
        <ele>1166.0</ele>
      </trkpt>
      <trkpt lat="40.897" lon="-4.01234">
        <ele>1168.0</ele>
      </trkpt>
      <trkpt lat="40.89488" lon="-4.01186">
        <ele>1175.0</ele>
      </trkpt>
      <trkpt lat="40.89113" lon="-4.01284">
        <ele>1179.0</ele>
      </trkpt>
      <trkpt lat="40.89073" lon="-4.01311">
        <ele>1180.0</ele>
      </trkpt>
      <trkpt lat="40.88973" lon="-4.0142">
        <ele>1180.0</ele>
      </trkpt>
      <trkpt lat="40.88682" lon="-4.01666">
        <ele>1178.0</ele>
      </trkpt>
      <trkpt lat="40.8841" lon="-4.01811">
        <ele>1192.0</ele>
      </trkpt>
      <trkpt lat="40.8837" lon="-4.01886">
        <ele>1188.0</ele>
      </trkpt>
      <trkpt lat="40.88312" lon="-4.01925">
        <ele>1189.0</ele>
      </trkpt>
      <trkpt lat="40.88181" lon="-4.01872">
        <ele>1196.0</ele>
      </trkpt>
      <trkpt lat="40.88047" lon="-4.01838">
        <ele>1198.0</ele>
      </trkpt>
      <trkpt lat="40.87818" lon="-4.0184">
        <ele>1201.0</ele>
      </trkpt>
      <trkpt lat="40.87632" lon="-4.02049">
        <ele>1189.0</ele>
      </trkpt>
      <trkpt lat="40.87222" lon="-4.02158">
        <ele>1213.0</ele>
      </trkpt>
      <trkpt lat="40.87047" lon="-4.02231">
        <ele>1220.0</ele>
      </trkpt>
      <trkpt lat="40.86889" lon="-4.02236">
        <ele>1221.0</ele>
      </trkpt>
      <trkpt lat="40.86861" lon="-4.0226">
        <ele>1220.0</ele>
      </trkpt>
      <trkpt lat="40.86822" lon="-4.02327">
        <ele>1215.0</ele>
      </trkpt>
      <trkpt lat="40.86748" lon="-4.02374">
        <ele>1214.0</ele>
      </trkpt>
      <trkpt lat="40.8659" lon="-4.02547">
        <ele>1219.0</ele>
      </trkpt>
      <trkpt lat="40.86498" lon="-4.0269">
        <ele>1222.0</ele>
      </trkpt>
      <trkpt lat="40.8645" lon="-4.02726">
        <ele>1218.0</ele>
      </trkpt>
      <trkpt lat="40.86404" lon="-4.02724">
        <ele>1217.0</ele>
      </trkpt>
      <trkpt lat="40.86269" lon="-4.02645">
        <ele>1217.0</ele>
      </trkpt>
      <trkpt lat="40.86058" lon="-4.02656">
        <ele>1220.0</ele>
      </trkpt>
      <trkpt lat="40.85877" lon="-4.02622">
        <ele>1225.0</ele>
      </trkpt>
      <trkpt lat="40.85671" lon="-4.02673">
        <ele>1226.0</ele>
      </trkpt>
      <trkpt lat="40.85563" lon="-4.02672">
        <ele>1230.0</ele>
      </trkpt>
      <trkpt lat="40.85484" lon="-4.0262">
        <ele>1238.0</ele>
      </trkpt>
      <trkpt lat="40.85419" lon="-4.02652">
        <ele>1240.0</ele>
      </trkpt>
      <trkpt lat="40.85397" lon="-4.02731">
        <ele>1235.0</ele>
      </trkpt>
      <trkpt lat="40.85372" lon="-4.02761">
        <ele>1235.0</ele>
      </trkpt>
      <trkpt lat="40.85296" lon="-4.02795">
        <ele>1237.0</ele>
      </trkpt>
      <trkpt lat="40.85227" lon="-4.02798">
        <ele>1239.0</ele>
      </trkpt>
      <trkpt lat="40.85186" lon="-4.02779">
        <ele>1241.0</ele>
      </trkpt>
      <trkpt lat="40.85035" lon="-4.02644">
        <ele>1250.0</ele>
      </trkpt>
      <trkpt lat="40.84703" lon="-4.02513">
        <ele>1258.0</ele>
      </trkpt>
      <trkpt lat="40.84612" lon="-4.02502">
        <ele>1261.0</ele>
      </trkpt>
      <trkpt lat="40.8447" lon="-4.02535">
        <ele>1269.0</ele>
      </trkpt>
      <trkpt lat="40.84127" lon="-4.02573">
        <ele>1277.0</ele>
      </trkpt>
      <trkpt lat="40.83999" lon="-4.02618">
        <ele>1271.0</ele>
      </trkpt>
      <trkpt lat="40.83803" lon="-4.02511">
        <ele>1285.0</ele>
      </trkpt>
      <trkpt lat="40.83647" lon="-4.02509">
        <ele>1292.0</ele>
      </trkpt>
      <trkpt lat="40.83509" lon="-4.02466">
        <ele>1299.0</ele>
      </trkpt>
      <trkpt lat="40.83338" lon="-4.02437">
        <ele>1299.0</ele>
      </trkpt>
      <trkpt lat="40.83146" lon="-4.02333">
        <ele>1307.0</ele>
      </trkpt>
      <trkpt lat="40.83037" lon="-4.02315">
        <ele>1313.0</ele>
      </trkpt>
      <trkpt lat="40.82934" lon="-4.02274">
        <ele>1318.0</ele>
      </trkpt>
      <trkpt lat="40.82666" lon="-4.02255">
        <ele>1319.0</ele>
      </trkpt>
      <trkpt lat="40.82616" lon="-4.02199">
        <ele>1322.0</ele>
      </trkpt>
      <trkpt lat="40.82578" lon="-4.02086">
        <ele>1329.0</ele>
      </trkpt>
      <trkpt lat="40.82539" lon="-4.0202">
        <ele>1337.0</ele>
      </trkpt>
      <trkpt lat="40.82424" lon="-4.01943">
        <ele>1335.0</ele>
      </trkpt>
      <trkpt lat="40.82379" lon="-4.01897">
        <ele>1337.0</ele>
      </trkpt>
      <trkpt lat="40.82318" lon="-4.01728">
        <ele>1342.0</ele>
      </trkpt>
      <trkpt lat="40.82205" lon="-4.01669">
        <ele>1348.0</ele>
      </trkpt>
      <trkpt lat="40.82084" lon="-4.01674">
        <ele>1365.0</ele>
      </trkpt>
      <trkpt lat="40.8197" lon="-4.0159">
        <ele>1377.0</ele>
      </trkpt>
      <trkpt lat="40.81853" lon="-4.01589">
        <ele>1390.0</ele>
      </trkpt>
      <trkpt lat="40.81816" lon="-4.01563">
        <ele>1394.0</ele>
      </trkpt>
      <trkpt lat="40.81764" lon="-4.01494">
        <ele>1401.0</ele>
      </trkpt>
      <trkpt lat="40.81681" lon="-4.01453">
        <ele>1415.0</ele>
      </trkpt>
      <trkpt lat="40.81654" lon="-4.01454">
        <ele>1420.0</ele>
      </trkpt>
      <trkpt lat="40.81644" lon="-4.01474">
        <ele>1424.0</ele>
      </trkpt>
      <trkpt lat="40.81689" lon="-4.01571">
        <ele>1421.0</ele>
      </trkpt>
      <trkpt lat="40.81712" lon="-4.01666">
        <ele>1423.0</ele>
      </trkpt>
      <trkpt lat="40.81706" lon="-4.01736">
        <ele>1424.0</ele>
      </trkpt>
      <trkpt lat="40.81677" lon="-4.01795">
        <ele>1425.0</ele>
      </trkpt>
      <trkpt lat="40.81643" lon="-4.01807">
        <ele>1428.0</ele>
      </trkpt>
      <trkpt lat="40.81584" lon="-4.01732">
        <ele>1444.0</ele>
      </trkpt>
      <trkpt lat="40.8155" lon="-4.01723">
        <ele>1451.0</ele>
      </trkpt>
      <trkpt lat="40.81444" lon="-4.01809">
        <ele>1461.0</ele>
      </trkpt>
      <trkpt lat="40.81369" lon="-4.01917">
        <ele>1463.0</ele>
      </trkpt>
      <trkpt lat="40.81364" lon="-4.01884">
        <ele>1472.0</ele>
      </trkpt>
      <trkpt lat="40.81443" lon="-4.01679">
        <ele>1484.0</ele>
      </trkpt>
      <trkpt lat="40.81448" lon="-4.01564">
        <ele>1485.0</ele>
      </trkpt>
      <trkpt lat="40.81431" lon="-4.01571">
        <ele>1490.0</ele>
      </trkpt>
      <trkpt lat="40.8142" lon="-4.01652">
        <ele>1493.0</ele>
      </trkpt>
      <trkpt lat="40.81335" lon="-4.01783">
        <ele>1504.0</ele>
      </trkpt>
      <trkpt lat="40.81304" lon="-4.0182">
        <ele>1503.0</ele>
      </trkpt>
      <trkpt lat="40.81246" lon="-4.01846">
        <ele>1510.0</ele>
      </trkpt>
      <trkpt lat="40.81244" lon="-4.01824">
        <ele>1516.0</ele>
      </trkpt>
      <trkpt lat="40.81291" lon="-4.0179">
        <ele>1512.0</ele>
      </trkpt>
      <trkpt lat="40.81311" lon="-4.01757">
        <ele>1515.0</ele>
      </trkpt>
      <trkpt lat="40.81335" lon="-4.01666">
        <ele>1519.0</ele>
      </trkpt>
      <trkpt lat="40.81325" lon="-4.01592">
        <ele>1523.0</ele>
      </trkpt>
      <trkpt lat="40.81246" lon="-4.01456">
        <ele>1534.0</ele>
      </trkpt>
      <trkpt lat="40.8121" lon="-4.01436">
        <ele>1537.0</ele>
      </trkpt>
      <trkpt lat="40.81143" lon="-4.01431">
        <ele>1546.0</ele>
      </trkpt>
      <trkpt lat="40.81146" lon="-4.01447">
        <ele>1549.0</ele>
      </trkpt>
      <trkpt lat="40.812" lon="-4.01464">
        <ele>1544.0</ele>
      </trkpt>
      <trkpt lat="40.81226" lon="-4.01512">
        <ele>1547.0</ele>
      </trkpt>
      <trkpt lat="40.81231" lon="-4.01588">
        <ele>1551.0</ele>
      </trkpt>
      <trkpt lat="40.81203" lon="-4.0165">
        <ele>1554.0</ele>
      </trkpt>
      <trkpt lat="40.81193" lon="-4.01637">
        <ele>1557.0</ele>
      </trkpt>
      <trkpt lat="40.81191" lon="-4.01577">
        <ele>1560.0</ele>
      </trkpt>
      <trkpt lat="40.81159" lon="-4.01533">
        <ele>1563.0</ele>
      </trkpt>
      <trkpt lat="40.81035" lon="-4.01515">
        <ele>1579.0</ele>
      </trkpt>
      <trkpt lat="40.8094" lon="-4.01519">
        <ele>1596.0</ele>
      </trkpt>
      <trkpt lat="40.80892" lon="-4.01503">
        <ele>1607.0</ele>
      </trkpt>
      <trkpt lat="40.80856" lon="-4.01393">
        <ele>1607.0</ele>
      </trkpt>
      <trkpt lat="40.8081" lon="-4.01315">
        <ele>1623.0</ele>
      </trkpt>
      <trkpt lat="40.80806" lon="-4.01273">
        <ele>1625.0</ele>
      </trkpt>
      <trkpt lat="40.80863" lon="-4.01134">
        <ele>1622.0</ele>
      </trkpt>
      <trkpt lat="40.80883" lon="-4.00905">
        <ele>1641.0</ele>
      </trkpt>
      <trkpt lat="40.80983" lon="-4.00691">
        <ele>1648.0</ele>
      </trkpt>
      <trkpt lat="40.80981" lon="-4.00627">
        <ele>1649.0</ele>
      </trkpt>
      <trkpt lat="40.80954" lon="-4.00586">
        <ele>1652.0</ele>
      </trkpt>
      <trkpt lat="40.80787" lon="-4.00567">
        <ele>1668.0</ele>
      </trkpt>
      <trkpt lat="40.80676" lon="-4.0059">
        <ele>1679.0</ele>
      </trkpt>
      <trkpt lat="40.80539" lon="-4.00596">
        <ele>1693.0</ele>
      </trkpt>
      <trkpt lat="40.80391" lon="-4.0064">
        <ele>1715.0</ele>
      </trkpt>
      <trkpt lat="40.80273" lon="-4.00618">
        <ele>1713.0</ele>
      </trkpt>
      <trkpt lat="40.8024" lon="-4.00635">
        <ele>1718.0</ele>
      </trkpt>
      <trkpt lat="40.80179" lon="-4.00724">
        <ele>1735.0</ele>
      </trkpt>
      <trkpt lat="40.8012" lon="-4.00761">
        <ele>1750.0</ele>
      </trkpt>
      <trkpt lat="40.79874" lon="-4.00603">
        <ele>1755.0</ele>
      </trkpt>
      <trkpt lat="40.7978" lon="-4.00574">
        <ele>1757.0</ele>
      </trkpt>
      <trkpt lat="40.79744" lon="-4.0059">
        <ele>1762.0</ele>
      </trkpt>
      <trkpt lat="40.79671" lon="-4.0067">
        <ele>1787.0</ele>
      </trkpt>
      <trkpt lat="40.79552" lon="-4.00642">
        <ele>1783.0</ele>
      </trkpt>
      <trkpt lat="40.79504" lon="-4.00653">
        <ele>1789.0</ele>
      </trkpt>
      <trkpt lat="40.79468" lon="-4.00682">
        <ele>1794.0</ele>
      </trkpt>
      <trkpt lat="40.79381" lon="-4.00803">
        <ele>1818.0</ele>
      </trkpt>
      <trkpt lat="40.79301" lon="-4.00827">
        <ele>1826.0</ele>
      </trkpt>
      <trkpt lat="40.79257" lon="-4.00806">
        <ele>1825.0</ele>
      </trkpt>
      <trkpt lat="40.79077" lon="-4.00621">
        <ele>1839.0</ele>
      </trkpt>
      <trkpt lat="40.78942" lon="-4.00409">
        <ele>1850.0</ele>
      </trkpt>
      <trkpt lat="40.78879" lon="-4.00357">
        <ele>1857.0</ele>
      </trkpt>
      <trkpt lat="40.78885" lon="-4.00327">
        <ele>1855.0</ele>
      </trkpt>
      <trkpt lat="40.78929" lon="-4.00273">
        <ele>1850.0</ele>
      </trkpt>
      <trkpt lat="40.79048" lon="-3.99925">
        <ele>1850.0</ele>
      </trkpt>
      <trkpt lat="40.79079" lon="-3.99775">
        <ele>1852.0</ele>
      </trkpt>
      <trkpt lat="40.791" lon="-3.99724">
        <ele>1855.0</ele>
      </trkpt>
      <trkpt lat="40.79134" lon="-3.99694">
        <ele>1858.0</ele>
      </trkpt>
      <trkpt lat="40.79238" lon="-3.99711">
        <ele>1844.0</ele>
      </trkpt>
      <trkpt lat="40.79299" lon="-3.99693">
        <ele>1840.0</ele>
      </trkpt>
      <trkpt lat="40.79363" lon="-3.99633">
        <ele>1839.0</ele>
      </trkpt>
      <trkpt lat="40.79442" lon="-3.99483">
        <ele>1839.0</ele>
      </trkpt>
      <trkpt lat="40.79449" lon="-3.9942">
        <ele>1839.0</ele>
      </trkpt>
      <trkpt lat="40.79429" lon="-3.99359">
        <ele>1835.0</ele>
      </trkpt>
      <trkpt lat="40.79368" lon="-3.99253">
        <ele>1833.0</ele>
      </trkpt>
      <trkpt lat="40.79292" lon="-3.99206">
        <ele>1845.0</ele>
      </trkpt>
      <trkpt lat="40.79221" lon="-3.98997">
        <ele>1843.0</ele>
      </trkpt>
      <trkpt lat="40.79295" lon="-3.98891">
        <ele>1835.0</ele>
      </trkpt>
      <trkpt lat="40.79351" lon="-3.98719">
        <ele>1850.0</ele>
      </trkpt>
      <trkpt lat="40.79383" lon="-3.98713">
        <ele>1849.0</ele>
      </trkpt>
      <trkpt lat="40.79478" lon="-3.98772">
        <ele>1835.0</ele>
      </trkpt>
      <trkpt lat="40.79545" lon="-3.98759">
        <ele>1832.0</ele>
      </trkpt>
      <trkpt lat="40.79572" lon="-3.98725">
        <ele>1833.0</ele>
      </trkpt>
      <trkpt lat="40.79625" lon="-3.98563">
        <ele>1848.0</ele>
      </trkpt>
      <trkpt lat="40.79679" lon="-3.98531">
        <ele>1848.0</ele>
      </trkpt>
      <trkpt lat="40.79769" lon="-3.98524">
        <ele>1850.0</ele>
      </trkpt>
      <trkpt lat="40.79844" lon="-3.98587">
        <ele>1838.0</ele>
      </trkpt>
      <trkpt lat="40.79999" lon="-3.9855">
        <ele>1844.0</ele>
      </trkpt>
      <trkpt lat="40.80101" lon="-3.98547">
        <ele>1834.0</ele>
      </trkpt>
      <trkpt lat="40.80135" lon="-3.98512">
        <ele>1833.0</ele>
      </trkpt>
      <trkpt lat="40.80189" lon="-3.98379">
        <ele>1842.0</ele>
      </trkpt>
      <trkpt lat="40.80309" lon="-3.98244">
        <ele>1836.0</ele>
      </trkpt>
      <trkpt lat="40.80378" lon="-3.98091">
        <ele>1845.0</ele>
      </trkpt>
      <trkpt lat="40.80436" lon="-3.98031">
        <ele>1848.0</ele>
      </trkpt>
      <trkpt lat="40.80588" lon="-3.98039">
        <ele>1833.0</ele>
      </trkpt>
      <trkpt lat="40.80674" lon="-3.98002">
        <ele>1845.0</ele>
      </trkpt>
      <trkpt lat="40.80849" lon="-3.98132">
        <ele>1833.0</ele>
      </trkpt>
      <trkpt lat="40.80955" lon="-3.9817">
        <ele>1828.0</ele>
      </trkpt>
      <trkpt lat="40.81001" lon="-3.98173">
        <ele>1826.0</ele>
      </trkpt>
      <trkpt lat="40.81031" lon="-3.98158">
        <ele>1824.0</ele>
      </trkpt>
      <trkpt lat="40.81059" lon="-3.98122">
        <ele>1826.0</ele>
      </trkpt>
      <trkpt lat="40.81101" lon="-3.98024">
        <ele>1828.0</ele>
      </trkpt>
      <trkpt lat="40.81139" lon="-3.97778">
        <ele>1841.0</ele>
      </trkpt>
      <trkpt lat="40.81211" lon="-3.97746">
        <ele>1833.0</ele>
      </trkpt>
      <trkpt lat="40.81339" lon="-3.97724">
        <ele>1824.0</ele>
      </trkpt>
      <trkpt lat="40.8145" lon="-3.9757">
        <ele>1823.0</ele>
      </trkpt>
      <trkpt lat="40.81451" lon="-3.97475">
        <ele>1822.0</ele>
      </trkpt>
      <trkpt lat="40.81365" lon="-3.97399">
        <ele>1838.0</ele>
      </trkpt>
      <trkpt lat="40.81348" lon="-3.97353">
        <ele>1838.0</ele>
      </trkpt>
      <trkpt lat="40.81343" lon="-3.97248">
        <ele>1834.0</ele>
      </trkpt>
      <trkpt lat="40.81354" lon="-3.97144">
        <ele>1833.0</ele>
      </trkpt>
      <trkpt lat="40.8139" lon="-3.97009">
        <ele>1836.0</ele>
      </trkpt>
      <trkpt lat="40.81465" lon="-3.96943">
        <ele>1831.0</ele>
      </trkpt>
      <trkpt lat="40.81597" lon="-3.96766">
        <ele>1843.0</ele>
      </trkpt>
      <trkpt lat="40.81627" lon="-3.9676">
        <ele>1844.0</ele>
      </trkpt>
      <trkpt lat="40.81747" lon="-3.96807">
        <ele>1833.0</ele>
      </trkpt>
      <trkpt lat="40.81801" lon="-3.96805">
        <ele>1832.0</ele>
      </trkpt>
      <trkpt lat="40.81935" lon="-3.96696">
        <ele>1839.0</ele>
      </trkpt>
      <trkpt lat="40.82044" lon="-3.96647">
        <ele>1833.0</ele>
      </trkpt>
      <trkpt lat="40.82103" lon="-3.96587">
        <ele>1832.0</ele>
      </trkpt>
      <trkpt lat="40.82309" lon="-3.96295">
        <ele>1835.0</ele>
      </trkpt>
      <trkpt lat="40.82334" lon="-3.96183">
        <ele>1833.0</ele>
      </trkpt>
      <trkpt lat="40.82336" lon="-3.95938">
        <ele>1823.0</ele>
      </trkpt>
      <trkpt lat="40.823" lon="-3.95745">
        <ele>1808.0</ele>
      </trkpt>
      <trkpt lat="40.82293" lon="-3.95624">
        <ele>1801.0</ele>
      </trkpt>
      <trkpt lat="40.8237" lon="-3.95356">
        <ele>1790.0</ele>
      </trkpt>
      <trkpt lat="40.82333" lon="-3.95254">
        <ele>1779.0</ele>
      </trkpt>
      <trkpt lat="40.82317" lon="-3.95238">
        <ele>1777.0</ele>
      </trkpt>
      <trkpt lat="40.82291" lon="-3.95234">
        <ele>1775.0</ele>
      </trkpt>
      <trkpt lat="40.82202" lon="-3.95267">
        <ele>1764.0</ele>
      </trkpt>
      <trkpt lat="40.8216" lon="-3.9524">
        <ele>1760.0</ele>
      </trkpt>
      <trkpt lat="40.82145" lon="-3.95098">
        <ele>1755.0</ele>
      </trkpt>
      <trkpt lat="40.82168" lon="-3.94947">
        <ele>1746.0</ele>
      </trkpt>
      <trkpt lat="40.82209" lon="-3.94844">
        <ele>1739.0</ele>
      </trkpt>
      <trkpt lat="40.82284" lon="-3.94787">
        <ele>1742.0</ele>
      </trkpt>
      <trkpt lat="40.82347" lon="-3.94649">
        <ele>1725.0</ele>
      </trkpt>
      <trkpt lat="40.82427" lon="-3.94554">
        <ele>1711.0</ele>
      </trkpt>
      <trkpt lat="40.8247" lon="-3.94544">
        <ele>1709.0</ele>
      </trkpt>
      <trkpt lat="40.82573" lon="-3.94563">
        <ele>1709.0</ele>
      </trkpt>
      <trkpt lat="40.82645" lon="-3.9458">
        <ele>1704.0</ele>
      </trkpt>
      <trkpt lat="40.82689" lon="-3.94619">
        <ele>1712.0</ele>
      </trkpt>
      <trkpt lat="40.82707" lon="-3.94613">
        <ele>1713.0</ele>
      </trkpt>
      <trkpt lat="40.82738" lon="-3.94462">
        <ele>1695.0</ele>
      </trkpt>
      <trkpt lat="40.827" lon="-3.94187">
        <ele>1673.0</ele>
      </trkpt>
      <trkpt lat="40.82711" lon="-3.94032">
        <ele>1663.0</ele>
      </trkpt>
      <trkpt lat="40.82728" lon="-3.93997">
        <ele>1661.0</ele>
      </trkpt>
      <trkpt lat="40.82776" lon="-3.9398">
        <ele>1667.0</ele>
      </trkpt>
      <trkpt lat="40.82804" lon="-3.93821">
        <ele>1644.0</ele>
      </trkpt>
      <trkpt lat="40.82822" lon="-3.93801">
        <ele>1645.0</ele>
      </trkpt>
      <trkpt lat="40.82881" lon="-3.93781">
        <ele>1651.0</ele>
      </trkpt>
      <trkpt lat="40.82885" lon="-3.93634">
        <ele>1632.0</ele>
      </trkpt>
      <trkpt lat="40.82915" lon="-3.93557">
        <ele>1626.0</ele>
      </trkpt>
      <trkpt lat="40.82971" lon="-3.93523">
        <ele>1620.0</ele>
      </trkpt>
      <trkpt lat="40.83093" lon="-3.93531">
        <ele>1613.0</ele>
      </trkpt>
      <trkpt lat="40.83285" lon="-3.93646">
        <ele>1615.0</ele>
      </trkpt>
      <trkpt lat="40.8331" lon="-3.93632">
        <ele>1613.0</ele>
      </trkpt>
      <trkpt lat="40.83326" lon="-3.93601">
        <ele>1608.0</ele>
      </trkpt>
      <trkpt lat="40.83322" lon="-3.93574">
        <ele>1606.0</ele>
      </trkpt>
      <trkpt lat="40.83263" lon="-3.93495">
        <ele>1601.0</ele>
      </trkpt>
      <trkpt lat="40.83193" lon="-3.93324">
        <ele>1590.0</ele>
      </trkpt>
      <trkpt lat="40.83102" lon="-3.93198">
        <ele>1572.0</ele>
      </trkpt>
      <trkpt lat="40.83022" lon="-3.93037">
        <ele>1554.0</ele>
      </trkpt>
      <trkpt lat="40.83061" lon="-3.92944">
        <ele>1553.0</ele>
      </trkpt>
      <trkpt lat="40.83123" lon="-3.92906">
        <ele>1558.0</ele>
      </trkpt>
      <trkpt lat="40.83134" lon="-3.92835">
        <ele>1547.0</ele>
      </trkpt>
      <trkpt lat="40.83188" lon="-3.92727">
        <ele>1546.0</ele>
      </trkpt>
      <trkpt lat="40.83199" lon="-3.92601">
        <ele>1536.0</ele>
      </trkpt>
      <trkpt lat="40.83217" lon="-3.92546">
        <ele>1538.0</ele>
      </trkpt>
      <trkpt lat="40.8319" lon="-3.92472">
        <ele>1529.0</ele>
      </trkpt>
      <trkpt lat="40.83155" lon="-3.92427">
        <ele>1521.0</ele>
      </trkpt>
      <trkpt lat="40.83128" lon="-3.92279">
        <ele>1510.0</ele>
      </trkpt>
      <trkpt lat="40.83169" lon="-3.9223">
        <ele>1517.0</ele>
      </trkpt>
      <trkpt lat="40.83177" lon="-3.92183">
        <ele>1516.0</ele>
      </trkpt>
      <trkpt lat="40.83132" lon="-3.9212">
        <ele>1501.0</ele>
      </trkpt>
      <trkpt lat="40.83098" lon="-3.92034">
        <ele>1491.0</ele>
      </trkpt>
      <trkpt lat="40.83073" lon="-3.91858">
        <ele>1477.0</ele>
      </trkpt>
      <trkpt lat="40.831" lon="-3.91815">
        <ele>1478.0</ele>
      </trkpt>
      <trkpt lat="40.83253" lon="-3.91696">
        <ele>1482.0</ele>
      </trkpt>
      <trkpt lat="40.83306" lon="-3.91572">
        <ele>1468.0</ele>
      </trkpt>
      <trkpt lat="40.83321" lon="-3.91402">
        <ele>1454.0</ele>
      </trkpt>
      <trkpt lat="40.83366" lon="-3.91289">
        <ele>1445.0</ele>
      </trkpt>
      <trkpt lat="40.83398" lon="-3.91277">
        <ele>1445.0</ele>
      </trkpt>
      <trkpt lat="40.83435" lon="-3.91289">
        <ele>1449.0</ele>
      </trkpt>
      <trkpt lat="40.83573" lon="-3.91283">
        <ele>1448.0</ele>
      </trkpt>
      <trkpt lat="40.83584" lon="-3.91271">
        <ele>1446.0</ele>
      </trkpt>
      <trkpt lat="40.83555" lon="-3.91173">
        <ele>1437.0</ele>
      </trkpt>
      <trkpt lat="40.83515" lon="-3.91147">
        <ele>1431.0</ele>
      </trkpt>
      <trkpt lat="40.83454" lon="-3.91071">
        <ele>1421.0</ele>
      </trkpt>
      <trkpt lat="40.83406" lon="-3.90928">
        <ele>1410.0</ele>
      </trkpt>
      <trkpt lat="40.83394" lon="-3.90674">
        <ele>1405.0</ele>
      </trkpt>
      <trkpt lat="40.83431" lon="-3.90411">
        <ele>1395.0</ele>
      </trkpt>
      <trkpt lat="40.83512" lon="-3.90162">
        <ele>1392.0</ele>
      </trkpt>
      <trkpt lat="40.83647" lon="-3.89907">
        <ele>1389.0</ele>
      </trkpt>
      <trkpt lat="40.83721" lon="-3.89734">
        <ele>1379.0</ele>
      </trkpt>
      <trkpt lat="40.83855" lon="-3.89594">
        <ele>1380.0</ele>
      </trkpt>
      <trkpt lat="40.84087" lon="-3.89203">
        <ele>1348.0</ele>
      </trkpt>
      <trkpt lat="40.84128" lon="-3.89196">
        <ele>1345.0</ele>
      </trkpt>
      <trkpt lat="40.84186" lon="-3.89271">
        <ele>1364.0</ele>
      </trkpt>
      <trkpt lat="40.84206" lon="-3.89269">
        <ele>1364.0</ele>
      </trkpt>
      <trkpt lat="40.84246" lon="-3.89176">
        <ele>1342.0</ele>
      </trkpt>
      <trkpt lat="40.84309" lon="-3.89142">
        <ele>1341.0</ele>
      </trkpt>
      <trkpt lat="40.84539" lon="-3.88892">
        <ele>1320.0</ele>
      </trkpt>
      <trkpt lat="40.84722" lon="-3.88741">
        <ele>1309.0</ele>
      </trkpt>
      <trkpt lat="40.84776" lon="-3.88626">
        <ele>1295.0</ele>
      </trkpt>
      <trkpt lat="40.84824" lon="-3.88586">
        <ele>1291.0</ele>
      </trkpt>
      <trkpt lat="40.85033" lon="-3.88599">
        <ele>1282.0</ele>
      </trkpt>
      <trkpt lat="40.85192" lon="-3.88654">
        <ele>1273.0</ele>
      </trkpt>
      <trkpt lat="40.87099" lon="-3.88358">
        <ele>1205.0</ele>
      </trkpt>
      <trkpt lat="40.87308" lon="-3.88301">
        <ele>1193.0</ele>
      </trkpt>
      <trkpt lat="40.87498" lon="-3.88103">
        <ele>1185.0</ele>
      </trkpt>
      <trkpt lat="40.87553" lon="-3.88075">
        <ele>1184.0</ele>
      </trkpt>
      <trkpt lat="40.87667" lon="-3.88143">
        <ele>1182.0</ele>
      </trkpt>
      <trkpt lat="40.88148" lon="-3.88499">
        <ele>1165.0</ele>
      </trkpt>
      <trkpt lat="40.88262" lon="-3.88641">
        <ele>1166.0</ele>
      </trkpt>
      <trkpt lat="40.88613" lon="-3.88719">
        <ele>1155.0</ele>
      </trkpt>
      <trkpt lat="40.88734" lon="-3.88674">
        <ele>1154.0</ele>
      </trkpt>
      <trkpt lat="40.88944" lon="-3.88527">
        <ele>1151.0</ele>
      </trkpt>
      <trkpt lat="40.89163" lon="-3.88431">
        <ele>1150.0</ele>
      </trkpt>
      <trkpt lat="40.89489" lon="-3.88059">
        <ele>1141.0</ele>
      </trkpt>
      <trkpt lat="40.89549" lon="-3.88024">
        <ele>1140.0</ele>
      </trkpt>
      <trkpt lat="40.89604" lon="-3.88013">
        <ele>1141.0</ele>
      </trkpt>
      <trkpt lat="40.89798" lon="-3.88028">
        <ele>1143.0</ele>
      </trkpt>
      <trkpt lat="40.89926" lon="-3.88011">
        <ele>1143.0</ele>
      </trkpt>
      <trkpt lat="40.90003" lon="-3.87967">
        <ele>1144.0</ele>
      </trkpt>
      <trkpt lat="40.90145" lon="-3.87834">
        <ele>1148.0</ele>
      </trkpt>
      <trkpt lat="40.90177" lon="-3.87829">
        <ele>1149.0</ele>
      </trkpt>
      <trkpt lat="40.90276" lon="-3.87826">
        <ele>1150.0</ele>
      </trkpt>
      <trkpt lat="40.90367" lon="-3.87961">
        <ele>1158.0</ele>
      </trkpt>
      <trkpt lat="40.90385" lon="-3.87962">
        <ele>1158.0</ele>
      </trkpt>
      <trkpt lat="40.90502" lon="-3.87859">
        <ele>1158.0</ele>
      </trkpt>
      <trkpt lat="40.90542" lon="-3.87788">
        <ele>1155.0</ele>
      </trkpt>
      <trkpt lat="40.90534" lon="-3.87782">
        <ele>1155.0</ele>
      </trkpt>
      <trkpt lat="40.90559" lon="-3.87655">
        <ele>1151.0</ele>
      </trkpt>
      <trkpt lat="40.90558" lon="-3.87437">
        <ele>1144.0</ele>
      </trkpt>
      <trkpt lat="40.90468" lon="-3.86677">
        <ele>1124.0</ele>
      </trkpt>
      <trkpt lat="40.90328" lon="-3.86352">
        <ele>1123.0</ele>
      </trkpt>
      <trkpt lat="40.90288" lon="-3.86321">
        <ele>1124.0</ele>
      </trkpt>
      <trkpt lat="40.90141" lon="-3.86258">
        <ele>1131.0</ele>
      </trkpt>
      <trkpt lat="40.89994" lon="-3.86303">
        <ele>1136.0</ele>
      </trkpt>
      <trkpt lat="40.89844" lon="-3.86316">
        <ele>1138.0</ele>
      </trkpt>
      <trkpt lat="40.89653" lon="-3.86267">
        <ele>1140.0</ele>
      </trkpt>
      <trkpt lat="40.89459" lon="-3.86162">
        <ele>1147.0</ele>
      </trkpt>
      <trkpt lat="40.8928" lon="-3.85832">
        <ele>1153.0</ele>
      </trkpt>
      <trkpt lat="40.88745" lon="-3.85054">
        <ele>1167.0</ele>
      </trkpt>
      <trkpt lat="40.88726" lon="-3.84913">
        <ele>1177.0</ele>
      </trkpt>
      <trkpt lat="40.88783" lon="-3.84348">
        <ele>1211.0</ele>
      </trkpt>
      <trkpt lat="40.88783" lon="-3.84128">
        <ele>1223.0</ele>
      </trkpt>
      <trkpt lat="40.88812" lon="-3.8394">
        <ele>1227.0</ele>
      </trkpt>
      <trkpt lat="40.88801" lon="-3.83885">
        <ele>1229.0</ele>
      </trkpt>
      <trkpt lat="40.88743" lon="-3.83773">
        <ele>1232.0</ele>
      </trkpt>
      <trkpt lat="40.88695" lon="-3.83738">
        <ele>1232.0</ele>
      </trkpt>
      <trkpt lat="40.88676" lon="-3.83741">
        <ele>1235.0</ele>
      </trkpt>
      <trkpt lat="40.88687" lon="-3.83795">
        <ele>1240.0</ele>
      </trkpt>
      <trkpt lat="40.88679" lon="-3.83811">
        <ele>1243.0</ele>
      </trkpt>
      <trkpt lat="40.88607" lon="-3.83801">
        <ele>1249.0</ele>
      </trkpt>
      <trkpt lat="40.88512" lon="-3.83822">
        <ele>1261.0</ele>
      </trkpt>
      <trkpt lat="40.88594" lon="-3.83919">
        <ele>1268.0</ele>
      </trkpt>
      <trkpt lat="40.8861" lon="-3.8398">
        <ele>1272.0</ele>
      </trkpt>
      <trkpt lat="40.8861" lon="-3.84039">
        <ele>1279.0</ele>
      </trkpt>
      <trkpt lat="40.88596" lon="-3.84035">
        <ele>1283.0</ele>
      </trkpt>
      <trkpt lat="40.88547" lon="-3.83958">
        <ele>1283.0</ele>
      </trkpt>
      <trkpt lat="40.88516" lon="-3.83942">
        <ele>1287.0</ele>
      </trkpt>
      <trkpt lat="40.88374" lon="-3.83915">
        <ele>1292.0</ele>
      </trkpt>
      <trkpt lat="40.88332" lon="-3.83932">
        <ele>1296.0</ele>
      </trkpt>
      <trkpt lat="40.88304" lon="-3.83964">
        <ele>1300.0</ele>
      </trkpt>
      <trkpt lat="40.88252" lon="-3.84117">
        <ele>1321.0</ele>
      </trkpt>
      <trkpt lat="40.88152" lon="-3.84282">
        <ele>1331.0</ele>
      </trkpt>
      <trkpt lat="40.88083" lon="-3.84458">
        <ele>1347.0</ele>
      </trkpt>
      <trkpt lat="40.88038" lon="-3.84521">
        <ele>1353.0</ele>
      </trkpt>
      <trkpt lat="40.88053" lon="-3.8453500000001">
        <ele>1356.0</ele>
      </trkpt>
      <trkpt lat="40.88013" lon="-3.84558">
        <ele>1357.0</ele>
      </trkpt>
      <trkpt lat="40.87937" lon="-3.84532">
        <ele>1359.0</ele>
      </trkpt>
      <trkpt lat="40.87858" lon="-3.84469">
        <ele>1360.0</ele>
      </trkpt>
      <trkpt lat="40.87797" lon="-3.84484">
        <ele>1374.0</ele>
      </trkpt>
      <trkpt lat="40.87761" lon="-3.84461">
        <ele>1379.0</ele>
      </trkpt>
      <trkpt lat="40.87752" lon="-3.84481">
        <ele>1382.0</ele>
      </trkpt>
      <trkpt lat="40.87764" lon="-3.84507">
        <ele>1382.0</ele>
      </trkpt>
      <trkpt lat="40.87871" lon="-3.8456">
        <ele>1371.0</ele>
      </trkpt>
      <trkpt lat="40.8789" lon="-3.84608">
        <ele>1375.0</ele>
      </trkpt>
      <trkpt lat="40.87885" lon="-3.84663">
        <ele>1381.0</ele>
      </trkpt>
      <trkpt lat="40.87847" lon="-3.84774">
        <ele>1387.0</ele>
      </trkpt>
      <trkpt lat="40.87832" lon="-3.84787">
        <ele>1390.0</ele>
      </trkpt>
      <trkpt lat="40.87824" lon="-3.8477">
        <ele>1393.0</ele>
      </trkpt>
      <trkpt lat="40.87851" lon="-3.84702">
        <ele>1387.0</ele>
      </trkpt>
      <trkpt lat="40.87852" lon="-3.84644">
        <ele>1384.0</ele>
      </trkpt>
      <trkpt lat="40.87828" lon="-3.84623">
        <ele>1386.0</ele>
      </trkpt>
      <trkpt lat="40.87717" lon="-3.84607">
        <ele>1403.0</ele>
      </trkpt>
      <trkpt lat="40.8766" lon="-3.84573">
        <ele>1413.0</ele>
      </trkpt>
      <trkpt lat="40.87631" lon="-3.84521">
        <ele>1421.0</ele>
      </trkpt>
      <trkpt lat="40.87626" lon="-3.84393">
        <ele>1424.0</ele>
      </trkpt>
      <trkpt lat="40.87637" lon="-3.84245">
        <ele>1424.0</ele>
      </trkpt>
      <trkpt lat="40.87596" lon="-3.84159">
        <ele>1422.0</ele>
      </trkpt>
      <trkpt lat="40.87538" lon="-3.84181">
        <ele>1426.0</ele>
      </trkpt>
      <trkpt lat="40.87509" lon="-3.84347">
        <ele>1444.0</ele>
      </trkpt>
      <trkpt lat="40.87437" lon="-3.84439">
        <ele>1459.0</ele>
      </trkpt>
      <trkpt lat="40.87403" lon="-3.84461">
        <ele>1468.0</ele>
      </trkpt>
      <trkpt lat="40.872" lon="-3.8443600000001">
        <ele>1465.0</ele>
      </trkpt>
      <trkpt lat="40.87085" lon="-3.84523">
        <ele>1490.0</ele>
      </trkpt>
      <trkpt lat="40.87018" lon="-3.8452600000001">
        <ele>1486.0</ele>
      </trkpt>
      <trkpt lat="40.86857" lon="-3.84576">
        <ele>1508.0</ele>
      </trkpt>
      <trkpt lat="40.8684" lon="-3.84565">
        <ele>1508.0</ele>
      </trkpt>
      <trkpt lat="40.86804" lon="-3.84487">
        <ele>1506.0</ele>
      </trkpt>
      <trkpt lat="40.86748" lon="-3.84334">
        <ele>1502.0</ele>
      </trkpt>
      <trkpt lat="40.86715" lon="-3.84309">
        <ele>1504.0</ele>
      </trkpt>
      <trkpt lat="40.86662" lon="-3.84311">
        <ele>1519.0</ele>
      </trkpt>
      <trkpt lat="40.86622" lon="-3.84242">
        <ele>1509.0</ele>
      </trkpt>
      <trkpt lat="40.86512" lon="-3.84213">
        <ele>1528.0</ele>
      </trkpt>
      <trkpt lat="40.8645" lon="-3.8416">
        <ele>1532.0</ele>
      </trkpt>
      <trkpt lat="40.86436" lon="-3.84098">
        <ele>1519.0</ele>
      </trkpt>
      <trkpt lat="40.86418" lon="-3.84073">
        <ele>1518.0</ele>
      </trkpt>
      <trkpt lat="40.86334" lon="-3.8406">
        <ele>1529.0</ele>
      </trkpt>
      <trkpt lat="40.8618" lon="-3.8415">
        <ele>1546.0</ele>
      </trkpt>
      <trkpt lat="40.86168" lon="-3.84182">
        <ele>1549.0</ele>
      </trkpt>
      <trkpt lat="40.86172" lon="-3.84228">
        <ele>1558.0</ele>
      </trkpt>
      <trkpt lat="40.86145" lon="-3.84315">
        <ele>1566.0</ele>
      </trkpt>
      <trkpt lat="40.86074" lon="-3.84442">
        <ele>1573.0</ele>
      </trkpt>
      <trkpt lat="40.85969" lon="-3.84485">
        <ele>1583.0</ele>
      </trkpt>
      <trkpt lat="40.85935" lon="-3.84471">
        <ele>1583.0</ele>
      </trkpt>
      <trkpt lat="40.85889" lon="-3.84424">
        <ele>1573.0</ele>
      </trkpt>
      <trkpt lat="40.85769" lon="-3.84463">
        <ele>1586.0</ele>
      </trkpt>
      <trkpt lat="40.85748" lon="-3.84487">
        <ele>1589.0</ele>
      </trkpt>
      <trkpt lat="40.85704" lon="-3.84592">
        <ele>1604.0</ele>
      </trkpt>
      <trkpt lat="40.85579" lon="-3.84691">
        <ele>1614.0</ele>
      </trkpt>
      <trkpt lat="40.85545" lon="-3.847">
        <ele>1617.0</ele>
      </trkpt>
      <trkpt lat="40.85459" lon="-3.84651">
        <ele>1621.0</ele>
      </trkpt>
      <trkpt lat="40.8533" lon="-3.84448">
        <ele>1627.0</ele>
      </trkpt>
      <trkpt lat="40.85225" lon="-3.84455">
        <ele>1648.0</ele>
      </trkpt>
      <trkpt lat="40.85105" lon="-3.84319">
        <ele>1648.0</ele>
      </trkpt>
      <trkpt lat="40.84981" lon="-3.84314">
        <ele>1663.0</ele>
      </trkpt>
      <trkpt lat="40.84945" lon="-3.84195">
        <ele>1659.0</ele>
      </trkpt>
      <trkpt lat="40.84894" lon="-3.8413">
        <ele>1662.0</ele>
      </trkpt>
      <trkpt lat="40.84698" lon="-3.84181">
        <ele>1678.0</ele>
      </trkpt>
      <trkpt lat="40.84645" lon="-3.84136">
        <ele>1677.0</ele>
      </trkpt>
      <trkpt lat="40.84345" lon="-3.84128">
        <ele>1683.0</ele>
      </trkpt>
      <trkpt lat="40.84299" lon="-3.84034">
        <ele>1686.0</ele>
      </trkpt>
      <trkpt lat="40.84251" lon="-3.83642">
        <ele>1696.0</ele>
      </trkpt>
      <trkpt lat="40.84082" lon="-3.83419">
        <ele>1711.0</ele>
      </trkpt>
      <trkpt lat="40.83511" lon="-3.83466">
        <ele>1746.0</ele>
      </trkpt>
      <trkpt lat="40.83459" lon="-3.83492">
        <ele>1749.0</ele>
      </trkpt>
      <trkpt lat="40.83339" lon="-3.83608">
        <ele>1752.0</ele>
      </trkpt>
      <trkpt lat="40.83074" lon="-3.83647">
        <ele>1767.0</ele>
      </trkpt>
      <trkpt lat="40.83036" lon="-3.83628">
        <ele>1768.0</ele>
      </trkpt>
      <trkpt lat="40.82892" lon="-3.83389">
        <ele>1775.0</ele>
      </trkpt>
      <trkpt lat="40.82825" lon="-3.83177">
        <ele>1780.0</ele>
      </trkpt>
      <trkpt lat="40.82818" lon="-3.83047">
        <ele>1776.0</ele>
      </trkpt>
      <trkpt lat="40.82896" lon="-3.82911">
        <ele>1759.0</ele>
      </trkpt>
      <trkpt lat="40.82968" lon="-3.82678">
        <ele>1722.0</ele>
      </trkpt>
      <trkpt lat="40.83079" lon="-3.82586">
        <ele>1725.0</ele>
      </trkpt>
      <trkpt lat="40.83146" lon="-3.82432">
        <ele>1720.0</ele>
      </trkpt>
      <trkpt lat="40.83188" lon="-3.82183">
        <ele>1705.0</ele>
      </trkpt>
      <trkpt lat="40.83161" lon="-3.82074">
        <ele>1690.0</ele>
      </trkpt>
      <trkpt lat="40.83144" lon="-3.81866">
        <ele>1670.0</ele>
      </trkpt>
      <trkpt lat="40.83173" lon="-3.81794">
        <ele>1665.0</ele>
      </trkpt>
      <trkpt lat="40.83266" lon="-3.81666">
        <ele>1650.0</ele>
      </trkpt>
      <trkpt lat="40.83356" lon="-3.81666">
        <ele>1665.0</ele>
      </trkpt>
      <trkpt lat="40.8339" lon="-3.81597">
        <ele>1657.0</ele>
      </trkpt>
      <trkpt lat="40.83389" lon="-3.81481">
        <ele>1640.0</ele>
      </trkpt>
      <trkpt lat="40.83416" lon="-3.81295">
        <ele>1629.0</ele>
      </trkpt>
      <trkpt lat="40.83422" lon="-3.81065">
        <ele>1610.0</ele>
      </trkpt>
      <trkpt lat="40.83436" lon="-3.81003">
        <ele>1604.0</ele>
      </trkpt>
      <trkpt lat="40.83487" lon="-3.80935">
        <ele>1599.0</ele>
      </trkpt>
      <trkpt lat="40.83532" lon="-3.80914">
        <ele>1595.0</ele>
      </trkpt>
      <trkpt lat="40.83581" lon="-3.80912">
        <ele>1593.0</ele>
      </trkpt>
      <trkpt lat="40.83635" lon="-3.8094">
        <ele>1590.0</ele>
      </trkpt>
      <trkpt lat="40.83732" lon="-3.81034">
        <ele>1599.0</ele>
      </trkpt>
      <trkpt lat="40.83755" lon="-3.81039">
        <ele>1597.0</ele>
      </trkpt>
      <trkpt lat="40.83811" lon="-3.80967">
        <ele>1587.0</ele>
      </trkpt>
      <trkpt lat="40.83845" lon="-3.80838">
        <ele>1565.0</ele>
      </trkpt>
      <trkpt lat="40.83872" lon="-3.80817">
        <ele>1562.0</ele>
      </trkpt>
      <trkpt lat="40.8397" lon="-3.80824">
        <ele>1577.0</ele>
      </trkpt>
      <trkpt lat="40.83992" lon="-3.80813">
        <ele>1577.0</ele>
      </trkpt>
      <trkpt lat="40.84023" lon="-3.80672">
        <ele>1546.0</ele>
      </trkpt>
      <trkpt lat="40.84143" lon="-3.80611">
        <ele>1555.0</ele>
      </trkpt>
      <trkpt lat="40.84153" lon="-3.80538">
        <ele>1547.0</ele>
      </trkpt>
      <trkpt lat="40.84102" lon="-3.8042">
        <ele>1533.0</ele>
      </trkpt>
      <trkpt lat="40.84066" lon="-3.80388">
        <ele>1527.0</ele>
      </trkpt>
      <trkpt lat="40.83968" lon="-3.80402">
        <ele>1504.0</ele>
      </trkpt>
      <trkpt lat="40.83906" lon="-3.80372">
        <ele>1498.0</ele>
      </trkpt>
      <trkpt lat="40.83626" lon="-3.80173">
        <ele>1462.0</ele>
      </trkpt>
      <trkpt lat="40.83564" lon="-3.80076">
        <ele>1465.0</ele>
      </trkpt>
      <trkpt lat="40.83478" lon="-3.8007">
        <ele>1448.0</ele>
      </trkpt>
      <trkpt lat="40.83398" lon="-3.80039">
        <ele>1440.0</ele>
      </trkpt>
      <trkpt lat="40.8313" lon="-3.79879">
        <ele>1417.0</ele>
      </trkpt>
      <trkpt lat="40.83006" lon="-3.79758">
        <ele>1409.0</ele>
      </trkpt>
      <trkpt lat="40.8289" lon="-3.79716">
        <ele>1394.0</ele>
      </trkpt>
      <trkpt lat="40.82468" lon="-3.79398">
        <ele>1362.0</ele>
      </trkpt>
      <trkpt lat="40.82341" lon="-3.79341">
        <ele>1348.0</ele>
      </trkpt>
      <trkpt lat="40.8233" lon="-3.7924">
        <ele>1345.0</ele>
      </trkpt>
      <trkpt lat="40.82349" lon="-3.79143">
        <ele>1350.0</ele>
      </trkpt>
      <trkpt lat="40.82246" lon="-3.78992">
        <ele>1328.0</ele>
      </trkpt>
      <trkpt lat="40.82175" lon="-3.78746">
        <ele>1307.0</ele>
      </trkpt>
      <trkpt lat="40.8219" lon="-3.78726">
        <ele>1305.0</ele>
      </trkpt>
      <trkpt lat="40.82236" lon="-3.78714">
        <ele>1307.0</ele>
      </trkpt>
      <trkpt lat="40.82407" lon="-3.78728">
        <ele>1305.0</ele>
      </trkpt>
      <trkpt lat="40.82518" lon="-3.78756">
        <ele>1303.0</ele>
      </trkpt>
      <trkpt lat="40.82534" lon="-3.78745">
        <ele>1301.0</ele>
      </trkpt>
      <trkpt lat="40.82536" lon="-3.7872">
        <ele>1300.0</ele>
      </trkpt>
      <trkpt lat="40.82444" lon="-3.78592">
        <ele>1286.0</ele>
      </trkpt>
      <trkpt lat="40.822" lon="-3.78444">
        <ele>1258.0</ele>
      </trkpt>
      <trkpt lat="40.82046" lon="-3.78325">
        <ele>1241.0</ele>
      </trkpt>
      <trkpt lat="40.81962" lon="-3.78302">
        <ele>1231.0</ele>
      </trkpt>
      <trkpt lat="40.81883" lon="-3.78256">
        <ele>1225.0</ele>
      </trkpt>
      <trkpt lat="40.81695" lon="-3.78104">
        <ele>1211.0</ele>
      </trkpt>
      <trkpt lat="40.81649" lon="-3.78083">
        <ele>1206.0</ele>
      </trkpt>
      <trkpt lat="40.81528" lon="-3.78073">
        <ele>1188.0</ele>
      </trkpt>
      <trkpt lat="40.81471" lon="-3.78002">
        <ele>1186.0</ele>
      </trkpt>
      <trkpt lat="40.8142" lon="-3.77905">
        <ele>1181.0</ele>
      </trkpt>
      <trkpt lat="40.81408" lon="-3.77791">
        <ele>1189.0</ele>
      </trkpt>
      <trkpt lat="40.81204" lon="-3.77617">
        <ele>1169.0</ele>
      </trkpt>
      <trkpt lat="40.81149" lon="-3.77534">
        <ele>1162.0</ele>
      </trkpt>
      <trkpt lat="40.8116" lon="-3.77216">
        <ele>1150.0</ele>
      </trkpt>
      <trkpt lat="40.81205" lon="-3.77075">
        <ele>1148.0</ele>
      </trkpt>
      <trkpt lat="40.81252" lon="-3.76973">
        <ele>1145.0</ele>
      </trkpt>
      <trkpt lat="40.81303" lon="-3.76878">
        <ele>1143.0</ele>
      </trkpt>
      <trkpt lat="40.81323" lon="-3.76948">
        <ele>1149.0</ele>
      </trkpt>
      <trkpt lat="40.8136" lon="-3.76999">
        <ele>1157.0</ele>
      </trkpt>
      <trkpt lat="40.81481" lon="-3.76969">
        <ele>1171.0</ele>
      </trkpt>
      <trkpt lat="40.81511" lon="-3.76899">
        <ele>1173.0</ele>
      </trkpt>
      <trkpt lat="40.81625" lon="-3.76486">
        <ele>1183.0</ele>
      </trkpt>
      <trkpt lat="40.81658" lon="-3.76404">
        <ele>1184.0</ele>
      </trkpt>
      <trkpt lat="40.81818" lon="-3.76314">
        <ele>1194.0</ele>
      </trkpt>
      <trkpt lat="40.81929" lon="-3.7631">
        <ele>1211.0</ele>
      </trkpt>
      <trkpt lat="40.81979" lon="-3.76287">
        <ele>1217.0</ele>
      </trkpt>
      <trkpt lat="40.82043" lon="-3.76136">
        <ele>1220.0</ele>
      </trkpt>
      <trkpt lat="40.82061" lon="-3.76034">
        <ele>1222.0</ele>
      </trkpt>
      <trkpt lat="40.82109" lon="-3.76008">
        <ele>1224.0</ele>
      </trkpt>
      <trkpt lat="40.82303" lon="-3.7612">
        <ele>1241.0</ele>
      </trkpt>
      <trkpt lat="40.82489" lon="-3.76277">
        <ele>1252.0</ele>
      </trkpt>
      <trkpt lat="40.82854" lon="-3.76543">
        <ele>1254.0</ele>
      </trkpt>
      <trkpt lat="40.83013" lon="-3.76703">
        <ele>1261.0</ele>
      </trkpt>
      <trkpt lat="40.83148" lon="-3.76809">
        <ele>1255.0</ele>
      </trkpt>
      <trkpt lat="40.83261" lon="-3.76974">
        <ele>1268.0</ele>
      </trkpt>
      <trkpt lat="40.83309" lon="-3.76994">
        <ele>1270.0</ele>
      </trkpt>
      <trkpt lat="40.83378" lon="-3.76987">
        <ele>1267.0</ele>
      </trkpt>
      <trkpt lat="40.83555" lon="-3.77008">
        <ele>1268.0</ele>
      </trkpt>
      <trkpt lat="40.83588" lon="-3.76995">
        <ele>1267.0</ele>
      </trkpt>
      <trkpt lat="40.83735" lon="-3.76871">
        <ele>1258.0</ele>
      </trkpt>
      <trkpt lat="40.83827" lon="-3.76828">
        <ele>1258.0</ele>
      </trkpt>
      <trkpt lat="40.83931" lon="-3.76733">
        <ele>1256.0</ele>
      </trkpt>
      <trkpt lat="40.84129" lon="-3.76704">
        <ele>1254.0</ele>
      </trkpt>
      <trkpt lat="40.84211" lon="-3.76654">
        <ele>1252.0</ele>
      </trkpt>
      <trkpt lat="40.84325" lon="-3.76625">
        <ele>1254.0</ele>
      </trkpt>
      <trkpt lat="40.84372" lon="-3.76542">
        <ele>1251.0</ele>
      </trkpt>
      <trkpt lat="40.84404" lon="-3.76517">
        <ele>1252.0</ele>
      </trkpt>
      <trkpt lat="40.84494" lon="-3.76528">
        <ele>1260.0</ele>
      </trkpt>
      <trkpt lat="40.84637" lon="-3.76466">
        <ele>1266.0</ele>
      </trkpt>
      <trkpt lat="40.84699" lon="-3.76491">
        <ele>1270.0</ele>
      </trkpt>
      <trkpt lat="40.84828" lon="-3.76637">
        <ele>1294.0</ele>
      </trkpt>
      <trkpt lat="40.84846" lon="-3.76636">
        <ele>1295.0</ele>
      </trkpt>
      <trkpt lat="40.84895" lon="-3.76591">
        <ele>1292.0</ele>
      </trkpt>
      <trkpt lat="40.85002" lon="-3.76559">
        <ele>1297.0</ele>
      </trkpt>
      <trkpt lat="40.85084" lon="-3.76598">
        <ele>1313.0</ele>
      </trkpt>
      <trkpt lat="40.85169" lon="-3.76611">
        <ele>1320.0</ele>
      </trkpt>
      <trkpt lat="40.85368" lon="-3.76705">
        <ele>1350.0</ele>
      </trkpt>
      <trkpt lat="40.85437" lon="-3.76692">
        <ele>1355.0</ele>
      </trkpt>
      <trkpt lat="40.85491" lon="-3.76623">
        <ele>1352.0</ele>
      </trkpt>
      <trkpt lat="40.85542" lon="-3.76593">
        <ele>1355.0</ele>
      </trkpt>
      <trkpt lat="40.85582" lon="-3.7659">
        <ele>1360.0</ele>
      </trkpt>
      <trkpt lat="40.8568" lon="-3.76628">
        <ele>1379.0</ele>
      </trkpt>
      <trkpt lat="40.85754" lon="-3.76577">
        <ele>1376.0</ele>
      </trkpt>
      <trkpt lat="40.85897" lon="-3.76553">
        <ele>1392.0</ele>
      </trkpt>
      <trkpt lat="40.85943" lon="-3.76575">
        <ele>1406.0</ele>
      </trkpt>
      <trkpt lat="40.86059" lon="-3.76459">
        <ele>1401.0</ele>
      </trkpt>
      <trkpt lat="40.86207" lon="-3.76406">
        <ele>1415.0</ele>
      </trkpt>
      <trkpt lat="40.86329" lon="-3.76444">
        <ele>1442.0</ele>
      </trkpt>
      <trkpt lat="40.86497" lon="-3.76312">
        <ele>1454.0</ele>
      </trkpt>
      <trkpt lat="40.86564" lon="-3.76237">
        <ele>1459.0</ele>
      </trkpt>
      <trkpt lat="40.86605" lon="-3.75983">
        <ele>1468.0</ele>
      </trkpt>
      <trkpt lat="40.86621" lon="-3.75968">
        <ele>1472.0</ele>
      </trkpt>
      <trkpt lat="40.86635" lon="-3.75979">
        <ele>1476.0</ele>
      </trkpt>
      <trkpt lat="40.86642" lon="-3.76061">
        <ele>1477.0</ele>
      </trkpt>
      <trkpt lat="40.86702" lon="-3.76226">
        <ele>1491.0</ele>
      </trkpt>
      <trkpt lat="40.86754" lon="-3.76323">
        <ele>1506.0</ele>
      </trkpt>
      <trkpt lat="40.8682" lon="-3.76368">
        <ele>1515.0</ele>
      </trkpt>
      <trkpt lat="40.86866" lon="-3.76364">
        <ele>1515.0</ele>
      </trkpt>
      <trkpt lat="40.86894" lon="-3.76379">
        <ele>1517.0</ele>
      </trkpt>
      <trkpt lat="40.87042" lon="-3.76621">
        <ele>1526.0</ele>
      </trkpt>
      <trkpt lat="40.8708" lon="-3.76656">
        <ele>1524.0</ele>
      </trkpt>
      <trkpt lat="40.8722" lon="-3.76722">
        <ele>1512.0</ele>
      </trkpt>
      <trkpt lat="40.8727" lon="-3.76778">
        <ele>1504.0</ele>
      </trkpt>
      <trkpt lat="40.87293" lon="-3.76839">
        <ele>1500.0</ele>
      </trkpt>
      <trkpt lat="40.87327" lon="-3.76867">
        <ele>1492.0</ele>
      </trkpt>
      <trkpt lat="40.8736" lon="-3.7695">
        <ele>1490.0</ele>
      </trkpt>
      <trkpt lat="40.874" lon="-3.7713">
        <ele>1486.0</ele>
      </trkpt>
      <trkpt lat="40.875" lon="-3.77348">
        <ele>1461.0</ele>
      </trkpt>
      <trkpt lat="40.87561" lon="-3.77391">
        <ele>1445.0</ele>
      </trkpt>
      <trkpt lat="40.87585" lon="-3.77397">
        <ele>1440.0</ele>
      </trkpt>
      <trkpt lat="40.8765" lon="-3.77377">
        <ele>1435.0</ele>
      </trkpt>
      <trkpt lat="40.87669" lon="-3.77394">
        <ele>1432.0</ele>
      </trkpt>
      <trkpt lat="40.87662" lon="-3.77442">
        <ele>1429.0</ele>
      </trkpt>
      <trkpt lat="40.87574" lon="-3.77535">
        <ele>1432.0</ele>
      </trkpt>
      <trkpt lat="40.8755" lon="-3.7761">
        <ele>1429.0</ele>
      </trkpt>
      <trkpt lat="40.87486" lon="-3.77738">
        <ele>1422.0</ele>
      </trkpt>
      <trkpt lat="40.87398" lon="-3.77851">
        <ele>1428.0</ele>
      </trkpt>
      <trkpt lat="40.87387" lon="-3.77886">
        <ele>1429.0</ele>
      </trkpt>
      <trkpt lat="40.87394" lon="-3.77907">
        <ele>1426.0</ele>
      </trkpt>
      <trkpt lat="40.87413" lon="-3.77909">
        <ele>1422.0</ele>
      </trkpt>
      <trkpt lat="40.87432" lon="-3.77881">
        <ele>1420.0</ele>
      </trkpt>
      <trkpt lat="40.87459" lon="-3.77872">
        <ele>1416.0</ele>
      </trkpt>
      <trkpt lat="40.87565" lon="-3.77926">
        <ele>1403.0</ele>
      </trkpt>
      <trkpt lat="40.877" lon="-3.77965">
        <ele>1387.0</ele>
      </trkpt>
      <trkpt lat="40.87814" lon="-3.78045">
        <ele>1387.0</ele>
      </trkpt>
      <trkpt lat="40.87862" lon="-3.78045">
        <ele>1382.0</ele>
      </trkpt>
      <trkpt lat="40.87922" lon="-3.78021">
        <ele>1371.0</ele>
      </trkpt>
      <trkpt lat="40.87996" lon="-3.77959">
        <ele>1362.0</ele>
      </trkpt>
      <trkpt lat="40.88059" lon="-3.77873">
        <ele>1354.0</ele>
      </trkpt>
      <trkpt lat="40.88042" lon="-3.77872">
        <ele>1350.0</ele>
      </trkpt>
      <trkpt lat="40.87999" lon="-3.77919">
        <ele>1350.0</ele>
      </trkpt>
      <trkpt lat="40.87908" lon="-3.7796">
        <ele>1352.0</ele>
      </trkpt>
      <trkpt lat="40.879" lon="-3.77951">
        <ele>1351.0</ele>
      </trkpt>
      <trkpt lat="40.87906" lon="-3.77935">
        <ele>1347.0</ele>
      </trkpt>
      <trkpt lat="40.87985" lon="-3.77883">
        <ele>1341.0</ele>
      </trkpt>
      <trkpt lat="40.88056" lon="-3.77735">
        <ele>1326.0</ele>
      </trkpt>
      <trkpt lat="40.88141" lon="-3.77618">
        <ele>1319.0</ele>
      </trkpt>
      <trkpt lat="40.8841" lon="-3.77326">
        <ele>1291.0</ele>
      </trkpt>
      <trkpt lat="40.88521" lon="-3.77354">
        <ele>1292.0</ele>
      </trkpt>
      <trkpt lat="40.88652" lon="-3.77325">
        <ele>1272.0</ele>
      </trkpt>
      <trkpt lat="40.88771" lon="-3.77397">
        <ele>1259.0</ele>
      </trkpt>
      <trkpt lat="40.8879" lon="-3.77425">
        <ele>1257.0</ele>
      </trkpt>
      <trkpt lat="40.88816" lon="-3.77592">
        <ele>1252.0</ele>
      </trkpt>
      <trkpt lat="40.88845" lon="-3.7761">
        <ele>1248.0</ele>
      </trkpt>
      <trkpt lat="40.88863" lon="-3.77558">
        <ele>1249.0</ele>
      </trkpt>
      <trkpt lat="40.88871" lon="-3.77453">
        <ele>1247.0</ele>
      </trkpt>
      <trkpt lat="40.88916" lon="-3.77329">
        <ele>1239.0</ele>
      </trkpt>
      <trkpt lat="40.89036" lon="-3.77166">
        <ele>1237.0</ele>
      </trkpt>
      <trkpt lat="40.89039" lon="-3.77124">
        <ele>1239.0</ele>
      </trkpt>
      <trkpt lat="40.89015" lon="-3.76971">
        <ele>1239.0</ele>
      </trkpt>
      <trkpt lat="40.89082" lon="-3.76805">
        <ele>1241.0</ele>
      </trkpt>
      <trkpt lat="40.89102" lon="-3.76631">
        <ele>1234.0</ele>
      </trkpt>
      <trkpt lat="40.89186" lon="-3.76503">
        <ele>1226.0</ele>
      </trkpt>
      <trkpt lat="40.89225" lon="-3.76471">
        <ele>1228.0</ele>
      </trkpt>
      <trkpt lat="40.89222" lon="-3.76383">
        <ele>1219.0</ele>
      </trkpt>
      <trkpt lat="40.89235" lon="-3.76351">
        <ele>1217.0</ele>
      </trkpt>
      <trkpt lat="40.89299" lon="-3.7628">
        <ele>1221.0</ele>
      </trkpt>
      <trkpt lat="40.8944" lon="-3.76173">
        <ele>1226.0</ele>
      </trkpt>
      <trkpt lat="40.89466" lon="-3.76139">
        <ele>1226.0</ele>
      </trkpt>
      <trkpt lat="40.89502" lon="-3.76043">
        <ele>1218.0</ele>
      </trkpt>
      <trkpt lat="40.89552" lon="-3.75972">
        <ele>1215.0</ele>
      </trkpt>
      <trkpt lat="40.89581" lon="-3.75953">
        <ele>1214.0</ele>
      </trkpt>
      <trkpt lat="40.89734" lon="-3.75922">
        <ele>1216.0</ele>
      </trkpt>
      <trkpt lat="40.89794" lon="-3.75863">
        <ele>1203.0</ele>
      </trkpt>
      <trkpt lat="40.89867" lon="-3.75753">
        <ele>1184.0</ele>
      </trkpt>
      <trkpt lat="40.89888" lon="-3.75755">
        <ele>1185.0</ele>
      </trkpt>
      <trkpt lat="40.89929" lon="-3.75812">
        <ele>1192.0</ele>
      </trkpt>
      <trkpt lat="40.90013" lon="-3.75833">
        <ele>1188.0</ele>
      </trkpt>
      <trkpt lat="40.90033" lon="-3.7582">
        <ele>1187.0</ele>
      </trkpt>
      <trkpt lat="40.90033" lon="-3.75776">
        <ele>1185.0</ele>
      </trkpt>
      <trkpt lat="40.89967" lon="-3.7567">
        <ele>1179.0</ele>
      </trkpt>
      <trkpt lat="40.89923" lon="-3.75612">
        <ele>1175.0</ele>
      </trkpt>
      <trkpt lat="40.89857" lon="-3.7556">
        <ele>1173.0</ele>
      </trkpt>
      <trkpt lat="40.89816" lon="-3.75434">
        <ele>1173.0</ele>
      </trkpt>
      <trkpt lat="40.89812" lon="-3.7535">
        <ele>1170.0</ele>
      </trkpt>
      <trkpt lat="40.89859" lon="-3.75234">
        <ele>1167.0</ele>
      </trkpt>
      <trkpt lat="40.89913" lon="-3.75208">
        <ele>1161.0</ele>
      </trkpt>
      <trkpt lat="40.89981" lon="-3.75139">
        <ele>1160.0</ele>
      </trkpt>
      <trkpt lat="40.90027" lon="-3.75114">
        <ele>1159.0</ele>
      </trkpt>
      <trkpt lat="40.90174" lon="-3.75078">
        <ele>1151.0</ele>
      </trkpt>
      <trkpt lat="40.90302" lon="-3.74983">
        <ele>1149.0</ele>
      </trkpt>
      <trkpt lat="40.90385" lon="-3.74878">
        <ele>1145.0</ele>
      </trkpt>
      <trkpt lat="40.90455" lon="-3.74712">
        <ele>1149.0</ele>
      </trkpt>
      <trkpt lat="40.90596" lon="-3.74472">
        <ele>1142.0</ele>
      </trkpt>
      <trkpt lat="40.90656" lon="-3.74217">
        <ele>1140.0</ele>
      </trkpt>
      <trkpt lat="40.90669" lon="-3.74114">
        <ele>1139.0</ele>
      </trkpt>
      <trkpt lat="40.90673" lon="-3.74014">
        <ele>1137.0</ele>
      </trkpt>
      <trkpt lat="40.90647" lon="-3.73907">
        <ele>1140.0</ele>
      </trkpt>
      <trkpt lat="40.90655" lon="-3.7388">
        <ele>1140.0</ele>
      </trkpt>
      <trkpt lat="40.90692" lon="-3.73865">
        <ele>1140.0</ele>
      </trkpt>
      <trkpt lat="40.90721" lon="-3.73875">
        <ele>1139.0</ele>
      </trkpt>
      <trkpt lat="40.90725" lon="-3.73853">
        <ele>1140.0</ele>
      </trkpt>
      <trkpt lat="40.90924" lon="-3.73757">
        <ele>1145.0</ele>
      </trkpt>
      <trkpt lat="40.90938" lon="-3.73807">
        <ele>1141.0</ele>
      </trkpt>
      <trkpt lat="40.90952" lon="-3.73813">
        <ele>1140.0</ele>
      </trkpt>
      <trkpt lat="40.91061" lon="-3.7381">
        <ele>1137.0</ele>
      </trkpt>
      <trkpt lat="40.91211" lon="-3.73832">
        <ele>1129.0</ele>
      </trkpt>
      <trkpt lat="40.91371" lon="-3.73784">
        <ele>1122.0</ele>
      </trkpt>
      <trkpt lat="40.91501" lon="-3.73774">
        <ele>1118.0</ele>
      </trkpt>
      <trkpt lat="40.91568" lon="-3.73754">
        <ele>1119.0</ele>
      </trkpt>
      <trkpt lat="40.91695" lon="-3.73644">
        <ele>1118.0</ele>
      </trkpt>
      <trkpt lat="40.91915" lon="-3.73638">
        <ele>1108.0</ele>
      </trkpt>
      <trkpt lat="40.92057" lon="-3.73528">
        <ele>1111.0</ele>
      </trkpt>
      <trkpt lat="40.92165" lon="-3.73502">
        <ele>1107.0</ele>
      </trkpt>
      <trkpt lat="40.92354" lon="-3.7341">
        <ele>1106.0</ele>
      </trkpt>
      <trkpt lat="40.92803" lon="-3.73165">
        <ele>1106.0</ele>
      </trkpt>
      <trkpt lat="40.92914" lon="-3.73086">
        <ele>1101.0</ele>
      </trkpt>
      <trkpt lat="40.93243" lon="-3.72671">
        <ele>1094.0</ele>
      </trkpt>
      <trkpt lat="40.93396" lon="-3.72453">
        <ele>1091.0</ele>
      </trkpt>
      <trkpt lat="40.93438" lon="-3.72368">
        <ele>1088.0</ele>
      </trkpt>
      <trkpt lat="40.93482" lon="-3.72194">
        <ele>1082.0</ele>
      </trkpt>
      <trkpt lat="40.93534" lon="-3.72127">
        <ele>1077.0</ele>
      </trkpt>
      <trkpt lat="40.93548" lon="-3.72077">
        <ele>1076.0</ele>
      </trkpt>
      <trkpt lat="40.93554" lon="-3.7191">
        <ele>1075.0</ele>
      </trkpt>
      <trkpt lat="40.93656" lon="-3.71688">
        <ele>1069.0</ele>
      </trkpt>
      <trkpt lat="40.9379" lon="-3.71568">
        <ele>1063.0</ele>
      </trkpt>
      <trkpt lat="40.93986" lon="-3.71256">
        <ele>1055.0</ele>
      </trkpt>
      <trkpt lat="40.94146" lon="-3.71112">
        <ele>1047.0</ele>
      </trkpt>
      <trkpt lat="40.94322" lon="-3.71009">
        <ele>1034.0</ele>
      </trkpt>
      <trkpt lat="40.9437" lon="-3.71158">
        <ele>1030.0</ele>
      </trkpt>
      <trkpt lat="40.94375" lon="-3.71228">
        <ele>1030.0</ele>
      </trkpt>
      <trkpt lat="40.9436" lon="-3.71306">
        <ele>1030.0</ele>
      </trkpt>
      <trkpt lat="40.94275" lon="-3.71493">
        <ele>1032.0</ele>
      </trkpt>
      <trkpt lat="40.94269" lon="-3.71569">
        <ele>1030.0</ele>
      </trkpt>
      <trkpt lat="40.94279" lon="-3.71611">
        <ele>1028.0</ele>
      </trkpt>
      <trkpt lat="40.94388" lon="-3.71797">
        <ele>1036.0</ele>
      </trkpt>
      <trkpt lat="40.944" lon="-3.71843">
        <ele>1039.0</ele>
      </trkpt>
      <trkpt lat="40.94515" lon="-3.7294">
        <ele>1059.0</ele>
      </trkpt>
      <trkpt lat="40.94697" lon="-3.73604">
        <ele>1085.0</ele>
      </trkpt>
      <trkpt lat="40.9471" lon="-3.73694">
        <ele>1089.0</ele>
      </trkpt>
      <trkpt lat="40.94661" lon="-3.74277">
        <ele>1087.0</ele>
      </trkpt>
      <trkpt lat="40.94687" lon="-3.74893">
        <ele>1088.0</ele>
      </trkpt>
      <trkpt lat="40.94685" lon="-3.75278">
        <ele>1096.0</ele>
      </trkpt>
      <trkpt lat="40.94663" lon="-3.75521">
        <ele>1093.0</ele>
      </trkpt>
      <trkpt lat="40.94678" lon="-3.76008">
        <ele>1084.0</ele>
      </trkpt>
      <trkpt lat="40.94686" lon="-3.76065">
        <ele>1083.0</ele>
      </trkpt>
      <trkpt lat="40.9481" lon="-3.76457">
        <ele>1089.0</ele>
      </trkpt>
      <trkpt lat="40.94803" lon="-3.76682">
        <ele>1092.0</ele>
      </trkpt>
      <trkpt lat="40.94812" lon="-3.76748">
        <ele>1091.0</ele>
      </trkpt>
      <trkpt lat="40.94837" lon="-3.76812">
        <ele>1090.0</ele>
      </trkpt>
      <trkpt lat="40.9493" lon="-3.76965">
        <ele>1099.0</ele>
      </trkpt>
      <trkpt lat="40.94953" lon="-3.77041">
        <ele>1102.0</ele>
      </trkpt>
      <trkpt lat="40.94947" lon="-3.77157">
        <ele>1105.0</ele>
      </trkpt>
      <trkpt lat="40.94893" lon="-3.77382">
        <ele>1109.0</ele>
      </trkpt>
      <trkpt lat="40.94893" lon="-3.77485">
        <ele>1112.0</ele>
      </trkpt>
      <trkpt lat="40.94919" lon="-3.77557">
        <ele>1113.0</ele>
      </trkpt>
      <trkpt lat="40.94953" lon="-3.77605">
        <ele>1112.0</ele>
      </trkpt>
      <trkpt lat="40.94986" lon="-3.77628">
        <ele>1110.0</ele>
      </trkpt>
      <trkpt lat="40.95033" lon="-3.77634">
        <ele>1107.0</ele>
      </trkpt>
      <trkpt lat="40.95118" lon="-3.77608">
        <ele>1103.0</ele>
      </trkpt>
      <trkpt lat="40.95301" lon="-3.77469">
        <ele>1106.0</ele>
      </trkpt>
      <trkpt lat="40.95353" lon="-3.77456">
        <ele>1104.0</ele>
      </trkpt>
      <trkpt lat="40.95403" lon="-3.77475">
        <ele>1099.0</ele>
      </trkpt>
      <trkpt lat="40.95447" lon="-3.77522">
        <ele>1098.0</ele>
      </trkpt>
      <trkpt lat="40.95481" lon="-3.77593">
        <ele>1099.0</ele>
      </trkpt>
      <trkpt lat="40.95593" lon="-3.77898">
        <ele>1104.0</ele>
      </trkpt>
      <trkpt lat="40.9562" lon="-3.78026">
        <ele>1103.0</ele>
      </trkpt>
      <trkpt lat="40.95619" lon="-3.78159">
        <ele>1100.0</ele>
      </trkpt>
      <trkpt lat="40.95582" lon="-3.7829">
        <ele>1098.0</ele>
      </trkpt>
      <trkpt lat="40.95526" lon="-3.78408">
        <ele>1095.0</ele>
      </trkpt>
      <trkpt lat="40.95407" lon="-3.78606">
        <ele>1093.0</ele>
      </trkpt>
      <trkpt lat="40.95322" lon="-3.78681">
        <ele>1093.0</ele>
      </trkpt>
      <trkpt lat="40.95002" lon="-3.78784">
        <ele>1094.0</ele>
      </trkpt>
      <trkpt lat="40.94934" lon="-3.7885">
        <ele>1095.0</ele>
      </trkpt>
      <trkpt lat="40.94913" lon="-3.78917">
        <ele>1096.0</ele>
      </trkpt>
      <trkpt lat="40.94911" lon="-3.78975">
        <ele>1098.0</ele>
      </trkpt>
      <trkpt lat="40.94927" lon="-3.79045">
        <ele>1101.0</ele>
      </trkpt>
      <trkpt lat="40.94985" lon="-3.79171">
        <ele>1107.0</ele>
      </trkpt>
      <trkpt lat="40.94984" lon="-3.79279">
        <ele>1111.0</ele>
      </trkpt>
      <trkpt lat="40.94999" lon="-3.7932">
        <ele>1113.0</ele>
      </trkpt>
      <trkpt lat="40.95092" lon="-3.79461">
        <ele>1120.0</ele>
      </trkpt>
      <trkpt lat="40.95141" lon="-3.79593">
        <ele>1128.0</ele>
      </trkpt>
      <trkpt lat="40.95167" lon="-3.7961">
        <ele>1130.0</ele>
      </trkpt>
      <trkpt lat="40.95272" lon="-3.79491">
        <ele>1135.0</ele>
      </trkpt>
      <trkpt lat="40.95375" lon="-3.79412">
        <ele>1141.0</ele>
      </trkpt>
      <trkpt lat="40.95477" lon="-3.79368">
        <ele>1152.0</ele>
      </trkpt>
      <trkpt lat="40.9557" lon="-3.79218">
        <ele>1153.0</ele>
      </trkpt>
      <trkpt lat="40.95739" lon="-3.79183">
        <ele>1164.0</ele>
      </trkpt>
      <trkpt lat="40.9574" lon="-3.79208">
        <ele>1169.0</ele>
      </trkpt>
      <trkpt lat="40.95674" lon="-3.79252">
        <ele>1171.0</ele>
      </trkpt>
      <trkpt lat="40.95627" lon="-3.79361">
        <ele>1179.0</ele>
      </trkpt>
      <trkpt lat="40.95579" lon="-3.79706">
        <ele>1200.0</ele>
      </trkpt>
      <trkpt lat="40.95597" lon="-3.79875">
        <ele>1204.0</ele>
      </trkpt>
      <trkpt lat="40.95621" lon="-3.79907">
        <ele>1204.0</ele>
      </trkpt>
      <trkpt lat="40.95672" lon="-3.79905">
        <ele>1208.0</ele>
      </trkpt>
      <trkpt lat="40.95835" lon="-3.79858">
        <ele>1222.0</ele>
      </trkpt>
      <trkpt lat="40.95955" lon="-3.79857">
        <ele>1229.0</ele>
      </trkpt>
      <trkpt lat="40.96031" lon="-3.79834">
        <ele>1238.0</ele>
      </trkpt>
      <trkpt lat="40.96285" lon="-3.79852">
        <ele>1261.0</ele>
      </trkpt>
      <trkpt lat="40.96328" lon="-3.79867">
        <ele>1266.0</ele>
      </trkpt>
      <trkpt lat="40.96373" lon="-3.79953">
        <ele>1263.0</ele>
      </trkpt>
      <trkpt lat="40.96418" lon="-3.79982">
        <ele>1266.0</ele>
      </trkpt>
      <trkpt lat="40.96573" lon="-3.79957">
        <ele>1287.0</ele>
      </trkpt>
      <trkpt lat="40.96731" lon="-3.80019">
        <ele>1296.0</ele>
      </trkpt>
      <trkpt lat="40.9681" lon="-3.80027">
        <ele>1301.0</ele>
      </trkpt>
      <trkpt lat="40.96882" lon="-3.80006">
        <ele>1305.0</ele>
      </trkpt>
      <trkpt lat="40.96926" lon="-3.80039">
        <ele>1308.0</ele>
      </trkpt>
      <trkpt lat="40.97114" lon="-3.79982">
        <ele>1334.0</ele>
      </trkpt>
      <trkpt lat="40.97127" lon="-3.80004">
        <ele>1333.0</ele>
      </trkpt>
      <trkpt lat="40.97088" lon="-3.80041">
        <ele>1331.0</ele>
      </trkpt>
      <trkpt lat="40.97097" lon="-3.80069">
        <ele>1334.0</ele>
      </trkpt>
      <trkpt lat="40.97193" lon="-3.80028">
        <ele>1342.0</ele>
      </trkpt>
      <trkpt lat="40.97257" lon="-3.80046">
        <ele>1351.0</ele>
      </trkpt>
      <trkpt lat="40.97249" lon="-3.80079">
        <ele>1352.0</ele>
      </trkpt>
      <trkpt lat="40.9722" lon="-3.80084">
        <ele>1349.0</ele>
      </trkpt>
      <trkpt lat="40.97194" lon="-3.80108">
        <ele>1350.0</ele>
      </trkpt>
      <trkpt lat="40.97175" lon="-3.80195">
        <ele>1361.0</ele>
      </trkpt>
      <trkpt lat="40.97114" lon="-3.80234">
        <ele>1359.0</ele>
      </trkpt>
      <trkpt lat="40.97046" lon="-3.80352">
        <ele>1372.0</ele>
      </trkpt>
      <trkpt lat="40.96955" lon="-3.8042">
        <ele>1384.0</ele>
      </trkpt>
      <trkpt lat="40.96837" lon="-3.80463">
        <ele>1393.0</ele>
      </trkpt>
      <trkpt lat="40.96777" lon="-3.80458">
        <ele>1391.0</ele>
      </trkpt>
      <trkpt lat="40.96771" lon="-3.80479">
        <ele>1395.0</ele>
      </trkpt>
      <trkpt lat="40.96791" lon="-3.80498">
        <ele>1400.0</ele>
      </trkpt>
      <trkpt lat="40.96856" lon="-3.8049">
        <ele>1401.0</ele>
      </trkpt>
      <trkpt lat="40.97025" lon="-3.80528">
        <ele>1419.0</ele>
      </trkpt>
      <trkpt lat="40.97107" lon="-3.80529">
        <ele>1424.0</ele>
      </trkpt>
      <trkpt lat="40.97329" lon="-3.80478">
        <ele>1440.0</ele>
      </trkpt>
      <trkpt lat="40.97439" lon="-3.80386">
        <ele>1443.0</ele>
      </trkpt>
      <trkpt lat="40.97593" lon="-3.80331">
        <ele>1464.0</ele>
      </trkpt>
      <trkpt lat="40.97734" lon="-3.80231">
        <ele>1475.0</ele>
      </trkpt>
      <trkpt lat="40.97814" lon="-3.80268">
        <ele>1493.0</ele>
      </trkpt>
      <trkpt lat="40.9785" lon="-3.80151">
        <ele>1483.0</ele>
      </trkpt>
      <trkpt lat="40.97913" lon="-3.80068">
        <ele>1486.0</ele>
      </trkpt>
      <trkpt lat="40.97937" lon="-3.80071">
        <ele>1492.0</ele>
      </trkpt>
      <trkpt lat="40.97885" lon="-3.80246">
        <ele>1505.0</ele>
      </trkpt>
      <trkpt lat="40.97883" lon="-3.803">
        <ele>1514.0</ele>
      </trkpt>
      <trkpt lat="40.97785" lon="-3.80425">
        <ele>1525.0</ele>
      </trkpt>
      <trkpt lat="40.97805" lon="-3.8044">
        <ele>1533.0</ele>
      </trkpt>
      <trkpt lat="40.97849" lon="-3.80405">
        <ele>1531.0</ele>
      </trkpt>
      <trkpt lat="40.97921" lon="-3.80378">
        <ele>1539.0</ele>
      </trkpt>
      <trkpt lat="40.97951" lon="-3.8035">
        <ele>1540.0</ele>
      </trkpt>
      <trkpt lat="40.97987" lon="-3.80285">
        <ele>1540.0</ele>
      </trkpt>
      <trkpt lat="40.98008" lon="-3.80276">
        <ele>1544.0</ele>
      </trkpt>
      <trkpt lat="40.98012" lon="-3.80313">
        <ele>1551.0</ele>
      </trkpt>
      <trkpt lat="40.97964" lon="-3.80433">
        <ele>1562.0</ele>
      </trkpt>
      <trkpt lat="40.97877" lon="-3.80554">
        <ele>1575.0</ele>
      </trkpt>
      <trkpt lat="40.97811" lon="-3.80591">
        <ele>1577.0</ele>
      </trkpt>
      <trkpt lat="40.97699" lon="-3.80623">
        <ele>1569.0</ele>
      </trkpt>
      <trkpt lat="40.97626" lon="-3.80711">
        <ele>1575.0</ele>
      </trkpt>
      <trkpt lat="40.97583" lon="-3.80787">
        <ele>1575.0</ele>
      </trkpt>
      <trkpt lat="40.97555" lon="-3.80918">
        <ele>1579.0</ele>
      </trkpt>
      <trkpt lat="40.97566" lon="-3.80959">
        <ele>1576.0</ele>
      </trkpt>
      <trkpt lat="40.97614" lon="-3.81">
        <ele>1579.0</ele>
      </trkpt>
      <trkpt lat="40.97893" lon="-3.81101">
        <ele>1602.0</ele>
      </trkpt>
      <trkpt lat="40.97958" lon="-3.81194">
        <ele>1609.0</ele>
      </trkpt>
      <trkpt lat="40.97964" lon="-3.81227">
        <ele>1613.0</ele>
      </trkpt>
      <trkpt lat="40.97764" lon="-3.81389">
        <ele>1618.0</ele>
      </trkpt>
      <trkpt lat="40.9767" lon="-3.81442">
        <ele>1614.0</ele>
      </trkpt>
      <trkpt lat="40.97627" lon="-3.81527">
        <ele>1627.0</ele>
      </trkpt>
      <trkpt lat="40.97578" lon="-3.81571">
        <ele>1625.0</ele>
      </trkpt>
      <trkpt lat="40.97542" lon="-3.81649">
        <ele>1630.0</ele>
      </trkpt>
      <trkpt lat="40.97506" lon="-3.81777">
        <ele>1636.0</ele>
      </trkpt>
      <trkpt lat="40.9753" lon="-3.8192">
        <ele>1660.0</ele>
      </trkpt>
      <trkpt lat="40.97511" lon="-3.8193">
        <ele>1659.0</ele>
      </trkpt>
      <trkpt lat="40.97416" lon="-3.819">
        <ele>1646.0</ele>
      </trkpt>
      <trkpt lat="40.97357" lon="-3.81921">
        <ele>1651.0</ele>
      </trkpt>
      <trkpt lat="40.9724" lon="-3.82028">
        <ele>1661.0</ele>
      </trkpt>
      <trkpt lat="40.97208" lon="-3.82095">
        <ele>1666.0</ele>
      </trkpt>
      <trkpt lat="40.97215" lon="-3.82121">
        <ele>1669.0</ele>
      </trkpt>
      <trkpt lat="40.9731" lon="-3.82099">
        <ele>1678.0</ele>
      </trkpt>
      <trkpt lat="40.9739" lon="-3.8211">
        <ele>1685.0</ele>
      </trkpt>
      <trkpt lat="40.97433" lon="-3.8214">
        <ele>1689.0</ele>
      </trkpt>
      <trkpt lat="40.97534" lon="-3.82268">
        <ele>1704.0</ele>
      </trkpt>
      <trkpt lat="40.97674" lon="-3.82349">
        <ele>1719.0</ele>
      </trkpt>
      <trkpt lat="40.97715" lon="-3.82354">
        <ele>1723.0</ele>
      </trkpt>
      <trkpt lat="40.97807" lon="-3.82242">
        <ele>1726.0</ele>
      </trkpt>
      <trkpt lat="40.9783" lon="-3.82164">
        <ele>1728.0</ele>
      </trkpt>
      <trkpt lat="40.97876" lon="-3.82091">
        <ele>1736.0</ele>
      </trkpt>
      <trkpt lat="40.97929" lon="-3.81886">
        <ele>1746.0</ele>
      </trkpt>
      <trkpt lat="40.97982" lon="-3.81797">
        <ele>1750.0</ele>
      </trkpt>
      <trkpt lat="40.9805" lon="-3.81745">
        <ele>1754.0</ele>
      </trkpt>
      <trkpt lat="40.98172" lon="-3.81727">
        <ele>1766.0</ele>
      </trkpt>
      <trkpt lat="40.98318" lon="-3.81629">
        <ele>1763.0</ele>
      </trkpt>
      <trkpt lat="40.98349" lon="-3.81616">
        <ele>1765.0</ele>
      </trkpt>
      <trkpt lat="40.98382" lon="-3.81622">
        <ele>1770.0</ele>
      </trkpt>
      <trkpt lat="40.98417" lon="-3.81571">
        <ele>1769.0</ele>
      </trkpt>
      <trkpt lat="40.98502" lon="-3.81538">
        <ele>1777.0</ele>
      </trkpt>
      <trkpt lat="40.98569" lon="-3.81448">
        <ele>1771.0</ele>
      </trkpt>
      <trkpt lat="40.98635" lon="-3.81399">
        <ele>1773.0</ele>
      </trkpt>
      <trkpt lat="40.98706" lon="-3.81426">
        <ele>1775.0</ele>
      </trkpt>
      <trkpt lat="40.98737" lon="-3.8149">
        <ele>1773.0</ele>
      </trkpt>
      <trkpt lat="40.98843" lon="-3.81602">
        <ele>1766.0</ele>
      </trkpt>
      <trkpt lat="40.98968" lon="-3.81668">
        <ele>1747.0</ele>
      </trkpt>
      <trkpt lat="40.99028" lon="-3.81755">
        <ele>1745.0</ele>
      </trkpt>
      <trkpt lat="40.99027" lon="-3.81834">
        <ele>1754.0</ele>
      </trkpt>
      <trkpt lat="40.99038" lon="-3.81855">
        <ele>1757.0</ele>
      </trkpt>
      <trkpt lat="40.99133" lon="-3.81753">
        <ele>1738.0</ele>
      </trkpt>
      <trkpt lat="40.99177" lon="-3.81662">
        <ele>1717.0</ele>
      </trkpt>
      <trkpt lat="40.99222" lon="-3.8164">
        <ele>1711.0</ele>
      </trkpt>
      <trkpt lat="40.99354" lon="-3.81713">
        <ele>1717.0</ele>
      </trkpt>
      <trkpt lat="40.99417" lon="-3.81705">
        <ele>1710.0</ele>
      </trkpt>
      <trkpt lat="40.99544" lon="-3.8181">
        <ele>1712.0</ele>
      </trkpt>
      <trkpt lat="40.99574" lon="-3.81803">
        <ele>1707.0</ele>
      </trkpt>
      <trkpt lat="40.99627" lon="-3.81729">
        <ele>1683.0</ele>
      </trkpt>
      <trkpt lat="40.99725" lon="-3.81759">
        <ele>1687.0</ele>
      </trkpt>
      <trkpt lat="40.99775" lon="-3.81658">
        <ele>1665.0</ele>
      </trkpt>
      <trkpt lat="40.99925" lon="-3.81481">
        <ele>1646.0</ele>
      </trkpt>
      <trkpt lat="41.00109" lon="-3.81362">
        <ele>1632.0</ele>
      </trkpt>
      <trkpt lat="41.0019" lon="-3.8133">
        <ele>1632.0</ele>
      </trkpt>
      <trkpt lat="41.00258" lon="-3.8123">
        <ele>1616.0</ele>
      </trkpt>
      <trkpt lat="41.00353" lon="-3.8121">
        <ele>1617.0</ele>
      </trkpt>
      <trkpt lat="41.00492" lon="-3.8113">
        <ele>1597.0</ele>
      </trkpt>
      <trkpt lat="41.00615" lon="-3.81155">
        <ele>1600.0</ele>
      </trkpt>
      <trkpt lat="41.00657" lon="-3.81142">
        <ele>1595.0</ele>
      </trkpt>
      <trkpt lat="41.0074" lon="-3.81077">
        <ele>1578.0</ele>
      </trkpt>
      <trkpt lat="41.00802" lon="-3.81071">
        <ele>1575.0</ele>
      </trkpt>
      <trkpt lat="41.00797" lon="-3.81054">
        <ele>1570.0</ele>
      </trkpt>
      <trkpt lat="41.0075" lon="-3.8105">
        <ele>1570.0</ele>
      </trkpt>
      <trkpt lat="41.00622" lon="-3.81096">
        <ele>1579.0</ele>
      </trkpt>
      <trkpt lat="41.00543" lon="-3.81075">
        <ele>1573.0</ele>
      </trkpt>
      <trkpt lat="41.00535" lon="-3.81049">
        <ele>1564.0</ele>
      </trkpt>
      <trkpt lat="41.00642" lon="-3.81068">
        <ele>1569.0</ele>
      </trkpt>
      <trkpt lat="41.00743" lon="-3.80964">
        <ele>1543.0</ele>
      </trkpt>
      <trkpt lat="41.008" lon="-3.80937">
        <ele>1536.0</ele>
      </trkpt>
      <trkpt lat="41.00934" lon="-3.81013">
        <ele>1552.0</ele>
      </trkpt>
      <trkpt lat="41.01001" lon="-3.80929">
        <ele>1537.0</ele>
      </trkpt>
      <trkpt lat="41.01045" lon="-3.80901">
        <ele>1537.0</ele>
      </trkpt>
      <trkpt lat="41.01302" lon="-3.8081">
        <ele>1517.0</ele>
      </trkpt>
      <trkpt lat="41.01365" lon="-3.80845">
        <ele>1527.0</ele>
      </trkpt>
      <trkpt lat="41.01398" lon="-3.80812">
        <ele>1518.0</ele>
      </trkpt>
      <trkpt lat="41.01466" lon="-3.80781">
        <ele>1511.0</ele>
      </trkpt>
      <trkpt lat="41.0169" lon="-3.80779">
        <ele>1498.0</ele>
      </trkpt>
      <trkpt lat="41.01779" lon="-3.80826">
        <ele>1502.0</ele>
      </trkpt>
      <trkpt lat="41.01955" lon="-3.80861">
        <ele>1482.0</ele>
      </trkpt>
      <trkpt lat="41.02041" lon="-3.80948">
        <ele>1492.0</ele>
      </trkpt>
      <trkpt lat="41.02295" lon="-3.8086">
        <ele>1454.0</ele>
      </trkpt>
      <trkpt lat="41.02389" lon="-3.809">
        <ele>1465.0</ele>
      </trkpt>
      <trkpt lat="41.02497" lon="-3.80815">
        <ele>1447.0</ele>
      </trkpt>
      <trkpt lat="41.02684" lon="-3.80818">
        <ele>1436.0</ele>
      </trkpt>
      <trkpt lat="41.0276" lon="-3.80859">
        <ele>1434.0</ele>
      </trkpt>
      <trkpt lat="41.02823" lon="-3.81">
        <ele>1441.0</ele>
      </trkpt>
      <trkpt lat="41.0284" lon="-3.80998">
        <ele>1437.0</ele>
      </trkpt>
      <trkpt lat="41.02886" lon="-3.80941">
        <ele>1426.0</ele>
      </trkpt>
      <trkpt lat="41.02912" lon="-3.80937">
        <ele>1424.0</ele>
      </trkpt>
      <trkpt lat="41.0295" lon="-3.80951">
        <ele>1422.0</ele>
      </trkpt>
      <trkpt lat="41.02996" lon="-3.81005">
        <ele>1425.0</ele>
      </trkpt>
      <trkpt lat="41.03086" lon="-3.81031">
        <ele>1415.0</ele>
      </trkpt>
      <trkpt lat="41.03258" lon="-3.8098">
        <ele>1393.0</ele>
      </trkpt>
      <trkpt lat="41.0344" lon="-3.80891">
        <ele>1368.0</ele>
      </trkpt>
      <trkpt lat="41.03462" lon="-3.80894">
        <ele>1367.0</ele>
      </trkpt>
      <trkpt lat="41.03517" lon="-3.80945">
        <ele>1371.0</ele>
      </trkpt>
      <trkpt lat="41.03677" lon="-3.80908">
        <ele>1359.0</ele>
      </trkpt>
      <trkpt lat="41.03941" lon="-3.80959">
        <ele>1342.0</ele>
      </trkpt>
      <trkpt lat="41.03989" lon="-3.80995">
        <ele>1340.0</ele>
      </trkpt>
      <trkpt lat="41.04178" lon="-3.80945">
        <ele>1321.0</ele>
      </trkpt>
      <trkpt lat="41.04224" lon="-3.80952">
        <ele>1318.0</ele>
      </trkpt>
      <trkpt lat="41.04638" lon="-3.81217">
        <ele>1296.0</ele>
      </trkpt>
      <trkpt lat="41.04878" lon="-3.81725">
        <ele>1270.0</ele>
      </trkpt>
      <trkpt lat="41.05124" lon="-3.8204">
        <ele>1251.0</ele>
      </trkpt>
      <trkpt lat="41.05152" lon="-3.82059">
        <ele>1248.0</ele>
      </trkpt>
      <trkpt lat="41.05643" lon="-3.81743">
        <ele>1224.0</ele>
      </trkpt>
      <trkpt lat="41.06125" lon="-3.81159">
        <ele>1211.0</ele>
      </trkpt>
      <trkpt lat="41.06666" lon="-3.81158">
        <ele>1200.0</ele>
      </trkpt>
      <trkpt lat="41.06814" lon="-3.81271">
        <ele>1194.0</ele>
      </trkpt>
      <trkpt lat="41.06899" lon="-3.81481">
        <ele>1189.0</ele>
      </trkpt>
      <trkpt lat="41.06778" lon="-3.81671">
        <ele>1186.0</ele>
      </trkpt>
      <trkpt lat="41.06542" lon="-3.82188">
        <ele>1170.0</ele>
      </trkpt>
      <trkpt lat="41.06461" lon="-3.82406">
        <ele>1164.0</ele>
      </trkpt>
      <trkpt lat="41.06425" lon="-3.82566">
        <ele>1162.0</ele>
      </trkpt>
      <trkpt lat="41.06402" lon="-3.82861">
        <ele>1170.0</ele>
      </trkpt>
      <trkpt lat="41.06398" lon="-3.83365">
        <ele>1179.0</ele>
      </trkpt>
      <trkpt lat="41.06373" lon="-3.84069">
        <ele>1185.0</ele>
      </trkpt>
      <trkpt lat="41.06389" lon="-3.84342">
        <ele>1191.0</ele>
      </trkpt>
      <trkpt lat="41.06441" lon="-3.84746">
        <ele>1200.0</ele>
      </trkpt>
      <trkpt lat="41.06449" lon="-3.8489">
        <ele>1204.0</ele>
      </trkpt>
      <trkpt lat="41.06451" lon="-3.85038">
        <ele>1208.0</ele>
      </trkpt>
      <trkpt lat="41.06435" lon="-3.85235">
        <ele>1214.0</ele>
      </trkpt>
      <trkpt lat="41.06394" lon="-3.85473">
        <ele>1220.0</ele>
      </trkpt>
      <trkpt lat="41.06035" lon="-3.86867">
        <ele>1240.0</ele>
      </trkpt>
      <trkpt lat="41.05988" lon="-3.87139">
        <ele>1231.0</ele>
      </trkpt>
      <trkpt lat="41.0598" lon="-3.87466">
        <ele>1231.0</ele>
      </trkpt>
      <trkpt lat="41.05994" lon="-3.87615">
        <ele>1220.0</ele>
      </trkpt>
      <trkpt lat="41.06026" lon="-3.87786">
        <ele>1210.0</ele>
      </trkpt>
      <trkpt lat="41.061" lon="-3.88035">
        <ele>1202.0</ele>
      </trkpt>
      <trkpt lat="41.06262" lon="-3.88392">
        <ele>1191.0</ele>
      </trkpt>
      <trkpt lat="41.06309" lon="-3.88568">
        <ele>1189.0</ele>
      </trkpt>
      <trkpt lat="41.06326" lon="-3.88754">
        <ele>1187.0</ele>
      </trkpt>
      <trkpt lat="41.06286" lon="-3.8899">
        <ele>1187.0</ele>
      </trkpt>
      <trkpt lat="41.06231" lon="-3.89121">
        <ele>1189.0</ele>
      </trkpt>
      <trkpt lat="41.06029" lon="-3.89482">
        <ele>1192.0</ele>
      </trkpt>
      <trkpt lat="41.05935" lon="-3.8962">
        <ele>1192.0</ele>
      </trkpt>
      <trkpt lat="41.05851" lon="-3.89816">
        <ele>1191.0</ele>
      </trkpt>
      <trkpt lat="41.0561" lon="-3.90118">
        <ele>1195.0</ele>
      </trkpt>
      <trkpt lat="41.05513" lon="-3.90273">
        <ele>1196.0</ele>
      </trkpt>
      <trkpt lat="41.05071" lon="-3.90877">
        <ele>1202.0</ele>
      </trkpt>
      <trkpt lat="41.04903" lon="-3.91049">
        <ele>1205.0</ele>
      </trkpt>
      <trkpt lat="41.04339" lon="-3.91499">
        <ele>1215.0</ele>
      </trkpt>
      <trkpt lat="41.04064" lon="-3.9166">
        <ele>1218.0</ele>
      </trkpt>
      <trkpt lat="41.03956" lon="-3.91744">
        <ele>1222.0</ele>
      </trkpt>
      <trkpt lat="41.03878" lon="-3.9178">
        <ele>1224.0</ele>
      </trkpt>
      <trkpt lat="41.03816" lon="-3.91849">
        <ele>1225.0</ele>
      </trkpt>
      <trkpt lat="41.03555" lon="-3.92827">
        <ele>1207.0</ele>
      </trkpt>
      <trkpt lat="41.03454" lon="-3.93166">
        <ele>1198.0</ele>
      </trkpt>
      <trkpt lat="41.03401" lon="-3.93261">
        <ele>1194.0</ele>
      </trkpt>
      <trkpt lat="41.0319" lon="-3.93543">
        <ele>1184.0</ele>
      </trkpt>
      <trkpt lat="41.03066" lon="-3.9378">
        <ele>1176.0</ele>
      </trkpt>
      <trkpt lat="41.02991" lon="-3.93969">
        <ele>1172.0</ele>
      </trkpt>
      <trkpt lat="41.02837" lon="-3.94455">
        <ele>1163.0</ele>
      </trkpt>
      <trkpt lat="41.02548" lon="-3.95049">
        <ele>1146.0</ele>
      </trkpt>
      <trkpt lat="41.0232" lon="-3.95907">
        <ele>1163.0</ele>
      </trkpt>
      <trkpt lat="41.01127" lon="-3.98154">
        <ele>1139.0</ele>
      </trkpt>
      <trkpt lat="41.00857" lon="-3.98699">
        <ele>1147.0</ele>
      </trkpt>
      <trkpt lat="41.00821" lon="-3.98816">
        <ele>1150.0</ele>
      </trkpt>
      <trkpt lat="41.00787" lon="-3.99">
        <ele>1159.0</ele>
      </trkpt>
      <trkpt lat="41.00639" lon="-4.00152">
        <ele>1184.0</ele>
      </trkpt>
      <trkpt lat="41.00591" lon="-4.00353">
        <ele>1176.0</ele>
      </trkpt>
      <trkpt lat="41.00511" lon="-4.0058">
        <ele>1164.0</ele>
      </trkpt>
      <trkpt lat="41.00186" lon="-4.01235">
        <ele>1143.0</ele>
      </trkpt>
      <trkpt lat="40.99844" lon="-4.0182">
        <ele>1145.0</ele>
      </trkpt>
      <trkpt lat="40.99701" lon="-4.02112">
        <ele>1150.0</ele>
      </trkpt>
      <trkpt lat="40.99676" lon="-4.02135">
        <ele>1151.0</ele>
      </trkpt>
      <trkpt lat="40.99448" lon="-4.02219">
        <ele>1150.0</ele>
      </trkpt>
      <trkpt lat="40.99409" lon="-4.02257">
        <ele>1151.0</ele>
      </trkpt>
      <trkpt lat="40.9939" lon="-4.02228">
        <ele>1152.0</ele>
      </trkpt>
      <trkpt lat="40.99664" lon="-4.02134">
        <ele>1151.0</ele>
      </trkpt>
      <trkpt lat="40.99713" lon="-4.0208">
        <ele>1150.0</ele>
      </trkpt>
      <trkpt lat="40.99741" lon="-4.02084">
        <ele>1150.0</ele>
      </trkpt>
      <trkpt lat="40.99742" lon="-4.02109">
        <ele>1149.0</ele>
      </trkpt>
      <trkpt lat="40.99448" lon="-4.02219">
        <ele>1150.0</ele>
      </trkpt>
      <trkpt lat="40.99409" lon="-4.02256">
        <ele>1151.0</ele>
      </trkpt>
      <trkpt lat="40.99371" lon="-4.02219">
        <ele>1152.0</ele>
      </trkpt>
      <trkpt lat="40.99336" lon="-4.02225">
        <ele>1153.0</ele>
      </trkpt>
      <trkpt lat="40.99079" lon="-4.02353">
        <ele>1153.0</ele>
      </trkpt>
      <trkpt lat="40.9871" lon="-4.02397">
        <ele>1137.0</ele>
      </trkpt>
      <trkpt lat="40.98599" lon="-4.02397">
        <ele>1132.0</ele>
      </trkpt>
      <trkpt lat="40.9846" lon="-4.0239">
        <ele>1127.0</ele>
      </trkpt>
      <trkpt lat="40.98326" lon="-4.02347">
        <ele>1121.0</ele>
      </trkpt>
      <trkpt lat="40.98257" lon="-4.0234">
        <ele>1119.0</ele>
      </trkpt>
      <trkpt lat="40.97852" lon="-4.02436">
        <ele>1117.0</ele>
      </trkpt>
      <trkpt lat="40.97517" lon="-4.0269">
        <ele>1127.0</ele>
      </trkpt>
      <trkpt lat="40.97341" lon="-4.03002">
        <ele>1127.0</ele>
      </trkpt>
      <trkpt lat="40.97229" lon="-4.03104">
        <ele>1127.0</ele>
      </trkpt>
      <trkpt lat="40.97158" lon="-4.03152">
        <ele>1129.0</ele>
      </trkpt>
      <trkpt lat="40.96998" lon="-4.03225">
        <ele>1128.0</ele>
      </trkpt>
      <trkpt lat="40.96772" lon="-4.03229">
        <ele>1119.0</ele>
      </trkpt>
      <trkpt lat="40.96523" lon="-4.03381">
        <ele>1132.0</ele>
      </trkpt>
      <trkpt lat="40.96444" lon="-4.03365">
        <ele>1134.0</ele>
      </trkpt>
      <trkpt lat="40.96331" lon="-4.03243">
        <ele>1133.0</ele>
      </trkpt>
      <trkpt lat="40.96271" lon="-4.03221">
        <ele>1131.0</ele>
      </trkpt>
      <trkpt lat="40.95573" lon="-4.03469">
        <ele>1130.0</ele>
      </trkpt>
      <trkpt lat="40.95511" lon="-4.03458">
        <ele>1130.0</ele>
      </trkpt>
      <trkpt lat="40.95405" lon="-4.03397">
        <ele>1131.0</ele>
      </trkpt>
      <trkpt lat="40.95358" lon="-4.03386">
        <ele>1131.0</ele>
      </trkpt>
      <trkpt lat="40.94396" lon="-4.03406">
        <ele>1137.0</ele>
      </trkpt>
      <trkpt lat="40.94199" lon="-4.03362">
        <ele>1141.0</ele>
      </trkpt>
      <trkpt lat="40.94023" lon="-4.03344">
        <ele>1141.0</ele>
      </trkpt>
      <trkpt lat="40.93896" lon="-4.03361">
        <ele>1143.0</ele>
      </trkpt>
      <trkpt lat="40.93553" lon="-4.03353">
        <ele>1147.0</ele>
      </trkpt>
      <trkpt lat="40.93342" lon="-4.03326">
        <ele>1149.0</ele>
      </trkpt>
      <trkpt lat="40.93271" lon="-4.03304">
        <ele>1149.0</ele>
      </trkpt>
      <trkpt lat="40.92969" lon="-4.03166">
        <ele>1154.0</ele>
      </trkpt>
      <trkpt lat="40.92778" lon="-4.03031">
        <ele>1153.0</ele>
      </trkpt>
      <trkpt lat="40.92764" lon="-4.0304">
        <ele>1152.0</ele>
      </trkpt>
      <trkpt lat="40.92721" lon="-4.03233">
        <ele>1147.0</ele>
      </trkpt>
      <trkpt lat="40.9274" lon="-4.03456">
        <ele>1139.0</ele>
      </trkpt>
      <trkpt lat="40.92723" lon="-4.03657">
        <ele>1128.0</ele>
      </trkpt>
      <trkpt lat="40.92798" lon="-4.0391">
        <ele>1119.0</ele>
      </trkpt>
      <trkpt lat="40.92803" lon="-4.04117">
        <ele>1111.0</ele>
      </trkpt>
      <trkpt lat="40.92861" lon="-4.04383">
        <ele>1108.0</ele>
      </trkpt>
      <trkpt lat="40.92861" lon="-4.04444">
        <ele>1108.0</ele>
      </trkpt>
      <trkpt lat="40.92826" lon="-4.04592">
        <ele>1109.0</ele>
      </trkpt>
      <trkpt lat="40.9282" lon="-4.04728">
        <ele>1109.0</ele>
      </trkpt>
      <trkpt lat="40.92876" lon="-4.05235">
        <ele>1098.0</ele>
      </trkpt>
      <trkpt lat="40.92904" lon="-4.05252">
        <ele>1098.0</ele>
      </trkpt>
      <trkpt lat="40.92904" lon="-4.05286">
        <ele>1097.0</ele>
      </trkpt>
      <trkpt lat="40.92874" lon="-4.05302">
        <ele>1097.0</ele>
      </trkpt>
      <trkpt lat="40.92855" lon="-4.05265">
        <ele>1098.0</ele>
      </trkpt>
      <trkpt lat="40.92764" lon="-4.05254">
        <ele>1097.0</ele>
      </trkpt>
      <trkpt lat="40.92694" lon="-4.05257">
        <ele>1097.0</ele>
      </trkpt>
      <trkpt lat="40.92597" lon="-4.05298">
        <ele>1091.0</ele>
      </trkpt>
      <trkpt lat="40.92431" lon="-4.05478">
        <ele>1060.0</ele>
      </trkpt>
      <trkpt lat="40.92226" lon="-4.05747">
        <ele>1073.0</ele>
      </trkpt>
      <trkpt lat="40.92145" lon="-4.05875">
        <ele>1076.0</ele>
      </trkpt>
      <trkpt lat="40.92022" lon="-4.06162">
        <ele>1077.0</ele>
      </trkpt>
      <trkpt lat="40.91815" lon="-4.06368">
        <ele>1086.0</ele>
      </trkpt>
      <trkpt lat="40.91813" lon="-4.06405">
        <ele>1085.0</ele>
      </trkpt>
      <trkpt lat="40.91793" lon="-4.06414">
        <ele>1085.0</ele>
      </trkpt>
      <trkpt lat="40.9178" lon="-4.06403">
        <ele>1085.0</ele>
      </trkpt>
      <trkpt lat="40.91596" lon="-4.06559">
        <ele>1087.0</ele>
      </trkpt>
      <trkpt lat="40.91536" lon="-4.06577">
        <ele>1089.0</ele>
      </trkpt>
      <trkpt lat="40.91457" lon="-4.06572">
        <ele>1092.0</ele>
      </trkpt>
      <trkpt lat="40.91441" lon="-4.06588">
        <ele>1092.0</ele>
      </trkpt>
      <trkpt lat="40.91454" lon="-4.06634">
        <ele>1090.0</ele>
      </trkpt>
      <trkpt lat="40.91555" lon="-4.06792">
        <ele>1087.0</ele>
      </trkpt>
      <trkpt lat="40.91621" lon="-4.0683">
        <ele>1089.0</ele>
      </trkpt>
      <trkpt lat="40.91633" lon="-4.06914">
        <ele>1092.0</ele>
      </trkpt>
      <trkpt lat="40.91649" lon="-4.06941">
        <ele>1092.0</ele>
      </trkpt>
      <trkpt lat="40.92278" lon="-4.07933">
        <ele>1068.0</ele>
      </trkpt>
      <trkpt lat="40.92324" lon="-4.07974">
        <ele>1067.0</ele>
      </trkpt>
      <trkpt lat="40.92352" lon="-4.08051">
        <ele>1065.0</ele>
      </trkpt>
      <trkpt lat="40.92684" lon="-4.0857">
        <ele>1068.0</ele>
      </trkpt>
      <trkpt lat="40.9272" lon="-4.08624">
        <ele>1068.0</ele>
      </trkpt>
      <trkpt lat="40.92768" lon="-4.08638">
        <ele>1067.0</ele>
      </trkpt>
      <trkpt lat="40.92783" lon="-4.08658">
        <ele>1067.0</ele>
      </trkpt>
      <trkpt lat="40.9278" lon="-4.08705">
        <ele>1068.0</ele>
      </trkpt>
      <trkpt lat="40.92795" lon="-4.08744">
        <ele>1070.0</ele>
      </trkpt>
      <trkpt lat="40.92933" lon="-4.08944">
        <ele>1073.0</ele>
      </trkpt>
      <trkpt lat="40.9293" lon="-4.08964">
        <ele>1074.0</ele>
      </trkpt>
      <trkpt lat="40.92887" lon="-4.08988">
        <ele>1076.0</ele>
      </trkpt>
      <trkpt lat="40.92828" lon="-4.09054">
        <ele>1081.0</ele>
      </trkpt>
      <trkpt lat="40.93205" lon="-4.09655">
        <ele>1084.0</ele>
      </trkpt>
      <trkpt lat="40.93287" lon="-4.0975599999999">
        <ele>1082.0</ele>
      </trkpt>
    </trkseg>
  </trk>
</gpx>