<?xml version="1.0" encoding="UTF-8"?>
<gpx xmlns="http://www.topografix.com/GPX/1/1" xmlns:xsi="http://www.w3.org/2001/XMLSchema-instance" xsi:schemaLocation="http://www.topografix.com/GPX/1/1 http://www.topografix.com/GPX/1/1/gpx.xsd" version="1.1" creator="Xplova">
  <metadata>
    <link href="http://www.xplova.com">
      <text>Xplova Inc.</text>
    </link>
  </metadata>
  <trk>
    <name>LaPerico-corta</name>
    <trkseg>
      <trkpt lat="40.94808" lon="-4.11689">
        <ele>989.0</ele>
      </trkpt>
      <trkpt lat="40.94857" lon="-4.11464">
        <ele>986.0</ele>
      </trkpt>
      <trkpt lat="40.94859" lon="-4.11434">
        <ele>986.0</ele>
      </trkpt>
      <trkpt lat="40.94843" lon="-4.11372">
        <ele>991.0</ele>
      </trkpt>
      <trkpt lat="40.94823" lon="-4.11343">
        <ele>995.0</ele>
      </trkpt>
      <trkpt lat="40.94798" lon="-4.11322">
        <ele>999.0</ele>
      </trkpt>
      <trkpt lat="40.94723" lon="-4.11262">
        <ele>1007.0</ele>
      </trkpt>
      <trkpt lat="40.94717" lon="-4.11266">
        <ele>1008.0</ele>
      </trkpt>
      <trkpt lat="40.94711" lon="-4.11268">
        <ele>1008.0</ele>
      </trkpt>
      <trkpt lat="40.94706" lon="-4.11267">
        <ele>1008.0</ele>
      </trkpt>
      <trkpt lat="40.94701" lon="-4.11262">
        <ele>1009.0</ele>
      </trkpt>
      <trkpt lat="40.94698" lon="-4.11257">
        <ele>1009.0</ele>
      </trkpt>
      <trkpt lat="40.94696" lon="-4.11249">
        <ele>1009.0</ele>
      </trkpt>
      <trkpt lat="40.94659" lon="-4.11226">
        <ele>1011.0</ele>
      </trkpt>
      <trkpt lat="40.94603" lon="-4.11182">
        <ele>1012.0</ele>
      </trkpt>
      <trkpt lat="40.94439" lon="-4.11024">
        <ele>1020.0</ele>
      </trkpt>
      <trkpt lat="40.94346" lon="-4.10937">
        <ele>1023.0</ele>
      </trkpt>
      <trkpt lat="40.94282" lon="-4.10877">
        <ele>1025.0</ele>
      </trkpt>
      <trkpt lat="40.94277" lon="-4.10878">
        <ele>1025.0</ele>
      </trkpt>
      <trkpt lat="40.94271" lon="-4.10875">
        <ele>1025.0</ele>
      </trkpt>
      <trkpt lat="40.94268" lon="-4.10871">
        <ele>1025.0</ele>
      </trkpt>
      <trkpt lat="40.94266" lon="-4.10865">
        <ele>1025.0</ele>
      </trkpt>
      <trkpt lat="40.94265" lon="-4.10858">
        <ele>1025.0</ele>
      </trkpt>
      <trkpt lat="40.94234" lon="-4.10792">
        <ele>1028.0</ele>
      </trkpt>
      <trkpt lat="40.94137" lon="-4.10623">
        <ele>1036.0</ele>
      </trkpt>
      <trkpt lat="40.9402" lon="-4.10415">
        <ele>1048.0</ele>
      </trkpt>
      <trkpt lat="40.94013" lon="-4.10419">
        <ele>1049.0</ele>
      </trkpt>
      <trkpt lat="40.94003" lon="-4.10418">
        <ele>1049.0</ele>
      </trkpt>
      <trkpt lat="40.93992" lon="-4.1041">
        <ele>1050.0</ele>
      </trkpt>
      <trkpt lat="40.93988" lon="-4.10403">
        <ele>1051.0</ele>
      </trkpt>
      <trkpt lat="40.93985" lon="-4.10387">
        <ele>1052.0</ele>
      </trkpt>
      <trkpt lat="40.93874" lon="-4.1023">
        <ele>1063.0</ele>
      </trkpt>
      <trkpt lat="40.93624" lon="-4.0995">
        <ele>1077.0</ele>
      </trkpt>
      <trkpt lat="40.9361" lon="-4.09953">
        <ele>1077.0</ele>
      </trkpt>
      <trkpt lat="40.93598" lon="-4.09948">
        <ele>1077.0</ele>
      </trkpt>
      <trkpt lat="40.93589" lon="-4.09939">
        <ele>1078.0</ele>
      </trkpt>
      <trkpt lat="40.93584" lon="-4.09916">
        <ele>1078.0</ele>
      </trkpt>
      <trkpt lat="40.93541" lon="-4.09848">
        <ele>1079.0</ele>
      </trkpt>
      <trkpt lat="40.93385" lon="-4.09661">
        <ele>1082.0</ele>
      </trkpt>
      <trkpt lat="40.93267" lon="-4.0951">
        <ele>1083.0</ele>
      </trkpt>
      <trkpt lat="40.93112" lon="-4.09267">
        <ele>1080.0</ele>
      </trkpt>
      <trkpt lat="40.93006" lon="-4.09098">
        <ele>1076.0</ele>
      </trkpt>
      <trkpt lat="40.92919" lon="-4.08972">
        <ele>1074.0</ele>
      </trkpt>
      <trkpt lat="40.92911" lon="-4.08971">
        <ele>1075.0</ele>
      </trkpt>
      <trkpt lat="40.92903" lon="-4.08965">
        <ele>1075.0</ele>
      </trkpt>
      <trkpt lat="40.92897" lon="-4.08957">
        <ele>1074.0</ele>
      </trkpt>
      <trkpt lat="40.9289" lon="-4.08936">
        <ele>1073.0</ele>
      </trkpt>
      <trkpt lat="40.92847" lon="-4.08833">
        <ele>1073.0</ele>
      </trkpt>
      <trkpt lat="40.92788" lon="-4.08741">
        <ele>1070.0</ele>
      </trkpt>
      <trkpt lat="40.92765" lon="-4.08721">
        <ele>1069.0</ele>
      </trkpt>
      <trkpt lat="40.92746" lon="-4.08722">
        <ele>1070.0</ele>
      </trkpt>
      <trkpt lat="40.92724" lon="-4.08702">
        <ele>1070.0</ele>
      </trkpt>
      <trkpt lat="40.92721" lon="-4.08664">
        <ele>1069.0</ele>
      </trkpt>
      <trkpt lat="40.92718" lon="-4.08626">
        <ele>1068.0</ele>
      </trkpt>
      <trkpt lat="40.92527" lon="-4.08323">
        <ele>1065.0</ele>
      </trkpt>
      <trkpt lat="40.92359" lon="-4.08061">
        <ele>1065.0</ele>
      </trkpt>
      <trkpt lat="40.92313" lon="-4.08006">
        <ele>1066.0</ele>
      </trkpt>
      <trkpt lat="40.92307" lon="-4.08006">
        <ele>1066.0</ele>
      </trkpt>
      <trkpt lat="40.92302" lon="-4.08003">
        <ele>1066.0</ele>
      </trkpt>
      <trkpt lat="40.92298" lon="-4.07997">
        <ele>1067.0</ele>
      </trkpt>
      <trkpt lat="40.92296" lon="-4.0799">
        <ele>1067.0</ele>
      </trkpt>
      <trkpt lat="40.92296" lon="-4.07982">
        <ele>1067.0</ele>
      </trkpt>
      <trkpt lat="40.92269" lon="-4.07918">
        <ele>1069.0</ele>
      </trkpt>
      <trkpt lat="40.9214" lon="-4.07715">
        <ele>1075.0</ele>
      </trkpt>
      <trkpt lat="40.91651" lon="-4.06943">
        <ele>1092.0</ele>
      </trkpt>
      <trkpt lat="40.91601" lon="-4.06875">
        <ele>1090.0</ele>
      </trkpt>
      <trkpt lat="40.91593" lon="-4.06869">
        <ele>1090.0</ele>
      </trkpt>
      <trkpt lat="40.91587" lon="-4.06857">
        <ele>1090.0</ele>
      </trkpt>
      <trkpt lat="40.91586" lon="-4.06843">
        <ele>1089.0</ele>
      </trkpt>
      <trkpt lat="40.91425" lon="-4.06601">
        <ele>1092.0</ele>
      </trkpt>
      <trkpt lat="40.91417" lon="-4.066">
        <ele>1092.0</ele>
      </trkpt>
      <trkpt lat="40.91409" lon="-4.06594">
        <ele>1092.0</ele>
      </trkpt>
      <trkpt lat="40.91401" lon="-4.06581">
        <ele>1092.0</ele>
      </trkpt>
      <trkpt lat="40.914" lon="-4.06566">
        <ele>1093.0</ele>
      </trkpt>
      <trkpt lat="40.91384" lon="-4.06526">
        <ele>1094.0</ele>
      </trkpt>
      <trkpt lat="40.91337" lon="-4.06454">
        <ele>1096.0</ele>
      </trkpt>
      <trkpt lat="40.91243" lon="-4.06311">
        <ele>1100.0</ele>
      </trkpt>
      <trkpt lat="40.91129" lon="-4.06119">
        <ele>1101.0</ele>
      </trkpt>
      <trkpt lat="40.91088" lon="-4.06013">
        <ele>1103.0</ele>
      </trkpt>
      <trkpt lat="40.9107" lon="-4.05934">
        <ele>1104.0</ele>
      </trkpt>
      <trkpt lat="40.91056" lon="-4.05892">
        <ele>1104.0</ele>
      </trkpt>
      <trkpt lat="40.9105" lon="-4.05884">
        <ele>1104.0</ele>
      </trkpt>
      <trkpt lat="40.91047" lon="-4.05873">
        <ele>1104.0</ele>
      </trkpt>
      <trkpt lat="40.91047" lon="-4.05862">
        <ele>1104.0</ele>
      </trkpt>
      <trkpt lat="40.9105" lon="-4.0585">
        <ele>1104.0</ele>
      </trkpt>
      <trkpt lat="40.90991" lon="-4.05375">
        <ele>1112.0</ele>
      </trkpt>
      <trkpt lat="40.90931" lon="-4.04973">
        <ele>1121.0</ele>
      </trkpt>
      <trkpt lat="40.90854" lon="-4.04523">
        <ele>1126.0</ele>
      </trkpt>
      <trkpt lat="40.90845" lon="-4.04516">
        <ele>1127.0</ele>
      </trkpt>
      <trkpt lat="40.90838" lon="-4.04502">
        <ele>1126.0</ele>
      </trkpt>
      <trkpt lat="40.90839" lon="-4.04488">
        <ele>1126.0</ele>
      </trkpt>
      <trkpt lat="40.90846" lon="-4.04474">
        <ele>1126.0</ele>
      </trkpt>
      <trkpt lat="40.90809" lon="-4.04145">
        <ele>1128.0</ele>
      </trkpt>
      <trkpt lat="40.90791" lon="-4.0406">
        <ele>1128.0</ele>
      </trkpt>
      <trkpt lat="40.90663" lon="-4.03686">
        <ele>1128.0</ele>
      </trkpt>
      <trkpt lat="40.90464" lon="-4.03098">
        <ele>1114.0</ele>
      </trkpt>
      <trkpt lat="40.90433" lon="-4.03044">
        <ele>1112.0</ele>
      </trkpt>
      <trkpt lat="40.90428" lon="-4.03041">
        <ele>1112.0</ele>
      </trkpt>
      <trkpt lat="40.90421" lon="-4.03027">
        <ele>1111.0</ele>
      </trkpt>
      <trkpt lat="40.90419" lon="-4.03009">
        <ele>1110.0</ele>
      </trkpt>
      <trkpt lat="40.90417" lon="-4.02966">
        <ele>1109.0</ele>
      </trkpt>
      <trkpt lat="40.90403" lon="-4.02801">
        <ele>1105.0</ele>
      </trkpt>
      <trkpt lat="40.90436" lon="-4.02346">
        <ele>1121.0</ele>
      </trkpt>
      <trkpt lat="40.90453" lon="-4.02087">
        <ele>1125.0</ele>
      </trkpt>
      <trkpt lat="40.90433" lon="-4.01994">
        <ele>1126.0</ele>
      </trkpt>
      <trkpt lat="40.90318" lon="-4.01634">
        <ele>1136.0</ele>
      </trkpt>
      <trkpt lat="40.90238" lon="-4.01413">
        <ele>1145.0</ele>
      </trkpt>
      <trkpt lat="40.90175" lon="-4.01269">
        <ele>1148.0</ele>
      </trkpt>
      <trkpt lat="40.90102" lon="-4.01079">
        <ele>1157.0</ele>
      </trkpt>
      <trkpt lat="40.90034" lon="-4.00943">
        <ele>1168.0</ele>
      </trkpt>
      <trkpt lat="40.90029" lon="-4.00944">
        <ele>1168.0</ele>
      </trkpt>
      <trkpt lat="40.90024" lon="-4.00942">
        <ele>1169.0</ele>
      </trkpt>
      <trkpt lat="40.90019" lon="-4.00936">
        <ele>1170.0</ele>
      </trkpt>
      <trkpt lat="40.90018" lon="-4.00929">
        <ele>1170.0</ele>
      </trkpt>
      <trkpt lat="40.90018" lon="-4.00923">
        <ele>1171.0</ele>
      </trkpt>
      <trkpt lat="40.90019" lon="-4.00916">
        <ele>1171.0</ele>
      </trkpt>
      <trkpt lat="40.90023" lon="-4.00912">
        <ele>1171.0</ele>
      </trkpt>
      <trkpt lat="40.90029" lon="-4.0091">
        <ele>1170.0</ele>
      </trkpt>
      <trkpt lat="40.90034" lon="-4.00911">
        <ele>1170.0</ele>
      </trkpt>
      <trkpt lat="40.90039" lon="-4.00914">
        <ele>1170.0</ele>
      </trkpt>
      <trkpt lat="40.90042" lon="-4.00919">
        <ele>1169.0</ele>
      </trkpt>
      <trkpt lat="40.90043" lon="-4.00924">
        <ele>1169.0</ele>
      </trkpt>
      <trkpt lat="40.90043" lon="-4.0093">
        <ele>1168.0</ele>
      </trkpt>
      <trkpt lat="40.90042" lon="-4.00935">
        <ele>1168.0</ele>
      </trkpt>
      <trkpt lat="40.90038" lon="-4.0094">
        <ele>1168.0</ele>
      </trkpt>
      <trkpt lat="40.90034" lon="-4.00943">
        <ele>1168.0</ele>
      </trkpt>
      <trkpt lat="40.90029" lon="-4.00944">
        <ele>1168.0</ele>
      </trkpt>
      <trkpt lat="40.90023" lon="-4.00942">
        <ele>1169.0</ele>
      </trkpt>
      <trkpt lat="40.89956" lon="-4.01119">
        <ele>1161.0</ele>
      </trkpt>
      <trkpt lat="40.89917" lon="-4.01184">
        <ele>1163.0</ele>
      </trkpt>
      <trkpt lat="40.89833" lon="-4.01227">
        <ele>1167.0</ele>
      </trkpt>
      <trkpt lat="40.897" lon="-4.01234">
        <ele>1168.0</ele>
      </trkpt>
      <trkpt lat="40.89546" lon="-4.01194">
        <ele>1173.0</ele>
      </trkpt>
      <trkpt lat="40.89488" lon="-4.01186">
        <ele>1175.0</ele>
      </trkpt>
      <trkpt lat="40.89367" lon="-4.01213">
        <ele>1176.0</ele>
      </trkpt>
      <trkpt lat="40.89176" lon="-4.0126">
        <ele>1178.0</ele>
      </trkpt>
      <trkpt lat="40.89092" lon="-4.01296">
        <ele>1179.0</ele>
      </trkpt>
      <trkpt lat="40.8901" lon="-4.01383">
        <ele>1181.0</ele>
      </trkpt>
      <trkpt lat="40.88857" lon="-4.0152">
        <ele>1174.0</ele>
      </trkpt>
      <trkpt lat="40.8871" lon="-4.01643">
        <ele>1177.0</ele>
      </trkpt>
      <trkpt lat="40.88602" lon="-4.01711">
        <ele>1182.0</ele>
      </trkpt>
      <trkpt lat="40.88408" lon="-4.01813">
        <ele>1192.0</ele>
      </trkpt>
      <trkpt lat="40.88392" lon="-4.01836">
        <ele>1192.0</ele>
      </trkpt>
      <trkpt lat="40.8837" lon="-4.01886">
        <ele>1188.0</ele>
      </trkpt>
      <trkpt lat="40.88308" lon="-4.01926">
        <ele>1189.0</ele>
      </trkpt>
      <trkpt lat="40.88202" lon="-4.0188">
        <ele>1196.0</ele>
      </trkpt>
      <trkpt lat="40.88027" lon="-4.01835">
        <ele>1199.0</ele>
      </trkpt>
      <trkpt lat="40.87897" lon="-4.01835">
        <ele>1202.0</ele>
      </trkpt>
      <trkpt lat="40.87793" lon="-4.01863">
        <ele>1198.0</ele>
      </trkpt>
      <trkpt lat="40.87675" lon="-4.02002">
        <ele>1188.0</ele>
      </trkpt>
      <trkpt lat="40.87627" lon="-4.02051">
        <ele>1189.0</ele>
      </trkpt>
      <trkpt lat="40.87539" lon="-4.02076">
        <ele>1195.0</ele>
      </trkpt>
      <trkpt lat="40.87382" lon="-4.02117">
        <ele>1202.0</ele>
      </trkpt>
      <trkpt lat="40.87319" lon="-4.02134">
        <ele>1205.0</ele>
      </trkpt>
      <trkpt lat="40.87174" lon="-4.02174">
        <ele>1217.0</ele>
      </trkpt>
      <trkpt lat="40.87023" lon="-4.02234">
        <ele>1220.0</ele>
      </trkpt>
      <trkpt lat="40.8695" lon="-4.02238">
        <ele>1221.0</ele>
      </trkpt>
      <trkpt lat="40.86881" lon="-4.0224">
        <ele>1221.0</ele>
      </trkpt>
      <trkpt lat="40.86854" lon="-4.0227">
        <ele>1219.0</ele>
      </trkpt>
      <trkpt lat="40.86822" lon="-4.02327">
        <ele>1215.0</ele>
      </trkpt>
      <trkpt lat="40.86792" lon="-4.02342">
        <ele>1215.0</ele>
      </trkpt>
      <trkpt lat="40.86736" lon="-4.02388">
        <ele>1214.0</ele>
      </trkpt>
      <trkpt lat="40.86575" lon="-4.02564">
        <ele>1220.0</ele>
      </trkpt>
      <trkpt lat="40.86498" lon="-4.0269">
        <ele>1222.0</ele>
      </trkpt>
      <trkpt lat="40.86439" lon="-4.02728">
        <ele>1218.0</ele>
      </trkpt>
      <trkpt lat="40.86389" lon="-4.02716">
        <ele>1217.0</ele>
      </trkpt>
      <trkpt lat="40.86287" lon="-4.0265">
        <ele>1217.0</ele>
      </trkpt>
      <trkpt lat="40.86185" lon="-4.02643">
        <ele>1216.0</ele>
      </trkpt>
      <trkpt lat="40.86058" lon="-4.02656">
        <ele>1220.0</ele>
      </trkpt>
      <trkpt lat="40.85968" lon="-4.02631">
        <ele>1224.0</ele>
      </trkpt>
      <trkpt lat="40.85877" lon="-4.02622">
        <ele>1225.0</ele>
      </trkpt>
      <trkpt lat="40.85712" lon="-4.02661">
        <ele>1224.0</ele>
      </trkpt>
      <trkpt lat="40.85595" lon="-4.02673">
        <ele>1229.0</ele>
      </trkpt>
      <trkpt lat="40.85542" lon="-4.02662">
        <ele>1231.0</ele>
      </trkpt>
      <trkpt lat="40.85495" lon="-4.02621">
        <ele>1237.0</ele>
      </trkpt>
      <trkpt lat="40.85472" lon="-4.02623">
        <ele>1239.0</ele>
      </trkpt>
      <trkpt lat="40.85419" lon="-4.02652">
        <ele>1240.0</ele>
      </trkpt>
      <trkpt lat="40.85404" lon="-4.02712">
        <ele>1236.0</ele>
      </trkpt>
      <trkpt lat="40.85372" lon="-4.02761">
        <ele>1235.0</ele>
      </trkpt>
      <trkpt lat="40.85284" lon="-4.02797">
        <ele>1238.0</ele>
      </trkpt>
      <trkpt lat="40.85206" lon="-4.02792">
        <ele>1240.0</ele>
      </trkpt>
      <trkpt lat="40.8515" lon="-4.02739">
        <ele>1244.0</ele>
      </trkpt>
      <trkpt lat="40.85079" lon="-4.02677">
        <ele>1248.0</ele>
      </trkpt>
      <trkpt lat="40.84998" lon="-4.02627">
        <ele>1251.0</ele>
      </trkpt>
      <trkpt lat="40.84941" lon="-4.02615">
        <ele>1252.0</ele>
      </trkpt>
      <trkpt lat="40.84759" lon="-4.02529">
        <ele>1257.0</ele>
      </trkpt>
      <trkpt lat="40.84658" lon="-4.02504">
        <ele>1258.0</ele>
      </trkpt>
      <trkpt lat="40.8456" lon="-4.02512">
        <ele>1264.0</ele>
      </trkpt>
      <trkpt lat="40.84396" lon="-4.02542">
        <ele>1273.0</ele>
      </trkpt>
      <trkpt lat="40.84303" lon="-4.0255">
        <ele>1276.0</ele>
      </trkpt>
      <trkpt lat="40.84115" lon="-4.02575">
        <ele>1277.0</ele>
      </trkpt>
      <trkpt lat="40.84033" lon="-4.02614">
        <ele>1271.0</ele>
      </trkpt>
      <trkpt lat="40.83984" lon="-4.02614">
        <ele>1271.0</ele>
      </trkpt>
      <trkpt lat="40.83819" lon="-4.02517">
        <ele>1283.0</ele>
      </trkpt>
      <trkpt lat="40.8373" lon="-4.02501">
        <ele>1290.0</ele>
      </trkpt>
      <trkpt lat="40.83632" lon="-4.02506">
        <ele>1293.0</ele>
      </trkpt>
      <trkpt lat="40.83519" lon="-4.02469">
        <ele>1299.0</ele>
      </trkpt>
      <trkpt lat="40.83312" lon="-4.02429">
        <ele>1299.0</ele>
      </trkpt>
      <trkpt lat="40.83206" lon="-4.02363">
        <ele>1304.0</ele>
      </trkpt>
      <trkpt lat="40.83077" lon="-4.02323">
        <ele>1310.0</ele>
      </trkpt>
      <trkpt lat="40.8296" lon="-4.02284">
        <ele>1317.0</ele>
      </trkpt>
      <trkpt lat="40.82807" lon="-4.02264">
        <ele>1320.0</ele>
      </trkpt>
      <trkpt lat="40.82657" lon="-4.0225">
        <ele>1319.0</ele>
      </trkpt>
      <trkpt lat="40.82625" lon="-4.02214">
        <ele>1321.0</ele>
      </trkpt>
      <trkpt lat="40.82578" lon="-4.02086">
        <ele>1329.0</ele>
      </trkpt>
      <trkpt lat="40.82523" lon="-4.02002">
        <ele>1336.0</ele>
      </trkpt>
      <trkpt lat="40.82443" lon="-4.01957">
        <ele>1335.0</ele>
      </trkpt>
      <trkpt lat="40.82392" lon="-4.01911">
        <ele>1336.0</ele>
      </trkpt>
      <trkpt lat="40.8236" lon="-4.01858">
        <ele>1338.0</ele>
      </trkpt>
      <trkpt lat="40.82327" lon="-4.01738">
        <ele>1341.0</ele>
      </trkpt>
      <trkpt lat="40.82304" lon="-4.01723">
        <ele>1342.0</ele>
      </trkpt>
      <trkpt lat="40.82222" lon="-4.01675">
        <ele>1346.0</ele>
      </trkpt>
      <trkpt lat="40.82143" lon="-4.01672">
        <ele>1357.0</ele>
      </trkpt>
      <trkpt lat="40.81989" lon="-4.01601">
        <ele>1375.0</ele>
      </trkpt>
      <trkpt lat="40.81955" lon="-4.01589">
        <ele>1379.0</ele>
      </trkpt>
      <trkpt lat="40.81853" lon="-4.01589">
        <ele>1390.0</ele>
      </trkpt>
      <trkpt lat="40.81777" lon="-4.01509">
        <ele>1399.0</ele>
      </trkpt>
      <trkpt lat="40.81681" lon="-4.01453">
        <ele>1415.0</ele>
      </trkpt>
      <trkpt lat="40.81647" lon="-4.01462">
        <ele>1422.0</ele>
      </trkpt>
      <trkpt lat="40.81646" lon="-4.01488">
        <ele>1424.0</ele>
      </trkpt>
      <trkpt lat="40.81689" lon="-4.01571">
        <ele>1421.0</ele>
      </trkpt>
      <trkpt lat="40.81696" lon="-4.01763">
        <ele>1425.0</ele>
      </trkpt>
      <trkpt lat="40.81648" lon="-4.01809">
        <ele>1427.0</ele>
      </trkpt>
      <trkpt lat="40.81613" lon="-4.01771">
        <ele>1435.0</ele>
      </trkpt>
      <trkpt lat="40.81573" lon="-4.01725">
        <ele>1446.0</ele>
      </trkpt>
      <trkpt lat="40.81502" lon="-4.01753">
        <ele>1455.0</ele>
      </trkpt>
      <trkpt lat="40.81403" lon="-4.01867">
        <ele>1463.0</ele>
      </trkpt>
      <trkpt lat="40.8137" lon="-4.01917">
        <ele>1463.0</ele>
      </trkpt>
      <trkpt lat="40.81363" lon="-4.01911">
        <ele>1466.0</ele>
      </trkpt>
      <trkpt lat="40.81383" lon="-4.01835">
        <ele>1476.0</ele>
      </trkpt>
      <trkpt lat="40.81448" lon="-4.01642">
        <ele>1485.0</ele>
      </trkpt>
      <trkpt lat="40.81451" lon="-4.01571">
        <ele>1484.0</ele>
      </trkpt>
      <trkpt lat="40.81443" lon="-4.0156">
        <ele>1486.0</ele>
      </trkpt>
      <trkpt lat="40.81433" lon="-4.01566">
        <ele>1489.0</ele>
      </trkpt>
      <trkpt lat="40.81425" lon="-4.01637">
        <ele>1492.0</ele>
      </trkpt>
      <trkpt lat="40.81376" lon="-4.01723">
        <ele>1500.0</ele>
      </trkpt>
      <trkpt lat="40.81294" lon="-4.01827">
        <ele>1504.0</ele>
      </trkpt>
      <trkpt lat="40.81244" lon="-4.01845">
        <ele>1511.0</ele>
      </trkpt>
      <trkpt lat="40.81239" lon="-4.01835">
        <ele>1514.0</ele>
      </trkpt>
      <trkpt lat="40.81246" lon="-4.01823">
        <ele>1515.0</ele>
      </trkpt>
      <trkpt lat="40.81303" lon="-4.01772">
        <ele>1514.0</ele>
      </trkpt>
      <trkpt lat="40.81335" lon="-4.01646">
        <ele>1519.0</ele>
      </trkpt>
      <trkpt lat="40.81317" lon="-4.01574">
        <ele>1525.0</ele>
      </trkpt>
      <trkpt lat="40.8124" lon="-4.01451">
        <ele>1534.0</ele>
      </trkpt>
      <trkpt lat="40.81152" lon="-4.01425">
        <ele>1543.0</ele>
      </trkpt>
      <trkpt lat="40.81145" lon="-4.01429">
        <ele>1545.0</ele>
      </trkpt>
      <trkpt lat="40.81143" lon="-4.01442">
        <ele>1548.0</ele>
      </trkpt>
      <trkpt lat="40.81146" lon="-4.01447">
        <ele>1549.0</ele>
      </trkpt>
      <trkpt lat="40.81206" lon="-4.01472">
        <ele>1545.0</ele>
      </trkpt>
      <trkpt lat="40.81232" lon="-4.01569">
        <ele>1550.0</ele>
      </trkpt>
      <trkpt lat="40.8121" lon="-4.01647">
        <ele>1553.0</ele>
      </trkpt>
      <trkpt lat="40.812" lon="-4.01649">
        <ele>1555.0</ele>
      </trkpt>
      <trkpt lat="40.81194" lon="-4.01642">
        <ele>1557.0</ele>
      </trkpt>
      <trkpt lat="40.81191" lon="-4.01577">
        <ele>1560.0</ele>
      </trkpt>
      <trkpt lat="40.81164" lon="-4.01536">
        <ele>1563.0</ele>
      </trkpt>
      <trkpt lat="40.81085" lon="-4.01526">
        <ele>1574.0</ele>
      </trkpt>
      <trkpt lat="40.80969" lon="-4.01519">
        <ele>1590.0</ele>
      </trkpt>
      <trkpt lat="40.80902" lon="-4.01508">
        <ele>1604.0</ele>
      </trkpt>
      <trkpt lat="40.8088" lon="-4.0148">
        <ele>1608.0</ele>
      </trkpt>
      <trkpt lat="40.80852" lon="-4.01384">
        <ele>1608.0</ele>
      </trkpt>
      <trkpt lat="40.80805" lon="-4.01291">
        <ele>1625.0</ele>
      </trkpt>
      <trkpt lat="40.80838" lon="-4.01203">
        <ele>1620.0</ele>
      </trkpt>
      <trkpt lat="40.80871" lon="-4.00993">
        <ele>1635.0</ele>
      </trkpt>
      <trkpt lat="40.80891" lon="-4.00887">
        <ele>1642.0</ele>
      </trkpt>
      <trkpt lat="40.80985" lon="-4.00679">
        <ele>1648.0</ele>
      </trkpt>
      <trkpt lat="40.80977" lon="-4.00616">
        <ele>1649.0</ele>
      </trkpt>
      <trkpt lat="40.80949" lon="-4.00584">
        <ele>1652.0</ele>
      </trkpt>
      <trkpt lat="40.80869" lon="-4.00576">
        <ele>1663.0</ele>
      </trkpt>
      <trkpt lat="40.80787" lon="-4.00567">
        <ele>1668.0</ele>
      </trkpt>
      <trkpt lat="40.80617" lon="-4.00591">
        <ele>1685.0</ele>
      </trkpt>
      <trkpt lat="40.80481" lon="-4.00614">
        <ele>1702.0</ele>
      </trkpt>
      <trkpt lat="40.80401" lon="-4.00639">
        <ele>1714.0</ele>
      </trkpt>
      <trkpt lat="40.80296" lon="-4.00616">
        <ele>1712.0</ele>
      </trkpt>
      <trkpt lat="40.80247" lon="-4.00629">
        <ele>1717.0</ele>
      </trkpt>
      <trkpt lat="40.80214" lon="-4.00678">
        <ele>1726.0</ele>
      </trkpt>
      <trkpt lat="40.80152" lon="-4.00749">
        <ele>1742.0</ele>
      </trkpt>
      <trkpt lat="40.80105" lon="-4.00755">
        <ele>1750.0</ele>
      </trkpt>
      <trkpt lat="40.80011" lon="-4.00693">
        <ele>1748.0</ele>
      </trkpt>
      <trkpt lat="40.7984" lon="-4.00586">
        <ele>1759.0</ele>
      </trkpt>
      <trkpt lat="40.7977" lon="-4.00576">
        <ele>1758.0</ele>
      </trkpt>
      <trkpt lat="40.79721" lon="-4.00616">
        <ele>1769.0</ele>
      </trkpt>
      <trkpt lat="40.79652" lon="-4.00672">
        <ele>1788.0</ele>
      </trkpt>
      <trkpt lat="40.79587" lon="-4.00653">
        <ele>1786.0</ele>
      </trkpt>
      <trkpt lat="40.79526" lon="-4.00645">
        <ele>1785.0</ele>
      </trkpt>
      <trkpt lat="40.79468" lon="-4.00682">
        <ele>1794.0</ele>
      </trkpt>
      <trkpt lat="40.79391" lon="-4.00793">
        <ele>1816.0</ele>
      </trkpt>
      <trkpt lat="40.79324" lon="-4.00827">
        <ele>1823.0</ele>
      </trkpt>
      <trkpt lat="40.79274" lon="-4.00818">
        <ele>1826.0</ele>
      </trkpt>
      <trkpt lat="40.79166" lon="-4.00712">
        <ele>1828.0</ele>
      </trkpt>
      <trkpt lat="40.79022" lon="-4.00533">
        <ele>1842.0</ele>
      </trkpt>
      <trkpt lat="40.78952" lon="-4.00424">
        <ele>1849.0</ele>
      </trkpt>
      <trkpt lat="40.78891" lon="-4.00365">
        <ele>1857.0</ele>
      </trkpt>
      <trkpt lat="40.78881" lon="-4.00346">
        <ele>1856.0</ele>
      </trkpt>
      <trkpt lat="40.78881" lon="-4.00338">
        <ele>1855.0</ele>
      </trkpt>
      <trkpt lat="40.78883" lon="-4.00331">
        <ele>1855.0</ele>
      </trkpt>
      <trkpt lat="40.78886" lon="-4.00326">
        <ele>1855.0</ele>
      </trkpt>
      <trkpt lat="40.78914" lon="-4.00294">
        <ele>1854.0</ele>
      </trkpt>
      <trkpt lat="40.78969" lon="-4.00154">
        <ele>1847.0</ele>
      </trkpt>
      <trkpt lat="40.79059" lon="-3.99889">
        <ele>1850.0</ele>
      </trkpt>
      <trkpt lat="40.79076" lon="-3.99789">
        <ele>1853.0</ele>
      </trkpt>
      <trkpt lat="40.791" lon="-3.99724">
        <ele>1855.0</ele>
      </trkpt>
      <trkpt lat="40.79142" lon="-3.99693">
        <ele>1857.0</ele>
      </trkpt>
      <trkpt lat="40.79199" lon="-3.99703">
        <ele>1849.0</ele>
      </trkpt>
      <trkpt lat="40.79238" lon="-3.99711">
        <ele>1844.0</ele>
      </trkpt>
      <trkpt lat="40.79308" lon="-3.99686">
        <ele>1840.0</ele>
      </trkpt>
      <trkpt lat="40.79363" lon="-3.99633">
        <ele>1839.0</ele>
      </trkpt>
      <trkpt lat="40.79433" lon="-3.99505">
        <ele>1840.0</ele>
      </trkpt>
      <trkpt lat="40.79449" lon="-3.9942">
        <ele>1839.0</ele>
      </trkpt>
      <trkpt lat="40.79417" lon="-3.99334">
        <ele>1835.0</ele>
      </trkpt>
      <trkpt lat="40.79342" lon="-3.99234">
        <ele>1836.0</ele>
      </trkpt>
      <trkpt lat="40.79306" lon="-3.99222">
        <ele>1844.0</ele>
      </trkpt>
      <trkpt lat="40.79287" lon="-3.99194">
        <ele>1844.0</ele>
      </trkpt>
      <trkpt lat="40.79263" lon="-3.991">
        <ele>1836.0</ele>
      </trkpt>
      <trkpt lat="40.79221" lon="-3.98997">
        <ele>1843.0</ele>
      </trkpt>
      <trkpt lat="40.79267" lon="-3.98931">
        <ele>1837.0</ele>
      </trkpt>
      <trkpt lat="40.79301" lon="-3.98873">
        <ele>1836.0</ele>
      </trkpt>
      <trkpt lat="40.79343" lon="-3.9873">
        <ele>1848.0</ele>
      </trkpt>
      <trkpt lat="40.7937" lon="-3.98712">
        <ele>1850.0</ele>
      </trkpt>
      <trkpt lat="40.79456" lon="-3.98766">
        <ele>1836.0</ele>
      </trkpt>
      <trkpt lat="40.79522" lon="-3.9877">
        <ele>1833.0</ele>
      </trkpt>
      <trkpt lat="40.79572" lon="-3.98725">
        <ele>1833.0</ele>
      </trkpt>
      <trkpt lat="40.79636" lon="-3.9855">
        <ele>1849.0</ele>
      </trkpt>
      <trkpt lat="40.7974" lon="-3.98523">
        <ele>1848.0</ele>
      </trkpt>
      <trkpt lat="40.79809" lon="-3.98565">
        <ele>1842.0</ele>
      </trkpt>
      <trkpt lat="40.79868" lon="-3.98587">
        <ele>1838.0</ele>
      </trkpt>
      <trkpt lat="40.80074" lon="-3.98555">
        <ele>1836.0</ele>
      </trkpt>
      <trkpt lat="40.80131" lon="-3.98519">
        <ele>1833.0</ele>
      </trkpt>
      <trkpt lat="40.80297" lon="-3.98258">
        <ele>1836.0</ele>
      </trkpt>
      <trkpt lat="40.80378" lon="-3.98091">
        <ele>1845.0</ele>
      </trkpt>
      <trkpt lat="40.80451" lon="-3.98027">
        <ele>1847.0</ele>
      </trkpt>
      <trkpt lat="40.80588" lon="-3.98039">
        <ele>1833.0</ele>
      </trkpt>
      <trkpt lat="40.80654" lon="-3.98003">
        <ele>1844.0</ele>
      </trkpt>
      <trkpt lat="40.80715" lon="-3.98027">
        <ele>1844.0</ele>
      </trkpt>
      <trkpt lat="40.80883" lon="-3.98146">
        <ele>1833.0</ele>
      </trkpt>
      <trkpt lat="40.81001" lon="-3.98173">
        <ele>1826.0</ele>
      </trkpt>
      <trkpt lat="40.81059" lon="-3.98122">
        <ele>1826.0</ele>
      </trkpt>
      <trkpt lat="40.81107" lon="-3.98">
        <ele>1828.0</ele>
      </trkpt>
      <trkpt lat="40.81128" lon="-3.97819">
        <ele>1838.0</ele>
      </trkpt>
      <trkpt lat="40.81139" lon="-3.97778">
        <ele>1841.0</ele>
      </trkpt>
      <trkpt lat="40.81257" lon="-3.97739">
        <ele>1829.0</ele>
      </trkpt>
      <trkpt lat="40.81339" lon="-3.97724">
        <ele>1824.0</ele>
      </trkpt>
      <trkpt lat="40.81435" lon="-3.97596">
        <ele>1826.0</ele>
      </trkpt>
      <trkpt lat="40.81457" lon="-3.97527">
        <ele>1822.0</ele>
      </trkpt>
      <trkpt lat="40.81454" lon="-3.97483">
        <ele>1822.0</ele>
      </trkpt>
      <trkpt lat="40.81408" lon="-3.9743">
        <ele>1828.0</ele>
      </trkpt>
      <trkpt lat="40.81361" lon="-3.97392">
        <ele>1839.0</ele>
      </trkpt>
      <trkpt lat="40.81343" lon="-3.97248">
        <ele>1834.0</ele>
      </trkpt>
      <trkpt lat="40.81383" lon="-3.97027">
        <ele>1836.0</ele>
      </trkpt>
      <trkpt lat="40.81433" lon="-3.96974">
        <ele>1831.0</ele>
      </trkpt>
      <trkpt lat="40.81571" lon="-3.96801">
        <ele>1838.0</ele>
      </trkpt>
      <trkpt lat="40.81607" lon="-3.96761">
        <ele>1844.0</ele>
      </trkpt>
      <trkpt lat="40.81687" lon="-3.96779">
        <ele>1838.0</ele>
      </trkpt>
      <trkpt lat="40.81747" lon="-3.96807">
        <ele>1833.0</ele>
      </trkpt>
      <trkpt lat="40.81808" lon="-3.96801">
        <ele>1833.0</ele>
      </trkpt>
      <trkpt lat="40.81873" lon="-3.96748">
        <ele>1836.0</ele>
      </trkpt>
      <trkpt lat="40.81978" lon="-3.96676">
        <ele>1837.0</ele>
      </trkpt>
      <trkpt lat="40.82073" lon="-3.96623">
        <ele>1832.0</ele>
      </trkpt>
      <trkpt lat="40.82191" lon="-3.96454">
        <ele>1835.0</ele>
      </trkpt>
      <trkpt lat="40.82296" lon="-3.96318">
        <ele>1835.0</ele>
      </trkpt>
      <trkpt lat="40.82328" lon="-3.96242">
        <ele>1836.0</ele>
      </trkpt>
      <trkpt lat="40.82358" lon="-3.96242">
        <ele>1839.0</ele>
      </trkpt>
      <trkpt lat="40.82329" lon="-3.96231">
        <ele>1835.0</ele>
      </trkpt>
      <trkpt lat="40.82334" lon="-3.96148">
        <ele>1831.0</ele>
      </trkpt>
      <trkpt lat="40.82336" lon="-3.95938">
        <ele>1823.0</ele>
      </trkpt>
      <trkpt lat="40.82325" lon="-3.9586">
        <ele>1817.0</ele>
      </trkpt>
      <trkpt lat="40.82296" lon="-3.95707">
        <ele>1806.0</ele>
      </trkpt>
      <trkpt lat="40.82298" lon="-3.95597">
        <ele>1800.0</ele>
      </trkpt>
      <trkpt lat="40.8236" lon="-3.95399">
        <ele>1791.0</ele>
      </trkpt>
      <trkpt lat="40.8237" lon="-3.95356">
        <ele>1790.0</ele>
      </trkpt>
      <trkpt lat="40.82333" lon="-3.95254">
        <ele>1779.0</ele>
      </trkpt>
      <trkpt lat="40.823" lon="-3.95234">
        <ele>1776.0</ele>
      </trkpt>
      <trkpt lat="40.82225" lon="-3.95263">
        <ele>1767.0</ele>
      </trkpt>
      <trkpt lat="40.82181" lon="-3.95262">
        <ele>1762.0</ele>
      </trkpt>
      <trkpt lat="40.82156" lon="-3.95231">
        <ele>1760.0</ele>
      </trkpt>
      <trkpt lat="40.82145" lon="-3.95125">
        <ele>1757.0</ele>
      </trkpt>
      <trkpt lat="40.82168" lon="-3.94947">
        <ele>1746.0</ele>
      </trkpt>
      <trkpt lat="40.82209" lon="-3.94844">
        <ele>1739.0</ele>
      </trkpt>
      <trkpt lat="40.82274" lon="-3.94798">
        <ele>1743.0</ele>
      </trkpt>
      <trkpt lat="40.82301" lon="-3.94751">
        <ele>1737.0</ele>
      </trkpt>
      <trkpt lat="40.82347" lon="-3.94649">
        <ele>1725.0</ele>
      </trkpt>
      <trkpt lat="40.82384" lon="-3.94609">
        <ele>1722.0</ele>
      </trkpt>
      <trkpt lat="40.82427" lon="-3.94554">
        <ele>1711.0</ele>
      </trkpt>
      <trkpt lat="40.82484" lon="-3.94546">
        <ele>1710.0</ele>
      </trkpt>
      <trkpt lat="40.82573" lon="-3.94563">
        <ele>1709.0</ele>
      </trkpt>
      <trkpt lat="40.82658" lon="-3.94588">
        <ele>1704.0</ele>
      </trkpt>
      <trkpt lat="40.82689" lon="-3.94619">
        <ele>1712.0</ele>
      </trkpt>
      <trkpt lat="40.82703" lon="-3.94617">
        <ele>1713.0</ele>
      </trkpt>
      <trkpt lat="40.82719" lon="-3.94577">
        <ele>1708.0</ele>
      </trkpt>
      <trkpt lat="40.82736" lon="-3.94445">
        <ele>1692.0</ele>
      </trkpt>
      <trkpt lat="40.82704" lon="-3.94225">
        <ele>1675.0</ele>
      </trkpt>
      <trkpt lat="40.82711" lon="-3.94032">
        <ele>1663.0</ele>
      </trkpt>
      <trkpt lat="40.82755" lon="-3.93986">
        <ele>1664.0</ele>
      </trkpt>
      <trkpt lat="40.82776" lon="-3.93979">
        <ele>1667.0</ele>
      </trkpt>
      <trkpt lat="40.82787" lon="-3.93885">
        <ele>1651.0</ele>
      </trkpt>
      <trkpt lat="40.82811" lon="-3.93813">
        <ele>1644.0</ele>
      </trkpt>
      <trkpt lat="40.82866" lon="-3.93795">
        <ele>1651.0</ele>
      </trkpt>
      <trkpt lat="40.82883" lon="-3.93766">
        <ele>1649.0</ele>
      </trkpt>
      <trkpt lat="40.82888" lon="-3.93616">
        <ele>1630.0</ele>
      </trkpt>
      <trkpt lat="40.82941" lon="-3.93536">
        <ele>1623.0</ele>
      </trkpt>
      <trkpt lat="40.82997" lon="-3.93522">
        <ele>1619.0</ele>
      </trkpt>
      <trkpt lat="40.83093" lon="-3.93531">
        <ele>1613.0</ele>
      </trkpt>
      <trkpt lat="40.83132" lon="-3.93552">
        <ele>1612.0</ele>
      </trkpt>
      <trkpt lat="40.83215" lon="-3.9361">
        <ele>1613.0</ele>
      </trkpt>
      <trkpt lat="40.83293" lon="-3.93646">
        <ele>1615.0</ele>
      </trkpt>
      <trkpt lat="40.83324" lon="-3.93606">
        <ele>1609.0</ele>
      </trkpt>
      <trkpt lat="40.83325" lon="-3.93581">
        <ele>1605.0</ele>
      </trkpt>
      <trkpt lat="40.83289" lon="-3.93538">
        <ele>1605.0</ele>
      </trkpt>
      <trkpt lat="40.83245" lon="-3.93441">
        <ele>1599.0</ele>
      </trkpt>
      <trkpt lat="40.832" lon="-3.93339">
        <ele>1591.0</ele>
      </trkpt>
      <trkpt lat="40.83102" lon="-3.93198">
        <ele>1572.0</ele>
      </trkpt>
      <trkpt lat="40.83056" lon="-3.93098">
        <ele>1563.0</ele>
      </trkpt>
      <trkpt lat="40.83025" lon="-3.93045">
        <ele>1555.0</ele>
      </trkpt>
      <trkpt lat="40.83025" lon="-3.93015">
        <ele>1555.0</ele>
      </trkpt>
      <trkpt lat="40.8307" lon="-3.92934">
        <ele>1553.0</ele>
      </trkpt>
      <trkpt lat="40.83109" lon="-3.92923">
        <ele>1559.0</ele>
      </trkpt>
      <trkpt lat="40.83126" lon="-3.92898">
        <ele>1558.0</ele>
      </trkpt>
      <trkpt lat="40.83139" lon="-3.92823">
        <ele>1546.0</ele>
      </trkpt>
      <trkpt lat="40.83188" lon="-3.92727">
        <ele>1546.0</ele>
      </trkpt>
      <trkpt lat="40.83199" lon="-3.92601">
        <ele>1536.0</ele>
      </trkpt>
      <trkpt lat="40.83217" lon="-3.92538">
        <ele>1537.0</ele>
      </trkpt>
      <trkpt lat="40.8319" lon="-3.92472">
        <ele>1529.0</ele>
      </trkpt>
      <trkpt lat="40.83155" lon="-3.92427">
        <ele>1521.0</ele>
      </trkpt>
      <trkpt lat="40.83146" lon="-3.92357">
        <ele>1520.0</ele>
      </trkpt>
      <trkpt lat="40.8313" lon="-3.92271">
        <ele>1510.0</ele>
      </trkpt>
      <trkpt lat="40.83169" lon="-3.9223">
        <ele>1517.0</ele>
      </trkpt>
      <trkpt lat="40.83174" lon="-3.92173">
        <ele>1514.0</ele>
      </trkpt>
      <trkpt lat="40.83132" lon="-3.9212">
        <ele>1501.0</ele>
      </trkpt>
      <trkpt lat="40.83076" lon="-3.91923">
        <ele>1484.0</ele>
      </trkpt>
      <trkpt lat="40.83082" lon="-3.91837">
        <ele>1478.0</ele>
      </trkpt>
      <trkpt lat="40.83171" lon="-3.91763">
        <ele>1484.0</ele>
      </trkpt>
      <trkpt lat="40.83242" lon="-3.9171">
        <ele>1484.0</ele>
      </trkpt>
      <trkpt lat="40.83314" lon="-3.91534">
        <ele>1465.0</ele>
      </trkpt>
      <trkpt lat="40.83327" lon="-3.91383">
        <ele>1453.0</ele>
      </trkpt>
      <trkpt lat="40.8338" lon="-3.91279">
        <ele>1444.0</ele>
      </trkpt>
      <trkpt lat="40.83423" lon="-3.91286">
        <ele>1449.0</ele>
      </trkpt>
      <trkpt lat="40.83565" lon="-3.91283">
        <ele>1448.0</ele>
      </trkpt>
      <trkpt lat="40.83584" lon="-3.91271">
        <ele>1446.0</ele>
      </trkpt>
      <trkpt lat="40.83555" lon="-3.91173">
        <ele>1437.0</ele>
      </trkpt>
      <trkpt lat="40.83524" lon="-3.91154">
        <ele>1432.0</ele>
      </trkpt>
      <trkpt lat="40.83425" lon="-3.90991">
        <ele>1414.0</ele>
      </trkpt>
      <trkpt lat="40.83393" lon="-3.90753">
        <ele>1407.0</ele>
      </trkpt>
      <trkpt lat="40.83413" lon="-3.90503">
        <ele>1398.0</ele>
      </trkpt>
      <trkpt lat="40.83462" lon="-3.90314">
        <ele>1395.0</ele>
      </trkpt>
      <trkpt lat="40.8349" lon="-3.90216">
        <ele>1392.0</ele>
      </trkpt>
      <trkpt lat="40.83624" lon="-3.89953">
        <ele>1390.0</ele>
      </trkpt>
      <trkpt lat="40.83781" lon="-3.8966">
        <ele>1379.0</ele>
      </trkpt>
      <trkpt lat="40.83843" lon="-3.89607">
        <ele>1381.0</ele>
      </trkpt>
      <trkpt lat="40.83933" lon="-3.89451">
        <ele>1370.0</ele>
      </trkpt>
      <trkpt lat="40.84002" lon="-3.89355">
        <ele>1367.0</ele>
      </trkpt>
      <trkpt lat="40.84054" lon="-3.89254">
        <ele>1356.0</ele>
      </trkpt>
      <trkpt lat="40.84095" lon="-3.89197">
        <ele>1346.0</ele>
      </trkpt>
      <trkpt lat="40.84128" lon="-3.89196">
        <ele>1345.0</ele>
      </trkpt>
      <trkpt lat="40.84153" lon="-3.89222">
        <ele>1351.0</ele>
      </trkpt>
      <trkpt lat="40.84186" lon="-3.89271">
        <ele>1364.0</ele>
      </trkpt>
      <trkpt lat="40.84197" lon="-3.89274">
        <ele>1365.0</ele>
      </trkpt>
      <trkpt lat="40.84206" lon="-3.89269">
        <ele>1364.0</ele>
      </trkpt>
      <trkpt lat="40.84218" lon="-3.89248">
        <ele>1358.0</ele>
      </trkpt>
      <trkpt lat="40.84229" lon="-3.89209">
        <ele>1349.0</ele>
      </trkpt>
      <trkpt lat="40.84255" lon="-3.89167">
        <ele>1340.0</ele>
      </trkpt>
      <trkpt lat="40.84304" lon="-3.89146">
        <ele>1341.0</ele>
      </trkpt>
      <trkpt lat="40.84328" lon="-3.89119">
        <ele>1338.0</ele>
      </trkpt>
      <trkpt lat="40.84512" lon="-3.88919">
        <ele>1321.0</ele>
      </trkpt>
      <trkpt lat="40.84619" lon="-3.8883">
        <ele>1316.0</ele>
      </trkpt>
      <trkpt lat="40.84737" lon="-3.88722">
        <ele>1307.0</ele>
      </trkpt>
      <trkpt lat="40.84767" lon="-3.88643">
        <ele>1297.0</ele>
      </trkpt>
      <trkpt lat="40.84799" lon="-3.88601">
        <ele>1292.0</ele>
      </trkpt>
      <trkpt lat="40.8485" lon="-3.88582">
        <ele>1290.0</ele>
      </trkpt>
      <trkpt lat="40.84942" lon="-3.88599">
        <ele>1290.0</ele>
      </trkpt>
      <trkpt lat="40.85019" lon="-3.88597">
        <ele>1283.0</ele>
      </trkpt>
      <trkpt lat="40.85144" lon="-3.8864">
        <ele>1275.0</ele>
      </trkpt>
      <trkpt lat="40.85192" lon="-3.88654">
        <ele>1273.0</ele>
      </trkpt>
      <trkpt lat="40.85958" lon="-3.88532">
        <ele>1242.0</ele>
      </trkpt>
      <trkpt lat="40.8715" lon="-3.88346">
        <ele>1203.0</ele>
      </trkpt>
      <trkpt lat="40.87308" lon="-3.88301">
        <ele>1193.0</ele>
      </trkpt>
      <trkpt lat="40.87405" lon="-3.8821">
        <ele>1188.0</ele>
      </trkpt>
      <trkpt lat="40.87498" lon="-3.88103">
        <ele>1185.0</ele>
      </trkpt>
      <trkpt lat="40.87553" lon="-3.88075">
        <ele>1184.0</ele>
      </trkpt>
      <trkpt lat="40.87667" lon="-3.88143">
        <ele>1182.0</ele>
      </trkpt>
      <trkpt lat="40.88033" lon="-3.88414">
        <ele>1167.0</ele>
      </trkpt>
      <trkpt lat="40.88157" lon="-3.88507">
        <ele>1166.0</ele>
      </trkpt>
      <trkpt lat="40.88241" lon="-3.88624">
        <ele>1167.0</ele>
      </trkpt>
      <trkpt lat="40.8827" lon="-3.88643">
        <ele>1166.0</ele>
      </trkpt>
      <trkpt lat="40.88608" lon="-3.8872">
        <ele>1155.0</ele>
      </trkpt>
      <trkpt lat="40.88745" lon="-3.88667">
        <ele>1154.0</ele>
      </trkpt>
      <trkpt lat="40.88923" lon="-3.88543">
        <ele>1151.0</ele>
      </trkpt>
      <trkpt lat="40.8898" lon="-3.88513">
        <ele>1151.0</ele>
      </trkpt>
      <trkpt lat="40.89133" lon="-3.8845">
        <ele>1150.0</ele>
      </trkpt>
      <trkpt lat="40.89264" lon="-3.88327">
        <ele>1146.0</ele>
      </trkpt>
      <trkpt lat="40.895" lon="-3.8805">
        <ele>1141.0</ele>
      </trkpt>
      <trkpt lat="40.89578" lon="-3.88015">
        <ele>1140.0</ele>
      </trkpt>
      <trkpt lat="40.89698" lon="-3.88018">
        <ele>1142.0</ele>
      </trkpt>
      <trkpt lat="40.89884" lon="-3.88018">
        <ele>1143.0</ele>
      </trkpt>
      <trkpt lat="40.89968" lon="-3.87989">
        <ele>1144.0</ele>
      </trkpt>
      <trkpt lat="40.90072" lon="-3.87902">
        <ele>1147.0</ele>
      </trkpt>
      <trkpt lat="40.90177" lon="-3.87829">
        <ele>1149.0</ele>
      </trkpt>
      <trkpt lat="40.90247" lon="-3.87825">
        <ele>1150.0</ele>
      </trkpt>
      <trkpt lat="40.90367" lon="-3.87961">
        <ele>1158.0</ele>
      </trkpt>
      <trkpt lat="40.90385" lon="-3.87962">
        <ele>1158.0</ele>
      </trkpt>
      <trkpt lat="40.90455" lon="-3.87895">
        <ele>1158.0</ele>
      </trkpt>
      <trkpt lat="40.90504" lon="-3.87855">
        <ele>1158.0</ele>
      </trkpt>
      <trkpt lat="40.9053" lon="-3.87802">
        <ele>1156.0</ele>
      </trkpt>
      <trkpt lat="40.90573" lon="-3.87759">
        <ele>1154.0</ele>
      </trkpt>
      <trkpt lat="40.9064" lon="-3.87689">
        <ele>1151.0</ele>
      </trkpt>
      <trkpt lat="40.90695" lon="-3.87607">
        <ele>1147.0</ele>
      </trkpt>
      <trkpt lat="40.90708" lon="-3.87594">
        <ele>1147.0</ele>
      </trkpt>
      <trkpt lat="40.90713" lon="-3.87596">
        <ele>1147.0</ele>
      </trkpt>
      <trkpt lat="40.90714" lon="-3.876">
        <ele>1147.0</ele>
      </trkpt>
      <trkpt lat="40.90713" lon="-3.87607">
        <ele>1147.0</ele>
      </trkpt>
      <trkpt lat="40.90697" lon="-3.87636">
        <ele>1148.0</ele>
      </trkpt>
      <trkpt lat="40.90695" lon="-3.87628">
        <ele>1148.0</ele>
      </trkpt>
      <trkpt lat="40.90687" lon="-3.87619">
        <ele>1148.0</ele>
      </trkpt>
      <trkpt lat="40.90747" lon="-3.87532">
        <ele>1145.0</ele>
      </trkpt>
      <trkpt lat="40.90832" lon="-3.87403">
        <ele>1141.0</ele>
      </trkpt>
      <trkpt lat="40.90893" lon="-3.8725">
        <ele>1138.0</ele>
      </trkpt>
      <trkpt lat="40.90992" lon="-3.86986">
        <ele>1134.0</ele>
      </trkpt>
      <trkpt lat="40.91075" lon="-3.86832">
        <ele>1134.0</ele>
      </trkpt>
      <trkpt lat="40.91153" lon="-3.86764">
        <ele>1133.0</ele>
      </trkpt>
      <trkpt lat="40.91264" lon="-3.86669">
        <ele>1133.0</ele>
      </trkpt>
      <trkpt lat="40.91317" lon="-3.86569">
        <ele>1133.0</ele>
      </trkpt>
      <trkpt lat="40.91375" lon="-3.86273">
        <ele>1132.0</ele>
      </trkpt>
      <trkpt lat="40.91518" lon="-3.8593">
        <ele>1130.0</ele>
      </trkpt>
      <trkpt lat="40.91596" lon="-3.8575">
        <ele>1130.0</ele>
      </trkpt>
      <trkpt lat="40.91629" lon="-3.85662">
        <ele>1129.0</ele>
      </trkpt>
      <trkpt lat="40.91706" lon="-3.85459">
        <ele>1126.0</ele>
      </trkpt>
      <trkpt lat="40.91748" lon="-3.85352">
        <ele>1126.0</ele>
      </trkpt>
      <trkpt lat="40.91799" lon="-3.85262">
        <ele>1125.0</ele>
      </trkpt>
      <trkpt lat="40.91891" lon="-3.85122">
        <ele>1126.0</ele>
      </trkpt>
      <trkpt lat="40.92067" lon="-3.84856">
        <ele>1124.0</ele>
      </trkpt>
      <trkpt lat="40.92154" lon="-3.84709">
        <ele>1124.0</ele>
      </trkpt>
      <trkpt lat="40.92193" lon="-3.84546">
        <ele>1124.0</ele>
      </trkpt>
      <trkpt lat="40.92205" lon="-3.84483">
        <ele>1126.0</ele>
      </trkpt>
      <trkpt lat="40.92206" lon="-3.84378">
        <ele>1126.0</ele>
      </trkpt>
      <trkpt lat="40.92219" lon="-3.84331">
        <ele>1127.0</ele>
      </trkpt>
      <trkpt lat="40.92243" lon="-3.84293">
        <ele>1127.0</ele>
      </trkpt>
      <trkpt lat="40.92532" lon="-3.83962">
        <ele>1125.0</ele>
      </trkpt>
      <trkpt lat="40.92591" lon="-3.83861">
        <ele>1129.0</ele>
      </trkpt>
      <trkpt lat="40.92715" lon="-3.83627">
        <ele>1127.0</ele>
      </trkpt>
      <trkpt lat="40.92853" lon="-3.8336">
        <ele>1131.0</ele>
      </trkpt>
      <trkpt lat="40.92934" lon="-3.83235">
        <ele>1133.0</ele>
      </trkpt>
      <trkpt lat="40.93065" lon="-3.83146">
        <ele>1137.0</ele>
      </trkpt>
      <trkpt lat="40.93123" lon="-3.83108">
        <ele>1138.0</ele>
      </trkpt>
      <trkpt lat="40.93251" lon="-3.83031">
        <ele>1137.0</ele>
      </trkpt>
      <trkpt lat="40.93334" lon="-3.82953">
        <ele>1135.0</ele>
      </trkpt>
      <trkpt lat="40.93376" lon="-3.82815">
        <ele>1131.0</ele>
      </trkpt>
      <trkpt lat="40.93406" lon="-3.82537">
        <ele>1121.0</ele>
      </trkpt>
      <trkpt lat="40.93443" lon="-3.82334">
        <ele>1116.0</ele>
      </trkpt>
      <trkpt lat="40.93589" lon="-3.81902">
        <ele>1107.0</ele>
      </trkpt>
      <trkpt lat="40.93779" lon="-3.81582">
        <ele>1104.0</ele>
      </trkpt>
      <trkpt lat="40.93839" lon="-3.81439">
        <ele>1100.0</ele>
      </trkpt>
      <trkpt lat="40.93918" lon="-3.81249">
        <ele>1097.0</ele>
      </trkpt>
      <trkpt lat="40.93967" lon="-3.81121">
        <ele>1096.0</ele>
      </trkpt>
      <trkpt lat="40.94011" lon="-3.81054">
        <ele>1094.0</ele>
      </trkpt>
      <trkpt lat="40.94091" lon="-3.80985">
        <ele>1097.0</ele>
      </trkpt>
      <trkpt lat="40.94224" lon="-3.80886">
        <ele>1099.0</ele>
      </trkpt>
      <trkpt lat="40.94336" lon="-3.80827">
        <ele>1101.0</ele>
      </trkpt>
      <trkpt lat="40.94434" lon="-3.8076">
        <ele>1102.0</ele>
      </trkpt>
      <trkpt lat="40.94557" lon="-3.80641">
        <ele>1104.0</ele>
      </trkpt>
      <trkpt lat="40.94644" lon="-3.80508">
        <ele>1105.0</ele>
      </trkpt>
      <trkpt lat="40.94704" lon="-3.80389">
        <ele>1106.0</ele>
      </trkpt>
      <trkpt lat="40.9475" lon="-3.80248">
        <ele>1109.0</ele>
      </trkpt>
      <trkpt lat="40.94751" lon="-3.80146">
        <ele>1113.0</ele>
      </trkpt>
      <trkpt lat="40.9473" lon="-3.80078">
        <ele>1114.0</ele>
      </trkpt>
      <trkpt lat="40.94639" lon="-3.79951">
        <ele>1110.0</ele>
      </trkpt>
      <trkpt lat="40.94608" lon="-3.7986">
        <ele>1109.0</ele>
      </trkpt>
      <trkpt lat="40.94586" lon="-3.79657">
        <ele>1107.0</ele>
      </trkpt>
      <trkpt lat="40.94601" lon="-3.79585">
        <ele>1107.0</ele>
      </trkpt>
      <trkpt lat="40.94655" lon="-3.79476">
        <ele>1105.0</ele>
      </trkpt>
      <trkpt lat="40.94724" lon="-3.79386">
        <ele>1105.0</ele>
      </trkpt>
      <trkpt lat="40.94798" lon="-3.79297">
        <ele>1107.0</ele>
      </trkpt>
      <trkpt lat="40.94867" lon="-3.79247">
        <ele>1107.0</ele>
      </trkpt>
      <trkpt lat="40.94988" lon="-3.79198">
        <ele>1108.0</ele>
      </trkpt>
      <trkpt lat="40.94981" lon="-3.79252">
        <ele>1109.0</ele>
      </trkpt>
      <trkpt lat="40.9499" lon="-3.79299">
        <ele>1112.0</ele>
      </trkpt>
      <trkpt lat="40.9504" lon="-3.7938">
        <ele>1116.0</ele>
      </trkpt>
      <trkpt lat="40.95068" lon="-3.79419">
        <ele>1118.0</ele>
      </trkpt>
      <trkpt lat="40.95092" lon="-3.79461">
        <ele>1120.0</ele>
      </trkpt>
      <trkpt lat="40.95108" lon="-3.7952">
        <ele>1123.0</ele>
      </trkpt>
      <trkpt lat="40.95141" lon="-3.79593">
        <ele>1128.0</ele>
      </trkpt>
      <trkpt lat="40.95171" lon="-3.79608">
        <ele>1130.0</ele>
      </trkpt>
      <trkpt lat="40.95241" lon="-3.79517">
        <ele>1133.0</ele>
      </trkpt>
      <trkpt lat="40.95325" lon="-3.79453">
        <ele>1139.0</ele>
      </trkpt>
      <trkpt lat="40.95409" lon="-3.79395">
        <ele>1144.0</ele>
      </trkpt>
      <trkpt lat="40.95493" lon="-3.79349">
        <ele>1152.0</ele>
      </trkpt>
      <trkpt lat="40.95534" lon="-3.79273">
        <ele>1152.0</ele>
      </trkpt>
      <trkpt lat="40.95563" lon="-3.79224">
        <ele>1153.0</ele>
      </trkpt>
      <trkpt lat="40.95657" lon="-3.79195">
        <ele>1161.0</ele>
      </trkpt>
      <trkpt lat="40.95731" lon="-3.79179">
        <ele>1163.0</ele>
      </trkpt>
      <trkpt lat="40.95742" lon="-3.7919">
        <ele>1166.0</ele>
      </trkpt>
      <trkpt lat="40.9574" lon="-3.79208">
        <ele>1169.0</ele>
      </trkpt>
      <trkpt lat="40.9568" lon="-3.79243">
        <ele>1170.0</ele>
      </trkpt>
      <trkpt lat="40.95662" lon="-3.7929">
        <ele>1175.0</ele>
      </trkpt>
      <trkpt lat="40.95633" lon="-3.79343">
        <ele>1178.0</ele>
      </trkpt>
      <trkpt lat="40.95593" lon="-3.79603">
        <ele>1196.0</ele>
      </trkpt>
      <trkpt lat="40.95589" lon="-3.7981">
        <ele>1204.0</ele>
      </trkpt>
      <trkpt lat="40.95616" lon="-3.79905">
        <ele>1204.0</ele>
      </trkpt>
      <trkpt lat="40.95648" lon="-3.79909">
        <ele>1206.0</ele>
      </trkpt>
      <trkpt lat="40.95821" lon="-3.79861">
        <ele>1221.0</ele>
      </trkpt>
      <trkpt lat="40.95879" lon="-3.79854">
        <ele>1226.0</ele>
      </trkpt>
      <trkpt lat="40.95974" lon="-3.79853">
        <ele>1231.0</ele>
      </trkpt>
      <trkpt lat="40.96053" lon="-3.79834">
        <ele>1239.0</ele>
      </trkpt>
      <trkpt lat="40.9614" lon="-3.79847">
        <ele>1244.0</ele>
      </trkpt>
      <trkpt lat="40.96263" lon="-3.79851">
        <ele>1258.0</ele>
      </trkpt>
      <trkpt lat="40.96323" lon="-3.79863">
        <ele>1266.0</ele>
      </trkpt>
      <trkpt lat="40.96361" lon="-3.79932">
        <ele>1263.0</ele>
      </trkpt>
      <trkpt lat="40.96399" lon="-3.79975">
        <ele>1264.0</ele>
      </trkpt>
      <trkpt lat="40.9645" lon="-3.79982">
        <ele>1271.0</ele>
      </trkpt>
      <trkpt lat="40.9659" lon="-3.79959">
        <ele>1288.0</ele>
      </trkpt>
      <trkpt lat="40.9667" lon="-3.79989">
        <ele>1290.0</ele>
      </trkpt>
      <trkpt lat="40.96774" lon="-3.80026">
        <ele>1299.0</ele>
      </trkpt>
      <trkpt lat="40.96843" lon="-3.80022">
        <ele>1302.0</ele>
      </trkpt>
      <trkpt lat="40.96885" lon="-3.80007">
        <ele>1305.0</ele>
      </trkpt>
      <trkpt lat="40.96909" lon="-3.80034">
        <ele>1306.0</ele>
      </trkpt>
      <trkpt lat="40.96939" lon="-3.80035">
        <ele>1310.0</ele>
      </trkpt>
      <trkpt lat="40.9707" lon="-3.80004">
        <ele>1326.0</ele>
      </trkpt>
      <trkpt lat="40.97101" lon="-3.79986">
        <ele>1332.0</ele>
      </trkpt>
      <trkpt lat="40.97118" lon="-3.79983">
        <ele>1335.0</ele>
      </trkpt>
      <trkpt lat="40.97127" lon="-3.79996">
        <ele>1333.0</ele>
      </trkpt>
      <trkpt lat="40.97115" lon="-3.80018">
        <ele>1332.0</ele>
      </trkpt>
      <trkpt lat="40.97088" lon="-3.80041">
        <ele>1331.0</ele>
      </trkpt>
      <trkpt lat="40.97093" lon="-3.80066">
        <ele>1333.0</ele>
      </trkpt>
      <trkpt lat="40.97139" lon="-3.8006">
        <ele>1338.0</ele>
      </trkpt>
      <trkpt lat="40.9719" lon="-3.80029">
        <ele>1342.0</ele>
      </trkpt>
      <trkpt lat="40.97253" lon="-3.80041">
        <ele>1350.0</ele>
      </trkpt>
      <trkpt lat="40.9726" lon="-3.80061">
        <ele>1352.0</ele>
      </trkpt>
      <trkpt lat="40.97237" lon="-3.80082">
        <ele>1350.0</ele>
      </trkpt>
      <trkpt lat="40.97208" lon="-3.80092">
        <ele>1349.0</ele>
      </trkpt>
      <trkpt lat="40.97186" lon="-3.80132">
        <ele>1353.0</ele>
      </trkpt>
      <trkpt lat="40.97182" lon="-3.80173">
        <ele>1359.0</ele>
      </trkpt>
      <trkpt lat="40.97172" lon="-3.80199">
        <ele>1361.0</ele>
      </trkpt>
      <trkpt lat="40.97137" lon="-3.80215">
        <ele>1359.0</ele>
      </trkpt>
      <trkpt lat="40.97114" lon="-3.80234">
        <ele>1359.0</ele>
      </trkpt>
      <trkpt lat="40.97077" lon="-3.80296">
        <ele>1365.0</ele>
      </trkpt>
      <trkpt lat="40.96989" lon="-3.80399">
        <ele>1380.0</ele>
      </trkpt>
      <trkpt lat="40.96934" lon="-3.80428">
        <ele>1386.0</ele>
      </trkpt>
      <trkpt lat="40.9682" lon="-3.80464">
        <ele>1393.0</ele>
      </trkpt>
      <trkpt lat="40.96809" lon="-3.80464">
        <ele>1393.0</ele>
      </trkpt>
      <trkpt lat="40.9678" lon="-3.80458">
        <ele>1391.0</ele>
      </trkpt>
      <trkpt lat="40.96775" lon="-3.8046">
        <ele>1392.0</ele>
      </trkpt>
      <trkpt lat="40.96771" lon="-3.80472">
        <ele>1394.0</ele>
      </trkpt>
      <trkpt lat="40.96777" lon="-3.8049">
        <ele>1397.0</ele>
      </trkpt>
      <trkpt lat="40.96789" lon="-3.80497">
        <ele>1399.0</ele>
      </trkpt>
      <trkpt lat="40.9681" lon="-3.80494">
        <ele>1400.0</ele>
      </trkpt>
      <trkpt lat="40.96874" lon="-3.80493">
        <ele>1403.0</ele>
      </trkpt>
      <trkpt lat="40.97003" lon="-3.80524">
        <ele>1417.0</ele>
      </trkpt>
      <trkpt lat="40.97107" lon="-3.80529">
        <ele>1424.0</ele>
      </trkpt>
      <trkpt lat="40.97221" lon="-3.805">
        <ele>1429.0</ele>
      </trkpt>
      <trkpt lat="40.97329" lon="-3.80478">
        <ele>1440.0</ele>
      </trkpt>
      <trkpt lat="40.97382" lon="-3.80433">
        <ele>1442.0</ele>
      </trkpt>
      <trkpt lat="40.97439" lon="-3.80386">
        <ele>1443.0</ele>
      </trkpt>
      <trkpt lat="40.97478" lon="-3.80375">
        <ele>1449.0</ele>
      </trkpt>
      <trkpt lat="40.97515" lon="-3.80363">
        <ele>1454.0</ele>
      </trkpt>
      <trkpt lat="40.97593" lon="-3.80331">
        <ele>1464.0</ele>
      </trkpt>
      <trkpt lat="40.97682" lon="-3.80265">
        <ele>1473.0</ele>
      </trkpt>
      <trkpt lat="40.97749" lon="-3.80233">
        <ele>1477.0</ele>
      </trkpt>
      <trkpt lat="40.97804" lon="-3.80269">
        <ele>1492.0</ele>
      </trkpt>
      <trkpt lat="40.9782" lon="-3.80256">
        <ele>1492.0</ele>
      </trkpt>
      <trkpt lat="40.97834" lon="-3.80187">
        <ele>1484.0</ele>
      </trkpt>
      <trkpt lat="40.97898" lon="-3.80087">
        <ele>1486.0</ele>
      </trkpt>
      <trkpt lat="40.97934" lon="-3.80068">
        <ele>1491.0</ele>
      </trkpt>
      <trkpt lat="40.97932" lon="-3.80106">
        <ele>1497.0</ele>
      </trkpt>
      <trkpt lat="40.97885" lon="-3.80246">
        <ele>1505.0</ele>
      </trkpt>
      <trkpt lat="40.97869" lon="-3.80321">
        <ele>1514.0</ele>
      </trkpt>
      <trkpt lat="40.97787" lon="-3.80431">
        <ele>1527.0</ele>
      </trkpt>
      <trkpt lat="40.97805" lon="-3.8044">
        <ele>1533.0</ele>
      </trkpt>
      <trkpt lat="40.9786" lon="-3.804">
        <ele>1532.0</ele>
      </trkpt>
      <trkpt lat="40.97937" lon="-3.80366">
        <ele>1540.0</ele>
      </trkpt>
      <trkpt lat="40.97987" lon="-3.80285">
        <ele>1540.0</ele>
      </trkpt>
      <trkpt lat="40.98014" lon="-3.80285">
        <ele>1547.0</ele>
      </trkpt>
      <trkpt lat="40.98009" lon="-3.80321">
        <ele>1551.0</ele>
      </trkpt>
      <trkpt lat="40.97939" lon="-3.80481">
        <ele>1567.0</ele>
      </trkpt>
      <trkpt lat="40.97897" lon="-3.80531">
        <ele>1571.0</ele>
      </trkpt>
      <trkpt lat="40.97775" lon="-3.80601">
        <ele>1575.0</ele>
      </trkpt>
      <trkpt lat="40.97711" lon="-3.80615">
        <ele>1568.0</ele>
      </trkpt>
      <trkpt lat="40.97583" lon="-3.80787">
        <ele>1575.0</ele>
      </trkpt>
      <trkpt lat="40.97561" lon="-3.80949">
        <ele>1576.0</ele>
      </trkpt>
      <trkpt lat="40.97596" lon="-3.80988">
        <ele>1577.0</ele>
      </trkpt>
      <trkpt lat="40.97726" lon="-3.81043">
        <ele>1584.0</ele>
      </trkpt>
      <trkpt lat="40.97893" lon="-3.81101">
        <ele>1602.0</ele>
      </trkpt>
      <trkpt lat="40.97958" lon="-3.81194">
        <ele>1609.0</ele>
      </trkpt>
      <trkpt lat="40.97964" lon="-3.81227">
        <ele>1613.0</ele>
      </trkpt>
      <trkpt lat="40.97823" lon="-3.81339">
        <ele>1612.0</ele>
      </trkpt>
      <trkpt lat="40.97693" lon="-3.81427">
        <ele>1615.0</ele>
      </trkpt>
      <trkpt lat="40.97652" lon="-3.81473">
        <ele>1619.0</ele>
      </trkpt>
      <trkpt lat="40.97597" lon="-3.81551">
        <ele>1625.0</ele>
      </trkpt>
      <trkpt lat="40.9755" lon="-3.81629">
        <ele>1629.0</ele>
      </trkpt>
      <trkpt lat="40.97507" lon="-3.8177">
        <ele>1635.0</ele>
      </trkpt>
      <trkpt lat="40.97507" lon="-3.81808">
        <ele>1640.0</ele>
      </trkpt>
      <trkpt lat="40.97534" lon="-3.81903">
        <ele>1658.0</ele>
      </trkpt>
      <trkpt lat="40.97523" lon="-3.81928">
        <ele>1660.0</ele>
      </trkpt>
      <trkpt lat="40.97501" lon="-3.81927">
        <ele>1657.0</ele>
      </trkpt>
      <trkpt lat="40.97437" lon="-3.819">
        <ele>1648.0</ele>
      </trkpt>
      <trkpt lat="40.97396" lon="-3.81903">
        <ele>1647.0</ele>
      </trkpt>
      <trkpt lat="40.97321" lon="-3.81947">
        <ele>1654.0</ele>
      </trkpt>
      <trkpt lat="40.9724" lon="-3.82028">
        <ele>1661.0</ele>
      </trkpt>
      <trkpt lat="40.97213" lon="-3.82082">
        <ele>1665.0</ele>
      </trkpt>
      <trkpt lat="40.97208" lon="-3.82104">
        <ele>1667.0</ele>
      </trkpt>
      <trkpt lat="40.97212" lon="-3.82117">
        <ele>1669.0</ele>
      </trkpt>
      <trkpt lat="40.97222" lon="-3.82123">
        <ele>1671.0</ele>
      </trkpt>
      <trkpt lat="40.97233" lon="-3.8212">
        <ele>1672.0</ele>
      </trkpt>
      <trkpt lat="40.97299" lon="-3.821">
        <ele>1677.0</ele>
      </trkpt>
      <trkpt lat="40.97371" lon="-3.82104">
        <ele>1683.0</ele>
      </trkpt>
      <trkpt lat="40.97426" lon="-3.82133">
        <ele>1689.0</ele>
      </trkpt>
      <trkpt lat="40.97491" lon="-3.82223">
        <ele>1698.0</ele>
      </trkpt>
      <trkpt lat="40.97556" lon="-3.82283">
        <ele>1706.0</ele>
      </trkpt>
      <trkpt lat="40.97604" lon="-3.82305">
        <ele>1711.0</ele>
      </trkpt>
      <trkpt lat="40.97691" lon="-3.82354">
        <ele>1721.0</ele>
      </trkpt>
      <trkpt lat="40.97784" lon="-3.8228">
        <ele>1723.0</ele>
      </trkpt>
      <trkpt lat="40.97823" lon="-3.82195">
        <ele>1727.0</ele>
      </trkpt>
      <trkpt lat="40.97873" lon="-3.82096">
        <ele>1736.0</ele>
      </trkpt>
      <trkpt lat="40.97917" lon="-3.8193">
        <ele>1745.0</ele>
      </trkpt>
      <trkpt lat="40.9805" lon="-3.81745">
        <ele>1754.0</ele>
      </trkpt>
      <trkpt lat="40.98237" lon="-3.81689">
        <ele>1765.0</ele>
      </trkpt>
      <trkpt lat="40.98362" lon="-3.81619">
        <ele>1767.0</ele>
      </trkpt>
      <trkpt lat="40.98386" lon="-3.81619">
        <ele>1770.0</ele>
      </trkpt>
      <trkpt lat="40.98424" lon="-3.81568">
        <ele>1769.0</ele>
      </trkpt>
      <trkpt lat="40.98479" lon="-3.81553">
        <ele>1776.0</ele>
      </trkpt>
      <trkpt lat="40.98526" lon="-3.81502">
        <ele>1775.0</ele>
      </trkpt>
      <trkpt lat="40.98608" lon="-3.81413">
        <ele>1771.0</ele>
      </trkpt>
      <trkpt lat="40.98651" lon="-3.81399">
        <ele>1774.0</ele>
      </trkpt>
      <trkpt lat="40.98713" lon="-3.81435">
        <ele>1775.0</ele>
      </trkpt>
      <trkpt lat="40.98773" lon="-3.81527">
        <ele>1770.0</ele>
      </trkpt>
      <trkpt lat="40.98919" lon="-3.81634">
        <ele>1755.0</ele>
      </trkpt>
      <trkpt lat="40.99022" lon="-3.81741">
        <ele>1744.0</ele>
      </trkpt>
      <trkpt lat="40.99029" lon="-3.81842">
        <ele>1756.0</ele>
      </trkpt>
      <trkpt lat="40.99042" lon="-3.81855">
        <ele>1757.0</ele>
      </trkpt>
      <trkpt lat="40.99086" lon="-3.81806">
        <ele>1744.0</ele>
      </trkpt>
      <trkpt lat="40.99156" lon="-3.81707">
        <ele>1728.0</ele>
      </trkpt>
      <trkpt lat="40.99195" lon="-3.81647">
        <ele>1713.0</ele>
      </trkpt>
      <trkpt lat="40.99241" lon="-3.81645">
        <ele>1713.0</ele>
      </trkpt>
      <trkpt lat="40.99354" lon="-3.81713">
        <ele>1717.0</ele>
      </trkpt>
      <trkpt lat="40.9939" lon="-3.81702">
        <ele>1711.0</ele>
      </trkpt>
      <trkpt lat="40.99429" lon="-3.81715">
        <ele>1709.0</ele>
      </trkpt>
      <trkpt lat="40.99544" lon="-3.8181">
        <ele>1712.0</ele>
      </trkpt>
      <trkpt lat="40.99578" lon="-3.81798">
        <ele>1705.0</ele>
      </trkpt>
      <trkpt lat="40.99623" lon="-3.81732">
        <ele>1684.0</ele>
      </trkpt>
      <trkpt lat="40.99651" lon="-3.81732">
        <ele>1682.0</ele>
      </trkpt>
      <trkpt lat="40.99725" lon="-3.81759">
        <ele>1687.0</ele>
      </trkpt>
      <trkpt lat="40.99753" lon="-3.81708">
        <ele>1673.0</ele>
      </trkpt>
      <trkpt lat="40.99834" lon="-3.81583">
        <ele>1659.0</ele>
      </trkpt>
      <trkpt lat="40.99894" lon="-3.81526">
        <ele>1655.0</ele>
      </trkpt>
      <trkpt lat="40.99941" lon="-3.8147">
        <ele>1642.0</ele>
      </trkpt>
      <trkpt lat="41.00109" lon="-3.81362">
        <ele>1632.0</ele>
      </trkpt>
      <trkpt lat="41.00199" lon="-3.81318">
        <ele>1630.0</ele>
      </trkpt>
      <trkpt lat="41.00275" lon="-3.81223">
        <ele>1615.0</ele>
      </trkpt>
      <trkpt lat="41.0052" lon="-3.8113">
        <ele>1596.0</ele>
      </trkpt>
      <trkpt lat="41.00646" lon="-3.81144">
        <ele>1595.0</ele>
      </trkpt>
      <trkpt lat="41.00691" lon="-3.81111">
        <ele>1585.0</ele>
      </trkpt>
      <trkpt lat="41.0074" lon="-3.81077">
        <ele>1578.0</ele>
      </trkpt>
      <trkpt lat="41.00799" lon="-3.81075">
        <ele>1576.0</ele>
      </trkpt>
      <trkpt lat="41.00802" lon="-3.81063">
        <ele>1573.0</ele>
      </trkpt>
      <trkpt lat="41.00773" lon="-3.8105">
        <ele>1570.0</ele>
      </trkpt>
      <trkpt lat="41.00663" lon="-3.8109">
        <ele>1577.0</ele>
      </trkpt>
      <trkpt lat="41.00543" lon="-3.81075">
        <ele>1573.0</ele>
      </trkpt>
      <trkpt lat="41.00533" lon="-3.81051">
        <ele>1565.0</ele>
      </trkpt>
      <trkpt lat="41.00547" lon="-3.81049">
        <ele>1563.0</ele>
      </trkpt>
      <trkpt lat="41.00642" lon="-3.81068">
        <ele>1569.0</ele>
      </trkpt>
      <trkpt lat="41.0076" lon="-3.80952">
        <ele>1540.0</ele>
      </trkpt>
      <trkpt lat="41.00877" lon="-3.8098">
        <ele>1545.0</ele>
      </trkpt>
      <trkpt lat="41.00934" lon="-3.81013">
        <ele>1552.0</ele>
      </trkpt>
      <trkpt lat="41.01016" lon="-3.80916">
        <ele>1536.0</ele>
      </trkpt>
      <trkpt lat="41.01302" lon="-3.8081">
        <ele>1517.0</ele>
      </trkpt>
      <trkpt lat="41.01333" lon="-3.80821">
        <ele>1518.0</ele>
      </trkpt>
      <trkpt lat="41.0137" lon="-3.80843">
        <ele>1526.0</ele>
      </trkpt>
      <trkpt lat="41.01445" lon="-3.80787">
        <ele>1512.0</ele>
      </trkpt>
      <trkpt lat="41.0168" lon="-3.80777">
        <ele>1498.0</ele>
      </trkpt>
      <trkpt lat="41.01801" lon="-3.80827">
        <ele>1499.0</ele>
      </trkpt>
      <trkpt lat="41.0201" lon="-3.80926">
        <ele>1490.0</ele>
      </trkpt>
      <trkpt lat="41.0206" lon="-3.80948">
        <ele>1489.0</ele>
      </trkpt>
      <trkpt lat="41.02268" lon="-3.80866">
        <ele>1457.0</ele>
      </trkpt>
      <trkpt lat="41.02345" lon="-3.80873">
        <ele>1456.0</ele>
      </trkpt>
      <trkpt lat="41.02389" lon="-3.809">
        <ele>1465.0</ele>
      </trkpt>
      <trkpt lat="41.02506" lon="-3.80814">
        <ele>1447.0</ele>
      </trkpt>
      <trkpt lat="41.02659" lon="-3.8082">
        <ele>1439.0</ele>
      </trkpt>
      <trkpt lat="41.0276" lon="-3.80859">
        <ele>1434.0</ele>
      </trkpt>
      <trkpt lat="41.02815" lon="-3.80991">
        <ele>1441.0</ele>
      </trkpt>
      <trkpt lat="41.0283" lon="-3.81002">
        <ele>1439.0</ele>
      </trkpt>
      <trkpt lat="41.02872" lon="-3.80954">
        <ele>1429.0</ele>
      </trkpt>
      <trkpt lat="41.02924" lon="-3.80939">
        <ele>1423.0</ele>
      </trkpt>
      <trkpt lat="41.02974" lon="-3.80984">
        <ele>1424.0</ele>
      </trkpt>
      <trkpt lat="41.03063" lon="-3.81027">
        <ele>1418.0</ele>
      </trkpt>
      <trkpt lat="41.03143" lon="-3.81015">
        <ele>1406.0</ele>
      </trkpt>
      <trkpt lat="41.03427" lon="-3.80896">
        <ele>1370.0</ele>
      </trkpt>
      <trkpt lat="41.03467" lon="-3.80898">
        <ele>1367.0</ele>
      </trkpt>
      <trkpt lat="41.03517" lon="-3.80945">
        <ele>1371.0</ele>
      </trkpt>
      <trkpt lat="41.03659" lon="-3.80907">
        <ele>1360.0</ele>
      </trkpt>
      <trkpt lat="41.03977" lon="-3.8099">
        <ele>1341.0</ele>
      </trkpt>
      <trkpt lat="41.04178" lon="-3.80945">
        <ele>1321.0</ele>
      </trkpt>
      <trkpt lat="41.04478" lon="-3.81111">
        <ele>1301.0</ele>
      </trkpt>
      <trkpt lat="41.04777" lon="-3.81518">
        <ele>1280.0</ele>
      </trkpt>
      <trkpt lat="41.04904" lon="-3.81764">
        <ele>1267.0</ele>
      </trkpt>
      <trkpt lat="41.05096" lon="-3.82003">
        <ele>1255.0</ele>
      </trkpt>
      <trkpt lat="41.05152" lon="-3.82059">
        <ele>1248.0</ele>
      </trkpt>
      <trkpt lat="41.05258" lon="-3.81997">
        <ele>1247.0</ele>
      </trkpt>
      <trkpt lat="41.05666" lon="-3.81719">
        <ele>1222.0</ele>
      </trkpt>
      <trkpt lat="41.06117" lon="-3.81166">
        <ele>1211.0</ele>
      </trkpt>
      <trkpt lat="41.06437" lon="-3.81156">
        <ele>1203.0</ele>
      </trkpt>
      <trkpt lat="41.06678" lon="-3.81163">
        <ele>1200.0</ele>
      </trkpt>
      <trkpt lat="41.06826" lon="-3.81293">
        <ele>1193.0</ele>
      </trkpt>
      <trkpt lat="41.06899" lon="-3.81481">
        <ele>1189.0</ele>
      </trkpt>
      <trkpt lat="41.06836" lon="-3.81577">
        <ele>1187.0</ele>
      </trkpt>
      <trkpt lat="41.06712" lon="-3.81809">
        <ele>1183.0</ele>
      </trkpt>
      <trkpt lat="41.06502" lon="-3.82286">
        <ele>1167.0</ele>
      </trkpt>
      <trkpt lat="41.06433" lon="-3.82526">
        <ele>1162.0</ele>
      </trkpt>
      <trkpt lat="41.06413" lon="-3.82649">
        <ele>1163.0</ele>
      </trkpt>
      <trkpt lat="41.06396" lon="-3.83103">
        <ele>1176.0</ele>
      </trkpt>
      <trkpt lat="41.06398" lon="-3.83327">
        <ele>1179.0</ele>
      </trkpt>
      <trkpt lat="41.06392" lon="-3.8351">
        <ele>1180.0</ele>
      </trkpt>
      <trkpt lat="41.06373" lon="-3.84069">
        <ele>1185.0</ele>
      </trkpt>
      <trkpt lat="41.06406" lon="-3.84482">
        <ele>1190.0</ele>
      </trkpt>
      <trkpt lat="41.06451" lon="-3.85038">
        <ele>1208.0</ele>
      </trkpt>
      <trkpt lat="41.06394" lon="-3.85473">
        <ele>1220.0</ele>
      </trkpt>
      <trkpt lat="41.06262" lon="-3.85989">
        <ele>1230.0</ele>
      </trkpt>
      <trkpt lat="41.06017" lon="-3.86948">
        <ele>1238.0</ele>
      </trkpt>
      <trkpt lat="41.05977" lon="-3.87324">
        <ele>1228.0</ele>
      </trkpt>
      <trkpt lat="41.06026" lon="-3.87786">
        <ele>1210.0</ele>
      </trkpt>
      <trkpt lat="41.061" lon="-3.88035">
        <ele>1202.0</ele>
      </trkpt>
      <trkpt lat="41.06229" lon="-3.88317">
        <ele>1193.0</ele>
      </trkpt>
      <trkpt lat="41.06286" lon="-3.88463">
        <ele>1191.0</ele>
      </trkpt>
      <trkpt lat="41.06322" lon="-3.88657">
        <ele>1188.0</ele>
      </trkpt>
      <trkpt lat="41.06324" lon="-3.88784">
        <ele>1187.0</ele>
      </trkpt>
      <trkpt lat="41.06288" lon="-3.88981">
        <ele>1187.0</ele>
      </trkpt>
      <trkpt lat="41.06066" lon="-3.89416">
        <ele>1192.0</ele>
      </trkpt>
      <trkpt lat="41.05951" lon="-3.89594">
        <ele>1192.0</ele>
      </trkpt>
      <trkpt lat="41.05828" lon="-3.8985">
        <ele>1191.0</ele>
      </trkpt>
      <trkpt lat="41.0561" lon="-3.90118">
        <ele>1195.0</ele>
      </trkpt>
      <trkpt lat="41.05344" lon="-3.90508">
        <ele>1197.0</ele>
      </trkpt>
      <trkpt lat="41.05071" lon="-3.90877">
        <ele>1202.0</ele>
      </trkpt>
      <trkpt lat="41.04802" lon="-3.9113">
        <ele>1207.0</ele>
      </trkpt>
      <trkpt lat="41.04339" lon="-3.91499">
        <ele>1215.0</ele>
      </trkpt>
      <trkpt lat="41.04143" lon="-3.91614">
        <ele>1218.0</ele>
      </trkpt>
      <trkpt lat="41.03956" lon="-3.91744">
        <ele>1222.0</ele>
      </trkpt>
      <trkpt lat="41.03873" lon="-3.91784">
        <ele>1224.0</ele>
      </trkpt>
      <trkpt lat="41.03822" lon="-3.91839">
        <ele>1225.0</ele>
      </trkpt>
      <trkpt lat="41.03794" lon="-3.91905">
        <ele>1225.0</ele>
      </trkpt>
      <trkpt lat="41.03769" lon="-3.92002">
        <ele>1221.0</ele>
      </trkpt>
      <trkpt lat="41.03678" lon="-3.92354">
        <ele>1217.0</ele>
      </trkpt>
      <trkpt lat="41.03545" lon="-3.92861">
        <ele>1206.0</ele>
      </trkpt>
      <trkpt lat="41.03466" lon="-3.93129">
        <ele>1199.0</ele>
      </trkpt>
      <trkpt lat="41.03422" lon="-3.9323">
        <ele>1195.0</ele>
      </trkpt>
      <trkpt lat="41.03144" lon="-3.93625">
        <ele>1180.0</ele>
      </trkpt>
      <trkpt lat="41.03081" lon="-3.93745">
        <ele>1177.0</ele>
      </trkpt>
      <trkpt lat="41.02991" lon="-3.93969">
        <ele>1172.0</ele>
      </trkpt>
      <trkpt lat="41.02837" lon="-3.94455">
        <ele>1163.0</ele>
      </trkpt>
      <trkpt lat="41.02572" lon="-3.94985">
        <ele>1147.0</ele>
      </trkpt>
      <trkpt lat="41.02413" lon="-3.95558">
        <ele>1154.0</ele>
      </trkpt>
      <trkpt lat="41.0232" lon="-3.95907">
        <ele>1163.0</ele>
      </trkpt>
      <trkpt lat="41.01764" lon="-3.96955">
        <ele>1162.0</ele>
      </trkpt>
      <trkpt lat="41.01349" lon="-3.97735">
        <ele>1147.0</ele>
      </trkpt>
      <trkpt lat="41.01161" lon="-3.98091">
        <ele>1141.0</ele>
      </trkpt>
      <trkpt lat="41.01009" lon="-3.98389">
        <ele>1138.0</ele>
      </trkpt>
      <trkpt lat="41.00938" lon="-3.98521">
        <ele>1141.0</ele>
      </trkpt>
      <trkpt lat="41.00862" lon="-3.98689">
        <ele>1147.0</ele>
      </trkpt>
      <trkpt lat="41.00825" lon="-3.98801">
        <ele>1149.0</ele>
      </trkpt>
      <trkpt lat="41.00787" lon="-3.99">
        <ele>1159.0</ele>
      </trkpt>
      <trkpt lat="41.00749" lon="-3.99305">
        <ele>1171.0</ele>
      </trkpt>
      <trkpt lat="41.00654" lon="-4.0006">
        <ele>1187.0</ele>
      </trkpt>
      <trkpt lat="41.0062" lon="-4.00242">
        <ele>1180.0</ele>
      </trkpt>
      <trkpt lat="41.00577" lon="-4.00399">
        <ele>1173.0</ele>
      </trkpt>
      <trkpt lat="41.00477" lon="-4.00657">
        <ele>1160.0</ele>
      </trkpt>
      <trkpt lat="41.00186" lon="-4.01235">
        <ele>1143.0</ele>
      </trkpt>
      <trkpt lat="40.99966" lon="-4.01615">
        <ele>1148.0</ele>
      </trkpt>
      <trkpt lat="40.99808" lon="-4.01896">
        <ele>1147.0</ele>
      </trkpt>
      <trkpt lat="40.99734" lon="-4.02051">
        <ele>1150.0</ele>
      </trkpt>
      <trkpt lat="40.99689" lon="-4.02126">
        <ele>1150.0</ele>
      </trkpt>
      <trkpt lat="40.99661" lon="-4.02141">
        <ele>1151.0</ele>
      </trkpt>
      <trkpt lat="40.99567" lon="-4.02172">
        <ele>1150.0</ele>
      </trkpt>
      <trkpt lat="40.99448" lon="-4.02219">
        <ele>1150.0</ele>
      </trkpt>
      <trkpt lat="40.99415" lon="-4.02246">
        <ele>1151.0</ele>
      </trkpt>
      <trkpt lat="40.994" lon="-4.02251">
        <ele>1152.0</ele>
      </trkpt>
      <trkpt lat="40.99394" lon="-4.02247">
        <ele>1152.0</ele>
      </trkpt>
      <trkpt lat="40.9939" lon="-4.02241">
        <ele>1152.0</ele>
      </trkpt>
      <trkpt lat="40.99384" lon="-4.02231">
        <ele>1152.0</ele>
      </trkpt>
      <trkpt lat="40.99372" lon="-4.0222">
        <ele>1152.0</ele>
      </trkpt>
      <trkpt lat="40.99336" lon="-4.02225">
        <ele>1153.0</ele>
      </trkpt>
      <trkpt lat="40.99216" lon="-4.02278">
        <ele>1155.0</ele>
      </trkpt>
      <trkpt lat="40.99125" lon="-4.02325">
        <ele>1154.0</ele>
      </trkpt>
      <trkpt lat="40.99079" lon="-4.02353">
        <ele>1153.0</ele>
      </trkpt>
      <trkpt lat="40.98762" lon="-4.02389">
        <ele>1138.0</ele>
      </trkpt>
      <trkpt lat="40.9846" lon="-4.0239">
        <ele>1127.0</ele>
      </trkpt>
      <trkpt lat="40.98257" lon="-4.0234">
        <ele>1119.0</ele>
      </trkpt>
      <trkpt lat="40.98013" lon="-4.02395">
        <ele>1111.0</ele>
      </trkpt>
      <trkpt lat="40.97825" lon="-4.02451">
        <ele>1118.0</ele>
      </trkpt>
      <trkpt lat="40.97524" lon="-4.02684">
        <ele>1127.0</ele>
      </trkpt>
      <trkpt lat="40.97367" lon="-4.02963">
        <ele>1127.0</ele>
      </trkpt>
      <trkpt lat="40.97217" lon="-4.03112">
        <ele>1128.0</ele>
      </trkpt>
      <trkpt lat="40.97057" lon="-4.03202">
        <ele>1130.0</ele>
      </trkpt>
      <trkpt lat="40.96909" lon="-4.03225">
        <ele>1122.0</ele>
      </trkpt>
      <trkpt lat="40.96823" lon="-4.0322">
        <ele>1118.0</ele>
      </trkpt>
      <trkpt lat="40.96744" lon="-4.03241">
        <ele>1119.0</ele>
      </trkpt>
      <trkpt lat="40.96583" lon="-4.03351">
        <ele>1129.0</ele>
      </trkpt>
      <trkpt lat="40.96532" lon="-4.03378">
        <ele>1132.0</ele>
      </trkpt>
      <trkpt lat="40.96473" lon="-4.0338">
        <ele>1134.0</ele>
      </trkpt>
      <trkpt lat="40.96417" lon="-4.0334">
        <ele>1135.0</ele>
      </trkpt>
      <trkpt lat="40.96358" lon="-4.0327">
        <ele>1133.0</ele>
      </trkpt>
      <trkpt lat="40.96328" lon="-4.03241">
        <ele>1133.0</ele>
      </trkpt>
      <trkpt lat="40.96281" lon="-4.03222">
        <ele>1131.0</ele>
      </trkpt>
      <trkpt lat="40.96194" lon="-4.03242">
        <ele>1130.0</ele>
      </trkpt>
      <trkpt lat="40.95657" lon="-4.03445">
        <ele>1131.0</ele>
      </trkpt>
      <trkpt lat="40.95573" lon="-4.03469">
        <ele>1130.0</ele>
      </trkpt>
      <trkpt lat="40.95524" lon="-4.03463">
        <ele>1130.0</ele>
      </trkpt>
      <trkpt lat="40.95471" lon="-4.03437">
        <ele>1131.0</ele>
      </trkpt>
      <trkpt lat="40.95408" lon="-4.03399">
        <ele>1131.0</ele>
      </trkpt>
      <trkpt lat="40.95344" lon="-4.03386">
        <ele>1131.0</ele>
      </trkpt>
      <trkpt lat="40.95083" lon="-4.03392">
        <ele>1137.0</ele>
      </trkpt>
      <trkpt lat="40.94987" lon="-4.03394">
        <ele>1136.0</ele>
      </trkpt>
      <trkpt lat="40.94657" lon="-4.03401">
        <ele>1131.0</ele>
      </trkpt>
      <trkpt lat="40.94478" lon="-4.03405">
        <ele>1133.0</ele>
      </trkpt>
      <trkpt lat="40.94357" lon="-4.03404">
        <ele>1138.0</ele>
      </trkpt>
      <trkpt lat="40.94266" lon="-4.03377">
        <ele>1139.0</ele>
      </trkpt>
      <trkpt lat="40.94181" lon="-4.0336">
        <ele>1141.0</ele>
      </trkpt>
      <trkpt lat="40.94021" lon="-4.03344">
        <ele>1141.0</ele>
      </trkpt>
      <trkpt lat="40.93977" lon="-4.03346">
        <ele>1142.0</ele>
      </trkpt>
      <trkpt lat="40.93909" lon="-4.0336">
        <ele>1143.0</ele>
      </trkpt>
      <trkpt lat="40.93811" lon="-4.0336">
        <ele>1144.0</ele>
      </trkpt>
      <trkpt lat="40.935" lon="-4.03347">
        <ele>1148.0</ele>
      </trkpt>
      <trkpt lat="40.93342" lon="-4.03326">
        <ele>1149.0</ele>
      </trkpt>
      <trkpt lat="40.93241" lon="-4.03291">
        <ele>1149.0</ele>
      </trkpt>
      <trkpt lat="40.93082" lon="-4.03218">
        <ele>1152.0</ele>
      </trkpt>
      <trkpt lat="40.92955" lon="-4.03158">
        <ele>1154.0</ele>
      </trkpt>
      <trkpt lat="40.92865" lon="-4.03096">
        <ele>1155.0</ele>
      </trkpt>
      <trkpt lat="40.92792" lon="-4.03041">
        <ele>1154.0</ele>
      </trkpt>
      <trkpt lat="40.92776" lon="-4.03035">
        <ele>1153.0</ele>
      </trkpt>
      <trkpt lat="40.92771" lon="-4.03039">
        <ele>1153.0</ele>
      </trkpt>
      <trkpt lat="40.92765" lon="-4.0304">
        <ele>1152.0</ele>
      </trkpt>
      <trkpt lat="40.92754" lon="-4.03071">
        <ele>1152.0</ele>
      </trkpt>
      <trkpt lat="40.92733" lon="-4.03159">
        <ele>1149.0</ele>
      </trkpt>
      <trkpt lat="40.92721" lon="-4.03249">
        <ele>1147.0</ele>
      </trkpt>
      <trkpt lat="40.92728" lon="-4.03337">
        <ele>1144.0</ele>
      </trkpt>
      <trkpt lat="40.9274" lon="-4.03466">
        <ele>1138.0</ele>
      </trkpt>
      <trkpt lat="40.92731" lon="-4.0357">
        <ele>1134.0</ele>
      </trkpt>
      <trkpt lat="40.92723" lon="-4.03647">
        <ele>1129.0</ele>
      </trkpt>
      <trkpt lat="40.92737" lon="-4.03722">
        <ele>1125.0</ele>
      </trkpt>
      <trkpt lat="40.92765" lon="-4.03797">
        <ele>1123.0</ele>
      </trkpt>
      <trkpt lat="40.92793" lon="-4.03885">
        <ele>1120.0</ele>
      </trkpt>
      <trkpt lat="40.92801" lon="-4.03945">
        <ele>1118.0</ele>
      </trkpt>
      <trkpt lat="40.92801" lon="-4.04091">
        <ele>1112.0</ele>
      </trkpt>
      <trkpt lat="40.92813" lon="-4.04166">
        <ele>1110.0</ele>
      </trkpt>
      <trkpt lat="40.92861" lon="-4.04383">
        <ele>1108.0</ele>
      </trkpt>
      <trkpt lat="40.92861" lon="-4.04444">
        <ele>1108.0</ele>
      </trkpt>
      <trkpt lat="40.92831" lon="-4.0456">
        <ele>1109.0</ele>
      </trkpt>
      <trkpt lat="40.92821" lon="-4.04701">
        <ele>1109.0</ele>
      </trkpt>
      <trkpt lat="40.92824" lon="-4.04794">
        <ele>1108.0</ele>
      </trkpt>
      <trkpt lat="40.92858" lon="-4.0509">
        <ele>1102.0</ele>
      </trkpt>
      <trkpt lat="40.92881" lon="-4.05234">
        <ele>1099.0</ele>
      </trkpt>
      <trkpt lat="40.92898" lon="-4.05243">
        <ele>1098.0</ele>
      </trkpt>
      <trkpt lat="40.92907" lon="-4.05263">
        <ele>1098.0</ele>
      </trkpt>
      <trkpt lat="40.92905" lon="-4.05283">
        <ele>1097.0</ele>
      </trkpt>
      <trkpt lat="40.92893" lon="-4.053">
        <ele>1097.0</ele>
      </trkpt>
      <trkpt lat="40.92882" lon="-4.05303">
        <ele>1097.0</ele>
      </trkpt>
      <trkpt lat="40.92866" lon="-4.05297">
        <ele>1097.0</ele>
      </trkpt>
      <trkpt lat="40.92857" lon="-4.05281">
        <ele>1097.0</ele>
      </trkpt>
      <trkpt lat="40.92833" lon="-4.0526">
        <ele>1098.0</ele>
      </trkpt>
      <trkpt lat="40.92597" lon="-4.05298">
        <ele>1091.0</ele>
      </trkpt>
      <trkpt lat="40.92414" lon="-4.05499">
        <ele>1055.0</ele>
      </trkpt>
      <trkpt lat="40.92176" lon="-4.05819">
        <ele>1076.0</ele>
      </trkpt>
      <trkpt lat="40.92046" lon="-4.06119">
        <ele>1076.0</ele>
      </trkpt>
      <trkpt lat="40.91815" lon="-4.06368">
        <ele>1086.0</ele>
      </trkpt>
      <trkpt lat="40.91818" lon="-4.06377">
        <ele>1086.0</ele>
      </trkpt>
      <trkpt lat="40.91818" lon="-4.06394">
        <ele>1085.0</ele>
      </trkpt>
      <trkpt lat="40.91809" lon="-4.06409">
        <ele>1085.0</ele>
      </trkpt>
      <trkpt lat="40.91799" lon="-4.06414">
        <ele>1085.0</ele>
      </trkpt>
      <trkpt lat="40.91786" lon="-4.06411">
        <ele>1085.0</ele>
      </trkpt>
      <trkpt lat="40.91773" lon="-4.06409">
        <ele>1085.0</ele>
      </trkpt>
      <trkpt lat="40.91637" lon="-4.06531">
        <ele>1087.0</ele>
      </trkpt>
      <trkpt lat="40.91572" lon="-4.06569">
        <ele>1087.0</ele>
      </trkpt>
      <trkpt lat="40.91498" lon="-4.06578">
        <ele>1092.0</ele>
      </trkpt>
      <trkpt lat="40.91444" lon="-4.06579">
        <ele>1092.0</ele>
      </trkpt>
      <trkpt lat="40.91454" lon="-4.06634">
        <ele>1090.0</ele>
      </trkpt>
      <trkpt lat="40.91611" lon="-4.06822">
        <ele>1089.0</ele>
      </trkpt>
      <trkpt lat="40.91619" lon="-4.06828">
        <ele>1089.0</ele>
      </trkpt>
      <trkpt lat="40.91625" lon="-4.0684">
        <ele>1090.0</ele>
      </trkpt>
      <trkpt lat="40.91626" lon="-4.06852">
        <ele>1090.0</ele>
      </trkpt>
      <trkpt lat="40.91649" lon="-4.06941">
        <ele>1092.0</ele>
      </trkpt>
      <trkpt lat="40.92131" lon="-4.07701">
        <ele>1075.0</ele>
      </trkpt>
      <trkpt lat="40.92249" lon="-4.07886">
        <ele>1069.0</ele>
      </trkpt>
      <trkpt lat="40.9231" lon="-4.07965">
        <ele>1067.0</ele>
      </trkpt>
      <trkpt lat="40.92316" lon="-4.07966">
        <ele>1067.0</ele>
      </trkpt>
      <trkpt lat="40.92321" lon="-4.0797">
        <ele>1067.0</ele>
      </trkpt>
      <trkpt lat="40.92324" lon="-4.07975">
        <ele>1067.0</ele>
      </trkpt>
      <trkpt lat="40.92326" lon="-4.07984">
        <ele>1067.0</ele>
      </trkpt>
      <trkpt lat="40.92352" lon="-4.08051">
        <ele>1065.0</ele>
      </trkpt>
      <trkpt lat="40.92468" lon="-4.08231">
        <ele>1063.0</ele>
      </trkpt>
      <trkpt lat="40.92684" lon="-4.0857">
        <ele>1068.0</ele>
      </trkpt>
      <trkpt lat="40.92738" lon="-4.08637">
        <ele>1068.0</ele>
      </trkpt>
      <trkpt lat="40.92765" lon="-4.08637">
        <ele>1067.0</ele>
      </trkpt>
      <trkpt lat="40.92777" lon="-4.08648">
        <ele>1067.0</ele>
      </trkpt>
      <trkpt lat="40.92787" lon="-4.08683">
        <ele>1067.0</ele>
      </trkpt>
      <trkpt lat="40.92781" lon="-4.08703">
        <ele>1068.0</ele>
      </trkpt>
      <trkpt lat="40.92787" lon="-4.08726">
        <ele>1069.0</ele>
      </trkpt>
      <trkpt lat="40.92851" lon="-4.08829">
        <ele>1073.0</ele>
      </trkpt>
      <trkpt lat="40.92911" lon="-4.08911">
        <ele>1072.0</ele>
      </trkpt>
      <trkpt lat="40.92927" lon="-4.08924">
        <ele>1072.0</ele>
      </trkpt>
      <trkpt lat="40.92933" lon="-4.08944">
        <ele>1073.0</ele>
      </trkpt>
      <trkpt lat="40.92931" lon="-4.0896">
        <ele>1074.0</ele>
      </trkpt>
      <trkpt lat="40.92926" lon="-4.08968">
        <ele>1074.0</ele>
      </trkpt>
      <trkpt lat="40.92921" lon="-4.08971">
        <ele>1074.0</ele>
      </trkpt>
      <trkpt lat="40.92914" lon="-4.08972">
        <ele>1075.0</ele>
      </trkpt>
      <trkpt lat="40.92894" lon="-4.08984">
        <ele>1076.0</ele>
      </trkpt>
      <trkpt lat="40.92843" lon="-4.09078">
        <ele>1081.0</ele>
      </trkpt>
      <trkpt lat="40.93002" lon="-4.09332">
        <ele>1081.0</ele>
      </trkpt>
      <trkpt lat="40.93103" lon="-4.09491">
        <ele>1084.0</ele>
      </trkpt>
    </trkseg>
  </trk>
</gpx>