<?xml version="1.0" encoding="UTF-8"?>
<gpx xmlns="http://www.topografix.com/GPX/1/0" xmlns:xsi="http://www.w3.org/2001/XMLSchema-instance" xsi:schemaLocation="http://www.topografix.com/GPX/1/0 http://www.topografix.com/GPX/1/0/gpx.xsd" version="1.0" creator="GPSBabel - https://www.gpsbabel.org">
  <time>2026-04-08T07:07:50.231000Z</time>
  <bounds minlat="41.88754" maxlat="42.1157" minlon="-8.88495" maxlon="-8.29911" />
  <trk>
    <trkseg>
      <trkpt lat="42.09521" lon="-8.34427">
        <ele>85.0</ele>
      </trkpt>
      <trkpt lat="42.09529" lon="-8.34221">
        <ele>91.0</ele>
      </trkpt>
      <trkpt lat="42.09527" lon="-8.33945">
        <ele>101.0</ele>
      </trkpt>
      <trkpt lat="42.09586" lon="-8.33786">
        <ele>106.0</ele>
      </trkpt>
      <trkpt lat="42.09627" lon="-8.33675">
        <ele>110.0</ele>
      </trkpt>
      <trkpt lat="42.0966" lon="-8.33631">
        <ele>111.0</ele>
      </trkpt>
      <trkpt lat="42.09713" lon="-8.33418">
        <ele>113.0</ele>
      </trkpt>
      <trkpt lat="42.09768" lon="-8.33308">
        <ele>111.0</ele>
      </trkpt>
      <trkpt lat="42.09856" lon="-8.33264">
        <ele>107.0</ele>
      </trkpt>
      <trkpt lat="42.09984" lon="-8.33274">
        <ele>107.0</ele>
      </trkpt>
      <trkpt lat="42.10208" lon="-8.33197">
        <ele>103.0</ele>
      </trkpt>
      <trkpt lat="42.10243" lon="-8.33148">
        <ele>99.0</ele>
      </trkpt>
      <trkpt lat="42.10272" lon="-8.3308">
        <ele>97.0</ele>
      </trkpt>
      <trkpt lat="42.1044" lon="-8.32894">
        <ele>87.0</ele>
      </trkpt>
      <trkpt lat="42.10476" lon="-8.32695">
        <ele>74.0</ele>
      </trkpt>
      <trkpt lat="42.10483" lon="-8.32449">
        <ele>72.0</ele>
      </trkpt>
      <trkpt lat="42.10553" lon="-8.32273">
        <ele>80.0</ele>
      </trkpt>
      <trkpt lat="42.10753" lon="-8.31969">
        <ele>94.0</ele>
      </trkpt>
      <trkpt lat="42.10825" lon="-8.31799">
        <ele>98.0</ele>
      </trkpt>
      <trkpt lat="42.10984" lon="-8.31573">
        <ele>95.0</ele>
      </trkpt>
      <trkpt lat="42.11004" lon="-8.31484">
        <ele>94.0</ele>
      </trkpt>
      <trkpt lat="42.11047" lon="-8.31436">
        <ele>98.0</ele>
      </trkpt>
      <trkpt lat="42.11077" lon="-8.31327">
        <ele>103.0</ele>
      </trkpt>
      <trkpt lat="42.11198" lon="-8.31135">
        <ele>102.0</ele>
      </trkpt>
      <trkpt lat="42.11266" lon="-8.30952">
        <ele>99.0</ele>
      </trkpt>
      <trkpt lat="42.11296" lon="-8.30852">
        <ele>99.0</ele>
      </trkpt>
      <trkpt lat="42.11255" lon="-8.30759">
        <ele>103.0</ele>
      </trkpt>
      <trkpt lat="42.11153" lon="-8.30682">
        <ele>107.0</ele>
      </trkpt>
      <trkpt lat="42.1111" lon="-8.30607">
        <ele>107.0</ele>
      </trkpt>
      <trkpt lat="42.11017" lon="-8.30523">
        <ele>105.0</ele>
      </trkpt>
      <trkpt lat="42.10937" lon="-8.30423">
        <ele>98.0</ele>
      </trkpt>
      <trkpt lat="42.10965" lon="-8.30247">
        <ele>89.0</ele>
      </trkpt>
      <trkpt lat="42.10902" lon="-8.30153">
        <ele>83.0</ele>
      </trkpt>
      <trkpt lat="42.10913" lon="-8.30065">
        <ele>78.0</ele>
      </trkpt>
      <trkpt lat="42.10932" lon="-8.29986">
        <ele>73.0</ele>
      </trkpt>
      <trkpt lat="42.10965" lon="-8.29921">
        <ele>68.0</ele>
      </trkpt>
      <trkpt lat="42.11023" lon="-8.29916">
        <ele>70.0</ele>
      </trkpt>
      <trkpt lat="42.11062" lon="-8.29992">
        <ele>74.0</ele>
      </trkpt>
      <trkpt lat="42.11178" lon="-8.30137">
        <ele>82.0</ele>
      </trkpt>
      <trkpt lat="42.11335" lon="-8.30316">
        <ele>98.0</ele>
      </trkpt>
      <trkpt lat="42.11445" lon="-8.30393">
        <ele>109.0</ele>
      </trkpt>
      <trkpt lat="42.11546" lon="-8.30557">
        <ele>121.0</ele>
      </trkpt>
      <trkpt lat="42.1157" lon="-8.30577">
        <ele>120.0</ele>
      </trkpt>
      <trkpt lat="42.11471" lon="-8.308">
        <ele>114.0</ele>
      </trkpt>
      <trkpt lat="42.11223" lon="-8.31327">
        <ele>109.0</ele>
      </trkpt>
      <trkpt lat="42.11263" lon="-8.31387">
        <ele>113.0</ele>
      </trkpt>
      <trkpt lat="42.11358" lon="-8.31748">
        <ele>124.0</ele>
      </trkpt>
      <trkpt lat="42.11286" lon="-8.31871">
        <ele>126.0</ele>
      </trkpt>
      <trkpt lat="42.11158" lon="-8.32129">
        <ele>127.0</ele>
      </trkpt>
      <trkpt lat="42.11132" lon="-8.32401">
        <ele>125.0</ele>
      </trkpt>
      <trkpt lat="42.11207" lon="-8.32552">
        <ele>121.0</ele>
      </trkpt>
      <trkpt lat="42.11312" lon="-8.32594">
        <ele>120.0</ele>
      </trkpt>
      <trkpt lat="42.1134" lon="-8.32737">
        <ele>120.0</ele>
      </trkpt>
      <trkpt lat="42.11409" lon="-8.32776">
        <ele>121.0</ele>
      </trkpt>
      <trkpt lat="42.1141" lon="-8.32823">
        <ele>122.0</ele>
      </trkpt>
      <trkpt lat="42.11358" lon="-8.32841">
        <ele>123.0</ele>
      </trkpt>
      <trkpt lat="42.11325" lon="-8.32853">
        <ele>125.0</ele>
      </trkpt>
      <trkpt lat="42.11318" lon="-8.32919">
        <ele>127.0</ele>
      </trkpt>
      <trkpt lat="42.11324" lon="-8.33189">
        <ele>134.0</ele>
      </trkpt>
      <trkpt lat="42.113" lon="-8.33285">
        <ele>136.0</ele>
      </trkpt>
      <trkpt lat="42.11199" lon="-8.33389">
        <ele>139.0</ele>
      </trkpt>
      <trkpt lat="42.1115" lon="-8.33485">
        <ele>142.0</ele>
      </trkpt>
      <trkpt lat="42.11099" lon="-8.33647">
        <ele>152.0</ele>
      </trkpt>
      <trkpt lat="42.10996" lon="-8.33767">
        <ele>153.0</ele>
      </trkpt>
      <trkpt lat="42.10889" lon="-8.33821">
        <ele>151.0</ele>
      </trkpt>
      <trkpt lat="42.10777" lon="-8.33742">
        <ele>153.0</ele>
      </trkpt>
      <trkpt lat="42.10622" lon="-8.33555">
        <ele>154.0</ele>
      </trkpt>
      <trkpt lat="42.10444" lon="-8.33624">
        <ele>159.0</ele>
      </trkpt>
      <trkpt lat="42.10318" lon="-8.33628">
        <ele>154.0</ele>
      </trkpt>
      <trkpt lat="42.10225" lon="-8.33651">
        <ele>147.0</ele>
      </trkpt>
      <trkpt lat="42.10111" lon="-8.33634">
        <ele>143.0</ele>
      </trkpt>
      <trkpt lat="42.10054" lon="-8.33691">
        <ele>139.0</ele>
      </trkpt>
      <trkpt lat="42.09896" lon="-8.33778">
        <ele>142.0</ele>
      </trkpt>
      <trkpt lat="42.09716" lon="-8.33812">
        <ele>132.0</ele>
      </trkpt>
      <trkpt lat="42.09637" lon="-8.33861">
        <ele>126.0</ele>
      </trkpt>
      <trkpt lat="42.09646" lon="-8.34039">
        <ele>119.0</ele>
      </trkpt>
      <trkpt lat="42.09723" lon="-8.34169">
        <ele>114.0</ele>
      </trkpt>
      <trkpt lat="42.09762" lon="-8.34354">
        <ele>112.0</ele>
      </trkpt>
      <trkpt lat="42.09724" lon="-8.34478">
        <ele>112.0</ele>
      </trkpt>
      <trkpt lat="42.0971" lon="-8.34694">
        <ele>112.0</ele>
      </trkpt>
      <trkpt lat="42.09779" lon="-8.34858">
        <ele>110.0</ele>
      </trkpt>
      <trkpt lat="42.09862" lon="-8.35045">
        <ele>108.0</ele>
      </trkpt>
      <trkpt lat="42.09925" lon="-8.35155">
        <ele>106.0</ele>
      </trkpt>
      <trkpt lat="42.09988" lon="-8.3528">
        <ele>103.0</ele>
      </trkpt>
      <trkpt lat="42.09962" lon="-8.35378">
        <ele>101.0</ele>
      </trkpt>
      <trkpt lat="42.09857" lon="-8.35526">
        <ele>103.0</ele>
      </trkpt>
      <trkpt lat="42.09916" lon="-8.35627">
        <ele>103.0</ele>
      </trkpt>
      <trkpt lat="42.09799" lon="-8.35656">
        <ele>102.0</ele>
      </trkpt>
      <trkpt lat="42.09709" lon="-8.35948">
        <ele>93.0</ele>
      </trkpt>
      <trkpt lat="42.09539" lon="-8.36111">
        <ele>85.0</ele>
      </trkpt>
      <trkpt lat="42.09472" lon="-8.3617">
        <ele>82.0</ele>
      </trkpt>
      <trkpt lat="42.0938" lon="-8.36283">
        <ele>78.0</ele>
      </trkpt>
      <trkpt lat="42.0937" lon="-8.36412">
        <ele>75.0</ele>
      </trkpt>
      <trkpt lat="42.09386" lon="-8.3661">
        <ele>71.0</ele>
      </trkpt>
      <trkpt lat="42.09308" lon="-8.36722">
        <ele>73.0</ele>
      </trkpt>
      <trkpt lat="42.09263" lon="-8.36813">
        <ele>77.0</ele>
      </trkpt>
      <trkpt lat="42.09255" lon="-8.37065">
        <ele>85.0</ele>
      </trkpt>
      <trkpt lat="42.09228" lon="-8.37259">
        <ele>83.0</ele>
      </trkpt>
      <trkpt lat="42.09193" lon="-8.37372">
        <ele>83.0</ele>
      </trkpt>
      <trkpt lat="42.09078" lon="-8.37538">
        <ele>88.0</ele>
      </trkpt>
      <trkpt lat="42.09054" lon="-8.3762">
        <ele>92.0</ele>
      </trkpt>
      <trkpt lat="42.09164" lon="-8.37938">
        <ele>94.0</ele>
      </trkpt>
      <trkpt lat="42.09254" lon="-8.38124">
        <ele>91.0</ele>
      </trkpt>
      <trkpt lat="42.09293" lon="-8.38191">
        <ele>88.0</ele>
      </trkpt>
      <trkpt lat="42.09283" lon="-8.38277">
        <ele>84.0</ele>
      </trkpt>
      <trkpt lat="42.09249" lon="-8.3842">
        <ele>76.0</ele>
      </trkpt>
      <trkpt lat="42.09315" lon="-8.38629">
        <ele>67.0</ele>
      </trkpt>
      <trkpt lat="42.09284" lon="-8.38953">
        <ele>56.0</ele>
      </trkpt>
      <trkpt lat="42.09252" lon="-8.39075">
        <ele>56.0</ele>
      </trkpt>
      <trkpt lat="42.09155" lon="-8.3925">
        <ele>62.0</ele>
      </trkpt>
      <trkpt lat="42.09158" lon="-8.39382">
        <ele>69.0</ele>
      </trkpt>
      <trkpt lat="42.09193" lon="-8.39589">
        <ele>82.0</ele>
      </trkpt>
      <trkpt lat="42.09153" lon="-8.39698">
        <ele>90.0</ele>
      </trkpt>
      <trkpt lat="42.09068" lon="-8.39795">
        <ele>97.0</ele>
      </trkpt>
      <trkpt lat="42.09054" lon="-8.39952">
        <ele>101.0</ele>
      </trkpt>
      <trkpt lat="42.09041" lon="-8.40205">
        <ele>108.0</ele>
      </trkpt>
      <trkpt lat="42.09077" lon="-8.40494">
        <ele>118.0</ele>
      </trkpt>
      <trkpt lat="42.09102" lon="-8.40656">
        <ele>130.0</ele>
      </trkpt>
      <trkpt lat="42.09073" lon="-8.40758">
        <ele>135.0</ele>
      </trkpt>
      <trkpt lat="42.09036" lon="-8.40907">
        <ele>139.0</ele>
      </trkpt>
      <trkpt lat="42.08891" lon="-8.41182">
        <ele>141.0</ele>
      </trkpt>
      <trkpt lat="42.08835" lon="-8.4123">
        <ele>139.0</ele>
      </trkpt>
      <trkpt lat="42.08694" lon="-8.41212">
        <ele>139.0</ele>
      </trkpt>
      <trkpt lat="42.08503" lon="-8.41182">
        <ele>138.0</ele>
      </trkpt>
      <trkpt lat="42.08424" lon="-8.41257">
        <ele>133.0</ele>
      </trkpt>
      <trkpt lat="42.0837" lon="-8.41383">
        <ele>130.0</ele>
      </trkpt>
      <trkpt lat="42.08381" lon="-8.41495">
        <ele>128.0</ele>
      </trkpt>
      <trkpt lat="42.08504" lon="-8.4166">
        <ele>123.0</ele>
      </trkpt>
      <trkpt lat="42.08562" lon="-8.41863">
        <ele>105.0</ele>
      </trkpt>
      <trkpt lat="42.08508" lon="-8.42062">
        <ele>95.0</ele>
      </trkpt>
      <trkpt lat="42.08341" lon="-8.42396">
        <ele>83.0</ele>
      </trkpt>
      <trkpt lat="42.08327" lon="-8.42555">
        <ele>78.0</ele>
      </trkpt>
      <trkpt lat="42.08421" lon="-8.42855">
        <ele>70.0</ele>
      </trkpt>
      <trkpt lat="42.08577" lon="-8.43163">
        <ele>60.0</ele>
      </trkpt>
      <trkpt lat="42.08671" lon="-8.43352">
        <ele>50.0</ele>
      </trkpt>
      <trkpt lat="42.08671" lon="-8.43523">
        <ele>43.0</ele>
      </trkpt>
      <trkpt lat="42.08578" lon="-8.43694">
        <ele>45.0</ele>
      </trkpt>
      <trkpt lat="42.08445" lon="-8.43865">
        <ele>44.0</ele>
      </trkpt>
      <trkpt lat="42.08423" lon="-8.4402">
        <ele>45.0</ele>
      </trkpt>
      <trkpt lat="42.08471" lon="-8.44186">
        <ele>45.0</ele>
      </trkpt>
      <trkpt lat="42.08639" lon="-8.44313">
        <ele>41.0</ele>
      </trkpt>
      <trkpt lat="42.08778" lon="-8.44427">
        <ele>36.0</ele>
      </trkpt>
      <trkpt lat="42.08857" lon="-8.44513">
        <ele>39.0</ele>
      </trkpt>
      <trkpt lat="42.08834" lon="-8.44561">
        <ele>39.0</ele>
      </trkpt>
      <trkpt lat="42.08781" lon="-8.44977">
        <ele>35.0</ele>
      </trkpt>
      <trkpt lat="42.08744" lon="-8.45302">
        <ele>31.0</ele>
      </trkpt>
      <trkpt lat="42.08602" lon="-8.46436">
        <ele>19.0</ele>
      </trkpt>
      <trkpt lat="42.08583" lon="-8.46708">
        <ele>20.0</ele>
      </trkpt>
      <trkpt lat="42.08685" lon="-8.4686">
        <ele>26.0</ele>
      </trkpt>
      <trkpt lat="42.08719" lon="-8.46976">
        <ele>28.0</ele>
      </trkpt>
      <trkpt lat="42.08729" lon="-8.47561">
        <ele>33.0</ele>
      </trkpt>
      <trkpt lat="42.08711" lon="-8.47592">
        <ele>33.0</ele>
      </trkpt>
      <trkpt lat="42.08544" lon="-8.47663">
        <ele>33.0</ele>
      </trkpt>
      <trkpt lat="42.08494" lon="-8.47732">
        <ele>33.0</ele>
      </trkpt>
      <trkpt lat="42.08502" lon="-8.47968">
        <ele>32.0</ele>
      </trkpt>
      <trkpt lat="42.08538" lon="-8.48178">
        <ele>32.0</ele>
      </trkpt>
      <trkpt lat="42.0852" lon="-8.48501">
        <ele>37.0</ele>
      </trkpt>
      <trkpt lat="42.08572" lon="-8.48566">
        <ele>37.0</ele>
      </trkpt>
      <trkpt lat="42.08532" lon="-8.48689">
        <ele>38.0</ele>
      </trkpt>
      <trkpt lat="42.08467" lon="-8.48812">
        <ele>38.0</ele>
      </trkpt>
      <trkpt lat="42.08474" lon="-8.49169">
        <ele>37.0</ele>
      </trkpt>
      <trkpt lat="42.08442" lon="-8.49288">
        <ele>38.0</ele>
      </trkpt>
      <trkpt lat="42.08397" lon="-8.49471">
        <ele>41.0</ele>
      </trkpt>
      <trkpt lat="42.08408" lon="-8.49559">
        <ele>41.0</ele>
      </trkpt>
      <trkpt lat="42.0843" lon="-8.49687">
        <ele>41.0</ele>
      </trkpt>
      <trkpt lat="42.08425" lon="-8.4984">
        <ele>40.0</ele>
      </trkpt>
      <trkpt lat="42.08354" lon="-8.49988">
        <ele>38.0</ele>
      </trkpt>
      <trkpt lat="42.08341" lon="-8.50033">
        <ele>36.0</ele>
      </trkpt>
      <trkpt lat="42.0833" lon="-8.50053">
        <ele>35.0</ele>
      </trkpt>
      <trkpt lat="42.08351" lon="-8.50156">
        <ele>34.0</ele>
      </trkpt>
      <trkpt lat="42.08343" lon="-8.502">
        <ele>34.0</ele>
      </trkpt>
      <trkpt lat="42.08387" lon="-8.50761">
        <ele>34.0</ele>
      </trkpt>
      <trkpt lat="42.08449" lon="-8.51562">
        <ele>24.0</ele>
      </trkpt>
      <trkpt lat="42.08487" lon="-8.51727">
        <ele>15.0</ele>
      </trkpt>
      <trkpt lat="42.08562" lon="-8.51873">
        <ele>15.0</ele>
      </trkpt>
      <trkpt lat="42.08515" lon="-8.5197">
        <ele>25.0</ele>
      </trkpt>
      <trkpt lat="42.08582" lon="-8.52148">
        <ele>38.0</ele>
      </trkpt>
      <trkpt lat="42.08548" lon="-8.5227">
        <ele>44.0</ele>
      </trkpt>
      <trkpt lat="42.08545" lon="-8.52449">
        <ele>55.0</ele>
      </trkpt>
      <trkpt lat="42.08532" lon="-8.52625">
        <ele>64.0</ele>
      </trkpt>
      <trkpt lat="42.08501" lon="-8.52762">
        <ele>69.0</ele>
      </trkpt>
      <trkpt lat="42.08516" lon="-8.52883">
        <ele>69.0</ele>
      </trkpt>
      <trkpt lat="42.08517" lon="-8.53049">
        <ele>69.0</ele>
      </trkpt>
      <trkpt lat="42.08473" lon="-8.53135">
        <ele>69.0</ele>
      </trkpt>
      <trkpt lat="42.0848" lon="-8.53265">
        <ele>70.0</ele>
      </trkpt>
      <trkpt lat="42.08405" lon="-8.53418">
        <ele>75.0</ele>
      </trkpt>
      <trkpt lat="42.08125" lon="-8.53622">
        <ele>84.0</ele>
      </trkpt>
      <trkpt lat="42.08049" lon="-8.5367">
        <ele>80.0</ele>
      </trkpt>
      <trkpt lat="42.08086" lon="-8.53833">
        <ele>75.0</ele>
      </trkpt>
      <trkpt lat="42.08069" lon="-8.53947">
        <ele>68.0</ele>
      </trkpt>
      <trkpt lat="42.0791" lon="-8.53923">
        <ele>63.0</ele>
      </trkpt>
      <trkpt lat="42.07794" lon="-8.54046">
        <ele>60.0</ele>
      </trkpt>
      <trkpt lat="42.07728" lon="-8.54047">
        <ele>57.0</ele>
      </trkpt>
      <trkpt lat="42.0768" lon="-8.54172">
        <ele>54.0</ele>
      </trkpt>
      <trkpt lat="42.07567" lon="-8.5429">
        <ele>51.0</ele>
      </trkpt>
      <trkpt lat="42.07506" lon="-8.54383">
        <ele>47.0</ele>
      </trkpt>
      <trkpt lat="42.07396" lon="-8.54459">
        <ele>42.0</ele>
      </trkpt>
      <trkpt lat="42.07317" lon="-8.5446">
        <ele>40.0</ele>
      </trkpt>
      <trkpt lat="42.07217" lon="-8.54588">
        <ele>40.0</ele>
      </trkpt>
      <trkpt lat="42.07037" lon="-8.54821">
        <ele>41.0</ele>
      </trkpt>
      <trkpt lat="42.06891" lon="-8.54885">
        <ele>37.0</ele>
      </trkpt>
      <trkpt lat="42.06706" lon="-8.55053">
        <ele>34.0</ele>
      </trkpt>
      <trkpt lat="42.06447" lon="-8.55204">
        <ele>26.0</ele>
      </trkpt>
      <trkpt lat="42.06394" lon="-8.55176">
        <ele>25.0</ele>
      </trkpt>
      <trkpt lat="42.06327" lon="-8.55225">
        <ele>25.0</ele>
      </trkpt>
      <trkpt lat="42.0625" lon="-8.5522">
        <ele>26.0</ele>
      </trkpt>
      <trkpt lat="42.06025" lon="-8.55321">
        <ele>20.0</ele>
      </trkpt>
      <trkpt lat="42.05738" lon="-8.55629">
        <ele>19.0</ele>
      </trkpt>
      <trkpt lat="42.05744" lon="-8.5572">
        <ele>19.0</ele>
      </trkpt>
      <trkpt lat="42.05703" lon="-8.55793">
        <ele>19.0</ele>
      </trkpt>
      <trkpt lat="42.05717" lon="-8.55928">
        <ele>21.0</ele>
      </trkpt>
      <trkpt lat="42.05642" lon="-8.56244">
        <ele>24.0</ele>
      </trkpt>
      <trkpt lat="42.05585" lon="-8.5652">
        <ele>19.0</ele>
      </trkpt>
      <trkpt lat="42.05582" lon="-8.56679">
        <ele>19.0</ele>
      </trkpt>
      <trkpt lat="42.05629" lon="-8.56851">
        <ele>22.0</ele>
      </trkpt>
      <trkpt lat="42.05725" lon="-8.57001">
        <ele>27.0</ele>
      </trkpt>
      <trkpt lat="42.05807" lon="-8.5716">
        <ele>29.0</ele>
      </trkpt>
      <trkpt lat="42.05818" lon="-8.57297">
        <ele>29.0</ele>
      </trkpt>
      <trkpt lat="42.05924" lon="-8.5752">
        <ele>28.0</ele>
      </trkpt>
      <trkpt lat="42.05978" lon="-8.57629">
        <ele>26.0</ele>
      </trkpt>
      <trkpt lat="42.06019" lon="-8.57799">
        <ele>24.0</ele>
      </trkpt>
      <trkpt lat="42.05938" lon="-8.57988">
        <ele>24.0</ele>
      </trkpt>
      <trkpt lat="42.05976" lon="-8.58175">
        <ele>22.0</ele>
      </trkpt>
      <trkpt lat="42.06024" lon="-8.58285">
        <ele>19.0</ele>
      </trkpt>
      <trkpt lat="42.06035" lon="-8.58812">
        <ele>19.0</ele>
      </trkpt>
      <trkpt lat="42.05983" lon="-8.59153">
        <ele>20.0</ele>
      </trkpt>
      <trkpt lat="42.06033" lon="-8.59361">
        <ele>19.0</ele>
      </trkpt>
      <trkpt lat="42.06006" lon="-8.5949">
        <ele>18.0</ele>
      </trkpt>
      <trkpt lat="42.05821" lon="-8.60101">
        <ele>15.0</ele>
      </trkpt>
      <trkpt lat="42.05943" lon="-8.60451">
        <ele>13.0</ele>
      </trkpt>
      <trkpt lat="42.05956" lon="-8.60564">
        <ele>12.0</ele>
      </trkpt>
      <trkpt lat="42.05978" lon="-8.60833">
        <ele>14.0</ele>
      </trkpt>
      <trkpt lat="42.05989" lon="-8.61162">
        <ele>13.0</ele>
      </trkpt>
      <trkpt lat="42.06003" lon="-8.61468">
        <ele>12.0</ele>
      </trkpt>
      <trkpt lat="42.06009" lon="-8.61581">
        <ele>12.0</ele>
      </trkpt>
      <trkpt lat="42.06008" lon="-8.61677">
        <ele>12.0</ele>
      </trkpt>
      <trkpt lat="42.06027" lon="-8.61779">
        <ele>12.0</ele>
      </trkpt>
      <trkpt lat="42.06026" lon="-8.61921">
        <ele>12.0</ele>
      </trkpt>
      <trkpt lat="42.06136" lon="-8.621">
        <ele>12.0</ele>
      </trkpt>
      <trkpt lat="42.06309" lon="-8.62236">
        <ele>12.0</ele>
      </trkpt>
      <trkpt lat="42.0647" lon="-8.62488">
        <ele>14.0</ele>
      </trkpt>
      <trkpt lat="42.0651" lon="-8.62595">
        <ele>14.0</ele>
      </trkpt>
      <trkpt lat="42.06576" lon="-8.6264">
        <ele>14.0</ele>
      </trkpt>
      <trkpt lat="42.06731" lon="-8.62607">
        <ele>12.0</ele>
      </trkpt>
      <trkpt lat="42.0677" lon="-8.6276">
        <ele>11.0</ele>
      </trkpt>
      <trkpt lat="42.06661" lon="-8.62879">
        <ele>11.0</ele>
      </trkpt>
      <trkpt lat="42.06677" lon="-8.63028">
        <ele>12.0</ele>
      </trkpt>
      <trkpt lat="42.06672" lon="-8.63133">
        <ele>12.0</ele>
      </trkpt>
      <trkpt lat="42.06602" lon="-8.63294">
        <ele>16.0</ele>
      </trkpt>
      <trkpt lat="42.06626" lon="-8.6338">
        <ele>18.0</ele>
      </trkpt>
      <trkpt lat="42.06705" lon="-8.63434">
        <ele>18.0</ele>
      </trkpt>
      <trkpt lat="42.06721" lon="-8.63448">
        <ele>18.0</ele>
      </trkpt>
      <trkpt lat="42.06719" lon="-8.63499">
        <ele>18.0</ele>
      </trkpt>
      <trkpt lat="42.06627" lon="-8.63629">
        <ele>17.0</ele>
      </trkpt>
      <trkpt lat="42.06525" lon="-8.63729">
        <ele>16.0</ele>
      </trkpt>
      <trkpt lat="42.0645" lon="-8.63826">
        <ele>18.0</ele>
      </trkpt>
      <trkpt lat="42.06381" lon="-8.63945">
        <ele>16.0</ele>
      </trkpt>
      <trkpt lat="42.06243" lon="-8.64112">
        <ele>15.0</ele>
      </trkpt>
      <trkpt lat="42.06072" lon="-8.64169">
        <ele>18.0</ele>
      </trkpt>
      <trkpt lat="42.06004" lon="-8.64191">
        <ele>18.0</ele>
      </trkpt>
      <trkpt lat="42.05933" lon="-8.64172">
        <ele>19.0</ele>
      </trkpt>
      <trkpt lat="42.0577" lon="-8.64201">
        <ele>22.0</ele>
      </trkpt>
      <trkpt lat="42.05465" lon="-8.64257">
        <ele>22.0</ele>
      </trkpt>
      <trkpt lat="42.05279" lon="-8.64293">
        <ele>23.0</ele>
      </trkpt>
      <trkpt lat="42.05256" lon="-8.64316">
        <ele>25.0</ele>
      </trkpt>
      <trkpt lat="42.05087" lon="-8.64517">
        <ele>34.0</ele>
      </trkpt>
      <trkpt lat="42.05041" lon="-8.64559">
        <ele>38.0</ele>
      </trkpt>
      <trkpt lat="42.04925" lon="-8.64648">
        <ele>40.0</ele>
      </trkpt>
      <trkpt lat="42.04912" lon="-8.64663">
        <ele>40.0</ele>
      </trkpt>
      <trkpt lat="42.04886" lon="-8.64672">
        <ele>40.0</ele>
      </trkpt>
      <trkpt lat="42.04767" lon="-8.64624">
        <ele>36.0</ele>
      </trkpt>
      <trkpt lat="42.04682" lon="-8.64632">
        <ele>32.0</ele>
      </trkpt>
      <trkpt lat="42.04545" lon="-8.64623">
        <ele>26.0</ele>
      </trkpt>
      <trkpt lat="42.04382" lon="-8.64578">
        <ele>15.0</ele>
      </trkpt>
      <trkpt lat="42.04291" lon="-8.64688">
        <ele>14.0</ele>
      </trkpt>
      <trkpt lat="42.04149" lon="-8.64775">
        <ele>17.0</ele>
      </trkpt>
      <trkpt lat="42.041" lon="-8.64875">
        <ele>18.0</ele>
      </trkpt>
      <trkpt lat="42.03985" lon="-8.65042">
        <ele>18.0</ele>
      </trkpt>
      <trkpt lat="42.03863" lon="-8.65339">
        <ele>22.0</ele>
      </trkpt>
      <trkpt lat="42.0379" lon="-8.65638">
        <ele>19.0</ele>
      </trkpt>
      <trkpt lat="42.03804" lon="-8.65691">
        <ele>16.0</ele>
      </trkpt>
      <trkpt lat="42.03799" lon="-8.6572">
        <ele>15.0</ele>
      </trkpt>
      <trkpt lat="42.03766" lon="-8.65768">
        <ele>14.0</ele>
      </trkpt>
      <trkpt lat="42.03724" lon="-8.65841">
        <ele>15.0</ele>
      </trkpt>
      <trkpt lat="42.03723" lon="-8.65869">
        <ele>16.0</ele>
      </trkpt>
      <trkpt lat="42.03713" lon="-8.65877">
        <ele>17.0</ele>
      </trkpt>
      <trkpt lat="42.03624" lon="-8.65964">
        <ele>18.0</ele>
      </trkpt>
      <trkpt lat="42.03513" lon="-8.66053">
        <ele>20.0</ele>
      </trkpt>
      <trkpt lat="42.03311" lon="-8.66185">
        <ele>20.0</ele>
      </trkpt>
      <trkpt lat="42.03222" lon="-8.66256">
        <ele>20.0</ele>
      </trkpt>
      <trkpt lat="42.03189" lon="-8.66262">
        <ele>20.0</ele>
      </trkpt>
      <trkpt lat="42.02886" lon="-8.66414">
        <ele>19.0</ele>
      </trkpt>
      <trkpt lat="42.02458" lon="-8.66617">
        <ele>27.0</ele>
      </trkpt>
      <trkpt lat="42.0198" lon="-8.66897">
        <ele>45.0</ele>
      </trkpt>
      <trkpt lat="42.0172" lon="-8.67174">
        <ele>54.0</ele>
      </trkpt>
      <trkpt lat="42.01529" lon="-8.67351">
        <ele>55.0</ele>
      </trkpt>
      <trkpt lat="42.01188" lon="-8.67576">
        <ele>57.0</ele>
      </trkpt>
      <trkpt lat="42.01025" lon="-8.67723">
        <ele>56.0</ele>
      </trkpt>
      <trkpt lat="42.00807" lon="-8.67918">
        <ele>56.0</ele>
      </trkpt>
      <trkpt lat="42.00422" lon="-8.68278">
        <ele>52.0</ele>
      </trkpt>
      <trkpt lat="42.00328" lon="-8.68461">
        <ele>51.0</ele>
      </trkpt>
      <trkpt lat="42.00099" lon="-8.68582">
        <ele>43.0</ele>
      </trkpt>
      <trkpt lat="41.99755" lon="-8.68742">
        <ele>30.0</ele>
      </trkpt>
      <trkpt lat="41.9963" lon="-8.68844">
        <ele>18.0</ele>
      </trkpt>
      <trkpt lat="41.99488" lon="-8.69135">
        <ele>10.0</ele>
      </trkpt>
      <trkpt lat="41.99423" lon="-8.6946">
        <ele>13.0</ele>
      </trkpt>
      <trkpt lat="41.99348" lon="-8.70025">
        <ele>16.0</ele>
      </trkpt>
      <trkpt lat="41.99293" lon="-8.70319">
        <ele>16.0</ele>
      </trkpt>
      <trkpt lat="41.99188" lon="-8.70785">
        <ele>14.0</ele>
      </trkpt>
      <trkpt lat="41.99078" lon="-8.712">
        <ele>13.0</ele>
      </trkpt>
      <trkpt lat="41.98944" lon="-8.71445">
        <ele>13.0</ele>
      </trkpt>
      <trkpt lat="41.98837" lon="-8.71593">
        <ele>13.0</ele>
      </trkpt>
      <trkpt lat="41.98666" lon="-8.71663">
        <ele>9.0</ele>
      </trkpt>
      <trkpt lat="41.98527" lon="-8.71758">
        <ele>5.0</ele>
      </trkpt>
      <trkpt lat="41.98314" lon="-8.72076">
        <ele>6.0</ele>
      </trkpt>
      <trkpt lat="41.98034" lon="-8.72693">
        <ele>6.0</ele>
      </trkpt>
      <trkpt lat="41.98003" lon="-8.72894">
        <ele>7.0</ele>
      </trkpt>
      <trkpt lat="41.98013" lon="-8.73143">
        <ele>10.0</ele>
      </trkpt>
      <trkpt lat="41.97973" lon="-8.73326">
        <ele>14.0</ele>
      </trkpt>
      <trkpt lat="41.97785" lon="-8.73619">
        <ele>15.0</ele>
      </trkpt>
      <trkpt lat="41.97561" lon="-8.73937">
        <ele>15.0</ele>
      </trkpt>
      <trkpt lat="41.97469" lon="-8.74168">
        <ele>15.0</ele>
      </trkpt>
      <trkpt lat="41.97336" lon="-8.74739">
        <ele>13.0</ele>
      </trkpt>
      <trkpt lat="41.97345" lon="-8.74775">
        <ele>11.0</ele>
      </trkpt>
      <trkpt lat="41.97308" lon="-8.74809">
        <ele>11.0</ele>
      </trkpt>
      <trkpt lat="41.97166" lon="-8.75385">
        <ele>7.0</ele>
      </trkpt>
      <trkpt lat="41.9709" lon="-8.75635">
        <ele>7.0</ele>
      </trkpt>
      <trkpt lat="41.97017" lon="-8.7572">
        <ele>7.0</ele>
      </trkpt>
      <trkpt lat="41.96348" lon="-8.76125">
        <ele>6.0</ele>
      </trkpt>
      <trkpt lat="41.962" lon="-8.76231">
        <ele>6.0</ele>
      </trkpt>
      <trkpt lat="41.96178" lon="-8.76231">
        <ele>6.0</ele>
      </trkpt>
      <trkpt lat="41.95906" lon="-8.7639">
        <ele>6.0</ele>
      </trkpt>
      <trkpt lat="41.95652" lon="-8.76489">
        <ele>9.0</ele>
      </trkpt>
      <trkpt lat="41.9551" lon="-8.76589">
        <ele>12.0</ele>
      </trkpt>
      <trkpt lat="41.95428" lon="-8.76687">
        <ele>11.0</ele>
      </trkpt>
      <trkpt lat="41.95402" lon="-8.76699">
        <ele>11.0</ele>
      </trkpt>
      <trkpt lat="41.95257" lon="-8.76811">
        <ele>11.0</ele>
      </trkpt>
      <trkpt lat="41.94968" lon="-8.7708">
        <ele>17.0</ele>
      </trkpt>
      <trkpt lat="41.94776" lon="-8.77487">
        <ele>24.0</ele>
      </trkpt>
      <trkpt lat="41.94634" lon="-8.77677">
        <ele>31.0</ele>
      </trkpt>
      <trkpt lat="41.94373" lon="-8.7796">
        <ele>36.0</ele>
      </trkpt>
      <trkpt lat="41.94161" lon="-8.7819">
        <ele>34.0</ele>
      </trkpt>
      <trkpt lat="41.94119" lon="-8.78296">
        <ele>29.0</ele>
      </trkpt>
      <trkpt lat="41.9397" lon="-8.78499">
        <ele>24.0</ele>
      </trkpt>
      <trkpt lat="41.93689" lon="-8.79023">
        <ele>32.0</ele>
      </trkpt>
      <trkpt lat="41.93557" lon="-8.79266">
        <ele>39.0</ele>
      </trkpt>
      <trkpt lat="41.93354" lon="-8.79356">
        <ele>46.0</ele>
      </trkpt>
      <trkpt lat="41.93177" lon="-8.79588">
        <ele>55.0</ele>
      </trkpt>
      <trkpt lat="41.93088" lon="-8.7973">
        <ele>58.0</ele>
      </trkpt>
      <trkpt lat="41.93107" lon="-8.79845">
        <ele>56.0</ele>
      </trkpt>
      <trkpt lat="41.93109" lon="-8.79987">
        <ele>52.0</ele>
      </trkpt>
      <trkpt lat="41.93138" lon="-8.80136">
        <ele>49.0</ele>
      </trkpt>
      <trkpt lat="41.93072" lon="-8.80181">
        <ele>47.0</ele>
      </trkpt>
      <trkpt lat="41.92979" lon="-8.80359">
        <ele>40.0</ele>
      </trkpt>
      <trkpt lat="41.92914" lon="-8.80419">
        <ele>35.0</ele>
      </trkpt>
      <trkpt lat="41.92715" lon="-8.80441">
        <ele>25.0</ele>
      </trkpt>
      <trkpt lat="41.92612" lon="-8.80496">
        <ele>18.0</ele>
      </trkpt>
      <trkpt lat="41.92465" lon="-8.8062">
        <ele>12.0</ele>
      </trkpt>
      <trkpt lat="41.92351" lon="-8.80863">
        <ele>9.0</ele>
      </trkpt>
      <trkpt lat="41.9215" lon="-8.81102">
        <ele>9.0</ele>
      </trkpt>
      <trkpt lat="41.91824" lon="-8.81462">
        <ele>9.0</ele>
      </trkpt>
      <trkpt lat="41.91742" lon="-8.81614">
        <ele>9.0</ele>
      </trkpt>
      <trkpt lat="41.91668" lon="-8.8198">
        <ele>5.0</ele>
      </trkpt>
      <trkpt lat="41.91579" lon="-8.82149">
        <ele>4.0</ele>
      </trkpt>
      <trkpt lat="41.91546" lon="-8.82236">
        <ele>4.0</ele>
      </trkpt>
      <trkpt lat="41.91424" lon="-8.82728">
        <ele>3.0</ele>
      </trkpt>
      <trkpt lat="41.91489" lon="-8.82916">
        <ele>3.0</ele>
      </trkpt>
      <trkpt lat="41.91504" lon="-8.8294">
        <ele>3.0</ele>
      </trkpt>
      <trkpt lat="41.91538" lon="-8.83087">
        <ele>4.0</ele>
      </trkpt>
      <trkpt lat="41.91566" lon="-8.83286">
        <ele>9.0</ele>
      </trkpt>
      <trkpt lat="41.91503" lon="-8.83515">
        <ele>13.0</ele>
      </trkpt>
      <trkpt lat="41.91494" lon="-8.83601">
        <ele>13.0</ele>
      </trkpt>
      <trkpt lat="41.91453" lon="-8.83818">
        <ele>11.0</ele>
      </trkpt>
      <trkpt lat="41.91443" lon="-8.83991">
        <ele>10.0</ele>
      </trkpt>
      <trkpt lat="41.91377" lon="-8.84348">
        <ele>10.0</ele>
      </trkpt>
      <trkpt lat="41.91328" lon="-8.84752">
        <ele>10.0</ele>
      </trkpt>
      <trkpt lat="41.91204" lon="-8.85083">
        <ele>10.0</ele>
      </trkpt>
      <trkpt lat="41.91181" lon="-8.85192">
        <ele>12.0</ele>
      </trkpt>
      <trkpt lat="41.91168" lon="-8.85227">
        <ele>13.0</ele>
      </trkpt>
      <trkpt lat="41.91038" lon="-8.85487">
        <ele>14.0</ele>
      </trkpt>
      <trkpt lat="41.90943" lon="-8.85761">
        <ele>18.0</ele>
      </trkpt>
      <trkpt lat="41.90857" lon="-8.85942">
        <ele>24.0</ele>
      </trkpt>
      <trkpt lat="41.90673" lon="-8.86177">
        <ele>36.0</ele>
      </trkpt>
      <trkpt lat="41.90502" lon="-8.86462">
        <ele>42.0</ele>
      </trkpt>
      <trkpt lat="41.90427" lon="-8.86594">
        <ele>45.0</ele>
      </trkpt>
      <trkpt lat="41.9034" lon="-8.86764">
        <ele>45.0</ele>
      </trkpt>
      <trkpt lat="41.90297" lon="-8.86859">
        <ele>44.0</ele>
      </trkpt>
      <trkpt lat="41.90254" lon="-8.87059">
        <ele>41.0</ele>
      </trkpt>
      <trkpt lat="41.90254" lon="-8.87186">
        <ele>39.0</ele>
      </trkpt>
      <trkpt lat="41.9026" lon="-8.87332">
        <ele>42.0</ele>
      </trkpt>
      <trkpt lat="41.90283" lon="-8.87379">
        <ele>43.0</ele>
      </trkpt>
      <trkpt lat="41.90387" lon="-8.87521">
        <ele>43.0</ele>
      </trkpt>
      <trkpt lat="41.90447" lon="-8.87542">
        <ele>43.0</ele>
      </trkpt>
      <trkpt lat="41.90481" lon="-8.87534">
        <ele>43.0</ele>
      </trkpt>
      <trkpt lat="41.90673" lon="-8.87349">
        <ele>42.0</ele>
      </trkpt>
      <trkpt lat="41.90828" lon="-8.87199">
        <ele>39.0</ele>
      </trkpt>
      <trkpt lat="41.91036" lon="-8.87211">
        <ele>37.0</ele>
      </trkpt>
      <trkpt lat="41.91196" lon="-8.87296">
        <ele>37.0</ele>
      </trkpt>
      <trkpt lat="41.9129" lon="-8.87512">
        <ele>39.0</ele>
      </trkpt>
      <trkpt lat="41.91279" lon="-8.87727">
        <ele>39.0</ele>
      </trkpt>
      <trkpt lat="41.91336" lon="-8.87918">
        <ele>40.0</ele>
      </trkpt>
      <trkpt lat="41.91524" lon="-8.87933">
        <ele>40.0</ele>
      </trkpt>
      <trkpt lat="41.91978" lon="-8.88007">
        <ele>42.0</ele>
      </trkpt>
      <trkpt lat="41.92722" lon="-8.88129">
        <ele>44.0</ele>
      </trkpt>
      <trkpt lat="41.932" lon="-8.88256">
        <ele>48.0</ele>
      </trkpt>
      <trkpt lat="41.93706" lon="-8.88493">
        <ele>50.0</ele>
      </trkpt>
      <trkpt lat="41.93876" lon="-8.88458">
        <ele>49.0</ele>
      </trkpt>
      <trkpt lat="41.94179" lon="-8.88355">
        <ele>50.0</ele>
      </trkpt>
      <trkpt lat="41.94512" lon="-8.88168">
        <ele>51.0</ele>
      </trkpt>
      <trkpt lat="41.94793" lon="-8.88268">
        <ele>46.0</ele>
      </trkpt>
      <trkpt lat="41.95002" lon="-8.88321">
        <ele>40.0</ele>
      </trkpt>
      <trkpt lat="41.95254" lon="-8.88227">
        <ele>33.0</ele>
      </trkpt>
      <trkpt lat="41.9535" lon="-8.88248">
        <ele>30.0</ele>
      </trkpt>
      <trkpt lat="41.9553" lon="-8.88352">
        <ele>26.0</ele>
      </trkpt>
      <trkpt lat="41.96165" lon="-8.88364">
        <ele>39.0</ele>
      </trkpt>
      <trkpt lat="41.96622" lon="-8.88366">
        <ele>45.0</ele>
      </trkpt>
      <trkpt lat="41.9707" lon="-8.88405">
        <ele>40.0</ele>
      </trkpt>
      <trkpt lat="41.97239" lon="-8.88424">
        <ele>42.0</ele>
      </trkpt>
      <trkpt lat="41.97493" lon="-8.88451">
        <ele>46.0</ele>
      </trkpt>
      <trkpt lat="41.97762" lon="-8.88481">
        <ele>45.0</ele>
      </trkpt>
      <trkpt lat="41.97888" lon="-8.88485">
        <ele>45.0</ele>
      </trkpt>
      <trkpt lat="41.983" lon="-8.88441">
        <ele>46.0</ele>
      </trkpt>
      <trkpt lat="41.98698" lon="-8.88402">
        <ele>45.0</ele>
      </trkpt>
      <trkpt lat="41.98815" lon="-8.88359">
        <ele>43.0</ele>
      </trkpt>
      <trkpt lat="41.99021" lon="-8.88212">
        <ele>42.0</ele>
      </trkpt>
      <trkpt lat="41.99309" lon="-8.88005">
        <ele>41.0</ele>
      </trkpt>
      <trkpt lat="41.99558" lon="-8.87818">
        <ele>51.0</ele>
      </trkpt>
      <trkpt lat="41.99712" lon="-8.87656">
        <ele>51.0</ele>
      </trkpt>
      <trkpt lat="41.99985" lon="-8.87582">
        <ele>49.0</ele>
      </trkpt>
      <trkpt lat="42.00071" lon="-8.87504">
        <ele>48.0</ele>
      </trkpt>
      <trkpt lat="42.00217" lon="-8.87344">
        <ele>46.0</ele>
      </trkpt>
      <trkpt lat="42.00289" lon="-8.87308">
        <ele>44.0</ele>
      </trkpt>
      <trkpt lat="42.00344" lon="-8.87316">
        <ele>43.0</ele>
      </trkpt>
      <trkpt lat="42.00536" lon="-8.87487">
        <ele>43.0</ele>
      </trkpt>
      <trkpt lat="42.00643" lon="-8.8759">
        <ele>41.0</ele>
      </trkpt>
      <trkpt lat="42.00835" lon="-8.87756">
        <ele>41.0</ele>
      </trkpt>
      <trkpt lat="42.00855" lon="-8.87683">
        <ele>44.0</ele>
      </trkpt>
      <trkpt lat="42.01029" lon="-8.87717">
        <ele>55.0</ele>
      </trkpt>
      <trkpt lat="42.01048" lon="-8.87675">
        <ele>61.0</ele>
      </trkpt>
      <trkpt lat="42.01055" lon="-8.87638">
        <ele>64.0</ele>
      </trkpt>
      <trkpt lat="42.01077" lon="-8.87609">
        <ele>68.0</ele>
      </trkpt>
      <trkpt lat="42.01045" lon="-8.87572">
        <ele>72.0</ele>
      </trkpt>
      <trkpt lat="42.00983" lon="-8.87487">
        <ele>80.0</ele>
      </trkpt>
      <trkpt lat="42.0094" lon="-8.87404">
        <ele>89.0</ele>
      </trkpt>
      <trkpt lat="42.0094" lon="-8.87364">
        <ele>95.0</ele>
      </trkpt>
      <trkpt lat="42.00996" lon="-8.87379">
        <ele>98.0</ele>
      </trkpt>
      <trkpt lat="42.01099" lon="-8.87365">
        <ele>105.0</ele>
      </trkpt>
      <trkpt lat="42.01137" lon="-8.87324">
        <ele>109.0</ele>
      </trkpt>
      <trkpt lat="42.01143" lon="-8.87278">
        <ele>115.0</ele>
      </trkpt>
      <trkpt lat="42.01139" lon="-8.87227">
        <ele>121.0</ele>
      </trkpt>
      <trkpt lat="42.01131" lon="-8.87188">
        <ele>126.0</ele>
      </trkpt>
      <trkpt lat="42.0107" lon="-8.87178">
        <ele>134.0</ele>
      </trkpt>
      <trkpt lat="42.00991" lon="-8.87181">
        <ele>141.0</ele>
      </trkpt>
      <trkpt lat="42.00916" lon="-8.87134">
        <ele>150.0</ele>
      </trkpt>
      <trkpt lat="42.00876" lon="-8.87047">
        <ele>158.0</ele>
      </trkpt>
      <trkpt lat="42.00869" lon="-8.86997">
        <ele>161.0</ele>
      </trkpt>
      <trkpt lat="42.0083" lon="-8.86932">
        <ele>166.0</ele>
      </trkpt>
      <trkpt lat="42.00773" lon="-8.8688">
        <ele>170.0</ele>
      </trkpt>
      <trkpt lat="42.00696" lon="-8.86827">
        <ele>174.0</ele>
      </trkpt>
      <trkpt lat="42.00652" lon="-8.86753">
        <ele>177.0</ele>
      </trkpt>
      <trkpt lat="42.00563" lon="-8.86576">
        <ele>185.0</ele>
      </trkpt>
      <trkpt lat="42.00443" lon="-8.86463">
        <ele>198.0</ele>
      </trkpt>
      <trkpt lat="42.00379" lon="-8.86338">
        <ele>213.0</ele>
      </trkpt>
      <trkpt lat="42.00215" lon="-8.86214">
        <ele>230.0</ele>
      </trkpt>
      <trkpt lat="42.00052" lon="-8.86115">
        <ele>245.0</ele>
      </trkpt>
      <trkpt lat="42.00003" lon="-8.86282">
        <ele>259.0</ele>
      </trkpt>
      <trkpt lat="41.99923" lon="-8.86435">
        <ele>273.0</ele>
      </trkpt>
      <trkpt lat="41.99914" lon="-8.86388">
        <ele>278.0</ele>
      </trkpt>
      <trkpt lat="41.9995" lon="-8.86178">
        <ele>288.0</ele>
      </trkpt>
      <trkpt lat="41.99961" lon="-8.85944">
        <ele>311.0</ele>
      </trkpt>
      <trkpt lat="42.00101" lon="-8.85944">
        <ele>325.0</ele>
      </trkpt>
      <trkpt lat="41.99966" lon="-8.85861">
        <ele>340.0</ele>
      </trkpt>
      <trkpt lat="41.99813" lon="-8.86033">
        <ele>358.0</ele>
      </trkpt>
      <trkpt lat="41.99742" lon="-8.86299">
        <ele>375.0</ele>
      </trkpt>
      <trkpt lat="41.99729" lon="-8.8612">
        <ele>388.0</ele>
      </trkpt>
      <trkpt lat="41.99836" lon="-8.857">
        <ele>412.0</ele>
      </trkpt>
      <trkpt lat="42.00052" lon="-8.85532">
        <ele>426.0</ele>
      </trkpt>
      <trkpt lat="42.00287" lon="-8.85531">
        <ele>415.0</ele>
      </trkpt>
      <trkpt lat="42.00385" lon="-8.85538">
        <ele>414.0</ele>
      </trkpt>
      <trkpt lat="42.00473" lon="-8.85587">
        <ele>415.0</ele>
      </trkpt>
      <trkpt lat="42.00571" lon="-8.85563">
        <ele>418.0</ele>
      </trkpt>
      <trkpt lat="42.00685" lon="-8.85497">
        <ele>421.0</ele>
      </trkpt>
      <trkpt lat="42.00769" lon="-8.85504">
        <ele>424.0</ele>
      </trkpt>
      <trkpt lat="42.00948" lon="-8.85535">
        <ele>426.0</ele>
      </trkpt>
      <trkpt lat="42.00997" lon="-8.85495">
        <ele>428.0</ele>
      </trkpt>
      <trkpt lat="42.01072" lon="-8.85424">
        <ele>428.0</ele>
      </trkpt>
      <trkpt lat="42.01119" lon="-8.85406">
        <ele>428.0</ele>
      </trkpt>
      <trkpt lat="42.01165" lon="-8.85346">
        <ele>429.0</ele>
      </trkpt>
      <trkpt lat="42.01192" lon="-8.85326">
        <ele>430.0</ele>
      </trkpt>
      <trkpt lat="42.01244" lon="-8.85332">
        <ele>430.0</ele>
      </trkpt>
      <trkpt lat="42.01278" lon="-8.85304">
        <ele>431.0</ele>
      </trkpt>
      <trkpt lat="42.01309" lon="-8.85251">
        <ele>432.0</ele>
      </trkpt>
      <trkpt lat="42.01337" lon="-8.85237">
        <ele>434.0</ele>
      </trkpt>
      <trkpt lat="42.01382" lon="-8.85245">
        <ele>436.0</ele>
      </trkpt>
      <trkpt lat="42.01409" lon="-8.85207">
        <ele>437.0</ele>
      </trkpt>
      <trkpt lat="42.01414" lon="-8.85151">
        <ele>439.0</ele>
      </trkpt>
      <trkpt lat="42.01434" lon="-8.85114">
        <ele>441.0</ele>
      </trkpt>
      <trkpt lat="42.01504" lon="-8.85012">
        <ele>446.0</ele>
      </trkpt>
      <trkpt lat="42.01511" lon="-8.8493">
        <ele>448.0</ele>
      </trkpt>
      <trkpt lat="42.01472" lon="-8.84782">
        <ele>450.0</ele>
      </trkpt>
      <trkpt lat="42.0151" lon="-8.84704">
        <ele>452.0</ele>
      </trkpt>
      <trkpt lat="42.01617" lon="-8.84582">
        <ele>456.0</ele>
      </trkpt>
      <trkpt lat="42.01711" lon="-8.84557">
        <ele>459.0</ele>
      </trkpt>
      <trkpt lat="42.01752" lon="-8.84522">
        <ele>460.0</ele>
      </trkpt>
      <trkpt lat="42.01779" lon="-8.84461">
        <ele>461.0</ele>
      </trkpt>
      <trkpt lat="42.01912" lon="-8.84344">
        <ele>463.0</ele>
      </trkpt>
      <trkpt lat="42.02109" lon="-8.84245">
        <ele>461.0</ele>
      </trkpt>
      <trkpt lat="42.02205" lon="-8.84143">
        <ele>458.0</ele>
      </trkpt>
      <trkpt lat="42.01914" lon="-8.83938">
        <ele>453.0</ele>
      </trkpt>
      <trkpt lat="42.01772" lon="-8.83814">
        <ele>446.0</ele>
      </trkpt>
      <trkpt lat="42.01951" lon="-8.83554">
        <ele>437.0</ele>
      </trkpt>
      <trkpt lat="42.02006" lon="-8.8338">
        <ele>434.0</ele>
      </trkpt>
      <trkpt lat="42.02121" lon="-8.83516">
        <ele>428.0</ele>
      </trkpt>
      <trkpt lat="42.02145" lon="-8.8345">
        <ele>426.0</ele>
      </trkpt>
      <trkpt lat="42.02139" lon="-8.83416">
        <ele>425.0</ele>
      </trkpt>
      <trkpt lat="42.02136" lon="-8.8332">
        <ele>424.0</ele>
      </trkpt>
      <trkpt lat="42.02135" lon="-8.83262">
        <ele>421.0</ele>
      </trkpt>
      <trkpt lat="42.02167" lon="-8.83203">
        <ele>416.0</ele>
      </trkpt>
      <trkpt lat="42.02163" lon="-8.83161">
        <ele>413.0</ele>
      </trkpt>
      <trkpt lat="42.02137" lon="-8.83103">
        <ele>409.0</ele>
      </trkpt>
      <trkpt lat="42.02026" lon="-8.82964">
        <ele>398.0</ele>
      </trkpt>
      <trkpt lat="42.01937" lon="-8.82907">
        <ele>391.0</ele>
      </trkpt>
      <trkpt lat="42.01848" lon="-8.82906">
        <ele>386.0</ele>
      </trkpt>
      <trkpt lat="42.01775" lon="-8.82924">
        <ele>380.0</ele>
      </trkpt>
      <trkpt lat="42.01736" lon="-8.82915">
        <ele>375.0</ele>
      </trkpt>
      <trkpt lat="42.01656" lon="-8.82842">
        <ele>365.0</ele>
      </trkpt>
      <trkpt lat="42.01598" lon="-8.82859">
        <ele>358.0</ele>
      </trkpt>
      <trkpt lat="42.01494" lon="-8.82834">
        <ele>349.0</ele>
      </trkpt>
      <trkpt lat="42.0144" lon="-8.82803">
        <ele>338.0</ele>
      </trkpt>
      <trkpt lat="42.01423" lon="-8.82752">
        <ele>334.0</ele>
      </trkpt>
      <trkpt lat="42.01392" lon="-8.82731">
        <ele>331.0</ele>
      </trkpt>
      <trkpt lat="42.01349" lon="-8.82732">
        <ele>328.0</ele>
      </trkpt>
      <trkpt lat="42.01324" lon="-8.82701">
        <ele>325.0</ele>
      </trkpt>
      <trkpt lat="42.01284" lon="-8.8257">
        <ele>319.0</ele>
      </trkpt>
      <trkpt lat="42.01241" lon="-8.82526">
        <ele>316.0</ele>
      </trkpt>
      <trkpt lat="42.0119" lon="-8.82484">
        <ele>311.0</ele>
      </trkpt>
      <trkpt lat="42.01166" lon="-8.82427">
        <ele>308.0</ele>
      </trkpt>
      <trkpt lat="42.01148" lon="-8.82388">
        <ele>305.0</ele>
      </trkpt>
      <trkpt lat="42.01097" lon="-8.82415">
        <ele>302.0</ele>
      </trkpt>
      <trkpt lat="42.00983" lon="-8.82522">
        <ele>294.0</ele>
      </trkpt>
      <trkpt lat="42.00932" lon="-8.82603">
        <ele>285.0</ele>
      </trkpt>
      <trkpt lat="42.00904" lon="-8.82648">
        <ele>281.0</ele>
      </trkpt>
      <trkpt lat="42.00847" lon="-8.82702">
        <ele>276.0</ele>
      </trkpt>
      <trkpt lat="42.00829" lon="-8.82694">
        <ele>272.0</ele>
      </trkpt>
      <trkpt lat="42.00806" lon="-8.8252">
        <ele>266.0</ele>
      </trkpt>
      <trkpt lat="42.00799" lon="-8.82489">
        <ele>264.0</ele>
      </trkpt>
      <trkpt lat="42.00676" lon="-8.82455">
        <ele>260.0</ele>
      </trkpt>
      <trkpt lat="42.00611" lon="-8.82449">
        <ele>252.0</ele>
      </trkpt>
      <trkpt lat="42.0058" lon="-8.82555">
        <ele>247.0</ele>
      </trkpt>
      <trkpt lat="42.00563" lon="-8.82592">
        <ele>243.0</ele>
      </trkpt>
      <trkpt lat="42.00536" lon="-8.82586">
        <ele>241.0</ele>
      </trkpt>
      <trkpt lat="42.00475" lon="-8.82427">
        <ele>236.0</ele>
      </trkpt>
      <trkpt lat="42.00466" lon="-8.82352">
        <ele>231.0</ele>
      </trkpt>
      <trkpt lat="42.00423" lon="-8.82326">
        <ele>228.0</ele>
      </trkpt>
      <trkpt lat="42.00366" lon="-8.82263">
        <ele>223.0</ele>
      </trkpt>
      <trkpt lat="42.003" lon="-8.82272">
        <ele>219.0</ele>
      </trkpt>
      <trkpt lat="42.00224" lon="-8.82242">
        <ele>213.0</ele>
      </trkpt>
      <trkpt lat="42.00131" lon="-8.82149">
        <ele>204.0</ele>
      </trkpt>
      <trkpt lat="42.00098" lon="-8.82141">
        <ele>201.0</ele>
      </trkpt>
      <trkpt lat="42.00019" lon="-8.82162">
        <ele>196.0</ele>
      </trkpt>
      <trkpt lat="41.99946" lon="-8.8216">
        <ele>190.0</ele>
      </trkpt>
      <trkpt lat="41.99881" lon="-8.8216">
        <ele>183.0</ele>
      </trkpt>
      <trkpt lat="41.99819" lon="-8.82052">
        <ele>175.0</ele>
      </trkpt>
      <trkpt lat="41.99733" lon="-8.82028">
        <ele>169.0</ele>
      </trkpt>
      <trkpt lat="41.9964" lon="-8.82004">
        <ele>163.0</ele>
      </trkpt>
      <trkpt lat="41.99572" lon="-8.81966">
        <ele>158.0</ele>
      </trkpt>
      <trkpt lat="41.99488" lon="-8.8201">
        <ele>153.0</ele>
      </trkpt>
      <trkpt lat="41.99395" lon="-8.81942">
        <ele>149.0</ele>
      </trkpt>
      <trkpt lat="41.99374" lon="-8.81889">
        <ele>145.0</ele>
      </trkpt>
      <trkpt lat="41.99393" lon="-8.81861">
        <ele>143.0</ele>
      </trkpt>
      <trkpt lat="41.99462" lon="-8.81835">
        <ele>141.0</ele>
      </trkpt>
      <trkpt lat="41.99506" lon="-8.81805">
        <ele>138.0</ele>
      </trkpt>
      <trkpt lat="41.99508" lon="-8.81766">
        <ele>136.0</ele>
      </trkpt>
      <trkpt lat="41.99447" lon="-8.8165">
        <ele>129.0</ele>
      </trkpt>
      <trkpt lat="41.99461" lon="-8.81571">
        <ele>125.0</ele>
      </trkpt>
      <trkpt lat="41.99517" lon="-8.81406">
        <ele>119.0</ele>
      </trkpt>
      <trkpt lat="41.99515" lon="-8.81374">
        <ele>117.0</ele>
      </trkpt>
      <trkpt lat="41.99493" lon="-8.81358">
        <ele>116.0</ele>
      </trkpt>
      <trkpt lat="41.99465" lon="-8.81382">
        <ele>116.0</ele>
      </trkpt>
      <trkpt lat="41.99405" lon="-8.81496">
        <ele>114.0</ele>
      </trkpt>
      <trkpt lat="41.99317" lon="-8.81584">
        <ele>113.0</ele>
      </trkpt>
      <trkpt lat="41.99235" lon="-8.81625">
        <ele>113.0</ele>
      </trkpt>
      <trkpt lat="41.9911" lon="-8.81702">
        <ele>112.0</ele>
      </trkpt>
      <trkpt lat="41.99063" lon="-8.81781">
        <ele>110.0</ele>
      </trkpt>
      <trkpt lat="41.99032" lon="-8.81793">
        <ele>109.0</ele>
      </trkpt>
      <trkpt lat="41.98965" lon="-8.818">
        <ele>107.0</ele>
      </trkpt>
      <trkpt lat="41.98866" lon="-8.81836">
        <ele>102.0</ele>
      </trkpt>
      <trkpt lat="41.98757" lon="-8.81757">
        <ele>99.0</ele>
      </trkpt>
      <trkpt lat="41.98715" lon="-8.81738">
        <ele>96.0</ele>
      </trkpt>
      <trkpt lat="41.98632" lon="-8.81809">
        <ele>93.0</ele>
      </trkpt>
      <trkpt lat="41.98556" lon="-8.81827">
        <ele>91.0</ele>
      </trkpt>
      <trkpt lat="41.98515" lon="-8.81924">
        <ele>90.0</ele>
      </trkpt>
      <trkpt lat="41.98472" lon="-8.81944">
        <ele>92.0</ele>
      </trkpt>
      <trkpt lat="41.98382" lon="-8.81935">
        <ele>97.0</ele>
      </trkpt>
      <trkpt lat="41.98308" lon="-8.81904">
        <ele>101.0</ele>
      </trkpt>
      <trkpt lat="41.98208" lon="-8.81814">
        <ele>103.0</ele>
      </trkpt>
      <trkpt lat="41.98094" lon="-8.81818">
        <ele>101.0</ele>
      </trkpt>
      <trkpt lat="41.98036" lon="-8.81835">
        <ele>96.0</ele>
      </trkpt>
      <trkpt lat="41.98029" lon="-8.81934">
        <ele>94.0</ele>
      </trkpt>
      <trkpt lat="41.97998" lon="-8.81967">
        <ele>93.0</ele>
      </trkpt>
      <trkpt lat="41.97841" lon="-8.81984">
        <ele>89.0</ele>
      </trkpt>
      <trkpt lat="41.9776" lon="-8.82">
        <ele>86.0</ele>
      </trkpt>
      <trkpt lat="41.97718" lon="-8.81999">
        <ele>84.0</ele>
      </trkpt>
      <trkpt lat="41.97657" lon="-8.8199">
        <ele>81.0</ele>
      </trkpt>
      <trkpt lat="41.97591" lon="-8.81929">
        <ele>78.0</ele>
      </trkpt>
      <trkpt lat="41.97463" lon="-8.81887">
        <ele>74.0</ele>
      </trkpt>
      <trkpt lat="41.97346" lon="-8.81915">
        <ele>71.0</ele>
      </trkpt>
      <trkpt lat="41.97042" lon="-8.82016">
        <ele>66.0</ele>
      </trkpt>
      <trkpt lat="41.96814" lon="-8.8213">
        <ele>61.0</ele>
      </trkpt>
      <trkpt lat="41.96749" lon="-8.82195">
        <ele>61.0</ele>
      </trkpt>
      <trkpt lat="41.96644" lon="-8.8218">
        <ele>61.0</ele>
      </trkpt>
      <trkpt lat="41.96541" lon="-8.82146">
        <ele>62.0</ele>
      </trkpt>
      <trkpt lat="41.96465" lon="-8.82114">
        <ele>63.0</ele>
      </trkpt>
      <trkpt lat="41.96406" lon="-8.82146">
        <ele>61.0</ele>
      </trkpt>
      <trkpt lat="41.96386" lon="-8.8223">
        <ele>59.0</ele>
      </trkpt>
      <trkpt lat="41.96326" lon="-8.82307">
        <ele>58.0</ele>
      </trkpt>
      <trkpt lat="41.96257" lon="-8.82387">
        <ele>56.0</ele>
      </trkpt>
      <trkpt lat="41.96158" lon="-8.8245">
        <ele>53.0</ele>
      </trkpt>
      <trkpt lat="41.96042" lon="-8.82432">
        <ele>50.0</ele>
      </trkpt>
      <trkpt lat="41.95979" lon="-8.82454">
        <ele>49.0</ele>
      </trkpt>
      <trkpt lat="41.95818" lon="-8.82447">
        <ele>47.0</ele>
      </trkpt>
      <trkpt lat="41.95654" lon="-8.82504">
        <ele>40.0</ele>
      </trkpt>
      <trkpt lat="41.95566" lon="-8.82541">
        <ele>36.0</ele>
      </trkpt>
      <trkpt lat="41.9548" lon="-8.82646">
        <ele>34.0</ele>
      </trkpt>
      <trkpt lat="41.95401" lon="-8.82659">
        <ele>33.0</ele>
      </trkpt>
      <trkpt lat="41.95199" lon="-8.82621">
        <ele>30.0</ele>
      </trkpt>
      <trkpt lat="41.9509" lon="-8.8268">
        <ele>30.0</ele>
      </trkpt>
      <trkpt lat="41.95022" lon="-8.82711">
        <ele>31.0</ele>
      </trkpt>
      <trkpt lat="41.94959" lon="-8.82726">
        <ele>32.0</ele>
      </trkpt>
      <trkpt lat="41.94732" lon="-8.82759">
        <ele>29.0</ele>
      </trkpt>
      <trkpt lat="41.94521" lon="-8.82828">
        <ele>26.0</ele>
      </trkpt>
      <trkpt lat="41.94426" lon="-8.82974">
        <ele>28.0</ele>
      </trkpt>
      <trkpt lat="41.94259" lon="-8.83084">
        <ele>34.0</ele>
      </trkpt>
      <trkpt lat="41.94192" lon="-8.83149">
        <ele>34.0</ele>
      </trkpt>
      <trkpt lat="41.94132" lon="-8.83259">
        <ele>30.0</ele>
      </trkpt>
      <trkpt lat="41.94041" lon="-8.83323">
        <ele>33.0</ele>
      </trkpt>
      <trkpt lat="41.93891" lon="-8.83378">
        <ele>38.0</ele>
      </trkpt>
      <trkpt lat="41.93868" lon="-8.83484">
        <ele>40.0</ele>
      </trkpt>
      <trkpt lat="41.93868" lon="-8.83547">
        <ele>42.0</ele>
      </trkpt>
      <trkpt lat="41.93776" lon="-8.83595">
        <ele>43.0</ele>
      </trkpt>
      <trkpt lat="41.93713" lon="-8.83635">
        <ele>42.0</ele>
      </trkpt>
      <trkpt lat="41.93704" lon="-8.83631">
        <ele>42.0</ele>
      </trkpt>
      <trkpt lat="41.93693" lon="-8.83535">
        <ele>41.0</ele>
      </trkpt>
      <trkpt lat="41.93633" lon="-8.83503">
        <ele>37.0</ele>
      </trkpt>
      <trkpt lat="41.93535" lon="-8.83502">
        <ele>31.0</ele>
      </trkpt>
      <trkpt lat="41.93367" lon="-8.83575">
        <ele>23.0</ele>
      </trkpt>
      <trkpt lat="41.93241" lon="-8.8368">
        <ele>17.0</ele>
      </trkpt>
      <trkpt lat="41.93173" lon="-8.83712">
        <ele>15.0</ele>
      </trkpt>
      <trkpt lat="41.93006" lon="-8.83703">
        <ele>23.0</ele>
      </trkpt>
      <trkpt lat="41.9299" lon="-8.83696">
        <ele>25.0</ele>
      </trkpt>
      <trkpt lat="41.92847" lon="-8.8362">
        <ele>32.0</ele>
      </trkpt>
      <trkpt lat="41.92803" lon="-8.83653">
        <ele>37.0</ele>
      </trkpt>
      <trkpt lat="41.92749" lon="-8.83873">
        <ele>43.0</ele>
      </trkpt>
      <trkpt lat="41.92707" lon="-8.83972">
        <ele>43.0</ele>
      </trkpt>
      <trkpt lat="41.92592" lon="-8.84162">
        <ele>41.0</ele>
      </trkpt>
      <trkpt lat="41.92515" lon="-8.84266">
        <ele>43.0</ele>
      </trkpt>
      <trkpt lat="41.9205" lon="-8.8433">
        <ele>35.0</ele>
      </trkpt>
      <trkpt lat="41.91915" lon="-8.84353">
        <ele>30.0</ele>
      </trkpt>
      <trkpt lat="41.91718" lon="-8.84472">
        <ele>24.0</ele>
      </trkpt>
      <trkpt lat="41.91647" lon="-8.84565">
        <ele>21.0</ele>
      </trkpt>
      <trkpt lat="41.91448" lon="-8.84739">
        <ele>16.0</ele>
      </trkpt>
      <trkpt lat="41.91327" lon="-8.84812">
        <ele>12.0</ele>
      </trkpt>
      <trkpt lat="41.91185" lon="-8.85134">
        <ele>11.0</ele>
      </trkpt>
      <trkpt lat="41.91182" lon="-8.85198">
        <ele>12.0</ele>
      </trkpt>
      <trkpt lat="41.91165" lon="-8.85228">
        <ele>13.0</ele>
      </trkpt>
      <trkpt lat="41.91036" lon="-8.85492">
        <ele>15.0</ele>
      </trkpt>
      <trkpt lat="41.90933" lon="-8.85792">
        <ele>18.0</ele>
      </trkpt>
      <trkpt lat="41.90853" lon="-8.85948">
        <ele>25.0</ele>
      </trkpt>
      <trkpt lat="41.90646" lon="-8.86218">
        <ele>38.0</ele>
      </trkpt>
      <trkpt lat="41.90483" lon="-8.86495">
        <ele>43.0</ele>
      </trkpt>
      <trkpt lat="41.90434" lon="-8.86581">
        <ele>45.0</ele>
      </trkpt>
      <trkpt lat="41.90348" lon="-8.86747">
        <ele>46.0</ele>
      </trkpt>
      <trkpt lat="41.90307" lon="-8.86837">
        <ele>44.0</ele>
      </trkpt>
      <trkpt lat="41.90268" lon="-8.86992">
        <ele>42.0</ele>
      </trkpt>
      <trkpt lat="41.90254" lon="-8.87176">
        <ele>39.0</ele>
      </trkpt>
      <trkpt lat="41.90259" lon="-8.87327">
        <ele>41.0</ele>
      </trkpt>
      <trkpt lat="41.90302" lon="-8.87409">
        <ele>43.0</ele>
      </trkpt>
      <trkpt lat="41.90402" lon="-8.8753">
        <ele>43.0</ele>
      </trkpt>
      <trkpt lat="41.90454" lon="-8.87542">
        <ele>43.0</ele>
      </trkpt>
      <trkpt lat="41.90493" lon="-8.87528">
        <ele>43.0</ele>
      </trkpt>
      <trkpt lat="41.90682" lon="-8.8734">
        <ele>41.0</ele>
      </trkpt>
      <trkpt lat="41.90841" lon="-8.87195">
        <ele>38.0</ele>
      </trkpt>
      <trkpt lat="41.91057" lon="-8.87213">
        <ele>37.0</ele>
      </trkpt>
      <trkpt lat="41.91207" lon="-8.87331">
        <ele>37.0</ele>
      </trkpt>
      <trkpt lat="41.913" lon="-8.87542">
        <ele>39.0</ele>
      </trkpt>
      <trkpt lat="41.91279" lon="-8.87771">
        <ele>40.0</ele>
      </trkpt>
      <trkpt lat="41.91349" lon="-8.87927">
        <ele>40.0</ele>
      </trkpt>
      <trkpt lat="41.91563" lon="-8.87938">
        <ele>40.0</ele>
      </trkpt>
      <trkpt lat="41.92181" lon="-8.88042">
        <ele>44.0</ele>
      </trkpt>
      <trkpt lat="41.92897" lon="-8.88157">
        <ele>44.0</ele>
      </trkpt>
      <trkpt lat="41.9333" lon="-8.88318">
        <ele>49.0</ele>
      </trkpt>
      <trkpt lat="41.93726" lon="-8.88495">
        <ele>50.0</ele>
      </trkpt>
      <trkpt lat="41.94022" lon="-8.88418">
        <ele>50.0</ele>
      </trkpt>
      <trkpt lat="41.94376" lon="-8.88217">
        <ele>50.0</ele>
      </trkpt>
      <trkpt lat="41.94533" lon="-8.88172">
        <ele>51.0</ele>
      </trkpt>
      <trkpt lat="41.9485" lon="-8.88288">
        <ele>45.0</ele>
      </trkpt>
      <trkpt lat="41.95011" lon="-8.88318">
        <ele>40.0</ele>
      </trkpt>
      <trkpt lat="41.95269" lon="-8.88225">
        <ele>32.0</ele>
      </trkpt>
      <trkpt lat="41.95413" lon="-8.88308">
        <ele>29.0</ele>
      </trkpt>
      <trkpt lat="41.95611" lon="-8.88354">
        <ele>26.0</ele>
      </trkpt>
      <trkpt lat="41.96196" lon="-8.88363">
        <ele>41.0</ele>
      </trkpt>
      <trkpt lat="41.96721" lon="-8.88369">
        <ele>44.0</ele>
      </trkpt>
      <trkpt lat="41.97085" lon="-8.88406">
        <ele>40.0</ele>
      </trkpt>
      <trkpt lat="41.97262" lon="-8.88426">
        <ele>43.0</ele>
      </trkpt>
      <trkpt lat="41.97576" lon="-8.88459">
        <ele>45.0</ele>
      </trkpt>
      <trkpt lat="41.97828" lon="-8.88488">
        <ele>45.0</ele>
      </trkpt>
      <trkpt lat="41.98134" lon="-8.88458">
        <ele>45.0</ele>
      </trkpt>
      <trkpt lat="41.98571" lon="-8.88414">
        <ele>45.0</ele>
      </trkpt>
      <trkpt lat="41.98743" lon="-8.88389">
        <ele>44.0</ele>
      </trkpt>
      <trkpt lat="41.9886" lon="-8.88328">
        <ele>42.0</ele>
      </trkpt>
      <trkpt lat="41.99129" lon="-8.88134">
        <ele>42.0</ele>
      </trkpt>
      <trkpt lat="41.99481" lon="-8.87881">
        <ele>47.0</ele>
      </trkpt>
      <trkpt lat="41.99643" lon="-8.87713">
        <ele>51.0</ele>
      </trkpt>
      <trkpt lat="41.99823" lon="-8.87626">
        <ele>51.0</ele>
      </trkpt>
      <trkpt lat="42.00009" lon="-8.87568">
        <ele>49.0</ele>
      </trkpt>
      <trkpt lat="42.00166" lon="-8.87398">
        <ele>47.0</ele>
      </trkpt>
      <trkpt lat="42.00245" lon="-8.87322">
        <ele>45.0</ele>
      </trkpt>
      <trkpt lat="42.00312" lon="-8.87309">
        <ele>44.0</ele>
      </trkpt>
      <trkpt lat="42.00368" lon="-8.87328">
        <ele>43.0</ele>
      </trkpt>
      <trkpt lat="42.006" lon="-8.87549">
        <ele>41.0</ele>
      </trkpt>
      <trkpt lat="42.00812" lon="-8.87752">
        <ele>40.0</ele>
      </trkpt>
      <trkpt lat="42.00834" lon="-8.87702">
        <ele>42.0</ele>
      </trkpt>
      <trkpt lat="42.00967" lon="-8.8771">
        <ele>48.0</ele>
      </trkpt>
      <trkpt lat="42.01044" lon="-8.87704">
        <ele>58.0</ele>
      </trkpt>
      <trkpt lat="42.0105" lon="-8.87654">
        <ele>63.0</ele>
      </trkpt>
      <trkpt lat="42.01071" lon="-8.87622">
        <ele>66.0</ele>
      </trkpt>
      <trkpt lat="42.01073" lon="-8.87598">
        <ele>69.0</ele>
      </trkpt>
      <trkpt lat="42.01019" lon="-8.87542">
        <ele>75.0</ele>
      </trkpt>
      <trkpt lat="42.00958" lon="-8.87445">
        <ele>84.0</ele>
      </trkpt>
      <trkpt lat="42.00934" lon="-8.87373">
        <ele>93.0</ele>
      </trkpt>
      <trkpt lat="42.0095" lon="-8.87364">
        <ele>96.0</ele>
      </trkpt>
      <trkpt lat="42.01034" lon="-8.87375">
        <ele>100.0</ele>
      </trkpt>
      <trkpt lat="42.01112" lon="-8.87356">
        <ele>107.0</ele>
      </trkpt>
      <trkpt lat="42.01146" lon="-8.87299">
        <ele>112.0</ele>
      </trkpt>
      <trkpt lat="42.01138" lon="-8.8725">
        <ele>118.0</ele>
      </trkpt>
      <trkpt lat="42.01141" lon="-8.87205">
        <ele>123.0</ele>
      </trkpt>
      <trkpt lat="42.01098" lon="-8.87172">
        <ele>130.0</ele>
      </trkpt>
      <trkpt lat="42.01049" lon="-8.87183">
        <ele>137.0</ele>
      </trkpt>
      <trkpt lat="42.00977" lon="-8.87177">
        <ele>144.0</ele>
      </trkpt>
      <trkpt lat="42.00903" lon="-8.87113">
        <ele>153.0</ele>
      </trkpt>
      <trkpt lat="42.00872" lon="-8.87009">
        <ele>160.0</ele>
      </trkpt>
      <trkpt lat="42.00833" lon="-8.86937">
        <ele>165.0</ele>
      </trkpt>
      <trkpt lat="42.00788" lon="-8.86887">
        <ele>170.0</ele>
      </trkpt>
      <trkpt lat="42.00708" lon="-8.8684">
        <ele>173.0</ele>
      </trkpt>
      <trkpt lat="42.00661" lon="-8.86773">
        <ele>176.0</ele>
      </trkpt>
      <trkpt lat="42.00583" lon="-8.86651">
        <ele>182.0</ele>
      </trkpt>
      <trkpt lat="42.00453" lon="-8.86486">
        <ele>196.0</ele>
      </trkpt>
      <trkpt lat="42.00427" lon="-8.86329">
        <ele>209.0</ele>
      </trkpt>
      <trkpt lat="42.00316" lon="-8.86282">
        <ele>219.0</ele>
      </trkpt>
      <trkpt lat="42.00187" lon="-8.86165">
        <ele>236.0</ele>
      </trkpt>
      <trkpt lat="42.00026" lon="-8.8621">
        <ele>253.0</ele>
      </trkpt>
      <trkpt lat="41.99939" lon="-8.86349">
        <ele>267.0</ele>
      </trkpt>
      <trkpt lat="41.99912" lon="-8.86434">
        <ele>275.0</ele>
      </trkpt>
      <trkpt lat="41.99919" lon="-8.86284">
        <ele>282.0</ele>
      </trkpt>
      <trkpt lat="41.99908" lon="-8.86077">
        <ele>298.0</ele>
      </trkpt>
      <trkpt lat="41.99997" lon="-8.85925">
        <ele>317.0</ele>
      </trkpt>
      <trkpt lat="42.00078" lon="-8.8592">
        <ele>330.0</ele>
      </trkpt>
      <trkpt lat="41.99902" lon="-8.85908">
        <ele>348.0</ele>
      </trkpt>
      <trkpt lat="41.99772" lon="-8.86139">
        <ele>366.0</ele>
      </trkpt>
      <trkpt lat="41.99709" lon="-8.86277">
        <ele>380.0</ele>
      </trkpt>
      <trkpt lat="41.99794" lon="-8.85903">
        <ele>398.0</ele>
      </trkpt>
      <trkpt lat="41.99851" lon="-8.85629">
        <ele>421.0</ele>
      </trkpt>
      <trkpt lat="42.00162" lon="-8.8553">
        <ele>422.0</ele>
      </trkpt>
      <trkpt lat="42.00349" lon="-8.85532">
        <ele>414.0</ele>
      </trkpt>
      <trkpt lat="42.00448" lon="-8.85576">
        <ele>414.0</ele>
      </trkpt>
      <trkpt lat="42.00503" lon="-8.85587">
        <ele>416.0</ele>
      </trkpt>
      <trkpt lat="42.00593" lon="-8.85544">
        <ele>419.0</ele>
      </trkpt>
      <trkpt lat="42.00722" lon="-8.85491">
        <ele>423.0</ele>
      </trkpt>
      <trkpt lat="42.00799" lon="-8.85513">
        <ele>424.0</ele>
      </trkpt>
      <trkpt lat="42.00964" lon="-8.85528">
        <ele>428.0</ele>
      </trkpt>
      <trkpt lat="42.01048" lon="-8.85441">
        <ele>428.0</ele>
      </trkpt>
      <trkpt lat="42.01092" lon="-8.8542">
        <ele>428.0</ele>
      </trkpt>
      <trkpt lat="42.01141" lon="-8.85382">
        <ele>429.0</ele>
      </trkpt>
      <trkpt lat="42.01181" lon="-8.85331">
        <ele>429.0</ele>
      </trkpt>
      <trkpt lat="42.0122" lon="-8.8533">
        <ele>430.0</ele>
      </trkpt>
      <trkpt lat="42.01257" lon="-8.85328">
        <ele>431.0</ele>
      </trkpt>
      <trkpt lat="42.01292" lon="-8.85278">
        <ele>431.0</ele>
      </trkpt>
      <trkpt lat="42.01322" lon="-8.85242">
        <ele>433.0</ele>
      </trkpt>
      <trkpt lat="42.01353" lon="-8.85239">
        <ele>435.0</ele>
      </trkpt>
      <trkpt lat="42.01396" lon="-8.85236">
        <ele>436.0</ele>
      </trkpt>
      <trkpt lat="42.01414" lon="-8.85183">
        <ele>438.0</ele>
      </trkpt>
      <trkpt lat="42.0142" lon="-8.85134">
        <ele>440.0</ele>
      </trkpt>
      <trkpt lat="42.01487" lon="-8.8505">
        <ele>444.0</ele>
      </trkpt>
      <trkpt lat="42.01511" lon="-8.84981">
        <ele>447.0</ele>
      </trkpt>
      <trkpt lat="42.01503" lon="-8.84896">
        <ele>449.0</ele>
      </trkpt>
      <trkpt lat="42.01476" lon="-8.84751">
        <ele>451.0</ele>
      </trkpt>
      <trkpt lat="42.01597" lon="-8.84594">
        <ele>455.0</ele>
      </trkpt>
      <trkpt lat="42.01641" lon="-8.84576">
        <ele>457.0</ele>
      </trkpt>
      <trkpt lat="42.01734" lon="-8.84543">
        <ele>459.0</ele>
      </trkpt>
      <trkpt lat="42.01765" lon="-8.84497">
        <ele>461.0</ele>
      </trkpt>
      <trkpt lat="42.01792" lon="-8.84441">
        <ele>462.0</ele>
      </trkpt>
      <trkpt lat="42.01973" lon="-8.84281">
        <ele>463.0</ele>
      </trkpt>
      <trkpt lat="42.0219" lon="-8.8421">
        <ele>460.0</ele>
      </trkpt>
      <trkpt lat="42.02118" lon="-8.84052">
        <ele>457.0</ele>
      </trkpt>
      <trkpt lat="42.01803" lon="-8.83889">
        <ele>449.0</ele>
      </trkpt>
      <trkpt lat="42.01858" lon="-8.83723">
        <ele>441.0</ele>
      </trkpt>
      <trkpt lat="42.01968" lon="-8.83431">
        <ele>436.0</ele>
      </trkpt>
      <trkpt lat="42.02081" lon="-8.83494">
        <ele>431.0</ele>
      </trkpt>
      <trkpt lat="42.0213" lon="-8.83512">
        <ele>427.0</ele>
      </trkpt>
      <trkpt lat="42.0214" lon="-8.83432">
        <ele>426.0</ele>
      </trkpt>
      <trkpt lat="42.02141" lon="-8.83375">
        <ele>425.0</ele>
      </trkpt>
      <trkpt lat="42.02133" lon="-8.83289">
        <ele>422.0</ele>
      </trkpt>
      <trkpt lat="42.02145" lon="-8.8324">
        <ele>419.0</ele>
      </trkpt>
      <trkpt lat="42.02168" lon="-8.83185">
        <ele>415.0</ele>
      </trkpt>
      <trkpt lat="42.02152" lon="-8.83126">
        <ele>411.0</ele>
      </trkpt>
      <trkpt lat="42.02049" lon="-8.82988">
        <ele>402.0</ele>
      </trkpt>
      <trkpt lat="42.01949" lon="-8.82914">
        <ele>393.0</ele>
      </trkpt>
      <trkpt lat="42.0189" lon="-8.82902">
        <ele>388.0</ele>
      </trkpt>
      <trkpt lat="42.01812" lon="-8.82915">
        <ele>383.0</ele>
      </trkpt>
      <trkpt lat="42.0176" lon="-8.82924">
        <ele>377.0</ele>
      </trkpt>
      <trkpt lat="42.01713" lon="-8.82895">
        <ele>372.0</ele>
      </trkpt>
      <trkpt lat="42.01641" lon="-8.8284">
        <ele>363.0</ele>
      </trkpt>
      <trkpt lat="42.01577" lon="-8.82861">
        <ele>355.0</ele>
      </trkpt>
      <trkpt lat="42.01459" lon="-8.82822">
        <ele>342.0</ele>
      </trkpt>
      <trkpt lat="42.01433" lon="-8.82779">
        <ele>336.0</ele>
      </trkpt>
      <trkpt lat="42.0141" lon="-8.82736">
        <ele>332.0</ele>
      </trkpt>
      <trkpt lat="42.01365" lon="-8.82733">
        <ele>329.0</ele>
      </trkpt>
      <trkpt lat="42.01333" lon="-8.8272">
        <ele>326.0</ele>
      </trkpt>
      <trkpt lat="42.01303" lon="-8.82625">
        <ele>323.0</ele>
      </trkpt>
      <trkpt lat="42.01274" lon="-8.82552">
        <ele>318.0</ele>
      </trkpt>
      <trkpt lat="42.01208" lon="-8.82504">
        <ele>313.0</ele>
      </trkpt>
      <trkpt lat="42.01177" lon="-8.82464">
        <ele>310.0</ele>
      </trkpt>
      <trkpt lat="42.01159" lon="-8.82401">
        <ele>307.0</ele>
      </trkpt>
      <trkpt lat="42.01137" lon="-8.82387">
        <ele>304.0</ele>
      </trkpt>
      <trkpt lat="42.01066" lon="-8.82442">
        <ele>300.0</ele>
      </trkpt>
      <trkpt lat="42.00937" lon="-8.82576">
        <ele>288.0</ele>
      </trkpt>
      <trkpt lat="42.00926" lon="-8.82619">
        <ele>284.0</ele>
      </trkpt>
      <trkpt lat="42.00894" lon="-8.82659">
        <ele>279.0</ele>
      </trkpt>
      <trkpt lat="42.00837" lon="-8.82706">
        <ele>274.0</ele>
      </trkpt>
      <trkpt lat="42.00812" lon="-8.8259">
        <ele>268.0</ele>
      </trkpt>
      <trkpt lat="42.00804" lon="-8.82499">
        <ele>264.0</ele>
      </trkpt>
      <trkpt lat="42.0079" lon="-8.8248">
        <ele>263.0</ele>
      </trkpt>
      <trkpt lat="42.00628" lon="-8.82446">
        <ele>255.0</ele>
      </trkpt>
      <trkpt lat="42.00602" lon="-8.8246">
        <ele>250.0</ele>
      </trkpt>
      <trkpt lat="42.00572" lon="-8.82583">
        <ele>244.0</ele>
      </trkpt>
      <trkpt lat="42.00551" lon="-8.82596">
        <ele>242.0</ele>
      </trkpt>
      <trkpt lat="42.00528" lon="-8.8257">
        <ele>240.0</ele>
      </trkpt>
      <trkpt lat="42.00469" lon="-8.82398">
        <ele>234.0</ele>
      </trkpt>
      <trkpt lat="42.00454" lon="-8.82336">
        <ele>230.0</ele>
      </trkpt>
      <trkpt lat="42.00396" lon="-8.82306">
        <ele>226.0</ele>
      </trkpt>
      <trkpt lat="42.00353" lon="-8.82252">
        <ele>222.0</ele>
      </trkpt>
      <trkpt lat="42.00281" lon="-8.82276">
        <ele>216.0</ele>
      </trkpt>
      <trkpt lat="42.00181" lon="-8.82207">
        <ele>208.0</ele>
      </trkpt>
      <trkpt lat="42.00118" lon="-8.82141">
        <ele>202.0</ele>
      </trkpt>
      <trkpt lat="42.0004" lon="-8.8216">
        <ele>199.0</ele>
      </trkpt>
      <trkpt lat="41.9998" lon="-8.82151">
        <ele>193.0</ele>
      </trkpt>
      <trkpt lat="41.99903" lon="-8.82174">
        <ele>186.0</ele>
      </trkpt>
      <trkpt lat="41.99834" lon="-8.82072">
        <ele>179.0</ele>
      </trkpt>
      <trkpt lat="41.99751" lon="-8.8204">
        <ele>172.0</ele>
      </trkpt>
      <trkpt lat="41.9971" lon="-8.82015">
        <ele>167.0</ele>
      </trkpt>
      <trkpt lat="41.99608" lon="-8.81986">
        <ele>161.0</ele>
      </trkpt>
      <trkpt lat="41.99513" lon="-8.82004">
        <ele>156.0</ele>
      </trkpt>
      <trkpt lat="41.99448" lon="-8.81986">
        <ele>151.0</ele>
      </trkpt>
      <trkpt lat="41.99375" lon="-8.81907">
        <ele>146.0</ele>
      </trkpt>
      <trkpt lat="41.99378" lon="-8.81875">
        <ele>144.0</ele>
      </trkpt>
      <trkpt lat="41.99424" lon="-8.81854">
        <ele>142.0</ele>
      </trkpt>
      <trkpt lat="41.99495" lon="-8.81816">
        <ele>139.0</ele>
      </trkpt>
      <trkpt lat="41.9951" lon="-8.81793">
        <ele>137.0</ele>
      </trkpt>
      <trkpt lat="41.99489" lon="-8.8173">
        <ele>135.0</ele>
      </trkpt>
      <trkpt lat="41.99445" lon="-8.81629">
        <ele>128.0</ele>
      </trkpt>
      <trkpt lat="41.9951" lon="-8.81429">
        <ele>121.0</ele>
      </trkpt>
      <trkpt lat="41.99518" lon="-8.81384">
        <ele>118.0</ele>
      </trkpt>
      <trkpt lat="41.99507" lon="-8.81365">
        <ele>117.0</ele>
      </trkpt>
      <trkpt lat="41.99485" lon="-8.81361">
        <ele>116.0</ele>
      </trkpt>
      <trkpt lat="41.99434" lon="-8.81456">
        <ele>115.0</ele>
      </trkpt>
      <trkpt lat="41.99363" lon="-8.81531">
        <ele>113.0</ele>
      </trkpt>
      <trkpt lat="41.99263" lon="-8.81608">
        <ele>113.0</ele>
      </trkpt>
      <trkpt lat="41.99205" lon="-8.81661">
        <ele>113.0</ele>
      </trkpt>
      <trkpt lat="41.99092" lon="-8.81723">
        <ele>111.0</ele>
      </trkpt>
      <trkpt lat="41.99047" lon="-8.81794">
        <ele>109.0</ele>
      </trkpt>
      <trkpt lat="41.99008" lon="-8.81783">
        <ele>108.0</ele>
      </trkpt>
      <trkpt lat="41.98895" lon="-8.8183">
        <ele>104.0</ele>
      </trkpt>
      <trkpt lat="41.98848" lon="-8.81829">
        <ele>102.0</ele>
      </trkpt>
      <trkpt lat="41.98733" lon="-8.81738">
        <ele>97.0</ele>
      </trkpt>
      <trkpt lat="41.98667" lon="-8.81781">
        <ele>95.0</ele>
      </trkpt>
      <trkpt lat="41.98593" lon="-8.81819">
        <ele>92.0</ele>
      </trkpt>
      <trkpt lat="41.98545" lon="-8.81839">
        <ele>91.0</ele>
      </trkpt>
      <trkpt lat="41.98502" lon="-8.81937">
        <ele>91.0</ele>
      </trkpt>
      <trkpt lat="41.98435" lon="-8.81947">
        <ele>94.0</ele>
      </trkpt>
      <trkpt lat="41.98323" lon="-8.81921">
        <ele>100.0</ele>
      </trkpt>
      <trkpt lat="41.98293" lon="-8.81886">
        <ele>101.0</ele>
      </trkpt>
      <trkpt lat="41.98187" lon="-8.81808">
        <ele>103.0</ele>
      </trkpt>
      <trkpt lat="41.98046" lon="-8.81827">
        <ele>98.0</ele>
      </trkpt>
      <trkpt lat="41.9803" lon="-8.81866">
        <ele>95.0</ele>
      </trkpt>
      <trkpt lat="41.98021" lon="-8.81955">
        <ele>93.0</ele>
      </trkpt>
      <trkpt lat="41.97873" lon="-8.81994">
        <ele>91.0</ele>
      </trkpt>
      <trkpt lat="41.97818" lon="-8.81977">
        <ele>88.0</ele>
      </trkpt>
      <trkpt lat="41.97737" lon="-8.82006">
        <ele>85.0</ele>
      </trkpt>
      <trkpt lat="41.97689" lon="-8.81981">
        <ele>83.0</ele>
      </trkpt>
      <trkpt lat="41.97637" lon="-8.81976">
        <ele>80.0</ele>
      </trkpt>
      <trkpt lat="41.97572" lon="-8.81921">
        <ele>77.0</ele>
      </trkpt>
      <trkpt lat="41.97433" lon="-8.8189">
        <ele>73.0</ele>
      </trkpt>
      <trkpt lat="41.9708" lon="-8.82">
        <ele>68.0</ele>
      </trkpt>
      <trkpt lat="41.96913" lon="-8.82079">
        <ele>64.0</ele>
      </trkpt>
      <trkpt lat="41.96774" lon="-8.82185">
        <ele>61.0</ele>
      </trkpt>
      <trkpt lat="41.96684" lon="-8.8219">
        <ele>61.0</ele>
      </trkpt>
      <trkpt lat="41.96574" lon="-8.8215">
        <ele>62.0</ele>
      </trkpt>
      <trkpt lat="41.96523" lon="-8.82139">
        <ele>63.0</ele>
      </trkpt>
      <trkpt lat="41.96457" lon="-8.82114">
        <ele>63.0</ele>
      </trkpt>
      <trkpt lat="41.96399" lon="-8.82157">
        <ele>61.0</ele>
      </trkpt>
      <trkpt lat="41.96382" lon="-8.82239">
        <ele>59.0</ele>
      </trkpt>
      <trkpt lat="41.96318" lon="-8.82313">
        <ele>57.0</ele>
      </trkpt>
      <trkpt lat="41.96252" lon="-8.82394">
        <ele>55.0</ele>
      </trkpt>
      <trkpt lat="41.96146" lon="-8.82447">
        <ele>53.0</ele>
      </trkpt>
      <trkpt lat="41.96028" lon="-8.82443">
        <ele>50.0</ele>
      </trkpt>
      <trkpt lat="41.95891" lon="-8.82442">
        <ele>49.0</ele>
      </trkpt>
      <trkpt lat="41.95711" lon="-8.8246">
        <ele>43.0</ele>
      </trkpt>
      <trkpt lat="41.956" lon="-8.82515">
        <ele>38.0</ele>
      </trkpt>
      <trkpt lat="41.9552" lon="-8.8259">
        <ele>35.0</ele>
      </trkpt>
      <trkpt lat="41.95451" lon="-8.8266">
        <ele>33.0</ele>
      </trkpt>
      <trkpt lat="41.95284" lon="-8.82638">
        <ele>32.0</ele>
      </trkpt>
      <trkpt lat="41.95138" lon="-8.82638">
        <ele>30.0</ele>
      </trkpt>
      <trkpt lat="41.9507" lon="-8.82694">
        <ele>31.0</ele>
      </trkpt>
      <trkpt lat="41.94982" lon="-8.82729">
        <ele>32.0</ele>
      </trkpt>
      <trkpt lat="41.94874" lon="-8.82735">
        <ele>32.0</ele>
      </trkpt>
      <trkpt lat="41.9459" lon="-8.82792">
        <ele>27.0</ele>
      </trkpt>
      <trkpt lat="41.94485" lon="-8.82876">
        <ele>27.0</ele>
      </trkpt>
      <trkpt lat="41.94404" lon="-8.82996">
        <ele>29.0</ele>
      </trkpt>
      <trkpt lat="41.94222" lon="-8.83112">
        <ele>35.0</ele>
      </trkpt>
      <trkpt lat="41.94168" lon="-8.83202">
        <ele>32.0</ele>
      </trkpt>
      <trkpt lat="41.94087" lon="-8.83304">
        <ele>31.0</ele>
      </trkpt>
      <trkpt lat="41.93921" lon="-8.83358">
        <ele>35.0</ele>
      </trkpt>
      <trkpt lat="41.9388" lon="-8.83409">
        <ele>39.0</ele>
      </trkpt>
      <trkpt lat="41.93873" lon="-8.83533">
        <ele>41.0</ele>
      </trkpt>
      <trkpt lat="41.93859" lon="-8.83546">
        <ele>42.0</ele>
      </trkpt>
      <trkpt lat="41.93743" lon="-8.83617">
        <ele>43.0</ele>
      </trkpt>
      <trkpt lat="41.93707" lon="-8.83636">
        <ele>42.0</ele>
      </trkpt>
      <trkpt lat="41.93703" lon="-8.83592">
        <ele>42.0</ele>
      </trkpt>
      <trkpt lat="41.93682" lon="-8.83516">
        <ele>40.0</ele>
      </trkpt>
      <trkpt lat="41.93591" lon="-8.83499">
        <ele>35.0</ele>
      </trkpt>
      <trkpt lat="41.93485" lon="-8.83524">
        <ele>28.0</ele>
      </trkpt>
      <trkpt lat="41.93342" lon="-8.83591">
        <ele>20.0</ele>
      </trkpt>
      <trkpt lat="41.9321" lon="-8.83704">
        <ele>16.0</ele>
      </trkpt>
      <trkpt lat="41.93105" lon="-8.83706">
        <ele>17.0</ele>
      </trkpt>
      <trkpt lat="41.92999" lon="-8.83705">
        <ele>24.0</ele>
      </trkpt>
      <trkpt lat="41.92934" lon="-8.83671">
        <ele>28.0</ele>
      </trkpt>
      <trkpt lat="41.9282" lon="-8.83627">
        <ele>35.0</ele>
      </trkpt>
      <trkpt lat="41.92759" lon="-8.83769">
        <ele>40.0</ele>
      </trkpt>
      <trkpt lat="41.92744" lon="-8.83909">
        <ele>43.0</ele>
      </trkpt>
      <trkpt lat="41.92675" lon="-8.84025">
        <ele>42.0</ele>
      </trkpt>
      <trkpt lat="41.92532" lon="-8.84257">
        <ele>43.0</ele>
      </trkpt>
      <trkpt lat="41.92161" lon="-8.84315">
        <ele>40.0</ele>
      </trkpt>
      <trkpt lat="41.92012" lon="-8.84335">
        <ele>33.0</ele>
      </trkpt>
      <trkpt lat="41.91811" lon="-8.84431">
        <ele>27.0</ele>
      </trkpt>
      <trkpt lat="41.91702" lon="-8.84488">
        <ele>23.0</ele>
      </trkpt>
      <trkpt lat="41.91528" lon="-8.84657">
        <ele>19.0</ele>
      </trkpt>
      <trkpt lat="41.91407" lon="-8.84765">
        <ele>14.0</ele>
      </trkpt>
      <trkpt lat="41.91307" lon="-8.84837">
        <ele>11.0</ele>
      </trkpt>
      <trkpt lat="41.91173" lon="-8.85169">
        <ele>12.0</ele>
      </trkpt>
      <trkpt lat="41.91176" lon="-8.85221">
        <ele>13.0</ele>
      </trkpt>
      <trkpt lat="41.91147" lon="-8.8524">
        <ele>13.0</ele>
      </trkpt>
      <trkpt lat="41.9102" lon="-8.85532">
        <ele>17.0</ele>
      </trkpt>
      <trkpt lat="41.90904" lon="-8.85872">
        <ele>21.0</ele>
      </trkpt>
      <trkpt lat="41.90718" lon="-8.86119">
        <ele>32.0</ele>
      </trkpt>
      <trkpt lat="41.90607" lon="-8.86285">
        <ele>40.0</ele>
      </trkpt>
      <trkpt lat="41.90448" lon="-8.86557">
        <ele>44.0</ele>
      </trkpt>
      <trkpt lat="41.90394" lon="-8.86525">
        <ele>45.0</ele>
      </trkpt>
      <trkpt lat="41.90311" lon="-8.86487">
        <ele>49.0</ele>
      </trkpt>
      <trkpt lat="41.90257" lon="-8.86504">
        <ele>54.0</ele>
      </trkpt>
      <trkpt lat="41.90238" lon="-8.86586">
        <ele>58.0</ele>
      </trkpt>
      <trkpt lat="41.90164" lon="-8.86628">
        <ele>66.0</ele>
      </trkpt>
      <trkpt lat="41.90104" lon="-8.86563">
        <ele>75.0</ele>
      </trkpt>
      <trkpt lat="41.90071" lon="-8.86568">
        <ele>80.0</ele>
      </trkpt>
      <trkpt lat="41.90006" lon="-8.86667">
        <ele>86.0</ele>
      </trkpt>
      <trkpt lat="41.8994" lon="-8.86838">
        <ele>96.0</ele>
      </trkpt>
      <trkpt lat="41.89896" lon="-8.86901">
        <ele>105.0</ele>
      </trkpt>
      <trkpt lat="41.89915" lon="-8.868">
        <ele>111.0</ele>
      </trkpt>
      <trkpt lat="41.8983" lon="-8.86611">
        <ele>125.0</ele>
      </trkpt>
      <trkpt lat="41.89644" lon="-8.86592">
        <ele>144.0</ele>
      </trkpt>
      <trkpt lat="41.89666" lon="-8.86733">
        <ele>157.0</ele>
      </trkpt>
      <trkpt lat="41.89643" lon="-8.86789">
        <ele>166.0</ele>
      </trkpt>
      <trkpt lat="41.89503" lon="-8.86778">
        <ele>177.0</ele>
      </trkpt>
      <trkpt lat="41.89346" lon="-8.8673">
        <ele>189.0</ele>
      </trkpt>
      <trkpt lat="41.89328" lon="-8.86736">
        <ele>194.0</ele>
      </trkpt>
      <trkpt lat="41.89367" lon="-8.86777">
        <ele>197.0</ele>
      </trkpt>
      <trkpt lat="41.89446" lon="-8.86912">
        <ele>206.0</ele>
      </trkpt>
      <trkpt lat="41.89443" lon="-8.86931">
        <ele>209.0</ele>
      </trkpt>
      <trkpt lat="41.89414" lon="-8.86891">
        <ele>212.0</ele>
      </trkpt>
      <trkpt lat="41.89281" lon="-8.8682">
        <ele>222.0</ele>
      </trkpt>
      <trkpt lat="41.89196" lon="-8.86838">
        <ele>230.0</ele>
      </trkpt>
      <trkpt lat="41.89183" lon="-8.86861">
        <ele>233.0</ele>
      </trkpt>
      <trkpt lat="41.89201" lon="-8.86866">
        <ele>235.0</ele>
      </trkpt>
      <trkpt lat="41.89254" lon="-8.86856">
        <ele>238.0</ele>
      </trkpt>
      <trkpt lat="41.8932" lon="-8.86908">
        <ele>242.0</ele>
      </trkpt>
      <trkpt lat="41.89331" lon="-8.86946">
        <ele>246.0</ele>
      </trkpt>
      <trkpt lat="41.89318" lon="-8.86954">
        <ele>248.0</ele>
      </trkpt>
      <trkpt lat="41.89296" lon="-8.86917">
        <ele>251.0</ele>
      </trkpt>
      <trkpt lat="41.89269" lon="-8.86905">
        <ele>254.0</ele>
      </trkpt>
      <trkpt lat="41.89252" lon="-8.86923">
        <ele>256.0</ele>
      </trkpt>
      <trkpt lat="41.89207" lon="-8.87039">
        <ele>263.0</ele>
      </trkpt>
      <trkpt lat="41.89167" lon="-8.87105">
        <ele>270.0</ele>
      </trkpt>
      <trkpt lat="41.89141" lon="-8.87137">
        <ele>275.0</ele>
      </trkpt>
      <trkpt lat="41.89137" lon="-8.87117">
        <ele>277.0</ele>
      </trkpt>
      <trkpt lat="41.89169" lon="-8.87064">
        <ele>281.0</ele>
      </trkpt>
      <trkpt lat="41.89171" lon="-8.87042">
        <ele>284.0</ele>
      </trkpt>
      <trkpt lat="41.89042" lon="-8.87038">
        <ele>295.0</ele>
      </trkpt>
      <trkpt lat="41.88992" lon="-8.87101">
        <ele>302.0</ele>
      </trkpt>
      <trkpt lat="41.88965" lon="-8.87125">
        <ele>306.0</ele>
      </trkpt>
      <trkpt lat="41.8881" lon="-8.87181">
        <ele>313.0</ele>
      </trkpt>
      <trkpt lat="41.88755" lon="-8.87156">
        <ele>317.0</ele>
      </trkpt>
      <trkpt lat="41.88809" lon="-8.87111">
        <ele>319.0</ele>
      </trkpt>
    </trkseg>
  </trk>
</gpx>