<?xml version="1.0" encoding="UTF-8"?>
<gpx xmlns="http://www.topografix.com/GPX/1/0" xmlns:xsi="http://www.w3.org/2001/XMLSchema-instance" xsi:schemaLocation="http://www.topografix.com/GPX/1/0 http://www.topografix.com/GPX/1/0/gpx.xsd" version="1.0" creator="GPSBabel - https://www.gpsbabel.org">
  <time>2026-04-08T07:07:38.589000Z</time>
  <bounds minlat="43.36793" maxlat="43.38612" minlon="-8.44513" maxlon="-8.40138" />
  <trk>
    <trkseg>
      <trkpt lat="43.38403" lon="-8.40198">
        <ele>18.0</ele>
      </trkpt>
      <trkpt lat="43.3833" lon="-8.40146">
        <ele>17.0</ele>
      </trkpt>
      <trkpt lat="43.38284" lon="-8.40139">
        <ele>17.0</ele>
      </trkpt>
      <trkpt lat="43.38268" lon="-8.40165">
        <ele>17.0</ele>
      </trkpt>
      <trkpt lat="43.38308" lon="-8.40296">
        <ele>17.0</ele>
      </trkpt>
      <trkpt lat="43.3828" lon="-8.40641">
        <ele>16.0</ele>
      </trkpt>
      <trkpt lat="43.3834" lon="-8.4083">
        <ele>14.0</ele>
      </trkpt>
      <trkpt lat="43.38332" lon="-8.40899">
        <ele>15.0</ele>
      </trkpt>
      <trkpt lat="43.38307" lon="-8.4093">
        <ele>17.0</ele>
      </trkpt>
      <trkpt lat="43.38229" lon="-8.40935">
        <ele>20.0</ele>
      </trkpt>
      <trkpt lat="43.38152" lon="-8.40977">
        <ele>16.0</ele>
      </trkpt>
      <trkpt lat="43.38077" lon="-8.40977">
        <ele>12.0</ele>
      </trkpt>
      <trkpt lat="43.38028" lon="-8.40956">
        <ele>10.0</ele>
      </trkpt>
      <trkpt lat="43.37985" lon="-8.4091">
        <ele>12.0</ele>
      </trkpt>
      <trkpt lat="43.37917" lon="-8.40768">
        <ele>18.0</ele>
      </trkpt>
      <trkpt lat="43.37815" lon="-8.40749">
        <ele>15.0</ele>
      </trkpt>
      <trkpt lat="43.37685" lon="-8.40653">
        <ele>12.0</ele>
      </trkpt>
      <trkpt lat="43.3766" lon="-8.40603">
        <ele>13.0</ele>
      </trkpt>
      <trkpt lat="43.37585" lon="-8.40334">
        <ele>15.0</ele>
      </trkpt>
      <trkpt lat="43.37558" lon="-8.40316">
        <ele>14.0</ele>
      </trkpt>
      <trkpt lat="43.37508" lon="-8.40312">
        <ele>12.0</ele>
      </trkpt>
      <trkpt lat="43.37487" lon="-8.40286">
        <ele>12.0</ele>
      </trkpt>
      <trkpt lat="43.37456" lon="-8.40292">
        <ele>12.0</ele>
      </trkpt>
      <trkpt lat="43.37388" lon="-8.40273">
        <ele>12.0</ele>
      </trkpt>
      <trkpt lat="43.37273" lon="-8.40278">
        <ele>19.0</ele>
      </trkpt>
      <trkpt lat="43.37256" lon="-8.40312">
        <ele>22.0</ele>
      </trkpt>
      <trkpt lat="43.37093" lon="-8.40449">
        <ele>23.0</ele>
      </trkpt>
      <trkpt lat="43.37064" lon="-8.40447">
        <ele>20.0</ele>
      </trkpt>
      <trkpt lat="43.36965" lon="-8.40603">
        <ele>14.0</ele>
      </trkpt>
      <trkpt lat="43.36876" lon="-8.40805">
        <ele>13.0</ele>
      </trkpt>
      <trkpt lat="43.36822" lon="-8.41037">
        <ele>15.0</ele>
      </trkpt>
      <trkpt lat="43.36793" lon="-8.41076">
        <ele>17.0</ele>
      </trkpt>
      <trkpt lat="43.36815" lon="-8.41335">
        <ele>16.0</ele>
      </trkpt>
      <trkpt lat="43.36838" lon="-8.41388">
        <ele>14.0</ele>
      </trkpt>
      <trkpt lat="43.36946" lon="-8.4152">
        <ele>13.0</ele>
      </trkpt>
      <trkpt lat="43.36967" lon="-8.41576">
        <ele>16.0</ele>
      </trkpt>
      <trkpt lat="43.36995" lon="-8.4158">
        <ele>17.0</ele>
      </trkpt>
      <trkpt lat="43.3701" lon="-8.416">
        <ele>18.0</ele>
      </trkpt>
      <trkpt lat="43.37086" lon="-8.41802">
        <ele>14.0</ele>
      </trkpt>
      <trkpt lat="43.37125" lon="-8.4187">
        <ele>12.0</ele>
      </trkpt>
      <trkpt lat="43.37194" lon="-8.41915">
        <ele>11.0</ele>
      </trkpt>
      <trkpt lat="43.37298" lon="-8.41928">
        <ele>11.0</ele>
      </trkpt>
      <trkpt lat="43.37342" lon="-8.41982">
        <ele>15.0</ele>
      </trkpt>
      <trkpt lat="43.3739" lon="-8.42256">
        <ele>26.0</ele>
      </trkpt>
      <trkpt lat="43.37441" lon="-8.42434">
        <ele>45.0</ele>
      </trkpt>
      <trkpt lat="43.37401" lon="-8.42458">
        <ele>46.0</ele>
      </trkpt>
      <trkpt lat="43.37404" lon="-8.42477">
        <ele>47.0</ele>
      </trkpt>
      <trkpt lat="43.37501" lon="-8.42747">
        <ele>59.0</ele>
      </trkpt>
      <trkpt lat="43.37526" lon="-8.42879">
        <ele>68.0</ele>
      </trkpt>
      <trkpt lat="43.37468" lon="-8.43177">
        <ele>78.0</ele>
      </trkpt>
      <trkpt lat="43.37532" lon="-8.43241">
        <ele>85.0</ele>
      </trkpt>
      <trkpt lat="43.37557" lon="-8.43365">
        <ele>91.0</ele>
      </trkpt>
      <trkpt lat="43.37548" lon="-8.43478">
        <ele>97.0</ele>
      </trkpt>
      <trkpt lat="43.37512" lon="-8.43573">
        <ele>101.0</ele>
      </trkpt>
      <trkpt lat="43.37436" lon="-8.43657">
        <ele>102.0</ele>
      </trkpt>
      <trkpt lat="43.37365" lon="-8.43664">
        <ele>102.0</ele>
      </trkpt>
      <trkpt lat="43.37351" lon="-8.43729">
        <ele>101.0</ele>
      </trkpt>
      <trkpt lat="43.37284" lon="-8.43681">
        <ele>99.0</ele>
      </trkpt>
      <trkpt lat="43.37185" lon="-8.4352">
        <ele>88.0</ele>
      </trkpt>
      <trkpt lat="43.37011" lon="-8.43472">
        <ele>77.0</ele>
      </trkpt>
      <trkpt lat="43.3699" lon="-8.43478">
        <ele>76.0</ele>
      </trkpt>
      <trkpt lat="43.37011" lon="-8.43648">
        <ele>73.0</ele>
      </trkpt>
      <trkpt lat="43.37071" lon="-8.43858">
        <ele>71.0</ele>
      </trkpt>
      <trkpt lat="43.3707" lon="-8.43992">
        <ele>69.0</ele>
      </trkpt>
      <trkpt lat="43.37039" lon="-8.44201">
        <ele>63.0</ele>
      </trkpt>
      <trkpt lat="43.37058" lon="-8.44326">
        <ele>55.0</ele>
      </trkpt>
      <trkpt lat="43.37125" lon="-8.44349">
        <ele>49.0</ele>
      </trkpt>
      <trkpt lat="43.37256" lon="-8.44429">
        <ele>40.0</ele>
      </trkpt>
      <trkpt lat="43.37558" lon="-8.4451">
        <ele>31.0</ele>
      </trkpt>
      <trkpt lat="43.37656" lon="-8.44506">
        <ele>31.0</ele>
      </trkpt>
      <trkpt lat="43.37759" lon="-8.44459">
        <ele>30.0</ele>
      </trkpt>
      <trkpt lat="43.3783" lon="-8.44391">
        <ele>29.0</ele>
      </trkpt>
      <trkpt lat="43.37877" lon="-8.44323">
        <ele>28.0</ele>
      </trkpt>
      <trkpt lat="43.38024" lon="-8.43997">
        <ele>18.0</ele>
      </trkpt>
      <trkpt lat="43.38052" lon="-8.43904">
        <ele>18.0</ele>
      </trkpt>
      <trkpt lat="43.38078" lon="-8.43691">
        <ele>22.0</ele>
      </trkpt>
      <trkpt lat="43.38047" lon="-8.43566">
        <ele>26.0</ele>
      </trkpt>
      <trkpt lat="43.37925" lon="-8.43409">
        <ele>34.0</ele>
      </trkpt>
      <trkpt lat="43.37734" lon="-8.43018">
        <ele>42.0</ele>
      </trkpt>
      <trkpt lat="43.37639" lon="-8.42617">
        <ele>30.0</ele>
      </trkpt>
      <trkpt lat="43.37679" lon="-8.42375">
        <ele>19.0</ele>
      </trkpt>
      <trkpt lat="43.3767" lon="-8.42267">
        <ele>14.0</ele>
      </trkpt>
      <trkpt lat="43.37645" lon="-8.42186">
        <ele>10.0</ele>
      </trkpt>
      <trkpt lat="43.37573" lon="-8.42098">
        <ele>10.0</ele>
      </trkpt>
      <trkpt lat="43.37476" lon="-8.4203">
        <ele>10.0</ele>
      </trkpt>
      <trkpt lat="43.37362" lon="-8.41985">
        <ele>11.0</ele>
      </trkpt>
      <trkpt lat="43.37303" lon="-8.41923">
        <ele>13.0</ele>
      </trkpt>
      <trkpt lat="43.37206" lon="-8.41911">
        <ele>18.0</ele>
      </trkpt>
      <trkpt lat="43.37134" lon="-8.4187">
        <ele>21.0</ele>
      </trkpt>
      <trkpt lat="43.37089" lon="-8.41796">
        <ele>23.0</ele>
      </trkpt>
      <trkpt lat="43.3701" lon="-8.41586">
        <ele>21.0</ele>
      </trkpt>
      <trkpt lat="43.36872" lon="-8.41432">
        <ele>13.0</ele>
      </trkpt>
      <trkpt lat="43.36823" lon="-8.41359">
        <ele>14.0</ele>
      </trkpt>
      <trkpt lat="43.36807" lon="-8.41292">
        <ele>16.0</ele>
      </trkpt>
      <trkpt lat="43.36803" lon="-8.41157">
        <ele>17.0</ele>
      </trkpt>
      <trkpt lat="43.3684" lon="-8.40936">
        <ele>15.0</ele>
      </trkpt>
      <trkpt lat="43.36899" lon="-8.40745">
        <ele>13.0</ele>
      </trkpt>
      <trkpt lat="43.36965" lon="-8.40603">
        <ele>13.0</ele>
      </trkpt>
      <trkpt lat="43.37014" lon="-8.40529">
        <ele>14.0</ele>
      </trkpt>
      <trkpt lat="43.37256" lon="-8.40312">
        <ele>25.0</ele>
      </trkpt>
      <trkpt lat="43.37354" lon="-8.40274">
        <ele>16.0</ele>
      </trkpt>
      <trkpt lat="43.37407" lon="-8.40276">
        <ele>13.0</ele>
      </trkpt>
      <trkpt lat="43.37509" lon="-8.40324">
        <ele>11.0</ele>
      </trkpt>
      <trkpt lat="43.37574" lon="-8.40334">
        <ele>12.0</ele>
      </trkpt>
      <trkpt lat="43.37596" lon="-8.40376">
        <ele>14.0</ele>
      </trkpt>
      <trkpt lat="43.37656" lon="-8.40614">
        <ele>14.0</ele>
      </trkpt>
      <trkpt lat="43.3769" lon="-8.40672">
        <ele>12.0</ele>
      </trkpt>
      <trkpt lat="43.37814" lon="-8.40757">
        <ele>12.0</ele>
      </trkpt>
      <trkpt lat="43.37913" lon="-8.40775">
        <ele>16.0</ele>
      </trkpt>
      <trkpt lat="43.37992" lon="-8.40934">
        <ele>11.0</ele>
      </trkpt>
      <trkpt lat="43.38076" lon="-8.40986">
        <ele>10.0</ele>
      </trkpt>
      <trkpt lat="43.38271" lon="-8.4098">
        <ele>14.0</ele>
      </trkpt>
      <trkpt lat="43.38318" lon="-8.40945">
        <ele>14.0</ele>
      </trkpt>
      <trkpt lat="43.38338" lon="-8.40906">
        <ele>13.0</ele>
      </trkpt>
      <trkpt lat="43.38346" lon="-8.40812">
        <ele>13.0</ele>
      </trkpt>
      <trkpt lat="43.38287" lon="-8.40625">
        <ele>14.0</ele>
      </trkpt>
      <trkpt lat="43.38303" lon="-8.40429">
        <ele>15.0</ele>
      </trkpt>
      <trkpt lat="43.3831" lon="-8.40433">
        <ele>15.0</ele>
      </trkpt>
      <trkpt lat="43.38317" lon="-8.40375">
        <ele>15.0</ele>
      </trkpt>
      <trkpt lat="43.38384" lon="-8.4035">
        <ele>15.0</ele>
      </trkpt>
      <trkpt lat="43.38442" lon="-8.40406">
        <ele>15.0</ele>
      </trkpt>
      <trkpt lat="43.38465" lon="-8.40406">
        <ele>15.0</ele>
      </trkpt>
      <trkpt lat="43.38488" lon="-8.40357">
        <ele>16.0</ele>
      </trkpt>
      <trkpt lat="43.38491" lon="-8.40269">
        <ele>17.0</ele>
      </trkpt>
      <trkpt lat="43.38612" lon="-8.40587">
        <ele>31.0</ele>
      </trkpt>
    </trkseg>
  </trk>
</gpx>