<?xml version="1.0" encoding="UTF-8"?>
<gpx xmlns="http://www.topografix.com/GPX/1/0" xmlns:xsi="http://www.w3.org/2001/XMLSchema-instance" xsi:schemaLocation="http://www.topografix.com/GPX/1/0 http://www.topografix.com/GPX/1/0/gpx.xsd" version="1.0" creator="GPSBabel - https://www.gpsbabel.org">
  <time>2026-04-08T07:07:44.250000Z</time>
  <bounds minlat="42.56014" maxlat="43.19931" minlon="-9.03257" maxlon="-8.652" />
  <trk>
    <trkseg>
      <trkpt lat="43.19931" lon="-8.71891">
        <ele>99.0</ele>
      </trkpt>
      <trkpt lat="43.19908" lon="-8.72132">
        <ele>98.0</ele>
      </trkpt>
      <trkpt lat="43.19762" lon="-8.72399">
        <ele>98.0</ele>
      </trkpt>
      <trkpt lat="43.19705" lon="-8.7248">
        <ele>99.0</ele>
      </trkpt>
      <trkpt lat="43.19517" lon="-8.72666">
        <ele>106.0</ele>
      </trkpt>
      <trkpt lat="43.19378" lon="-8.72765">
        <ele>113.0</ele>
      </trkpt>
      <trkpt lat="43.1904" lon="-8.73151">
        <ele>129.0</ele>
      </trkpt>
      <trkpt lat="43.18944" lon="-8.733">
        <ele>136.0</ele>
      </trkpt>
      <trkpt lat="43.1882" lon="-8.73506">
        <ele>138.0</ele>
      </trkpt>
      <trkpt lat="43.18752" lon="-8.73644">
        <ele>138.0</ele>
      </trkpt>
      <trkpt lat="43.18745" lon="-8.73678">
        <ele>138.0</ele>
      </trkpt>
      <trkpt lat="43.1873" lon="-8.73695">
        <ele>139.0</ele>
      </trkpt>
      <trkpt lat="43.18652" lon="-8.73855">
        <ele>139.0</ele>
      </trkpt>
      <trkpt lat="43.18501" lon="-8.74174">
        <ele>141.0</ele>
      </trkpt>
      <trkpt lat="43.18491" lon="-8.74207">
        <ele>141.0</ele>
      </trkpt>
      <trkpt lat="43.18473" lon="-8.74217">
        <ele>141.0</ele>
      </trkpt>
      <trkpt lat="43.18457" lon="-8.74203">
        <ele>141.0</ele>
      </trkpt>
      <trkpt lat="43.18386" lon="-8.74293">
        <ele>141.0</ele>
      </trkpt>
      <trkpt lat="43.18227" lon="-8.74534">
        <ele>146.0</ele>
      </trkpt>
      <trkpt lat="43.18206" lon="-8.74577">
        <ele>149.0</ele>
      </trkpt>
      <trkpt lat="43.18155" lon="-8.7477">
        <ele>153.0</ele>
      </trkpt>
      <trkpt lat="43.18133" lon="-8.74812">
        <ele>156.0</ele>
      </trkpt>
      <trkpt lat="43.18039" lon="-8.74919">
        <ele>159.0</ele>
      </trkpt>
      <trkpt lat="43.1799" lon="-8.74959">
        <ele>164.0</ele>
      </trkpt>
      <trkpt lat="43.17675" lon="-8.75146">
        <ele>179.0</ele>
      </trkpt>
      <trkpt lat="43.17564" lon="-8.75313">
        <ele>192.0</ele>
      </trkpt>
      <trkpt lat="43.17495" lon="-8.75351">
        <ele>197.0</ele>
      </trkpt>
      <trkpt lat="43.17014" lon="-8.75272">
        <ele>218.0</ele>
      </trkpt>
      <trkpt lat="43.16797" lon="-8.75158">
        <ele>240.0</ele>
      </trkpt>
      <trkpt lat="43.16594" lon="-8.75095">
        <ele>252.0</ele>
      </trkpt>
      <trkpt lat="43.16512" lon="-8.74971">
        <ele>264.0</ele>
      </trkpt>
      <trkpt lat="43.16466" lon="-8.74941">
        <ele>269.0</ele>
      </trkpt>
      <trkpt lat="43.15673" lon="-8.75286">
        <ele>289.0</ele>
      </trkpt>
      <trkpt lat="43.15528" lon="-8.75275">
        <ele>296.0</ele>
      </trkpt>
      <trkpt lat="43.15277" lon="-8.75221">
        <ele>300.0</ele>
      </trkpt>
      <trkpt lat="43.15096" lon="-8.75136">
        <ele>300.0</ele>
      </trkpt>
      <trkpt lat="43.15023" lon="-8.75102">
        <ele>303.0</ele>
      </trkpt>
      <trkpt lat="43.14955" lon="-8.75043">
        <ele>307.0</ele>
      </trkpt>
      <trkpt lat="43.14848" lon="-8.75002">
        <ele>313.0</ele>
      </trkpt>
      <trkpt lat="43.14522" lon="-8.75102">
        <ele>328.0</ele>
      </trkpt>
      <trkpt lat="43.1431" lon="-8.75087">
        <ele>342.0</ele>
      </trkpt>
      <trkpt lat="43.14134" lon="-8.7501">
        <ele>354.0</ele>
      </trkpt>
      <trkpt lat="43.14033" lon="-8.74971">
        <ele>366.0</ele>
      </trkpt>
      <trkpt lat="43.13961" lon="-8.75038">
        <ele>374.0</ele>
      </trkpt>
      <trkpt lat="43.13917" lon="-8.75044">
        <ele>376.0</ele>
      </trkpt>
      <trkpt lat="43.1388" lon="-8.74953">
        <ele>378.0</ele>
      </trkpt>
      <trkpt lat="43.13879" lon="-8.74835">
        <ele>381.0</ele>
      </trkpt>
      <trkpt lat="43.13842" lon="-8.74789">
        <ele>383.0</ele>
      </trkpt>
      <trkpt lat="43.13753" lon="-8.7479">
        <ele>385.0</ele>
      </trkpt>
      <trkpt lat="43.13448" lon="-8.74807">
        <ele>394.0</ele>
      </trkpt>
      <trkpt lat="43.1293" lon="-8.75039">
        <ele>406.0</ele>
      </trkpt>
      <trkpt lat="43.12817" lon="-8.75022">
        <ele>408.0</ele>
      </trkpt>
      <trkpt lat="43.12723" lon="-8.75048">
        <ele>409.0</ele>
      </trkpt>
      <trkpt lat="43.11944" lon="-8.75379">
        <ele>394.0</ele>
      </trkpt>
      <trkpt lat="43.11762" lon="-8.75542">
        <ele>395.0</ele>
      </trkpt>
      <trkpt lat="43.11734" lon="-8.75603">
        <ele>398.0</ele>
      </trkpt>
      <trkpt lat="43.11638" lon="-8.75654">
        <ele>400.0</ele>
      </trkpt>
      <trkpt lat="43.1159" lon="-8.75686">
        <ele>399.0</ele>
      </trkpt>
      <trkpt lat="43.11521" lon="-8.75692">
        <ele>398.0</ele>
      </trkpt>
      <trkpt lat="43.11472" lon="-8.75715">
        <ele>397.0</ele>
      </trkpt>
      <trkpt lat="43.10122" lon="-8.76822">
        <ele>380.0</ele>
      </trkpt>
      <trkpt lat="43.09059" lon="-8.77693">
        <ele>349.0</ele>
      </trkpt>
      <trkpt lat="43.08981" lon="-8.77747">
        <ele>337.0</ele>
      </trkpt>
      <trkpt lat="43.08864" lon="-8.77741">
        <ele>336.0</ele>
      </trkpt>
      <trkpt lat="43.08405" lon="-8.77779">
        <ele>335.0</ele>
      </trkpt>
      <trkpt lat="43.08065" lon="-8.78021">
        <ele>345.0</ele>
      </trkpt>
      <trkpt lat="43.08043" lon="-8.7813">
        <ele>357.0</ele>
      </trkpt>
      <trkpt lat="43.08148" lon="-8.78227">
        <ele>365.0</ele>
      </trkpt>
      <trkpt lat="43.08136" lon="-8.78347">
        <ele>371.0</ele>
      </trkpt>
      <trkpt lat="43.07798" lon="-8.78327">
        <ele>385.0</ele>
      </trkpt>
      <trkpt lat="43.0732" lon="-8.78376">
        <ele>403.0</ele>
      </trkpt>
      <trkpt lat="43.07143" lon="-8.78381">
        <ele>412.0</ele>
      </trkpt>
      <trkpt lat="43.06881" lon="-8.78478">
        <ele>410.0</ele>
      </trkpt>
      <trkpt lat="43.06745" lon="-8.78526">
        <ele>403.0</ele>
      </trkpt>
      <trkpt lat="43.06598" lon="-8.788">
        <ele>391.0</ele>
      </trkpt>
      <trkpt lat="43.06528" lon="-8.7897">
        <ele>381.0</ele>
      </trkpt>
      <trkpt lat="43.06467" lon="-8.79083">
        <ele>371.0</ele>
      </trkpt>
      <trkpt lat="43.06352" lon="-8.79173">
        <ele>365.0</ele>
      </trkpt>
      <trkpt lat="43.06115" lon="-8.79525">
        <ele>360.0</ele>
      </trkpt>
      <trkpt lat="43.05967" lon="-8.79662">
        <ele>366.0</ele>
      </trkpt>
      <trkpt lat="43.05784" lon="-8.79642">
        <ele>367.0</ele>
      </trkpt>
      <trkpt lat="43.05542" lon="-8.7957">
        <ele>361.0</ele>
      </trkpt>
      <trkpt lat="43.05501" lon="-8.79677">
        <ele>359.0</ele>
      </trkpt>
      <trkpt lat="43.05493" lon="-8.79923">
        <ele>362.0</ele>
      </trkpt>
      <trkpt lat="43.05599" lon="-8.80107">
        <ele>375.0</ele>
      </trkpt>
      <trkpt lat="43.0532" lon="-8.80227">
        <ele>385.0</ele>
      </trkpt>
      <trkpt lat="43.04834" lon="-8.80605">
        <ele>378.0</ele>
      </trkpt>
      <trkpt lat="43.04331" lon="-8.80976">
        <ele>369.0</ele>
      </trkpt>
      <trkpt lat="43.04178" lon="-8.81133">
        <ele>356.0</ele>
      </trkpt>
      <trkpt lat="43.0411" lon="-8.81181">
        <ele>353.0</ele>
      </trkpt>
      <trkpt lat="43.04014" lon="-8.81298">
        <ele>353.0</ele>
      </trkpt>
      <trkpt lat="43.03832" lon="-8.81472">
        <ele>351.0</ele>
      </trkpt>
      <trkpt lat="43.03668" lon="-8.81614">
        <ele>352.0</ele>
      </trkpt>
      <trkpt lat="43.03579" lon="-8.81648">
        <ele>355.0</ele>
      </trkpt>
      <trkpt lat="43.03538" lon="-8.81469">
        <ele>357.0</ele>
      </trkpt>
      <trkpt lat="43.0349" lon="-8.81246">
        <ele>370.0</ele>
      </trkpt>
      <trkpt lat="43.03419" lon="-8.8114">
        <ele>378.0</ele>
      </trkpt>
      <trkpt lat="43.03404" lon="-8.81013">
        <ele>382.0</ele>
      </trkpt>
      <trkpt lat="43.03386" lon="-8.80801">
        <ele>384.0</ele>
      </trkpt>
      <trkpt lat="43.03359" lon="-8.8052">
        <ele>384.0</ele>
      </trkpt>
      <trkpt lat="43.03339" lon="-8.80518">
        <ele>384.0</ele>
      </trkpt>
      <trkpt lat="43.03283" lon="-8.80657">
        <ele>383.0</ele>
      </trkpt>
      <trkpt lat="43.03251" lon="-8.80744">
        <ele>381.0</ele>
      </trkpt>
      <trkpt lat="43.03222" lon="-8.80813">
        <ele>379.0</ele>
      </trkpt>
      <trkpt lat="43.0319" lon="-8.80881">
        <ele>377.0</ele>
      </trkpt>
      <trkpt lat="43.03183" lon="-8.80895">
        <ele>376.0</ele>
      </trkpt>
      <trkpt lat="43.03128" lon="-8.81005">
        <ele>373.0</ele>
      </trkpt>
      <trkpt lat="43.03082" lon="-8.81097">
        <ele>369.0</ele>
      </trkpt>
      <trkpt lat="43.02864" lon="-8.81532">
        <ele>356.0</ele>
      </trkpt>
      <trkpt lat="43.02753" lon="-8.81762">
        <ele>349.0</ele>
      </trkpt>
      <trkpt lat="43.02696" lon="-8.81871">
        <ele>348.0</ele>
      </trkpt>
      <trkpt lat="43.02396" lon="-8.82481">
        <ele>350.0</ele>
      </trkpt>
      <trkpt lat="43.02113" lon="-8.83058">
        <ele>353.0</ele>
      </trkpt>
      <trkpt lat="43.02033" lon="-8.83257">
        <ele>347.0</ele>
      </trkpt>
      <trkpt lat="43.0196" lon="-8.83361">
        <ele>342.0</ele>
      </trkpt>
      <trkpt lat="43.01792" lon="-8.83569">
        <ele>341.0</ele>
      </trkpt>
      <trkpt lat="43.01557" lon="-8.83852">
        <ele>340.0</ele>
      </trkpt>
      <trkpt lat="43.0065" lon="-8.8502">
        <ele>329.0</ele>
      </trkpt>
      <trkpt lat="42.99908" lon="-8.85993">
        <ele>325.0</ele>
      </trkpt>
      <trkpt lat="42.99777" lon="-8.86173">
        <ele>314.0</ele>
      </trkpt>
      <trkpt lat="42.99697" lon="-8.86275">
        <ele>311.0</ele>
      </trkpt>
      <trkpt lat="42.99477" lon="-8.86558">
        <ele>314.0</ele>
      </trkpt>
      <trkpt lat="42.98989" lon="-8.87198">
        <ele>331.0</ele>
      </trkpt>
      <trkpt lat="42.98889" lon="-8.87327">
        <ele>334.0</ele>
      </trkpt>
      <trkpt lat="42.98873" lon="-8.8737">
        <ele>334.0</ele>
      </trkpt>
      <trkpt lat="42.98751" lon="-8.87518">
        <ele>335.0</ele>
      </trkpt>
      <trkpt lat="42.98628" lon="-8.87708">
        <ele>337.0</ele>
      </trkpt>
      <trkpt lat="42.97722" lon="-8.89122">
        <ele>317.0</ele>
      </trkpt>
      <trkpt lat="42.96948" lon="-8.90332">
        <ele>314.0</ele>
      </trkpt>
      <trkpt lat="42.96652" lon="-8.90792">
        <ele>313.0</ele>
      </trkpt>
      <trkpt lat="42.96324" lon="-8.91374">
        <ele>320.0</ele>
      </trkpt>
      <trkpt lat="42.96214" lon="-8.91602">
        <ele>324.0</ele>
      </trkpt>
      <trkpt lat="42.96039" lon="-8.91962">
        <ele>332.0</ele>
      </trkpt>
      <trkpt lat="42.95713" lon="-8.92623">
        <ele>330.0</ele>
      </trkpt>
      <trkpt lat="42.95536" lon="-8.92958">
        <ele>328.0</ele>
      </trkpt>
      <trkpt lat="42.95444" lon="-8.93056">
        <ele>328.0</ele>
      </trkpt>
      <trkpt lat="42.95023" lon="-8.93457">
        <ele>337.0</ele>
      </trkpt>
      <trkpt lat="42.94952" lon="-8.93493">
        <ele>341.0</ele>
      </trkpt>
      <trkpt lat="42.94691" lon="-8.93486">
        <ele>352.0</ele>
      </trkpt>
      <trkpt lat="42.9441" lon="-8.93518">
        <ele>369.0</ele>
      </trkpt>
      <trkpt lat="42.94201" lon="-8.93666">
        <ele>380.0</ele>
      </trkpt>
      <trkpt lat="42.94063" lon="-8.93868">
        <ele>387.0</ele>
      </trkpt>
      <trkpt lat="42.93975" lon="-8.94129">
        <ele>392.0</ele>
      </trkpt>
      <trkpt lat="42.93879" lon="-8.94619">
        <ele>401.0</ele>
      </trkpt>
      <trkpt lat="42.93795" lon="-8.94828">
        <ele>405.0</ele>
      </trkpt>
      <trkpt lat="42.93715" lon="-8.94924">
        <ele>401.0</ele>
      </trkpt>
      <trkpt lat="42.93394" lon="-8.95168">
        <ele>394.0</ele>
      </trkpt>
      <trkpt lat="42.92896" lon="-8.95194">
        <ele>395.0</ele>
      </trkpt>
      <trkpt lat="42.92519" lon="-8.95173">
        <ele>390.0</ele>
      </trkpt>
      <trkpt lat="42.92359" lon="-8.95131">
        <ele>392.0</ele>
      </trkpt>
      <trkpt lat="42.92187" lon="-8.95159">
        <ele>397.0</ele>
      </trkpt>
      <trkpt lat="42.91798" lon="-8.95388">
        <ele>399.0</ele>
      </trkpt>
      <trkpt lat="42.91339" lon="-8.95413">
        <ele>401.0</ele>
      </trkpt>
      <trkpt lat="42.91148" lon="-8.95457">
        <ele>403.0</ele>
      </trkpt>
      <trkpt lat="42.9107" lon="-8.95484">
        <ele>399.0</ele>
      </trkpt>
      <trkpt lat="42.91009" lon="-8.95499">
        <ele>395.0</ele>
      </trkpt>
      <trkpt lat="42.90955" lon="-8.955">
        <ele>390.0</ele>
      </trkpt>
      <trkpt lat="42.90839" lon="-8.95471">
        <ele>383.0</ele>
      </trkpt>
      <trkpt lat="42.90775" lon="-8.95459">
        <ele>378.0</ele>
      </trkpt>
      <trkpt lat="42.90759" lon="-8.95463">
        <ele>376.0</ele>
      </trkpt>
      <trkpt lat="42.90752" lon="-8.95457">
        <ele>376.0</ele>
      </trkpt>
      <trkpt lat="42.90742" lon="-8.95438">
        <ele>375.0</ele>
      </trkpt>
      <trkpt lat="42.90521" lon="-8.95129">
        <ele>366.0</ele>
      </trkpt>
      <trkpt lat="42.90398" lon="-8.94862">
        <ele>354.0</ele>
      </trkpt>
      <trkpt lat="42.90116" lon="-8.94449">
        <ele>352.0</ele>
      </trkpt>
      <trkpt lat="42.89879" lon="-8.94316">
        <ele>345.0</ele>
      </trkpt>
      <trkpt lat="42.89828" lon="-8.94179">
        <ele>335.0</ele>
      </trkpt>
      <trkpt lat="42.89896" lon="-8.94024">
        <ele>325.0</ele>
      </trkpt>
      <trkpt lat="42.90089" lon="-8.93806">
        <ele>316.0</ele>
      </trkpt>
      <trkpt lat="42.90341" lon="-8.93659">
        <ele>309.0</ele>
      </trkpt>
      <trkpt lat="42.9045" lon="-8.93641">
        <ele>302.0</ele>
      </trkpt>
      <trkpt lat="42.90471" lon="-8.93564">
        <ele>302.0</ele>
      </trkpt>
      <trkpt lat="42.90429" lon="-8.93503">
        <ele>304.0</ele>
      </trkpt>
      <trkpt lat="42.90331" lon="-8.93441">
        <ele>307.0</ele>
      </trkpt>
      <trkpt lat="42.90259" lon="-8.93243">
        <ele>307.0</ele>
      </trkpt>
      <trkpt lat="42.90091" lon="-8.93229">
        <ele>299.0</ele>
      </trkpt>
      <trkpt lat="42.89876" lon="-8.93398">
        <ele>282.0</ele>
      </trkpt>
      <trkpt lat="42.89784" lon="-8.93351">
        <ele>272.0</ele>
      </trkpt>
      <trkpt lat="42.89688" lon="-8.93397">
        <ele>263.0</ele>
      </trkpt>
      <trkpt lat="42.89565" lon="-8.93207">
        <ele>246.0</ele>
      </trkpt>
      <trkpt lat="42.89427" lon="-8.93044">
        <ele>220.0</ele>
      </trkpt>
      <trkpt lat="42.8926" lon="-8.93082">
        <ele>203.0</ele>
      </trkpt>
      <trkpt lat="42.89148" lon="-8.93131">
        <ele>194.0</ele>
      </trkpt>
      <trkpt lat="42.89277" lon="-8.92993">
        <ele>190.0</ele>
      </trkpt>
      <trkpt lat="42.8943" lon="-8.92817">
        <ele>167.0</ele>
      </trkpt>
      <trkpt lat="42.89395" lon="-8.9273">
        <ele>160.0</ele>
      </trkpt>
      <trkpt lat="42.89305" lon="-8.92751">
        <ele>154.0</ele>
      </trkpt>
      <trkpt lat="42.89153" lon="-8.92711">
        <ele>151.0</ele>
      </trkpt>
      <trkpt lat="42.88927" lon="-8.92842">
        <ele>148.0</ele>
      </trkpt>
      <trkpt lat="42.88739" lon="-8.93066">
        <ele>140.0</ele>
      </trkpt>
      <trkpt lat="42.8859" lon="-8.93099">
        <ele>129.0</ele>
      </trkpt>
      <trkpt lat="42.88516" lon="-8.92911">
        <ele>125.0</ele>
      </trkpt>
      <trkpt lat="42.88327" lon="-8.9278">
        <ele>113.0</ele>
      </trkpt>
      <trkpt lat="42.88292" lon="-8.92675">
        <ele>109.0</ele>
      </trkpt>
      <trkpt lat="42.88327" lon="-8.92568">
        <ele>107.0</ele>
      </trkpt>
      <trkpt lat="42.88098" lon="-8.92622">
        <ele>101.0</ele>
      </trkpt>
      <trkpt lat="42.87964" lon="-8.92532">
        <ele>92.0</ele>
      </trkpt>
      <trkpt lat="42.87803" lon="-8.92434">
        <ele>82.0</ele>
      </trkpt>
      <trkpt lat="42.87696" lon="-8.92372">
        <ele>76.0</ele>
      </trkpt>
      <trkpt lat="42.87259" lon="-8.92139">
        <ele>59.0</ele>
      </trkpt>
      <trkpt lat="42.87122" lon="-8.92098">
        <ele>57.0</ele>
      </trkpt>
      <trkpt lat="42.87052" lon="-8.92149">
        <ele>57.0</ele>
      </trkpt>
      <trkpt lat="42.86935" lon="-8.91999">
        <ele>61.0</ele>
      </trkpt>
      <trkpt lat="42.86696" lon="-8.91661">
        <ele>56.0</ele>
      </trkpt>
      <trkpt lat="42.86505" lon="-8.91461">
        <ele>44.0</ele>
      </trkpt>
      <trkpt lat="42.86364" lon="-8.91352">
        <ele>40.0</ele>
      </trkpt>
      <trkpt lat="42.86224" lon="-8.91184">
        <ele>35.0</ele>
      </trkpt>
      <trkpt lat="42.85978" lon="-8.90792">
        <ele>30.0</ele>
      </trkpt>
      <trkpt lat="42.85683" lon="-8.9084">
        <ele>26.0</ele>
      </trkpt>
      <trkpt lat="42.85549" lon="-8.9094">
        <ele>22.0</ele>
      </trkpt>
      <trkpt lat="42.85296" lon="-8.90911">
        <ele>19.0</ele>
      </trkpt>
      <trkpt lat="42.85041" lon="-8.90842">
        <ele>16.0</ele>
      </trkpt>
      <trkpt lat="42.84911" lon="-8.90822">
        <ele>13.0</ele>
      </trkpt>
      <trkpt lat="42.84763" lon="-8.90685">
        <ele>12.0</ele>
      </trkpt>
      <trkpt lat="42.84575" lon="-8.90547">
        <ele>11.0</ele>
      </trkpt>
      <trkpt lat="42.84487" lon="-8.90597">
        <ele>10.0</ele>
      </trkpt>
      <trkpt lat="42.84335" lon="-8.9076">
        <ele>9.0</ele>
      </trkpt>
      <trkpt lat="42.84306" lon="-8.90771">
        <ele>9.0</ele>
      </trkpt>
      <trkpt lat="42.84243" lon="-8.90621">
        <ele>8.0</ele>
      </trkpt>
      <trkpt lat="42.84102" lon="-8.90297">
        <ele>5.0</ele>
      </trkpt>
      <trkpt lat="42.84072" lon="-8.90245">
        <ele>5.0</ele>
      </trkpt>
      <trkpt lat="42.83863" lon="-8.90069">
        <ele>5.0</ele>
      </trkpt>
      <trkpt lat="42.83751" lon="-8.90018">
        <ele>6.0</ele>
      </trkpt>
      <trkpt lat="42.83478" lon="-8.89968">
        <ele>7.0</ele>
      </trkpt>
      <trkpt lat="42.83153" lon="-8.90099">
        <ele>10.0</ele>
      </trkpt>
      <trkpt lat="42.82962" lon="-8.90034">
        <ele>8.0</ele>
      </trkpt>
      <trkpt lat="42.82935" lon="-8.89879">
        <ele>9.0</ele>
      </trkpt>
      <trkpt lat="42.82814" lon="-8.89756">
        <ele>11.0</ele>
      </trkpt>
      <trkpt lat="42.82776" lon="-8.89613">
        <ele>10.0</ele>
      </trkpt>
      <trkpt lat="42.8255" lon="-8.89408">
        <ele>11.0</ele>
      </trkpt>
      <trkpt lat="42.82312" lon="-8.89307">
        <ele>14.0</ele>
      </trkpt>
      <trkpt lat="42.82217" lon="-8.8924">
        <ele>13.0</ele>
      </trkpt>
      <trkpt lat="42.81998" lon="-8.88925">
        <ele>20.0</ele>
      </trkpt>
      <trkpt lat="42.81828" lon="-8.88753">
        <ele>23.0</ele>
      </trkpt>
      <trkpt lat="42.81658" lon="-8.88618">
        <ele>11.0</ele>
      </trkpt>
      <trkpt lat="42.81443" lon="-8.88522">
        <ele>5.0</ele>
      </trkpt>
      <trkpt lat="42.81233" lon="-8.88484">
        <ele>26.0</ele>
      </trkpt>
      <trkpt lat="42.81184" lon="-8.88505">
        <ele>33.0</ele>
      </trkpt>
      <trkpt lat="42.81153" lon="-8.88473">
        <ele>37.0</ele>
      </trkpt>
      <trkpt lat="42.81062" lon="-8.88448">
        <ele>42.0</ele>
      </trkpt>
      <trkpt lat="42.80876" lon="-8.88529">
        <ele>50.0</ele>
      </trkpt>
      <trkpt lat="42.80843" lon="-8.88576">
        <ele>53.0</ele>
      </trkpt>
      <trkpt lat="42.80799" lon="-8.88616">
        <ele>53.0</ele>
      </trkpt>
      <trkpt lat="42.80639" lon="-8.88519">
        <ele>50.0</ele>
      </trkpt>
      <trkpt lat="42.80561" lon="-8.88469">
        <ele>47.0</ele>
      </trkpt>
      <trkpt lat="42.80386" lon="-8.88432">
        <ele>43.0</ele>
      </trkpt>
      <trkpt lat="42.80316" lon="-8.88395">
        <ele>40.0</ele>
      </trkpt>
      <trkpt lat="42.80268" lon="-8.88373">
        <ele>38.0</ele>
      </trkpt>
      <trkpt lat="42.80207" lon="-8.88413">
        <ele>37.0</ele>
      </trkpt>
      <trkpt lat="42.80136" lon="-8.88427">
        <ele>35.0</ele>
      </trkpt>
      <trkpt lat="42.79981" lon="-8.88564">
        <ele>31.0</ele>
      </trkpt>
      <trkpt lat="42.79889" lon="-8.88618">
        <ele>26.0</ele>
      </trkpt>
      <trkpt lat="42.79822" lon="-8.88648">
        <ele>23.0</ele>
      </trkpt>
      <trkpt lat="42.79818" lon="-8.88662">
        <ele>22.0</ele>
      </trkpt>
      <trkpt lat="42.79804" lon="-8.88666">
        <ele>21.0</ele>
      </trkpt>
      <trkpt lat="42.79796" lon="-8.88656">
        <ele>21.0</ele>
      </trkpt>
      <trkpt lat="42.7959" lon="-8.8871">
        <ele>20.0</ele>
      </trkpt>
      <trkpt lat="42.79183" lon="-8.88824">
        <ele>17.0</ele>
      </trkpt>
      <trkpt lat="42.79051" lon="-8.88845">
        <ele>14.0</ele>
      </trkpt>
      <trkpt lat="42.78888" lon="-8.88827">
        <ele>13.0</ele>
      </trkpt>
      <trkpt lat="42.78778" lon="-8.88842">
        <ele>13.0</ele>
      </trkpt>
      <trkpt lat="42.78678" lon="-8.88853">
        <ele>13.0</ele>
      </trkpt>
      <trkpt lat="42.78669" lon="-8.88842">
        <ele>13.0</ele>
      </trkpt>
      <trkpt lat="42.78661" lon="-8.88851">
        <ele>13.0</ele>
      </trkpt>
      <trkpt lat="42.78637" lon="-8.88852">
        <ele>13.0</ele>
      </trkpt>
      <trkpt lat="42.78473" lon="-8.88844">
        <ele>11.0</ele>
      </trkpt>
      <trkpt lat="42.78442" lon="-8.88842">
        <ele>10.0</ele>
      </trkpt>
      <trkpt lat="42.78414" lon="-8.88845">
        <ele>10.0</ele>
      </trkpt>
      <trkpt lat="42.78367" lon="-8.88975">
        <ele>7.0</ele>
      </trkpt>
      <trkpt lat="42.78349" lon="-8.88987">
        <ele>5.0</ele>
      </trkpt>
      <trkpt lat="42.78256" lon="-8.8899">
        <ele>1.0</ele>
      </trkpt>
      <trkpt lat="42.78168" lon="-8.88993">
        <ele>1.0</ele>
      </trkpt>
      <trkpt lat="42.78151" lon="-8.8898">
        <ele>1.0</ele>
      </trkpt>
      <trkpt lat="42.78126" lon="-8.88976">
        <ele>1.0</ele>
      </trkpt>
      <trkpt lat="42.77986" lon="-8.89057">
        <ele>3.0</ele>
      </trkpt>
      <trkpt lat="42.77949" lon="-8.8909">
        <ele>3.0</ele>
      </trkpt>
      <trkpt lat="42.77867" lon="-8.89256">
        <ele>5.0</ele>
      </trkpt>
      <trkpt lat="42.77796" lon="-8.89404">
        <ele>7.0</ele>
      </trkpt>
      <trkpt lat="42.77903" lon="-8.89746">
        <ele>10.0</ele>
      </trkpt>
      <trkpt lat="42.77996" lon="-8.9001">
        <ele>15.0</ele>
      </trkpt>
      <trkpt lat="42.7808" lon="-8.90241">
        <ele>22.0</ele>
      </trkpt>
      <trkpt lat="42.78178" lon="-8.90353">
        <ele>29.0</ele>
      </trkpt>
      <trkpt lat="42.78259" lon="-8.90416">
        <ele>34.0</ele>
      </trkpt>
      <trkpt lat="42.78323" lon="-8.90552">
        <ele>40.0</ele>
      </trkpt>
      <trkpt lat="42.78434" lon="-8.90654">
        <ele>45.0</ele>
      </trkpt>
      <trkpt lat="42.78478" lon="-8.90665">
        <ele>45.0</ele>
      </trkpt>
      <trkpt lat="42.78492" lon="-8.90673">
        <ele>45.0</ele>
      </trkpt>
      <trkpt lat="42.78496" lon="-8.90695">
        <ele>45.0</ele>
      </trkpt>
      <trkpt lat="42.78574" lon="-8.90781">
        <ele>46.0</ele>
      </trkpt>
      <trkpt lat="42.78621" lon="-8.90887">
        <ele>46.0</ele>
      </trkpt>
      <trkpt lat="42.78639" lon="-8.90993">
        <ele>47.0</ele>
      </trkpt>
      <trkpt lat="42.78622" lon="-8.91168">
        <ele>49.0</ele>
      </trkpt>
      <trkpt lat="42.78543" lon="-8.91421">
        <ele>53.0</ele>
      </trkpt>
      <trkpt lat="42.78506" lon="-8.91592">
        <ele>56.0</ele>
      </trkpt>
      <trkpt lat="42.78468" lon="-8.91988">
        <ele>52.0</ele>
      </trkpt>
      <trkpt lat="42.78449" lon="-8.92152">
        <ele>44.0</ele>
      </trkpt>
      <trkpt lat="42.78442" lon="-8.92196">
        <ele>42.0</ele>
      </trkpt>
      <trkpt lat="42.78394" lon="-8.92233">
        <ele>40.0</ele>
      </trkpt>
      <trkpt lat="42.78173" lon="-8.92675">
        <ele>24.0</ele>
      </trkpt>
      <trkpt lat="42.7801" lon="-8.92811">
        <ele>18.0</ele>
      </trkpt>
      <trkpt lat="42.77947" lon="-8.9293">
        <ele>19.0</ele>
      </trkpt>
      <trkpt lat="42.77871" lon="-8.92958">
        <ele>21.0</ele>
      </trkpt>
      <trkpt lat="42.77585" lon="-8.92955">
        <ele>21.0</ele>
      </trkpt>
      <trkpt lat="42.7746" lon="-8.92993">
        <ele>21.0</ele>
      </trkpt>
      <trkpt lat="42.77411" lon="-8.93051">
        <ele>20.0</ele>
      </trkpt>
      <trkpt lat="42.77397" lon="-8.93155">
        <ele>20.0</ele>
      </trkpt>
      <trkpt lat="42.7743" lon="-8.93265">
        <ele>23.0</ele>
      </trkpt>
      <trkpt lat="42.7743" lon="-8.93405">
        <ele>28.0</ele>
      </trkpt>
      <trkpt lat="42.77325" lon="-8.93581">
        <ele>31.0</ele>
      </trkpt>
      <trkpt lat="42.77224" lon="-8.93651">
        <ele>36.0</ele>
      </trkpt>
      <trkpt lat="42.77172" lon="-8.93661">
        <ele>38.0</ele>
      </trkpt>
      <trkpt lat="42.76858" lon="-8.93673">
        <ele>24.0</ele>
      </trkpt>
      <trkpt lat="42.76785" lon="-8.93721">
        <ele>17.0</ele>
      </trkpt>
      <trkpt lat="42.76698" lon="-8.93798">
        <ele>11.0</ele>
      </trkpt>
      <trkpt lat="42.76633" lon="-8.93772">
        <ele>9.0</ele>
      </trkpt>
      <trkpt lat="42.76544" lon="-8.9382">
        <ele>7.0</ele>
      </trkpt>
      <trkpt lat="42.76522" lon="-8.93863">
        <ele>9.0</ele>
      </trkpt>
      <trkpt lat="42.76569" lon="-8.94001">
        <ele>13.0</ele>
      </trkpt>
      <trkpt lat="42.76564" lon="-8.94057">
        <ele>15.0</ele>
      </trkpt>
      <trkpt lat="42.76519" lon="-8.94082">
        <ele>16.0</ele>
      </trkpt>
      <trkpt lat="42.76389" lon="-8.94081">
        <ele>18.0</ele>
      </trkpt>
      <trkpt lat="42.7632" lon="-8.94101">
        <ele>21.0</ele>
      </trkpt>
      <trkpt lat="42.76267" lon="-8.94209">
        <ele>24.0</ele>
      </trkpt>
      <trkpt lat="42.7621" lon="-8.94332">
        <ele>23.0</ele>
      </trkpt>
      <trkpt lat="42.76155" lon="-8.94383">
        <ele>21.0</ele>
      </trkpt>
      <trkpt lat="42.76098" lon="-8.94397">
        <ele>19.0</ele>
      </trkpt>
      <trkpt lat="42.76042" lon="-8.94407">
        <ele>16.0</ele>
      </trkpt>
      <trkpt lat="42.76007" lon="-8.94468">
        <ele>13.0</ele>
      </trkpt>
      <trkpt lat="42.75954" lon="-8.94517">
        <ele>10.0</ele>
      </trkpt>
      <trkpt lat="42.75904" lon="-8.94512">
        <ele>9.0</ele>
      </trkpt>
      <trkpt lat="42.75849" lon="-8.94504">
        <ele>8.0</ele>
      </trkpt>
      <trkpt lat="42.75814" lon="-8.94527">
        <ele>7.0</ele>
      </trkpt>
      <trkpt lat="42.75797" lon="-8.94564">
        <ele>7.0</ele>
      </trkpt>
      <trkpt lat="42.75785" lon="-8.94593">
        <ele>8.0</ele>
      </trkpt>
      <trkpt lat="42.75802" lon="-8.94666">
        <ele>9.0</ele>
      </trkpt>
      <trkpt lat="42.75783" lon="-8.94742">
        <ele>11.0</ele>
      </trkpt>
      <trkpt lat="42.75739" lon="-8.94818">
        <ele>12.0</ele>
      </trkpt>
      <trkpt lat="42.75659" lon="-8.94941">
        <ele>11.0</ele>
      </trkpt>
      <trkpt lat="42.75583" lon="-8.94989">
        <ele>10.0</ele>
      </trkpt>
      <trkpt lat="42.75505" lon="-8.94984">
        <ele>10.0</ele>
      </trkpt>
      <trkpt lat="42.75422" lon="-8.94963">
        <ele>10.0</ele>
      </trkpt>
      <trkpt lat="42.75338" lon="-8.94928">
        <ele>11.0</ele>
      </trkpt>
      <trkpt lat="42.75211" lon="-8.94934">
        <ele>14.0</ele>
      </trkpt>
      <trkpt lat="42.7505" lon="-8.9495">
        <ele>20.0</ele>
      </trkpt>
      <trkpt lat="42.74948" lon="-8.95006">
        <ele>26.0</ele>
      </trkpt>
      <trkpt lat="42.74853" lon="-8.95069">
        <ele>29.0</ele>
      </trkpt>
      <trkpt lat="42.74764" lon="-8.95125">
        <ele>27.0</ele>
      </trkpt>
      <trkpt lat="42.7467" lon="-8.95194">
        <ele>23.0</ele>
      </trkpt>
      <trkpt lat="42.74599" lon="-8.95287">
        <ele>20.0</ele>
      </trkpt>
      <trkpt lat="42.74556" lon="-8.95325">
        <ele>17.0</ele>
      </trkpt>
      <trkpt lat="42.74489" lon="-8.95367">
        <ele>14.0</ele>
      </trkpt>
      <trkpt lat="42.74414" lon="-8.95592">
        <ele>13.0</ele>
      </trkpt>
      <trkpt lat="42.74404" lon="-8.95686">
        <ele>17.0</ele>
      </trkpt>
      <trkpt lat="42.74383" lon="-8.95946">
        <ele>22.0</ele>
      </trkpt>
      <trkpt lat="42.7433" lon="-8.96083">
        <ele>22.0</ele>
      </trkpt>
      <trkpt lat="42.7424" lon="-8.96138">
        <ele>21.0</ele>
      </trkpt>
      <trkpt lat="42.74066" lon="-8.96142">
        <ele>20.0</ele>
      </trkpt>
      <trkpt lat="42.73964" lon="-8.96164">
        <ele>19.0</ele>
      </trkpt>
      <trkpt lat="42.73902" lon="-8.96214">
        <ele>18.0</ele>
      </trkpt>
      <trkpt lat="42.73825" lon="-8.96364">
        <ele>16.0</ele>
      </trkpt>
      <trkpt lat="42.73764" lon="-8.96581">
        <ele>15.0</ele>
      </trkpt>
      <trkpt lat="42.73674" lon="-8.96724">
        <ele>15.0</ele>
      </trkpt>
      <trkpt lat="42.73637" lon="-8.96894">
        <ele>15.0</ele>
      </trkpt>
      <trkpt lat="42.73572" lon="-8.97137">
        <ele>12.0</ele>
      </trkpt>
      <trkpt lat="42.73526" lon="-8.97238">
        <ele>10.0</ele>
      </trkpt>
      <trkpt lat="42.73533" lon="-8.97376">
        <ele>9.0</ele>
      </trkpt>
      <trkpt lat="42.736" lon="-8.97704">
        <ele>16.0</ele>
      </trkpt>
      <trkpt lat="42.73602" lon="-8.97791">
        <ele>20.0</ele>
      </trkpt>
      <trkpt lat="42.73596" lon="-8.97857">
        <ele>23.0</ele>
      </trkpt>
      <trkpt lat="42.7354" lon="-8.98101">
        <ele>34.0</ele>
      </trkpt>
      <trkpt lat="42.73464" lon="-8.98188">
        <ele>39.0</ele>
      </trkpt>
      <trkpt lat="42.73389" lon="-8.98313">
        <ele>43.0</ele>
      </trkpt>
      <trkpt lat="42.73287" lon="-8.98407">
        <ele>43.0</ele>
      </trkpt>
      <trkpt lat="42.73205" lon="-8.98546">
        <ele>40.0</ele>
      </trkpt>
      <trkpt lat="42.73098" lon="-8.98834">
        <ele>34.0</ele>
      </trkpt>
      <trkpt lat="42.72965" lon="-8.99015">
        <ele>31.0</ele>
      </trkpt>
      <trkpt lat="42.72921" lon="-8.99193">
        <ele>25.0</ele>
      </trkpt>
      <trkpt lat="42.72906" lon="-8.99339">
        <ele>20.0</ele>
      </trkpt>
      <trkpt lat="42.72792" lon="-8.99529">
        <ele>15.0</ele>
      </trkpt>
      <trkpt lat="42.72703" lon="-8.99585">
        <ele>11.0</ele>
      </trkpt>
      <trkpt lat="42.72707" lon="-8.99689">
        <ele>8.0</ele>
      </trkpt>
      <trkpt lat="42.72674" lon="-8.99859">
        <ele>5.0</ele>
      </trkpt>
      <trkpt lat="42.72628" lon="-8.99993">
        <ele>7.0</ele>
      </trkpt>
      <trkpt lat="42.72629" lon="-9.00016">
        <ele>8.0</ele>
      </trkpt>
      <trkpt lat="42.7262" lon="-9.00026">
        <ele>8.0</ele>
      </trkpt>
      <trkpt lat="42.72609" lon="-9.00026">
        <ele>9.0</ele>
      </trkpt>
      <trkpt lat="42.72582" lon="-9.00058">
        <ele>9.0</ele>
      </trkpt>
      <trkpt lat="42.72518" lon="-9.00155">
        <ele>12.0</ele>
      </trkpt>
      <trkpt lat="42.72421" lon="-9.00363">
        <ele>17.0</ele>
      </trkpt>
      <trkpt lat="42.72382" lon="-9.00532">
        <ele>18.0</ele>
      </trkpt>
      <trkpt lat="42.72344" lon="-9.00595">
        <ele>18.0</ele>
      </trkpt>
      <trkpt lat="42.72276" lon="-9.00642">
        <ele>18.0</ele>
      </trkpt>
      <trkpt lat="42.72106" lon="-9.00713">
        <ele>19.0</ele>
      </trkpt>
      <trkpt lat="42.71986" lon="-9.0076">
        <ele>24.0</ele>
      </trkpt>
      <trkpt lat="42.71887" lon="-9.00762">
        <ele>28.0</ele>
      </trkpt>
      <trkpt lat="42.71841" lon="-9.00749">
        <ele>30.0</ele>
      </trkpt>
      <trkpt lat="42.71801" lon="-9.00729">
        <ele>31.0</ele>
      </trkpt>
      <trkpt lat="42.71745" lon="-9.00747">
        <ele>32.0</ele>
      </trkpt>
      <trkpt lat="42.71677" lon="-9.00791">
        <ele>32.0</ele>
      </trkpt>
      <trkpt lat="42.71627" lon="-9.00798">
        <ele>32.0</ele>
      </trkpt>
      <trkpt lat="42.71564" lon="-9.00812">
        <ele>31.0</ele>
      </trkpt>
      <trkpt lat="42.71444" lon="-9.00862">
        <ele>28.0</ele>
      </trkpt>
      <trkpt lat="42.71388" lon="-9.00859">
        <ele>28.0</ele>
      </trkpt>
      <trkpt lat="42.71331" lon="-9.00838">
        <ele>28.0</ele>
      </trkpt>
      <trkpt lat="42.71276" lon="-9.00842">
        <ele>28.0</ele>
      </trkpt>
      <trkpt lat="42.71222" lon="-9.00878">
        <ele>27.0</ele>
      </trkpt>
      <trkpt lat="42.71169" lon="-9.00995">
        <ele>24.0</ele>
      </trkpt>
      <trkpt lat="42.71095" lon="-9.01036">
        <ele>19.0</ele>
      </trkpt>
      <trkpt lat="42.71" lon="-9.01087">
        <ele>14.0</ele>
      </trkpt>
      <trkpt lat="42.70872" lon="-9.01304">
        <ele>10.0</ele>
      </trkpt>
      <trkpt lat="42.70841" lon="-9.0139">
        <ele>11.0</ele>
      </trkpt>
      <trkpt lat="42.70895" lon="-9.01481">
        <ele>14.0</ele>
      </trkpt>
      <trkpt lat="42.70948" lon="-9.01581">
        <ele>19.0</ele>
      </trkpt>
      <trkpt lat="42.70898" lon="-9.01689">
        <ele>22.0</ele>
      </trkpt>
      <trkpt lat="42.70585" lon="-9.01827">
        <ele>28.0</ele>
      </trkpt>
      <trkpt lat="42.7051" lon="-9.01878">
        <ele>30.0</ele>
      </trkpt>
      <trkpt lat="42.70398" lon="-9.02004">
        <ele>29.0</ele>
      </trkpt>
      <trkpt lat="42.70169" lon="-9.02037">
        <ele>42.0</ele>
      </trkpt>
      <trkpt lat="42.70046" lon="-9.02063">
        <ele>47.0</ele>
      </trkpt>
      <trkpt lat="42.69911" lon="-9.02201">
        <ele>54.0</ele>
      </trkpt>
      <trkpt lat="42.6986" lon="-9.02277">
        <ele>60.0</ele>
      </trkpt>
      <trkpt lat="42.69752" lon="-9.02384">
        <ele>61.0</ele>
      </trkpt>
      <trkpt lat="42.69507" lon="-9.02442">
        <ele>58.0</ele>
      </trkpt>
      <trkpt lat="42.69326" lon="-9.02455">
        <ele>52.0</ele>
      </trkpt>
      <trkpt lat="42.69114" lon="-9.02349">
        <ele>49.0</ele>
      </trkpt>
      <trkpt lat="42.68867" lon="-9.02153">
        <ele>49.0</ele>
      </trkpt>
      <trkpt lat="42.68672" lon="-9.02111">
        <ele>43.0</ele>
      </trkpt>
      <trkpt lat="42.68412" lon="-9.02245">
        <ele>31.0</ele>
      </trkpt>
      <trkpt lat="42.68188" lon="-9.02301">
        <ele>33.0</ele>
      </trkpt>
      <trkpt lat="42.67962" lon="-9.0221">
        <ele>44.0</ele>
      </trkpt>
      <trkpt lat="42.67732" lon="-9.02297">
        <ele>54.0</ele>
      </trkpt>
      <trkpt lat="42.67493" lon="-9.02533">
        <ele>47.0</ele>
      </trkpt>
      <trkpt lat="42.67358" lon="-9.02542">
        <ele>39.0</ele>
      </trkpt>
      <trkpt lat="42.67276" lon="-9.02725">
        <ele>33.0</ele>
      </trkpt>
      <trkpt lat="42.67214" lon="-9.02874">
        <ele>29.0</ele>
      </trkpt>
      <trkpt lat="42.66932" lon="-9.0316">
        <ele>26.0</ele>
      </trkpt>
      <trkpt lat="42.66668" lon="-9.03252">
        <ele>29.0</ele>
      </trkpt>
      <trkpt lat="42.66237" lon="-9.03217">
        <ele>36.0</ele>
      </trkpt>
      <trkpt lat="42.65724" lon="-9.03174">
        <ele>35.0</ele>
      </trkpt>
      <trkpt lat="42.65177" lon="-9.02987">
        <ele>31.0</ele>
      </trkpt>
      <trkpt lat="42.64912" lon="-9.02813">
        <ele>26.0</ele>
      </trkpt>
      <trkpt lat="42.64679" lon="-9.02665">
        <ele>23.0</ele>
      </trkpt>
      <trkpt lat="42.64513" lon="-9.02636">
        <ele>12.0</ele>
      </trkpt>
      <trkpt lat="42.63956" lon="-9.02755">
        <ele>25.0</ele>
      </trkpt>
      <trkpt lat="42.63906" lon="-9.02753">
        <ele>29.0</ele>
      </trkpt>
      <trkpt lat="42.63873" lon="-9.02743">
        <ele>30.0</ele>
      </trkpt>
      <trkpt lat="42.63671" lon="-9.02636">
        <ele>35.0</ele>
      </trkpt>
      <trkpt lat="42.63332" lon="-9.02458">
        <ele>44.0</ele>
      </trkpt>
      <trkpt lat="42.63145" lon="-9.02355">
        <ele>54.0</ele>
      </trkpt>
      <trkpt lat="42.6309" lon="-9.02294">
        <ele>56.0</ele>
      </trkpt>
      <trkpt lat="42.62865" lon="-9.02033">
        <ele>59.0</ele>
      </trkpt>
      <trkpt lat="42.62732" lon="-9.01917">
        <ele>63.0</ele>
      </trkpt>
      <trkpt lat="42.62517" lon="-9.01733">
        <ele>73.0</ele>
      </trkpt>
      <trkpt lat="42.61951" lon="-9.01277">
        <ele>74.0</ele>
      </trkpt>
      <trkpt lat="42.60812" lon="-9.00797">
        <ele>47.0</ele>
      </trkpt>
      <trkpt lat="42.60612" lon="-9.0065">
        <ele>37.0</ele>
      </trkpt>
      <trkpt lat="42.60506" lon="-9.00561">
        <ele>33.0</ele>
      </trkpt>
      <trkpt lat="42.60173" lon="-9.00231">
        <ele>25.0</ele>
      </trkpt>
      <trkpt lat="42.60026" lon="-9.00246">
        <ele>30.0</ele>
      </trkpt>
      <trkpt lat="42.59846" lon="-9.00282">
        <ele>36.0</ele>
      </trkpt>
      <trkpt lat="42.59722" lon="-9.00265">
        <ele>39.0</ele>
      </trkpt>
      <trkpt lat="42.59592" lon="-9.00247">
        <ele>41.0</ele>
      </trkpt>
      <trkpt lat="42.59504" lon="-9.00246">
        <ele>44.0</ele>
      </trkpt>
      <trkpt lat="42.59489" lon="-9.00246">
        <ele>46.0</ele>
      </trkpt>
      <trkpt lat="42.59385" lon="-9.00234">
        <ele>47.0</ele>
      </trkpt>
      <trkpt lat="42.58574" lon="-9.00199">
        <ele>66.0</ele>
      </trkpt>
      <trkpt lat="42.58205" lon="-9.00231">
        <ele>75.0</ele>
      </trkpt>
      <trkpt lat="42.58153" lon="-9.00244">
        <ele>75.0</ele>
      </trkpt>
      <trkpt lat="42.58157" lon="-9.00255">
        <ele>75.0</ele>
      </trkpt>
      <trkpt lat="42.57788" lon="-9.00236">
        <ele>78.0</ele>
      </trkpt>
      <trkpt lat="42.57521" lon="-9.00144">
        <ele>85.0</ele>
      </trkpt>
      <trkpt lat="42.5733" lon="-9.00013">
        <ele>90.0</ele>
      </trkpt>
      <trkpt lat="42.57144" lon="-8.99912">
        <ele>91.0</ele>
      </trkpt>
      <trkpt lat="42.57118" lon="-8.99913">
        <ele>91.0</ele>
      </trkpt>
      <trkpt lat="42.57098" lon="-8.99888">
        <ele>90.0</ele>
      </trkpt>
      <trkpt lat="42.57072" lon="-8.99893">
        <ele>90.0</ele>
      </trkpt>
      <trkpt lat="42.57052" lon="-8.99908">
        <ele>90.0</ele>
      </trkpt>
      <trkpt lat="42.57034" lon="-8.99897">
        <ele>89.0</ele>
      </trkpt>
      <trkpt lat="42.57028" lon="-8.99864">
        <ele>88.0</ele>
      </trkpt>
      <trkpt lat="42.5699" lon="-8.99831">
        <ele>86.0</ele>
      </trkpt>
      <trkpt lat="42.56926" lon="-8.99771">
        <ele>82.0</ele>
      </trkpt>
      <trkpt lat="42.56847" lon="-8.99766">
        <ele>78.0</ele>
      </trkpt>
      <trkpt lat="42.56682" lon="-8.99791">
        <ele>68.0</ele>
      </trkpt>
      <trkpt lat="42.56532" lon="-8.99707">
        <ele>56.0</ele>
      </trkpt>
      <trkpt lat="42.56425" lon="-8.99674">
        <ele>46.0</ele>
      </trkpt>
      <trkpt lat="42.56334" lon="-8.99721">
        <ele>39.0</ele>
      </trkpt>
      <trkpt lat="42.56278" lon="-8.99624">
        <ele>33.0</ele>
      </trkpt>
      <trkpt lat="42.56172" lon="-8.99474">
        <ele>25.0</ele>
      </trkpt>
      <trkpt lat="42.56047" lon="-8.99364">
        <ele>17.0</ele>
      </trkpt>
      <trkpt lat="42.5602" lon="-8.99344">
        <ele>14.0</ele>
      </trkpt>
      <trkpt lat="42.56014" lon="-8.99333">
        <ele>13.0</ele>
      </trkpt>
      <trkpt lat="42.56025" lon="-8.99324">
        <ele>13.0</ele>
      </trkpt>
      <trkpt lat="42.56135" lon="-8.99293">
        <ele>11.0</ele>
      </trkpt>
      <trkpt lat="42.56239" lon="-8.99259">
        <ele>7.0</ele>
      </trkpt>
      <trkpt lat="42.56398" lon="-8.9915">
        <ele>6.0</ele>
      </trkpt>
      <trkpt lat="42.56441" lon="-8.99087">
        <ele>7.0</ele>
      </trkpt>
      <trkpt lat="42.5646" lon="-8.99084">
        <ele>8.0</ele>
      </trkpt>
      <trkpt lat="42.56544" lon="-8.99017">
        <ele>9.0</ele>
      </trkpt>
      <trkpt lat="42.56624" lon="-8.98944">
        <ele>10.0</ele>
      </trkpt>
      <trkpt lat="42.56719" lon="-8.98782">
        <ele>9.0</ele>
      </trkpt>
      <trkpt lat="42.56885" lon="-8.98464">
        <ele>5.0</ele>
      </trkpt>
      <trkpt lat="42.56905" lon="-8.98411">
        <ele>4.0</ele>
      </trkpt>
      <trkpt lat="42.56941" lon="-8.98359">
        <ele>4.0</ele>
      </trkpt>
      <trkpt lat="42.57054" lon="-8.9814">
        <ele>4.0</ele>
      </trkpt>
      <trkpt lat="42.57092" lon="-8.98054">
        <ele>4.0</ele>
      </trkpt>
      <trkpt lat="42.57159" lon="-8.97942">
        <ele>4.0</ele>
      </trkpt>
      <trkpt lat="42.57363" lon="-8.97662">
        <ele>6.0</ele>
      </trkpt>
      <trkpt lat="42.57388" lon="-8.97585">
        <ele>6.0</ele>
      </trkpt>
      <trkpt lat="42.57402" lon="-8.97441">
        <ele>8.0</ele>
      </trkpt>
      <trkpt lat="42.57474" lon="-8.97316">
        <ele>13.0</ele>
      </trkpt>
      <trkpt lat="42.5763" lon="-8.96873">
        <ele>20.0</ele>
      </trkpt>
      <trkpt lat="42.57804" lon="-8.96368">
        <ele>30.0</ele>
      </trkpt>
      <trkpt lat="42.57825" lon="-8.96242">
        <ele>33.0</ele>
      </trkpt>
      <trkpt lat="42.57906" lon="-8.96095">
        <ele>31.0</ele>
      </trkpt>
      <trkpt lat="42.57986" lon="-8.96005">
        <ele>26.0</ele>
      </trkpt>
      <trkpt lat="42.58123" lon="-8.95906">
        <ele>20.0</ele>
      </trkpt>
      <trkpt lat="42.58167" lon="-8.95891">
        <ele>16.0</ele>
      </trkpt>
      <trkpt lat="42.58274" lon="-8.95919">
        <ele>10.0</ele>
      </trkpt>
      <trkpt lat="42.5834" lon="-8.95819">
        <ele>9.0</ele>
      </trkpt>
      <trkpt lat="42.58444" lon="-8.95621">
        <ele>9.0</ele>
      </trkpt>
      <trkpt lat="42.58565" lon="-8.95391">
        <ele>10.0</ele>
      </trkpt>
      <trkpt lat="42.58747" lon="-8.95062">
        <ele>4.0</ele>
      </trkpt>
      <trkpt lat="42.59098" lon="-8.94811">
        <ele>11.0</ele>
      </trkpt>
      <trkpt lat="42.59215" lon="-8.94731">
        <ele>16.0</ele>
      </trkpt>
      <trkpt lat="42.59329" lon="-8.94707">
        <ele>16.0</ele>
      </trkpt>
      <trkpt lat="42.59382" lon="-8.94664">
        <ele>15.0</ele>
      </trkpt>
      <trkpt lat="42.59447" lon="-8.94629">
        <ele>14.0</ele>
      </trkpt>
      <trkpt lat="42.59545" lon="-8.94556">
        <ele>12.0</ele>
      </trkpt>
      <trkpt lat="42.59709" lon="-8.94455">
        <ele>8.0</ele>
      </trkpt>
      <trkpt lat="42.59895" lon="-8.9422">
        <ele>5.0</ele>
      </trkpt>
      <trkpt lat="42.60012" lon="-8.94078">
        <ele>4.0</ele>
      </trkpt>
      <trkpt lat="42.60166" lon="-8.9395">
        <ele>6.0</ele>
      </trkpt>
      <trkpt lat="42.60297" lon="-8.93892">
        <ele>6.0</ele>
      </trkpt>
      <trkpt lat="42.60348" lon="-8.93892">
        <ele>6.0</ele>
      </trkpt>
      <trkpt lat="42.60402" lon="-8.93892">
        <ele>6.0</ele>
      </trkpt>
      <trkpt lat="42.60441" lon="-8.93883">
        <ele>6.0</ele>
      </trkpt>
      <trkpt lat="42.60496" lon="-8.93858">
        <ele>6.0</ele>
      </trkpt>
      <trkpt lat="42.60558" lon="-8.9383">
        <ele>6.0</ele>
      </trkpt>
      <trkpt lat="42.60631" lon="-8.93814">
        <ele>5.0</ele>
      </trkpt>
      <trkpt lat="42.60733" lon="-8.93803">
        <ele>4.0</ele>
      </trkpt>
      <trkpt lat="42.60785" lon="-8.93787">
        <ele>4.0</ele>
      </trkpt>
      <trkpt lat="42.60828" lon="-8.93758">
        <ele>4.0</ele>
      </trkpt>
      <trkpt lat="42.6087" lon="-8.93696">
        <ele>4.0</ele>
      </trkpt>
      <trkpt lat="42.60913" lon="-8.93635">
        <ele>5.0</ele>
      </trkpt>
      <trkpt lat="42.60909" lon="-8.93617">
        <ele>5.0</ele>
      </trkpt>
      <trkpt lat="42.60918" lon="-8.93604">
        <ele>5.0</ele>
      </trkpt>
      <trkpt lat="42.60932" lon="-8.93612">
        <ele>5.0</ele>
      </trkpt>
      <trkpt lat="42.6099" lon="-8.93569">
        <ele>5.0</ele>
      </trkpt>
      <trkpt lat="42.61118" lon="-8.93424">
        <ele>9.0</ele>
      </trkpt>
      <trkpt lat="42.61187" lon="-8.93314">
        <ele>11.0</ele>
      </trkpt>
      <trkpt lat="42.61232" lon="-8.93317">
        <ele>12.0</ele>
      </trkpt>
      <trkpt lat="42.61346" lon="-8.93399">
        <ele>11.0</ele>
      </trkpt>
      <trkpt lat="42.6139" lon="-8.93393">
        <ele>9.0</ele>
      </trkpt>
      <trkpt lat="42.61466" lon="-8.93273">
        <ele>5.0</ele>
      </trkpt>
      <trkpt lat="42.61523" lon="-8.9328">
        <ele>7.0</ele>
      </trkpt>
      <trkpt lat="42.61663" lon="-8.93259">
        <ele>10.0</ele>
      </trkpt>
      <trkpt lat="42.61742" lon="-8.93173">
        <ele>16.0</ele>
      </trkpt>
      <trkpt lat="42.61773" lon="-8.92808">
        <ele>24.0</ele>
      </trkpt>
      <trkpt lat="42.61822" lon="-8.92571">
        <ele>29.0</ele>
      </trkpt>
      <trkpt lat="42.61958" lon="-8.92339">
        <ele>24.0</ele>
      </trkpt>
      <trkpt lat="42.61989" lon="-8.92343">
        <ele>21.0</ele>
      </trkpt>
      <trkpt lat="42.6205" lon="-8.92391">
        <ele>19.0</ele>
      </trkpt>
      <trkpt lat="42.62077" lon="-8.92381">
        <ele>18.0</ele>
      </trkpt>
      <trkpt lat="42.62102" lon="-8.923">
        <ele>17.0</ele>
      </trkpt>
      <trkpt lat="42.62178" lon="-8.92217">
        <ele>17.0</ele>
      </trkpt>
      <trkpt lat="42.62273" lon="-8.92112">
        <ele>17.0</ele>
      </trkpt>
      <trkpt lat="42.6245" lon="-8.91933">
        <ele>22.0</ele>
      </trkpt>
      <trkpt lat="42.62584" lon="-8.91825">
        <ele>25.0</ele>
      </trkpt>
      <trkpt lat="42.62649" lon="-8.91717">
        <ele>24.0</ele>
      </trkpt>
      <trkpt lat="42.62738" lon="-8.91546">
        <ele>23.0</ele>
      </trkpt>
      <trkpt lat="42.62779" lon="-8.91442">
        <ele>26.0</ele>
      </trkpt>
      <trkpt lat="42.62831" lon="-8.91409">
        <ele>26.0</ele>
      </trkpt>
      <trkpt lat="42.62943" lon="-8.91258">
        <ele>23.0</ele>
      </trkpt>
      <trkpt lat="42.62973" lon="-8.91156">
        <ele>19.0</ele>
      </trkpt>
      <trkpt lat="42.63041" lon="-8.91039">
        <ele>15.0</ele>
      </trkpt>
      <trkpt lat="42.63072" lon="-8.90973">
        <ele>15.0</ele>
      </trkpt>
      <trkpt lat="42.63118" lon="-8.90822">
        <ele>15.0</ele>
      </trkpt>
      <trkpt lat="42.63179" lon="-8.90812">
        <ele>16.0</ele>
      </trkpt>
      <trkpt lat="42.63233" lon="-8.90793">
        <ele>17.0</ele>
      </trkpt>
      <trkpt lat="42.63257" lon="-8.90678">
        <ele>17.0</ele>
      </trkpt>
      <trkpt lat="42.63292" lon="-8.90568">
        <ele>18.0</ele>
      </trkpt>
      <trkpt lat="42.63343" lon="-8.90483">
        <ele>19.0</ele>
      </trkpt>
      <trkpt lat="42.63418" lon="-8.90462">
        <ele>19.0</ele>
      </trkpt>
      <trkpt lat="42.63611" lon="-8.90472">
        <ele>19.0</ele>
      </trkpt>
      <trkpt lat="42.63734" lon="-8.9046">
        <ele>17.0</ele>
      </trkpt>
      <trkpt lat="42.63794" lon="-8.9041">
        <ele>16.0</ele>
      </trkpt>
      <trkpt lat="42.6382" lon="-8.90218">
        <ele>15.0</ele>
      </trkpt>
      <trkpt lat="42.63922" lon="-8.90163">
        <ele>11.0</ele>
      </trkpt>
      <trkpt lat="42.64049" lon="-8.90055">
        <ele>7.0</ele>
      </trkpt>
      <trkpt lat="42.64139" lon="-8.89725">
        <ele>5.0</ele>
      </trkpt>
      <trkpt lat="42.64171" lon="-8.89592">
        <ele>5.0</ele>
      </trkpt>
      <trkpt lat="42.6418" lon="-8.89441">
        <ele>5.0</ele>
      </trkpt>
      <trkpt lat="42.64214" lon="-8.89306">
        <ele>6.0</ele>
      </trkpt>
      <trkpt lat="42.64323" lon="-8.89201">
        <ele>10.0</ele>
      </trkpt>
      <trkpt lat="42.64468" lon="-8.89086">
        <ele>13.0</ele>
      </trkpt>
      <trkpt lat="42.6448" lon="-8.89062">
        <ele>14.0</ele>
      </trkpt>
      <trkpt lat="42.64531" lon="-8.89023">
        <ele>15.0</ele>
      </trkpt>
      <trkpt lat="42.64586" lon="-8.88947">
        <ele>16.0</ele>
      </trkpt>
      <trkpt lat="42.64624" lon="-8.88805">
        <ele>18.0</ele>
      </trkpt>
      <trkpt lat="42.64672" lon="-8.88625">
        <ele>21.0</ele>
      </trkpt>
      <trkpt lat="42.64744" lon="-8.88357">
        <ele>23.0</ele>
      </trkpt>
      <trkpt lat="42.64782" lon="-8.88215">
        <ele>25.0</ele>
      </trkpt>
      <trkpt lat="42.64859" lon="-8.88105">
        <ele>27.0</ele>
      </trkpt>
      <trkpt lat="42.64967" lon="-8.88016">
        <ele>32.0</ele>
      </trkpt>
      <trkpt lat="42.65119" lon="-8.87927">
        <ele>39.0</ele>
      </trkpt>
      <trkpt lat="42.6512" lon="-8.87903">
        <ele>40.0</ele>
      </trkpt>
      <trkpt lat="42.65136" lon="-8.87892">
        <ele>41.0</ele>
      </trkpt>
      <trkpt lat="42.65227" lon="-8.87905">
        <ele>42.0</ele>
      </trkpt>
      <trkpt lat="42.65352" lon="-8.87888">
        <ele>43.0</ele>
      </trkpt>
      <trkpt lat="42.65466" lon="-8.87643">
        <ele>44.0</ele>
      </trkpt>
      <trkpt lat="42.65577" lon="-8.87559">
        <ele>45.0</ele>
      </trkpt>
      <trkpt lat="42.65698" lon="-8.87462">
        <ele>49.0</ele>
      </trkpt>
      <trkpt lat="42.658" lon="-8.87355">
        <ele>54.0</ele>
      </trkpt>
      <trkpt lat="42.65967" lon="-8.87291">
        <ele>60.0</ele>
      </trkpt>
      <trkpt lat="42.66097" lon="-8.87206">
        <ele>64.0</ele>
      </trkpt>
      <trkpt lat="42.6614" lon="-8.87132">
        <ele>67.0</ele>
      </trkpt>
      <trkpt lat="42.66154" lon="-8.87116">
        <ele>68.0</ele>
      </trkpt>
      <trkpt lat="42.66183" lon="-8.87115">
        <ele>69.0</ele>
      </trkpt>
      <trkpt lat="42.66338" lon="-8.87075">
        <ele>75.0</ele>
      </trkpt>
      <trkpt lat="42.66372" lon="-8.87072">
        <ele>79.0</ele>
      </trkpt>
      <trkpt lat="42.66414" lon="-8.87073">
        <ele>82.0</ele>
      </trkpt>
      <trkpt lat="42.66659" lon="-8.8711">
        <ele>96.0</ele>
      </trkpt>
      <trkpt lat="42.66724" lon="-8.8698">
        <ele>101.0</ele>
      </trkpt>
      <trkpt lat="42.66773" lon="-8.86925">
        <ele>100.0</ele>
      </trkpt>
      <trkpt lat="42.67118" lon="-8.86736">
        <ele>89.0</ele>
      </trkpt>
      <trkpt lat="42.67427" lon="-8.86515">
        <ele>77.0</ele>
      </trkpt>
      <trkpt lat="42.6754" lon="-8.86481">
        <ele>72.0</ele>
      </trkpt>
      <trkpt lat="42.67618" lon="-8.86409">
        <ele>67.0</ele>
      </trkpt>
      <trkpt lat="42.67629" lon="-8.86207">
        <ele>59.0</ele>
      </trkpt>
      <trkpt lat="42.6759" lon="-8.86132">
        <ele>54.0</ele>
      </trkpt>
      <trkpt lat="42.67599" lon="-8.85958">
        <ele>49.0</ele>
      </trkpt>
      <trkpt lat="42.6762" lon="-8.85847">
        <ele>45.0</ele>
      </trkpt>
      <trkpt lat="42.67798" lon="-8.8563">
        <ele>42.0</ele>
      </trkpt>
      <trkpt lat="42.67835" lon="-8.85514">
        <ele>38.0</ele>
      </trkpt>
      <trkpt lat="42.67827" lon="-8.85385">
        <ele>35.0</ele>
      </trkpt>
      <trkpt lat="42.67867" lon="-8.85292">
        <ele>31.0</ele>
      </trkpt>
      <trkpt lat="42.67958" lon="-8.85257">
        <ele>27.0</ele>
      </trkpt>
      <trkpt lat="42.68232" lon="-8.85176">
        <ele>19.0</ele>
      </trkpt>
      <trkpt lat="42.6826" lon="-8.85099">
        <ele>19.0</ele>
      </trkpt>
      <trkpt lat="42.68196" lon="-8.84951">
        <ele>21.0</ele>
      </trkpt>
      <trkpt lat="42.68226" lon="-8.84821">
        <ele>25.0</ele>
      </trkpt>
      <trkpt lat="42.68302" lon="-8.84762">
        <ele>27.0</ele>
      </trkpt>
      <trkpt lat="42.68434" lon="-8.84716">
        <ele>28.0</ele>
      </trkpt>
      <trkpt lat="42.685" lon="-8.84609">
        <ele>23.0</ele>
      </trkpt>
      <trkpt lat="42.68517" lon="-8.84484">
        <ele>18.0</ele>
      </trkpt>
      <trkpt lat="42.68544" lon="-8.84449">
        <ele>15.0</ele>
      </trkpt>
      <trkpt lat="42.68633" lon="-8.8446">
        <ele>12.0</ele>
      </trkpt>
      <trkpt lat="42.68699" lon="-8.84524">
        <ele>8.0</ele>
      </trkpt>
      <trkpt lat="42.68747" lon="-8.84531">
        <ele>7.0</ele>
      </trkpt>
      <trkpt lat="42.68763" lon="-8.84483">
        <ele>7.0</ele>
      </trkpt>
      <trkpt lat="42.68749" lon="-8.84142">
        <ele>6.0</ele>
      </trkpt>
      <trkpt lat="42.68716" lon="-8.84075">
        <ele>7.0</ele>
      </trkpt>
      <trkpt lat="42.6862" lon="-8.84014">
        <ele>11.0</ele>
      </trkpt>
      <trkpt lat="42.68612" lon="-8.83881">
        <ele>15.0</ele>
      </trkpt>
      <trkpt lat="42.68542" lon="-8.83804">
        <ele>20.0</ele>
      </trkpt>
      <trkpt lat="42.68523" lon="-8.83717">
        <ele>23.0</ele>
      </trkpt>
      <trkpt lat="42.6852" lon="-8.83601">
        <ele>26.0</ele>
      </trkpt>
      <trkpt lat="42.68449" lon="-8.83515">
        <ele>30.0</ele>
      </trkpt>
      <trkpt lat="42.6836" lon="-8.83515">
        <ele>38.0</ele>
      </trkpt>
      <trkpt lat="42.68292" lon="-8.83514">
        <ele>42.0</ele>
      </trkpt>
      <trkpt lat="42.6824" lon="-8.83459">
        <ele>44.0</ele>
      </trkpt>
      <trkpt lat="42.68222" lon="-8.83362">
        <ele>46.0</ele>
      </trkpt>
      <trkpt lat="42.68187" lon="-8.83265">
        <ele>46.0</ele>
      </trkpt>
      <trkpt lat="42.68139" lon="-8.83207">
        <ele>46.0</ele>
      </trkpt>
      <trkpt lat="42.68003" lon="-8.83116">
        <ele>46.0</ele>
      </trkpt>
      <trkpt lat="42.67861" lon="-8.83039">
        <ele>46.0</ele>
      </trkpt>
      <trkpt lat="42.67685" lon="-8.82885">
        <ele>46.0</ele>
      </trkpt>
      <trkpt lat="42.6758" lon="-8.82833">
        <ele>49.0</ele>
      </trkpt>
      <trkpt lat="42.67523" lon="-8.82773">
        <ele>53.0</ele>
      </trkpt>
      <trkpt lat="42.67482" lon="-8.82635">
        <ele>58.0</ele>
      </trkpt>
      <trkpt lat="42.67428" lon="-8.82536">
        <ele>61.0</ele>
      </trkpt>
      <trkpt lat="42.67435" lon="-8.82448">
        <ele>61.0</ele>
      </trkpt>
      <trkpt lat="42.67507" lon="-8.82398">
        <ele>60.0</ele>
      </trkpt>
      <trkpt lat="42.67609" lon="-8.82334">
        <ele>55.0</ele>
      </trkpt>
      <trkpt lat="42.67771" lon="-8.82143">
        <ele>50.0</ele>
      </trkpt>
      <trkpt lat="42.67937" lon="-8.81947">
        <ele>44.0</ele>
      </trkpt>
      <trkpt lat="42.68059" lon="-8.81779">
        <ele>44.0</ele>
      </trkpt>
      <trkpt lat="42.68036" lon="-8.81705">
        <ele>44.0</ele>
      </trkpt>
      <trkpt lat="42.68041" lon="-8.81568">
        <ele>46.0</ele>
      </trkpt>
      <trkpt lat="42.68087" lon="-8.81425">
        <ele>46.0</ele>
      </trkpt>
      <trkpt lat="42.68183" lon="-8.8128">
        <ele>39.0</ele>
      </trkpt>
      <trkpt lat="42.68261" lon="-8.81172">
        <ele>40.0</ele>
      </trkpt>
      <trkpt lat="42.68414" lon="-8.80884">
        <ele>47.0</ele>
      </trkpt>
      <trkpt lat="42.68542" lon="-8.8064">
        <ele>50.0</ele>
      </trkpt>
      <trkpt lat="42.68627" lon="-8.80359">
        <ele>51.0</ele>
      </trkpt>
      <trkpt lat="42.6872" lon="-8.80256">
        <ele>48.0</ele>
      </trkpt>
      <trkpt lat="42.68737" lon="-8.80169">
        <ele>46.0</ele>
      </trkpt>
      <trkpt lat="42.68751" lon="-8.80057">
        <ele>49.0</ele>
      </trkpt>
      <trkpt lat="42.68878" lon="-8.79773">
        <ele>54.0</ele>
      </trkpt>
      <trkpt lat="42.69041" lon="-8.79701">
        <ele>62.0</ele>
      </trkpt>
      <trkpt lat="42.69132" lon="-8.79787">
        <ele>69.0</ele>
      </trkpt>
      <trkpt lat="42.69214" lon="-8.79885">
        <ele>75.0</ele>
      </trkpt>
      <trkpt lat="42.69299" lon="-8.79903">
        <ele>80.0</ele>
      </trkpt>
      <trkpt lat="42.69337" lon="-8.79803">
        <ele>85.0</ele>
      </trkpt>
      <trkpt lat="42.69376" lon="-8.79767">
        <ele>88.0</ele>
      </trkpt>
      <trkpt lat="42.69487" lon="-8.79768">
        <ele>93.0</ele>
      </trkpt>
      <trkpt lat="42.69504" lon="-8.79715">
        <ele>97.0</ele>
      </trkpt>
      <trkpt lat="42.69463" lon="-8.79581">
        <ele>102.0</ele>
      </trkpt>
      <trkpt lat="42.69461" lon="-8.79504">
        <ele>107.0</ele>
      </trkpt>
      <trkpt lat="42.69606" lon="-8.79395">
        <ele>117.0</ele>
      </trkpt>
      <trkpt lat="42.697" lon="-8.79375">
        <ele>125.0</ele>
      </trkpt>
      <trkpt lat="42.69781" lon="-8.7935">
        <ele>132.0</ele>
      </trkpt>
      <trkpt lat="42.69818" lon="-8.79411">
        <ele>137.0</ele>
      </trkpt>
      <trkpt lat="42.69854" lon="-8.79468">
        <ele>142.0</ele>
      </trkpt>
      <trkpt lat="42.69933" lon="-8.79453">
        <ele>146.0</ele>
      </trkpt>
      <trkpt lat="42.69995" lon="-8.79453">
        <ele>150.0</ele>
      </trkpt>
      <trkpt lat="42.70097" lon="-8.79367">
        <ele>156.0</ele>
      </trkpt>
      <trkpt lat="42.7013" lon="-8.79382">
        <ele>160.0</ele>
      </trkpt>
      <trkpt lat="42.7012" lon="-8.79423">
        <ele>162.0</ele>
      </trkpt>
      <trkpt lat="42.70085" lon="-8.79464">
        <ele>166.0</ele>
      </trkpt>
      <trkpt lat="42.7007" lon="-8.79584">
        <ele>172.0</ele>
      </trkpt>
      <trkpt lat="42.6999" lon="-8.79702">
        <ele>180.0</ele>
      </trkpt>
      <trkpt lat="42.69993" lon="-8.79754">
        <ele>184.0</ele>
      </trkpt>
      <trkpt lat="42.70096" lon="-8.79896">
        <ele>192.0</ele>
      </trkpt>
      <trkpt lat="42.70246" lon="-8.79952">
        <ele>203.0</ele>
      </trkpt>
      <trkpt lat="42.70439" lon="-8.79943">
        <ele>220.0</ele>
      </trkpt>
      <trkpt lat="42.70471" lon="-8.79908">
        <ele>229.0</ele>
      </trkpt>
      <trkpt lat="42.70409" lon="-8.79889">
        <ele>234.0</ele>
      </trkpt>
      <trkpt lat="42.70354" lon="-8.79839">
        <ele>238.0</ele>
      </trkpt>
      <trkpt lat="42.70326" lon="-8.79775">
        <ele>242.0</ele>
      </trkpt>
      <trkpt lat="42.70354" lon="-8.79742">
        <ele>243.0</ele>
      </trkpt>
      <trkpt lat="42.70493" lon="-8.79789">
        <ele>245.0</ele>
      </trkpt>
      <trkpt lat="42.70656" lon="-8.79854">
        <ele>252.0</ele>
      </trkpt>
      <trkpt lat="42.70838" lon="-8.79841">
        <ele>262.0</ele>
      </trkpt>
      <trkpt lat="42.70952" lon="-8.79818">
        <ele>275.0</ele>
      </trkpt>
      <trkpt lat="42.70948" lon="-8.79729">
        <ele>278.0</ele>
      </trkpt>
      <trkpt lat="42.7091" lon="-8.79603">
        <ele>282.0</ele>
      </trkpt>
      <trkpt lat="42.70932" lon="-8.7954">
        <ele>287.0</ele>
      </trkpt>
      <trkpt lat="42.71048" lon="-8.79552">
        <ele>297.0</ele>
      </trkpt>
      <trkpt lat="42.71154" lon="-8.79628">
        <ele>305.0</ele>
      </trkpt>
      <trkpt lat="42.71198" lon="-8.79634">
        <ele>309.0</ele>
      </trkpt>
      <trkpt lat="42.71268" lon="-8.7957">
        <ele>313.0</ele>
      </trkpt>
      <trkpt lat="42.71361" lon="-8.79577">
        <ele>317.0</ele>
      </trkpt>
      <trkpt lat="42.71465" lon="-8.79585">
        <ele>322.0</ele>
      </trkpt>
      <trkpt lat="42.71542" lon="-8.79544">
        <ele>322.0</ele>
      </trkpt>
      <trkpt lat="42.7156" lon="-8.79505">
        <ele>322.0</ele>
      </trkpt>
      <trkpt lat="42.71556" lon="-8.79436">
        <ele>323.0</ele>
      </trkpt>
      <trkpt lat="42.71606" lon="-8.79376">
        <ele>325.0</ele>
      </trkpt>
      <trkpt lat="42.71733" lon="-8.79387">
        <ele>329.0</ele>
      </trkpt>
      <trkpt lat="42.71934" lon="-8.79463">
        <ele>340.0</ele>
      </trkpt>
      <trkpt lat="42.71976" lon="-8.79462">
        <ele>345.0</ele>
      </trkpt>
      <trkpt lat="42.71991" lon="-8.79399">
        <ele>346.0</ele>
      </trkpt>
      <trkpt lat="42.71961" lon="-8.7932">
        <ele>348.0</ele>
      </trkpt>
      <trkpt lat="42.71906" lon="-8.79148">
        <ele>351.0</ele>
      </trkpt>
      <trkpt lat="42.71901" lon="-8.79065">
        <ele>353.0</ele>
      </trkpt>
      <trkpt lat="42.71948" lon="-8.78985">
        <ele>356.0</ele>
      </trkpt>
      <trkpt lat="42.71972" lon="-8.78903">
        <ele>358.0</ele>
      </trkpt>
      <trkpt lat="42.72014" lon="-8.78828">
        <ele>362.0</ele>
      </trkpt>
      <trkpt lat="42.72059" lon="-8.7881">
        <ele>365.0</ele>
      </trkpt>
      <trkpt lat="42.72117" lon="-8.78807">
        <ele>369.0</ele>
      </trkpt>
      <trkpt lat="42.72192" lon="-8.78767">
        <ele>373.0</ele>
      </trkpt>
      <trkpt lat="42.72225" lon="-8.78728">
        <ele>377.0</ele>
      </trkpt>
      <trkpt lat="42.72276" lon="-8.78669">
        <ele>381.0</ele>
      </trkpt>
      <trkpt lat="42.72399" lon="-8.78644">
        <ele>387.0</ele>
      </trkpt>
      <trkpt lat="42.72475" lon="-8.78588">
        <ele>392.0</ele>
      </trkpt>
      <trkpt lat="42.72494" lon="-8.78464">
        <ele>392.0</ele>
      </trkpt>
      <trkpt lat="42.72424" lon="-8.78303">
        <ele>392.0</ele>
      </trkpt>
      <trkpt lat="42.72346" lon="-8.78215">
        <ele>392.0</ele>
      </trkpt>
      <trkpt lat="42.72351" lon="-8.78133">
        <ele>392.0</ele>
      </trkpt>
      <trkpt lat="42.72453" lon="-8.78123">
        <ele>393.0</ele>
      </trkpt>
      <trkpt lat="42.72698" lon="-8.78279">
        <ele>399.0</ele>
      </trkpt>
      <trkpt lat="42.72749" lon="-8.7827">
        <ele>404.0</ele>
      </trkpt>
      <trkpt lat="42.72792" lon="-8.78211">
        <ele>408.0</ele>
      </trkpt>
      <trkpt lat="42.72883" lon="-8.78217">
        <ele>413.0</ele>
      </trkpt>
      <trkpt lat="42.72952" lon="-8.78268">
        <ele>418.0</ele>
      </trkpt>
      <trkpt lat="42.73" lon="-8.78392">
        <ele>425.0</ele>
      </trkpt>
      <trkpt lat="42.73023" lon="-8.78389">
        <ele>428.0</ele>
      </trkpt>
      <trkpt lat="42.73105" lon="-8.78245">
        <ele>433.0</ele>
      </trkpt>
      <trkpt lat="42.73217" lon="-8.78113">
        <ele>442.0</ele>
      </trkpt>
      <trkpt lat="42.73332" lon="-8.78093">
        <ele>445.0</ele>
      </trkpt>
      <trkpt lat="42.73436" lon="-8.78064">
        <ele>448.0</ele>
      </trkpt>
      <trkpt lat="42.7355" lon="-8.78125">
        <ele>449.0</ele>
      </trkpt>
      <trkpt lat="42.73602" lon="-8.78146">
        <ele>450.0</ele>
      </trkpt>
      <trkpt lat="42.73674" lon="-8.78044">
        <ele>449.0</ele>
      </trkpt>
      <trkpt lat="42.73734" lon="-8.78006">
        <ele>448.0</ele>
      </trkpt>
      <trkpt lat="42.7379" lon="-8.77998">
        <ele>446.0</ele>
      </trkpt>
      <trkpt lat="42.73846" lon="-8.77859">
        <ele>444.0</ele>
      </trkpt>
      <trkpt lat="42.73942" lon="-8.77707">
        <ele>441.0</ele>
      </trkpt>
      <trkpt lat="42.74003" lon="-8.7761">
        <ele>440.0</ele>
      </trkpt>
      <trkpt lat="42.74004" lon="-8.7757">
        <ele>439.0</ele>
      </trkpt>
      <trkpt lat="42.73892" lon="-8.77487">
        <ele>439.0</ele>
      </trkpt>
      <trkpt lat="42.73809" lon="-8.77378">
        <ele>439.0</ele>
      </trkpt>
      <trkpt lat="42.73808" lon="-8.7733">
        <ele>439.0</ele>
      </trkpt>
      <trkpt lat="42.73884" lon="-8.77125">
        <ele>443.0</ele>
      </trkpt>
      <trkpt lat="42.73931" lon="-8.77025">
        <ele>448.0</ele>
      </trkpt>
      <trkpt lat="42.7401" lon="-8.7696">
        <ele>452.0</ele>
      </trkpt>
      <trkpt lat="42.74055" lon="-8.76903">
        <ele>455.0</ele>
      </trkpt>
      <trkpt lat="42.7413" lon="-8.76779">
        <ele>460.0</ele>
      </trkpt>
      <trkpt lat="42.74228" lon="-8.76712">
        <ele>464.0</ele>
      </trkpt>
      <trkpt lat="42.74279" lon="-8.76728">
        <ele>465.0</ele>
      </trkpt>
      <trkpt lat="42.74374" lon="-8.76693">
        <ele>465.0</ele>
      </trkpt>
      <trkpt lat="42.74385" lon="-8.76659">
        <ele>465.0</ele>
      </trkpt>
      <trkpt lat="42.74357" lon="-8.76577">
        <ele>465.0</ele>
      </trkpt>
      <trkpt lat="42.74404" lon="-8.76508">
        <ele>465.0</ele>
      </trkpt>
      <trkpt lat="42.74623" lon="-8.76472">
        <ele>465.0</ele>
      </trkpt>
      <trkpt lat="42.74932" lon="-8.76238">
        <ele>450.0</ele>
      </trkpt>
      <trkpt lat="42.75145" lon="-8.76197">
        <ele>442.0</ele>
      </trkpt>
      <trkpt lat="42.75231" lon="-8.7615">
        <ele>439.0</ele>
      </trkpt>
      <trkpt lat="42.75339" lon="-8.76166">
        <ele>435.0</ele>
      </trkpt>
      <trkpt lat="42.75497" lon="-8.76106">
        <ele>430.0</ele>
      </trkpt>
      <trkpt lat="42.75642" lon="-8.76026">
        <ele>424.0</ele>
      </trkpt>
      <trkpt lat="42.75764" lon="-8.76044">
        <ele>422.0</ele>
      </trkpt>
      <trkpt lat="42.75843" lon="-8.75932">
        <ele>421.0</ele>
      </trkpt>
      <trkpt lat="42.75964" lon="-8.75854">
        <ele>414.0</ele>
      </trkpt>
      <trkpt lat="42.76138" lon="-8.75971">
        <ele>402.0</ele>
      </trkpt>
      <trkpt lat="42.76191" lon="-8.76052">
        <ele>390.0</ele>
      </trkpt>
      <trkpt lat="42.76566" lon="-8.75961">
        <ele>375.0</ele>
      </trkpt>
      <trkpt lat="42.76942" lon="-8.76037">
        <ele>368.0</ele>
      </trkpt>
      <trkpt lat="42.76972" lon="-8.76013">
        <ele>363.0</ele>
      </trkpt>
      <trkpt lat="42.77003" lon="-8.7606">
        <ele>360.0</ele>
      </trkpt>
      <trkpt lat="42.77115" lon="-8.76079">
        <ele>356.0</ele>
      </trkpt>
      <trkpt lat="42.77354" lon="-8.76278">
        <ele>360.0</ele>
      </trkpt>
      <trkpt lat="42.7747" lon="-8.76345">
        <ele>365.0</ele>
      </trkpt>
      <trkpt lat="42.77619" lon="-8.76404">
        <ele>366.0</ele>
      </trkpt>
      <trkpt lat="42.77836" lon="-8.76774">
        <ele>358.0</ele>
      </trkpt>
      <trkpt lat="42.77934" lon="-8.76717">
        <ele>353.0</ele>
      </trkpt>
      <trkpt lat="42.77988" lon="-8.75916">
        <ele>352.0</ele>
      </trkpt>
      <trkpt lat="42.7838" lon="-8.75651">
        <ele>352.0</ele>
      </trkpt>
      <trkpt lat="42.78455" lon="-8.75575">
        <ele>351.0</ele>
      </trkpt>
      <trkpt lat="42.7871" lon="-8.75167">
        <ele>356.0</ele>
      </trkpt>
      <trkpt lat="42.79145" lon="-8.7454">
        <ele>361.0</ele>
      </trkpt>
      <trkpt lat="42.79353" lon="-8.74223">
        <ele>374.0</ele>
      </trkpt>
      <trkpt lat="42.79474" lon="-8.73986">
        <ele>380.0</ele>
      </trkpt>
      <trkpt lat="42.79372" lon="-8.73824">
        <ele>377.0</ele>
      </trkpt>
      <trkpt lat="42.79289" lon="-8.73727">
        <ele>369.0</ele>
      </trkpt>
      <trkpt lat="42.79218" lon="-8.73633">
        <ele>362.0</ele>
      </trkpt>
      <trkpt lat="42.79058" lon="-8.73674">
        <ele>355.0</ele>
      </trkpt>
      <trkpt lat="42.79001" lon="-8.73653">
        <ele>348.0</ele>
      </trkpt>
      <trkpt lat="42.79008" lon="-8.73552">
        <ele>343.0</ele>
      </trkpt>
      <trkpt lat="42.79002" lon="-8.73464">
        <ele>338.0</ele>
      </trkpt>
      <trkpt lat="42.78807" lon="-8.73373">
        <ele>329.0</ele>
      </trkpt>
      <trkpt lat="42.78706" lon="-8.73389">
        <ele>321.0</ele>
      </trkpt>
      <trkpt lat="42.78637" lon="-8.73266">
        <ele>315.0</ele>
      </trkpt>
      <trkpt lat="42.78558" lon="-8.7313">
        <ele>305.0</ele>
      </trkpt>
      <trkpt lat="42.78449" lon="-8.73031">
        <ele>296.0</ele>
      </trkpt>
      <trkpt lat="42.78464" lon="-8.72924">
        <ele>289.0</ele>
      </trkpt>
      <trkpt lat="42.78416" lon="-8.72824">
        <ele>283.0</ele>
      </trkpt>
      <trkpt lat="42.78443" lon="-8.72725">
        <ele>279.0</ele>
      </trkpt>
      <trkpt lat="42.78384" lon="-8.7269">
        <ele>275.0</ele>
      </trkpt>
      <trkpt lat="42.78194" lon="-8.72732">
        <ele>266.0</ele>
      </trkpt>
      <trkpt lat="42.78113" lon="-8.7265">
        <ele>259.0</ele>
      </trkpt>
      <trkpt lat="42.78066" lon="-8.72543">
        <ele>252.0</ele>
      </trkpt>
      <trkpt lat="42.78152" lon="-8.72375">
        <ele>243.0</ele>
      </trkpt>
      <trkpt lat="42.78037" lon="-8.72197">
        <ele>233.0</ele>
      </trkpt>
      <trkpt lat="42.77912" lon="-8.72194">
        <ele>226.0</ele>
      </trkpt>
      <trkpt lat="42.77865" lon="-8.72139">
        <ele>223.0</ele>
      </trkpt>
      <trkpt lat="42.77805" lon="-8.71968">
        <ele>218.0</ele>
      </trkpt>
      <trkpt lat="42.777" lon="-8.71906">
        <ele>212.0</ele>
      </trkpt>
      <trkpt lat="42.77635" lon="-8.71815">
        <ele>206.0</ele>
      </trkpt>
      <trkpt lat="42.77483" lon="-8.717">
        <ele>197.0</ele>
      </trkpt>
      <trkpt lat="42.77244" lon="-8.71394">
        <ele>186.0</ele>
      </trkpt>
      <trkpt lat="42.77113" lon="-8.71347">
        <ele>178.0</ele>
      </trkpt>
      <trkpt lat="42.77026" lon="-8.71361">
        <ele>172.0</ele>
      </trkpt>
      <trkpt lat="42.76992" lon="-8.71312">
        <ele>167.0</ele>
      </trkpt>
      <trkpt lat="42.76958" lon="-8.71174">
        <ele>160.0</ele>
      </trkpt>
      <trkpt lat="42.7679" lon="-8.70977">
        <ele>149.0</ele>
      </trkpt>
      <trkpt lat="42.76715" lon="-8.70902">
        <ele>141.0</ele>
      </trkpt>
      <trkpt lat="42.76701" lon="-8.70764">
        <ele>134.0</ele>
      </trkpt>
      <trkpt lat="42.76682" lon="-8.70628">
        <ele>127.0</ele>
      </trkpt>
      <trkpt lat="42.76582" lon="-8.7058">
        <ele>122.0</ele>
      </trkpt>
      <trkpt lat="42.76531" lon="-8.70516">
        <ele>115.0</ele>
      </trkpt>
      <trkpt lat="42.76489" lon="-8.70535">
        <ele>111.0</ele>
      </trkpt>
      <trkpt lat="42.7625" lon="-8.70643">
        <ele>97.0</ele>
      </trkpt>
      <trkpt lat="42.76171" lon="-8.7061">
        <ele>84.0</ele>
      </trkpt>
      <trkpt lat="42.76119" lon="-8.70477">
        <ele>76.0</ele>
      </trkpt>
      <trkpt lat="42.76087" lon="-8.70279">
        <ele>64.0</ele>
      </trkpt>
      <trkpt lat="42.7602" lon="-8.7023">
        <ele>59.0</ele>
      </trkpt>
      <trkpt lat="42.75972" lon="-8.70121">
        <ele>58.0</ele>
      </trkpt>
      <trkpt lat="42.7605" lon="-8.69902">
        <ele>54.0</ele>
      </trkpt>
      <trkpt lat="42.76078" lon="-8.69651">
        <ele>52.0</ele>
      </trkpt>
      <trkpt lat="42.7614" lon="-8.69459">
        <ele>52.0</ele>
      </trkpt>
      <trkpt lat="42.76238" lon="-8.69306">
        <ele>53.0</ele>
      </trkpt>
      <trkpt lat="42.76245" lon="-8.69268">
        <ele>56.0</ele>
      </trkpt>
      <trkpt lat="42.76204" lon="-8.69198">
        <ele>60.0</ele>
      </trkpt>
      <trkpt lat="42.7615" lon="-8.69167">
        <ele>66.0</ele>
      </trkpt>
      <trkpt lat="42.76098" lon="-8.69249">
        <ele>71.0</ele>
      </trkpt>
      <trkpt lat="42.76006" lon="-8.69304">
        <ele>77.0</ele>
      </trkpt>
      <trkpt lat="42.75939" lon="-8.69385">
        <ele>82.0</ele>
      </trkpt>
      <trkpt lat="42.75936" lon="-8.69425">
        <ele>84.0</ele>
      </trkpt>
      <trkpt lat="42.75982" lon="-8.69562">
        <ele>89.0</ele>
      </trkpt>
      <trkpt lat="42.75968" lon="-8.69623">
        <ele>95.0</ele>
      </trkpt>
      <trkpt lat="42.75931" lon="-8.69661">
        <ele>101.0</ele>
      </trkpt>
      <trkpt lat="42.75895" lon="-8.6979">
        <ele>110.0</ele>
      </trkpt>
      <trkpt lat="42.75762" lon="-8.70035">
        <ele>123.0</ele>
      </trkpt>
      <trkpt lat="42.75723" lon="-8.70054">
        <ele>129.0</ele>
      </trkpt>
      <trkpt lat="42.75694" lon="-8.70026">
        <ele>132.0</ele>
      </trkpt>
      <trkpt lat="42.75668" lon="-8.69997">
        <ele>135.0</ele>
      </trkpt>
      <trkpt lat="42.75631" lon="-8.70004">
        <ele>137.0</ele>
      </trkpt>
      <trkpt lat="42.75533" lon="-8.70346">
        <ele>141.0</ele>
      </trkpt>
      <trkpt lat="42.75462" lon="-8.70449">
        <ele>146.0</ele>
      </trkpt>
      <trkpt lat="42.75415" lon="-8.70467">
        <ele>149.0</ele>
      </trkpt>
      <trkpt lat="42.75253" lon="-8.70226">
        <ele>153.0</ele>
      </trkpt>
      <trkpt lat="42.75221" lon="-8.70194">
        <ele>156.0</ele>
      </trkpt>
      <trkpt lat="42.75016" lon="-8.70163">
        <ele>151.0</ele>
      </trkpt>
      <trkpt lat="42.74857" lon="-8.70163">
        <ele>145.0</ele>
      </trkpt>
      <trkpt lat="42.74789" lon="-8.70076">
        <ele>142.0</ele>
      </trkpt>
      <trkpt lat="42.7476" lon="-8.69991">
        <ele>139.0</ele>
      </trkpt>
      <trkpt lat="42.74683" lon="-8.6993">
        <ele>132.0</ele>
      </trkpt>
      <trkpt lat="42.74642" lon="-8.69817">
        <ele>125.0</ele>
      </trkpt>
      <trkpt lat="42.74607" lon="-8.69796">
        <ele>123.0</ele>
      </trkpt>
      <trkpt lat="42.74538" lon="-8.6982">
        <ele>122.0</ele>
      </trkpt>
      <trkpt lat="42.74453" lon="-8.69812">
        <ele>120.0</ele>
      </trkpt>
      <trkpt lat="42.743" lon="-8.69887">
        <ele>110.0</ele>
      </trkpt>
      <trkpt lat="42.74236" lon="-8.6993">
        <ele>100.0</ele>
      </trkpt>
      <trkpt lat="42.74198" lon="-8.69936">
        <ele>96.0</ele>
      </trkpt>
      <trkpt lat="42.74185" lon="-8.69999">
        <ele>92.0</ele>
      </trkpt>
      <trkpt lat="42.74157" lon="-8.70052">
        <ele>90.0</ele>
      </trkpt>
      <trkpt lat="42.7407" lon="-8.70033">
        <ele>93.0</ele>
      </trkpt>
      <trkpt lat="42.73938" lon="-8.70032">
        <ele>98.0</ele>
      </trkpt>
      <trkpt lat="42.73747" lon="-8.70104">
        <ele>104.0</ele>
      </trkpt>
      <trkpt lat="42.73397" lon="-8.7042">
        <ele>122.0</ele>
      </trkpt>
      <trkpt lat="42.73261" lon="-8.7058">
        <ele>120.0</ele>
      </trkpt>
      <trkpt lat="42.73042" lon="-8.70743">
        <ele>109.0</ele>
      </trkpt>
      <trkpt lat="42.72989" lon="-8.70838">
        <ele>101.0</ele>
      </trkpt>
      <trkpt lat="42.72949" lon="-8.70885">
        <ele>99.0</ele>
      </trkpt>
      <trkpt lat="42.72917" lon="-8.70869">
        <ele>98.0</ele>
      </trkpt>
      <trkpt lat="42.72868" lon="-8.70874">
        <ele>97.0</ele>
      </trkpt>
      <trkpt lat="42.72822" lon="-8.7091">
        <ele>95.0</ele>
      </trkpt>
      <trkpt lat="42.72624" lon="-8.71145">
        <ele>82.0</ele>
      </trkpt>
      <trkpt lat="42.72468" lon="-8.7125">
        <ele>67.0</ele>
      </trkpt>
      <trkpt lat="42.72498" lon="-8.71293">
        <ele>61.0</ele>
      </trkpt>
      <trkpt lat="42.72455" lon="-8.71373">
        <ele>54.0</ele>
      </trkpt>
      <trkpt lat="42.72346" lon="-8.71299">
        <ele>45.0</ele>
      </trkpt>
      <trkpt lat="42.72214" lon="-8.711">
        <ele>36.0</ele>
      </trkpt>
      <trkpt lat="42.71968" lon="-8.71239">
        <ele>23.0</ele>
      </trkpt>
      <trkpt lat="42.71697" lon="-8.71371">
        <ele>8.0</ele>
      </trkpt>
      <trkpt lat="42.7164" lon="-8.7098">
        <ele>4.0</ele>
      </trkpt>
      <trkpt lat="42.71569" lon="-8.70494">
        <ele>9.0</ele>
      </trkpt>
      <trkpt lat="42.71543" lon="-8.70118">
        <ele>13.0</ele>
      </trkpt>
      <trkpt lat="42.71465" lon="-8.69585">
        <ele>10.0</ele>
      </trkpt>
      <trkpt lat="42.71448" lon="-8.6942">
        <ele>9.0</ele>
      </trkpt>
      <trkpt lat="42.71523" lon="-8.69193">
        <ele>8.0</ele>
      </trkpt>
      <trkpt lat="42.71635" lon="-8.68868">
        <ele>12.0</ele>
      </trkpt>
      <trkpt lat="42.71682" lon="-8.68774">
        <ele>15.0</ele>
      </trkpt>
      <trkpt lat="42.71766" lon="-8.68662">
        <ele>16.0</ele>
      </trkpt>
      <trkpt lat="42.71964" lon="-8.68403">
        <ele>17.0</ele>
      </trkpt>
      <trkpt lat="42.72089" lon="-8.68225">
        <ele>22.0</ele>
      </trkpt>
      <trkpt lat="42.72115" lon="-8.68097">
        <ele>21.0</ele>
      </trkpt>
      <trkpt lat="42.72211" lon="-8.67998">
        <ele>19.0</ele>
      </trkpt>
      <trkpt lat="42.72389" lon="-8.67823">
        <ele>12.0</ele>
      </trkpt>
      <trkpt lat="42.72478" lon="-8.67683">
        <ele>10.0</ele>
      </trkpt>
      <trkpt lat="42.72559" lon="-8.67533">
        <ele>8.0</ele>
      </trkpt>
      <trkpt lat="42.7259" lon="-8.67526">
        <ele>8.0</ele>
      </trkpt>
      <trkpt lat="42.7264" lon="-8.67498">
        <ele>7.0</ele>
      </trkpt>
      <trkpt lat="42.72683" lon="-8.67473">
        <ele>7.0</ele>
      </trkpt>
      <trkpt lat="42.72807" lon="-8.67395">
        <ele>7.0</ele>
      </trkpt>
      <trkpt lat="42.72961" lon="-8.67279">
        <ele>9.0</ele>
      </trkpt>
      <trkpt lat="42.73136" lon="-8.67036">
        <ele>14.0</ele>
      </trkpt>
      <trkpt lat="42.73246" lon="-8.66884">
        <ele>13.0</ele>
      </trkpt>
      <trkpt lat="42.73347" lon="-8.66684">
        <ele>13.0</ele>
      </trkpt>
      <trkpt lat="42.7353" lon="-8.66545">
        <ele>15.0</ele>
      </trkpt>
      <trkpt lat="42.73613" lon="-8.6648">
        <ele>13.0</ele>
      </trkpt>
      <trkpt lat="42.73659" lon="-8.66409">
        <ele>11.0</ele>
      </trkpt>
      <trkpt lat="42.73739" lon="-8.66361">
        <ele>9.0</ele>
      </trkpt>
      <trkpt lat="42.73852" lon="-8.66279">
        <ele>8.0</ele>
      </trkpt>
      <trkpt lat="42.7395" lon="-8.66295">
        <ele>7.0</ele>
      </trkpt>
      <trkpt lat="42.74002" lon="-8.66344">
        <ele>8.0</ele>
      </trkpt>
      <trkpt lat="42.7405" lon="-8.66429">
        <ele>10.0</ele>
      </trkpt>
      <trkpt lat="42.74095" lon="-8.66463">
        <ele>14.0</ele>
      </trkpt>
      <trkpt lat="42.74217" lon="-8.66418">
        <ele>18.0</ele>
      </trkpt>
      <trkpt lat="42.74317" lon="-8.66457">
        <ele>20.0</ele>
      </trkpt>
      <trkpt lat="42.74413" lon="-8.66537">
        <ele>21.0</ele>
      </trkpt>
      <trkpt lat="42.74536" lon="-8.66661">
        <ele>21.0</ele>
      </trkpt>
      <trkpt lat="42.74799" lon="-8.66836">
        <ele>21.0</ele>
      </trkpt>
      <trkpt lat="42.74948" lon="-8.66895">
        <ele>21.0</ele>
      </trkpt>
      <trkpt lat="42.74998" lon="-8.66941">
        <ele>21.0</ele>
      </trkpt>
      <trkpt lat="42.75008" lon="-8.67008">
        <ele>22.0</ele>
      </trkpt>
      <trkpt lat="42.74989" lon="-8.6709">
        <ele>22.0</ele>
      </trkpt>
      <trkpt lat="42.75006" lon="-8.67222">
        <ele>23.0</ele>
      </trkpt>
      <trkpt lat="42.75083" lon="-8.6732">
        <ele>24.0</ele>
      </trkpt>
      <trkpt lat="42.75315" lon="-8.6753">
        <ele>29.0</ele>
      </trkpt>
      <trkpt lat="42.75379" lon="-8.67596">
        <ele>33.0</ele>
      </trkpt>
      <trkpt lat="42.75471" lon="-8.67709">
        <ele>36.0</ele>
      </trkpt>
      <trkpt lat="42.75535" lon="-8.6776">
        <ele>38.0</ele>
      </trkpt>
      <trkpt lat="42.75566" lon="-8.67752">
        <ele>39.0</ele>
      </trkpt>
      <trkpt lat="42.75608" lon="-8.67694">
        <ele>40.0</ele>
      </trkpt>
      <trkpt lat="42.75693" lon="-8.67498">
        <ele>38.0</ele>
      </trkpt>
      <trkpt lat="42.75729" lon="-8.67159">
        <ele>28.0</ele>
      </trkpt>
      <trkpt lat="42.75716" lon="-8.67002">
        <ele>18.0</ele>
      </trkpt>
      <trkpt lat="42.75726" lon="-8.66973">
        <ele>16.0</ele>
      </trkpt>
      <trkpt lat="42.75694" lon="-8.66778">
        <ele>14.0</ele>
      </trkpt>
      <trkpt lat="42.75541" lon="-8.66314">
        <ele>8.0</ele>
      </trkpt>
      <trkpt lat="42.75531" lon="-8.66222">
        <ele>7.0</ele>
      </trkpt>
      <trkpt lat="42.75546" lon="-8.661">
        <ele>7.0</ele>
      </trkpt>
      <trkpt lat="42.75628" lon="-8.65879">
        <ele>9.0</ele>
      </trkpt>
      <trkpt lat="42.75634" lon="-8.65811">
        <ele>9.0</ele>
      </trkpt>
      <trkpt lat="42.75632" lon="-8.65777">
        <ele>9.0</ele>
      </trkpt>
      <trkpt lat="42.75651" lon="-8.65745">
        <ele>9.0</ele>
      </trkpt>
      <trkpt lat="42.75639" lon="-8.655">
        <ele>9.0</ele>
      </trkpt>
      <trkpt lat="42.75604" lon="-8.65239">
        <ele>11.0</ele>
      </trkpt>
      <trkpt lat="42.75566" lon="-8.65203">
        <ele>13.0</ele>
      </trkpt>
      <trkpt lat="42.7538" lon="-8.65273">
        <ele>14.0</ele>
      </trkpt>
      <trkpt lat="42.75186" lon="-8.65351">
        <ele>14.0</ele>
      </trkpt>
      <trkpt lat="42.75038" lon="-8.6547">
        <ele>14.0</ele>
      </trkpt>
      <trkpt lat="42.7495" lon="-8.65516">
        <ele>12.0</ele>
      </trkpt>
      <trkpt lat="42.74828" lon="-8.6551">
        <ele>11.0</ele>
      </trkpt>
      <trkpt lat="42.74641" lon="-8.65553">
        <ele>9.0</ele>
      </trkpt>
      <trkpt lat="42.74497" lon="-8.65621">
        <ele>7.0</ele>
      </trkpt>
      <trkpt lat="42.74287" lon="-8.65732">
        <ele>6.0</ele>
      </trkpt>
      <trkpt lat="42.74025" lon="-8.65869">
        <ele>5.0</ele>
      </trkpt>
      <trkpt lat="42.73954" lon="-8.65892">
        <ele>5.0</ele>
      </trkpt>
    </trkseg>
  </trk>
</gpx>