<?xml version="1.0" encoding="UTF-8"?>
<gpx xmlns="http://www.topografix.com/GPX/1/0" xmlns:xsi="http://www.w3.org/2001/XMLSchema-instance" xsi:schemaLocation="http://www.topografix.com/GPX/1/0 http://www.topografix.com/GPX/1/0/gpx.xsd" version="1.0" creator="GPSBabel - https://www.gpsbabel.org">
  <time>2026-02-02T08:40:53.496000Z</time>
  <bounds minlat="46.81235" maxlat="47.0828" minlon="2.45967" maxlon="4.31507" />
  <trk>
    <trkseg>
      <trkpt lat="47.0828" lon="2.45967">
        <ele>141.0</ele>
      </trkpt>
      <trkpt lat="47.08169" lon="2.46294">
        <ele>143.0</ele>
      </trkpt>
      <trkpt lat="47.07798" lon="2.47385">
        <ele>148.0</ele>
      </trkpt>
      <trkpt lat="47.07297" lon="2.48846">
        <ele>152.0</ele>
      </trkpt>
      <trkpt lat="47.06886" lon="2.50045">
        <ele>149.0</ele>
      </trkpt>
      <trkpt lat="47.05977" lon="2.52712">
        <ele>151.0</ele>
      </trkpt>
      <trkpt lat="47.05179" lon="2.55047">
        <ele>151.0</ele>
      </trkpt>
      <trkpt lat="47.04999" lon="2.55494">
        <ele>147.0</ele>
      </trkpt>
      <trkpt lat="47.04646" lon="2.5595">
        <ele>146.0</ele>
      </trkpt>
      <trkpt lat="47.04553" lon="2.56071">
        <ele>145.0</ele>
      </trkpt>
      <trkpt lat="47.04453" lon="2.56231">
        <ele>145.0</ele>
      </trkpt>
      <trkpt lat="47.04423" lon="2.56307">
        <ele>145.0</ele>
      </trkpt>
      <trkpt lat="47.04354" lon="2.56458">
        <ele>143.0</ele>
      </trkpt>
      <trkpt lat="47.04245" lon="2.56678">
        <ele>142.0</ele>
      </trkpt>
      <trkpt lat="47.04174" lon="2.56872">
        <ele>144.0</ele>
      </trkpt>
      <trkpt lat="47.04119" lon="2.57289">
        <ele>147.0</ele>
      </trkpt>
      <trkpt lat="47.03989" lon="2.58281">
        <ele>157.0</ele>
      </trkpt>
      <trkpt lat="47.03745" lon="2.60158">
        <ele>161.0</ele>
      </trkpt>
      <trkpt lat="47.0346" lon="2.62356">
        <ele>158.0</ele>
      </trkpt>
      <trkpt lat="47.03234" lon="2.64054">
        <ele>168.0</ele>
      </trkpt>
      <trkpt lat="47.03222" lon="2.64082">
        <ele>171.0</ele>
      </trkpt>
      <trkpt lat="47.03218" lon="2.64099">
        <ele>171.0</ele>
      </trkpt>
      <trkpt lat="47.03224" lon="2.64122">
        <ele>171.0</ele>
      </trkpt>
      <trkpt lat="47.03177" lon="2.64526">
        <ele>171.0</ele>
      </trkpt>
      <trkpt lat="47.03073" lon="2.65237">
        <ele>171.0</ele>
      </trkpt>
      <trkpt lat="47.02979" lon="2.65572">
        <ele>170.0</ele>
      </trkpt>
      <trkpt lat="47.02249" lon="2.67994">
        <ele>176.0</ele>
      </trkpt>
      <trkpt lat="47.0211" lon="2.68463">
        <ele>180.0</ele>
      </trkpt>
      <trkpt lat="47.01983" lon="2.69324">
        <ele>180.0</ele>
      </trkpt>
      <trkpt lat="47.01929" lon="2.69634">
        <ele>180.0</ele>
      </trkpt>
      <trkpt lat="47.01646" lon="2.71053">
        <ele>179.0</ele>
      </trkpt>
      <trkpt lat="47.01396" lon="2.71996">
        <ele>183.0</ele>
      </trkpt>
      <trkpt lat="47.01328" lon="2.72235">
        <ele>187.0</ele>
      </trkpt>
      <trkpt lat="47.01283" lon="2.72352">
        <ele>187.0</ele>
      </trkpt>
      <trkpt lat="47.01262" lon="2.72435">
        <ele>187.0</ele>
      </trkpt>
      <trkpt lat="47.01255" lon="2.72519">
        <ele>187.0</ele>
      </trkpt>
      <trkpt lat="47.01244" lon="2.7262">
        <ele>187.0</ele>
      </trkpt>
      <trkpt lat="47.012" lon="2.72755">
        <ele>187.0</ele>
      </trkpt>
      <trkpt lat="47.01162" lon="2.72877">
        <ele>188.0</ele>
      </trkpt>
      <trkpt lat="47.00997" lon="2.73498">
        <ele>191.0</ele>
      </trkpt>
      <trkpt lat="47.00921" lon="2.73723">
        <ele>189.0</ele>
      </trkpt>
      <trkpt lat="47.0061" lon="2.74271">
        <ele>189.0</ele>
      </trkpt>
      <trkpt lat="47.0043" lon="2.74586">
        <ele>191.0</ele>
      </trkpt>
      <trkpt lat="47.00353" lon="2.74721">
        <ele>193.0</ele>
      </trkpt>
      <trkpt lat="47.00221" lon="2.74955">
        <ele>195.0</ele>
      </trkpt>
      <trkpt lat="47.00201" lon="2.7508">
        <ele>197.0</ele>
      </trkpt>
      <trkpt lat="47.00204" lon="2.75437">
        <ele>198.0</ele>
      </trkpt>
      <trkpt lat="47.00209" lon="2.76148">
        <ele>194.0</ele>
      </trkpt>
      <trkpt lat="47.00216" lon="2.76897">
        <ele>187.0</ele>
      </trkpt>
      <trkpt lat="47.00191" lon="2.77034">
        <ele>185.0</ele>
      </trkpt>
      <trkpt lat="47.00066" lon="2.77273">
        <ele>185.0</ele>
      </trkpt>
      <trkpt lat="47.00024" lon="2.77361">
        <ele>186.0</ele>
      </trkpt>
      <trkpt lat="46.99995" lon="2.77473">
        <ele>187.0</ele>
      </trkpt>
      <trkpt lat="46.99876" lon="2.78849">
        <ele>186.0</ele>
      </trkpt>
      <trkpt lat="46.99872" lon="2.78946">
        <ele>180.0</ele>
      </trkpt>
      <trkpt lat="46.99903" lon="2.79389">
        <ele>177.0</ele>
      </trkpt>
      <trkpt lat="46.99917" lon="2.79681">
        <ele>178.0</ele>
      </trkpt>
      <trkpt lat="46.99965" lon="2.79916">
        <ele>178.0</ele>
      </trkpt>
      <trkpt lat="47.00049" lon="2.80097">
        <ele>179.0</ele>
      </trkpt>
      <trkpt lat="47.00069" lon="2.80222">
        <ele>179.0</ele>
      </trkpt>
      <trkpt lat="47.00051" lon="2.80322">
        <ele>180.0</ele>
      </trkpt>
      <trkpt lat="46.99999" lon="2.80408">
        <ele>181.0</ele>
      </trkpt>
      <trkpt lat="46.99919" lon="2.8048">
        <ele>181.0</ele>
      </trkpt>
      <trkpt lat="46.99878" lon="2.80531">
        <ele>181.0</ele>
      </trkpt>
      <trkpt lat="46.99854" lon="2.80597">
        <ele>181.0</ele>
      </trkpt>
      <trkpt lat="46.99831" lon="2.80732">
        <ele>180.0</ele>
      </trkpt>
      <trkpt lat="46.99756" lon="2.80904">
        <ele>182.0</ele>
      </trkpt>
      <trkpt lat="46.99745" lon="2.81027">
        <ele>183.0</ele>
      </trkpt>
      <trkpt lat="46.99747" lon="2.8117">
        <ele>184.0</ele>
      </trkpt>
      <trkpt lat="46.99753" lon="2.81608">
        <ele>185.0</ele>
      </trkpt>
      <trkpt lat="46.9977" lon="2.81789">
        <ele>186.0</ele>
      </trkpt>
      <trkpt lat="46.99779" lon="2.81888">
        <ele>187.0</ele>
      </trkpt>
      <trkpt lat="46.99762" lon="2.8197">
        <ele>188.0</ele>
      </trkpt>
      <trkpt lat="46.99722" lon="2.82092">
        <ele>191.0</ele>
      </trkpt>
      <trkpt lat="46.99704" lon="2.82207">
        <ele>194.0</ele>
      </trkpt>
      <trkpt lat="46.99698" lon="2.8235">
        <ele>196.0</ele>
      </trkpt>
      <trkpt lat="46.99667" lon="2.82607">
        <ele>200.0</ele>
      </trkpt>
      <trkpt lat="46.99652" lon="2.82664">
        <ele>202.0</ele>
      </trkpt>
      <trkpt lat="46.996" lon="2.8279">
        <ele>204.0</ele>
      </trkpt>
      <trkpt lat="46.99523" lon="2.82986">
        <ele>207.0</ele>
      </trkpt>
      <trkpt lat="46.9906" lon="2.84178">
        <ele>218.0</ele>
      </trkpt>
      <trkpt lat="46.98626" lon="2.85336">
        <ele>234.0</ele>
      </trkpt>
      <trkpt lat="46.98423" lon="2.85882">
        <ele>240.0</ele>
      </trkpt>
      <trkpt lat="46.98373" lon="2.86034">
        <ele>243.0</ele>
      </trkpt>
      <trkpt lat="46.98349" lon="2.86216">
        <ele>245.0</ele>
      </trkpt>
      <trkpt lat="46.9834" lon="2.8644">
        <ele>246.0</ele>
      </trkpt>
      <trkpt lat="46.98283" lon="2.86575">
        <ele>244.0</ele>
      </trkpt>
      <trkpt lat="46.98204" lon="2.86611">
        <ele>239.0</ele>
      </trkpt>
      <trkpt lat="46.98081" lon="2.8659">
        <ele>231.0</ele>
      </trkpt>
      <trkpt lat="46.98007" lon="2.86638">
        <ele>224.0</ele>
      </trkpt>
      <trkpt lat="46.97932" lon="2.86913">
        <ele>216.0</ele>
      </trkpt>
      <trkpt lat="46.97746" lon="2.87805">
        <ele>203.0</ele>
      </trkpt>
      <trkpt lat="46.97127" lon="2.89351">
        <ele>194.0</ele>
      </trkpt>
      <trkpt lat="46.96699" lon="2.90402">
        <ele>188.0</ele>
      </trkpt>
      <trkpt lat="46.96576" lon="2.90666">
        <ele>187.0</ele>
      </trkpt>
      <trkpt lat="46.96022" lon="2.91671">
        <ele>187.0</ele>
      </trkpt>
      <trkpt lat="46.95862" lon="2.91965">
        <ele>192.0</ele>
      </trkpt>
      <trkpt lat="46.95791" lon="2.92231">
        <ele>197.0</ele>
      </trkpt>
      <trkpt lat="46.95778" lon="2.92504">
        <ele>189.0</ele>
      </trkpt>
      <trkpt lat="46.95752" lon="2.92639">
        <ele>185.0</ele>
      </trkpt>
      <trkpt lat="46.95413" lon="2.93436">
        <ele>183.0</ele>
      </trkpt>
      <trkpt lat="46.9507" lon="2.94212">
        <ele>179.0</ele>
      </trkpt>
      <trkpt lat="46.94997" lon="2.94382">
        <ele>177.0</ele>
      </trkpt>
      <trkpt lat="46.94933" lon="2.94524">
        <ele>177.0</ele>
      </trkpt>
      <trkpt lat="46.94929" lon="2.94541">
        <ele>177.0</ele>
      </trkpt>
      <trkpt lat="46.94939" lon="2.94557">
        <ele>177.0</ele>
      </trkpt>
      <trkpt lat="46.9502" lon="2.94622">
        <ele>178.0</ele>
      </trkpt>
      <trkpt lat="46.95125" lon="2.94707">
        <ele>178.0</ele>
      </trkpt>
      <trkpt lat="46.95173" lon="2.94799">
        <ele>178.0</ele>
      </trkpt>
      <trkpt lat="46.95307" lon="2.95053">
        <ele>181.0</ele>
      </trkpt>
      <trkpt lat="46.95408" lon="2.95294">
        <ele>183.0</ele>
      </trkpt>
      <trkpt lat="46.95502" lon="2.95525">
        <ele>183.0</ele>
      </trkpt>
      <trkpt lat="46.95532" lon="2.95653">
        <ele>185.0</ele>
      </trkpt>
      <trkpt lat="46.95604" lon="2.96291">
        <ele>189.0</ele>
      </trkpt>
      <trkpt lat="46.95634" lon="2.96499">
        <ele>194.0</ele>
      </trkpt>
      <trkpt lat="46.95635" lon="2.96578">
        <ele>198.0</ele>
      </trkpt>
      <trkpt lat="46.95626" lon="2.96682">
        <ele>200.0</ele>
      </trkpt>
      <trkpt lat="46.95598" lon="2.9682">
        <ele>202.0</ele>
      </trkpt>
      <trkpt lat="46.95553" lon="2.96918">
        <ele>204.0</ele>
      </trkpt>
      <trkpt lat="46.95452" lon="2.97394">
        <ele>204.0</ele>
      </trkpt>
      <trkpt lat="46.95175" lon="2.98759">
        <ele>201.0</ele>
      </trkpt>
      <trkpt lat="46.95145" lon="2.99199">
        <ele>206.0</ele>
      </trkpt>
      <trkpt lat="46.95101" lon="2.99846">
        <ele>208.0</ele>
      </trkpt>
      <trkpt lat="46.95086" lon="3.01287">
        <ele>208.0</ele>
      </trkpt>
      <trkpt lat="46.95094" lon="3.01722">
        <ele>206.0</ele>
      </trkpt>
      <trkpt lat="46.94992" lon="3.02866">
        <ele>207.0</ele>
      </trkpt>
      <trkpt lat="46.94926" lon="3.03592">
        <ele>208.0</ele>
      </trkpt>
      <trkpt lat="46.94843" lon="3.04509">
        <ele>199.0</ele>
      </trkpt>
      <trkpt lat="46.94742" lon="3.0555">
        <ele>192.0</ele>
      </trkpt>
      <trkpt lat="46.94704" lon="3.05624">
        <ele>184.0</ele>
      </trkpt>
      <trkpt lat="46.94631" lon="3.05691">
        <ele>179.0</ele>
      </trkpt>
      <trkpt lat="46.94594" lon="3.05779">
        <ele>175.0</ele>
      </trkpt>
      <trkpt lat="46.94597" lon="3.05927">
        <ele>173.0</ele>
      </trkpt>
      <trkpt lat="46.94612" lon="3.06174">
        <ele>172.0</ele>
      </trkpt>
      <trkpt lat="46.94633" lon="3.0675">
        <ele>172.0</ele>
      </trkpt>
      <trkpt lat="46.94642" lon="3.06851">
        <ele>172.0</ele>
      </trkpt>
      <trkpt lat="46.94671" lon="3.06917">
        <ele>171.0</ele>
      </trkpt>
      <trkpt lat="46.94708" lon="3.06963">
        <ele>171.0</ele>
      </trkpt>
      <trkpt lat="46.94808" lon="3.07082">
        <ele>171.0</ele>
      </trkpt>
      <trkpt lat="46.94832" lon="3.07159">
        <ele>170.0</ele>
      </trkpt>
      <trkpt lat="46.9483" lon="3.07198">
        <ele>170.0</ele>
      </trkpt>
      <trkpt lat="46.94585" lon="3.07706">
        <ele>169.0</ele>
      </trkpt>
      <trkpt lat="46.94516" lon="3.07939">
        <ele>170.0</ele>
      </trkpt>
      <trkpt lat="46.94512" lon="3.08126">
        <ele>171.0</ele>
      </trkpt>
      <trkpt lat="46.9459" lon="3.08473">
        <ele>172.0</ele>
      </trkpt>
      <trkpt lat="46.94661" lon="3.08767">
        <ele>177.0</ele>
      </trkpt>
      <trkpt lat="46.94666" lon="3.08859">
        <ele>178.0</ele>
      </trkpt>
      <trkpt lat="46.94659" lon="3.08975">
        <ele>179.0</ele>
      </trkpt>
      <trkpt lat="46.94602" lon="3.09282">
        <ele>181.0</ele>
      </trkpt>
      <trkpt lat="46.945" lon="3.10218">
        <ele>179.0</ele>
      </trkpt>
      <trkpt lat="46.94476" lon="3.10699">
        <ele>179.0</ele>
      </trkpt>
      <trkpt lat="46.94497" lon="3.10924">
        <ele>179.0</ele>
      </trkpt>
      <trkpt lat="46.94528" lon="3.11762">
        <ele>180.0</ele>
      </trkpt>
      <trkpt lat="46.94534" lon="3.11967">
        <ele>178.0</ele>
      </trkpt>
      <trkpt lat="46.9463" lon="3.1248">
        <ele>178.0</ele>
      </trkpt>
      <trkpt lat="46.94692" lon="3.12792">
        <ele>177.0</ele>
      </trkpt>
      <trkpt lat="46.94773" lon="3.13037">
        <ele>177.0</ele>
      </trkpt>
      <trkpt lat="46.94861" lon="3.13219">
        <ele>178.0</ele>
      </trkpt>
      <trkpt lat="46.94859" lon="3.13281">
        <ele>178.0</ele>
      </trkpt>
      <trkpt lat="46.94815" lon="3.13521">
        <ele>181.0</ele>
      </trkpt>
      <trkpt lat="46.94829" lon="3.13779">
        <ele>184.0</ele>
      </trkpt>
      <trkpt lat="46.94836" lon="3.14018">
        <ele>186.0</ele>
      </trkpt>
      <trkpt lat="46.94806" lon="3.14064">
        <ele>187.0</ele>
      </trkpt>
      <trkpt lat="46.94848" lon="3.14254">
        <ele>187.0</ele>
      </trkpt>
      <trkpt lat="46.94852" lon="3.14381">
        <ele>189.0</ele>
      </trkpt>
      <trkpt lat="46.94881" lon="3.14498">
        <ele>190.0</ele>
      </trkpt>
      <trkpt lat="46.95003" lon="3.147">
        <ele>193.0</ele>
      </trkpt>
      <trkpt lat="46.95033" lon="3.14791">
        <ele>195.0</ele>
      </trkpt>
      <trkpt lat="46.95071" lon="3.14932">
        <ele>194.0</ele>
      </trkpt>
      <trkpt lat="46.95133" lon="3.15058">
        <ele>191.0</ele>
      </trkpt>
      <trkpt lat="46.95155" lon="3.15315">
        <ele>186.0</ele>
      </trkpt>
      <trkpt lat="46.9517" lon="3.15459">
        <ele>183.0</ele>
      </trkpt>
      <trkpt lat="46.95193" lon="3.15531">
        <ele>182.0</ele>
      </trkpt>
      <trkpt lat="46.95184" lon="3.1559">
        <ele>182.0</ele>
      </trkpt>
      <trkpt lat="46.95155" lon="3.1566">
        <ele>181.0</ele>
      </trkpt>
      <trkpt lat="46.95134" lon="3.15703">
        <ele>181.0</ele>
      </trkpt>
      <trkpt lat="46.95132" lon="3.15794">
        <ele>180.0</ele>
      </trkpt>
      <trkpt lat="46.95135" lon="3.15894">
        <ele>179.0</ele>
      </trkpt>
      <trkpt lat="46.95138" lon="3.1602">
        <ele>179.0</ele>
      </trkpt>
      <trkpt lat="46.95161" lon="3.16151">
        <ele>178.0</ele>
      </trkpt>
      <trkpt lat="46.95184" lon="3.16459">
        <ele>178.0</ele>
      </trkpt>
      <trkpt lat="46.95192" lon="3.16764">
        <ele>178.0</ele>
      </trkpt>
      <trkpt lat="46.95214" lon="3.16872">
        <ele>177.0</ele>
      </trkpt>
      <trkpt lat="46.95238" lon="3.17078">
        <ele>177.0</ele>
      </trkpt>
      <trkpt lat="46.95313" lon="3.17516">
        <ele>177.0</ele>
      </trkpt>
      <trkpt lat="46.95276" lon="3.17848">
        <ele>177.0</ele>
      </trkpt>
      <trkpt lat="46.95195" lon="3.18311">
        <ele>181.0</ele>
      </trkpt>
      <trkpt lat="46.95176" lon="3.18576">
        <ele>189.0</ele>
      </trkpt>
      <trkpt lat="46.95185" lon="3.1867">
        <ele>192.0</ele>
      </trkpt>
      <trkpt lat="46.95224" lon="3.1887">
        <ele>195.0</ele>
      </trkpt>
      <trkpt lat="46.95228" lon="3.18897">
        <ele>196.0</ele>
      </trkpt>
      <trkpt lat="46.95229" lon="3.19028">
        <ele>199.0</ele>
      </trkpt>
      <trkpt lat="46.95285" lon="3.19587">
        <ele>203.0</ele>
      </trkpt>
      <trkpt lat="46.95285" lon="3.19748">
        <ele>205.0</ele>
      </trkpt>
      <trkpt lat="46.95121" lon="3.19846">
        <ele>203.0</ele>
      </trkpt>
      <trkpt lat="46.95068" lon="3.19853">
        <ele>201.0</ele>
      </trkpt>
      <trkpt lat="46.95009" lon="3.19834">
        <ele>199.0</ele>
      </trkpt>
      <trkpt lat="46.94965" lon="3.19909">
        <ele>198.0</ele>
      </trkpt>
      <trkpt lat="46.94735" lon="3.20107">
        <ele>193.0</ele>
      </trkpt>
      <trkpt lat="46.94683" lon="3.20167">
        <ele>186.0</ele>
      </trkpt>
      <trkpt lat="46.94677" lon="3.20273">
        <ele>181.0</ele>
      </trkpt>
      <trkpt lat="46.94603" lon="3.2051">
        <ele>176.0</ele>
      </trkpt>
      <trkpt lat="46.9456" lon="3.20594">
        <ele>175.0</ele>
      </trkpt>
      <trkpt lat="46.94414" lon="3.20625">
        <ele>174.0</ele>
      </trkpt>
      <trkpt lat="46.94155" lon="3.20802">
        <ele>174.0</ele>
      </trkpt>
      <trkpt lat="46.94046" lon="3.2093">
        <ele>173.0</ele>
      </trkpt>
      <trkpt lat="46.93858" lon="3.21136">
        <ele>175.0</ele>
      </trkpt>
      <trkpt lat="46.93757" lon="3.21402">
        <ele>175.0</ele>
      </trkpt>
      <trkpt lat="46.9364" lon="3.21521">
        <ele>174.0</ele>
      </trkpt>
      <trkpt lat="46.93434" lon="3.21722">
        <ele>176.0</ele>
      </trkpt>
      <trkpt lat="46.93395" lon="3.21864">
        <ele>176.0</ele>
      </trkpt>
      <trkpt lat="46.93351" lon="3.21867">
        <ele>176.0</ele>
      </trkpt>
      <trkpt lat="46.93342" lon="3.21875">
        <ele>176.0</ele>
      </trkpt>
      <trkpt lat="46.93194" lon="3.22257">
        <ele>179.0</ele>
      </trkpt>
      <trkpt lat="46.93075" lon="3.22377">
        <ele>179.0</ele>
      </trkpt>
      <trkpt lat="46.92786" lon="3.22394">
        <ele>185.0</ele>
      </trkpt>
      <trkpt lat="46.92681" lon="3.22434">
        <ele>188.0</ele>
      </trkpt>
      <trkpt lat="46.92491" lon="3.22767">
        <ele>187.0</ele>
      </trkpt>
      <trkpt lat="46.92385" lon="3.22967">
        <ele>185.0</ele>
      </trkpt>
      <trkpt lat="46.92313" lon="3.23089">
        <ele>184.0</ele>
      </trkpt>
      <trkpt lat="46.92299" lon="3.23106">
        <ele>183.0</ele>
      </trkpt>
      <trkpt lat="46.92302" lon="3.23122">
        <ele>183.0</ele>
      </trkpt>
      <trkpt lat="46.92321" lon="3.23124">
        <ele>183.0</ele>
      </trkpt>
      <trkpt lat="46.9235" lon="3.23122">
        <ele>182.0</ele>
      </trkpt>
      <trkpt lat="46.92371" lon="3.23149">
        <ele>182.0</ele>
      </trkpt>
      <trkpt lat="46.92406" lon="3.23323">
        <ele>181.0</ele>
      </trkpt>
      <trkpt lat="46.92535" lon="3.23462">
        <ele>179.0</ele>
      </trkpt>
      <trkpt lat="46.92673" lon="3.23534">
        <ele>177.0</ele>
      </trkpt>
      <trkpt lat="46.92751" lon="3.23638">
        <ele>176.0</ele>
      </trkpt>
      <trkpt lat="46.92883" lon="3.2364">
        <ele>177.0</ele>
      </trkpt>
      <trkpt lat="46.93145" lon="3.2373">
        <ele>175.0</ele>
      </trkpt>
      <trkpt lat="46.93498" lon="3.24698">
        <ele>175.0</ele>
      </trkpt>
      <trkpt lat="46.93705" lon="3.25322">
        <ele>175.0</ele>
      </trkpt>
      <trkpt lat="46.93711" lon="3.25368">
        <ele>176.0</ele>
      </trkpt>
      <trkpt lat="46.93686" lon="3.25402">
        <ele>178.0</ele>
      </trkpt>
      <trkpt lat="46.93665" lon="3.25453">
        <ele>180.0</ele>
      </trkpt>
      <trkpt lat="46.93686" lon="3.25639">
        <ele>186.0</ele>
      </trkpt>
      <trkpt lat="46.93674" lon="3.25786">
        <ele>185.0</ele>
      </trkpt>
      <trkpt lat="46.93647" lon="3.258">
        <ele>185.0</ele>
      </trkpt>
      <trkpt lat="46.93692" lon="3.26051">
        <ele>188.0</ele>
      </trkpt>
      <trkpt lat="46.93714" lon="3.26193">
        <ele>190.0</ele>
      </trkpt>
      <trkpt lat="46.93719" lon="3.2633">
        <ele>193.0</ele>
      </trkpt>
      <trkpt lat="46.93718" lon="3.26713">
        <ele>194.0</ele>
      </trkpt>
      <trkpt lat="46.93756" lon="3.26814">
        <ele>196.0</ele>
      </trkpt>
      <trkpt lat="46.94152" lon="3.2723">
        <ele>203.0</ele>
      </trkpt>
      <trkpt lat="46.94196" lon="3.27358">
        <ele>202.0</ele>
      </trkpt>
      <trkpt lat="46.9415" lon="3.27639">
        <ele>195.0</ele>
      </trkpt>
      <trkpt lat="46.94141" lon="3.2786">
        <ele>189.0</ele>
      </trkpt>
      <trkpt lat="46.94204" lon="3.28111">
        <ele>189.0</ele>
      </trkpt>
      <trkpt lat="46.94347" lon="3.2845">
        <ele>193.0</ele>
      </trkpt>
      <trkpt lat="46.94405" lon="3.28683">
        <ele>194.0</ele>
      </trkpt>
      <trkpt lat="46.9447" lon="3.28865">
        <ele>194.0</ele>
      </trkpt>
      <trkpt lat="46.94528" lon="3.28957">
        <ele>192.0</ele>
      </trkpt>
      <trkpt lat="46.94639" lon="3.29118">
        <ele>189.0</ele>
      </trkpt>
      <trkpt lat="46.9492" lon="3.29948">
        <ele>193.0</ele>
      </trkpt>
      <trkpt lat="46.9493" lon="3.30068">
        <ele>197.0</ele>
      </trkpt>
      <trkpt lat="46.94931" lon="3.30257">
        <ele>197.0</ele>
      </trkpt>
      <trkpt lat="46.94956" lon="3.30316">
        <ele>194.0</ele>
      </trkpt>
      <trkpt lat="46.94976" lon="3.30388">
        <ele>191.0</ele>
      </trkpt>
      <trkpt lat="46.94954" lon="3.30505">
        <ele>190.0</ele>
      </trkpt>
      <trkpt lat="46.94873" lon="3.30583">
        <ele>191.0</ele>
      </trkpt>
      <trkpt lat="46.94826" lon="3.3069">
        <ele>191.0</ele>
      </trkpt>
      <trkpt lat="46.94841" lon="3.30946">
        <ele>191.0</ele>
      </trkpt>
      <trkpt lat="46.94828" lon="3.31001">
        <ele>191.0</ele>
      </trkpt>
      <trkpt lat="46.94692" lon="3.31174">
        <ele>190.0</ele>
      </trkpt>
      <trkpt lat="46.9466" lon="3.3126">
        <ele>190.0</ele>
      </trkpt>
      <trkpt lat="46.94612" lon="3.31821">
        <ele>189.0</ele>
      </trkpt>
      <trkpt lat="46.94565" lon="3.32394">
        <ele>199.0</ele>
      </trkpt>
      <trkpt lat="46.94666" lon="3.32649">
        <ele>203.0</ele>
      </trkpt>
      <trkpt lat="46.94835" lon="3.33027">
        <ele>205.0</ele>
      </trkpt>
      <trkpt lat="46.94854" lon="3.33436">
        <ele>205.0</ele>
      </trkpt>
      <trkpt lat="46.94905" lon="3.33604">
        <ele>208.0</ele>
      </trkpt>
      <trkpt lat="46.94902" lon="3.33797">
        <ele>209.0</ele>
      </trkpt>
      <trkpt lat="46.94929" lon="3.33921">
        <ele>209.0</ele>
      </trkpt>
      <trkpt lat="46.94901" lon="3.34089">
        <ele>209.0</ele>
      </trkpt>
      <trkpt lat="46.94766" lon="3.35298">
        <ele>215.0</ele>
      </trkpt>
      <trkpt lat="46.9471" lon="3.35626">
        <ele>219.0</ele>
      </trkpt>
      <trkpt lat="46.94607" lon="3.35887">
        <ele>221.0</ele>
      </trkpt>
      <trkpt lat="46.94752" lon="3.36443">
        <ele>227.0</ele>
      </trkpt>
      <trkpt lat="46.94953" lon="3.36918">
        <ele>234.0</ele>
      </trkpt>
      <trkpt lat="46.95076" lon="3.37122">
        <ele>240.0</ele>
      </trkpt>
      <trkpt lat="46.95183" lon="3.37259">
        <ele>245.0</ele>
      </trkpt>
      <trkpt lat="46.95227" lon="3.37325">
        <ele>247.0</ele>
      </trkpt>
      <trkpt lat="46.95279" lon="3.37518">
        <ele>248.0</ele>
      </trkpt>
      <trkpt lat="46.95433" lon="3.37877">
        <ele>250.0</ele>
      </trkpt>
      <trkpt lat="46.95501" lon="3.38138">
        <ele>258.0</ele>
      </trkpt>
      <trkpt lat="46.95481" lon="3.38363">
        <ele>260.0</ele>
      </trkpt>
      <trkpt lat="46.95412" lon="3.38758">
        <ele>262.0</ele>
      </trkpt>
      <trkpt lat="46.95404" lon="3.39192">
        <ele>262.0</ele>
      </trkpt>
      <trkpt lat="46.95396" lon="3.39469">
        <ele>262.0</ele>
      </trkpt>
      <trkpt lat="46.9527" lon="3.39672">
        <ele>267.0</ele>
      </trkpt>
      <trkpt lat="46.95234" lon="3.39766">
        <ele>269.0</ele>
      </trkpt>
      <trkpt lat="46.9525" lon="3.3985">
        <ele>271.0</ele>
      </trkpt>
      <trkpt lat="46.95316" lon="3.40101">
        <ele>275.0</ele>
      </trkpt>
      <trkpt lat="46.95416" lon="3.40655">
        <ele>277.0</ele>
      </trkpt>
      <trkpt lat="46.95501" lon="3.41152">
        <ele>281.0</ele>
      </trkpt>
      <trkpt lat="46.9547" lon="3.41431">
        <ele>279.0</ele>
      </trkpt>
      <trkpt lat="46.95353" lon="3.42075">
        <ele>271.0</ele>
      </trkpt>
      <trkpt lat="46.95372" lon="3.42327">
        <ele>267.0</ele>
      </trkpt>
      <trkpt lat="46.95372" lon="3.42578">
        <ele>265.0</ele>
      </trkpt>
      <trkpt lat="46.95312" lon="3.42821">
        <ele>262.0</ele>
      </trkpt>
      <trkpt lat="46.95212" lon="3.43074">
        <ele>261.0</ele>
      </trkpt>
      <trkpt lat="46.95069" lon="3.43637">
        <ele>258.0</ele>
      </trkpt>
      <trkpt lat="46.94959" lon="3.44122">
        <ele>261.0</ele>
      </trkpt>
      <trkpt lat="46.9489" lon="3.44759">
        <ele>256.0</ele>
      </trkpt>
      <trkpt lat="46.94524" lon="3.46133">
        <ele>233.0</ele>
      </trkpt>
      <trkpt lat="46.94557" lon="3.463">
        <ele>223.0</ele>
      </trkpt>
      <trkpt lat="46.94289" lon="3.46929">
        <ele>222.0</ele>
      </trkpt>
      <trkpt lat="46.94235" lon="3.47186">
        <ele>219.0</ele>
      </trkpt>
      <trkpt lat="46.94221" lon="3.4726">
        <ele>218.0</ele>
      </trkpt>
      <trkpt lat="46.94364" lon="3.47448">
        <ele>221.0</ele>
      </trkpt>
      <trkpt lat="46.94422" lon="3.47557">
        <ele>225.0</ele>
      </trkpt>
      <trkpt lat="46.9451" lon="3.47639">
        <ele>230.0</ele>
      </trkpt>
      <trkpt lat="46.94699" lon="3.47687">
        <ele>234.0</ele>
      </trkpt>
      <trkpt lat="46.94763" lon="3.47742">
        <ele>236.0</ele>
      </trkpt>
      <trkpt lat="46.94782" lon="3.47809">
        <ele>236.0</ele>
      </trkpt>
      <trkpt lat="46.94832" lon="3.47892">
        <ele>236.0</ele>
      </trkpt>
      <trkpt lat="46.94918" lon="3.48006">
        <ele>236.0</ele>
      </trkpt>
      <trkpt lat="46.94966" lon="3.48151">
        <ele>238.0</ele>
      </trkpt>
      <trkpt lat="46.94985" lon="3.48407">
        <ele>243.0</ele>
      </trkpt>
      <trkpt lat="46.95026" lon="3.48621">
        <ele>248.0</ele>
      </trkpt>
      <trkpt lat="46.9514" lon="3.48919">
        <ele>248.0</ele>
      </trkpt>
      <trkpt lat="46.95219" lon="3.49185">
        <ele>246.0</ele>
      </trkpt>
      <trkpt lat="46.95287" lon="3.49254">
        <ele>245.0</ele>
      </trkpt>
      <trkpt lat="46.95439" lon="3.49271">
        <ele>244.0</ele>
      </trkpt>
      <trkpt lat="46.95601" lon="3.49251">
        <ele>241.0</ele>
      </trkpt>
      <trkpt lat="46.95716" lon="3.49306">
        <ele>241.0</ele>
      </trkpt>
      <trkpt lat="46.9578" lon="3.49397">
        <ele>240.0</ele>
      </trkpt>
      <trkpt lat="46.95801" lon="3.49466">
        <ele>240.0</ele>
      </trkpt>
      <trkpt lat="46.95711" lon="3.49831">
        <ele>237.0</ele>
      </trkpt>
      <trkpt lat="46.95656" lon="3.5011">
        <ele>229.0</ele>
      </trkpt>
      <trkpt lat="46.956" lon="3.50269">
        <ele>221.0</ele>
      </trkpt>
      <trkpt lat="46.95604" lon="3.5037">
        <ele>217.0</ele>
      </trkpt>
      <trkpt lat="46.95625" lon="3.50411">
        <ele>215.0</ele>
      </trkpt>
      <trkpt lat="46.95658" lon="3.50443">
        <ele>216.0</ele>
      </trkpt>
      <trkpt lat="46.95681" lon="3.50503">
        <ele>217.0</ele>
      </trkpt>
      <trkpt lat="46.95713" lon="3.50566">
        <ele>218.0</ele>
      </trkpt>
      <trkpt lat="46.95745" lon="3.50588">
        <ele>219.0</ele>
      </trkpt>
      <trkpt lat="46.95823" lon="3.50637">
        <ele>221.0</ele>
      </trkpt>
      <trkpt lat="46.9587" lon="3.50647">
        <ele>222.0</ele>
      </trkpt>
      <trkpt lat="46.95902" lon="3.50688">
        <ele>223.0</ele>
      </trkpt>
      <trkpt lat="46.95917" lon="3.51008">
        <ele>221.0</ele>
      </trkpt>
      <trkpt lat="46.95979" lon="3.52368">
        <ele>224.0</ele>
      </trkpt>
      <trkpt lat="46.95999" lon="3.52838">
        <ele>224.0</ele>
      </trkpt>
      <trkpt lat="46.96019" lon="3.53275">
        <ele>213.0</ele>
      </trkpt>
      <trkpt lat="46.96065" lon="3.54307">
        <ele>215.0</ele>
      </trkpt>
      <trkpt lat="46.96106" lon="3.55237">
        <ele>232.0</ele>
      </trkpt>
      <trkpt lat="46.96071" lon="3.56044">
        <ele>237.0</ele>
      </trkpt>
      <trkpt lat="46.96097" lon="3.56214">
        <ele>238.0</ele>
      </trkpt>
      <trkpt lat="46.96291" lon="3.57201">
        <ele>235.0</ele>
      </trkpt>
      <trkpt lat="46.96434" lon="3.57934">
        <ele>221.0</ele>
      </trkpt>
      <trkpt lat="46.96519" lon="3.58365">
        <ele>216.0</ele>
      </trkpt>
      <trkpt lat="46.96641" lon="3.59177">
        <ele>215.0</ele>
      </trkpt>
      <trkpt lat="46.96662" lon="3.59378">
        <ele>215.0</ele>
      </trkpt>
      <trkpt lat="46.96515" lon="3.59899">
        <ele>215.0</ele>
      </trkpt>
      <trkpt lat="46.96487" lon="3.60659">
        <ele>219.0</ele>
      </trkpt>
      <trkpt lat="46.9648" lon="3.60853">
        <ele>228.0</ele>
      </trkpt>
      <trkpt lat="46.96687" lon="3.61371">
        <ele>241.0</ele>
      </trkpt>
      <trkpt lat="46.96684" lon="3.6181">
        <ele>251.0</ele>
      </trkpt>
      <trkpt lat="46.96596" lon="3.6213">
        <ele>258.0</ele>
      </trkpt>
      <trkpt lat="46.96467" lon="3.62386">
        <ele>257.0</ele>
      </trkpt>
      <trkpt lat="46.96392" lon="3.6282">
        <ele>249.0</ele>
      </trkpt>
      <trkpt lat="46.96567" lon="3.63776">
        <ele>239.0</ele>
      </trkpt>
      <trkpt lat="46.96487" lon="3.67008">
        <ele>248.0</ele>
      </trkpt>
      <trkpt lat="46.96476" lon="3.67257">
        <ele>250.0</ele>
      </trkpt>
      <trkpt lat="46.96445" lon="3.68034">
        <ele>250.0</ele>
      </trkpt>
      <trkpt lat="46.964" lon="3.69142">
        <ele>259.0</ele>
      </trkpt>
      <trkpt lat="46.96365" lon="3.70021">
        <ele>258.0</ele>
      </trkpt>
      <trkpt lat="46.96335" lon="3.70825">
        <ele>266.0</ele>
      </trkpt>
      <trkpt lat="46.9629" lon="3.72008">
        <ele>250.0</ele>
      </trkpt>
      <trkpt lat="46.96258" lon="3.72233">
        <ele>237.0</ele>
      </trkpt>
      <trkpt lat="46.95762" lon="3.73762">
        <ele>233.0</ele>
      </trkpt>
      <trkpt lat="46.95634" lon="3.74167">
        <ele>226.0</ele>
      </trkpt>
      <trkpt lat="46.95617" lon="3.74416">
        <ele>217.0</ele>
      </trkpt>
      <trkpt lat="46.95591" lon="3.74463">
        <ele>213.0</ele>
      </trkpt>
      <trkpt lat="46.95583" lon="3.74485">
        <ele>212.0</ele>
      </trkpt>
      <trkpt lat="46.95578" lon="3.74513">
        <ele>210.0</ele>
      </trkpt>
      <trkpt lat="46.95582" lon="3.74568">
        <ele>209.0</ele>
      </trkpt>
      <trkpt lat="46.95587" lon="3.74712">
        <ele>209.0</ele>
      </trkpt>
      <trkpt lat="46.95596" lon="3.74765">
        <ele>210.0</ele>
      </trkpt>
      <trkpt lat="46.95617" lon="3.74831">
        <ele>211.0</ele>
      </trkpt>
      <trkpt lat="46.95967" lon="3.75738">
        <ele>212.0</ele>
      </trkpt>
      <trkpt lat="46.96316" lon="3.76545">
        <ele>227.0</ele>
      </trkpt>
      <trkpt lat="46.9662" lon="3.77046">
        <ele>245.0</ele>
      </trkpt>
      <trkpt lat="46.96959" lon="3.77585">
        <ele>250.0</ele>
      </trkpt>
      <trkpt lat="46.97163" lon="3.77894">
        <ele>246.0</ele>
      </trkpt>
      <trkpt lat="46.9741" lon="3.78064">
        <ele>238.0</ele>
      </trkpt>
      <trkpt lat="46.97499" lon="3.78172">
        <ele>229.0</ele>
      </trkpt>
      <trkpt lat="46.97488" lon="3.78567">
        <ele>221.0</ele>
      </trkpt>
      <trkpt lat="46.97484" lon="3.78849">
        <ele>217.0</ele>
      </trkpt>
      <trkpt lat="46.9758" lon="3.79082">
        <ele>222.0</ele>
      </trkpt>
      <trkpt lat="46.97621" lon="3.79396">
        <ele>226.0</ele>
      </trkpt>
      <trkpt lat="46.97668" lon="3.79555">
        <ele>229.0</ele>
      </trkpt>
      <trkpt lat="46.97835" lon="3.80058">
        <ele>223.0</ele>
      </trkpt>
      <trkpt lat="46.97956" lon="3.80353">
        <ele>220.0</ele>
      </trkpt>
      <trkpt lat="46.98115" lon="3.80668">
        <ele>219.0</ele>
      </trkpt>
      <trkpt lat="46.98185" lon="3.80747">
        <ele>219.0</ele>
      </trkpt>
      <trkpt lat="46.9841" lon="3.80958">
        <ele>219.0</ele>
      </trkpt>
      <trkpt lat="46.98465" lon="3.80985">
        <ele>220.0</ele>
      </trkpt>
      <trkpt lat="46.98593" lon="3.81082">
        <ele>222.0</ele>
      </trkpt>
      <trkpt lat="46.98613" lon="3.81145">
        <ele>223.0</ele>
      </trkpt>
      <trkpt lat="46.98636" lon="3.81217">
        <ele>224.0</ele>
      </trkpt>
      <trkpt lat="46.98711" lon="3.81247">
        <ele>224.0</ele>
      </trkpt>
      <trkpt lat="46.98713" lon="3.81285">
        <ele>224.0</ele>
      </trkpt>
      <trkpt lat="46.98721" lon="3.81522">
        <ele>227.0</ele>
      </trkpt>
      <trkpt lat="46.98709" lon="3.8163">
        <ele>231.0</ele>
      </trkpt>
      <trkpt lat="46.98635" lon="3.81865">
        <ele>238.0</ele>
      </trkpt>
      <trkpt lat="46.98588" lon="3.82042">
        <ele>247.0</ele>
      </trkpt>
      <trkpt lat="46.98595" lon="3.82246">
        <ele>256.0</ele>
      </trkpt>
      <trkpt lat="46.98513" lon="3.82678">
        <ele>271.0</ele>
      </trkpt>
      <trkpt lat="46.98356" lon="3.83013">
        <ele>281.0</ele>
      </trkpt>
      <trkpt lat="46.9828" lon="3.83104">
        <ele>285.0</ele>
      </trkpt>
      <trkpt lat="46.98141" lon="3.83207">
        <ele>289.0</ele>
      </trkpt>
      <trkpt lat="46.97986" lon="3.83323">
        <ele>292.0</ele>
      </trkpt>
      <trkpt lat="46.97821" lon="3.83495">
        <ele>295.0</ele>
      </trkpt>
      <trkpt lat="46.97697" lon="3.83713">
        <ele>293.0</ele>
      </trkpt>
      <trkpt lat="46.97619" lon="3.84003">
        <ele>287.0</ele>
      </trkpt>
      <trkpt lat="46.97582" lon="3.84402">
        <ele>281.0</ele>
      </trkpt>
      <trkpt lat="46.97509" lon="3.84714">
        <ele>279.0</ele>
      </trkpt>
      <trkpt lat="46.97439" lon="3.84925">
        <ele>277.0</ele>
      </trkpt>
      <trkpt lat="46.97451" lon="3.85103">
        <ele>275.0</ele>
      </trkpt>
      <trkpt lat="46.97481" lon="3.85263">
        <ele>273.0</ele>
      </trkpt>
      <trkpt lat="46.97459" lon="3.85496">
        <ele>273.0</ele>
      </trkpt>
      <trkpt lat="46.97377" lon="3.85811">
        <ele>276.0</ele>
      </trkpt>
      <trkpt lat="46.97302" lon="3.86062">
        <ele>276.0</ele>
      </trkpt>
      <trkpt lat="46.97208" lon="3.86212">
        <ele>274.0</ele>
      </trkpt>
      <trkpt lat="46.97125" lon="3.86255">
        <ele>274.0</ele>
      </trkpt>
      <trkpt lat="46.9709" lon="3.86303">
        <ele>276.0</ele>
      </trkpt>
      <trkpt lat="46.97099" lon="3.86507">
        <ele>279.0</ele>
      </trkpt>
      <trkpt lat="46.97119" lon="3.86782">
        <ele>279.0</ele>
      </trkpt>
      <trkpt lat="46.97007" lon="3.8729">
        <ele>279.0</ele>
      </trkpt>
      <trkpt lat="46.9686" lon="3.87951">
        <ele>283.0</ele>
      </trkpt>
      <trkpt lat="46.96777" lon="3.88083">
        <ele>285.0</ele>
      </trkpt>
      <trkpt lat="46.96594" lon="3.88321">
        <ele>291.0</ele>
      </trkpt>
      <trkpt lat="46.96417" lon="3.88547">
        <ele>297.0</ele>
      </trkpt>
      <trkpt lat="46.96378" lon="3.88645">
        <ele>298.0</ele>
      </trkpt>
      <trkpt lat="46.96364" lon="3.88744">
        <ele>299.0</ele>
      </trkpt>
      <trkpt lat="46.963" lon="3.88863">
        <ele>300.0</ele>
      </trkpt>
      <trkpt lat="46.9627" lon="3.88955">
        <ele>301.0</ele>
      </trkpt>
      <trkpt lat="46.96243" lon="3.89189">
        <ele>302.0</ele>
      </trkpt>
      <trkpt lat="46.96191" lon="3.8951">
        <ele>303.0</ele>
      </trkpt>
      <trkpt lat="46.96074" lon="3.90242">
        <ele>308.0</ele>
      </trkpt>
      <trkpt lat="46.96038" lon="3.90561">
        <ele>318.0</ele>
      </trkpt>
      <trkpt lat="46.96025" lon="3.90686">
        <ele>322.0</ele>
      </trkpt>
      <trkpt lat="46.96066" lon="3.90769">
        <ele>322.0</ele>
      </trkpt>
      <trkpt lat="46.96041" lon="3.90971">
        <ele>322.0</ele>
      </trkpt>
      <trkpt lat="46.96001" lon="3.91055">
        <ele>324.0</ele>
      </trkpt>
      <trkpt lat="46.958" lon="3.91262">
        <ele>329.0</ele>
      </trkpt>
      <trkpt lat="46.95691" lon="3.91308">
        <ele>326.0</ele>
      </trkpt>
      <trkpt lat="46.95629" lon="3.91505">
        <ele>322.0</ele>
      </trkpt>
      <trkpt lat="46.95592" lon="3.9174">
        <ele>320.0</ele>
      </trkpt>
      <trkpt lat="46.95497" lon="3.91852">
        <ele>322.0</ele>
      </trkpt>
      <trkpt lat="46.95423" lon="3.91957">
        <ele>326.0</ele>
      </trkpt>
      <trkpt lat="46.95377" lon="3.92014">
        <ele>329.0</ele>
      </trkpt>
      <trkpt lat="46.95308" lon="3.92061">
        <ele>329.0</ele>
      </trkpt>
      <trkpt lat="46.95221" lon="3.92199">
        <ele>329.0</ele>
      </trkpt>
      <trkpt lat="46.95065" lon="3.92353">
        <ele>330.0</ele>
      </trkpt>
      <trkpt lat="46.94884" lon="3.92453">
        <ele>331.0</ele>
      </trkpt>
      <trkpt lat="46.94807" lon="3.92506">
        <ele>334.0</ele>
      </trkpt>
      <trkpt lat="46.947" lon="3.9262">
        <ele>340.0</ele>
      </trkpt>
      <trkpt lat="46.94671" lon="3.92682">
        <ele>343.0</ele>
      </trkpt>
      <trkpt lat="46.94626" lon="3.92932">
        <ele>346.0</ele>
      </trkpt>
      <trkpt lat="46.94578" lon="3.92933">
        <ele>346.0</ele>
      </trkpt>
      <trkpt lat="46.94507" lon="3.92933">
        <ele>345.0</ele>
      </trkpt>
      <trkpt lat="46.94447" lon="3.93086">
        <ele>345.0</ele>
      </trkpt>
      <trkpt lat="46.94337" lon="3.93174">
        <ele>345.0</ele>
      </trkpt>
      <trkpt lat="46.94317" lon="3.93223">
        <ele>344.0</ele>
      </trkpt>
      <trkpt lat="46.94307" lon="3.93393">
        <ele>343.0</ele>
      </trkpt>
      <trkpt lat="46.94197" lon="3.93514">
        <ele>345.0</ele>
      </trkpt>
      <trkpt lat="46.94189" lon="3.93619">
        <ele>348.0</ele>
      </trkpt>
      <trkpt lat="46.94251" lon="3.93878">
        <ele>359.0</ele>
      </trkpt>
      <trkpt lat="46.94254" lon="3.93956">
        <ele>365.0</ele>
      </trkpt>
      <trkpt lat="46.94179" lon="3.94074">
        <ele>370.0</ele>
      </trkpt>
      <trkpt lat="46.94073" lon="3.94299">
        <ele>376.0</ele>
      </trkpt>
      <trkpt lat="46.94022" lon="3.94351">
        <ele>382.0</ele>
      </trkpt>
      <trkpt lat="46.9396" lon="3.94425">
        <ele>387.0</ele>
      </trkpt>
      <trkpt lat="46.93967" lon="3.94516">
        <ele>393.0</ele>
      </trkpt>
      <trkpt lat="46.9395" lon="3.94629">
        <ele>399.0</ele>
      </trkpt>
      <trkpt lat="46.93982" lon="3.94749">
        <ele>403.0</ele>
      </trkpt>
      <trkpt lat="46.94058" lon="3.94996">
        <ele>411.0</ele>
      </trkpt>
      <trkpt lat="46.94106" lon="3.95126">
        <ele>420.0</ele>
      </trkpt>
      <trkpt lat="46.9409" lon="3.95164">
        <ele>423.0</ele>
      </trkpt>
      <trkpt lat="46.93873" lon="3.95118">
        <ele>431.0</ele>
      </trkpt>
      <trkpt lat="46.93783" lon="3.9517">
        <ele>442.0</ele>
      </trkpt>
      <trkpt lat="46.9376" lon="3.95288">
        <ele>451.0</ele>
      </trkpt>
      <trkpt lat="46.93788" lon="3.95442">
        <ele>456.0</ele>
      </trkpt>
      <trkpt lat="46.93768" lon="3.95557">
        <ele>459.0</ele>
      </trkpt>
      <trkpt lat="46.93867" lon="3.95743">
        <ele>466.0</ele>
      </trkpt>
      <trkpt lat="46.93884" lon="3.9581">
        <ele>473.0</ele>
      </trkpt>
      <trkpt lat="46.93854" lon="3.95928">
        <ele>480.0</ele>
      </trkpt>
      <trkpt lat="46.93797" lon="3.9603">
        <ele>489.0</ele>
      </trkpt>
      <trkpt lat="46.93703" lon="3.96242">
        <ele>508.0</ele>
      </trkpt>
      <trkpt lat="46.93662" lon="3.96346">
        <ele>514.0</ele>
      </trkpt>
      <trkpt lat="46.93731" lon="3.96412">
        <ele>512.0</ele>
      </trkpt>
      <trkpt lat="46.93812" lon="3.96575">
        <ele>514.0</ele>
      </trkpt>
      <trkpt lat="46.9386" lon="3.96814">
        <ele>520.0</ele>
      </trkpt>
      <trkpt lat="46.93845" lon="3.97027">
        <ele>526.0</ele>
      </trkpt>
      <trkpt lat="46.93843" lon="3.97201">
        <ele>535.0</ele>
      </trkpt>
      <trkpt lat="46.93929" lon="3.97277">
        <ele>541.0</ele>
      </trkpt>
      <trkpt lat="46.93997" lon="3.97347">
        <ele>542.0</ele>
      </trkpt>
      <trkpt lat="46.94011" lon="3.97403">
        <ele>542.0</ele>
      </trkpt>
      <trkpt lat="46.93928" lon="3.97646">
        <ele>544.0</ele>
      </trkpt>
      <trkpt lat="46.93894" lon="3.97774">
        <ele>549.0</ele>
      </trkpt>
      <trkpt lat="46.93937" lon="3.97934">
        <ele>553.0</ele>
      </trkpt>
      <trkpt lat="46.94079" lon="3.97975">
        <ele>555.0</ele>
      </trkpt>
      <trkpt lat="46.94241" lon="3.97998">
        <ele>558.0</ele>
      </trkpt>
      <trkpt lat="46.94335" lon="3.98113">
        <ele>560.0</ele>
      </trkpt>
      <trkpt lat="46.94355" lon="3.98258">
        <ele>559.0</ele>
      </trkpt>
      <trkpt lat="46.94385" lon="3.9837">
        <ele>556.0</ele>
      </trkpt>
      <trkpt lat="46.94361" lon="3.98402">
        <ele>557.0</ele>
      </trkpt>
      <trkpt lat="46.94294" lon="3.98294">
        <ele>559.0</ele>
      </trkpt>
      <trkpt lat="46.94247" lon="3.9819">
        <ele>563.0</ele>
      </trkpt>
      <trkpt lat="46.94141" lon="3.98203">
        <ele>566.0</ele>
      </trkpt>
      <trkpt lat="46.9409" lon="3.98278">
        <ele>569.0</ele>
      </trkpt>
      <trkpt lat="46.9401" lon="3.98597">
        <ele>585.0</ele>
      </trkpt>
      <trkpt lat="46.93963" lon="3.98662">
        <ele>589.0</ele>
      </trkpt>
      <trkpt lat="46.93939" lon="3.98868">
        <ele>592.0</ele>
      </trkpt>
      <trkpt lat="46.93927" lon="3.98963">
        <ele>596.0</ele>
      </trkpt>
      <trkpt lat="46.93842" lon="3.99164">
        <ele>601.0</ele>
      </trkpt>
      <trkpt lat="46.9359" lon="3.99553">
        <ele>608.0</ele>
      </trkpt>
      <trkpt lat="46.9338" lon="3.99625">
        <ele>608.0</ele>
      </trkpt>
      <trkpt lat="46.93332" lon="3.99688">
        <ele>607.0</ele>
      </trkpt>
      <trkpt lat="46.93357" lon="3.99762">
        <ele>606.0</ele>
      </trkpt>
      <trkpt lat="46.93425" lon="3.99899">
        <ele>605.0</ele>
      </trkpt>
      <trkpt lat="46.93256" lon="4.00265">
        <ele>601.0</ele>
      </trkpt>
      <trkpt lat="46.93234" lon="4.00343">
        <ele>599.0</ele>
      </trkpt>
      <trkpt lat="46.93356" lon="4.00508">
        <ele>595.0</ele>
      </trkpt>
      <trkpt lat="46.93526" lon="4.00527">
        <ele>593.0</ele>
      </trkpt>
      <trkpt lat="46.93675" lon="4.00523">
        <ele>591.0</ele>
      </trkpt>
      <trkpt lat="46.93726" lon="4.00829">
        <ele>580.0</ele>
      </trkpt>
      <trkpt lat="46.9388" lon="4.00939">
        <ele>577.0</ele>
      </trkpt>
      <trkpt lat="46.93971" lon="4.00898">
        <ele>579.0</ele>
      </trkpt>
      <trkpt lat="46.93997" lon="4.01037">
        <ele>580.0</ele>
      </trkpt>
      <trkpt lat="46.94013" lon="4.01101">
        <ele>579.0</ele>
      </trkpt>
      <trkpt lat="46.94109" lon="4.0105">
        <ele>576.0</ele>
      </trkpt>
      <trkpt lat="46.94215" lon="4.01015">
        <ele>574.0</ele>
      </trkpt>
      <trkpt lat="46.94323" lon="4.01047">
        <ele>572.0</ele>
      </trkpt>
      <trkpt lat="46.94297" lon="4.01101">
        <ele>569.0</ele>
      </trkpt>
      <trkpt lat="46.94183" lon="4.01224">
        <ele>561.0</ele>
      </trkpt>
      <trkpt lat="46.94168" lon="4.01326">
        <ele>560.0</ele>
      </trkpt>
      <trkpt lat="46.94176" lon="4.01427">
        <ele>561.0</ele>
      </trkpt>
      <trkpt lat="46.94116" lon="4.01472">
        <ele>559.0</ele>
      </trkpt>
      <trkpt lat="46.94038" lon="4.01595">
        <ele>552.0</ele>
      </trkpt>
      <trkpt lat="46.9401" lon="4.01764">
        <ele>546.0</ele>
      </trkpt>
      <trkpt lat="46.93978" lon="4.02006">
        <ele>537.0</ele>
      </trkpt>
      <trkpt lat="46.94002" lon="4.02075">
        <ele>533.0</ele>
      </trkpt>
      <trkpt lat="46.94055" lon="4.02116">
        <ele>531.0</ele>
      </trkpt>
      <trkpt lat="46.94094" lon="4.02162">
        <ele>530.0</ele>
      </trkpt>
      <trkpt lat="46.94189" lon="4.02164">
        <ele>530.0</ele>
      </trkpt>
      <trkpt lat="46.94225" lon="4.02185">
        <ele>531.0</ele>
      </trkpt>
      <trkpt lat="46.94227" lon="4.02265">
        <ele>531.0</ele>
      </trkpt>
      <trkpt lat="46.94143" lon="4.02311">
        <ele>528.0</ele>
      </trkpt>
      <trkpt lat="46.94045" lon="4.02418">
        <ele>526.0</ele>
      </trkpt>
      <trkpt lat="46.94008" lon="4.02623">
        <ele>528.0</ele>
      </trkpt>
      <trkpt lat="46.94026" lon="4.0309">
        <ele>536.0</ele>
      </trkpt>
      <trkpt lat="46.94009" lon="4.03306">
        <ele>542.0</ele>
      </trkpt>
      <trkpt lat="46.93953" lon="4.03408">
        <ele>545.0</ele>
      </trkpt>
      <trkpt lat="46.93748" lon="4.03653">
        <ele>552.0</ele>
      </trkpt>
      <trkpt lat="46.93683" lon="4.03762">
        <ele>563.0</ele>
      </trkpt>
      <trkpt lat="46.93626" lon="4.04226">
        <ele>579.0</ele>
      </trkpt>
      <trkpt lat="46.93531" lon="4.04463">
        <ele>594.0</ele>
      </trkpt>
      <trkpt lat="46.93442" lon="4.04505">
        <ele>598.0</ele>
      </trkpt>
      <trkpt lat="46.93377" lon="4.04618">
        <ele>601.0</ele>
      </trkpt>
      <trkpt lat="46.93337" lon="4.04723">
        <ele>603.0</ele>
      </trkpt>
      <trkpt lat="46.93337" lon="4.04842">
        <ele>604.0</ele>
      </trkpt>
      <trkpt lat="46.93324" lon="4.04916">
        <ele>605.0</ele>
      </trkpt>
      <trkpt lat="46.93264" lon="4.0496">
        <ele>608.0</ele>
      </trkpt>
      <trkpt lat="46.93191" lon="4.04927">
        <ele>611.0</ele>
      </trkpt>
      <trkpt lat="46.93126" lon="4.04867">
        <ele>614.0</ele>
      </trkpt>
      <trkpt lat="46.93042" lon="4.04783">
        <ele>615.0</ele>
      </trkpt>
      <trkpt lat="46.93008" lon="4.04797">
        <ele>614.0</ele>
      </trkpt>
      <trkpt lat="46.92952" lon="4.04941">
        <ele>607.0</ele>
      </trkpt>
      <trkpt lat="46.9281" lon="4.05078">
        <ele>598.0</ele>
      </trkpt>
      <trkpt lat="46.92723" lon="4.0516">
        <ele>591.0</ele>
      </trkpt>
      <trkpt lat="46.92689" lon="4.05294">
        <ele>585.0</ele>
      </trkpt>
      <trkpt lat="46.92656" lon="4.05443">
        <ele>578.0</ele>
      </trkpt>
      <trkpt lat="46.92636" lon="4.05635">
        <ele>566.0</ele>
      </trkpt>
      <trkpt lat="46.92594" lon="4.05741">
        <ele>559.0</ele>
      </trkpt>
      <trkpt lat="46.92502" lon="4.05835">
        <ele>549.0</ele>
      </trkpt>
      <trkpt lat="46.92336" lon="4.0587">
        <ele>539.0</ele>
      </trkpt>
      <trkpt lat="46.92283" lon="4.05902">
        <ele>531.0</ele>
      </trkpt>
      <trkpt lat="46.92177" lon="4.06047">
        <ele>524.0</ele>
      </trkpt>
      <trkpt lat="46.91924" lon="4.06105">
        <ele>508.0</ele>
      </trkpt>
      <trkpt lat="46.9186" lon="4.06151">
        <ele>501.0</ele>
      </trkpt>
      <trkpt lat="46.91836" lon="4.06328">
        <ele>497.0</ele>
      </trkpt>
      <trkpt lat="46.91818" lon="4.06423">
        <ele>494.0</ele>
      </trkpt>
      <trkpt lat="46.91757" lon="4.06664">
        <ele>491.0</ele>
      </trkpt>
      <trkpt lat="46.91803" lon="4.06712">
        <ele>489.0</ele>
      </trkpt>
      <trkpt lat="46.91956" lon="4.06827">
        <ele>486.0</ele>
      </trkpt>
      <trkpt lat="46.92032" lon="4.07078">
        <ele>485.0</ele>
      </trkpt>
      <trkpt lat="46.91988" lon="4.07343">
        <ele>476.0</ele>
      </trkpt>
      <trkpt lat="46.92049" lon="4.07501">
        <ele>468.0</ele>
      </trkpt>
      <trkpt lat="46.92188" lon="4.07678">
        <ele>456.0</ele>
      </trkpt>
      <trkpt lat="46.9218" lon="4.07732">
        <ele>453.0</ele>
      </trkpt>
      <trkpt lat="46.92021" lon="4.0791">
        <ele>448.0</ele>
      </trkpt>
      <trkpt lat="46.91961" lon="4.08004">
        <ele>444.0</ele>
      </trkpt>
      <trkpt lat="46.91906" lon="4.08118">
        <ele>444.0</ele>
      </trkpt>
      <trkpt lat="46.91912" lon="4.0821">
        <ele>444.0</ele>
      </trkpt>
      <trkpt lat="46.91925" lon="4.08246">
        <ele>444.0</ele>
      </trkpt>
      <trkpt lat="46.91969" lon="4.08301">
        <ele>444.0</ele>
      </trkpt>
      <trkpt lat="46.91982" lon="4.0837">
        <ele>443.0</ele>
      </trkpt>
      <trkpt lat="46.91972" lon="4.08429">
        <ele>442.0</ele>
      </trkpt>
      <trkpt lat="46.91939" lon="4.08501">
        <ele>442.0</ele>
      </trkpt>
      <trkpt lat="46.9192" lon="4.08584">
        <ele>444.0</ele>
      </trkpt>
      <trkpt lat="46.91867" lon="4.08681">
        <ele>446.0</ele>
      </trkpt>
      <trkpt lat="46.91856" lon="4.08726">
        <ele>447.0</ele>
      </trkpt>
      <trkpt lat="46.91861" lon="4.08794">
        <ele>446.0</ele>
      </trkpt>
      <trkpt lat="46.91888" lon="4.08868">
        <ele>445.0</ele>
      </trkpt>
      <trkpt lat="46.91901" lon="4.08973">
        <ele>443.0</ele>
      </trkpt>
      <trkpt lat="46.9193" lon="4.09095">
        <ele>442.0</ele>
      </trkpt>
      <trkpt lat="46.91982" lon="4.09178">
        <ele>442.0</ele>
      </trkpt>
      <trkpt lat="46.92026" lon="4.09208">
        <ele>441.0</ele>
      </trkpt>
      <trkpt lat="46.92067" lon="4.09273">
        <ele>440.0</ele>
      </trkpt>
      <trkpt lat="46.92076" lon="4.09337">
        <ele>439.0</ele>
      </trkpt>
      <trkpt lat="46.92075" lon="4.09537">
        <ele>436.0</ele>
      </trkpt>
      <trkpt lat="46.92096" lon="4.09619">
        <ele>433.0</ele>
      </trkpt>
      <trkpt lat="46.92185" lon="4.09791">
        <ele>431.0</ele>
      </trkpt>
      <trkpt lat="46.92218" lon="4.09886">
        <ele>431.0</ele>
      </trkpt>
      <trkpt lat="46.92266" lon="4.09996">
        <ele>432.0</ele>
      </trkpt>
      <trkpt lat="46.92298" lon="4.1004">
        <ele>431.0</ele>
      </trkpt>
      <trkpt lat="46.92353" lon="4.10073">
        <ele>430.0</ele>
      </trkpt>
      <trkpt lat="46.92399" lon="4.10077">
        <ele>429.0</ele>
      </trkpt>
      <trkpt lat="46.92461" lon="4.10054">
        <ele>427.0</ele>
      </trkpt>
      <trkpt lat="46.92728" lon="4.10036">
        <ele>420.0</ele>
      </trkpt>
      <trkpt lat="46.92782" lon="4.10056">
        <ele>417.0</ele>
      </trkpt>
      <trkpt lat="46.92828" lon="4.10148">
        <ele>414.0</ele>
      </trkpt>
      <trkpt lat="46.92831" lon="4.10191">
        <ele>412.0</ele>
      </trkpt>
      <trkpt lat="46.92827" lon="4.10246">
        <ele>411.0</ele>
      </trkpt>
      <trkpt lat="46.92863" lon="4.10268">
        <ele>409.0</ele>
      </trkpt>
      <trkpt lat="46.92915" lon="4.10214">
        <ele>407.0</ele>
      </trkpt>
      <trkpt lat="46.92958" lon="4.1016">
        <ele>404.0</ele>
      </trkpt>
      <trkpt lat="46.93022" lon="4.10157">
        <ele>401.0</ele>
      </trkpt>
      <trkpt lat="46.93059" lon="4.10172">
        <ele>400.0</ele>
      </trkpt>
      <trkpt lat="46.93128" lon="4.10263">
        <ele>397.0</ele>
      </trkpt>
      <trkpt lat="46.93184" lon="4.10382">
        <ele>394.0</ele>
      </trkpt>
      <trkpt lat="46.93252" lon="4.10428">
        <ele>391.0</ele>
      </trkpt>
      <trkpt lat="46.93398" lon="4.10579">
        <ele>384.0</ele>
      </trkpt>
      <trkpt lat="46.93474" lon="4.10607">
        <ele>379.0</ele>
      </trkpt>
      <trkpt lat="46.93506" lon="4.10677">
        <ele>377.0</ele>
      </trkpt>
      <trkpt lat="46.93592" lon="4.10902">
        <ele>376.0</ele>
      </trkpt>
      <trkpt lat="46.93664" lon="4.10957">
        <ele>378.0</ele>
      </trkpt>
      <trkpt lat="46.93704" lon="4.11025">
        <ele>379.0</ele>
      </trkpt>
      <trkpt lat="46.93744" lon="4.11132">
        <ele>376.0</ele>
      </trkpt>
      <trkpt lat="46.93929" lon="4.11447">
        <ele>371.0</ele>
      </trkpt>
      <trkpt lat="46.94101" lon="4.11877">
        <ele>375.0</ele>
      </trkpt>
      <trkpt lat="46.94157" lon="4.1198">
        <ele>374.0</ele>
      </trkpt>
      <trkpt lat="46.94508" lon="4.12332">
        <ele>363.0</ele>
      </trkpt>
      <trkpt lat="46.94627" lon="4.1245">
        <ele>356.0</ele>
      </trkpt>
      <trkpt lat="46.94759" lon="4.12736">
        <ele>356.0</ele>
      </trkpt>
      <trkpt lat="46.94911" lon="4.13009">
        <ele>360.0</ele>
      </trkpt>
      <trkpt lat="46.9497" lon="4.13135">
        <ele>363.0</ele>
      </trkpt>
      <trkpt lat="46.94974" lon="4.13302">
        <ele>365.0</ele>
      </trkpt>
      <trkpt lat="46.94952" lon="4.13508">
        <ele>364.0</ele>
      </trkpt>
      <trkpt lat="46.94962" lon="4.13659">
        <ele>362.0</ele>
      </trkpt>
      <trkpt lat="46.9489" lon="4.13933">
        <ele>359.0</ele>
      </trkpt>
      <trkpt lat="46.94835" lon="4.14044">
        <ele>358.0</ele>
      </trkpt>
      <trkpt lat="46.94809" lon="4.14205">
        <ele>359.0</ele>
      </trkpt>
      <trkpt lat="46.9478" lon="4.14293">
        <ele>361.0</ele>
      </trkpt>
      <trkpt lat="46.94703" lon="4.14447">
        <ele>363.0</ele>
      </trkpt>
      <trkpt lat="46.9463" lon="4.14668">
        <ele>366.0</ele>
      </trkpt>
      <trkpt lat="46.94565" lon="4.15055">
        <ele>370.0</ele>
      </trkpt>
      <trkpt lat="46.94495" lon="4.15411">
        <ele>381.0</ele>
      </trkpt>
      <trkpt lat="46.94509" lon="4.15523">
        <ele>389.0</ele>
      </trkpt>
      <trkpt lat="46.9461" lon="4.15685">
        <ele>395.0</ele>
      </trkpt>
      <trkpt lat="46.9473" lon="4.15986">
        <ele>398.0</ele>
      </trkpt>
      <trkpt lat="46.94791" lon="4.16089">
        <ele>393.0</ele>
      </trkpt>
      <trkpt lat="46.94768" lon="4.16167">
        <ele>390.0</ele>
      </trkpt>
      <trkpt lat="46.9472" lon="4.16137">
        <ele>388.0</ele>
      </trkpt>
      <trkpt lat="46.9468" lon="4.16033">
        <ele>384.0</ele>
      </trkpt>
      <trkpt lat="46.94645" lon="4.16041">
        <ele>380.0</ele>
      </trkpt>
      <trkpt lat="46.94665" lon="4.16172">
        <ele>376.0</ele>
      </trkpt>
      <trkpt lat="46.94687" lon="4.16301">
        <ele>371.0</ele>
      </trkpt>
      <trkpt lat="46.94789" lon="4.16494">
        <ele>363.0</ele>
      </trkpt>
      <trkpt lat="46.94809" lon="4.16539">
        <ele>358.0</ele>
      </trkpt>
      <trkpt lat="46.94842" lon="4.16765">
        <ele>349.0</ele>
      </trkpt>
      <trkpt lat="46.9494" lon="4.16974">
        <ele>346.0</ele>
      </trkpt>
      <trkpt lat="46.95034" lon="4.17188">
        <ele>337.0</ele>
      </trkpt>
      <trkpt lat="46.95074" lon="4.17516">
        <ele>328.0</ele>
      </trkpt>
      <trkpt lat="46.95097" lon="4.17716">
        <ele>324.0</ele>
      </trkpt>
      <trkpt lat="46.95129" lon="4.18172">
        <ele>320.0</ele>
      </trkpt>
      <trkpt lat="46.94954" lon="4.18887">
        <ele>310.0</ele>
      </trkpt>
      <trkpt lat="46.94937" lon="4.19097">
        <ele>302.0</ele>
      </trkpt>
      <trkpt lat="46.94908" lon="4.1929">
        <ele>297.0</ele>
      </trkpt>
      <trkpt lat="46.94875" lon="4.19592">
        <ele>292.0</ele>
      </trkpt>
      <trkpt lat="46.94882" lon="4.19907">
        <ele>293.0</ele>
      </trkpt>
      <trkpt lat="46.94929" lon="4.20481">
        <ele>305.0</ele>
      </trkpt>
      <trkpt lat="46.94944" lon="4.20615">
        <ele>314.0</ele>
      </trkpt>
      <trkpt lat="46.94949" lon="4.20808">
        <ele>321.0</ele>
      </trkpt>
      <trkpt lat="46.94967" lon="4.2086">
        <ele>322.0</ele>
      </trkpt>
      <trkpt lat="46.95043" lon="4.20889">
        <ele>320.0</ele>
      </trkpt>
      <trkpt lat="46.95053" lon="4.20966">
        <ele>317.0</ele>
      </trkpt>
      <trkpt lat="46.95015" lon="4.21154">
        <ele>309.0</ele>
      </trkpt>
      <trkpt lat="46.95043" lon="4.21316">
        <ele>301.0</ele>
      </trkpt>
      <trkpt lat="46.95213" lon="4.216">
        <ele>297.0</ele>
      </trkpt>
      <trkpt lat="46.95327" lon="4.21844">
        <ele>294.0</ele>
      </trkpt>
      <trkpt lat="46.95479" lon="4.22141">
        <ele>292.0</ele>
      </trkpt>
      <trkpt lat="46.95639" lon="4.22265">
        <ele>292.0</ele>
      </trkpt>
      <trkpt lat="46.957" lon="4.22343">
        <ele>294.0</ele>
      </trkpt>
      <trkpt lat="46.95726" lon="4.22429">
        <ele>296.0</ele>
      </trkpt>
      <trkpt lat="46.95746" lon="4.22534">
        <ele>295.0</ele>
      </trkpt>
      <trkpt lat="46.958" lon="4.22669">
        <ele>292.0</ele>
      </trkpt>
      <trkpt lat="46.95795" lon="4.22891">
        <ele>292.0</ele>
      </trkpt>
      <trkpt lat="46.95759" lon="4.23614">
        <ele>297.0</ele>
      </trkpt>
      <trkpt lat="46.95727" lon="4.24219">
        <ele>302.0</ele>
      </trkpt>
      <trkpt lat="46.95705" lon="4.24534">
        <ele>305.0</ele>
      </trkpt>
      <trkpt lat="46.95653" lon="4.24929">
        <ele>299.0</ele>
      </trkpt>
      <trkpt lat="46.95597" lon="4.25285">
        <ele>294.0</ele>
      </trkpt>
      <trkpt lat="46.95529" lon="4.25404">
        <ele>291.0</ele>
      </trkpt>
      <trkpt lat="46.956" lon="4.25621">
        <ele>291.0</ele>
      </trkpt>
      <trkpt lat="46.95731" lon="4.25882">
        <ele>295.0</ele>
      </trkpt>
      <trkpt lat="46.95875" lon="4.26253">
        <ele>294.0</ele>
      </trkpt>
      <trkpt lat="46.95916" lon="4.26431">
        <ele>291.0</ele>
      </trkpt>
      <trkpt lat="46.9592" lon="4.26593">
        <ele>289.0</ele>
      </trkpt>
      <trkpt lat="46.95848" lon="4.27238">
        <ele>286.0</ele>
      </trkpt>
      <trkpt lat="46.95775" lon="4.27778">
        <ele>285.0</ele>
      </trkpt>
      <trkpt lat="46.95743" lon="4.28014">
        <ele>284.0</ele>
      </trkpt>
      <trkpt lat="46.95672" lon="4.28529">
        <ele>283.0</ele>
      </trkpt>
      <trkpt lat="46.95654" lon="4.28655">
        <ele>284.0</ele>
      </trkpt>
      <trkpt lat="46.95647" lon="4.28728">
        <ele>285.0</ele>
      </trkpt>
      <trkpt lat="46.95647" lon="4.28753">
        <ele>285.0</ele>
      </trkpt>
      <trkpt lat="46.95645" lon="4.28818">
        <ele>285.0</ele>
      </trkpt>
      <trkpt lat="46.95638" lon="4.2884">
        <ele>286.0</ele>
      </trkpt>
      <trkpt lat="46.9557" lon="4.28948">
        <ele>288.0</ele>
      </trkpt>
      <trkpt lat="46.95549" lon="4.29006">
        <ele>290.0</ele>
      </trkpt>
      <trkpt lat="46.95534" lon="4.29039">
        <ele>292.0</ele>
      </trkpt>
      <trkpt lat="46.95448" lon="4.29108">
        <ele>295.0</ele>
      </trkpt>
      <trkpt lat="46.95408" lon="4.2914">
        <ele>299.0</ele>
      </trkpt>
      <trkpt lat="46.95396" lon="4.29164">
        <ele>301.0</ele>
      </trkpt>
      <trkpt lat="46.95398" lon="4.29191">
        <ele>301.0</ele>
      </trkpt>
      <trkpt lat="46.9545" lon="4.29323">
        <ele>303.0</ele>
      </trkpt>
      <trkpt lat="46.95461" lon="4.29378">
        <ele>304.0</ele>
      </trkpt>
      <trkpt lat="46.95447" lon="4.29472">
        <ele>306.0</ele>
      </trkpt>
      <trkpt lat="46.95271" lon="4.29635">
        <ele>312.0</ele>
      </trkpt>
      <trkpt lat="46.95182" lon="4.29718">
        <ele>318.0</ele>
      </trkpt>
      <trkpt lat="46.95034" lon="4.29852">
        <ele>324.0</ele>
      </trkpt>
      <trkpt lat="46.95015" lon="4.29871">
        <ele>328.0</ele>
      </trkpt>
      <trkpt lat="46.95002" lon="4.2989">
        <ele>329.0</ele>
      </trkpt>
      <trkpt lat="46.94974" lon="4.29947">
        <ele>332.0</ele>
      </trkpt>
      <trkpt lat="46.9496" lon="4.30005">
        <ele>333.0</ele>
      </trkpt>
      <trkpt lat="46.94986" lon="4.30112">
        <ele>334.0</ele>
      </trkpt>
      <trkpt lat="46.95066" lon="4.30313">
        <ele>336.0</ele>
      </trkpt>
      <trkpt lat="46.95076" lon="4.30372">
        <ele>335.0</ele>
      </trkpt>
      <trkpt lat="46.95073" lon="4.30465">
        <ele>335.0</ele>
      </trkpt>
      <trkpt lat="46.95372" lon="4.30858">
        <ele>326.0</ele>
      </trkpt>
      <trkpt lat="46.95416" lon="4.30916">
        <ele>321.0</ele>
      </trkpt>
      <trkpt lat="46.9547" lon="4.30999">
        <ele>315.0</ele>
      </trkpt>
      <trkpt lat="46.95488" lon="4.31047">
        <ele>312.0</ele>
      </trkpt>
      <trkpt lat="46.95491" lon="4.31086">
        <ele>309.0</ele>
      </trkpt>
      <trkpt lat="46.9545" lon="4.31099">
        <ele>309.0</ele>
      </trkpt>
      <trkpt lat="46.95392" lon="4.31105">
        <ele>309.0</ele>
      </trkpt>
      <trkpt lat="46.95278" lon="4.31169">
        <ele>310.0</ele>
      </trkpt>
      <trkpt lat="46.95251" lon="4.3117">
        <ele>312.0</ele>
      </trkpt>
      <trkpt lat="46.9519" lon="4.31139">
        <ele>314.0</ele>
      </trkpt>
      <trkpt lat="46.95153" lon="4.31125">
        <ele>316.0</ele>
      </trkpt>
      <trkpt lat="46.95071" lon="4.31093">
        <ele>319.0</ele>
      </trkpt>
      <trkpt lat="46.94808" lon="4.30834">
        <ele>318.0</ele>
      </trkpt>
      <trkpt lat="46.94716" lon="4.30743">
        <ele>318.0</ele>
      </trkpt>
      <trkpt lat="46.94695" lon="4.30717">
        <ele>319.0</ele>
      </trkpt>
      <trkpt lat="46.94597" lon="4.30611">
        <ele>320.0</ele>
      </trkpt>
      <trkpt lat="46.9455" lon="4.30541">
        <ele>322.0</ele>
      </trkpt>
      <trkpt lat="46.94514" lon="4.30475">
        <ele>325.0</ele>
      </trkpt>
      <trkpt lat="46.94474" lon="4.30511">
        <ele>327.0</ele>
      </trkpt>
      <trkpt lat="46.94297" lon="4.30708">
        <ele>343.0</ele>
      </trkpt>
      <trkpt lat="46.94139" lon="4.30799">
        <ele>362.0</ele>
      </trkpt>
      <trkpt lat="46.94083" lon="4.30874">
        <ele>376.0</ele>
      </trkpt>
      <trkpt lat="46.94065" lon="4.30963">
        <ele>383.0</ele>
      </trkpt>
      <trkpt lat="46.94051" lon="4.31117">
        <ele>395.0</ele>
      </trkpt>
      <trkpt lat="46.9406" lon="4.31262">
        <ele>403.0</ele>
      </trkpt>
      <trkpt lat="46.9406" lon="4.31375">
        <ele>412.0</ele>
      </trkpt>
      <trkpt lat="46.94046" lon="4.31449">
        <ele>417.0</ele>
      </trkpt>
      <trkpt lat="46.94036" lon="4.31501">
        <ele>420.0</ele>
      </trkpt>
      <trkpt lat="46.94031" lon="4.31495">
        <ele>423.0</ele>
      </trkpt>
      <trkpt lat="46.94036" lon="4.31432">
        <ele>423.0</ele>
      </trkpt>
      <trkpt lat="46.9404" lon="4.31324">
        <ele>422.0</ele>
      </trkpt>
      <trkpt lat="46.93997" lon="4.31118">
        <ele>419.0</ele>
      </trkpt>
      <trkpt lat="46.93992" lon="4.30822">
        <ele>412.0</ele>
      </trkpt>
      <trkpt lat="46.93986" lon="4.30759">
        <ele>406.0</ele>
      </trkpt>
      <trkpt lat="46.9396" lon="4.3066">
        <ele>401.0</ele>
      </trkpt>
      <trkpt lat="46.93892" lon="4.30488">
        <ele>396.0</ele>
      </trkpt>
      <trkpt lat="46.93838" lon="4.30311">
        <ele>390.0</ele>
      </trkpt>
      <trkpt lat="46.93813" lon="4.3024">
        <ele>391.0</ele>
      </trkpt>
      <trkpt lat="46.93785" lon="4.30184">
        <ele>392.0</ele>
      </trkpt>
      <trkpt lat="46.93789" lon="4.30214">
        <ele>393.0</ele>
      </trkpt>
      <trkpt lat="46.93792" lon="4.30252">
        <ele>394.0</ele>
      </trkpt>
      <trkpt lat="46.9373" lon="4.30166">
        <ele>400.0</ele>
      </trkpt>
      <trkpt lat="46.93655" lon="4.30059">
        <ele>410.0</ele>
      </trkpt>
      <trkpt lat="46.93581" lon="4.29936">
        <ele>418.0</ele>
      </trkpt>
      <trkpt lat="46.93456" lon="4.29726">
        <ele>431.0</ele>
      </trkpt>
      <trkpt lat="46.93421" lon="4.29674">
        <ele>445.0</ele>
      </trkpt>
      <trkpt lat="46.93427" lon="4.29827">
        <ele>455.0</ele>
      </trkpt>
      <trkpt lat="46.9342" lon="4.29996">
        <ele>472.0</ele>
      </trkpt>
      <trkpt lat="46.93397" lon="4.29956">
        <ele>478.0</ele>
      </trkpt>
      <trkpt lat="46.93374" lon="4.29816">
        <ele>486.0</ele>
      </trkpt>
      <trkpt lat="46.93258" lon="4.29586">
        <ele>500.0</ele>
      </trkpt>
      <trkpt lat="46.93247" lon="4.29496">
        <ele>509.0</ele>
      </trkpt>
      <trkpt lat="46.93225" lon="4.29493">
        <ele>512.0</ele>
      </trkpt>
      <trkpt lat="46.93242" lon="4.29692">
        <ele>518.0</ele>
      </trkpt>
      <trkpt lat="46.93236" lon="4.29779">
        <ele>524.0</ele>
      </trkpt>
      <trkpt lat="46.9322" lon="4.29706">
        <ele>528.0</ele>
      </trkpt>
      <trkpt lat="46.93179" lon="4.29554">
        <ele>532.0</ele>
      </trkpt>
      <trkpt lat="46.93156" lon="4.29431">
        <ele>539.0</ele>
      </trkpt>
      <trkpt lat="46.93102" lon="4.29289">
        <ele>548.0</ele>
      </trkpt>
      <trkpt lat="46.93053" lon="4.29214">
        <ele>556.0</ele>
      </trkpt>
      <trkpt lat="46.93013" lon="4.29118">
        <ele>564.0</ele>
      </trkpt>
      <trkpt lat="46.92986" lon="4.29126">
        <ele>568.0</ele>
      </trkpt>
      <trkpt lat="46.92966" lon="4.29235">
        <ele>574.0</ele>
      </trkpt>
      <trkpt lat="46.92936" lon="4.29239">
        <ele>576.0</ele>
      </trkpt>
      <trkpt lat="46.92842" lon="4.29139">
        <ele>577.0</ele>
      </trkpt>
      <trkpt lat="46.92681" lon="4.28974">
        <ele>573.0</ele>
      </trkpt>
      <trkpt lat="46.92367" lon="4.28632">
        <ele>571.0</ele>
      </trkpt>
      <trkpt lat="46.92262" lon="4.28423">
        <ele>577.0</ele>
      </trkpt>
      <trkpt lat="46.92231" lon="4.28395">
        <ele>580.0</ele>
      </trkpt>
      <trkpt lat="46.9215" lon="4.28352">
        <ele>583.0</ele>
      </trkpt>
      <trkpt lat="46.92104" lon="4.28318">
        <ele>587.0</ele>
      </trkpt>
      <trkpt lat="46.9201" lon="4.28215">
        <ele>593.0</ele>
      </trkpt>
      <trkpt lat="46.91713" lon="4.2796">
        <ele>591.0</ele>
      </trkpt>
      <trkpt lat="46.9159" lon="4.2799">
        <ele>590.0</ele>
      </trkpt>
      <trkpt lat="46.91516" lon="4.27942">
        <ele>590.0</ele>
      </trkpt>
      <trkpt lat="46.91391" lon="4.27745">
        <ele>590.0</ele>
      </trkpt>
      <trkpt lat="46.913" lon="4.27562">
        <ele>589.0</ele>
      </trkpt>
      <trkpt lat="46.91076" lon="4.27544">
        <ele>582.0</ele>
      </trkpt>
      <trkpt lat="46.90924" lon="4.27525">
        <ele>575.0</ele>
      </trkpt>
      <trkpt lat="46.90824" lon="4.27275">
        <ele>570.0</ele>
      </trkpt>
      <trkpt lat="46.90749" lon="4.27102">
        <ele>559.0</ele>
      </trkpt>
      <trkpt lat="46.90505" lon="4.26925">
        <ele>550.0</ele>
      </trkpt>
      <trkpt lat="46.9026" lon="4.26757">
        <ele>536.0</ele>
      </trkpt>
      <trkpt lat="46.90119" lon="4.26454">
        <ele>516.0</ele>
      </trkpt>
      <trkpt lat="46.90048" lon="4.26366">
        <ele>503.0</ele>
      </trkpt>
      <trkpt lat="46.89946" lon="4.26312">
        <ele>493.0</ele>
      </trkpt>
      <trkpt lat="46.89831" lon="4.26256">
        <ele>485.0</ele>
      </trkpt>
      <trkpt lat="46.89744" lon="4.26075">
        <ele>477.0</ele>
      </trkpt>
      <trkpt lat="46.89701" lon="4.25922">
        <ele>469.0</ele>
      </trkpt>
      <trkpt lat="46.89698" lon="4.25853">
        <ele>466.0</ele>
      </trkpt>
      <trkpt lat="46.89623" lon="4.25841">
        <ele>464.0</ele>
      </trkpt>
      <trkpt lat="46.89467" lon="4.25904">
        <ele>455.0</ele>
      </trkpt>
      <trkpt lat="46.89349" lon="4.25966">
        <ele>442.0</ele>
      </trkpt>
      <trkpt lat="46.89351" lon="4.25879">
        <ele>433.0</ele>
      </trkpt>
      <trkpt lat="46.89425" lon="4.25771">
        <ele>427.0</ele>
      </trkpt>
      <trkpt lat="46.89502" lon="4.2564">
        <ele>419.0</ele>
      </trkpt>
      <trkpt lat="46.89457" lon="4.2557">
        <ele>415.0</ele>
      </trkpt>
      <trkpt lat="46.89208" lon="4.25311">
        <ele>403.0</ele>
      </trkpt>
      <trkpt lat="46.88953" lon="4.2505">
        <ele>400.0</ele>
      </trkpt>
      <trkpt lat="46.88764" lon="4.24852">
        <ele>400.0</ele>
      </trkpt>
      <trkpt lat="46.88635" lon="4.24733">
        <ele>395.0</ele>
      </trkpt>
      <trkpt lat="46.88376" lon="4.24631">
        <ele>388.0</ele>
      </trkpt>
      <trkpt lat="46.88265" lon="4.24576">
        <ele>382.0</ele>
      </trkpt>
      <trkpt lat="46.8823" lon="4.24456">
        <ele>379.0</ele>
      </trkpt>
      <trkpt lat="46.88141" lon="4.24332">
        <ele>373.0</ele>
      </trkpt>
      <trkpt lat="46.88026" lon="4.24267">
        <ele>364.0</ele>
      </trkpt>
      <trkpt lat="46.87974" lon="4.24247">
        <ele>359.0</ele>
      </trkpt>
      <trkpt lat="46.87949" lon="4.24292">
        <ele>357.0</ele>
      </trkpt>
      <trkpt lat="46.87922" lon="4.24335">
        <ele>355.0</ele>
      </trkpt>
      <trkpt lat="46.87822" lon="4.24364">
        <ele>351.0</ele>
      </trkpt>
      <trkpt lat="46.87746" lon="4.24385">
        <ele>345.0</ele>
      </trkpt>
      <trkpt lat="46.877" lon="4.24335">
        <ele>342.0</ele>
      </trkpt>
      <trkpt lat="46.87658" lon="4.24326">
        <ele>339.0</ele>
      </trkpt>
      <trkpt lat="46.87617" lon="4.24291">
        <ele>337.0</ele>
      </trkpt>
      <trkpt lat="46.87551" lon="4.2425">
        <ele>333.0</ele>
      </trkpt>
      <trkpt lat="46.8746" lon="4.24309">
        <ele>330.0</ele>
      </trkpt>
      <trkpt lat="46.87148" lon="4.24181">
        <ele>320.0</ele>
      </trkpt>
      <trkpt lat="46.8695" lon="4.24092">
        <ele>306.0</ele>
      </trkpt>
      <trkpt lat="46.86825" lon="4.24067">
        <ele>300.0</ele>
      </trkpt>
      <trkpt lat="46.86637" lon="4.24042">
        <ele>294.0</ele>
      </trkpt>
      <trkpt lat="46.86444" lon="4.24015">
        <ele>290.0</ele>
      </trkpt>
      <trkpt lat="46.86419" lon="4.24007">
        <ele>289.0</ele>
      </trkpt>
      <trkpt lat="46.86429" lon="4.23992">
        <ele>289.0</ele>
      </trkpt>
      <trkpt lat="46.86494" lon="4.23915">
        <ele>288.0</ele>
      </trkpt>
      <trkpt lat="46.86523" lon="4.23856">
        <ele>287.0</ele>
      </trkpt>
      <trkpt lat="46.86607" lon="4.23625">
        <ele>284.0</ele>
      </trkpt>
      <trkpt lat="46.86782" lon="4.232">
        <ele>284.0</ele>
      </trkpt>
      <trkpt lat="46.86808" lon="4.23071">
        <ele>284.0</ele>
      </trkpt>
      <trkpt lat="46.86794" lon="4.22789">
        <ele>283.0</ele>
      </trkpt>
      <trkpt lat="46.86749" lon="4.22652">
        <ele>282.0</ele>
      </trkpt>
      <trkpt lat="46.86696" lon="4.22475">
        <ele>282.0</ele>
      </trkpt>
      <trkpt lat="46.86698" lon="4.2236">
        <ele>284.0</ele>
      </trkpt>
      <trkpt lat="46.86726" lon="4.2211">
        <ele>286.0</ele>
      </trkpt>
      <trkpt lat="46.86793" lon="4.2118">
        <ele>286.0</ele>
      </trkpt>
      <trkpt lat="46.86779" lon="4.21042">
        <ele>284.0</ele>
      </trkpt>
      <trkpt lat="46.86739" lon="4.20818">
        <ele>286.0</ele>
      </trkpt>
      <trkpt lat="46.86737" lon="4.20499">
        <ele>284.0</ele>
      </trkpt>
      <trkpt lat="46.86745" lon="4.20395">
        <ele>283.0</ele>
      </trkpt>
      <trkpt lat="46.86756" lon="4.2023">
        <ele>285.0</ele>
      </trkpt>
      <trkpt lat="46.86694" lon="4.20001">
        <ele>285.0</ele>
      </trkpt>
      <trkpt lat="46.86672" lon="4.1991">
        <ele>284.0</ele>
      </trkpt>
      <trkpt lat="46.86664" lon="4.19887">
        <ele>283.0</ele>
      </trkpt>
      <trkpt lat="46.86614" lon="4.19749">
        <ele>280.0</ele>
      </trkpt>
      <trkpt lat="46.86598" lon="4.19658">
        <ele>276.0</ele>
      </trkpt>
      <trkpt lat="46.8669" lon="4.19267">
        <ele>273.0</ele>
      </trkpt>
      <trkpt lat="46.86703" lon="4.19069">
        <ele>271.0</ele>
      </trkpt>
      <trkpt lat="46.86681" lon="4.18953">
        <ele>272.0</ele>
      </trkpt>
      <trkpt lat="46.86659" lon="4.18853">
        <ele>272.0</ele>
      </trkpt>
      <trkpt lat="46.8651" lon="4.18957">
        <ele>271.0</ele>
      </trkpt>
      <trkpt lat="46.86381" lon="4.19051">
        <ele>272.0</ele>
      </trkpt>
      <trkpt lat="46.86172" lon="4.192">
        <ele>271.0</ele>
      </trkpt>
      <trkpt lat="46.86046" lon="4.1935">
        <ele>269.0</ele>
      </trkpt>
      <trkpt lat="46.85994" lon="4.19419">
        <ele>268.0</ele>
      </trkpt>
      <trkpt lat="46.85946" lon="4.19445">
        <ele>268.0</ele>
      </trkpt>
      <trkpt lat="46.8571" lon="4.19462">
        <ele>270.0</ele>
      </trkpt>
      <trkpt lat="46.85598" lon="4.1948">
        <ele>273.0</ele>
      </trkpt>
      <trkpt lat="46.85503" lon="4.19544">
        <ele>275.0</ele>
      </trkpt>
      <trkpt lat="46.8526" lon="4.19714">
        <ele>279.0</ele>
      </trkpt>
      <trkpt lat="46.85243" lon="4.19825">
        <ele>282.0</ele>
      </trkpt>
      <trkpt lat="46.85177" lon="4.19906">
        <ele>285.0</ele>
      </trkpt>
      <trkpt lat="46.85131" lon="4.19983">
        <ele>291.0</ele>
      </trkpt>
      <trkpt lat="46.85136" lon="4.20094">
        <ele>296.0</ele>
      </trkpt>
      <trkpt lat="46.85178" lon="4.20197">
        <ele>301.0</ele>
      </trkpt>
      <trkpt lat="46.85083" lon="4.20439">
        <ele>310.0</ele>
      </trkpt>
      <trkpt lat="46.85014" lon="4.20463">
        <ele>316.0</ele>
      </trkpt>
      <trkpt lat="46.84974" lon="4.20497">
        <ele>321.0</ele>
      </trkpt>
      <trkpt lat="46.84996" lon="4.20677">
        <ele>328.0</ele>
      </trkpt>
      <trkpt lat="46.84914" lon="4.20868">
        <ele>336.0</ele>
      </trkpt>
      <trkpt lat="46.849" lon="4.20969">
        <ele>343.0</ele>
      </trkpt>
      <trkpt lat="46.84937" lon="4.21224">
        <ele>353.0</ele>
      </trkpt>
      <trkpt lat="46.84902" lon="4.21458">
        <ele>363.0</ele>
      </trkpt>
      <trkpt lat="46.84839" lon="4.21663">
        <ele>371.0</ele>
      </trkpt>
      <trkpt lat="46.84746" lon="4.21925">
        <ele>376.0</ele>
      </trkpt>
      <trkpt lat="46.84727" lon="4.21985">
        <ele>376.0</ele>
      </trkpt>
      <trkpt lat="46.84658" lon="4.22122">
        <ele>382.0</ele>
      </trkpt>
      <trkpt lat="46.84598" lon="4.22169">
        <ele>387.0</ele>
      </trkpt>
      <trkpt lat="46.84524" lon="4.22274">
        <ele>396.0</ele>
      </trkpt>
      <trkpt lat="46.8438" lon="4.22425">
        <ele>410.0</ele>
      </trkpt>
      <trkpt lat="46.84298" lon="4.2251">
        <ele>418.0</ele>
      </trkpt>
      <trkpt lat="46.84239" lon="4.22597">
        <ele>425.0</ele>
      </trkpt>
      <trkpt lat="46.84188" lon="4.22604">
        <ele>430.0</ele>
      </trkpt>
      <trkpt lat="46.84141" lon="4.22676">
        <ele>435.0</ele>
      </trkpt>
      <trkpt lat="46.8407" lon="4.22781">
        <ele>439.0</ele>
      </trkpt>
      <trkpt lat="46.8405" lon="4.22917">
        <ele>441.0</ele>
      </trkpt>
      <trkpt lat="46.83975" lon="4.22997">
        <ele>436.0</ele>
      </trkpt>
      <trkpt lat="46.83921" lon="4.23048">
        <ele>431.0</ele>
      </trkpt>
      <trkpt lat="46.83819" lon="4.23081">
        <ele>423.0</ele>
      </trkpt>
      <trkpt lat="46.83768" lon="4.23128">
        <ele>416.0</ele>
      </trkpt>
      <trkpt lat="46.83684" lon="4.23137">
        <ele>410.0</ele>
      </trkpt>
      <trkpt lat="46.83634" lon="4.23149">
        <ele>405.0</ele>
      </trkpt>
      <trkpt lat="46.83607" lon="4.23176">
        <ele>402.0</ele>
      </trkpt>
      <trkpt lat="46.83607" lon="4.23214">
        <ele>399.0</ele>
      </trkpt>
      <trkpt lat="46.83615" lon="4.23304">
        <ele>396.0</ele>
      </trkpt>
      <trkpt lat="46.83618" lon="4.23432">
        <ele>397.0</ele>
      </trkpt>
      <trkpt lat="46.83633" lon="4.23517">
        <ele>398.0</ele>
      </trkpt>
      <trkpt lat="46.83635" lon="4.23587">
        <ele>400.0</ele>
      </trkpt>
      <trkpt lat="46.83644" lon="4.23678">
        <ele>403.0</ele>
      </trkpt>
      <trkpt lat="46.83719" lon="4.23774">
        <ele>407.0</ele>
      </trkpt>
      <trkpt lat="46.83704" lon="4.23818">
        <ele>412.0</ele>
      </trkpt>
      <trkpt lat="46.83663" lon="4.2381">
        <ele>415.0</ele>
      </trkpt>
      <trkpt lat="46.83596" lon="4.23777">
        <ele>421.0</ele>
      </trkpt>
      <trkpt lat="46.8344" lon="4.23781">
        <ele>431.0</ele>
      </trkpt>
      <trkpt lat="46.83359" lon="4.23808">
        <ele>440.0</ele>
      </trkpt>
      <trkpt lat="46.83299" lon="4.23901">
        <ele>450.0</ele>
      </trkpt>
      <trkpt lat="46.8327" lon="4.24019">
        <ele>458.0</ele>
      </trkpt>
      <trkpt lat="46.8321" lon="4.24131">
        <ele>467.0</ele>
      </trkpt>
      <trkpt lat="46.83178" lon="4.24208">
        <ele>472.0</ele>
      </trkpt>
      <trkpt lat="46.83098" lon="4.243">
        <ele>477.0</ele>
      </trkpt>
      <trkpt lat="46.83017" lon="4.2432">
        <ele>480.0</ele>
      </trkpt>
      <trkpt lat="46.82962" lon="4.24395">
        <ele>481.0</ele>
      </trkpt>
      <trkpt lat="46.82929" lon="4.24447">
        <ele>483.0</ele>
      </trkpt>
      <trkpt lat="46.82834" lon="4.24432">
        <ele>486.0</ele>
      </trkpt>
      <trkpt lat="46.82817" lon="4.24501">
        <ele>487.0</ele>
      </trkpt>
      <trkpt lat="46.82789" lon="4.24557">
        <ele>485.0</ele>
      </trkpt>
      <trkpt lat="46.82666" lon="4.24616">
        <ele>478.0</ele>
      </trkpt>
      <trkpt lat="46.8262" lon="4.24631">
        <ele>474.0</ele>
      </trkpt>
      <trkpt lat="46.82545" lon="4.24641">
        <ele>472.0</ele>
      </trkpt>
      <trkpt lat="46.8251" lon="4.24657">
        <ele>470.0</ele>
      </trkpt>
      <trkpt lat="46.82426" lon="4.24748">
        <ele>463.0</ele>
      </trkpt>
      <trkpt lat="46.82371" lon="4.24796">
        <ele>456.0</ele>
      </trkpt>
      <trkpt lat="46.82336" lon="4.24837">
        <ele>451.0</ele>
      </trkpt>
      <trkpt lat="46.823" lon="4.2486">
        <ele>449.0</ele>
      </trkpt>
      <trkpt lat="46.8227" lon="4.24882">
        <ele>447.0</ele>
      </trkpt>
      <trkpt lat="46.82223" lon="4.24925">
        <ele>446.0</ele>
      </trkpt>
      <trkpt lat="46.82183" lon="4.24941">
        <ele>444.0</ele>
      </trkpt>
      <trkpt lat="46.82132" lon="4.2494">
        <ele>445.0</ele>
      </trkpt>
      <trkpt lat="46.8208" lon="4.24938">
        <ele>448.0</ele>
      </trkpt>
      <trkpt lat="46.8199" lon="4.24933">
        <ele>453.0</ele>
      </trkpt>
      <trkpt lat="46.8194" lon="4.2494">
        <ele>460.0</ele>
      </trkpt>
      <trkpt lat="46.81889" lon="4.24926">
        <ele>467.0</ele>
      </trkpt>
      <trkpt lat="46.81832" lon="4.24918">
        <ele>475.0</ele>
      </trkpt>
      <trkpt lat="46.81786" lon="4.24913">
        <ele>481.0</ele>
      </trkpt>
      <trkpt lat="46.81674" lon="4.24861">
        <ele>491.0</ele>
      </trkpt>
      <trkpt lat="46.81577" lon="4.24842">
        <ele>504.0</ele>
      </trkpt>
      <trkpt lat="46.81497" lon="4.24848">
        <ele>516.0</ele>
      </trkpt>
      <trkpt lat="46.81461" lon="4.24872">
        <ele>521.0</ele>
      </trkpt>
      <trkpt lat="46.81422" lon="4.24939">
        <ele>528.0</ele>
      </trkpt>
      <trkpt lat="46.81384" lon="4.2497">
        <ele>536.0</ele>
      </trkpt>
      <trkpt lat="46.81394" lon="4.2499">
        <ele>541.0</ele>
      </trkpt>
      <trkpt lat="46.81423" lon="4.25027">
        <ele>547.0</ele>
      </trkpt>
      <trkpt lat="46.8143" lon="4.25125">
        <ele>557.0</ele>
      </trkpt>
      <trkpt lat="46.81417" lon="4.25162">
        <ele>563.0</ele>
      </trkpt>
      <trkpt lat="46.81383" lon="4.25146">
        <ele>568.0</ele>
      </trkpt>
      <trkpt lat="46.81347" lon="4.25159">
        <ele>574.0</ele>
      </trkpt>
      <trkpt lat="46.81327" lon="4.252">
        <ele>580.0</ele>
      </trkpt>
      <trkpt lat="46.8131" lon="4.25237">
        <ele>584.0</ele>
      </trkpt>
      <trkpt lat="46.81294" lon="4.25267">
        <ele>589.0</ele>
      </trkpt>
      <trkpt lat="46.81265" lon="4.25315">
        <ele>594.0</ele>
      </trkpt>
      <trkpt lat="46.81255" lon="4.25361">
        <ele>600.0</ele>
      </trkpt>
      <trkpt lat="46.81263" lon="4.25399">
        <ele>604.0</ele>
      </trkpt>
      <trkpt lat="46.81302" lon="4.25454">
        <ele>612.0</ele>
      </trkpt>
      <trkpt lat="46.81328" lon="4.25463">
        <ele>615.0</ele>
      </trkpt>
      <trkpt lat="46.81349" lon="4.25501">
        <ele>619.0</ele>
      </trkpt>
      <trkpt lat="46.81341" lon="4.2552">
        <ele>621.0</ele>
      </trkpt>
      <trkpt lat="46.81285" lon="4.2555">
        <ele>625.0</ele>
      </trkpt>
      <trkpt lat="46.81255" lon="4.25574">
        <ele>629.0</ele>
      </trkpt>
      <trkpt lat="46.81243" lon="4.25591">
        <ele>632.0</ele>
      </trkpt>
      <trkpt lat="46.81235" lon="4.25607">
        <ele>634.0</ele>
      </trkpt>
    </trkseg>
  </trk>
</gpx>