<?xml version="1.0" encoding="UTF-8"?>
<gpx xmlns="http://www.topografix.com/GPX/1/0" xmlns:xsi="http://www.w3.org/2001/XMLSchema-instance" xsi:schemaLocation="http://www.topografix.com/GPX/1/0 http://www.topografix.com/GPX/1/0/gpx.xsd" version="1.0" creator="GPSBabel - https://www.gpsbabel.org">
  <time>2026-02-02T08:40:51.742000Z</time>
  <bounds minlat="47.27674" maxlat="47.41346" minlon="2.92156" maxlon="3.00206" />
  <trk>
    <trkseg>
      <trkpt lat="47.41278" lon="2.92156">
        <ele>141.0</ele>
      </trkpt>
      <trkpt lat="47.40889" lon="2.92174">
        <ele>143.0</ele>
      </trkpt>
      <trkpt lat="47.40889" lon="2.92197">
        <ele>144.0</ele>
      </trkpt>
      <trkpt lat="47.40921" lon="2.92213">
        <ele>145.0</ele>
      </trkpt>
      <trkpt lat="47.40898" lon="2.92331">
        <ele>146.0</ele>
      </trkpt>
      <trkpt lat="47.40884" lon="2.92353">
        <ele>147.0</ele>
      </trkpt>
      <trkpt lat="47.41001" lon="2.92436">
        <ele>147.0</ele>
      </trkpt>
      <trkpt lat="47.40971" lon="2.9256">
        <ele>147.0</ele>
      </trkpt>
      <trkpt lat="47.4112" lon="2.92602">
        <ele>150.0</ele>
      </trkpt>
      <trkpt lat="47.41346" lon="2.93081">
        <ele>146.0</ele>
      </trkpt>
      <trkpt lat="47.41199" lon="2.93054">
        <ele>146.0</ele>
      </trkpt>
      <trkpt lat="47.41154" lon="2.93095">
        <ele>146.0</ele>
      </trkpt>
      <trkpt lat="47.41106" lon="2.93369">
        <ele>148.0</ele>
      </trkpt>
      <trkpt lat="47.41155" lon="2.93509">
        <ele>148.0</ele>
      </trkpt>
      <trkpt lat="47.40915" lon="2.93691">
        <ele>145.0</ele>
      </trkpt>
      <trkpt lat="47.40897" lon="2.93689">
        <ele>144.0</ele>
      </trkpt>
      <trkpt lat="47.40666" lon="2.94541">
        <ele>146.0</ele>
      </trkpt>
      <trkpt lat="47.40635" lon="2.94602">
        <ele>145.0</ele>
      </trkpt>
      <trkpt lat="47.40543" lon="2.94734">
        <ele>145.0</ele>
      </trkpt>
      <trkpt lat="47.39966" lon="2.95399">
        <ele>147.0</ele>
      </trkpt>
      <trkpt lat="47.39808" lon="2.95489">
        <ele>147.0</ele>
      </trkpt>
      <trkpt lat="47.3975" lon="2.95545">
        <ele>147.0</ele>
      </trkpt>
      <trkpt lat="47.3961" lon="2.95774">
        <ele>149.0</ele>
      </trkpt>
      <trkpt lat="47.3955" lon="2.95844">
        <ele>151.0</ele>
      </trkpt>
      <trkpt lat="47.39427" lon="2.95926">
        <ele>153.0</ele>
      </trkpt>
      <trkpt lat="47.39282" lon="2.9596">
        <ele>156.0</ele>
      </trkpt>
      <trkpt lat="47.39285" lon="2.95985">
        <ele>157.0</ele>
      </trkpt>
      <trkpt lat="47.39301" lon="2.95989">
        <ele>158.0</ele>
      </trkpt>
      <trkpt lat="47.3936" lon="2.96175">
        <ele>163.0</ele>
      </trkpt>
      <trkpt lat="47.39387" lon="2.96363">
        <ele>168.0</ele>
      </trkpt>
      <trkpt lat="47.39393" lon="2.965">
        <ele>170.0</ele>
      </trkpt>
      <trkpt lat="47.39378" lon="2.96905">
        <ele>178.0</ele>
      </trkpt>
      <trkpt lat="47.39431" lon="2.97255">
        <ele>193.0</ele>
      </trkpt>
      <trkpt lat="47.39439" lon="2.97719">
        <ele>196.0</ele>
      </trkpt>
      <trkpt lat="47.3846" lon="3.00103">
        <ele>183.0</ele>
      </trkpt>
      <trkpt lat="47.38372" lon="3.00206">
        <ele>178.0</ele>
      </trkpt>
      <trkpt lat="47.3826" lon="3.00181">
        <ele>175.0</ele>
      </trkpt>
      <trkpt lat="47.37912" lon="2.99999">
        <ele>167.0</ele>
      </trkpt>
      <trkpt lat="47.3776" lon="2.99845">
        <ele>166.0</ele>
      </trkpt>
      <trkpt lat="47.37308" lon="2.98825">
        <ele>160.0</ele>
      </trkpt>
      <trkpt lat="47.3727" lon="2.98772">
        <ele>160.0</ele>
      </trkpt>
      <trkpt lat="47.37232" lon="2.98779">
        <ele>161.0</ele>
      </trkpt>
      <trkpt lat="47.37066" lon="2.98957">
        <ele>166.0</ele>
      </trkpt>
      <trkpt lat="47.3702" lon="2.98978">
        <ele>167.0</ele>
      </trkpt>
      <trkpt lat="47.3654" lon="2.98855">
        <ele>155.0</ele>
      </trkpt>
      <trkpt lat="47.36371" lon="2.98995">
        <ele>155.0</ele>
      </trkpt>
      <trkpt lat="47.3569" lon="2.99792">
        <ele>158.0</ele>
      </trkpt>
      <trkpt lat="47.34942" lon="2.99013">
        <ele>157.0</ele>
      </trkpt>
      <trkpt lat="47.34842" lon="2.98926">
        <ele>159.0</ele>
      </trkpt>
      <trkpt lat="47.3477" lon="2.9892">
        <ele>160.0</ele>
      </trkpt>
      <trkpt lat="47.34591" lon="2.98984">
        <ele>160.0</ele>
      </trkpt>
      <trkpt lat="47.3439" lon="2.98929">
        <ele>164.0</ele>
      </trkpt>
      <trkpt lat="47.34316" lon="2.98969">
        <ele>168.0</ele>
      </trkpt>
      <trkpt lat="47.34316" lon="2.98997">
        <ele>169.0</ele>
      </trkpt>
      <trkpt lat="47.34289" lon="2.99051">
        <ele>170.0</ele>
      </trkpt>
      <trkpt lat="47.34172" lon="2.98973">
        <ele>172.0</ele>
      </trkpt>
      <trkpt lat="47.34081" lon="2.99022">
        <ele>172.0</ele>
      </trkpt>
      <trkpt lat="47.33913" lon="2.99046">
        <ele>169.0</ele>
      </trkpt>
      <trkpt lat="47.33428" lon="2.9889">
        <ele>174.0</ele>
      </trkpt>
      <trkpt lat="47.33387" lon="2.98855">
        <ele>175.0</ele>
      </trkpt>
      <trkpt lat="47.33247" lon="2.98675">
        <ele>176.0</ele>
      </trkpt>
      <trkpt lat="47.33131" lon="2.98424">
        <ele>180.0</ele>
      </trkpt>
      <trkpt lat="47.32797" lon="2.98119">
        <ele>184.0</ele>
      </trkpt>
      <trkpt lat="47.32634" lon="2.9792">
        <ele>187.0</ele>
      </trkpt>
      <trkpt lat="47.3257" lon="2.97896">
        <ele>189.0</ele>
      </trkpt>
      <trkpt lat="47.32501" lon="2.97893">
        <ele>192.0</ele>
      </trkpt>
      <trkpt lat="47.32406" lon="2.9795">
        <ele>194.0</ele>
      </trkpt>
      <trkpt lat="47.32308" lon="2.97978">
        <ele>192.0</ele>
      </trkpt>
      <trkpt lat="47.31892" lon="2.97576">
        <ele>204.0</ele>
      </trkpt>
      <trkpt lat="47.31716" lon="2.97026">
        <ele>222.0</ele>
      </trkpt>
      <trkpt lat="47.31514" lon="2.96687">
        <ele>227.0</ele>
      </trkpt>
      <trkpt lat="47.31435" lon="2.96481">
        <ele>234.0</ele>
      </trkpt>
      <trkpt lat="47.31253" lon="2.96338">
        <ele>244.0</ele>
      </trkpt>
      <trkpt lat="47.31157" lon="2.96188">
        <ele>252.0</ele>
      </trkpt>
      <trkpt lat="47.30884" lon="2.9608">
        <ele>264.0</ele>
      </trkpt>
      <trkpt lat="47.30621" lon="2.96066">
        <ele>265.0</ele>
      </trkpt>
      <trkpt lat="47.30575" lon="2.96023">
        <ele>264.0</ele>
      </trkpt>
      <trkpt lat="47.30081" lon="2.9543">
        <ele>247.0</ele>
      </trkpt>
      <trkpt lat="47.30061" lon="2.95369">
        <ele>249.0</ele>
      </trkpt>
      <trkpt lat="47.3006" lon="2.95188">
        <ele>247.0</ele>
      </trkpt>
      <trkpt lat="47.30009" lon="2.95016">
        <ele>242.0</ele>
      </trkpt>
      <trkpt lat="47.30008" lon="2.94972">
        <ele>240.0</ele>
      </trkpt>
      <trkpt lat="47.29996" lon="2.94958">
        <ele>240.0</ele>
      </trkpt>
      <trkpt lat="47.29962" lon="2.95009">
        <ele>239.0</ele>
      </trkpt>
      <trkpt lat="47.29958" lon="2.95091">
        <ele>238.0</ele>
      </trkpt>
      <trkpt lat="47.29924" lon="2.95136">
        <ele>237.0</ele>
      </trkpt>
      <trkpt lat="47.29453" lon="2.954">
        <ele>220.0</ele>
      </trkpt>
      <trkpt lat="47.29269" lon="2.95479">
        <ele>210.0</ele>
      </trkpt>
      <trkpt lat="47.29012" lon="2.95469">
        <ele>200.0</ele>
      </trkpt>
      <trkpt lat="47.28873" lon="2.95526">
        <ele>191.0</ele>
      </trkpt>
      <trkpt lat="47.28713" lon="2.95463">
        <ele>175.0</ele>
      </trkpt>
      <trkpt lat="47.28478" lon="2.95466">
        <ele>171.0</ele>
      </trkpt>
      <trkpt lat="47.28405" lon="2.9553">
        <ele>173.0</ele>
      </trkpt>
      <trkpt lat="47.28299" lon="2.95669">
        <ele>171.0</ele>
      </trkpt>
      <trkpt lat="47.28229" lon="2.95793">
        <ele>167.0</ele>
      </trkpt>
      <trkpt lat="47.28097" lon="2.95956">
        <ele>162.0</ele>
      </trkpt>
      <trkpt lat="47.27674" lon="2.96703">
        <ele>167.0</ele>
      </trkpt>
    </trkseg>
  </trk>
</gpx>