<?xml version="1.0" encoding="UTF-8"?>
<gpx xmlns="http://www.topografix.com/GPX/1/0" xmlns:xsi="http://www.w3.org/2001/XMLSchema-instance" xsi:schemaLocation="http://www.topografix.com/GPX/1/0 http://www.topografix.com/GPX/1/0/gpx.xsd" version="1.0" creator="GPSBabel - https://www.gpsbabel.org">
  <time>2026-08-08T11:24:54.341000Z</time>
  <bounds minlat="50.85546" maxlat="51.02976" minlon="4.9195" maxlon="5.0745" />
  <trk>
    <trkseg>
      <trkpt lat="50.99506" lon="5.03234">
        <ele>66.0</ele>
      </trkpt>
      <trkpt lat="50.99755" lon="5.03277">
        <ele>61.0</ele>
      </trkpt>
      <trkpt lat="50.99898" lon="5.03119">
        <ele>54.0</ele>
      </trkpt>
      <trkpt lat="51.0125" lon="5.0226">
        <ele>21.0</ele>
      </trkpt>
      <trkpt lat="51.02154" lon="5.01822">
        <ele>20.0</ele>
      </trkpt>
      <trkpt lat="51.02471" lon="5.02567">
        <ele>22.0</ele>
      </trkpt>
      <trkpt lat="51.02833" lon="5.03609">
        <ele>22.0</ele>
      </trkpt>
      <trkpt lat="51.02872" lon="5.0377">
        <ele>21.0</ele>
      </trkpt>
      <trkpt lat="51.02975" lon="5.04414">
        <ele>20.0</ele>
      </trkpt>
      <trkpt lat="51.02948" lon="5.04823">
        <ele>21.0</ele>
      </trkpt>
      <trkpt lat="51.02961" lon="5.05468">
        <ele>22.0</ele>
      </trkpt>
      <trkpt lat="51.02951" lon="5.05602">
        <ele>22.0</ele>
      </trkpt>
      <trkpt lat="51.02573" lon="5.06695">
        <ele>23.0</ele>
      </trkpt>
      <trkpt lat="51.02153" lon="5.07135">
        <ele>20.0</ele>
      </trkpt>
      <trkpt lat="51.02135" lon="5.0719">
        <ele>21.0</ele>
      </trkpt>
      <trkpt lat="51.02068" lon="5.07217">
        <ele>21.0</ele>
      </trkpt>
      <trkpt lat="51.01842" lon="5.07404">
        <ele>21.0</ele>
      </trkpt>
      <trkpt lat="51.016" lon="5.0745">
        <ele>20.0</ele>
      </trkpt>
      <trkpt lat="51.00886" lon="5.07156">
        <ele>18.0</ele>
      </trkpt>
      <trkpt lat="51.00458" lon="5.07163">
        <ele>18.0</ele>
      </trkpt>
      <trkpt lat="51.00355" lon="5.07147">
        <ele>18.0</ele>
      </trkpt>
      <trkpt lat="51.00279" lon="5.07105">
        <ele>19.0</ele>
      </trkpt>
      <trkpt lat="51.00184" lon="5.07012">
        <ele>21.0</ele>
      </trkpt>
      <trkpt lat="50.9979" lon="5.06857">
        <ele>27.0</ele>
      </trkpt>
      <trkpt lat="50.9969" lon="5.0686">
        <ele>27.0</ele>
      </trkpt>
      <trkpt lat="50.99552" lon="5.06907">
        <ele>26.0</ele>
      </trkpt>
      <trkpt lat="50.99511" lon="5.06941">
        <ele>25.0</ele>
      </trkpt>
      <trkpt lat="50.99365" lon="5.06723">
        <ele>24.0</ele>
      </trkpt>
      <trkpt lat="50.99297" lon="5.06583">
        <ele>23.0</ele>
      </trkpt>
      <trkpt lat="50.99218" lon="5.06316">
        <ele>22.0</ele>
      </trkpt>
      <trkpt lat="50.99192" lon="5.06136">
        <ele>23.0</ele>
      </trkpt>
      <trkpt lat="50.99194" lon="5.0599">
        <ele>25.0</ele>
      </trkpt>
      <trkpt lat="50.99351" lon="5.05136">
        <ele>28.0</ele>
      </trkpt>
      <trkpt lat="50.99412" lon="5.04986">
        <ele>28.0</ele>
      </trkpt>
      <trkpt lat="50.99547" lon="5.04767">
        <ele>31.0</ele>
      </trkpt>
      <trkpt lat="50.99599" lon="5.04595">
        <ele>37.0</ele>
      </trkpt>
      <trkpt lat="50.99632" lon="5.04319">
        <ele>41.0</ele>
      </trkpt>
      <trkpt lat="50.99624" lon="5.0418">
        <ele>42.0</ele>
      </trkpt>
      <trkpt lat="50.996" lon="5.04061">
        <ele>42.0</ele>
      </trkpt>
      <trkpt lat="50.99529" lon="5.03847">
        <ele>37.0</ele>
      </trkpt>
      <trkpt lat="50.9944" lon="5.0398">
        <ele>30.0</ele>
      </trkpt>
      <trkpt lat="50.99375" lon="5.04037">
        <ele>24.0</ele>
      </trkpt>
      <trkpt lat="50.99064" lon="5.04179">
        <ele>19.0</ele>
      </trkpt>
      <trkpt lat="50.98984" lon="5.04206">
        <ele>19.0</ele>
      </trkpt>
      <trkpt lat="50.98955" lon="5.0419">
        <ele>19.0</ele>
      </trkpt>
      <trkpt lat="50.9893" lon="5.04224">
        <ele>19.0</ele>
      </trkpt>
      <trkpt lat="50.98856" lon="5.04241">
        <ele>19.0</ele>
      </trkpt>
      <trkpt lat="50.98729" lon="5.04208">
        <ele>18.0</ele>
      </trkpt>
      <trkpt lat="50.98462" lon="5.03986">
        <ele>34.0</ele>
      </trkpt>
      <trkpt lat="50.9834" lon="5.0395">
        <ele>39.0</ele>
      </trkpt>
      <trkpt lat="50.98273" lon="5.03974">
        <ele>39.0</ele>
      </trkpt>
      <trkpt lat="50.98222" lon="5.04014">
        <ele>38.0</ele>
      </trkpt>
      <trkpt lat="50.98034" lon="5.04259">
        <ele>32.0</ele>
      </trkpt>
      <trkpt lat="50.98013" lon="5.04265">
        <ele>31.0</ele>
      </trkpt>
      <trkpt lat="50.97994" lon="5.04242">
        <ele>30.0</ele>
      </trkpt>
      <trkpt lat="50.97929" lon="5.01493">
        <ele>50.0</ele>
      </trkpt>
      <trkpt lat="50.97726" lon="5.01546">
        <ele>51.0</ele>
      </trkpt>
      <trkpt lat="50.9763" lon="5.01269">
        <ele>52.0</ele>
      </trkpt>
      <trkpt lat="50.97529" lon="5.00822">
        <ele>54.0</ele>
      </trkpt>
      <trkpt lat="50.97423" lon="5.00532">
        <ele>55.0</ele>
      </trkpt>
      <trkpt lat="50.97272" lon="4.9985">
        <ele>54.0</ele>
      </trkpt>
      <trkpt lat="50.97219" lon="4.99711">
        <ele>53.0</ele>
      </trkpt>
      <trkpt lat="50.97176" lon="4.99513">
        <ele>52.0</ele>
      </trkpt>
      <trkpt lat="50.97093" lon="4.99224">
        <ele>48.0</ele>
      </trkpt>
      <trkpt lat="50.97106" lon="4.98771">
        <ele>45.0</ele>
      </trkpt>
      <trkpt lat="50.97071" lon="4.98328">
        <ele>43.0</ele>
      </trkpt>
      <trkpt lat="50.9707" lon="4.98121">
        <ele>45.0</ele>
      </trkpt>
      <trkpt lat="50.96998" lon="4.97895">
        <ele>50.0</ele>
      </trkpt>
      <trkpt lat="50.96923" lon="4.97781">
        <ele>54.0</ele>
      </trkpt>
      <trkpt lat="50.96887" lon="4.97602">
        <ele>55.0</ele>
      </trkpt>
      <trkpt lat="50.96843" lon="4.97506">
        <ele>56.0</ele>
      </trkpt>
      <trkpt lat="50.96817" lon="4.97293">
        <ele>58.0</ele>
      </trkpt>
      <trkpt lat="50.96709" lon="4.97033">
        <ele>60.0</ele>
      </trkpt>
      <trkpt lat="50.96589" lon="4.97046">
        <ele>59.0</ele>
      </trkpt>
      <trkpt lat="50.96031" lon="4.97266">
        <ele>37.0</ele>
      </trkpt>
      <trkpt lat="50.95954" lon="4.97359">
        <ele>34.0</ele>
      </trkpt>
      <trkpt lat="50.95877" lon="4.97588">
        <ele>35.0</ele>
      </trkpt>
      <trkpt lat="50.95813" lon="4.97676">
        <ele>35.0</ele>
      </trkpt>
      <trkpt lat="50.9576" lon="4.97703">
        <ele>35.0</ele>
      </trkpt>
      <trkpt lat="50.95308" lon="4.97787">
        <ele>34.0</ele>
      </trkpt>
      <trkpt lat="50.95247" lon="4.97826">
        <ele>34.0</ele>
      </trkpt>
      <trkpt lat="50.95122" lon="4.97975">
        <ele>34.0</ele>
      </trkpt>
      <trkpt lat="50.95063" lon="4.98023">
        <ele>34.0</ele>
      </trkpt>
      <trkpt lat="50.9481" lon="4.98135">
        <ele>34.0</ele>
      </trkpt>
      <trkpt lat="50.94754" lon="4.98118">
        <ele>34.0</ele>
      </trkpt>
      <trkpt lat="50.94716" lon="4.98041">
        <ele>34.0</ele>
      </trkpt>
      <trkpt lat="50.94635" lon="4.98076">
        <ele>35.0</ele>
      </trkpt>
      <trkpt lat="50.94479" lon="4.97515">
        <ele>37.0</ele>
      </trkpt>
      <trkpt lat="50.93252" lon="4.98145">
        <ele>63.0</ele>
      </trkpt>
      <trkpt lat="50.93133" lon="4.98256">
        <ele>56.0</ele>
      </trkpt>
      <trkpt lat="50.92977" lon="4.98483">
        <ele>46.0</ele>
      </trkpt>
      <trkpt lat="50.92809" lon="4.98646">
        <ele>41.0</ele>
      </trkpt>
      <trkpt lat="50.90898" lon="4.97744">
        <ele>49.0</ele>
      </trkpt>
      <trkpt lat="50.85546" lon="4.95271">
        <ele>35.0</ele>
      </trkpt>
      <trkpt lat="50.85755" lon="4.94942">
        <ele>37.0</ele>
      </trkpt>
      <trkpt lat="50.85888" lon="4.94819">
        <ele>36.0</ele>
      </trkpt>
      <trkpt lat="50.86231" lon="4.94623">
        <ele>41.0</ele>
      </trkpt>
      <trkpt lat="50.86596" lon="4.9404">
        <ele>47.0</ele>
      </trkpt>
      <trkpt lat="50.86618" lon="4.93977">
        <ele>48.0</ele>
      </trkpt>
      <trkpt lat="50.87033" lon="4.94319">
        <ele>48.0</ele>
      </trkpt>
      <trkpt lat="50.87298" lon="4.94575">
        <ele>50.0</ele>
      </trkpt>
      <trkpt lat="50.87315" lon="4.94475">
        <ele>49.0</ele>
      </trkpt>
      <trkpt lat="50.87356" lon="4.94364">
        <ele>49.0</ele>
      </trkpt>
      <trkpt lat="50.87389" lon="4.94306">
        <ele>49.0</ele>
      </trkpt>
      <trkpt lat="50.87449" lon="4.94262">
        <ele>49.0</ele>
      </trkpt>
      <trkpt lat="50.87499" lon="4.9425">
        <ele>49.0</ele>
      </trkpt>
      <trkpt lat="50.87759" lon="4.94282">
        <ele>53.0</ele>
      </trkpt>
      <trkpt lat="50.88039" lon="4.94172">
        <ele>56.0</ele>
      </trkpt>
      <trkpt lat="50.88121" lon="4.94063">
        <ele>57.0</ele>
      </trkpt>
      <trkpt lat="50.88271" lon="4.93911">
        <ele>61.0</ele>
      </trkpt>
      <trkpt lat="50.88309" lon="4.93697">
        <ele>65.0</ele>
      </trkpt>
      <trkpt lat="50.88332" lon="4.93639">
        <ele>66.0</ele>
      </trkpt>
      <trkpt lat="50.88635" lon="4.93213">
        <ele>71.0</ele>
      </trkpt>
      <trkpt lat="50.88812" lon="4.93077">
        <ele>73.0</ele>
      </trkpt>
      <trkpt lat="50.89275" lon="4.92643">
        <ele>75.0</ele>
      </trkpt>
      <trkpt lat="50.89604" lon="4.9246">
        <ele>73.0</ele>
      </trkpt>
      <trkpt lat="50.8965" lon="4.92586">
        <ele>72.0</ele>
      </trkpt>
      <trkpt lat="50.89932" lon="4.92187">
        <ele>73.0</ele>
      </trkpt>
      <trkpt lat="50.89983" lon="4.92143">
        <ele>74.0</ele>
      </trkpt>
      <trkpt lat="50.90423" lon="4.92">
        <ele>76.0</ele>
      </trkpt>
      <trkpt lat="50.9056" lon="4.91971">
        <ele>72.0</ele>
      </trkpt>
      <trkpt lat="50.9097" lon="4.9195">
        <ele>64.0</ele>
      </trkpt>
      <trkpt lat="50.91372" lon="4.91955">
        <ele>63.0</ele>
      </trkpt>
      <trkpt lat="50.91349" lon="4.92128">
        <ele>63.0</ele>
      </trkpt>
      <trkpt lat="50.91363" lon="4.92276">
        <ele>63.0</ele>
      </trkpt>
      <trkpt lat="50.91552" lon="4.92708">
        <ele>61.0</ele>
      </trkpt>
      <trkpt lat="50.91572" lon="4.92804">
        <ele>60.0</ele>
      </trkpt>
      <trkpt lat="50.91602" lon="4.93115">
        <ele>59.0</ele>
      </trkpt>
      <trkpt lat="50.91724" lon="4.9345">
        <ele>58.0</ele>
      </trkpt>
      <trkpt lat="50.91798" lon="4.93766">
        <ele>57.0</ele>
      </trkpt>
      <trkpt lat="50.91343" lon="4.9398">
        <ele>70.0</ele>
      </trkpt>
      <trkpt lat="50.90775" lon="4.9416">
        <ele>63.0</ele>
      </trkpt>
      <trkpt lat="50.90523" lon="4.94284">
        <ele>57.0</ele>
      </trkpt>
      <trkpt lat="50.9067" lon="4.94505">
        <ele>56.0</ele>
      </trkpt>
      <trkpt lat="50.90904" lon="4.95078">
        <ele>59.0</ele>
      </trkpt>
      <trkpt lat="50.90965" lon="4.95152">
        <ele>61.0</ele>
      </trkpt>
      <trkpt lat="50.91057" lon="4.9517">
        <ele>62.0</ele>
      </trkpt>
      <trkpt lat="50.91293" lon="4.95092">
        <ele>65.0</ele>
      </trkpt>
      <trkpt lat="50.91438" lon="4.95099">
        <ele>65.0</ele>
      </trkpt>
      <trkpt lat="50.91497" lon="4.95127">
        <ele>65.0</ele>
      </trkpt>
      <trkpt lat="50.91872" lon="4.95403">
        <ele>63.0</ele>
      </trkpt>
      <trkpt lat="50.92069" lon="4.95441">
        <ele>54.0</ele>
      </trkpt>
      <trkpt lat="50.92088" lon="4.95285">
        <ele>51.0</ele>
      </trkpt>
      <trkpt lat="50.92073" lon="4.95148">
        <ele>50.0</ele>
      </trkpt>
      <trkpt lat="50.9193" lon="4.94757">
        <ele>50.0</ele>
      </trkpt>
      <trkpt lat="50.9187" lon="4.9444">
        <ele>51.0</ele>
      </trkpt>
      <trkpt lat="50.91847" lon="4.94162">
        <ele>53.0</ele>
      </trkpt>
      <trkpt lat="50.92007" lon="4.94136">
        <ele>64.0</ele>
      </trkpt>
      <trkpt lat="50.92085" lon="4.93974">
        <ele>72.0</ele>
      </trkpt>
      <trkpt lat="50.92152" lon="4.93901">
        <ele>76.0</ele>
      </trkpt>
      <trkpt lat="50.9216" lon="4.93764">
        <ele>78.0</ele>
      </trkpt>
      <trkpt lat="50.92313" lon="4.9363">
        <ele>79.0</ele>
      </trkpt>
      <trkpt lat="50.92421" lon="4.94144">
        <ele>80.0</ele>
      </trkpt>
      <trkpt lat="50.926" lon="4.94589">
        <ele>79.0</ele>
      </trkpt>
      <trkpt lat="50.92647" lon="4.94875">
        <ele>77.0</ele>
      </trkpt>
      <trkpt lat="50.92753" lon="4.95144">
        <ele>76.0</ele>
      </trkpt>
      <trkpt lat="50.93245" lon="4.95248">
        <ele>67.0</ele>
      </trkpt>
      <trkpt lat="50.93438" lon="4.95364">
        <ele>63.0</ele>
      </trkpt>
      <trkpt lat="50.93912" lon="4.95559">
        <ele>51.0</ele>
      </trkpt>
      <trkpt lat="50.94198" lon="4.95512">
        <ele>43.0</ele>
      </trkpt>
      <trkpt lat="50.94267" lon="4.9554">
        <ele>41.0</ele>
      </trkpt>
      <trkpt lat="50.94428" lon="4.95656">
        <ele>37.0</ele>
      </trkpt>
      <trkpt lat="50.94519" lon="4.9568">
        <ele>36.0</ele>
      </trkpt>
      <trkpt lat="50.94805" lon="4.956">
        <ele>36.0</ele>
      </trkpt>
      <trkpt lat="50.94869" lon="4.95604">
        <ele>37.0</ele>
      </trkpt>
      <trkpt lat="50.94938" lon="4.95655">
        <ele>39.0</ele>
      </trkpt>
      <trkpt lat="50.95215" lon="4.96">
        <ele>45.0</ele>
      </trkpt>
      <trkpt lat="50.95324" lon="4.96083">
        <ele>45.0</ele>
      </trkpt>
      <trkpt lat="50.95878" lon="4.96218">
        <ele>45.0</ele>
      </trkpt>
      <trkpt lat="50.96307" lon="4.96446">
        <ele>53.0</ele>
      </trkpt>
      <trkpt lat="50.96454" lon="4.96417">
        <ele>59.0</ele>
      </trkpt>
      <trkpt lat="50.96543" lon="4.96342">
        <ele>64.0</ele>
      </trkpt>
      <trkpt lat="50.96683" lon="4.96414">
        <ele>67.0</ele>
      </trkpt>
      <trkpt lat="50.96687" lon="4.96436">
        <ele>68.0</ele>
      </trkpt>
      <trkpt lat="50.97422" lon="4.96185">
        <ele>56.0</ele>
      </trkpt>
      <trkpt lat="50.97571" lon="4.96183">
        <ele>48.0</ele>
      </trkpt>
      <trkpt lat="50.98004" lon="4.95976">
        <ele>50.0</ele>
      </trkpt>
      <trkpt lat="50.98607" lon="4.95592">
        <ele>47.0</ele>
      </trkpt>
      <trkpt lat="50.98699" lon="4.95771">
        <ele>45.0</ele>
      </trkpt>
      <trkpt lat="50.98977" lon="4.96177">
        <ele>34.0</ele>
      </trkpt>
      <trkpt lat="50.99107" lon="4.96399">
        <ele>29.0</ele>
      </trkpt>
      <trkpt lat="50.9921" lon="4.96628">
        <ele>27.0</ele>
      </trkpt>
      <trkpt lat="50.99376" lon="4.97053">
        <ele>29.0</ele>
      </trkpt>
      <trkpt lat="50.99433" lon="4.97268">
        <ele>33.0</ele>
      </trkpt>
      <trkpt lat="50.99408" lon="4.97326">
        <ele>35.0</ele>
      </trkpt>
      <trkpt lat="50.99413" lon="4.97343">
        <ele>35.0</ele>
      </trkpt>
      <trkpt lat="50.9934" lon="4.97484">
        <ele>36.0</ele>
      </trkpt>
      <trkpt lat="50.9932" lon="4.97577">
        <ele>36.0</ele>
      </trkpt>
      <trkpt lat="50.9931" lon="4.98177">
        <ele>35.0</ele>
      </trkpt>
      <trkpt lat="50.99318" lon="4.9842">
        <ele>30.0</ele>
      </trkpt>
      <trkpt lat="50.99373" lon="4.98606">
        <ele>26.0</ele>
      </trkpt>
      <trkpt lat="50.99479" lon="4.98892">
        <ele>22.0</ele>
      </trkpt>
      <trkpt lat="50.99614" lon="4.99108">
        <ele>22.0</ele>
      </trkpt>
      <trkpt lat="50.99706" lon="4.99224">
        <ele>21.0</ele>
      </trkpt>
      <trkpt lat="50.99653" lon="4.99418">
        <ele>19.0</ele>
      </trkpt>
      <trkpt lat="50.99309" lon="5.00138">
        <ele>20.0</ele>
      </trkpt>
      <trkpt lat="50.992" lon="5.00285">
        <ele>23.0</ele>
      </trkpt>
      <trkpt lat="50.98925" lon="5.00527">
        <ele>26.0</ele>
      </trkpt>
      <trkpt lat="50.98865" lon="5.00612">
        <ele>26.0</ele>
      </trkpt>
      <trkpt lat="50.98812" lon="5.00737">
        <ele>27.0</ele>
      </trkpt>
      <trkpt lat="50.98678" lon="5.01271">
        <ele>29.0</ele>
      </trkpt>
      <trkpt lat="50.98654" lon="5.01716">
        <ele>25.0</ele>
      </trkpt>
      <trkpt lat="50.98618" lon="5.02052">
        <ele>25.0</ele>
      </trkpt>
      <trkpt lat="50.9856" lon="5.02236">
        <ele>26.0</ele>
      </trkpt>
      <trkpt lat="50.98539" lon="5.02365">
        <ele>26.0</ele>
      </trkpt>
      <trkpt lat="50.98496" lon="5.0291">
        <ele>28.0</ele>
      </trkpt>
      <trkpt lat="50.98525" lon="5.03348">
        <ele>38.0</ele>
      </trkpt>
      <trkpt lat="50.98506" lon="5.03576">
        <ele>43.0</ele>
      </trkpt>
      <trkpt lat="50.98428" lon="5.03966">
        <ele>41.0</ele>
      </trkpt>
      <trkpt lat="50.98729" lon="5.04208">
        <ele>21.0</ele>
      </trkpt>
      <trkpt lat="50.98958" lon="5.04257">
        <ele>19.0</ele>
      </trkpt>
      <trkpt lat="50.98984" lon="5.04223">
        <ele>19.0</ele>
      </trkpt>
      <trkpt lat="50.99173" lon="5.04129">
        <ele>19.0</ele>
      </trkpt>
      <trkpt lat="50.99385" lon="5.04074">
        <ele>20.0</ele>
      </trkpt>
      <trkpt lat="50.99368" lon="5.04007">
        <ele>20.0</ele>
      </trkpt>
      <trkpt lat="50.99371" lon="5.03966">
        <ele>20.0</ele>
      </trkpt>
      <trkpt lat="50.99292" lon="5.03392">
        <ele>22.0</ele>
      </trkpt>
      <trkpt lat="50.99149" lon="5.02475">
        <ele>24.0</ele>
      </trkpt>
      <trkpt lat="50.99117" lon="5.02137">
        <ele>23.0</ele>
      </trkpt>
      <trkpt lat="50.99115" lon="5.02056">
        <ele>22.0</ele>
      </trkpt>
      <trkpt lat="50.99149" lon="5.01834">
        <ele>26.0</ele>
      </trkpt>
      <trkpt lat="50.99193" lon="5.01855">
        <ele>30.0</ele>
      </trkpt>
      <trkpt lat="50.99262" lon="5.01724">
        <ele>38.0</ele>
      </trkpt>
      <trkpt lat="50.99273" lon="5.01734">
        <ele>42.0</ele>
      </trkpt>
      <trkpt lat="50.9927" lon="5.01865">
        <ele>48.0</ele>
      </trkpt>
      <trkpt lat="50.99294" lon="5.0201">
        <ele>51.0</ele>
      </trkpt>
      <trkpt lat="50.99356" lon="5.02289">
        <ele>55.0</ele>
      </trkpt>
      <trkpt lat="50.99421" lon="5.02445">
        <ele>56.0</ele>
      </trkpt>
      <trkpt lat="50.99435" lon="5.02607">
        <ele>59.0</ele>
      </trkpt>
      <trkpt lat="50.99457" lon="5.02691">
        <ele>63.0</ele>
      </trkpt>
      <trkpt lat="50.99588" lon="5.02933">
        <ele>60.0</ele>
      </trkpt>
      <trkpt lat="50.99577" lon="5.03013">
        <ele>59.0</ele>
      </trkpt>
      <trkpt lat="50.99593" lon="5.03253">
        <ele>60.0</ele>
      </trkpt>
      <trkpt lat="50.99719" lon="5.03282">
        <ele>60.0</ele>
      </trkpt>
      <trkpt lat="50.9978" lon="5.03258">
        <ele>60.0</ele>
      </trkpt>
      <trkpt lat="50.99848" lon="5.03162">
        <ele>58.0</ele>
      </trkpt>
      <trkpt lat="50.99898" lon="5.03119">
        <ele>54.0</ele>
      </trkpt>
      <trkpt lat="51.0125" lon="5.0226">
        <ele>21.0</ele>
      </trkpt>
      <trkpt lat="51.02154" lon="5.01822">
        <ele>20.0</ele>
      </trkpt>
      <trkpt lat="51.02471" lon="5.02567">
        <ele>22.0</ele>
      </trkpt>
      <trkpt lat="51.02862" lon="5.03716">
        <ele>21.0</ele>
      </trkpt>
      <trkpt lat="51.02975" lon="5.04414">
        <ele>20.0</ele>
      </trkpt>
      <trkpt lat="51.02948" lon="5.04823">
        <ele>21.0</ele>
      </trkpt>
      <trkpt lat="51.02961" lon="5.05534">
        <ele>22.0</ele>
      </trkpt>
      <trkpt lat="51.02919" lon="5.05712">
        <ele>22.0</ele>
      </trkpt>
      <trkpt lat="51.02573" lon="5.06695">
        <ele>23.0</ele>
      </trkpt>
      <trkpt lat="51.02153" lon="5.07135">
        <ele>20.0</ele>
      </trkpt>
      <trkpt lat="51.02135" lon="5.0719">
        <ele>21.0</ele>
      </trkpt>
      <trkpt lat="51.02068" lon="5.07217">
        <ele>21.0</ele>
      </trkpt>
      <trkpt lat="51.01857" lon="5.07396">
        <ele>21.0</ele>
      </trkpt>
      <trkpt lat="51.01578" lon="5.07448">
        <ele>19.0</ele>
      </trkpt>
      <trkpt lat="51.00886" lon="5.07156">
        <ele>18.0</ele>
      </trkpt>
      <trkpt lat="51.00458" lon="5.07163">
        <ele>18.0</ele>
      </trkpt>
      <trkpt lat="51.00355" lon="5.07147">
        <ele>18.0</ele>
      </trkpt>
      <trkpt lat="51.00279" lon="5.07105">
        <ele>19.0</ele>
      </trkpt>
      <trkpt lat="51.00184" lon="5.07012">
        <ele>21.0</ele>
      </trkpt>
      <trkpt lat="50.9979" lon="5.06857">
        <ele>27.0</ele>
      </trkpt>
      <trkpt lat="50.9969" lon="5.0686">
        <ele>27.0</ele>
      </trkpt>
      <trkpt lat="50.99552" lon="5.06907">
        <ele>26.0</ele>
      </trkpt>
      <trkpt lat="50.99511" lon="5.06941">
        <ele>25.0</ele>
      </trkpt>
      <trkpt lat="50.99427" lon="5.06824">
        <ele>24.0</ele>
      </trkpt>
      <trkpt lat="50.99316" lon="5.06631">
        <ele>23.0</ele>
      </trkpt>
      <trkpt lat="50.99256" lon="5.06449">
        <ele>22.0</ele>
      </trkpt>
      <trkpt lat="50.99204" lon="5.06248">
        <ele>22.0</ele>
      </trkpt>
      <trkpt lat="50.99192" lon="5.06026">
        <ele>24.0</ele>
      </trkpt>
      <trkpt lat="50.99351" lon="5.05136">
        <ele>28.0</ele>
      </trkpt>
      <trkpt lat="50.99412" lon="5.04986">
        <ele>28.0</ele>
      </trkpt>
      <trkpt lat="50.99547" lon="5.04767">
        <ele>31.0</ele>
      </trkpt>
      <trkpt lat="50.99609" lon="5.04543">
        <ele>38.0</ele>
      </trkpt>
      <trkpt lat="50.99631" lon="5.04362">
        <ele>40.0</ele>
      </trkpt>
      <trkpt lat="50.99624" lon="5.0418">
        <ele>42.0</ele>
      </trkpt>
      <trkpt lat="50.996" lon="5.04061">
        <ele>42.0</ele>
      </trkpt>
      <trkpt lat="50.99529" lon="5.03847">
        <ele>37.0</ele>
      </trkpt>
      <trkpt lat="50.9944" lon="5.0398">
        <ele>30.0</ele>
      </trkpt>
      <trkpt lat="50.99375" lon="5.04037">
        <ele>24.0</ele>
      </trkpt>
      <trkpt lat="50.99064" lon="5.04179">
        <ele>19.0</ele>
      </trkpt>
      <trkpt lat="50.98984" lon="5.04206">
        <ele>19.0</ele>
      </trkpt>
      <trkpt lat="50.98952" lon="5.04191">
        <ele>19.0</ele>
      </trkpt>
      <trkpt lat="50.98924" lon="5.04226">
        <ele>19.0</ele>
      </trkpt>
      <trkpt lat="50.98856" lon="5.04241">
        <ele>19.0</ele>
      </trkpt>
      <trkpt lat="50.98729" lon="5.04208">
        <ele>18.0</ele>
      </trkpt>
      <trkpt lat="50.98462" lon="5.03986">
        <ele>34.0</ele>
      </trkpt>
      <trkpt lat="50.98351" lon="5.03949">
        <ele>38.0</ele>
      </trkpt>
      <trkpt lat="50.98273" lon="5.03974">
        <ele>39.0</ele>
      </trkpt>
      <trkpt lat="50.98222" lon="5.04014">
        <ele>38.0</ele>
      </trkpt>
      <trkpt lat="50.98034" lon="5.04259">
        <ele>32.0</ele>
      </trkpt>
      <trkpt lat="50.98013" lon="5.04265">
        <ele>31.0</ele>
      </trkpt>
      <trkpt lat="50.97994" lon="5.04242">
        <ele>30.0</ele>
      </trkpt>
      <trkpt lat="50.97929" lon="5.01493">
        <ele>50.0</ele>
      </trkpt>
      <trkpt lat="50.97726" lon="5.01546">
        <ele>51.0</ele>
      </trkpt>
      <trkpt lat="50.9763" lon="5.01269">
        <ele>52.0</ele>
      </trkpt>
      <trkpt lat="50.97529" lon="5.00822">
        <ele>54.0</ele>
      </trkpt>
      <trkpt lat="50.97423" lon="5.00532">
        <ele>55.0</ele>
      </trkpt>
      <trkpt lat="50.97272" lon="4.9985">
        <ele>54.0</ele>
      </trkpt>
      <trkpt lat="50.97219" lon="4.99711">
        <ele>53.0</ele>
      </trkpt>
      <trkpt lat="50.97176" lon="4.99513">
        <ele>52.0</ele>
      </trkpt>
      <trkpt lat="50.97093" lon="4.99224">
        <ele>48.0</ele>
      </trkpt>
      <trkpt lat="50.97106" lon="4.98771">
        <ele>45.0</ele>
      </trkpt>
      <trkpt lat="50.97071" lon="4.98328">
        <ele>43.0</ele>
      </trkpt>
      <trkpt lat="50.9707" lon="4.98121">
        <ele>45.0</ele>
      </trkpt>
      <trkpt lat="50.96998" lon="4.97895">
        <ele>50.0</ele>
      </trkpt>
      <trkpt lat="50.96923" lon="4.97781">
        <ele>54.0</ele>
      </trkpt>
      <trkpt lat="50.96887" lon="4.97602">
        <ele>55.0</ele>
      </trkpt>
      <trkpt lat="50.96843" lon="4.97506">
        <ele>56.0</ele>
      </trkpt>
      <trkpt lat="50.96817" lon="4.97293">
        <ele>58.0</ele>
      </trkpt>
      <trkpt lat="50.96709" lon="4.97033">
        <ele>60.0</ele>
      </trkpt>
      <trkpt lat="50.96589" lon="4.97046">
        <ele>59.0</ele>
      </trkpt>
      <trkpt lat="50.96031" lon="4.97266">
        <ele>37.0</ele>
      </trkpt>
      <trkpt lat="50.95954" lon="4.97359">
        <ele>34.0</ele>
      </trkpt>
      <trkpt lat="50.95877" lon="4.97588">
        <ele>35.0</ele>
      </trkpt>
      <trkpt lat="50.95813" lon="4.97676">
        <ele>35.0</ele>
      </trkpt>
      <trkpt lat="50.9576" lon="4.97703">
        <ele>35.0</ele>
      </trkpt>
      <trkpt lat="50.95308" lon="4.97787">
        <ele>34.0</ele>
      </trkpt>
      <trkpt lat="50.95247" lon="4.97826">
        <ele>34.0</ele>
      </trkpt>
      <trkpt lat="50.95122" lon="4.97975">
        <ele>34.0</ele>
      </trkpt>
      <trkpt lat="50.95063" lon="4.98023">
        <ele>34.0</ele>
      </trkpt>
      <trkpt lat="50.9481" lon="4.98135">
        <ele>34.0</ele>
      </trkpt>
      <trkpt lat="50.94754" lon="4.98118">
        <ele>34.0</ele>
      </trkpt>
      <trkpt lat="50.94716" lon="4.98041">
        <ele>34.0</ele>
      </trkpt>
      <trkpt lat="50.94635" lon="4.98076">
        <ele>35.0</ele>
      </trkpt>
      <trkpt lat="50.94479" lon="4.97515">
        <ele>37.0</ele>
      </trkpt>
      <trkpt lat="50.93252" lon="4.98145">
        <ele>63.0</ele>
      </trkpt>
      <trkpt lat="50.93133" lon="4.98256">
        <ele>56.0</ele>
      </trkpt>
      <trkpt lat="50.92977" lon="4.98483">
        <ele>46.0</ele>
      </trkpt>
      <trkpt lat="50.92809" lon="4.98646">
        <ele>41.0</ele>
      </trkpt>
      <trkpt lat="50.90898" lon="4.97744">
        <ele>49.0</ele>
      </trkpt>
      <trkpt lat="50.85546" lon="4.95271">
        <ele>35.0</ele>
      </trkpt>
      <trkpt lat="50.85755" lon="4.94942">
        <ele>37.0</ele>
      </trkpt>
      <trkpt lat="50.85888" lon="4.94819">
        <ele>36.0</ele>
      </trkpt>
      <trkpt lat="50.86231" lon="4.94623">
        <ele>41.0</ele>
      </trkpt>
      <trkpt lat="50.86596" lon="4.9404">
        <ele>47.0</ele>
      </trkpt>
      <trkpt lat="50.86618" lon="4.93977">
        <ele>48.0</ele>
      </trkpt>
      <trkpt lat="50.87033" lon="4.94319">
        <ele>48.0</ele>
      </trkpt>
      <trkpt lat="50.87298" lon="4.94575">
        <ele>50.0</ele>
      </trkpt>
      <trkpt lat="50.87315" lon="4.94475">
        <ele>49.0</ele>
      </trkpt>
      <trkpt lat="50.87356" lon="4.94364">
        <ele>49.0</ele>
      </trkpt>
      <trkpt lat="50.87389" lon="4.94306">
        <ele>49.0</ele>
      </trkpt>
      <trkpt lat="50.87449" lon="4.94262">
        <ele>49.0</ele>
      </trkpt>
      <trkpt lat="50.87499" lon="4.9425">
        <ele>49.0</ele>
      </trkpt>
      <trkpt lat="50.87759" lon="4.94282">
        <ele>53.0</ele>
      </trkpt>
      <trkpt lat="50.88039" lon="4.94172">
        <ele>56.0</ele>
      </trkpt>
      <trkpt lat="50.88121" lon="4.94063">
        <ele>57.0</ele>
      </trkpt>
      <trkpt lat="50.88271" lon="4.93911">
        <ele>61.0</ele>
      </trkpt>
      <trkpt lat="50.88309" lon="4.93697">
        <ele>65.0</ele>
      </trkpt>
      <trkpt lat="50.88332" lon="4.93639">
        <ele>66.0</ele>
      </trkpt>
      <trkpt lat="50.88635" lon="4.93213">
        <ele>71.0</ele>
      </trkpt>
      <trkpt lat="50.88812" lon="4.93077">
        <ele>73.0</ele>
      </trkpt>
      <trkpt lat="50.89275" lon="4.92643">
        <ele>75.0</ele>
      </trkpt>
      <trkpt lat="50.89604" lon="4.9246">
        <ele>73.0</ele>
      </trkpt>
      <trkpt lat="50.8965" lon="4.92586">
        <ele>72.0</ele>
      </trkpt>
      <trkpt lat="50.89932" lon="4.92187">
        <ele>73.0</ele>
      </trkpt>
      <trkpt lat="50.89983" lon="4.92143">
        <ele>74.0</ele>
      </trkpt>
      <trkpt lat="50.90423" lon="4.92">
        <ele>75.0</ele>
      </trkpt>
      <trkpt lat="50.9056" lon="4.91971">
        <ele>72.0</ele>
      </trkpt>
      <trkpt lat="50.9097" lon="4.9195">
        <ele>64.0</ele>
      </trkpt>
      <trkpt lat="50.91372" lon="4.91955">
        <ele>63.0</ele>
      </trkpt>
      <trkpt lat="50.91349" lon="4.92128">
        <ele>63.0</ele>
      </trkpt>
      <trkpt lat="50.91363" lon="4.92276">
        <ele>63.0</ele>
      </trkpt>
      <trkpt lat="50.91552" lon="4.92708">
        <ele>61.0</ele>
      </trkpt>
      <trkpt lat="50.91572" lon="4.92804">
        <ele>60.0</ele>
      </trkpt>
      <trkpt lat="50.91602" lon="4.93115">
        <ele>58.0</ele>
      </trkpt>
      <trkpt lat="50.91724" lon="4.9345">
        <ele>58.0</ele>
      </trkpt>
      <trkpt lat="50.91798" lon="4.93766">
        <ele>57.0</ele>
      </trkpt>
      <trkpt lat="50.91343" lon="4.9398">
        <ele>67.0</ele>
      </trkpt>
      <trkpt lat="50.90775" lon="4.9416">
        <ele>63.0</ele>
      </trkpt>
      <trkpt lat="50.90523" lon="4.94284">
        <ele>57.0</ele>
      </trkpt>
      <trkpt lat="50.9067" lon="4.94505">
        <ele>56.0</ele>
      </trkpt>
      <trkpt lat="50.90904" lon="4.95078">
        <ele>59.0</ele>
      </trkpt>
      <trkpt lat="50.90965" lon="4.95152">
        <ele>61.0</ele>
      </trkpt>
      <trkpt lat="50.91057" lon="4.9517">
        <ele>62.0</ele>
      </trkpt>
      <trkpt lat="50.91293" lon="4.95092">
        <ele>65.0</ele>
      </trkpt>
      <trkpt lat="50.91438" lon="4.95099">
        <ele>65.0</ele>
      </trkpt>
      <trkpt lat="50.91497" lon="4.95127">
        <ele>65.0</ele>
      </trkpt>
      <trkpt lat="50.91872" lon="4.95403">
        <ele>63.0</ele>
      </trkpt>
      <trkpt lat="50.92069" lon="4.95441">
        <ele>54.0</ele>
      </trkpt>
      <trkpt lat="50.92088" lon="4.95285">
        <ele>51.0</ele>
      </trkpt>
      <trkpt lat="50.92073" lon="4.95148">
        <ele>50.0</ele>
      </trkpt>
      <trkpt lat="50.9193" lon="4.94757">
        <ele>50.0</ele>
      </trkpt>
      <trkpt lat="50.9187" lon="4.9444">
        <ele>51.0</ele>
      </trkpt>
      <trkpt lat="50.91847" lon="4.94162">
        <ele>53.0</ele>
      </trkpt>
      <trkpt lat="50.92007" lon="4.94136">
        <ele>64.0</ele>
      </trkpt>
      <trkpt lat="50.92085" lon="4.93974">
        <ele>72.0</ele>
      </trkpt>
      <trkpt lat="50.92152" lon="4.93901">
        <ele>76.0</ele>
      </trkpt>
      <trkpt lat="50.9216" lon="4.93764">
        <ele>77.0</ele>
      </trkpt>
      <trkpt lat="50.92313" lon="4.9363">
        <ele>79.0</ele>
      </trkpt>
      <trkpt lat="50.92421" lon="4.94144">
        <ele>80.0</ele>
      </trkpt>
      <trkpt lat="50.926" lon="4.94589">
        <ele>79.0</ele>
      </trkpt>
      <trkpt lat="50.92647" lon="4.94875">
        <ele>77.0</ele>
      </trkpt>
      <trkpt lat="50.92753" lon="4.95144">
        <ele>76.0</ele>
      </trkpt>
      <trkpt lat="50.93245" lon="4.95248">
        <ele>67.0</ele>
      </trkpt>
      <trkpt lat="50.93438" lon="4.95364">
        <ele>63.0</ele>
      </trkpt>
      <trkpt lat="50.93912" lon="4.95559">
        <ele>51.0</ele>
      </trkpt>
      <trkpt lat="50.94198" lon="4.95512">
        <ele>43.0</ele>
      </trkpt>
      <trkpt lat="50.94267" lon="4.9554">
        <ele>41.0</ele>
      </trkpt>
      <trkpt lat="50.94428" lon="4.95656">
        <ele>37.0</ele>
      </trkpt>
      <trkpt lat="50.94519" lon="4.9568">
        <ele>36.0</ele>
      </trkpt>
      <trkpt lat="50.94805" lon="4.956">
        <ele>36.0</ele>
      </trkpt>
      <trkpt lat="50.94869" lon="4.95604">
        <ele>37.0</ele>
      </trkpt>
      <trkpt lat="50.94938" lon="4.95655">
        <ele>39.0</ele>
      </trkpt>
      <trkpt lat="50.95215" lon="4.96">
        <ele>45.0</ele>
      </trkpt>
      <trkpt lat="50.95324" lon="4.96083">
        <ele>45.0</ele>
      </trkpt>
      <trkpt lat="50.95878" lon="4.96218">
        <ele>45.0</ele>
      </trkpt>
      <trkpt lat="50.96307" lon="4.96446">
        <ele>53.0</ele>
      </trkpt>
      <trkpt lat="50.96454" lon="4.96417">
        <ele>59.0</ele>
      </trkpt>
      <trkpt lat="50.96543" lon="4.96342">
        <ele>64.0</ele>
      </trkpt>
      <trkpt lat="50.96683" lon="4.96414">
        <ele>67.0</ele>
      </trkpt>
      <trkpt lat="50.96687" lon="4.96436">
        <ele>68.0</ele>
      </trkpt>
      <trkpt lat="50.97422" lon="4.96185">
        <ele>56.0</ele>
      </trkpt>
      <trkpt lat="50.97571" lon="4.96183">
        <ele>48.0</ele>
      </trkpt>
      <trkpt lat="50.98004" lon="4.95976">
        <ele>50.0</ele>
      </trkpt>
      <trkpt lat="50.98607" lon="4.95592">
        <ele>47.0</ele>
      </trkpt>
      <trkpt lat="50.98699" lon="4.95771">
        <ele>45.0</ele>
      </trkpt>
      <trkpt lat="50.98977" lon="4.96177">
        <ele>34.0</ele>
      </trkpt>
      <trkpt lat="50.99107" lon="4.96399">
        <ele>29.0</ele>
      </trkpt>
      <trkpt lat="50.9921" lon="4.96628">
        <ele>27.0</ele>
      </trkpt>
      <trkpt lat="50.99376" lon="4.97053">
        <ele>29.0</ele>
      </trkpt>
      <trkpt lat="50.99433" lon="4.97268">
        <ele>33.0</ele>
      </trkpt>
      <trkpt lat="50.99408" lon="4.97326">
        <ele>35.0</ele>
      </trkpt>
      <trkpt lat="50.99413" lon="4.97343">
        <ele>35.0</ele>
      </trkpt>
      <trkpt lat="50.9934" lon="4.97484">
        <ele>36.0</ele>
      </trkpt>
      <trkpt lat="50.9932" lon="4.97577">
        <ele>36.0</ele>
      </trkpt>
      <trkpt lat="50.9931" lon="4.98177">
        <ele>35.0</ele>
      </trkpt>
      <trkpt lat="50.99318" lon="4.9842">
        <ele>30.0</ele>
      </trkpt>
      <trkpt lat="50.99373" lon="4.98606">
        <ele>26.0</ele>
      </trkpt>
      <trkpt lat="50.99479" lon="4.98892">
        <ele>22.0</ele>
      </trkpt>
      <trkpt lat="50.99614" lon="4.99108">
        <ele>22.0</ele>
      </trkpt>
      <trkpt lat="50.99706" lon="4.99224">
        <ele>21.0</ele>
      </trkpt>
      <trkpt lat="50.99653" lon="4.99418">
        <ele>19.0</ele>
      </trkpt>
      <trkpt lat="50.99309" lon="5.00138">
        <ele>20.0</ele>
      </trkpt>
      <trkpt lat="50.992" lon="5.00285">
        <ele>23.0</ele>
      </trkpt>
      <trkpt lat="50.98925" lon="5.00527">
        <ele>28.0</ele>
      </trkpt>
      <trkpt lat="50.98865" lon="5.00612">
        <ele>26.0</ele>
      </trkpt>
      <trkpt lat="50.98812" lon="5.00737">
        <ele>27.0</ele>
      </trkpt>
      <trkpt lat="50.98678" lon="5.01271">
        <ele>29.0</ele>
      </trkpt>
      <trkpt lat="50.98654" lon="5.01716">
        <ele>25.0</ele>
      </trkpt>
      <trkpt lat="50.98618" lon="5.02052">
        <ele>25.0</ele>
      </trkpt>
      <trkpt lat="50.9856" lon="5.02236">
        <ele>26.0</ele>
      </trkpt>
      <trkpt lat="50.98539" lon="5.02365">
        <ele>26.0</ele>
      </trkpt>
      <trkpt lat="50.98496" lon="5.0291">
        <ele>28.0</ele>
      </trkpt>
      <trkpt lat="50.98525" lon="5.03348">
        <ele>38.0</ele>
      </trkpt>
      <trkpt lat="50.98506" lon="5.03576">
        <ele>43.0</ele>
      </trkpt>
      <trkpt lat="50.98428" lon="5.03966">
        <ele>41.0</ele>
      </trkpt>
      <trkpt lat="50.98729" lon="5.04208">
        <ele>19.0</ele>
      </trkpt>
      <trkpt lat="50.98958" lon="5.04257">
        <ele>19.0</ele>
      </trkpt>
      <trkpt lat="50.98984" lon="5.04223">
        <ele>19.0</ele>
      </trkpt>
      <trkpt lat="50.99173" lon="5.04129">
        <ele>19.0</ele>
      </trkpt>
      <trkpt lat="50.99385" lon="5.04074">
        <ele>20.0</ele>
      </trkpt>
      <trkpt lat="50.99368" lon="5.04007">
        <ele>20.0</ele>
      </trkpt>
      <trkpt lat="50.99371" lon="5.03966">
        <ele>20.0</ele>
      </trkpt>
      <trkpt lat="50.99292" lon="5.03392">
        <ele>22.0</ele>
      </trkpt>
      <trkpt lat="50.99149" lon="5.02475">
        <ele>24.0</ele>
      </trkpt>
      <trkpt lat="50.99117" lon="5.02137">
        <ele>23.0</ele>
      </trkpt>
      <trkpt lat="50.99115" lon="5.02056">
        <ele>22.0</ele>
      </trkpt>
      <trkpt lat="50.99149" lon="5.01834">
        <ele>26.0</ele>
      </trkpt>
      <trkpt lat="50.99193" lon="5.01853">
        <ele>30.0</ele>
      </trkpt>
      <trkpt lat="50.99262" lon="5.01724">
        <ele>38.0</ele>
      </trkpt>
      <trkpt lat="50.99273" lon="5.01734">
        <ele>42.0</ele>
      </trkpt>
      <trkpt lat="50.9927" lon="5.01865">
        <ele>48.0</ele>
      </trkpt>
      <trkpt lat="50.99294" lon="5.0201">
        <ele>51.0</ele>
      </trkpt>
      <trkpt lat="50.99356" lon="5.02289">
        <ele>55.0</ele>
      </trkpt>
      <trkpt lat="50.99421" lon="5.02445">
        <ele>56.0</ele>
      </trkpt>
      <trkpt lat="50.99435" lon="5.02607">
        <ele>59.0</ele>
      </trkpt>
      <trkpt lat="50.99457" lon="5.02691">
        <ele>63.0</ele>
      </trkpt>
      <trkpt lat="50.99588" lon="5.02933">
        <ele>60.0</ele>
      </trkpt>
      <trkpt lat="50.99577" lon="5.03013">
        <ele>59.0</ele>
      </trkpt>
      <trkpt lat="50.99593" lon="5.03253">
        <ele>60.0</ele>
      </trkpt>
      <trkpt lat="50.99719" lon="5.03282">
        <ele>60.0</ele>
      </trkpt>
      <trkpt lat="50.9978" lon="5.03258">
        <ele>60.0</ele>
      </trkpt>
      <trkpt lat="50.99848" lon="5.03162">
        <ele>58.0</ele>
      </trkpt>
      <trkpt lat="50.99898" lon="5.03119">
        <ele>54.0</ele>
      </trkpt>
      <trkpt lat="51.0125" lon="5.0226">
        <ele>21.0</ele>
      </trkpt>
      <trkpt lat="51.02154" lon="5.01822">
        <ele>20.0</ele>
      </trkpt>
      <trkpt lat="51.02471" lon="5.02567">
        <ele>22.0</ele>
      </trkpt>
      <trkpt lat="51.02833" lon="5.03609">
        <ele>22.0</ele>
      </trkpt>
      <trkpt lat="51.02872" lon="5.0377">
        <ele>21.0</ele>
      </trkpt>
      <trkpt lat="51.02973" lon="5.04391">
        <ele>20.0</ele>
      </trkpt>
      <trkpt lat="51.02975" lon="5.04495">
        <ele>20.0</ele>
      </trkpt>
      <trkpt lat="51.02948" lon="5.04823">
        <ele>21.0</ele>
      </trkpt>
      <trkpt lat="51.02961" lon="5.05468">
        <ele>22.0</ele>
      </trkpt>
      <trkpt lat="51.02951" lon="5.05602">
        <ele>22.0</ele>
      </trkpt>
      <trkpt lat="51.02581" lon="5.06677">
        <ele>23.0</ele>
      </trkpt>
      <trkpt lat="51.02559" lon="5.06716">
        <ele>23.0</ele>
      </trkpt>
      <trkpt lat="51.02153" lon="5.07135">
        <ele>20.0</ele>
      </trkpt>
      <trkpt lat="51.02135" lon="5.0719">
        <ele>21.0</ele>
      </trkpt>
      <trkpt lat="51.02068" lon="5.07217">
        <ele>21.0</ele>
      </trkpt>
      <trkpt lat="51.01871" lon="5.07386">
        <ele>21.0</ele>
      </trkpt>
      <trkpt lat="51.01814" lon="5.07413">
        <ele>21.0</ele>
      </trkpt>
      <trkpt lat="51.01578" lon="5.07448">
        <ele>19.0</ele>
      </trkpt>
      <trkpt lat="51.00886" lon="5.07156">
        <ele>18.0</ele>
      </trkpt>
      <trkpt lat="51.00371" lon="5.07152">
        <ele>18.0</ele>
      </trkpt>
      <trkpt lat="51.00279" lon="5.07105">
        <ele>19.0</ele>
      </trkpt>
      <trkpt lat="51.00184" lon="5.07012">
        <ele>21.0</ele>
      </trkpt>
      <trkpt lat="50.9979" lon="5.06857">
        <ele>27.0</ele>
      </trkpt>
      <trkpt lat="50.9969" lon="5.0686">
        <ele>27.0</ele>
      </trkpt>
      <trkpt lat="50.99552" lon="5.06907">
        <ele>26.0</ele>
      </trkpt>
      <trkpt lat="50.99511" lon="5.06941">
        <ele>25.0</ele>
      </trkpt>
      <trkpt lat="50.99427" lon="5.06824">
        <ele>24.0</ele>
      </trkpt>
      <trkpt lat="50.99316" lon="5.06631">
        <ele>23.0</ele>
      </trkpt>
      <trkpt lat="50.99218" lon="5.06316">
        <ele>22.0</ele>
      </trkpt>
      <trkpt lat="50.99192" lon="5.06136">
        <ele>23.0</ele>
      </trkpt>
      <trkpt lat="50.99194" lon="5.0599">
        <ele>25.0</ele>
      </trkpt>
      <trkpt lat="50.99285" lon="5.05469">
        <ele>28.0</ele>
      </trkpt>
      <trkpt lat="50.99278" lon="5.05409">
        <ele>27.0</ele>
      </trkpt>
      <trkpt lat="50.99218" lon="5.05296">
        <ele>25.0</ele>
      </trkpt>
      <trkpt lat="50.99237" lon="5.05241">
        <ele>24.0</ele>
      </trkpt>
      <trkpt lat="50.99284" lon="5.04962">
        <ele>24.0</ele>
      </trkpt>
      <trkpt lat="50.99409" lon="5.04439">
        <ele>23.0</ele>
      </trkpt>
      <trkpt lat="50.99389" lon="5.04099">
        <ele>21.0</ele>
      </trkpt>
      <trkpt lat="50.99368" lon="5.04007">
        <ele>21.0</ele>
      </trkpt>
      <trkpt lat="50.99371" lon="5.03966">
        <ele>21.0</ele>
      </trkpt>
      <trkpt lat="50.99292" lon="5.03392">
        <ele>22.0</ele>
      </trkpt>
      <trkpt lat="50.99149" lon="5.02475">
        <ele>24.0</ele>
      </trkpt>
      <trkpt lat="50.99117" lon="5.02137">
        <ele>23.0</ele>
      </trkpt>
      <trkpt lat="50.99115" lon="5.02056">
        <ele>22.0</ele>
      </trkpt>
      <trkpt lat="50.99149" lon="5.01834">
        <ele>26.0</ele>
      </trkpt>
      <trkpt lat="50.99193" lon="5.01853">
        <ele>31.0</ele>
      </trkpt>
      <trkpt lat="50.99259" lon="5.01726">
        <ele>36.0</ele>
      </trkpt>
      <trkpt lat="50.99273" lon="5.01734">
        <ele>42.0</ele>
      </trkpt>
      <trkpt lat="50.9927" lon="5.01865">
        <ele>48.0</ele>
      </trkpt>
      <trkpt lat="50.99294" lon="5.0201">
        <ele>51.0</ele>
      </trkpt>
      <trkpt lat="50.99356" lon="5.02289">
        <ele>55.0</ele>
      </trkpt>
      <trkpt lat="50.99421" lon="5.02445">
        <ele>56.0</ele>
      </trkpt>
      <trkpt lat="50.99435" lon="5.02607">
        <ele>59.0</ele>
      </trkpt>
      <trkpt lat="50.99457" lon="5.02691">
        <ele>63.0</ele>
      </trkpt>
      <trkpt lat="50.99588" lon="5.02933">
        <ele>60.0</ele>
      </trkpt>
      <trkpt lat="50.99577" lon="5.03013">
        <ele>59.0</ele>
      </trkpt>
      <trkpt lat="50.99593" lon="5.03253">
        <ele>60.0</ele>
      </trkpt>
      <trkpt lat="50.99719" lon="5.03282">
        <ele>60.0</ele>
      </trkpt>
      <trkpt lat="50.9978" lon="5.03258">
        <ele>60.0</ele>
      </trkpt>
      <trkpt lat="50.99848" lon="5.03162">
        <ele>58.0</ele>
      </trkpt>
      <trkpt lat="50.99898" lon="5.03119">
        <ele>54.0</ele>
      </trkpt>
      <trkpt lat="51.0125" lon="5.0226">
        <ele>21.0</ele>
      </trkpt>
      <trkpt lat="51.02154" lon="5.01822">
        <ele>20.0</ele>
      </trkpt>
      <trkpt lat="51.02471" lon="5.02567">
        <ele>22.0</ele>
      </trkpt>
      <trkpt lat="51.02833" lon="5.03609">
        <ele>22.0</ele>
      </trkpt>
      <trkpt lat="51.02872" lon="5.0377">
        <ele>21.0</ele>
      </trkpt>
      <trkpt lat="51.02967" lon="5.04345">
        <ele>20.0</ele>
      </trkpt>
      <trkpt lat="51.02975" lon="5.04495">
        <ele>20.0</ele>
      </trkpt>
      <trkpt lat="51.02948" lon="5.04823">
        <ele>21.0</ele>
      </trkpt>
      <trkpt lat="51.02961" lon="5.05534">
        <ele>22.0</ele>
      </trkpt>
      <trkpt lat="51.02934" lon="5.05667">
        <ele>22.0</ele>
      </trkpt>
      <trkpt lat="51.02573" lon="5.06695">
        <ele>23.0</ele>
      </trkpt>
      <trkpt lat="51.02153" lon="5.07135">
        <ele>20.0</ele>
      </trkpt>
      <trkpt lat="51.02135" lon="5.0719">
        <ele>21.0</ele>
      </trkpt>
      <trkpt lat="51.02068" lon="5.07217">
        <ele>21.0</ele>
      </trkpt>
      <trkpt lat="51.01842" lon="5.07404">
        <ele>21.0</ele>
      </trkpt>
      <trkpt lat="51.01578" lon="5.07448">
        <ele>19.0</ele>
      </trkpt>
      <trkpt lat="51.00886" lon="5.07156">
        <ele>18.0</ele>
      </trkpt>
      <trkpt lat="51.00458" lon="5.07163">
        <ele>18.0</ele>
      </trkpt>
      <trkpt lat="51.00355" lon="5.07147">
        <ele>18.0</ele>
      </trkpt>
      <trkpt lat="51.00279" lon="5.07105">
        <ele>19.0</ele>
      </trkpt>
      <trkpt lat="51.00184" lon="5.07012">
        <ele>21.0</ele>
      </trkpt>
      <trkpt lat="50.9979" lon="5.06857">
        <ele>27.0</ele>
      </trkpt>
      <trkpt lat="50.9969" lon="5.0686">
        <ele>27.0</ele>
      </trkpt>
      <trkpt lat="50.99552" lon="5.06907">
        <ele>26.0</ele>
      </trkpt>
      <trkpt lat="50.99511" lon="5.06941">
        <ele>25.0</ele>
      </trkpt>
      <trkpt lat="50.99427" lon="5.06824">
        <ele>24.0</ele>
      </trkpt>
      <trkpt lat="50.99316" lon="5.06631">
        <ele>23.0</ele>
      </trkpt>
      <trkpt lat="50.99218" lon="5.06316">
        <ele>22.0</ele>
      </trkpt>
      <trkpt lat="50.99192" lon="5.06136">
        <ele>23.0</ele>
      </trkpt>
      <trkpt lat="50.99194" lon="5.0599">
        <ele>25.0</ele>
      </trkpt>
      <trkpt lat="50.99285" lon="5.05469">
        <ele>28.0</ele>
      </trkpt>
      <trkpt lat="50.99278" lon="5.05409">
        <ele>27.0</ele>
      </trkpt>
      <trkpt lat="50.99218" lon="5.05296">
        <ele>25.0</ele>
      </trkpt>
      <trkpt lat="50.99237" lon="5.05241">
        <ele>24.0</ele>
      </trkpt>
      <trkpt lat="50.99284" lon="5.04962">
        <ele>24.0</ele>
      </trkpt>
      <trkpt lat="50.99409" lon="5.04439">
        <ele>23.0</ele>
      </trkpt>
      <trkpt lat="50.99389" lon="5.04099">
        <ele>21.0</ele>
      </trkpt>
      <trkpt lat="50.99368" lon="5.04007">
        <ele>21.0</ele>
      </trkpt>
      <trkpt lat="50.99371" lon="5.03966">
        <ele>21.0</ele>
      </trkpt>
      <trkpt lat="50.99292" lon="5.03392">
        <ele>22.0</ele>
      </trkpt>
      <trkpt lat="50.99149" lon="5.02475">
        <ele>24.0</ele>
      </trkpt>
      <trkpt lat="50.99117" lon="5.02137">
        <ele>23.0</ele>
      </trkpt>
      <trkpt lat="50.99115" lon="5.02056">
        <ele>22.0</ele>
      </trkpt>
      <trkpt lat="50.99149" lon="5.01834">
        <ele>26.0</ele>
      </trkpt>
      <trkpt lat="50.99194" lon="5.01852">
        <ele>30.0</ele>
      </trkpt>
      <trkpt lat="50.99259" lon="5.01726">
        <ele>36.0</ele>
      </trkpt>
      <trkpt lat="50.99273" lon="5.01734">
        <ele>42.0</ele>
      </trkpt>
      <trkpt lat="50.9927" lon="5.01865">
        <ele>48.0</ele>
      </trkpt>
      <trkpt lat="50.99294" lon="5.0201">
        <ele>51.0</ele>
      </trkpt>
      <trkpt lat="50.99356" lon="5.02289">
        <ele>56.0</ele>
      </trkpt>
      <trkpt lat="50.99421" lon="5.02445">
        <ele>56.0</ele>
      </trkpt>
      <trkpt lat="50.99435" lon="5.02607">
        <ele>59.0</ele>
      </trkpt>
      <trkpt lat="50.99457" lon="5.02691">
        <ele>63.0</ele>
      </trkpt>
      <trkpt lat="50.99588" lon="5.02933">
        <ele>60.0</ele>
      </trkpt>
      <trkpt lat="50.99577" lon="5.03013">
        <ele>59.0</ele>
      </trkpt>
      <trkpt lat="50.99593" lon="5.03253">
        <ele>60.0</ele>
      </trkpt>
      <trkpt lat="50.99719" lon="5.03282">
        <ele>60.0</ele>
      </trkpt>
      <trkpt lat="50.9978" lon="5.03258">
        <ele>60.0</ele>
      </trkpt>
      <trkpt lat="50.99848" lon="5.03162">
        <ele>58.0</ele>
      </trkpt>
      <trkpt lat="50.99898" lon="5.03119">
        <ele>54.0</ele>
      </trkpt>
      <trkpt lat="51.0125" lon="5.0226">
        <ele>21.0</ele>
      </trkpt>
      <trkpt lat="51.02154" lon="5.01822">
        <ele>20.0</ele>
      </trkpt>
      <trkpt lat="51.02471" lon="5.02567">
        <ele>22.0</ele>
      </trkpt>
      <trkpt lat="51.02833" lon="5.03609">
        <ele>22.0</ele>
      </trkpt>
      <trkpt lat="51.02872" lon="5.0377">
        <ele>21.0</ele>
      </trkpt>
      <trkpt lat="51.02967" lon="5.04345">
        <ele>20.0</ele>
      </trkpt>
      <trkpt lat="51.02975" lon="5.04495">
        <ele>20.0</ele>
      </trkpt>
      <trkpt lat="51.02948" lon="5.04823">
        <ele>21.0</ele>
      </trkpt>
      <trkpt lat="51.02961" lon="5.05534">
        <ele>22.0</ele>
      </trkpt>
      <trkpt lat="51.02934" lon="5.05667">
        <ele>22.0</ele>
      </trkpt>
      <trkpt lat="51.02573" lon="5.06695">
        <ele>23.0</ele>
      </trkpt>
      <trkpt lat="51.02153" lon="5.07135">
        <ele>20.0</ele>
      </trkpt>
      <trkpt lat="51.02135" lon="5.0719">
        <ele>21.0</ele>
      </trkpt>
      <trkpt lat="51.02068" lon="5.07217">
        <ele>21.0</ele>
      </trkpt>
      <trkpt lat="51.01842" lon="5.07404">
        <ele>21.0</ele>
      </trkpt>
      <trkpt lat="51.01578" lon="5.07448">
        <ele>19.0</ele>
      </trkpt>
      <trkpt lat="51.00886" lon="5.07156">
        <ele>18.0</ele>
      </trkpt>
      <trkpt lat="51.00458" lon="5.07163">
        <ele>18.0</ele>
      </trkpt>
      <trkpt lat="51.00355" lon="5.07147">
        <ele>18.0</ele>
      </trkpt>
      <trkpt lat="51.00279" lon="5.07105">
        <ele>19.0</ele>
      </trkpt>
      <trkpt lat="51.00184" lon="5.07012">
        <ele>21.0</ele>
      </trkpt>
      <trkpt lat="50.9979" lon="5.06857">
        <ele>27.0</ele>
      </trkpt>
      <trkpt lat="50.9969" lon="5.0686">
        <ele>27.0</ele>
      </trkpt>
      <trkpt lat="50.99552" lon="5.06907">
        <ele>26.0</ele>
      </trkpt>
      <trkpt lat="50.99511" lon="5.06941">
        <ele>25.0</ele>
      </trkpt>
      <trkpt lat="50.99427" lon="5.06824">
        <ele>24.0</ele>
      </trkpt>
      <trkpt lat="50.99314" lon="5.06626">
        <ele>23.0</ele>
      </trkpt>
      <trkpt lat="50.99218" lon="5.06316">
        <ele>22.0</ele>
      </trkpt>
      <trkpt lat="50.99192" lon="5.06136">
        <ele>23.0</ele>
      </trkpt>
      <trkpt lat="50.99194" lon="5.0599">
        <ele>25.0</ele>
      </trkpt>
      <trkpt lat="50.99285" lon="5.05469">
        <ele>28.0</ele>
      </trkpt>
      <trkpt lat="50.99278" lon="5.05409">
        <ele>27.0</ele>
      </trkpt>
      <trkpt lat="50.99218" lon="5.05296">
        <ele>25.0</ele>
      </trkpt>
      <trkpt lat="50.99237" lon="5.05241">
        <ele>24.0</ele>
      </trkpt>
      <trkpt lat="50.99284" lon="5.04962">
        <ele>24.0</ele>
      </trkpt>
      <trkpt lat="50.99409" lon="5.04439">
        <ele>23.0</ele>
      </trkpt>
      <trkpt lat="50.99389" lon="5.04099">
        <ele>21.0</ele>
      </trkpt>
      <trkpt lat="50.99368" lon="5.04007">
        <ele>21.0</ele>
      </trkpt>
      <trkpt lat="50.99371" lon="5.03966">
        <ele>21.0</ele>
      </trkpt>
      <trkpt lat="50.99292" lon="5.03392">
        <ele>23.0</ele>
      </trkpt>
      <trkpt lat="50.99149" lon="5.02475">
        <ele>24.0</ele>
      </trkpt>
      <trkpt lat="50.99117" lon="5.02137">
        <ele>23.0</ele>
      </trkpt>
      <trkpt lat="50.99115" lon="5.02056">
        <ele>22.0</ele>
      </trkpt>
      <trkpt lat="50.99149" lon="5.01834">
        <ele>26.0</ele>
      </trkpt>
      <trkpt lat="50.99195" lon="5.01851">
        <ele>30.0</ele>
      </trkpt>
      <trkpt lat="50.99259" lon="5.01726">
        <ele>36.0</ele>
      </trkpt>
      <trkpt lat="50.99273" lon="5.01734">
        <ele>42.0</ele>
      </trkpt>
      <trkpt lat="50.9927" lon="5.01865">
        <ele>48.0</ele>
      </trkpt>
      <trkpt lat="50.99294" lon="5.0201">
        <ele>51.0</ele>
      </trkpt>
      <trkpt lat="50.99356" lon="5.02289">
        <ele>55.0</ele>
      </trkpt>
      <trkpt lat="50.99421" lon="5.02445">
        <ele>56.0</ele>
      </trkpt>
      <trkpt lat="50.99435" lon="5.02607">
        <ele>59.0</ele>
      </trkpt>
      <trkpt lat="50.99457" lon="5.02691">
        <ele>63.0</ele>
      </trkpt>
      <trkpt lat="50.99588" lon="5.02933">
        <ele>60.0</ele>
      </trkpt>
      <trkpt lat="50.99577" lon="5.03013">
        <ele>59.0</ele>
      </trkpt>
      <trkpt lat="50.99593" lon="5.03253">
        <ele>60.0</ele>
      </trkpt>
      <trkpt lat="50.99719" lon="5.03282">
        <ele>60.0</ele>
      </trkpt>
      <trkpt lat="50.9978" lon="5.03258">
        <ele>60.0</ele>
      </trkpt>
      <trkpt lat="50.99848" lon="5.03162">
        <ele>58.0</ele>
      </trkpt>
      <trkpt lat="50.99898" lon="5.03119">
        <ele>54.0</ele>
      </trkpt>
      <trkpt lat="51.0125" lon="5.0226">
        <ele>21.0</ele>
      </trkpt>
      <trkpt lat="51.02154" lon="5.01822">
        <ele>20.0</ele>
      </trkpt>
      <trkpt lat="51.02471" lon="5.02567">
        <ele>22.0</ele>
      </trkpt>
      <trkpt lat="51.02833" lon="5.03609">
        <ele>22.0</ele>
      </trkpt>
      <trkpt lat="51.02872" lon="5.0377">
        <ele>21.0</ele>
      </trkpt>
      <trkpt lat="51.02967" lon="5.04345">
        <ele>20.0</ele>
      </trkpt>
      <trkpt lat="51.02975" lon="5.04495">
        <ele>20.0</ele>
      </trkpt>
      <trkpt lat="51.02948" lon="5.04823">
        <ele>21.0</ele>
      </trkpt>
      <trkpt lat="51.02961" lon="5.05534">
        <ele>22.0</ele>
      </trkpt>
      <trkpt lat="51.02934" lon="5.05667">
        <ele>22.0</ele>
      </trkpt>
      <trkpt lat="51.02573" lon="5.06695">
        <ele>23.0</ele>
      </trkpt>
      <trkpt lat="51.02153" lon="5.07135">
        <ele>20.0</ele>
      </trkpt>
      <trkpt lat="51.02135" lon="5.0719">
        <ele>21.0</ele>
      </trkpt>
      <trkpt lat="51.02068" lon="5.07217">
        <ele>21.0</ele>
      </trkpt>
      <trkpt lat="51.01842" lon="5.07404">
        <ele>21.0</ele>
      </trkpt>
      <trkpt lat="51.01578" lon="5.07448">
        <ele>19.0</ele>
      </trkpt>
      <trkpt lat="51.00886" lon="5.07156">
        <ele>18.0</ele>
      </trkpt>
      <trkpt lat="51.00458" lon="5.07163">
        <ele>18.0</ele>
      </trkpt>
      <trkpt lat="51.00355" lon="5.07147">
        <ele>18.0</ele>
      </trkpt>
      <trkpt lat="51.00279" lon="5.07105">
        <ele>19.0</ele>
      </trkpt>
      <trkpt lat="51.00198" lon="5.0702">
        <ele>21.0</ele>
      </trkpt>
      <trkpt lat="50.99992" lon="5.06934">
        <ele>22.0</ele>
      </trkpt>
    </trkseg>
  </trk>
</gpx>