<?xml version="1.0" encoding="UTF-8"?>
<gpx xmlns="http://www.topografix.com/GPX/1/0" xmlns:xsi="http://www.w3.org/2001/XMLSchema-instance" xsi:schemaLocation="http://www.topografix.com/GPX/1/0 http://www.topografix.com/GPX/1/0/gpx.xsd" version="1.0" creator="GPSBabel - https://www.gpsbabel.org">
  <time>2026-02-07T14:42:56.470000Z</time>
  <bounds minlat="37.75235" maxlat="38.12227" minlon="-4.21324" maxlon="-3.80115" />
  <trk>
    <trkseg>
      <trkpt lat="37.78877" lon="-3.80115">
        <ele>476.0</ele>
      </trkpt>
      <trkpt lat="37.79079" lon="-3.80371">
        <ele>477.0</ele>
      </trkpt>
      <trkpt lat="37.79297" lon="-3.8067">
        <ele>474.0</ele>
      </trkpt>
      <trkpt lat="37.79456" lon="-3.80827">
        <ele>465.0</ele>
      </trkpt>
      <trkpt lat="37.79838" lon="-3.81093">
        <ele>464.0</ele>
      </trkpt>
      <trkpt lat="37.79997" lon="-3.81238">
        <ele>465.0</ele>
      </trkpt>
      <trkpt lat="37.80027" lon="-3.81248">
        <ele>467.0</ele>
      </trkpt>
      <trkpt lat="37.80061" lon="-3.81246">
        <ele>468.0</ele>
      </trkpt>
      <trkpt lat="37.80091" lon="-3.8126">
        <ele>469.0</ele>
      </trkpt>
      <trkpt lat="37.80098" lon="-3.81284">
        <ele>470.0</ele>
      </trkpt>
      <trkpt lat="37.80114" lon="-3.81314">
        <ele>471.0</ele>
      </trkpt>
      <trkpt lat="37.80183" lon="-3.81362">
        <ele>474.0</ele>
      </trkpt>
      <trkpt lat="37.80371" lon="-3.81428">
        <ele>488.0</ele>
      </trkpt>
      <trkpt lat="37.80564" lon="-3.81584">
        <ele>498.0</ele>
      </trkpt>
      <trkpt lat="37.8063" lon="-3.81672">
        <ele>496.0</ele>
      </trkpt>
      <trkpt lat="37.80689" lon="-3.81702">
        <ele>492.0</ele>
      </trkpt>
      <trkpt lat="37.8072" lon="-3.81707">
        <ele>488.0</ele>
      </trkpt>
      <trkpt lat="37.80736" lon="-3.81734">
        <ele>487.0</ele>
      </trkpt>
      <trkpt lat="37.80761" lon="-3.81768">
        <ele>487.0</ele>
      </trkpt>
      <trkpt lat="37.81056" lon="-3.81958">
        <ele>485.0</ele>
      </trkpt>
      <trkpt lat="37.81245" lon="-3.82049">
        <ele>488.0</ele>
      </trkpt>
      <trkpt lat="37.81481" lon="-3.82139">
        <ele>477.0</ele>
      </trkpt>
      <trkpt lat="37.81584" lon="-3.82201">
        <ele>472.0</ele>
      </trkpt>
      <trkpt lat="37.81717" lon="-3.82325">
        <ele>462.0</ele>
      </trkpt>
      <trkpt lat="37.81827" lon="-3.82471">
        <ele>453.0</ele>
      </trkpt>
      <trkpt lat="37.81932" lon="-3.82592">
        <ele>450.0</ele>
      </trkpt>
      <trkpt lat="37.82028" lon="-3.82658">
        <ele>452.0</ele>
      </trkpt>
      <trkpt lat="37.8227" lon="-3.82747">
        <ele>452.0</ele>
      </trkpt>
      <trkpt lat="37.8246" lon="-3.82833">
        <ele>446.0</ele>
      </trkpt>
      <trkpt lat="37.82787" lon="-3.83033">
        <ele>444.0</ele>
      </trkpt>
      <trkpt lat="37.82876" lon="-3.83067">
        <ele>445.0</ele>
      </trkpt>
      <trkpt lat="37.83101" lon="-3.83142">
        <ele>444.0</ele>
      </trkpt>
      <trkpt lat="37.83221" lon="-3.83229">
        <ele>436.0</ele>
      </trkpt>
      <trkpt lat="37.83365" lon="-3.83311">
        <ele>429.0</ele>
      </trkpt>
      <trkpt lat="37.83454" lon="-3.83364">
        <ele>424.0</ele>
      </trkpt>
      <trkpt lat="37.83584" lon="-3.83473">
        <ele>418.0</ele>
      </trkpt>
      <trkpt lat="37.83711" lon="-3.83575">
        <ele>412.0</ele>
      </trkpt>
      <trkpt lat="37.8383" lon="-3.83629">
        <ele>408.0</ele>
      </trkpt>
      <trkpt lat="37.83995" lon="-3.83688">
        <ele>406.0</ele>
      </trkpt>
      <trkpt lat="37.84102" lon="-3.83746">
        <ele>405.0</ele>
      </trkpt>
      <trkpt lat="37.84179" lon="-3.83823">
        <ele>405.0</ele>
      </trkpt>
      <trkpt lat="37.84239" lon="-3.83928">
        <ele>406.0</ele>
      </trkpt>
      <trkpt lat="37.84431" lon="-3.8443">
        <ele>407.0</ele>
      </trkpt>
      <trkpt lat="37.84514" lon="-3.84606">
        <ele>408.0</ele>
      </trkpt>
      <trkpt lat="37.84609" lon="-3.84745">
        <ele>410.0</ele>
      </trkpt>
      <trkpt lat="37.84719" lon="-3.84861">
        <ele>413.0</ele>
      </trkpt>
      <trkpt lat="37.84838" lon="-3.84974">
        <ele>416.0</ele>
      </trkpt>
      <trkpt lat="37.85171" lon="-3.85298">
        <ele>430.0</ele>
      </trkpt>
      <trkpt lat="37.85301" lon="-3.85464">
        <ele>446.0</ele>
      </trkpt>
      <trkpt lat="37.85359" lon="-3.85568">
        <ele>454.0</ele>
      </trkpt>
      <trkpt lat="37.85486" lon="-3.8582">
        <ele>460.0</ele>
      </trkpt>
      <trkpt lat="37.85797" lon="-3.86078">
        <ele>470.0</ele>
      </trkpt>
      <trkpt lat="37.8598" lon="-3.8617">
        <ele>465.0</ele>
      </trkpt>
      <trkpt lat="37.86223" lon="-3.86171">
        <ele>461.0</ele>
      </trkpt>
      <trkpt lat="37.86309" lon="-3.8619">
        <ele>464.0</ele>
      </trkpt>
      <trkpt lat="37.8689" lon="-3.86484">
        <ele>465.0</ele>
      </trkpt>
      <trkpt lat="37.86997" lon="-3.86556">
        <ele>467.0</ele>
      </trkpt>
      <trkpt lat="37.87003" lon="-3.86577">
        <ele>466.0</ele>
      </trkpt>
      <trkpt lat="37.86997" lon="-3.86609">
        <ele>465.0</ele>
      </trkpt>
      <trkpt lat="37.87052" lon="-3.86712">
        <ele>460.0</ele>
      </trkpt>
      <trkpt lat="37.87126" lon="-3.86875">
        <ele>457.0</ele>
      </trkpt>
      <trkpt lat="37.87165" lon="-3.87081">
        <ele>455.0</ele>
      </trkpt>
      <trkpt lat="37.87166" lon="-3.87165">
        <ele>454.0</ele>
      </trkpt>
      <trkpt lat="37.87137" lon="-3.87366">
        <ele>452.0</ele>
      </trkpt>
      <trkpt lat="37.8712" lon="-3.87466">
        <ele>449.0</ele>
      </trkpt>
      <trkpt lat="37.87139" lon="-3.87731">
        <ele>441.0</ele>
      </trkpt>
      <trkpt lat="37.8717" lon="-3.8786">
        <ele>435.0</ele>
      </trkpt>
      <trkpt lat="37.87207" lon="-3.87971">
        <ele>430.0</ele>
      </trkpt>
      <trkpt lat="37.8728" lon="-3.8811">
        <ele>428.0</ele>
      </trkpt>
      <trkpt lat="37.8738" lon="-3.88292">
        <ele>428.0</ele>
      </trkpt>
      <trkpt lat="37.87414" lon="-3.88369">
        <ele>430.0</ele>
      </trkpt>
      <trkpt lat="37.87473" lon="-3.88498">
        <ele>432.0</ele>
      </trkpt>
      <trkpt lat="37.87546" lon="-3.8867">
        <ele>431.0</ele>
      </trkpt>
      <trkpt lat="37.87536" lon="-3.88747">
        <ele>426.0</ele>
      </trkpt>
      <trkpt lat="37.8754" lon="-3.8878">
        <ele>423.0</ele>
      </trkpt>
      <trkpt lat="37.87551" lon="-3.88828">
        <ele>420.0</ele>
      </trkpt>
      <trkpt lat="37.87515" lon="-3.88946">
        <ele>414.0</ele>
      </trkpt>
      <trkpt lat="37.87501" lon="-3.8914">
        <ele>404.0</ele>
      </trkpt>
      <trkpt lat="37.87515" lon="-3.89209">
        <ele>399.0</ele>
      </trkpt>
      <trkpt lat="37.87484" lon="-3.89183">
        <ele>397.0</ele>
      </trkpt>
      <trkpt lat="37.87463" lon="-3.89148">
        <ele>397.0</ele>
      </trkpt>
      <trkpt lat="37.8743" lon="-3.89189">
        <ele>397.0</ele>
      </trkpt>
      <trkpt lat="37.87444" lon="-3.89273">
        <ele>397.0</ele>
      </trkpt>
      <trkpt lat="37.87431" lon="-3.89402">
        <ele>397.0</ele>
      </trkpt>
      <trkpt lat="37.87438" lon="-3.89544">
        <ele>396.0</ele>
      </trkpt>
      <trkpt lat="37.874" lon="-3.89584">
        <ele>395.0</ele>
      </trkpt>
      <trkpt lat="37.87398" lon="-3.89684">
        <ele>395.0</ele>
      </trkpt>
      <trkpt lat="37.87299" lon="-3.89952">
        <ele>391.0</ele>
      </trkpt>
      <trkpt lat="37.87332" lon="-3.90149">
        <ele>391.0</ele>
      </trkpt>
      <trkpt lat="37.87292" lon="-3.90389">
        <ele>386.0</ele>
      </trkpt>
      <trkpt lat="37.8724" lon="-3.90577">
        <ele>378.0</ele>
      </trkpt>
      <trkpt lat="37.87087" lon="-3.90959">
        <ele>365.0</ele>
      </trkpt>
      <trkpt lat="37.87011" lon="-3.91174">
        <ele>354.0</ele>
      </trkpt>
      <trkpt lat="37.87017" lon="-3.91267">
        <ele>345.0</ele>
      </trkpt>
      <trkpt lat="37.86955" lon="-3.91336">
        <ele>338.0</ele>
      </trkpt>
      <trkpt lat="37.86932" lon="-3.91431">
        <ele>336.0</ele>
      </trkpt>
      <trkpt lat="37.86937" lon="-3.91491">
        <ele>337.0</ele>
      </trkpt>
      <trkpt lat="37.86974" lon="-3.91551">
        <ele>339.0</ele>
      </trkpt>
      <trkpt lat="37.86987" lon="-3.91607">
        <ele>341.0</ele>
      </trkpt>
      <trkpt lat="37.87005" lon="-3.91692">
        <ele>346.0</ele>
      </trkpt>
      <trkpt lat="37.87009" lon="-3.91774">
        <ele>350.0</ele>
      </trkpt>
      <trkpt lat="37.87053" lon="-3.91834">
        <ele>353.0</ele>
      </trkpt>
      <trkpt lat="37.87067" lon="-3.91885">
        <ele>356.0</ele>
      </trkpt>
      <trkpt lat="37.8701" lon="-3.91974">
        <ele>360.0</ele>
      </trkpt>
      <trkpt lat="37.86986" lon="-3.92148">
        <ele>366.0</ele>
      </trkpt>
      <trkpt lat="37.87035" lon="-3.9227">
        <ele>370.0</ele>
      </trkpt>
      <trkpt lat="37.8701" lon="-3.92337">
        <ele>370.0</ele>
      </trkpt>
      <trkpt lat="37.86955" lon="-3.92389">
        <ele>371.0</ele>
      </trkpt>
      <trkpt lat="37.86857" lon="-3.92415">
        <ele>372.0</ele>
      </trkpt>
      <trkpt lat="37.86733" lon="-3.92616">
        <ele>374.0</ele>
      </trkpt>
      <trkpt lat="37.86731" lon="-3.92691">
        <ele>376.0</ele>
      </trkpt>
      <trkpt lat="37.86726" lon="-3.92794">
        <ele>377.0</ele>
      </trkpt>
      <trkpt lat="37.86708" lon="-3.92911">
        <ele>379.0</ele>
      </trkpt>
      <trkpt lat="37.86711" lon="-3.92996">
        <ele>380.0</ele>
      </trkpt>
      <trkpt lat="37.86692" lon="-3.93068">
        <ele>381.0</ele>
      </trkpt>
      <trkpt lat="37.86682" lon="-3.93216">
        <ele>385.0</ele>
      </trkpt>
      <trkpt lat="37.86673" lon="-3.933">
        <ele>388.0</ele>
      </trkpt>
      <trkpt lat="37.8665" lon="-3.93451">
        <ele>393.0</ele>
      </trkpt>
      <trkpt lat="37.86591" lon="-3.93508">
        <ele>397.0</ele>
      </trkpt>
      <trkpt lat="37.86529" lon="-3.93526">
        <ele>402.0</ele>
      </trkpt>
      <trkpt lat="37.86367" lon="-3.93331">
        <ele>407.0</ele>
      </trkpt>
      <trkpt lat="37.86158" lon="-3.93011">
        <ele>408.0</ele>
      </trkpt>
      <trkpt lat="37.86115" lon="-3.92931">
        <ele>405.0</ele>
      </trkpt>
      <trkpt lat="37.85993" lon="-3.92613">
        <ele>396.0</ele>
      </trkpt>
      <trkpt lat="37.85914" lon="-3.92418">
        <ele>386.0</ele>
      </trkpt>
      <trkpt lat="37.85892" lon="-3.92317">
        <ele>382.0</ele>
      </trkpt>
      <trkpt lat="37.85889" lon="-3.92035">
        <ele>374.0</ele>
      </trkpt>
      <trkpt lat="37.85865" lon="-3.91597">
        <ele>363.0</ele>
      </trkpt>
      <trkpt lat="37.8584" lon="-3.91438">
        <ele>356.0</ele>
      </trkpt>
      <trkpt lat="37.85759" lon="-3.91339">
        <ele>354.0</ele>
      </trkpt>
      <trkpt lat="37.85665" lon="-3.91316">
        <ele>354.0</ele>
      </trkpt>
      <trkpt lat="37.85567" lon="-3.9121">
        <ele>355.0</ele>
      </trkpt>
      <trkpt lat="37.85491" lon="-3.91103">
        <ele>354.0</ele>
      </trkpt>
      <trkpt lat="37.85432" lon="-3.91076">
        <ele>354.0</ele>
      </trkpt>
      <trkpt lat="37.85316" lon="-3.9093">
        <ele>357.0</ele>
      </trkpt>
      <trkpt lat="37.85203" lon="-3.90701">
        <ele>358.0</ele>
      </trkpt>
      <trkpt lat="37.85103" lon="-3.90569">
        <ele>360.0</ele>
      </trkpt>
      <trkpt lat="37.84966" lon="-3.90447">
        <ele>364.0</ele>
      </trkpt>
      <trkpt lat="37.84796" lon="-3.90327">
        <ele>369.0</ele>
      </trkpt>
      <trkpt lat="37.84708" lon="-3.90129">
        <ele>373.0</ele>
      </trkpt>
      <trkpt lat="37.84631" lon="-3.89995">
        <ele>378.0</ele>
      </trkpt>
      <trkpt lat="37.84592" lon="-3.89918">
        <ele>382.0</ele>
      </trkpt>
      <trkpt lat="37.84431" lon="-3.89764">
        <ele>386.0</ele>
      </trkpt>
      <trkpt lat="37.84327" lon="-3.89707">
        <ele>390.0</ele>
      </trkpt>
      <trkpt lat="37.84205" lon="-3.89683">
        <ele>395.0</ele>
      </trkpt>
      <trkpt lat="37.84165" lon="-3.89595">
        <ele>400.0</ele>
      </trkpt>
      <trkpt lat="37.84108" lon="-3.89439">
        <ele>404.0</ele>
      </trkpt>
      <trkpt lat="37.8407" lon="-3.89207">
        <ele>409.0</ele>
      </trkpt>
      <trkpt lat="37.84006" lon="-3.8912">
        <ele>415.0</ele>
      </trkpt>
      <trkpt lat="37.83938" lon="-3.89027">
        <ele>420.0</ele>
      </trkpt>
      <trkpt lat="37.83906" lon="-3.88874">
        <ele>427.0</ele>
      </trkpt>
      <trkpt lat="37.83873" lon="-3.8878">
        <ele>434.0</ele>
      </trkpt>
      <trkpt lat="37.83794" lon="-3.88693">
        <ele>440.0</ele>
      </trkpt>
      <trkpt lat="37.83701" lon="-3.88586">
        <ele>447.0</ele>
      </trkpt>
      <trkpt lat="37.83632" lon="-3.8845">
        <ele>456.0</ele>
      </trkpt>
      <trkpt lat="37.83597" lon="-3.88316">
        <ele>465.0</ele>
      </trkpt>
      <trkpt lat="37.83537" lon="-3.88129">
        <ele>468.0</ele>
      </trkpt>
      <trkpt lat="37.83472" lon="-3.88018">
        <ele>469.0</ele>
      </trkpt>
      <trkpt lat="37.83346" lon="-3.87844">
        <ele>468.0</ele>
      </trkpt>
      <trkpt lat="37.8297" lon="-3.87852">
        <ele>474.0</ele>
      </trkpt>
      <trkpt lat="37.8256" lon="-3.87981">
        <ele>481.0</ele>
      </trkpt>
      <trkpt lat="37.82292" lon="-3.88128">
        <ele>479.0</ele>
      </trkpt>
      <trkpt lat="37.82034" lon="-3.88162">
        <ele>481.0</ele>
      </trkpt>
      <trkpt lat="37.81739" lon="-3.88268">
        <ele>493.0</ele>
      </trkpt>
      <trkpt lat="37.81483" lon="-3.88637">
        <ele>506.0</ele>
      </trkpt>
      <trkpt lat="37.81284" lon="-3.88852">
        <ele>513.0</ele>
      </trkpt>
      <trkpt lat="37.80999" lon="-3.89073">
        <ele>519.0</ele>
      </trkpt>
      <trkpt lat="37.80529" lon="-3.89288">
        <ele>522.0</ele>
      </trkpt>
      <trkpt lat="37.80289" lon="-3.89331">
        <ele>526.0</ele>
      </trkpt>
      <trkpt lat="37.80015" lon="-3.89336">
        <ele>535.0</ele>
      </trkpt>
      <trkpt lat="37.79651" lon="-3.89413">
        <ele>547.0</ele>
      </trkpt>
      <trkpt lat="37.79316" lon="-3.89358">
        <ele>557.0</ele>
      </trkpt>
      <trkpt lat="37.79167" lon="-3.89333">
        <ele>563.0</ele>
      </trkpt>
      <trkpt lat="37.79045" lon="-3.89345">
        <ele>565.0</ele>
      </trkpt>
      <trkpt lat="37.78854" lon="-3.89387">
        <ele>568.0</ele>
      </trkpt>
      <trkpt lat="37.78566" lon="-3.89479">
        <ele>575.0</ele>
      </trkpt>
      <trkpt lat="37.78012" lon="-3.89591">
        <ele>592.0</ele>
      </trkpt>
      <trkpt lat="37.77924" lon="-3.89612">
        <ele>601.0</ele>
      </trkpt>
      <trkpt lat="37.77902" lon="-3.8962">
        <ele>605.0</ele>
      </trkpt>
      <trkpt lat="37.77891" lon="-3.89599">
        <ele>607.0</ele>
      </trkpt>
      <trkpt lat="37.77778" lon="-3.89604">
        <ele>614.0</ele>
      </trkpt>
      <trkpt lat="37.77736" lon="-3.89606">
        <ele>617.0</ele>
      </trkpt>
      <trkpt lat="37.77707" lon="-3.89608">
        <ele>620.0</ele>
      </trkpt>
      <trkpt lat="37.77625" lon="-3.89591">
        <ele>624.0</ele>
      </trkpt>
      <trkpt lat="37.77512" lon="-3.89566">
        <ele>633.0</ele>
      </trkpt>
      <trkpt lat="37.77508" lon="-3.89568">
        <ele>634.0</ele>
      </trkpt>
      <trkpt lat="37.77502" lon="-3.89583">
        <ele>635.0</ele>
      </trkpt>
      <trkpt lat="37.77458" lon="-3.89824">
        <ele>629.0</ele>
      </trkpt>
      <trkpt lat="37.77427" lon="-3.89908">
        <ele>628.0</ele>
      </trkpt>
      <trkpt lat="37.77365" lon="-3.90005">
        <ele>628.0</ele>
      </trkpt>
      <trkpt lat="37.77264" lon="-3.90114">
        <ele>630.0</ele>
      </trkpt>
      <trkpt lat="37.77253" lon="-3.90126">
        <ele>632.0</ele>
      </trkpt>
      <trkpt lat="37.7716" lon="-3.90224">
        <ele>635.0</ele>
      </trkpt>
      <trkpt lat="37.77109" lon="-3.90233">
        <ele>639.0</ele>
      </trkpt>
      <trkpt lat="37.77014" lon="-3.90188">
        <ele>644.0</ele>
      </trkpt>
      <trkpt lat="37.76893" lon="-3.9013">
        <ele>651.0</ele>
      </trkpt>
      <trkpt lat="37.76836" lon="-3.90104">
        <ele>654.0</ele>
      </trkpt>
      <trkpt lat="37.76773" lon="-3.90131">
        <ele>656.0</ele>
      </trkpt>
      <trkpt lat="37.76695" lon="-3.90254">
        <ele>659.0</ele>
      </trkpt>
      <trkpt lat="37.7663" lon="-3.9034">
        <ele>663.0</ele>
      </trkpt>
      <trkpt lat="37.76555" lon="-3.90407">
        <ele>668.0</ele>
      </trkpt>
      <trkpt lat="37.76457" lon="-3.90499">
        <ele>678.0</ele>
      </trkpt>
      <trkpt lat="37.76323" lon="-3.90622">
        <ele>698.0</ele>
      </trkpt>
      <trkpt lat="37.76187" lon="-3.90773">
        <ele>721.0</ele>
      </trkpt>
      <trkpt lat="37.76056" lon="-3.90812">
        <ele>737.0</ele>
      </trkpt>
      <trkpt lat="37.76026" lon="-3.90845">
        <ele>742.0</ele>
      </trkpt>
      <trkpt lat="37.75947" lon="-3.90972">
        <ele>747.0</ele>
      </trkpt>
      <trkpt lat="37.75869" lon="-3.91084">
        <ele>751.0</ele>
      </trkpt>
      <trkpt lat="37.75746" lon="-3.91198">
        <ele>758.0</ele>
      </trkpt>
      <trkpt lat="37.75637" lon="-3.91249">
        <ele>767.0</ele>
      </trkpt>
      <trkpt lat="37.75557" lon="-3.91329">
        <ele>767.0</ele>
      </trkpt>
      <trkpt lat="37.75501" lon="-3.91423">
        <ele>759.0</ele>
      </trkpt>
      <trkpt lat="37.75391" lon="-3.91598">
        <ele>748.0</ele>
      </trkpt>
      <trkpt lat="37.75321" lon="-3.91713">
        <ele>739.0</ele>
      </trkpt>
      <trkpt lat="37.75352" lon="-3.91831">
        <ele>726.0</ele>
      </trkpt>
      <trkpt lat="37.75611" lon="-3.91893">
        <ele>717.0</ele>
      </trkpt>
      <trkpt lat="37.75829" lon="-3.91935">
        <ele>712.0</ele>
      </trkpt>
      <trkpt lat="37.75954" lon="-3.92008">
        <ele>706.0</ele>
      </trkpt>
      <trkpt lat="37.7605" lon="-3.92014">
        <ele>701.0</ele>
      </trkpt>
      <trkpt lat="37.76083" lon="-3.91983">
        <ele>700.0</ele>
      </trkpt>
      <trkpt lat="37.76122" lon="-3.91984">
        <ele>699.0</ele>
      </trkpt>
      <trkpt lat="37.76174" lon="-3.91963">
        <ele>698.0</ele>
      </trkpt>
      <trkpt lat="37.7627" lon="-3.91907">
        <ele>696.0</ele>
      </trkpt>
      <trkpt lat="37.7628" lon="-3.91904">
        <ele>695.0</ele>
      </trkpt>
      <trkpt lat="37.76286" lon="-3.91914">
        <ele>695.0</ele>
      </trkpt>
      <trkpt lat="37.76307" lon="-3.91972">
        <ele>694.0</ele>
      </trkpt>
      <trkpt lat="37.76319" lon="-3.92144">
        <ele>690.0</ele>
      </trkpt>
      <trkpt lat="37.7643" lon="-3.92474">
        <ele>685.0</ele>
      </trkpt>
      <trkpt lat="37.76447" lon="-3.92713">
        <ele>678.0</ele>
      </trkpt>
      <trkpt lat="37.76313" lon="-3.93049">
        <ele>675.0</ele>
      </trkpt>
      <trkpt lat="37.76286" lon="-3.93195">
        <ele>673.0</ele>
      </trkpt>
      <trkpt lat="37.7625" lon="-3.93487">
        <ele>664.0</ele>
      </trkpt>
      <trkpt lat="37.76254" lon="-3.93516">
        <ele>661.0</ele>
      </trkpt>
      <trkpt lat="37.76251" lon="-3.93526">
        <ele>660.0</ele>
      </trkpt>
      <trkpt lat="37.76282" lon="-3.93944">
        <ele>653.0</ele>
      </trkpt>
      <trkpt lat="37.76312" lon="-3.94278">
        <ele>635.0</ele>
      </trkpt>
      <trkpt lat="37.76331" lon="-3.94473">
        <ele>626.0</ele>
      </trkpt>
      <trkpt lat="37.7635" lon="-3.94687">
        <ele>621.0</ele>
      </trkpt>
      <trkpt lat="37.76372" lon="-3.94917">
        <ele>615.0</ele>
      </trkpt>
      <trkpt lat="37.76382" lon="-3.95021">
        <ele>611.0</ele>
      </trkpt>
      <trkpt lat="37.76402" lon="-3.95201">
        <ele>608.0</ele>
      </trkpt>
      <trkpt lat="37.76414" lon="-3.95273">
        <ele>606.0</ele>
      </trkpt>
      <trkpt lat="37.76421" lon="-3.95274">
        <ele>605.0</ele>
      </trkpt>
      <trkpt lat="37.76425" lon="-3.95284">
        <ele>605.0</ele>
      </trkpt>
      <trkpt lat="37.7645" lon="-3.95311">
        <ele>604.0</ele>
      </trkpt>
      <trkpt lat="37.76559" lon="-3.95411">
        <ele>603.0</ele>
      </trkpt>
      <trkpt lat="37.7666" lon="-3.95504">
        <ele>601.0</ele>
      </trkpt>
      <trkpt lat="37.76838" lon="-3.95729">
        <ele>597.0</ele>
      </trkpt>
      <trkpt lat="37.76907" lon="-3.95848">
        <ele>591.0</ele>
      </trkpt>
      <trkpt lat="37.76965" lon="-3.95955">
        <ele>588.0</ele>
      </trkpt>
      <trkpt lat="37.76965" lon="-3.96098">
        <ele>583.0</ele>
      </trkpt>
      <trkpt lat="37.7692" lon="-3.96374">
        <ele>574.0</ele>
      </trkpt>
      <trkpt lat="37.76915" lon="-3.96402">
        <ele>570.0</ele>
      </trkpt>
      <trkpt lat="37.76905" lon="-3.96465">
        <ele>567.0</ele>
      </trkpt>
      <trkpt lat="37.76964" lon="-3.96705">
        <ele>560.0</ele>
      </trkpt>
      <trkpt lat="37.77019" lon="-3.96925">
        <ele>553.0</ele>
      </trkpt>
      <trkpt lat="37.77026" lon="-3.96973">
        <ele>551.0</ele>
      </trkpt>
      <trkpt lat="37.7703" lon="-3.97251">
        <ele>547.0</ele>
      </trkpt>
      <trkpt lat="37.77057" lon="-3.97355">
        <ele>546.0</ele>
      </trkpt>
      <trkpt lat="37.77146" lon="-3.97555">
        <ele>544.0</ele>
      </trkpt>
      <trkpt lat="37.77176" lon="-3.97597">
        <ele>543.0</ele>
      </trkpt>
      <trkpt lat="37.77277" lon="-3.97696">
        <ele>542.0</ele>
      </trkpt>
      <trkpt lat="37.77376" lon="-3.97787">
        <ele>540.0</ele>
      </trkpt>
      <trkpt lat="37.77497" lon="-3.97969">
        <ele>535.0</ele>
      </trkpt>
      <trkpt lat="37.77604" lon="-3.98076">
        <ele>534.0</ele>
      </trkpt>
      <trkpt lat="37.78006" lon="-3.98253">
        <ele>537.0</ele>
      </trkpt>
      <trkpt lat="37.7824" lon="-3.98296">
        <ele>530.0</ele>
      </trkpt>
      <trkpt lat="37.78356" lon="-3.9843">
        <ele>523.0</ele>
      </trkpt>
      <trkpt lat="37.78501" lon="-3.98608">
        <ele>517.0</ele>
      </trkpt>
      <trkpt lat="37.78858" lon="-3.98909">
        <ele>501.0</ele>
      </trkpt>
      <trkpt lat="37.79018" lon="-3.9922">
        <ele>489.0</ele>
      </trkpt>
      <trkpt lat="37.79013" lon="-3.99574">
        <ele>471.0</ele>
      </trkpt>
      <trkpt lat="37.79053" lon="-3.99815">
        <ele>461.0</ele>
      </trkpt>
      <trkpt lat="37.79283" lon="-4.0056">
        <ele>452.0</ele>
      </trkpt>
      <trkpt lat="37.79326" lon="-4.00847">
        <ele>447.0</ele>
      </trkpt>
      <trkpt lat="37.79276" lon="-4.01239">
        <ele>450.0</ele>
      </trkpt>
      <trkpt lat="37.79259" lon="-4.01362">
        <ele>450.0</ele>
      </trkpt>
      <trkpt lat="37.79241" lon="-4.01536">
        <ele>448.0</ele>
      </trkpt>
      <trkpt lat="37.7926" lon="-4.01633">
        <ele>444.0</ele>
      </trkpt>
      <trkpt lat="37.79305" lon="-4.01716">
        <ele>442.0</ele>
      </trkpt>
      <trkpt lat="37.79346" lon="-4.01758">
        <ele>441.0</ele>
      </trkpt>
      <trkpt lat="37.79395" lon="-4.01786">
        <ele>441.0</ele>
      </trkpt>
      <trkpt lat="37.79513" lon="-4.01824">
        <ele>441.0</ele>
      </trkpt>
      <trkpt lat="37.79584" lon="-4.01862">
        <ele>445.0</ele>
      </trkpt>
      <trkpt lat="37.7961" lon="-4.01862">
        <ele>446.0</ele>
      </trkpt>
      <trkpt lat="37.79672" lon="-4.01757">
        <ele>449.0</ele>
      </trkpt>
      <trkpt lat="37.79737" lon="-4.01712">
        <ele>448.0</ele>
      </trkpt>
      <trkpt lat="37.79872" lon="-4.01721">
        <ele>445.0</ele>
      </trkpt>
      <trkpt lat="37.79912" lon="-4.0172">
        <ele>444.0</ele>
      </trkpt>
      <trkpt lat="37.80026" lon="-4.01706">
        <ele>443.0</ele>
      </trkpt>
      <trkpt lat="37.80121" lon="-4.01718">
        <ele>441.0</ele>
      </trkpt>
      <trkpt lat="37.80361" lon="-4.01633">
        <ele>441.0</ele>
      </trkpt>
      <trkpt lat="37.80617" lon="-4.01288">
        <ele>443.0</ele>
      </trkpt>
      <trkpt lat="37.81002" lon="-4.01232">
        <ele>449.0</ele>
      </trkpt>
      <trkpt lat="37.81355" lon="-4.01595">
        <ele>454.0</ele>
      </trkpt>
      <trkpt lat="37.81729" lon="-4.01737">
        <ele>469.0</ele>
      </trkpt>
      <trkpt lat="37.819" lon="-4.01555">
        <ele>479.0</ele>
      </trkpt>
      <trkpt lat="37.82034" lon="-4.01397">
        <ele>487.0</ele>
      </trkpt>
      <trkpt lat="37.8233" lon="-4.01232">
        <ele>487.0</ele>
      </trkpt>
      <trkpt lat="37.82447" lon="-4.00885">
        <ele>474.0</ele>
      </trkpt>
      <trkpt lat="37.82821" lon="-4.00445">
        <ele>459.0</ele>
      </trkpt>
      <trkpt lat="37.8312" lon="-4.00184">
        <ele>457.0</ele>
      </trkpt>
      <trkpt lat="37.83144" lon="-4.0016">
        <ele>455.0</ele>
      </trkpt>
      <trkpt lat="37.83171" lon="-4.00158">
        <ele>454.0</ele>
      </trkpt>
      <trkpt lat="37.83222" lon="-4.0015">
        <ele>452.0</ele>
      </trkpt>
      <trkpt lat="37.83391" lon="-4.0008">
        <ele>450.0</ele>
      </trkpt>
      <trkpt lat="37.83563" lon="-4.00113">
        <ele>449.0</ele>
      </trkpt>
      <trkpt lat="37.83695" lon="-4.00169">
        <ele>447.0</ele>
      </trkpt>
      <trkpt lat="37.83909" lon="-4.0025">
        <ele>443.0</ele>
      </trkpt>
      <trkpt lat="37.84022" lon="-4.00317">
        <ele>443.0</ele>
      </trkpt>
      <trkpt lat="37.84187" lon="-4.00412">
        <ele>434.0</ele>
      </trkpt>
      <trkpt lat="37.84331" lon="-4.00589">
        <ele>423.0</ele>
      </trkpt>
      <trkpt lat="37.8434" lon="-4.00595">
        <ele>419.0</ele>
      </trkpt>
      <trkpt lat="37.84348" lon="-4.00626">
        <ele>416.0</ele>
      </trkpt>
      <trkpt lat="37.84368" lon="-4.00675">
        <ele>413.0</ele>
      </trkpt>
      <trkpt lat="37.84273" lon="-4.00976">
        <ele>401.0</ele>
      </trkpt>
      <trkpt lat="37.84318" lon="-4.01041">
        <ele>397.0</ele>
      </trkpt>
      <trkpt lat="37.84707" lon="-4.01145">
        <ele>392.0</ele>
      </trkpt>
      <trkpt lat="37.8499" lon="-4.01218">
        <ele>389.0</ele>
      </trkpt>
      <trkpt lat="37.85101" lon="-4.01256">
        <ele>384.0</ele>
      </trkpt>
      <trkpt lat="37.85361" lon="-4.01302">
        <ele>371.0</ele>
      </trkpt>
      <trkpt lat="37.8531" lon="-4.0151">
        <ele>357.0</ele>
      </trkpt>
      <trkpt lat="37.85407" lon="-4.01579">
        <ele>345.0</ele>
      </trkpt>
      <trkpt lat="37.85458" lon="-4.01753">
        <ele>333.0</ele>
      </trkpt>
      <trkpt lat="37.85843" lon="-4.0179">
        <ele>316.0</ele>
      </trkpt>
      <trkpt lat="37.86081" lon="-4.018">
        <ele>306.0</ele>
      </trkpt>
      <trkpt lat="37.86391" lon="-4.02079">
        <ele>302.0</ele>
      </trkpt>
      <trkpt lat="37.86649" lon="-4.02296">
        <ele>310.0</ele>
      </trkpt>
      <trkpt lat="37.86878" lon="-4.02374">
        <ele>318.0</ele>
      </trkpt>
      <trkpt lat="37.87037" lon="-4.02565">
        <ele>319.0</ele>
      </trkpt>
      <trkpt lat="37.87228" lon="-4.02642">
        <ele>312.0</ele>
      </trkpt>
      <trkpt lat="37.87585" lon="-4.02942">
        <ele>301.0</ele>
      </trkpt>
      <trkpt lat="37.87652" lon="-4.03011">
        <ele>300.0</ele>
      </trkpt>
      <trkpt lat="37.87748" lon="-4.03099">
        <ele>302.0</ele>
      </trkpt>
      <trkpt lat="37.87859" lon="-4.03149">
        <ele>304.0</ele>
      </trkpt>
      <trkpt lat="37.87992" lon="-4.03167">
        <ele>305.0</ele>
      </trkpt>
      <trkpt lat="37.88081" lon="-4.03194">
        <ele>307.0</ele>
      </trkpt>
      <trkpt lat="37.88125" lon="-4.03184">
        <ele>308.0</ele>
      </trkpt>
      <trkpt lat="37.88134" lon="-4.03178">
        <ele>309.0</ele>
      </trkpt>
      <trkpt lat="37.88142" lon="-4.03187">
        <ele>309.0</ele>
      </trkpt>
      <trkpt lat="37.88139" lon="-4.03198">
        <ele>309.0</ele>
      </trkpt>
      <trkpt lat="37.8816" lon="-4.03229">
        <ele>309.0</ele>
      </trkpt>
      <trkpt lat="37.88534" lon="-4.03215">
        <ele>311.0</ele>
      </trkpt>
      <trkpt lat="37.88823" lon="-4.03285">
        <ele>316.0</ele>
      </trkpt>
      <trkpt lat="37.89128" lon="-4.03378">
        <ele>319.0</ele>
      </trkpt>
      <trkpt lat="37.89293" lon="-4.0357">
        <ele>324.0</ele>
      </trkpt>
      <trkpt lat="37.89404" lon="-4.03747">
        <ele>330.0</ele>
      </trkpt>
      <trkpt lat="37.89542" lon="-4.03955">
        <ele>338.0</ele>
      </trkpt>
      <trkpt lat="37.89572" lon="-4.04128">
        <ele>344.0</ele>
      </trkpt>
      <trkpt lat="37.89494" lon="-4.04435">
        <ele>352.0</ele>
      </trkpt>
      <trkpt lat="37.89595" lon="-4.04685">
        <ele>360.0</ele>
      </trkpt>
      <trkpt lat="37.89843" lon="-4.04776">
        <ele>373.0</ele>
      </trkpt>
      <trkpt lat="37.89953" lon="-4.0492">
        <ele>381.0</ele>
      </trkpt>
      <trkpt lat="37.90138" lon="-4.05208">
        <ele>386.0</ele>
      </trkpt>
      <trkpt lat="37.90346" lon="-4.05375">
        <ele>385.0</ele>
      </trkpt>
      <trkpt lat="37.90657" lon="-4.05296">
        <ele>383.0</ele>
      </trkpt>
      <trkpt lat="37.90793" lon="-4.05309">
        <ele>381.0</ele>
      </trkpt>
      <trkpt lat="37.90967" lon="-4.05457">
        <ele>377.0</ele>
      </trkpt>
      <trkpt lat="37.91117" lon="-4.05687">
        <ele>365.0</ele>
      </trkpt>
      <trkpt lat="37.91276" lon="-4.05741">
        <ele>359.0</ele>
      </trkpt>
      <trkpt lat="37.91593" lon="-4.05675">
        <ele>353.0</ele>
      </trkpt>
      <trkpt lat="37.9184" lon="-4.05778">
        <ele>346.0</ele>
      </trkpt>
      <trkpt lat="37.92191" lon="-4.05967">
        <ele>349.0</ele>
      </trkpt>
      <trkpt lat="37.92428" lon="-4.05992">
        <ele>356.0</ele>
      </trkpt>
      <trkpt lat="37.92563" lon="-4.06111">
        <ele>363.0</ele>
      </trkpt>
      <trkpt lat="37.92789" lon="-4.061">
        <ele>367.0</ele>
      </trkpt>
      <trkpt lat="37.92809" lon="-4.06095">
        <ele>369.0</ele>
      </trkpt>
      <trkpt lat="37.92825" lon="-4.06096">
        <ele>369.0</ele>
      </trkpt>
      <trkpt lat="37.92837" lon="-4.06131">
        <ele>370.0</ele>
      </trkpt>
      <trkpt lat="37.9285" lon="-4.06194">
        <ele>370.0</ele>
      </trkpt>
      <trkpt lat="37.928" lon="-4.06351">
        <ele>372.0</ele>
      </trkpt>
      <trkpt lat="37.92894" lon="-4.06529">
        <ele>377.0</ele>
      </trkpt>
      <trkpt lat="37.92963" lon="-4.06583">
        <ele>383.0</ele>
      </trkpt>
      <trkpt lat="37.93104" lon="-4.06547">
        <ele>389.0</ele>
      </trkpt>
      <trkpt lat="37.93179" lon="-4.06539">
        <ele>393.0</ele>
      </trkpt>
      <trkpt lat="37.93296" lon="-4.06504">
        <ele>397.0</ele>
      </trkpt>
      <trkpt lat="37.93364" lon="-4.06475">
        <ele>401.0</ele>
      </trkpt>
      <trkpt lat="37.9344" lon="-4.06336">
        <ele>408.0</ele>
      </trkpt>
      <trkpt lat="37.93459" lon="-4.06309">
        <ele>413.0</ele>
      </trkpt>
      <trkpt lat="37.93509" lon="-4.06328">
        <ele>415.0</ele>
      </trkpt>
      <trkpt lat="37.93554" lon="-4.06301">
        <ele>417.0</ele>
      </trkpt>
      <trkpt lat="37.93666" lon="-4.06154">
        <ele>422.0</ele>
      </trkpt>
      <trkpt lat="37.93721" lon="-4.06088">
        <ele>426.0</ele>
      </trkpt>
      <trkpt lat="37.93807" lon="-4.061">
        <ele>428.0</ele>
      </trkpt>
      <trkpt lat="37.93813" lon="-4.06057">
        <ele>431.0</ele>
      </trkpt>
      <trkpt lat="37.93797" lon="-4.05992">
        <ele>432.0</ele>
      </trkpt>
      <trkpt lat="37.93739" lon="-4.05806">
        <ele>435.0</ele>
      </trkpt>
      <trkpt lat="37.93711" lon="-4.05721">
        <ele>436.0</ele>
      </trkpt>
      <trkpt lat="37.9368" lon="-4.05669">
        <ele>436.0</ele>
      </trkpt>
      <trkpt lat="37.93657" lon="-4.05641">
        <ele>436.0</ele>
      </trkpt>
      <trkpt lat="37.93662" lon="-4.05596">
        <ele>436.0</ele>
      </trkpt>
      <trkpt lat="37.93691" lon="-4.05553">
        <ele>433.0</ele>
      </trkpt>
      <trkpt lat="37.93732" lon="-4.05504">
        <ele>429.0</ele>
      </trkpt>
      <trkpt lat="37.93763" lon="-4.05388">
        <ele>424.0</ele>
      </trkpt>
      <trkpt lat="37.93779" lon="-4.05337">
        <ele>419.0</ele>
      </trkpt>
      <trkpt lat="37.93802" lon="-4.0535">
        <ele>416.0</ele>
      </trkpt>
      <trkpt lat="37.93832" lon="-4.05313">
        <ele>414.0</ele>
      </trkpt>
      <trkpt lat="37.93872" lon="-4.05221">
        <ele>410.0</ele>
      </trkpt>
      <trkpt lat="37.93742" lon="-4.04682">
        <ele>393.0</ele>
      </trkpt>
      <trkpt lat="37.93687" lon="-4.04478">
        <ele>382.0</ele>
      </trkpt>
      <trkpt lat="37.93545" lon="-4.04371">
        <ele>370.0</ele>
      </trkpt>
      <trkpt lat="37.9348" lon="-4.04334">
        <ele>361.0</ele>
      </trkpt>
      <trkpt lat="37.93538" lon="-4.04251">
        <ele>354.0</ele>
      </trkpt>
      <trkpt lat="37.93552" lon="-4.04205">
        <ele>350.0</ele>
      </trkpt>
      <trkpt lat="37.93567" lon="-4.04036">
        <ele>342.0</ele>
      </trkpt>
      <trkpt lat="37.93753" lon="-4.03763">
        <ele>327.0</ele>
      </trkpt>
      <trkpt lat="37.93724" lon="-4.0341">
        <ele>308.0</ele>
      </trkpt>
      <trkpt lat="37.93572" lon="-4.03126">
        <ele>300.0</ele>
      </trkpt>
      <trkpt lat="37.93565" lon="-4.02696">
        <ele>293.0</ele>
      </trkpt>
      <trkpt lat="37.93684" lon="-4.02477">
        <ele>287.0</ele>
      </trkpt>
      <trkpt lat="37.93717" lon="-4.02199">
        <ele>284.0</ele>
      </trkpt>
      <trkpt lat="37.93828" lon="-4.01725">
        <ele>279.0</ele>
      </trkpt>
      <trkpt lat="37.94031" lon="-4.01416">
        <ele>262.0</ele>
      </trkpt>
      <trkpt lat="37.94062" lon="-4.01202">
        <ele>251.0</ele>
      </trkpt>
      <trkpt lat="37.94018" lon="-4.00853">
        <ele>241.0</ele>
      </trkpt>
      <trkpt lat="37.94038" lon="-4.00718">
        <ele>240.0</ele>
      </trkpt>
      <trkpt lat="37.94238" lon="-4.00209">
        <ele>243.0</ele>
      </trkpt>
      <trkpt lat="37.94554" lon="-3.99886">
        <ele>249.0</ele>
      </trkpt>
      <trkpt lat="37.95252" lon="-3.99607">
        <ele>262.0</ele>
      </trkpt>
      <trkpt lat="37.95616" lon="-3.99484">
        <ele>272.0</ele>
      </trkpt>
      <trkpt lat="37.9596" lon="-3.9934">
        <ele>286.0</ele>
      </trkpt>
      <trkpt lat="37.96249" lon="-3.99295">
        <ele>303.0</ele>
      </trkpt>
      <trkpt lat="37.96419" lon="-3.99231">
        <ele>318.0</ele>
      </trkpt>
      <trkpt lat="37.96447" lon="-3.99225">
        <ele>322.0</ele>
      </trkpt>
      <trkpt lat="37.96567" lon="-3.99194">
        <ele>328.0</ele>
      </trkpt>
      <trkpt lat="37.96758" lon="-3.99108">
        <ele>341.0</ele>
      </trkpt>
      <trkpt lat="37.96799" lon="-3.99076">
        <ele>350.0</ele>
      </trkpt>
      <trkpt lat="37.96861" lon="-3.98949">
        <ele>357.0</ele>
      </trkpt>
      <trkpt lat="37.96964" lon="-3.98904">
        <ele>366.0</ele>
      </trkpt>
      <trkpt lat="37.96953" lon="-3.98795">
        <ele>374.0</ele>
      </trkpt>
      <trkpt lat="37.96895" lon="-3.9854">
        <ele>377.0</ele>
      </trkpt>
      <trkpt lat="37.96796" lon="-3.98322">
        <ele>378.0</ele>
      </trkpt>
      <trkpt lat="37.96835" lon="-3.98315">
        <ele>382.0</ele>
      </trkpt>
      <trkpt lat="37.96878" lon="-3.98321">
        <ele>384.0</ele>
      </trkpt>
      <trkpt lat="37.97013" lon="-3.98392">
        <ele>385.0</ele>
      </trkpt>
      <trkpt lat="37.97061" lon="-3.9845">
        <ele>384.0</ele>
      </trkpt>
      <trkpt lat="37.97138" lon="-3.98638">
        <ele>377.0</ele>
      </trkpt>
      <trkpt lat="37.97168" lon="-3.98489">
        <ele>375.0</ele>
      </trkpt>
      <trkpt lat="37.97275" lon="-3.97808">
        <ele>370.0</ele>
      </trkpt>
      <trkpt lat="37.97172" lon="-3.97604">
        <ele>365.0</ele>
      </trkpt>
      <trkpt lat="37.97119" lon="-3.97486">
        <ele>359.0</ele>
      </trkpt>
      <trkpt lat="37.97227" lon="-3.97305">
        <ele>354.0</ele>
      </trkpt>
      <trkpt lat="37.97629" lon="-3.97096">
        <ele>339.0</ele>
      </trkpt>
      <trkpt lat="37.97763" lon="-3.97019">
        <ele>328.0</ele>
      </trkpt>
      <trkpt lat="37.9793" lon="-3.96802">
        <ele>308.0</ele>
      </trkpt>
      <trkpt lat="37.98477" lon="-3.96661">
        <ele>285.0</ele>
      </trkpt>
      <trkpt lat="37.985" lon="-3.96625">
        <ele>275.0</ele>
      </trkpt>
      <trkpt lat="37.98507" lon="-3.96573">
        <ele>272.0</ele>
      </trkpt>
      <trkpt lat="37.9853" lon="-3.96522">
        <ele>270.0</ele>
      </trkpt>
      <trkpt lat="37.98991" lon="-3.96036">
        <ele>259.0</ele>
      </trkpt>
      <trkpt lat="37.99392" lon="-3.95898">
        <ele>252.0</ele>
      </trkpt>
      <trkpt lat="37.9992" lon="-3.95394">
        <ele>240.0</ele>
      </trkpt>
      <trkpt lat="38.00167" lon="-3.95203">
        <ele>226.0</ele>
      </trkpt>
      <trkpt lat="38.00251" lon="-3.94972">
        <ele>224.0</ele>
      </trkpt>
      <trkpt lat="38.00327" lon="-3.94639">
        <ele>221.0</ele>
      </trkpt>
      <trkpt lat="38.00324" lon="-3.94226">
        <ele>220.0</ele>
      </trkpt>
      <trkpt lat="38.00382" lon="-3.93711">
        <ele>220.0</ele>
      </trkpt>
      <trkpt lat="38.00549" lon="-3.93319">
        <ele>220.0</ele>
      </trkpt>
      <trkpt lat="38.00553" lon="-3.92985">
        <ele>220.0</ele>
      </trkpt>
      <trkpt lat="38.00587" lon="-3.9292">
        <ele>218.0</ele>
      </trkpt>
      <trkpt lat="38.00557" lon="-3.92841">
        <ele>217.0</ele>
      </trkpt>
      <trkpt lat="38.00548" lon="-3.92807">
        <ele>218.0</ele>
      </trkpt>
      <trkpt lat="38.00527" lon="-3.92624">
        <ele>219.0</ele>
      </trkpt>
      <trkpt lat="38.00501" lon="-3.92508">
        <ele>220.0</ele>
      </trkpt>
      <trkpt lat="38.0047" lon="-3.92321">
        <ele>221.0</ele>
      </trkpt>
      <trkpt lat="38.00445" lon="-3.92188">
        <ele>222.0</ele>
      </trkpt>
      <trkpt lat="38.0045" lon="-3.92002">
        <ele>222.0</ele>
      </trkpt>
      <trkpt lat="38.00452" lon="-3.91966">
        <ele>222.0</ele>
      </trkpt>
      <trkpt lat="38.00455" lon="-3.91716">
        <ele>222.0</ele>
      </trkpt>
      <trkpt lat="38.0046" lon="-3.91561">
        <ele>222.0</ele>
      </trkpt>
      <trkpt lat="38.00507" lon="-3.91445">
        <ele>222.0</ele>
      </trkpt>
      <trkpt lat="38.00539" lon="-3.91452">
        <ele>222.0</ele>
      </trkpt>
      <trkpt lat="38.00605" lon="-3.91265">
        <ele>222.0</ele>
      </trkpt>
      <trkpt lat="38.00688" lon="-3.91294">
        <ele>221.0</ele>
      </trkpt>
      <trkpt lat="38.00772" lon="-3.91289">
        <ele>220.0</ele>
      </trkpt>
      <trkpt lat="38.00855" lon="-3.9128">
        <ele>217.0</ele>
      </trkpt>
      <trkpt lat="38.0112" lon="-3.91314">
        <ele>213.0</ele>
      </trkpt>
      <trkpt lat="38.01671" lon="-3.91353">
        <ele>213.0</ele>
      </trkpt>
      <trkpt lat="38.01853" lon="-3.9142">
        <ele>214.0</ele>
      </trkpt>
      <trkpt lat="38.02385" lon="-3.91402">
        <ele>213.0</ele>
      </trkpt>
      <trkpt lat="38.02673" lon="-3.91613">
        <ele>213.0</ele>
      </trkpt>
      <trkpt lat="38.02758" lon="-3.91685">
        <ele>215.0</ele>
      </trkpt>
      <trkpt lat="38.02764" lon="-3.91809">
        <ele>219.0</ele>
      </trkpt>
      <trkpt lat="38.02699" lon="-3.91826">
        <ele>220.0</ele>
      </trkpt>
      <trkpt lat="38.02665" lon="-3.91908">
        <ele>222.0</ele>
      </trkpt>
      <trkpt lat="38.02631" lon="-3.92117">
        <ele>224.0</ele>
      </trkpt>
      <trkpt lat="38.02515" lon="-3.92296">
        <ele>223.0</ele>
      </trkpt>
      <trkpt lat="38.02447" lon="-3.92419">
        <ele>223.0</ele>
      </trkpt>
      <trkpt lat="38.02357" lon="-3.92925">
        <ele>226.0</ele>
      </trkpt>
      <trkpt lat="38.02285" lon="-3.93264">
        <ele>225.0</ele>
      </trkpt>
      <trkpt lat="38.02252" lon="-3.93478">
        <ele>225.0</ele>
      </trkpt>
      <trkpt lat="38.0228" lon="-3.93791">
        <ele>226.0</ele>
      </trkpt>
      <trkpt lat="38.02323" lon="-3.94237">
        <ele>229.0</ele>
      </trkpt>
      <trkpt lat="38.02414" lon="-3.94723">
        <ele>229.0</ele>
      </trkpt>
      <trkpt lat="38.02418" lon="-3.94898">
        <ele>227.0</ele>
      </trkpt>
      <trkpt lat="38.02422" lon="-3.95089">
        <ele>225.0</ele>
      </trkpt>
      <trkpt lat="38.02489" lon="-3.95585">
        <ele>215.0</ele>
      </trkpt>
      <trkpt lat="38.02542" lon="-3.95959">
        <ele>213.0</ele>
      </trkpt>
      <trkpt lat="38.02508" lon="-3.96151">
        <ele>212.0</ele>
      </trkpt>
      <trkpt lat="38.02499" lon="-3.96467">
        <ele>212.0</ele>
      </trkpt>
      <trkpt lat="38.02536" lon="-3.97059">
        <ele>210.0</ele>
      </trkpt>
      <trkpt lat="38.02537" lon="-3.97499">
        <ele>210.0</ele>
      </trkpt>
      <trkpt lat="38.02567" lon="-3.97744">
        <ele>209.0</ele>
      </trkpt>
      <trkpt lat="38.0262" lon="-3.98143">
        <ele>208.0</ele>
      </trkpt>
      <trkpt lat="38.0269" lon="-3.98371">
        <ele>207.0</ele>
      </trkpt>
      <trkpt lat="38.03101" lon="-3.98349">
        <ele>215.0</ele>
      </trkpt>
      <trkpt lat="38.0326" lon="-3.9833">
        <ele>217.0</ele>
      </trkpt>
      <trkpt lat="38.03324" lon="-3.98249">
        <ele>219.0</ele>
      </trkpt>
      <trkpt lat="38.03436" lon="-3.98223">
        <ele>220.0</ele>
      </trkpt>
      <trkpt lat="38.03459" lon="-3.98216">
        <ele>220.0</ele>
      </trkpt>
      <trkpt lat="38.03672" lon="-3.98174">
        <ele>220.0</ele>
      </trkpt>
      <trkpt lat="38.04347" lon="-3.98011">
        <ele>225.0</ele>
      </trkpt>
      <trkpt lat="38.04269" lon="-3.97644">
        <ele>232.0</ele>
      </trkpt>
      <trkpt lat="38.04373" lon="-3.97564">
        <ele>237.0</ele>
      </trkpt>
      <trkpt lat="38.04527" lon="-3.97575">
        <ele>238.0</ele>
      </trkpt>
      <trkpt lat="38.04621" lon="-3.9763">
        <ele>236.0</ele>
      </trkpt>
      <trkpt lat="38.04565" lon="-3.97811">
        <ele>234.0</ele>
      </trkpt>
      <trkpt lat="38.04547" lon="-3.98193">
        <ele>231.0</ele>
      </trkpt>
      <trkpt lat="38.04689" lon="-3.98244">
        <ele>228.0</ele>
      </trkpt>
      <trkpt lat="38.0485" lon="-3.98129">
        <ele>228.0</ele>
      </trkpt>
      <trkpt lat="38.05155" lon="-3.97937">
        <ele>231.0</ele>
      </trkpt>
      <trkpt lat="38.05298" lon="-3.97832">
        <ele>235.0</ele>
      </trkpt>
      <trkpt lat="38.05349" lon="-3.97824">
        <ele>237.0</ele>
      </trkpt>
      <trkpt lat="38.05703" lon="-3.97853">
        <ele>240.0</ele>
      </trkpt>
      <trkpt lat="38.05799" lon="-3.9764">
        <ele>245.0</ele>
      </trkpt>
      <trkpt lat="38.05818" lon="-3.97389">
        <ele>253.0</ele>
      </trkpt>
      <trkpt lat="38.0582" lon="-3.97345">
        <ele>256.0</ele>
      </trkpt>
      <trkpt lat="38.06012" lon="-3.97097">
        <ele>262.0</ele>
      </trkpt>
      <trkpt lat="38.06161" lon="-3.96962">
        <ele>270.0</ele>
      </trkpt>
      <trkpt lat="38.06279" lon="-3.96814">
        <ele>277.0</ele>
      </trkpt>
      <trkpt lat="38.06395" lon="-3.96635">
        <ele>283.0</ele>
      </trkpt>
      <trkpt lat="38.06519" lon="-3.96518">
        <ele>290.0</ele>
      </trkpt>
      <trkpt lat="38.06639" lon="-3.96399">
        <ele>296.0</ele>
      </trkpt>
      <trkpt lat="38.06842" lon="-3.96243">
        <ele>300.0</ele>
      </trkpt>
      <trkpt lat="38.06944" lon="-3.96129">
        <ele>298.0</ele>
      </trkpt>
      <trkpt lat="38.06945" lon="-3.96022">
        <ele>296.0</ele>
      </trkpt>
      <trkpt lat="38.07026" lon="-3.95846">
        <ele>295.0</ele>
      </trkpt>
      <trkpt lat="38.0719" lon="-3.95716">
        <ele>293.0</ele>
      </trkpt>
      <trkpt lat="38.07337" lon="-3.95596">
        <ele>295.0</ele>
      </trkpt>
      <trkpt lat="38.07608" lon="-3.95492">
        <ele>298.0</ele>
      </trkpt>
      <trkpt lat="38.07819" lon="-3.95355">
        <ele>299.0</ele>
      </trkpt>
      <trkpt lat="38.08552" lon="-3.94736">
        <ele>298.0</ele>
      </trkpt>
      <trkpt lat="38.0865" lon="-3.94621">
        <ele>299.0</ele>
      </trkpt>
      <trkpt lat="38.08799" lon="-3.94119">
        <ele>298.0</ele>
      </trkpt>
      <trkpt lat="38.08963" lon="-3.93763">
        <ele>289.0</ele>
      </trkpt>
      <trkpt lat="38.09089" lon="-3.93707">
        <ele>282.0</ele>
      </trkpt>
      <trkpt lat="38.09158" lon="-3.93707">
        <ele>280.0</ele>
      </trkpt>
      <trkpt lat="38.09277" lon="-3.93859">
        <ele>279.0</ele>
      </trkpt>
      <trkpt lat="38.0947" lon="-3.93921">
        <ele>280.0</ele>
      </trkpt>
      <trkpt lat="38.09631" lon="-3.93854">
        <ele>282.0</ele>
      </trkpt>
      <trkpt lat="38.09749" lon="-3.9385">
        <ele>284.0</ele>
      </trkpt>
      <trkpt lat="38.0989" lon="-3.93875">
        <ele>285.0</ele>
      </trkpt>
      <trkpt lat="38.10109" lon="-3.93861">
        <ele>289.0</ele>
      </trkpt>
      <trkpt lat="38.10221" lon="-3.93754">
        <ele>292.0</ele>
      </trkpt>
      <trkpt lat="38.10402" lon="-3.93664">
        <ele>296.0</ele>
      </trkpt>
      <trkpt lat="38.10455" lon="-3.93715">
        <ele>301.0</ele>
      </trkpt>
      <trkpt lat="38.10555" lon="-3.93734">
        <ele>308.0</ele>
      </trkpt>
      <trkpt lat="38.10708" lon="-3.93703">
        <ele>322.0</ele>
      </trkpt>
      <trkpt lat="38.10874" lon="-3.93757">
        <ele>333.0</ele>
      </trkpt>
      <trkpt lat="38.11037" lon="-3.9383">
        <ele>344.0</ele>
      </trkpt>
      <trkpt lat="38.11295" lon="-3.93895">
        <ele>360.0</ele>
      </trkpt>
      <trkpt lat="38.11674" lon="-3.94256">
        <ele>378.0</ele>
      </trkpt>
      <trkpt lat="38.11721" lon="-3.94415">
        <ele>386.0</ele>
      </trkpt>
      <trkpt lat="38.11729" lon="-3.94923">
        <ele>410.0</ele>
      </trkpt>
      <trkpt lat="38.11764" lon="-3.95252">
        <ele>440.0</ele>
      </trkpt>
      <trkpt lat="38.11888" lon="-3.9546">
        <ele>457.0</ele>
      </trkpt>
      <trkpt lat="38.1204" lon="-3.95676">
        <ele>460.0</ele>
      </trkpt>
      <trkpt lat="38.12165" lon="-3.95838">
        <ele>467.0</ele>
      </trkpt>
      <trkpt lat="38.12218" lon="-3.95941">
        <ele>470.0</ele>
      </trkpt>
      <trkpt lat="38.12226" lon="-3.95996">
        <ele>470.0</ele>
      </trkpt>
      <trkpt lat="38.12198" lon="-3.96067">
        <ele>471.0</ele>
      </trkpt>
      <trkpt lat="38.12095" lon="-3.96104">
        <ele>472.0</ele>
      </trkpt>
      <trkpt lat="38.11959" lon="-3.9621">
        <ele>478.0</ele>
      </trkpt>
      <trkpt lat="38.11706" lon="-3.96328">
        <ele>490.0</ele>
      </trkpt>
      <trkpt lat="38.11605" lon="-3.96396">
        <ele>491.0</ele>
      </trkpt>
      <trkpt lat="38.11456" lon="-3.96498">
        <ele>488.0</ele>
      </trkpt>
      <trkpt lat="38.11214" lon="-3.9674">
        <ele>482.0</ele>
      </trkpt>
      <trkpt lat="38.11153" lon="-3.96797">
        <ele>479.0</ele>
      </trkpt>
      <trkpt lat="38.10989" lon="-3.96847">
        <ele>480.0</ele>
      </trkpt>
      <trkpt lat="38.10908" lon="-3.96801">
        <ele>484.0</ele>
      </trkpt>
      <trkpt lat="38.10802" lon="-3.96752">
        <ele>485.0</ele>
      </trkpt>
      <trkpt lat="38.10702" lon="-3.96692">
        <ele>484.0</ele>
      </trkpt>
      <trkpt lat="38.10599" lon="-3.96644">
        <ele>478.0</ele>
      </trkpt>
      <trkpt lat="38.10488" lon="-3.96787">
        <ele>469.0</ele>
      </trkpt>
      <trkpt lat="38.1038" lon="-3.9678">
        <ele>460.0</ele>
      </trkpt>
      <trkpt lat="38.10198" lon="-3.96893">
        <ele>450.0</ele>
      </trkpt>
      <trkpt lat="38.09967" lon="-3.97015">
        <ele>437.0</ele>
      </trkpt>
      <trkpt lat="38.0984" lon="-3.97098">
        <ele>427.0</ele>
      </trkpt>
      <trkpt lat="38.09648" lon="-3.9718">
        <ele>420.0</ele>
      </trkpt>
      <trkpt lat="38.09381" lon="-3.97584">
        <ele>407.0</ele>
      </trkpt>
      <trkpt lat="38.09321" lon="-3.97714">
        <ele>403.0</ele>
      </trkpt>
      <trkpt lat="38.09186" lon="-3.97831">
        <ele>401.0</ele>
      </trkpt>
      <trkpt lat="38.09128" lon="-3.97995">
        <ele>397.0</ele>
      </trkpt>
      <trkpt lat="38.09028" lon="-3.9811">
        <ele>391.0</ele>
      </trkpt>
      <trkpt lat="38.09001" lon="-3.98177">
        <ele>388.0</ele>
      </trkpt>
      <trkpt lat="38.08994" lon="-3.98223">
        <ele>385.0</ele>
      </trkpt>
      <trkpt lat="38.08954" lon="-3.9836">
        <ele>381.0</ele>
      </trkpt>
      <trkpt lat="38.08861" lon="-3.98435">
        <ele>378.0</ele>
      </trkpt>
      <trkpt lat="38.08798" lon="-3.98345">
        <ele>377.0</ele>
      </trkpt>
      <trkpt lat="38.08661" lon="-3.9829">
        <ele>377.0</ele>
      </trkpt>
      <trkpt lat="38.08455" lon="-3.98179">
        <ele>372.0</ele>
      </trkpt>
      <trkpt lat="38.08382" lon="-3.98279">
        <ele>368.0</ele>
      </trkpt>
      <trkpt lat="38.08316" lon="-3.98285">
        <ele>366.0</ele>
      </trkpt>
      <trkpt lat="38.08191" lon="-3.98333">
        <ele>367.0</ele>
      </trkpt>
      <trkpt lat="38.08119" lon="-3.98394">
        <ele>368.0</ele>
      </trkpt>
      <trkpt lat="38.07926" lon="-3.98375">
        <ele>362.0</ele>
      </trkpt>
      <trkpt lat="38.07844" lon="-3.98487">
        <ele>355.0</ele>
      </trkpt>
      <trkpt lat="38.0789" lon="-3.98642">
        <ele>347.0</ele>
      </trkpt>
      <trkpt lat="38.07837" lon="-3.98728">
        <ele>339.0</ele>
      </trkpt>
      <trkpt lat="38.07809" lon="-3.98874">
        <ele>331.0</ele>
      </trkpt>
      <trkpt lat="38.07584" lon="-3.98691">
        <ele>322.0</ele>
      </trkpt>
      <trkpt lat="38.07451" lon="-3.98724">
        <ele>307.0</ele>
      </trkpt>
      <trkpt lat="38.07441" lon="-3.98791">
        <ele>303.0</ele>
      </trkpt>
      <trkpt lat="38.07273" lon="-3.98849">
        <ele>302.0</ele>
      </trkpt>
      <trkpt lat="38.07299" lon="-3.98956">
        <ele>304.0</ele>
      </trkpt>
      <trkpt lat="38.07205" lon="-3.98999">
        <ele>307.0</ele>
      </trkpt>
      <trkpt lat="38.07068" lon="-3.99102">
        <ele>303.0</ele>
      </trkpt>
      <trkpt lat="38.06915" lon="-3.99305">
        <ele>289.0</ele>
      </trkpt>
      <trkpt lat="38.06842" lon="-3.99396">
        <ele>281.0</ele>
      </trkpt>
      <trkpt lat="38.06849" lon="-3.99555">
        <ele>277.0</ele>
      </trkpt>
      <trkpt lat="38.06786" lon="-3.99663">
        <ele>278.0</ele>
      </trkpt>
      <trkpt lat="38.06683" lon="-3.998">
        <ele>276.0</ele>
      </trkpt>
      <trkpt lat="38.06621" lon="-3.99859">
        <ele>274.0</ele>
      </trkpt>
      <trkpt lat="38.06582" lon="-3.99981">
        <ele>268.0</ele>
      </trkpt>
      <trkpt lat="38.06474" lon="-4.00198">
        <ele>262.0</ele>
      </trkpt>
      <trkpt lat="38.06336" lon="-4.0046">
        <ele>258.0</ele>
      </trkpt>
      <trkpt lat="38.06163" lon="-4.00558">
        <ele>252.0</ele>
      </trkpt>
      <trkpt lat="38.0599" lon="-4.0073">
        <ele>249.0</ele>
      </trkpt>
      <trkpt lat="38.05658" lon="-4.01204">
        <ele>248.0</ele>
      </trkpt>
      <trkpt lat="38.05612" lon="-4.01263">
        <ele>246.0</ele>
      </trkpt>
      <trkpt lat="38.05527" lon="-4.01377">
        <ele>243.0</ele>
      </trkpt>
      <trkpt lat="38.05435" lon="-4.01648">
        <ele>236.0</ele>
      </trkpt>
      <trkpt lat="38.05362" lon="-4.0177">
        <ele>232.0</ele>
      </trkpt>
      <trkpt lat="38.04878" lon="-4.02609">
        <ele>229.0</ele>
      </trkpt>
      <trkpt lat="38.04536" lon="-4.0333">
        <ele>223.0</ele>
      </trkpt>
      <trkpt lat="38.04299" lon="-4.03568">
        <ele>223.0</ele>
      </trkpt>
      <trkpt lat="38.04182" lon="-4.03663">
        <ele>220.0</ele>
      </trkpt>
      <trkpt lat="38.04078" lon="-4.03727">
        <ele>217.0</ele>
      </trkpt>
      <trkpt lat="38.03943" lon="-4.03815">
        <ele>213.0</ele>
      </trkpt>
      <trkpt lat="38.03923" lon="-4.03827">
        <ele>213.0</ele>
      </trkpt>
      <trkpt lat="38.03908" lon="-4.03958">
        <ele>213.0</ele>
      </trkpt>
      <trkpt lat="38.03913" lon="-4.03997">
        <ele>213.0</ele>
      </trkpt>
      <trkpt lat="38.03908" lon="-4.0402">
        <ele>213.0</ele>
      </trkpt>
      <trkpt lat="38.03893" lon="-4.04086">
        <ele>213.0</ele>
      </trkpt>
      <trkpt lat="38.03872" lon="-4.04381">
        <ele>213.0</ele>
      </trkpt>
      <trkpt lat="38.03854" lon="-4.04628">
        <ele>214.0</ele>
      </trkpt>
      <trkpt lat="38.03847" lon="-4.04715">
        <ele>215.0</ele>
      </trkpt>
      <trkpt lat="38.03847" lon="-4.04722">
        <ele>215.0</ele>
      </trkpt>
      <trkpt lat="38.03845" lon="-4.04728">
        <ele>215.0</ele>
      </trkpt>
      <trkpt lat="38.03843" lon="-4.04731">
        <ele>215.0</ele>
      </trkpt>
      <trkpt lat="38.0384" lon="-4.04732">
        <ele>215.0</ele>
      </trkpt>
      <trkpt lat="38.03836" lon="-4.04733">
        <ele>215.0</ele>
      </trkpt>
      <trkpt lat="38.03832" lon="-4.04732">
        <ele>215.0</ele>
      </trkpt>
      <trkpt lat="38.0383" lon="-4.0473">
        <ele>215.0</ele>
      </trkpt>
      <trkpt lat="38.03727" lon="-4.04731">
        <ele>214.0</ele>
      </trkpt>
      <trkpt lat="38.03659" lon="-4.04736">
        <ele>213.0</ele>
      </trkpt>
      <trkpt lat="38.03657" lon="-4.04743">
        <ele>213.0</ele>
      </trkpt>
      <trkpt lat="38.03654" lon="-4.04746">
        <ele>213.0</ele>
      </trkpt>
      <trkpt lat="38.03649" lon="-4.04746">
        <ele>213.0</ele>
      </trkpt>
      <trkpt lat="38.03644" lon="-4.04741">
        <ele>213.0</ele>
      </trkpt>
      <trkpt lat="38.0364" lon="-4.04735">
        <ele>213.0</ele>
      </trkpt>
      <trkpt lat="38.03514" lon="-4.04736">
        <ele>213.0</ele>
      </trkpt>
      <trkpt lat="38.03416" lon="-4.04738">
        <ele>213.0</ele>
      </trkpt>
      <trkpt lat="38.03408" lon="-4.0473">
        <ele>213.0</ele>
      </trkpt>
      <trkpt lat="38.03396" lon="-4.0472">
        <ele>213.0</ele>
      </trkpt>
      <trkpt lat="38.03386" lon="-4.04725">
        <ele>213.0</ele>
      </trkpt>
      <trkpt lat="38.03383" lon="-4.04743">
        <ele>213.0</ele>
      </trkpt>
      <trkpt lat="38.03395" lon="-4.04753">
        <ele>213.0</ele>
      </trkpt>
      <trkpt lat="38.03384" lon="-4.04838">
        <ele>212.0</ele>
      </trkpt>
      <trkpt lat="38.03325" lon="-4.04886">
        <ele>210.0</ele>
      </trkpt>
      <trkpt lat="38.03296" lon="-4.04889">
        <ele>208.0</ele>
      </trkpt>
      <trkpt lat="38.03217" lon="-4.04918">
        <ele>206.0</ele>
      </trkpt>
      <trkpt lat="38.03206" lon="-4.05029">
        <ele>203.0</ele>
      </trkpt>
      <trkpt lat="38.03229" lon="-4.05072">
        <ele>203.0</ele>
      </trkpt>
      <trkpt lat="38.03321" lon="-4.05171">
        <ele>202.0</ele>
      </trkpt>
      <trkpt lat="38.0337" lon="-4.05215">
        <ele>204.0</ele>
      </trkpt>
      <trkpt lat="38.03431" lon="-4.05273">
        <ele>206.0</ele>
      </trkpt>
      <trkpt lat="38.03479" lon="-4.05335">
        <ele>206.0</ele>
      </trkpt>
      <trkpt lat="38.03544" lon="-4.05483">
        <ele>205.0</ele>
      </trkpt>
      <trkpt lat="38.03579" lon="-4.05569">
        <ele>204.0</ele>
      </trkpt>
      <trkpt lat="38.03582" lon="-4.05655">
        <ele>203.0</ele>
      </trkpt>
      <trkpt lat="38.03579" lon="-4.05664">
        <ele>203.0</ele>
      </trkpt>
      <trkpt lat="38.03551" lon="-4.05768">
        <ele>202.0</ele>
      </trkpt>
      <trkpt lat="38.03537" lon="-4.05814">
        <ele>201.0</ele>
      </trkpt>
      <trkpt lat="38.03529" lon="-4.05862">
        <ele>200.0</ele>
      </trkpt>
      <trkpt lat="38.03538" lon="-4.05875">
        <ele>200.0</ele>
      </trkpt>
      <trkpt lat="38.03546" lon="-4.05882">
        <ele>199.0</ele>
      </trkpt>
      <trkpt lat="38.03551" lon="-4.05892">
        <ele>199.0</ele>
      </trkpt>
      <trkpt lat="38.03551" lon="-4.05903">
        <ele>199.0</ele>
      </trkpt>
      <trkpt lat="38.0355" lon="-4.05909">
        <ele>199.0</ele>
      </trkpt>
      <trkpt lat="38.03544" lon="-4.05918">
        <ele>199.0</ele>
      </trkpt>
      <trkpt lat="38.03536" lon="-4.05922">
        <ele>198.0</ele>
      </trkpt>
      <trkpt lat="38.03487" lon="-4.05966">
        <ele>198.0</ele>
      </trkpt>
      <trkpt lat="38.03429" lon="-4.06035">
        <ele>197.0</ele>
      </trkpt>
      <trkpt lat="38.03251" lon="-4.06194">
        <ele>196.0</ele>
      </trkpt>
      <trkpt lat="38.03189" lon="-4.06246">
        <ele>197.0</ele>
      </trkpt>
      <trkpt lat="38.03201" lon="-4.06287">
        <ele>198.0</ele>
      </trkpt>
      <trkpt lat="38.03171" lon="-4.06417">
        <ele>199.0</ele>
      </trkpt>
      <trkpt lat="38.0316" lon="-4.06534">
        <ele>199.0</ele>
      </trkpt>
      <trkpt lat="38.03137" lon="-4.06607">
        <ele>198.0</ele>
      </trkpt>
      <trkpt lat="38.03091" lon="-4.06696">
        <ele>198.0</ele>
      </trkpt>
      <trkpt lat="38.03059" lon="-4.06768">
        <ele>198.0</ele>
      </trkpt>
      <trkpt lat="38.0302" lon="-4.06913">
        <ele>200.0</ele>
      </trkpt>
      <trkpt lat="38.02993" lon="-4.07006">
        <ele>199.0</ele>
      </trkpt>
      <trkpt lat="38.02971" lon="-4.07172">
        <ele>198.0</ele>
      </trkpt>
      <trkpt lat="38.0296" lon="-4.07208">
        <ele>197.0</ele>
      </trkpt>
      <trkpt lat="38.03011" lon="-4.07465">
        <ele>197.0</ele>
      </trkpt>
      <trkpt lat="38.03083" lon="-4.07761">
        <ele>196.0</ele>
      </trkpt>
      <trkpt lat="38.03128" lon="-4.07894">
        <ele>197.0</ele>
      </trkpt>
      <trkpt lat="38.03139" lon="-4.0798">
        <ele>198.0</ele>
      </trkpt>
      <trkpt lat="38.03132" lon="-4.08046">
        <ele>198.0</ele>
      </trkpt>
      <trkpt lat="38.03204" lon="-4.08506">
        <ele>198.0</ele>
      </trkpt>
      <trkpt lat="38.03287" lon="-4.08946">
        <ele>197.0</ele>
      </trkpt>
      <trkpt lat="38.03365" lon="-4.09358">
        <ele>196.0</ele>
      </trkpt>
      <trkpt lat="38.03668" lon="-4.10973">
        <ele>197.0</ele>
      </trkpt>
      <trkpt lat="38.0369" lon="-4.11062">
        <ele>198.0</ele>
      </trkpt>
      <trkpt lat="38.03726" lon="-4.11163">
        <ele>199.0</ele>
      </trkpt>
      <trkpt lat="38.03782" lon="-4.11243">
        <ele>199.0</ele>
      </trkpt>
      <trkpt lat="38.03863" lon="-4.11415">
        <ele>199.0</ele>
      </trkpt>
      <trkpt lat="38.03865" lon="-4.11438">
        <ele>198.0</ele>
      </trkpt>
      <trkpt lat="38.04087" lon="-4.11812">
        <ele>197.0</ele>
      </trkpt>
      <trkpt lat="38.04218" lon="-4.12055">
        <ele>198.0</ele>
      </trkpt>
      <trkpt lat="38.0451" lon="-4.12822">
        <ele>202.0</ele>
      </trkpt>
      <trkpt lat="38.04644" lon="-4.13273">
        <ele>200.0</ele>
      </trkpt>
      <trkpt lat="38.04658" lon="-4.13509">
        <ele>204.0</ele>
      </trkpt>
      <trkpt lat="38.04624" lon="-4.13686">
        <ele>210.0</ele>
      </trkpt>
      <trkpt lat="38.04634" lon="-4.13927">
        <ele>222.0</ele>
      </trkpt>
      <trkpt lat="38.04702" lon="-4.14176">
        <ele>232.0</ele>
      </trkpt>
      <trkpt lat="38.04706" lon="-4.14561">
        <ele>240.0</ele>
      </trkpt>
      <trkpt lat="38.04683" lon="-4.14951">
        <ele>239.0</ele>
      </trkpt>
      <trkpt lat="38.0472" lon="-4.1509">
        <ele>240.0</ele>
      </trkpt>
      <trkpt lat="38.04766" lon="-4.15843">
        <ele>242.0</ele>
      </trkpt>
      <trkpt lat="38.04778" lon="-4.16537">
        <ele>244.0</ele>
      </trkpt>
      <trkpt lat="38.04671" lon="-4.16552">
        <ele>245.0</ele>
      </trkpt>
      <trkpt lat="38.0457" lon="-4.16532">
        <ele>246.0</ele>
      </trkpt>
      <trkpt lat="38.04548" lon="-4.16663">
        <ele>247.0</ele>
      </trkpt>
      <trkpt lat="38.04506" lon="-4.16816">
        <ele>247.0</ele>
      </trkpt>
      <trkpt lat="38.04449" lon="-4.16819">
        <ele>247.0</ele>
      </trkpt>
      <trkpt lat="38.04348" lon="-4.16868">
        <ele>245.0</ele>
      </trkpt>
      <trkpt lat="38.04299" lon="-4.16888">
        <ele>244.0</ele>
      </trkpt>
      <trkpt lat="38.0422" lon="-4.16927">
        <ele>242.0</ele>
      </trkpt>
      <trkpt lat="38.04157" lon="-4.16941">
        <ele>239.0</ele>
      </trkpt>
      <trkpt lat="38.04001" lon="-4.16984">
        <ele>233.0</ele>
      </trkpt>
      <trkpt lat="38.03857" lon="-4.17033">
        <ele>229.0</ele>
      </trkpt>
      <trkpt lat="38.03775" lon="-4.17006">
        <ele>225.0</ele>
      </trkpt>
      <trkpt lat="38.0373" lon="-4.16941">
        <ele>222.0</ele>
      </trkpt>
      <trkpt lat="38.03575" lon="-4.16801">
        <ele>214.0</ele>
      </trkpt>
      <trkpt lat="38.03482" lon="-4.1677">
        <ele>206.0</ele>
      </trkpt>
      <trkpt lat="38.0341" lon="-4.16755">
        <ele>202.0</ele>
      </trkpt>
      <trkpt lat="38.03206" lon="-4.16757">
        <ele>196.0</ele>
      </trkpt>
      <trkpt lat="38.03084" lon="-4.16746">
        <ele>190.0</ele>
      </trkpt>
      <trkpt lat="38.03062" lon="-4.16763">
        <ele>189.0</ele>
      </trkpt>
      <trkpt lat="38.0305" lon="-4.16766">
        <ele>189.0</ele>
      </trkpt>
      <trkpt lat="38.03041" lon="-4.16749">
        <ele>189.0</ele>
      </trkpt>
      <trkpt lat="38.02961" lon="-4.16701">
        <ele>189.0</ele>
      </trkpt>
      <trkpt lat="38.0287" lon="-4.16664">
        <ele>189.0</ele>
      </trkpt>
      <trkpt lat="38.02855" lon="-4.16659">
        <ele>188.0</ele>
      </trkpt>
      <trkpt lat="38.02843" lon="-4.16643">
        <ele>188.0</ele>
      </trkpt>
      <trkpt lat="38.02831" lon="-4.16608">
        <ele>187.0</ele>
      </trkpt>
      <trkpt lat="38.0277" lon="-4.165">
        <ele>186.0</ele>
      </trkpt>
      <trkpt lat="38.02746" lon="-4.16448">
        <ele>185.0</ele>
      </trkpt>
      <trkpt lat="38.02703" lon="-4.16364">
        <ele>185.0</ele>
      </trkpt>
      <trkpt lat="38.02674" lon="-4.16345">
        <ele>184.0</ele>
      </trkpt>
      <trkpt lat="38.026" lon="-4.16466">
        <ele>183.0</ele>
      </trkpt>
      <trkpt lat="38.0255" lon="-4.16509">
        <ele>181.0</ele>
      </trkpt>
      <trkpt lat="38.02397" lon="-4.16355">
        <ele>185.0</ele>
      </trkpt>
      <trkpt lat="38.0239" lon="-4.1617">
        <ele>190.0</ele>
      </trkpt>
      <trkpt lat="38.02443" lon="-4.15817">
        <ele>201.0</ele>
      </trkpt>
      <trkpt lat="38.02434" lon="-4.15689">
        <ele>211.0</ele>
      </trkpt>
      <trkpt lat="38.02371" lon="-4.15478">
        <ele>223.0</ele>
      </trkpt>
      <trkpt lat="38.02403" lon="-4.15076">
        <ele>232.0</ele>
      </trkpt>
      <trkpt lat="38.02134" lon="-4.14954">
        <ele>243.0</ele>
      </trkpt>
      <trkpt lat="38.02074" lon="-4.15061">
        <ele>248.0</ele>
      </trkpt>
      <trkpt lat="38.01864" lon="-4.15322">
        <ele>250.0</ele>
      </trkpt>
      <trkpt lat="38.01512" lon="-4.14982">
        <ele>256.0</ele>
      </trkpt>
      <trkpt lat="38.01327" lon="-4.14949">
        <ele>263.0</ele>
      </trkpt>
      <trkpt lat="38.01207" lon="-4.14514">
        <ele>260.0</ele>
      </trkpt>
      <trkpt lat="38.00916" lon="-4.14387">
        <ele>254.0</ele>
      </trkpt>
      <trkpt lat="38.00593" lon="-4.14691">
        <ele>243.0</ele>
      </trkpt>
      <trkpt lat="38.00529" lon="-4.14499">
        <ele>235.0</ele>
      </trkpt>
      <trkpt lat="38.00509" lon="-4.14441">
        <ele>232.0</ele>
      </trkpt>
      <trkpt lat="38.00142" lon="-4.14153">
        <ele>231.0</ele>
      </trkpt>
      <trkpt lat="38.00034" lon="-4.13989">
        <ele>229.0</ele>
      </trkpt>
      <trkpt lat="37.99829" lon="-4.13889">
        <ele>225.0</ele>
      </trkpt>
      <trkpt lat="37.9982" lon="-4.13872">
        <ele>223.0</ele>
      </trkpt>
      <trkpt lat="37.99838" lon="-4.13693">
        <ele>226.0</ele>
      </trkpt>
      <trkpt lat="38.00023" lon="-4.13563">
        <ele>234.0</ele>
      </trkpt>
      <trkpt lat="38.00174" lon="-4.13451">
        <ele>244.0</ele>
      </trkpt>
      <trkpt lat="38.00284" lon="-4.13442">
        <ele>249.0</ele>
      </trkpt>
      <trkpt lat="38.00454" lon="-4.13209">
        <ele>259.0</ele>
      </trkpt>
      <trkpt lat="38.0042" lon="-4.12973">
        <ele>267.0</ele>
      </trkpt>
      <trkpt lat="38.00156" lon="-4.12668">
        <ele>276.0</ele>
      </trkpt>
      <trkpt lat="37.99939" lon="-4.12549">
        <ele>285.0</ele>
      </trkpt>
      <trkpt lat="37.99734" lon="-4.12143">
        <ele>299.0</ele>
      </trkpt>
      <trkpt lat="37.99394" lon="-4.12318">
        <ele>308.0</ele>
      </trkpt>
      <trkpt lat="37.98974" lon="-4.12307">
        <ele>317.0</ele>
      </trkpt>
      <trkpt lat="37.98715" lon="-4.12203">
        <ele>325.0</ele>
      </trkpt>
      <trkpt lat="37.98568" lon="-4.12166">
        <ele>327.0</ele>
      </trkpt>
      <trkpt lat="37.98332" lon="-4.12026">
        <ele>328.0</ele>
      </trkpt>
      <trkpt lat="37.98265" lon="-4.1201">
        <ele>326.0</ele>
      </trkpt>
      <trkpt lat="37.98245" lon="-4.12014">
        <ele>325.0</ele>
      </trkpt>
      <trkpt lat="37.98231" lon="-4.11987">
        <ele>325.0</ele>
      </trkpt>
      <trkpt lat="37.98247" lon="-4.11964">
        <ele>325.0</ele>
      </trkpt>
      <trkpt lat="37.98194" lon="-4.11897">
        <ele>325.0</ele>
      </trkpt>
      <trkpt lat="37.98069" lon="-4.11806">
        <ele>325.0</ele>
      </trkpt>
      <trkpt lat="37.97773" lon="-4.11489">
        <ele>329.0</ele>
      </trkpt>
      <trkpt lat="37.97671" lon="-4.11317">
        <ele>335.0</ele>
      </trkpt>
      <trkpt lat="37.97615" lon="-4.11212">
        <ele>338.0</ele>
      </trkpt>
      <trkpt lat="37.97578" lon="-4.11148">
        <ele>340.0</ele>
      </trkpt>
      <trkpt lat="37.97488" lon="-4.10975">
        <ele>345.0</ele>
      </trkpt>
      <trkpt lat="37.97433" lon="-4.10854">
        <ele>347.0</ele>
      </trkpt>
      <trkpt lat="37.97424" lon="-4.10823">
        <ele>347.0</ele>
      </trkpt>
      <trkpt lat="37.97406" lon="-4.10758">
        <ele>347.0</ele>
      </trkpt>
      <trkpt lat="37.97353" lon="-4.10663">
        <ele>347.0</ele>
      </trkpt>
      <trkpt lat="37.97321" lon="-4.10652">
        <ele>348.0</ele>
      </trkpt>
      <trkpt lat="37.97323" lon="-4.1056">
        <ele>348.0</ele>
      </trkpt>
      <trkpt lat="37.97326" lon="-4.10479">
        <ele>349.0</ele>
      </trkpt>
      <trkpt lat="37.9733" lon="-4.10429">
        <ele>349.0</ele>
      </trkpt>
      <trkpt lat="37.97326" lon="-4.10044">
        <ele>351.0</ele>
      </trkpt>
      <trkpt lat="37.97317" lon="-4.09932">
        <ele>353.0</ele>
      </trkpt>
      <trkpt lat="37.97218" lon="-4.09696">
        <ele>356.0</ele>
      </trkpt>
      <trkpt lat="37.97184" lon="-4.09609">
        <ele>358.0</ele>
      </trkpt>
      <trkpt lat="37.97133" lon="-4.09424">
        <ele>360.0</ele>
      </trkpt>
      <trkpt lat="37.97092" lon="-4.09162">
        <ele>363.0</ele>
      </trkpt>
      <trkpt lat="37.97063" lon="-4.09084">
        <ele>365.0</ele>
      </trkpt>
      <trkpt lat="37.97027" lon="-4.09066">
        <ele>366.0</ele>
      </trkpt>
      <trkpt lat="37.97001" lon="-4.09062">
        <ele>367.0</ele>
      </trkpt>
      <trkpt lat="37.96989" lon="-4.0903">
        <ele>367.0</ele>
      </trkpt>
      <trkpt lat="37.96967" lon="-4.08995">
        <ele>367.0</ele>
      </trkpt>
      <trkpt lat="37.9663" lon="-4.08763">
        <ele>370.0</ele>
      </trkpt>
      <trkpt lat="37.96377" lon="-4.08493">
        <ele>372.0</ele>
      </trkpt>
      <trkpt lat="37.96228" lon="-4.08142">
        <ele>380.0</ele>
      </trkpt>
      <trkpt lat="37.96156" lon="-4.08017">
        <ele>383.0</ele>
      </trkpt>
      <trkpt lat="37.96012" lon="-4.07787">
        <ele>382.0</ele>
      </trkpt>
      <trkpt lat="37.95721" lon="-4.07546">
        <ele>375.0</ele>
      </trkpt>
      <trkpt lat="37.95462" lon="-4.07302">
        <ele>372.0</ele>
      </trkpt>
      <trkpt lat="37.95421" lon="-4.07264">
        <ele>374.0</ele>
      </trkpt>
      <trkpt lat="37.95352" lon="-4.07229">
        <ele>378.0</ele>
      </trkpt>
      <trkpt lat="37.95217" lon="-4.07188">
        <ele>383.0</ele>
      </trkpt>
      <trkpt lat="37.9513" lon="-4.07175">
        <ele>388.0</ele>
      </trkpt>
      <trkpt lat="37.95064" lon="-4.07184">
        <ele>390.0</ele>
      </trkpt>
      <trkpt lat="37.94978" lon="-4.07218">
        <ele>392.0</ele>
      </trkpt>
      <trkpt lat="37.94924" lon="-4.07259">
        <ele>393.0</ele>
      </trkpt>
      <trkpt lat="37.94841" lon="-4.07357">
        <ele>394.0</ele>
      </trkpt>
      <trkpt lat="37.9478" lon="-4.07454">
        <ele>393.0</ele>
      </trkpt>
      <trkpt lat="37.94738" lon="-4.07507">
        <ele>393.0</ele>
      </trkpt>
      <trkpt lat="37.94678" lon="-4.07566">
        <ele>394.0</ele>
      </trkpt>
      <trkpt lat="37.94473" lon="-4.07732">
        <ele>397.0</ele>
      </trkpt>
      <trkpt lat="37.94407" lon="-4.0778">
        <ele>401.0</ele>
      </trkpt>
      <trkpt lat="37.94333" lon="-4.07807">
        <ele>405.0</ele>
      </trkpt>
      <trkpt lat="37.94257" lon="-4.07801">
        <ele>409.0</ele>
      </trkpt>
      <trkpt lat="37.94161" lon="-4.07736">
        <ele>410.0</ele>
      </trkpt>
      <trkpt lat="37.94088" lon="-4.07619">
        <ele>409.0</ele>
      </trkpt>
      <trkpt lat="37.93967" lon="-4.07359">
        <ele>415.0</ele>
      </trkpt>
      <trkpt lat="37.93902" lon="-4.07188">
        <ele>423.0</ele>
      </trkpt>
      <trkpt lat="37.93883" lon="-4.07156">
        <ele>424.0</ele>
      </trkpt>
      <trkpt lat="37.93843" lon="-4.07162">
        <ele>424.0</ele>
      </trkpt>
      <trkpt lat="37.93723" lon="-4.07225">
        <ele>422.0</ele>
      </trkpt>
      <trkpt lat="37.93644" lon="-4.07283">
        <ele>418.0</ele>
      </trkpt>
      <trkpt lat="37.93588" lon="-4.07349">
        <ele>415.0</ele>
      </trkpt>
      <trkpt lat="37.93417" lon="-4.07596">
        <ele>406.0</ele>
      </trkpt>
      <trkpt lat="37.93116" lon="-4.08049">
        <ele>390.0</ele>
      </trkpt>
      <trkpt lat="37.93046" lon="-4.08253">
        <ele>380.0</ele>
      </trkpt>
      <trkpt lat="37.92989" lon="-4.0839">
        <ele>371.0</ele>
      </trkpt>
      <trkpt lat="37.92918" lon="-4.08527">
        <ele>363.0</ele>
      </trkpt>
      <trkpt lat="37.92876" lon="-4.08645">
        <ele>350.0</ele>
      </trkpt>
      <trkpt lat="37.92869" lon="-4.08802">
        <ele>345.0</ele>
      </trkpt>
      <trkpt lat="37.92868" lon="-4.08998">
        <ele>339.0</ele>
      </trkpt>
      <trkpt lat="37.92852" lon="-4.09138">
        <ele>331.0</ele>
      </trkpt>
      <trkpt lat="37.92839" lon="-4.09272">
        <ele>325.0</ele>
      </trkpt>
      <trkpt lat="37.92857" lon="-4.09418">
        <ele>322.0</ele>
      </trkpt>
      <trkpt lat="37.92856" lon="-4.09527">
        <ele>319.0</ele>
      </trkpt>
      <trkpt lat="37.92838" lon="-4.09614">
        <ele>316.0</ele>
      </trkpt>
      <trkpt lat="37.92792" lon="-4.09711">
        <ele>314.0</ele>
      </trkpt>
      <trkpt lat="37.92738" lon="-4.09777">
        <ele>314.0</ele>
      </trkpt>
      <trkpt lat="37.92641" lon="-4.09848">
        <ele>316.0</ele>
      </trkpt>
      <trkpt lat="37.92604" lon="-4.09879">
        <ele>317.0</ele>
      </trkpt>
      <trkpt lat="37.92565" lon="-4.09927">
        <ele>320.0</ele>
      </trkpt>
      <trkpt lat="37.925" lon="-4.10059">
        <ele>323.0</ele>
      </trkpt>
      <trkpt lat="37.92372" lon="-4.10329">
        <ele>327.0</ele>
      </trkpt>
      <trkpt lat="37.92305" lon="-4.10442">
        <ele>330.0</ele>
      </trkpt>
      <trkpt lat="37.92155" lon="-4.1061">
        <ele>335.0</ele>
      </trkpt>
      <trkpt lat="37.92002" lon="-4.10761">
        <ele>339.0</ele>
      </trkpt>
      <trkpt lat="37.91907" lon="-4.10853">
        <ele>342.0</ele>
      </trkpt>
      <trkpt lat="37.91831" lon="-4.10957">
        <ele>344.0</ele>
      </trkpt>
      <trkpt lat="37.91767" lon="-4.11102">
        <ele>347.0</ele>
      </trkpt>
      <trkpt lat="37.91726" lon="-4.11207">
        <ele>349.0</ele>
      </trkpt>
      <trkpt lat="37.91682" lon="-4.11274">
        <ele>351.0</ele>
      </trkpt>
      <trkpt lat="37.91571" lon="-4.1139">
        <ele>353.0</ele>
      </trkpt>
      <trkpt lat="37.91334" lon="-4.11653">
        <ele>357.0</ele>
      </trkpt>
      <trkpt lat="37.912" lon="-4.118">
        <ele>362.0</ele>
      </trkpt>
      <trkpt lat="37.91092" lon="-4.11902">
        <ele>365.0</ele>
      </trkpt>
      <trkpt lat="37.90974" lon="-4.11999">
        <ele>367.0</ele>
      </trkpt>
      <trkpt lat="37.909" lon="-4.12032">
        <ele>368.0</ele>
      </trkpt>
      <trkpt lat="37.90764" lon="-4.12073">
        <ele>368.0</ele>
      </trkpt>
      <trkpt lat="37.90706" lon="-4.12105">
        <ele>369.0</ele>
      </trkpt>
      <trkpt lat="37.90478" lon="-4.12315">
        <ele>375.0</ele>
      </trkpt>
      <trkpt lat="37.90404" lon="-4.12455">
        <ele>380.0</ele>
      </trkpt>
      <trkpt lat="37.90327" lon="-4.12556">
        <ele>382.0</ele>
      </trkpt>
      <trkpt lat="37.8962" lon="-4.13164">
        <ele>377.0</ele>
      </trkpt>
      <trkpt lat="37.89484" lon="-4.13307">
        <ele>374.0</ele>
      </trkpt>
      <trkpt lat="37.89427" lon="-4.13486">
        <ele>375.0</ele>
      </trkpt>
      <trkpt lat="37.89398" lon="-4.13582">
        <ele>376.0</ele>
      </trkpt>
      <trkpt lat="37.8938" lon="-4.13631">
        <ele>376.0</ele>
      </trkpt>
      <trkpt lat="37.89329" lon="-4.13713">
        <ele>376.0</ele>
      </trkpt>
      <trkpt lat="37.89199" lon="-4.13902">
        <ele>380.0</ele>
      </trkpt>
      <trkpt lat="37.89021" lon="-4.14289">
        <ele>391.0</ele>
      </trkpt>
      <trkpt lat="37.88531" lon="-4.15019">
        <ele>412.0</ele>
      </trkpt>
      <trkpt lat="37.88255" lon="-4.15377">
        <ele>437.0</ele>
      </trkpt>
      <trkpt lat="37.88162" lon="-4.15592">
        <ele>445.0</ele>
      </trkpt>
      <trkpt lat="37.88105" lon="-4.15677">
        <ele>450.0</ele>
      </trkpt>
      <trkpt lat="37.88069" lon="-4.15713">
        <ele>452.0</ele>
      </trkpt>
      <trkpt lat="37.88023" lon="-4.15748">
        <ele>455.0</ele>
      </trkpt>
      <trkpt lat="37.87815" lon="-4.1587">
        <ele>466.0</ele>
      </trkpt>
      <trkpt lat="37.87718" lon="-4.15953">
        <ele>470.0</ele>
      </trkpt>
      <trkpt lat="37.87609" lon="-4.16092">
        <ele>470.0</ele>
      </trkpt>
      <trkpt lat="37.87467" lon="-4.16219">
        <ele>465.0</ele>
      </trkpt>
      <trkpt lat="37.87383" lon="-4.16364">
        <ele>462.0</ele>
      </trkpt>
      <trkpt lat="37.8731" lon="-4.16637">
        <ele>459.0</ele>
      </trkpt>
      <trkpt lat="37.87309" lon="-4.16725">
        <ele>455.0</ele>
      </trkpt>
      <trkpt lat="37.87326" lon="-4.16802">
        <ele>450.0</ele>
      </trkpt>
      <trkpt lat="37.87373" lon="-4.16895">
        <ele>445.0</ele>
      </trkpt>
      <trkpt lat="37.87318" lon="-4.17095">
        <ele>443.0</ele>
      </trkpt>
      <trkpt lat="37.8724" lon="-4.17389">
        <ele>444.0</ele>
      </trkpt>
      <trkpt lat="37.87246" lon="-4.17437">
        <ele>446.0</ele>
      </trkpt>
      <trkpt lat="37.8726" lon="-4.17557">
        <ele>447.0</ele>
      </trkpt>
      <trkpt lat="37.87271" lon="-4.17658">
        <ele>448.0</ele>
      </trkpt>
      <trkpt lat="37.8728" lon="-4.1774">
        <ele>447.0</ele>
      </trkpt>
      <trkpt lat="37.87268" lon="-4.17817">
        <ele>446.0</ele>
      </trkpt>
      <trkpt lat="37.87239" lon="-4.17909">
        <ele>445.0</ele>
      </trkpt>
      <trkpt lat="37.87229" lon="-4.18019">
        <ele>446.0</ele>
      </trkpt>
      <trkpt lat="37.87226" lon="-4.1807">
        <ele>446.0</ele>
      </trkpt>
      <trkpt lat="37.8725" lon="-4.1816">
        <ele>444.0</ele>
      </trkpt>
      <trkpt lat="37.87377" lon="-4.18343">
        <ele>439.0</ele>
      </trkpt>
      <trkpt lat="37.87472" lon="-4.18473">
        <ele>429.0</ele>
      </trkpt>
      <trkpt lat="37.87513" lon="-4.18535">
        <ele>424.0</ele>
      </trkpt>
      <trkpt lat="37.87562" lon="-4.18634">
        <ele>420.0</ele>
      </trkpt>
      <trkpt lat="37.87701" lon="-4.18921">
        <ele>411.0</ele>
      </trkpt>
      <trkpt lat="37.87726" lon="-4.18946">
        <ele>400.0</ele>
      </trkpt>
      <trkpt lat="37.87751" lon="-4.18945">
        <ele>397.0</ele>
      </trkpt>
      <trkpt lat="37.87797" lon="-4.18913">
        <ele>393.0</ele>
      </trkpt>
      <trkpt lat="37.87816" lon="-4.18886">
        <ele>389.0</ele>
      </trkpt>
      <trkpt lat="37.87851" lon="-4.18792">
        <ele>385.0</ele>
      </trkpt>
      <trkpt lat="37.87861" lon="-4.1871">
        <ele>382.0</ele>
      </trkpt>
      <trkpt lat="37.87853" lon="-4.18592">
        <ele>379.0</ele>
      </trkpt>
      <trkpt lat="37.87757" lon="-4.18356">
        <ele>374.0</ele>
      </trkpt>
      <trkpt lat="37.87756" lon="-4.18264">
        <ele>367.0</ele>
      </trkpt>
      <trkpt lat="37.87775" lon="-4.18246">
        <ele>365.0</ele>
      </trkpt>
      <trkpt lat="37.87801" lon="-4.18262">
        <ele>363.0</ele>
      </trkpt>
      <trkpt lat="37.87921" lon="-4.18565">
        <ele>354.0</ele>
      </trkpt>
      <trkpt lat="37.87961" lon="-4.18651">
        <ele>347.0</ele>
      </trkpt>
      <trkpt lat="37.87993" lon="-4.18721">
        <ele>343.0</ele>
      </trkpt>
      <trkpt lat="37.88006" lon="-4.18783">
        <ele>340.0</ele>
      </trkpt>
      <trkpt lat="37.88006" lon="-4.18895">
        <ele>336.0</ele>
      </trkpt>
      <trkpt lat="37.87963" lon="-4.19104">
        <ele>326.0</ele>
      </trkpt>
      <trkpt lat="37.87944" lon="-4.1915">
        <ele>320.0</ele>
      </trkpt>
      <trkpt lat="37.8795" lon="-4.1919">
        <ele>317.0</ele>
      </trkpt>
      <trkpt lat="37.88032" lon="-4.19208">
        <ele>314.0</ele>
      </trkpt>
      <trkpt lat="37.88099" lon="-4.19234">
        <ele>310.0</ele>
      </trkpt>
      <trkpt lat="37.88134" lon="-4.19279">
        <ele>308.0</ele>
      </trkpt>
      <trkpt lat="37.88263" lon="-4.19548">
        <ele>303.0</ele>
      </trkpt>
      <trkpt lat="37.88427" lon="-4.19637">
        <ele>297.0</ele>
      </trkpt>
      <trkpt lat="37.88463" lon="-4.19673">
        <ele>292.0</ele>
      </trkpt>
      <trkpt lat="37.88538" lon="-4.19826">
        <ele>289.0</ele>
      </trkpt>
      <trkpt lat="37.88742" lon="-4.19886">
        <ele>281.0</ele>
      </trkpt>
      <trkpt lat="37.88969" lon="-4.19892">
        <ele>271.0</ele>
      </trkpt>
      <trkpt lat="37.89067" lon="-4.19965">
        <ele>265.0</ele>
      </trkpt>
      <trkpt lat="37.89162" lon="-4.19947">
        <ele>260.0</ele>
      </trkpt>
      <trkpt lat="37.89244" lon="-4.19792">
        <ele>250.0</ele>
      </trkpt>
      <trkpt lat="37.89343" lon="-4.19804">
        <ele>246.0</ele>
      </trkpt>
      <trkpt lat="37.89475" lon="-4.20009">
        <ele>245.0</ele>
      </trkpt>
      <trkpt lat="37.89574" lon="-4.20042">
        <ele>247.0</ele>
      </trkpt>
      <trkpt lat="37.89848" lon="-4.20175">
        <ele>255.0</ele>
      </trkpt>
      <trkpt lat="37.90082" lon="-4.20372">
        <ele>261.0</ele>
      </trkpt>
      <trkpt lat="37.90212" lon="-4.20437">
        <ele>261.0</ele>
      </trkpt>
      <trkpt lat="37.90257" lon="-4.20461">
        <ele>260.0</ele>
      </trkpt>
      <trkpt lat="37.90677" lon="-4.20567">
        <ele>254.0</ele>
      </trkpt>
      <trkpt lat="37.90805" lon="-4.20579">
        <ele>251.0</ele>
      </trkpt>
      <trkpt lat="37.90913" lon="-4.20409">
        <ele>247.0</ele>
      </trkpt>
      <trkpt lat="37.90973" lon="-4.20378">
        <ele>246.0</ele>
      </trkpt>
      <trkpt lat="37.91081" lon="-4.205">
        <ele>248.0</ele>
      </trkpt>
      <trkpt lat="37.9116" lon="-4.20577">
        <ele>250.0</ele>
      </trkpt>
      <trkpt lat="37.91616" lon="-4.20749">
        <ele>251.0</ele>
      </trkpt>
      <trkpt lat="37.91686" lon="-4.20753">
        <ele>248.0</ele>
      </trkpt>
      <trkpt lat="37.9185" lon="-4.20621">
        <ele>244.0</ele>
      </trkpt>
      <trkpt lat="37.91942" lon="-4.20652">
        <ele>245.0</ele>
      </trkpt>
      <trkpt lat="37.9205" lon="-4.20714">
        <ele>246.0</ele>
      </trkpt>
      <trkpt lat="37.92784" lon="-4.20719">
        <ele>242.0</ele>
      </trkpt>
      <trkpt lat="37.92973" lon="-4.20768">
        <ele>244.0</ele>
      </trkpt>
      <trkpt lat="37.93422" lon="-4.20811">
        <ele>244.0</ele>
      </trkpt>
      <trkpt lat="37.93611" lon="-4.20907">
        <ele>251.0</ele>
      </trkpt>
      <trkpt lat="37.93771" lon="-4.20923">
        <ele>261.0</ele>
      </trkpt>
      <trkpt lat="37.9406" lon="-4.20864">
        <ele>268.0</ele>
      </trkpt>
      <trkpt lat="37.94129" lon="-4.20902">
        <ele>270.0</ele>
      </trkpt>
      <trkpt lat="37.94262" lon="-4.21018">
        <ele>268.0</ele>
      </trkpt>
      <trkpt lat="37.94252" lon="-4.21088">
        <ele>267.0</ele>
      </trkpt>
      <trkpt lat="37.94227" lon="-4.21196">
        <ele>265.0</ele>
      </trkpt>
      <trkpt lat="37.94255" lon="-4.21237">
        <ele>267.0</ele>
      </trkpt>
      <trkpt lat="37.94321" lon="-4.21271">
        <ele>272.0</ele>
      </trkpt>
      <trkpt lat="37.94349" lon="-4.21301">
        <ele>275.0</ele>
      </trkpt>
      <trkpt lat="37.94374" lon="-4.21324">
        <ele>276.0</ele>
      </trkpt>
    </trkseg>
  </trk>
</gpx>