<?xml version="1.0" encoding="UTF-8"?>
<gpx xmlns="http://www.topografix.com/GPX/1/0" xmlns:xsi="http://www.w3.org/2001/XMLSchema-instance" xsi:schemaLocation="http://www.topografix.com/GPX/1/0 http://www.topografix.com/GPX/1/0/gpx.xsd" version="1.0" creator="GPSBabel - https://www.gpsbabel.org">
  <time>2026-02-07T14:42:58.674000Z</time>
  <bounds minlat="37.19635" maxlat="37.66737" minlon="-4.92451" maxlon="-4.44266" />
  <trk>
    <trkseg>
      <trkpt lat="37.19713" lon="-4.80262">
        <ele>416.0</ele>
      </trkpt>
      <trkpt lat="37.19776" lon="-4.80436">
        <ele>416.0</ele>
      </trkpt>
      <trkpt lat="37.19797" lon="-4.80563">
        <ele>416.0</ele>
      </trkpt>
      <trkpt lat="37.19782" lon="-4.80929">
        <ele>420.0</ele>
      </trkpt>
      <trkpt lat="37.19747" lon="-4.81049">
        <ele>420.0</ele>
      </trkpt>
      <trkpt lat="37.19671" lon="-4.81196">
        <ele>421.0</ele>
      </trkpt>
      <trkpt lat="37.19641" lon="-4.81364">
        <ele>423.0</ele>
      </trkpt>
      <trkpt lat="37.19635" lon="-4.81442">
        <ele>423.0</ele>
      </trkpt>
      <trkpt lat="37.19665" lon="-4.81837">
        <ele>425.0</ele>
      </trkpt>
      <trkpt lat="37.19829" lon="-4.81984">
        <ele>427.0</ele>
      </trkpt>
      <trkpt lat="37.1991" lon="-4.82094">
        <ele>428.0</ele>
      </trkpt>
      <trkpt lat="37.20012" lon="-4.82265">
        <ele>430.0</ele>
      </trkpt>
      <trkpt lat="37.2006" lon="-4.82357">
        <ele>432.0</ele>
      </trkpt>
      <trkpt lat="37.2011" lon="-4.82504">
        <ele>434.0</ele>
      </trkpt>
      <trkpt lat="37.2014" lon="-4.82745">
        <ele>437.0</ele>
      </trkpt>
      <trkpt lat="37.20248" lon="-4.82948">
        <ele>440.0</ele>
      </trkpt>
      <trkpt lat="37.20316" lon="-4.83034">
        <ele>442.0</ele>
      </trkpt>
      <trkpt lat="37.20678" lon="-4.8341">
        <ele>448.0</ele>
      </trkpt>
      <trkpt lat="37.2081" lon="-4.83528">
        <ele>451.0</ele>
      </trkpt>
      <trkpt lat="37.20897" lon="-4.83657">
        <ele>453.0</ele>
      </trkpt>
      <trkpt lat="37.20972" lon="-4.8385">
        <ele>461.0</ele>
      </trkpt>
      <trkpt lat="37.21013" lon="-4.83875">
        <ele>464.0</ele>
      </trkpt>
      <trkpt lat="37.21076" lon="-4.83972">
        <ele>465.0</ele>
      </trkpt>
      <trkpt lat="37.21445" lon="-4.84593">
        <ele>470.0</ele>
      </trkpt>
      <trkpt lat="37.2149" lon="-4.84721">
        <ele>474.0</ele>
      </trkpt>
      <trkpt lat="37.21508" lon="-4.84813">
        <ele>476.0</ele>
      </trkpt>
      <trkpt lat="37.21496" lon="-4.85192">
        <ele>480.0</ele>
      </trkpt>
      <trkpt lat="37.21458" lon="-4.85723">
        <ele>480.0</ele>
      </trkpt>
      <trkpt lat="37.21455" lon="-4.85884">
        <ele>480.0</ele>
      </trkpt>
      <trkpt lat="37.21464" lon="-4.85938">
        <ele>480.0</ele>
      </trkpt>
      <trkpt lat="37.21529" lon="-4.8613">
        <ele>480.0</ele>
      </trkpt>
      <trkpt lat="37.21695" lon="-4.86292">
        <ele>483.0</ele>
      </trkpt>
      <trkpt lat="37.21781" lon="-4.86352">
        <ele>485.0</ele>
      </trkpt>
      <trkpt lat="37.22003" lon="-4.86442">
        <ele>484.0</ele>
      </trkpt>
      <trkpt lat="37.2207" lon="-4.865">
        <ele>483.0</ele>
      </trkpt>
      <trkpt lat="37.221" lon="-4.8655">
        <ele>483.0</ele>
      </trkpt>
      <trkpt lat="37.22172" lon="-4.86752">
        <ele>483.0</ele>
      </trkpt>
      <trkpt lat="37.22192" lon="-4.86869">
        <ele>483.0</ele>
      </trkpt>
      <trkpt lat="37.22193" lon="-4.87243">
        <ele>484.0</ele>
      </trkpt>
      <trkpt lat="37.22245" lon="-4.87525">
        <ele>490.0</ele>
      </trkpt>
      <trkpt lat="37.22212" lon="-4.878">
        <ele>492.0</ele>
      </trkpt>
      <trkpt lat="37.22222" lon="-4.88002">
        <ele>494.0</ele>
      </trkpt>
      <trkpt lat="37.22183" lon="-4.88061">
        <ele>492.0</ele>
      </trkpt>
      <trkpt lat="37.22179" lon="-4.88162">
        <ele>490.0</ele>
      </trkpt>
      <trkpt lat="37.22237" lon="-4.88537">
        <ele>483.0</ele>
      </trkpt>
      <trkpt lat="37.22297" lon="-4.8876">
        <ele>476.0</ele>
      </trkpt>
      <trkpt lat="37.22325" lon="-4.89062">
        <ele>466.0</ele>
      </trkpt>
      <trkpt lat="37.22322" lon="-4.89166">
        <ele>463.0</ele>
      </trkpt>
      <trkpt lat="37.22278" lon="-4.89342">
        <ele>460.0</ele>
      </trkpt>
      <trkpt lat="37.22309" lon="-4.89358">
        <ele>459.0</ele>
      </trkpt>
      <trkpt lat="37.22768" lon="-4.89337">
        <ele>460.0</ele>
      </trkpt>
      <trkpt lat="37.22898" lon="-4.89308">
        <ele>461.0</ele>
      </trkpt>
      <trkpt lat="37.22975" lon="-4.89266">
        <ele>462.0</ele>
      </trkpt>
      <trkpt lat="37.22987" lon="-4.89272">
        <ele>462.0</ele>
      </trkpt>
      <trkpt lat="37.23044" lon="-4.89542">
        <ele>465.0</ele>
      </trkpt>
      <trkpt lat="37.23102" lon="-4.89717">
        <ele>467.0</ele>
      </trkpt>
      <trkpt lat="37.23148" lon="-4.89809">
        <ele>467.0</ele>
      </trkpt>
      <trkpt lat="37.23192" lon="-4.8986">
        <ele>465.0</ele>
      </trkpt>
      <trkpt lat="37.23284" lon="-4.9004">
        <ele>463.0</ele>
      </trkpt>
      <trkpt lat="37.23447" lon="-4.904">
        <ele>462.0</ele>
      </trkpt>
      <trkpt lat="37.23534" lon="-4.90526">
        <ele>462.0</ele>
      </trkpt>
      <trkpt lat="37.23703" lon="-4.90696">
        <ele>459.0</ele>
      </trkpt>
      <trkpt lat="37.23782" lon="-4.90795">
        <ele>458.0</ele>
      </trkpt>
      <trkpt lat="37.23995" lon="-4.91199">
        <ele>455.0</ele>
      </trkpt>
      <trkpt lat="37.24194" lon="-4.9145">
        <ele>451.0</ele>
      </trkpt>
      <trkpt lat="37.24277" lon="-4.91604">
        <ele>443.0</ele>
      </trkpt>
      <trkpt lat="37.24337" lon="-4.91829">
        <ele>432.0</ele>
      </trkpt>
      <trkpt lat="37.24351" lon="-4.92157">
        <ele>424.0</ele>
      </trkpt>
      <trkpt lat="37.24369" lon="-4.92268">
        <ele>420.0</ele>
      </trkpt>
      <trkpt lat="37.24415" lon="-4.92411">
        <ele>416.0</ele>
      </trkpt>
      <trkpt lat="37.24447" lon="-4.92451">
        <ele>416.0</ele>
      </trkpt>
      <trkpt lat="37.24464" lon="-4.92435">
        <ele>416.0</ele>
      </trkpt>
      <trkpt lat="37.24511" lon="-4.92318">
        <ele>418.0</ele>
      </trkpt>
      <trkpt lat="37.24598" lon="-4.92268">
        <ele>422.0</ele>
      </trkpt>
      <trkpt lat="37.24666" lon="-4.92209">
        <ele>425.0</ele>
      </trkpt>
      <trkpt lat="37.2482" lon="-4.92005">
        <ele>432.0</ele>
      </trkpt>
      <trkpt lat="37.2488" lon="-4.91908">
        <ele>437.0</ele>
      </trkpt>
      <trkpt lat="37.25077" lon="-4.91508">
        <ele>457.0</ele>
      </trkpt>
      <trkpt lat="37.25129" lon="-4.91376">
        <ele>462.0</ele>
      </trkpt>
      <trkpt lat="37.25263" lon="-4.91247">
        <ele>466.0</ele>
      </trkpt>
      <trkpt lat="37.25337" lon="-4.91153">
        <ele>467.0</ele>
      </trkpt>
      <trkpt lat="37.25381" lon="-4.90695">
        <ele>475.0</ele>
      </trkpt>
      <trkpt lat="37.254" lon="-4.90616">
        <ele>478.0</ele>
      </trkpt>
      <trkpt lat="37.25444" lon="-4.90516">
        <ele>483.0</ele>
      </trkpt>
      <trkpt lat="37.25653" lon="-4.90306">
        <ele>493.0</ele>
      </trkpt>
      <trkpt lat="37.25778" lon="-4.90215">
        <ele>504.0</ele>
      </trkpt>
      <trkpt lat="37.25874" lon="-4.90102">
        <ele>517.0</ele>
      </trkpt>
      <trkpt lat="37.26019" lon="-4.90062">
        <ele>528.0</ele>
      </trkpt>
      <trkpt lat="37.26136" lon="-4.89973">
        <ele>538.0</ele>
      </trkpt>
      <trkpt lat="37.26231" lon="-4.89962">
        <ele>541.0</ele>
      </trkpt>
      <trkpt lat="37.26789" lon="-4.90099">
        <ele>569.0</ele>
      </trkpt>
      <trkpt lat="37.27091" lon="-4.90099">
        <ele>589.0</ele>
      </trkpt>
      <trkpt lat="37.27265" lon="-4.89961">
        <ele>606.0</ele>
      </trkpt>
      <trkpt lat="37.27372" lon="-4.8983">
        <ele>614.0</ele>
      </trkpt>
      <trkpt lat="37.27429" lon="-4.89735">
        <ele>624.0</ele>
      </trkpt>
      <trkpt lat="37.27617" lon="-4.89727">
        <ele>635.0</ele>
      </trkpt>
      <trkpt lat="37.27719" lon="-4.89669">
        <ele>644.0</ele>
      </trkpt>
      <trkpt lat="37.27798" lon="-4.89726">
        <ele>649.0</ele>
      </trkpt>
      <trkpt lat="37.27886" lon="-4.89767">
        <ele>656.0</ele>
      </trkpt>
      <trkpt lat="37.27928" lon="-4.8982">
        <ele>660.0</ele>
      </trkpt>
      <trkpt lat="37.28134" lon="-4.89874">
        <ele>659.0</ele>
      </trkpt>
      <trkpt lat="37.28214" lon="-4.8993">
        <ele>644.0</ele>
      </trkpt>
      <trkpt lat="37.28232" lon="-4.8993">
        <ele>641.0</ele>
      </trkpt>
      <trkpt lat="37.28263" lon="-4.89902">
        <ele>637.0</ele>
      </trkpt>
      <trkpt lat="37.28358" lon="-4.89757">
        <ele>625.0</ele>
      </trkpt>
      <trkpt lat="37.28442" lon="-4.89704">
        <ele>615.0</ele>
      </trkpt>
      <trkpt lat="37.28495" lon="-4.89635">
        <ele>604.0</ele>
      </trkpt>
      <trkpt lat="37.28572" lon="-4.89591">
        <ele>598.0</ele>
      </trkpt>
      <trkpt lat="37.28581" lon="-4.89559">
        <ele>596.0</ele>
      </trkpt>
      <trkpt lat="37.28565" lon="-4.89414">
        <ele>590.0</ele>
      </trkpt>
      <trkpt lat="37.28621" lon="-4.89151">
        <ele>586.0</ele>
      </trkpt>
      <trkpt lat="37.28624" lon="-4.88968">
        <ele>585.0</ele>
      </trkpt>
      <trkpt lat="37.28696" lon="-4.88542">
        <ele>570.0</ele>
      </trkpt>
      <trkpt lat="37.28658" lon="-4.88363">
        <ele>565.0</ele>
      </trkpt>
      <trkpt lat="37.28571" lon="-4.88191">
        <ele>565.0</ele>
      </trkpt>
      <trkpt lat="37.28554" lon="-4.88036">
        <ele>567.0</ele>
      </trkpt>
      <trkpt lat="37.28572" lon="-4.87857">
        <ele>565.0</ele>
      </trkpt>
      <trkpt lat="37.28603" lon="-4.8775">
        <ele>558.0</ele>
      </trkpt>
      <trkpt lat="37.28614" lon="-4.87628">
        <ele>549.0</ele>
      </trkpt>
      <trkpt lat="37.28648" lon="-4.87516">
        <ele>540.0</ele>
      </trkpt>
      <trkpt lat="37.28659" lon="-4.87437">
        <ele>531.0</ele>
      </trkpt>
      <trkpt lat="37.2869" lon="-4.87359">
        <ele>527.0</ele>
      </trkpt>
      <trkpt lat="37.28801" lon="-4.87264">
        <ele>522.0</ele>
      </trkpt>
      <trkpt lat="37.28935" lon="-4.8718">
        <ele>506.0</ele>
      </trkpt>
      <trkpt lat="37.29038" lon="-4.8708">
        <ele>500.0</ele>
      </trkpt>
      <trkpt lat="37.29037" lon="-4.87044">
        <ele>495.0</ele>
      </trkpt>
      <trkpt lat="37.29098" lon="-4.87062">
        <ele>494.0</ele>
      </trkpt>
      <trkpt lat="37.29237" lon="-4.87261">
        <ele>493.0</ele>
      </trkpt>
      <trkpt lat="37.29407" lon="-4.87332">
        <ele>487.0</ele>
      </trkpt>
      <trkpt lat="37.29512" lon="-4.87331">
        <ele>473.0</ele>
      </trkpt>
      <trkpt lat="37.29599" lon="-4.87301">
        <ele>465.0</ele>
      </trkpt>
      <trkpt lat="37.29618" lon="-4.87266">
        <ele>460.0</ele>
      </trkpt>
      <trkpt lat="37.29626" lon="-4.87127">
        <ele>452.0</ele>
      </trkpt>
      <trkpt lat="37.297" lon="-4.86855">
        <ele>444.0</ele>
      </trkpt>
      <trkpt lat="37.29739" lon="-4.86753">
        <ele>437.0</ele>
      </trkpt>
      <trkpt lat="37.29787" lon="-4.867">
        <ele>432.0</ele>
      </trkpt>
      <trkpt lat="37.29939" lon="-4.86648">
        <ele>427.0</ele>
      </trkpt>
      <trkpt lat="37.30279" lon="-4.86498">
        <ele>418.0</ele>
      </trkpt>
      <trkpt lat="37.30455" lon="-4.86387">
        <ele>414.0</ele>
      </trkpt>
      <trkpt lat="37.3078" lon="-4.86244">
        <ele>404.0</ele>
      </trkpt>
      <trkpt lat="37.30933" lon="-4.86133">
        <ele>398.0</ele>
      </trkpt>
      <trkpt lat="37.31102" lon="-4.85966">
        <ele>393.0</ele>
      </trkpt>
      <trkpt lat="37.31302" lon="-4.85818">
        <ele>388.0</ele>
      </trkpt>
      <trkpt lat="37.31465" lon="-4.85728">
        <ele>383.0</ele>
      </trkpt>
      <trkpt lat="37.31614" lon="-4.85681">
        <ele>379.0</ele>
      </trkpt>
      <trkpt lat="37.31967" lon="-4.85608">
        <ele>371.0</ele>
      </trkpt>
      <trkpt lat="37.32077" lon="-4.8557">
        <ele>364.0</ele>
      </trkpt>
      <trkpt lat="37.3237" lon="-4.85406">
        <ele>346.0</ele>
      </trkpt>
      <trkpt lat="37.32723" lon="-4.85286">
        <ele>336.0</ele>
      </trkpt>
      <trkpt lat="37.32922" lon="-4.85247">
        <ele>326.0</ele>
      </trkpt>
      <trkpt lat="37.33416" lon="-4.85217">
        <ele>311.0</ele>
      </trkpt>
      <trkpt lat="37.33533" lon="-4.85194">
        <ele>309.0</ele>
      </trkpt>
      <trkpt lat="37.34517" lon="-4.84864">
        <ele>293.0</ele>
      </trkpt>
      <trkpt lat="37.34686" lon="-4.8479">
        <ele>284.0</ele>
      </trkpt>
      <trkpt lat="37.34714" lon="-4.84838">
        <ele>281.0</ele>
      </trkpt>
      <trkpt lat="37.34741" lon="-4.84848">
        <ele>280.0</ele>
      </trkpt>
      <trkpt lat="37.35189" lon="-4.84874">
        <ele>275.0</ele>
      </trkpt>
      <trkpt lat="37.35444" lon="-4.84916">
        <ele>263.0</ele>
      </trkpt>
      <trkpt lat="37.35874" lon="-4.84926">
        <ele>259.0</ele>
      </trkpt>
      <trkpt lat="37.36177" lon="-4.85007">
        <ele>252.0</ele>
      </trkpt>
      <trkpt lat="37.36148" lon="-4.84347">
        <ele>259.0</ele>
      </trkpt>
      <trkpt lat="37.3615" lon="-4.84159">
        <ele>266.0</ele>
      </trkpt>
      <trkpt lat="37.36162" lon="-4.84146">
        <ele>266.0</ele>
      </trkpt>
      <trkpt lat="37.36216" lon="-4.8383">
        <ele>271.0</ele>
      </trkpt>
      <trkpt lat="37.36313" lon="-4.83108">
        <ele>289.0</ele>
      </trkpt>
      <trkpt lat="37.36339" lon="-4.82751">
        <ele>286.0</ele>
      </trkpt>
      <trkpt lat="37.36306" lon="-4.8268">
        <ele>284.0</ele>
      </trkpt>
      <trkpt lat="37.36355" lon="-4.82559">
        <ele>286.0</ele>
      </trkpt>
      <trkpt lat="37.36455" lon="-4.82234">
        <ele>282.0</ele>
      </trkpt>
      <trkpt lat="37.36629" lon="-4.8177">
        <ele>285.0</ele>
      </trkpt>
      <trkpt lat="37.36865" lon="-4.80625">
        <ele>273.0</ele>
      </trkpt>
      <trkpt lat="37.37008" lon="-4.79424">
        <ele>252.0</ele>
      </trkpt>
      <trkpt lat="37.37057" lon="-4.79275">
        <ele>250.0</ele>
      </trkpt>
      <trkpt lat="37.37033" lon="-4.79178">
        <ele>249.0</ele>
      </trkpt>
      <trkpt lat="37.37048" lon="-4.78768">
        <ele>244.0</ele>
      </trkpt>
      <trkpt lat="37.3706" lon="-4.78514">
        <ele>241.0</ele>
      </trkpt>
      <trkpt lat="37.3709" lon="-4.78419">
        <ele>237.0</ele>
      </trkpt>
      <trkpt lat="37.37137" lon="-4.78359">
        <ele>236.0</ele>
      </trkpt>
      <trkpt lat="37.3724" lon="-4.78317">
        <ele>234.0</ele>
      </trkpt>
      <trkpt lat="37.37299" lon="-4.78324">
        <ele>233.0</ele>
      </trkpt>
      <trkpt lat="37.37385" lon="-4.78383">
        <ele>228.0</ele>
      </trkpt>
      <trkpt lat="37.37459" lon="-4.78372">
        <ele>222.0</ele>
      </trkpt>
      <trkpt lat="37.37519" lon="-4.78332">
        <ele>216.0</ele>
      </trkpt>
      <trkpt lat="37.37602" lon="-4.78194">
        <ele>206.0</ele>
      </trkpt>
      <trkpt lat="37.37646" lon="-4.78155">
        <ele>199.0</ele>
      </trkpt>
      <trkpt lat="37.37679" lon="-4.78156">
        <ele>196.0</ele>
      </trkpt>
      <trkpt lat="37.37728" lon="-4.78209">
        <ele>192.0</ele>
      </trkpt>
      <trkpt lat="37.37759" lon="-4.78218">
        <ele>189.0</ele>
      </trkpt>
      <trkpt lat="37.38012" lon="-4.78134">
        <ele>184.0</ele>
      </trkpt>
      <trkpt lat="37.38015" lon="-4.78118">
        <ele>178.0</ele>
      </trkpt>
      <trkpt lat="37.38224" lon="-4.78115">
        <ele>175.0</ele>
      </trkpt>
      <trkpt lat="37.38553" lon="-4.77995">
        <ele>172.0</ele>
      </trkpt>
      <trkpt lat="37.38682" lon="-4.77984">
        <ele>168.0</ele>
      </trkpt>
      <trkpt lat="37.38735" lon="-4.77933">
        <ele>164.0</ele>
      </trkpt>
      <trkpt lat="37.38741" lon="-4.77879">
        <ele>166.0</ele>
      </trkpt>
      <trkpt lat="37.38963" lon="-4.77887">
        <ele>176.0</ele>
      </trkpt>
      <trkpt lat="37.39088" lon="-4.77833">
        <ele>171.0</ele>
      </trkpt>
      <trkpt lat="37.39105" lon="-4.77775">
        <ele>170.0</ele>
      </trkpt>
      <trkpt lat="37.39222" lon="-4.77685">
        <ele>170.0</ele>
      </trkpt>
      <trkpt lat="37.39282" lon="-4.77545">
        <ele>173.0</ele>
      </trkpt>
      <trkpt lat="37.39275" lon="-4.77535">
        <ele>174.0</ele>
      </trkpt>
      <trkpt lat="37.39292" lon="-4.77483">
        <ele>175.0</ele>
      </trkpt>
      <trkpt lat="37.39336" lon="-4.77133">
        <ele>192.0</ele>
      </trkpt>
      <trkpt lat="37.39332" lon="-4.77085">
        <ele>195.0</ele>
      </trkpt>
      <trkpt lat="37.39283" lon="-4.76962">
        <ele>201.0</ele>
      </trkpt>
      <trkpt lat="37.39315" lon="-4.76814">
        <ele>213.0</ele>
      </trkpt>
      <trkpt lat="37.39321" lon="-4.76732">
        <ele>214.0</ele>
      </trkpt>
      <trkpt lat="37.39308" lon="-4.76596">
        <ele>216.0</ele>
      </trkpt>
      <trkpt lat="37.39323" lon="-4.76594">
        <ele>216.0</ele>
      </trkpt>
      <trkpt lat="37.39328" lon="-4.76612">
        <ele>216.0</ele>
      </trkpt>
      <trkpt lat="37.395" lon="-4.7652">
        <ele>215.0</ele>
      </trkpt>
      <trkpt lat="37.3974" lon="-4.76424">
        <ele>218.0</ele>
      </trkpt>
      <trkpt lat="37.3975" lon="-4.76398">
        <ele>219.0</ele>
      </trkpt>
      <trkpt lat="37.39776" lon="-4.76409">
        <ele>219.0</ele>
      </trkpt>
      <trkpt lat="37.39875" lon="-4.76363">
        <ele>219.0</ele>
      </trkpt>
      <trkpt lat="37.39901" lon="-4.76335">
        <ele>220.0</ele>
      </trkpt>
      <trkpt lat="37.39948" lon="-4.76327">
        <ele>220.0</ele>
      </trkpt>
      <trkpt lat="37.40136" lon="-4.76084">
        <ele>224.0</ele>
      </trkpt>
      <trkpt lat="37.40145" lon="-4.76037">
        <ele>225.0</ele>
      </trkpt>
      <trkpt lat="37.40186" lon="-4.76023">
        <ele>227.0</ele>
      </trkpt>
      <trkpt lat="37.40246" lon="-4.75964">
        <ele>229.0</ele>
      </trkpt>
      <trkpt lat="37.40405" lon="-4.75849">
        <ele>235.0</ele>
      </trkpt>
      <trkpt lat="37.40607" lon="-4.75607">
        <ele>246.0</ele>
      </trkpt>
      <trkpt lat="37.40626" lon="-4.75617">
        <ele>246.0</ele>
      </trkpt>
      <trkpt lat="37.40619" lon="-4.75734">
        <ele>241.0</ele>
      </trkpt>
      <trkpt lat="37.40662" lon="-4.75761">
        <ele>240.0</ele>
      </trkpt>
      <trkpt lat="37.4071" lon="-4.75769">
        <ele>238.0</ele>
      </trkpt>
      <trkpt lat="37.41192" lon="-4.75701">
        <ele>241.0</ele>
      </trkpt>
      <trkpt lat="37.41316" lon="-4.75645">
        <ele>244.0</ele>
      </trkpt>
      <trkpt lat="37.41407" lon="-4.75581">
        <ele>245.0</ele>
      </trkpt>
      <trkpt lat="37.41448" lon="-4.75565">
        <ele>246.0</ele>
      </trkpt>
      <trkpt lat="37.41523" lon="-4.75563">
        <ele>247.0</ele>
      </trkpt>
      <trkpt lat="37.4184" lon="-4.75612">
        <ele>250.0</ele>
      </trkpt>
      <trkpt lat="37.41858" lon="-4.75627">
        <ele>251.0</ele>
      </trkpt>
      <trkpt lat="37.4191" lon="-4.75731">
        <ele>253.0</ele>
      </trkpt>
      <trkpt lat="37.41934" lon="-4.75746">
        <ele>254.0</ele>
      </trkpt>
      <trkpt lat="37.42061" lon="-4.75767">
        <ele>254.0</ele>
      </trkpt>
      <trkpt lat="37.42361" lon="-4.75754">
        <ele>255.0</ele>
      </trkpt>
      <trkpt lat="37.43017" lon="-4.75864">
        <ele>261.0</ele>
      </trkpt>
      <trkpt lat="37.431" lon="-4.75839">
        <ele>263.0</ele>
      </trkpt>
      <trkpt lat="37.43376" lon="-4.75903">
        <ele>263.0</ele>
      </trkpt>
      <trkpt lat="37.43555" lon="-4.75881">
        <ele>266.0</ele>
      </trkpt>
      <trkpt lat="37.4375" lon="-4.75911">
        <ele>269.0</ele>
      </trkpt>
      <trkpt lat="37.43832" lon="-4.75942">
        <ele>269.0</ele>
      </trkpt>
      <trkpt lat="37.44061" lon="-4.7611">
        <ele>268.0</ele>
      </trkpt>
      <trkpt lat="37.44116" lon="-4.76215">
        <ele>267.0</ele>
      </trkpt>
      <trkpt lat="37.44183" lon="-4.76301">
        <ele>267.0</ele>
      </trkpt>
      <trkpt lat="37.44828" lon="-4.77019">
        <ele>257.0</ele>
      </trkpt>
      <trkpt lat="37.44905" lon="-4.77022">
        <ele>256.0</ele>
      </trkpt>
      <trkpt lat="37.45439" lon="-4.76955">
        <ele>256.0</ele>
      </trkpt>
      <trkpt lat="37.45792" lon="-4.77005">
        <ele>253.0</ele>
      </trkpt>
      <trkpt lat="37.45952" lon="-4.77112">
        <ele>251.0</ele>
      </trkpt>
      <trkpt lat="37.46134" lon="-4.77323">
        <ele>250.0</ele>
      </trkpt>
      <trkpt lat="37.4627" lon="-4.77398">
        <ele>243.0</ele>
      </trkpt>
      <trkpt lat="37.46299" lon="-4.77402">
        <ele>240.0</ele>
      </trkpt>
      <trkpt lat="37.46328" lon="-4.77385">
        <ele>238.0</ele>
      </trkpt>
      <trkpt lat="37.46428" lon="-4.77255">
        <ele>234.0</ele>
      </trkpt>
      <trkpt lat="37.46475" lon="-4.77171">
        <ele>229.0</ele>
      </trkpt>
      <trkpt lat="37.46534" lon="-4.77018">
        <ele>221.0</ele>
      </trkpt>
      <trkpt lat="37.46566" lon="-4.76818">
        <ele>216.0</ele>
      </trkpt>
      <trkpt lat="37.46578" lon="-4.76788">
        <ele>216.0</ele>
      </trkpt>
      <trkpt lat="37.46618" lon="-4.76751">
        <ele>217.0</ele>
      </trkpt>
      <trkpt lat="37.46686" lon="-4.76762">
        <ele>217.0</ele>
      </trkpt>
      <trkpt lat="37.47012" lon="-4.7698">
        <ele>224.0</ele>
      </trkpt>
      <trkpt lat="37.47069" lon="-4.76997">
        <ele>229.0</ele>
      </trkpt>
      <trkpt lat="37.474" lon="-4.76923">
        <ele>238.0</ele>
      </trkpt>
      <trkpt lat="37.47819" lon="-4.76587">
        <ele>254.0</ele>
      </trkpt>
      <trkpt lat="37.48124" lon="-4.76147">
        <ele>282.0</ele>
      </trkpt>
      <trkpt lat="37.48196" lon="-4.75954">
        <ele>291.0</ele>
      </trkpt>
      <trkpt lat="37.4842" lon="-4.75861">
        <ele>289.0</ele>
      </trkpt>
      <trkpt lat="37.48485" lon="-4.75799">
        <ele>284.0</ele>
      </trkpt>
      <trkpt lat="37.4852" lon="-4.75751">
        <ele>281.0</ele>
      </trkpt>
      <trkpt lat="37.48638" lon="-4.75511">
        <ele>272.0</ele>
      </trkpt>
      <trkpt lat="37.48703" lon="-4.75407">
        <ele>264.0</ele>
      </trkpt>
      <trkpt lat="37.48723" lon="-4.75395">
        <ele>262.0</ele>
      </trkpt>
      <trkpt lat="37.4882" lon="-4.75407">
        <ele>258.0</ele>
      </trkpt>
      <trkpt lat="37.49236" lon="-4.75546">
        <ele>241.0</ele>
      </trkpt>
      <trkpt lat="37.49401" lon="-4.75541">
        <ele>230.0</ele>
      </trkpt>
      <trkpt lat="37.4965" lon="-4.75737">
        <ele>221.0</ele>
      </trkpt>
      <trkpt lat="37.49732" lon="-4.75772">
        <ele>216.0</ele>
      </trkpt>
      <trkpt lat="37.49782" lon="-4.75812">
        <ele>213.0</ele>
      </trkpt>
      <trkpt lat="37.49921" lon="-4.75635">
        <ele>205.0</ele>
      </trkpt>
      <trkpt lat="37.4997" lon="-4.7562">
        <ele>204.0</ele>
      </trkpt>
      <trkpt lat="37.50448" lon="-4.758">
        <ele>210.0</ele>
      </trkpt>
      <trkpt lat="37.50467" lon="-4.75824">
        <ele>213.0</ele>
      </trkpt>
      <trkpt lat="37.50503" lon="-4.75952">
        <ele>218.0</ele>
      </trkpt>
      <trkpt lat="37.50554" lon="-4.75981">
        <ele>221.0</ele>
      </trkpt>
      <trkpt lat="37.50827" lon="-4.7587">
        <ele>234.0</ele>
      </trkpt>
      <trkpt lat="37.5094" lon="-4.75883">
        <ele>239.0</ele>
      </trkpt>
      <trkpt lat="37.51032" lon="-4.75917">
        <ele>245.0</ele>
      </trkpt>
      <trkpt lat="37.51161" lon="-4.75902">
        <ele>253.0</ele>
      </trkpt>
      <trkpt lat="37.51273" lon="-4.75945">
        <ele>257.0</ele>
      </trkpt>
      <trkpt lat="37.51334" lon="-4.75953">
        <ele>261.0</ele>
      </trkpt>
      <trkpt lat="37.51563" lon="-4.75946">
        <ele>267.0</ele>
      </trkpt>
      <trkpt lat="37.5168" lon="-4.75875">
        <ele>273.0</ele>
      </trkpt>
      <trkpt lat="37.51825" lon="-4.75867">
        <ele>274.0</ele>
      </trkpt>
      <trkpt lat="37.51882" lon="-4.75844">
        <ele>273.0</ele>
      </trkpt>
      <trkpt lat="37.51971" lon="-4.75866">
        <ele>272.0</ele>
      </trkpt>
      <trkpt lat="37.52079" lon="-4.75787">
        <ele>270.0</ele>
      </trkpt>
      <trkpt lat="37.52188" lon="-4.75782">
        <ele>267.0</ele>
      </trkpt>
      <trkpt lat="37.52344" lon="-4.75692">
        <ele>265.0</ele>
      </trkpt>
      <trkpt lat="37.52442" lon="-4.75669">
        <ele>267.0</ele>
      </trkpt>
      <trkpt lat="37.52561" lon="-4.75677">
        <ele>268.0</ele>
      </trkpt>
      <trkpt lat="37.52665" lon="-4.75613">
        <ele>268.0</ele>
      </trkpt>
      <trkpt lat="37.52878" lon="-4.75572">
        <ele>262.0</ele>
      </trkpt>
      <trkpt lat="37.52932" lon="-4.75525">
        <ele>257.0</ele>
      </trkpt>
      <trkpt lat="37.53013" lon="-4.75533">
        <ele>250.0</ele>
      </trkpt>
      <trkpt lat="37.53052" lon="-4.75516">
        <ele>249.0</ele>
      </trkpt>
      <trkpt lat="37.53104" lon="-4.75515">
        <ele>250.0</ele>
      </trkpt>
      <trkpt lat="37.53295" lon="-4.75443">
        <ele>252.0</ele>
      </trkpt>
      <trkpt lat="37.53426" lon="-4.75533">
        <ele>249.0</ele>
      </trkpt>
      <trkpt lat="37.53521" lon="-4.75628">
        <ele>245.0</ele>
      </trkpt>
      <trkpt lat="37.53652" lon="-4.75594">
        <ele>242.0</ele>
      </trkpt>
      <trkpt lat="37.53786" lon="-4.75596">
        <ele>241.0</ele>
      </trkpt>
      <trkpt lat="37.53863" lon="-4.75552">
        <ele>240.0</ele>
      </trkpt>
      <trkpt lat="37.5407" lon="-4.75553">
        <ele>235.0</ele>
      </trkpt>
      <trkpt lat="37.54249" lon="-4.75681">
        <ele>225.0</ele>
      </trkpt>
      <trkpt lat="37.54386" lon="-4.75713">
        <ele>221.0</ele>
      </trkpt>
      <trkpt lat="37.5444" lon="-4.75711">
        <ele>219.0</ele>
      </trkpt>
      <trkpt lat="37.54561" lon="-4.75644">
        <ele>215.0</ele>
      </trkpt>
      <trkpt lat="37.5472" lon="-4.75707">
        <ele>207.0</ele>
      </trkpt>
      <trkpt lat="37.55729" lon="-4.75912">
        <ele>174.0</ele>
      </trkpt>
      <trkpt lat="37.56208" lon="-4.75897">
        <ele>174.0</ele>
      </trkpt>
      <trkpt lat="37.56502" lon="-4.75479">
        <ele>184.0</ele>
      </trkpt>
      <trkpt lat="37.56533" lon="-4.75475">
        <ele>190.0</ele>
      </trkpt>
      <trkpt lat="37.56632" lon="-4.75501">
        <ele>197.0</ele>
      </trkpt>
      <trkpt lat="37.5666" lon="-4.7549">
        <ele>201.0</ele>
      </trkpt>
      <trkpt lat="37.57034" lon="-4.75207">
        <ele>209.0</ele>
      </trkpt>
      <trkpt lat="37.57159" lon="-4.75407">
        <ele>209.0</ele>
      </trkpt>
      <trkpt lat="37.57208" lon="-4.75444">
        <ele>212.0</ele>
      </trkpt>
      <trkpt lat="37.57278" lon="-4.75457">
        <ele>219.0</ele>
      </trkpt>
      <trkpt lat="37.57336" lon="-4.7544">
        <ele>224.0</ele>
      </trkpt>
      <trkpt lat="37.57424" lon="-4.75384">
        <ele>229.0</ele>
      </trkpt>
      <trkpt lat="37.57471" lon="-4.75385">
        <ele>232.0</ele>
      </trkpt>
      <trkpt lat="37.57565" lon="-4.75336">
        <ele>238.0</ele>
      </trkpt>
      <trkpt lat="37.5764" lon="-4.75318">
        <ele>246.0</ele>
      </trkpt>
      <trkpt lat="37.57678" lon="-4.75295">
        <ele>249.0</ele>
      </trkpt>
      <trkpt lat="37.57738" lon="-4.75217">
        <ele>252.0</ele>
      </trkpt>
      <trkpt lat="37.57804" lon="-4.75188">
        <ele>254.0</ele>
      </trkpt>
      <trkpt lat="37.57818" lon="-4.75199">
        <ele>256.0</ele>
      </trkpt>
      <trkpt lat="37.584" lon="-4.749">
        <ele>279.0</ele>
      </trkpt>
      <trkpt lat="37.58475" lon="-4.74799">
        <ele>279.0</ele>
      </trkpt>
      <trkpt lat="37.58503" lon="-4.74653">
        <ele>276.0</ele>
      </trkpt>
      <trkpt lat="37.58658" lon="-4.74349">
        <ele>270.0</ele>
      </trkpt>
      <trkpt lat="37.58711" lon="-4.74302">
        <ele>271.0</ele>
      </trkpt>
      <trkpt lat="37.58834" lon="-4.7424">
        <ele>280.0</ele>
      </trkpt>
      <trkpt lat="37.58867" lon="-4.74254">
        <ele>283.0</ele>
      </trkpt>
      <trkpt lat="37.58919" lon="-4.7432">
        <ele>288.0</ele>
      </trkpt>
      <trkpt lat="37.58941" lon="-4.74387">
        <ele>291.0</ele>
      </trkpt>
      <trkpt lat="37.58943" lon="-4.74472">
        <ele>295.0</ele>
      </trkpt>
      <trkpt lat="37.58954" lon="-4.7449">
        <ele>296.0</ele>
      </trkpt>
      <trkpt lat="37.58984" lon="-4.74499">
        <ele>299.0</ele>
      </trkpt>
      <trkpt lat="37.59162" lon="-4.74361">
        <ele>307.0</ele>
      </trkpt>
      <trkpt lat="37.59313" lon="-4.74142">
        <ele>325.0</ele>
      </trkpt>
      <trkpt lat="37.59346" lon="-4.74116">
        <ele>330.0</ele>
      </trkpt>
      <trkpt lat="37.59437" lon="-4.74111">
        <ele>331.0</ele>
      </trkpt>
      <trkpt lat="37.59624" lon="-4.74148">
        <ele>334.0</ele>
      </trkpt>
      <trkpt lat="37.59647" lon="-4.74136">
        <ele>334.0</ele>
      </trkpt>
      <trkpt lat="37.59675" lon="-4.7408">
        <ele>335.0</ele>
      </trkpt>
      <trkpt lat="37.59714" lon="-4.74123">
        <ele>337.0</ele>
      </trkpt>
      <trkpt lat="37.59864" lon="-4.741">
        <ele>339.0</ele>
      </trkpt>
      <trkpt lat="37.59992" lon="-4.74057">
        <ele>338.0</ele>
      </trkpt>
      <trkpt lat="37.60116" lon="-4.73987">
        <ele>341.0</ele>
      </trkpt>
      <trkpt lat="37.60249" lon="-4.73958">
        <ele>346.0</ele>
      </trkpt>
      <trkpt lat="37.60264" lon="-4.73943">
        <ele>349.0</ele>
      </trkpt>
      <trkpt lat="37.60276" lon="-4.73956">
        <ele>350.0</ele>
      </trkpt>
      <trkpt lat="37.60269" lon="-4.73975">
        <ele>351.0</ele>
      </trkpt>
      <trkpt lat="37.60464" lon="-4.74188">
        <ele>352.0</ele>
      </trkpt>
      <trkpt lat="37.6047" lon="-4.74252">
        <ele>350.0</ele>
      </trkpt>
      <trkpt lat="37.60434" lon="-4.74423">
        <ele>341.0</ele>
      </trkpt>
      <trkpt lat="37.60444" lon="-4.74497">
        <ele>336.0</ele>
      </trkpt>
      <trkpt lat="37.60416" lon="-4.74537">
        <ele>334.0</ele>
      </trkpt>
      <trkpt lat="37.60383" lon="-4.74643">
        <ele>325.0</ele>
      </trkpt>
      <trkpt lat="37.60393" lon="-4.74662">
        <ele>323.0</ele>
      </trkpt>
      <trkpt lat="37.60515" lon="-4.74727">
        <ele>317.0</ele>
      </trkpt>
      <trkpt lat="37.6053" lon="-4.74686">
        <ele>315.0</ele>
      </trkpt>
      <trkpt lat="37.60558" lon="-4.74654">
        <ele>314.0</ele>
      </trkpt>
      <trkpt lat="37.60692" lon="-4.7459">
        <ele>317.0</ele>
      </trkpt>
      <trkpt lat="37.60732" lon="-4.74558">
        <ele>319.0</ele>
      </trkpt>
      <trkpt lat="37.6082" lon="-4.74199">
        <ele>328.0</ele>
      </trkpt>
      <trkpt lat="37.60852" lon="-4.73919">
        <ele>328.0</ele>
      </trkpt>
      <trkpt lat="37.609" lon="-4.73883">
        <ele>324.0</ele>
      </trkpt>
      <trkpt lat="37.60966" lon="-4.73875">
        <ele>319.0</ele>
      </trkpt>
      <trkpt lat="37.60987" lon="-4.73855">
        <ele>316.0</ele>
      </trkpt>
      <trkpt lat="37.61103" lon="-4.73852">
        <ele>308.0</ele>
      </trkpt>
      <trkpt lat="37.61328" lon="-4.73663">
        <ele>292.0</ele>
      </trkpt>
      <trkpt lat="37.61343" lon="-4.7362">
        <ele>284.0</ele>
      </trkpt>
      <trkpt lat="37.61358" lon="-4.73622">
        <ele>283.0</ele>
      </trkpt>
      <trkpt lat="37.61422" lon="-4.73562">
        <ele>282.0</ele>
      </trkpt>
      <trkpt lat="37.61616" lon="-4.73517">
        <ele>283.0</ele>
      </trkpt>
      <trkpt lat="37.61772" lon="-4.73438">
        <ele>289.0</ele>
      </trkpt>
      <trkpt lat="37.61958" lon="-4.73434">
        <ele>290.0</ele>
      </trkpt>
      <trkpt lat="37.62087" lon="-4.73396">
        <ele>284.0</ele>
      </trkpt>
      <trkpt lat="37.62255" lon="-4.73267">
        <ele>286.0</ele>
      </trkpt>
      <trkpt lat="37.6231" lon="-4.73249">
        <ele>287.0</ele>
      </trkpt>
      <trkpt lat="37.62421" lon="-4.7316">
        <ele>283.0</ele>
      </trkpt>
      <trkpt lat="37.62567" lon="-4.73078">
        <ele>282.0</ele>
      </trkpt>
      <trkpt lat="37.62635" lon="-4.73014">
        <ele>282.0</ele>
      </trkpt>
      <trkpt lat="37.62842" lon="-4.72999">
        <ele>292.0</ele>
      </trkpt>
      <trkpt lat="37.62949" lon="-4.73042">
        <ele>297.0</ele>
      </trkpt>
      <trkpt lat="37.6318" lon="-4.731">
        <ele>301.0</ele>
      </trkpt>
      <trkpt lat="37.63241" lon="-4.73094">
        <ele>305.0</ele>
      </trkpt>
      <trkpt lat="37.63328" lon="-4.73063">
        <ele>310.0</ele>
      </trkpt>
      <trkpt lat="37.63587" lon="-4.73062">
        <ele>313.0</ele>
      </trkpt>
      <trkpt lat="37.63698" lon="-4.73066">
        <ele>313.0</ele>
      </trkpt>
      <trkpt lat="37.63905" lon="-4.73103">
        <ele>313.0</ele>
      </trkpt>
      <trkpt lat="37.6404" lon="-4.7301">
        <ele>316.0</ele>
      </trkpt>
      <trkpt lat="37.64272" lon="-4.72995">
        <ele>319.0</ele>
      </trkpt>
      <trkpt lat="37.64496" lon="-4.72904">
        <ele>316.0</ele>
      </trkpt>
      <trkpt lat="37.64576" lon="-4.72851">
        <ele>316.0</ele>
      </trkpt>
      <trkpt lat="37.64695" lon="-4.72802">
        <ele>318.0</ele>
      </trkpt>
      <trkpt lat="37.64848" lon="-4.72823">
        <ele>323.0</ele>
      </trkpt>
      <trkpt lat="37.64976" lon="-4.72811">
        <ele>328.0</ele>
      </trkpt>
      <trkpt lat="37.65331" lon="-4.72838">
        <ele>333.0</ele>
      </trkpt>
      <trkpt lat="37.65532" lon="-4.72918">
        <ele>334.0</ele>
      </trkpt>
      <trkpt lat="37.6568" lon="-4.73005">
        <ele>335.0</ele>
      </trkpt>
      <trkpt lat="37.66031" lon="-4.73055">
        <ele>336.0</ele>
      </trkpt>
      <trkpt lat="37.66228" lon="-4.73121">
        <ele>338.0</ele>
      </trkpt>
      <trkpt lat="37.66417" lon="-4.7306">
        <ele>342.0</ele>
      </trkpt>
      <trkpt lat="37.66484" lon="-4.73011">
        <ele>344.0</ele>
      </trkpt>
      <trkpt lat="37.66586" lon="-4.72893">
        <ele>341.0</ele>
      </trkpt>
      <trkpt lat="37.66737" lon="-4.72802">
        <ele>336.0</ele>
      </trkpt>
      <trkpt lat="37.66432" lon="-4.72054">
        <ele>336.0</ele>
      </trkpt>
      <trkpt lat="37.66419" lon="-4.71982">
        <ele>335.0</ele>
      </trkpt>
      <trkpt lat="37.66422" lon="-4.71609">
        <ele>333.0</ele>
      </trkpt>
      <trkpt lat="37.66391" lon="-4.71473">
        <ele>335.0</ele>
      </trkpt>
      <trkpt lat="37.6634" lon="-4.71385">
        <ele>337.0</ele>
      </trkpt>
      <trkpt lat="37.66282" lon="-4.71317">
        <ele>338.0</ele>
      </trkpt>
      <trkpt lat="37.66053" lon="-4.71109">
        <ele>342.0</ele>
      </trkpt>
      <trkpt lat="37.65932" lon="-4.71041">
        <ele>343.0</ele>
      </trkpt>
      <trkpt lat="37.65739" lon="-4.70979">
        <ele>344.0</ele>
      </trkpt>
      <trkpt lat="37.65592" lon="-4.70894">
        <ele>345.0</ele>
      </trkpt>
      <trkpt lat="37.65422" lon="-4.70769">
        <ele>343.0</ele>
      </trkpt>
      <trkpt lat="37.65203" lon="-4.70746">
        <ele>341.0</ele>
      </trkpt>
      <trkpt lat="37.6514" lon="-4.7072">
        <ele>343.0</ele>
      </trkpt>
      <trkpt lat="37.6498" lon="-4.70581">
        <ele>349.0</ele>
      </trkpt>
      <trkpt lat="37.64909" lon="-4.70423">
        <ele>355.0</ele>
      </trkpt>
      <trkpt lat="37.64868" lon="-4.70249">
        <ele>370.0</ele>
      </trkpt>
      <trkpt lat="37.64804" lon="-4.70219">
        <ele>371.0</ele>
      </trkpt>
      <trkpt lat="37.64679" lon="-4.7012">
        <ele>364.0</ele>
      </trkpt>
      <trkpt lat="37.64644" lon="-4.70106">
        <ele>361.0</ele>
      </trkpt>
      <trkpt lat="37.64594" lon="-4.70043">
        <ele>357.0</ele>
      </trkpt>
      <trkpt lat="37.64489" lon="-4.69955">
        <ele>352.0</ele>
      </trkpt>
      <trkpt lat="37.64157" lon="-4.70102">
        <ele>342.0</ele>
      </trkpt>
      <trkpt lat="37.64129" lon="-4.70137">
        <ele>342.0</ele>
      </trkpt>
      <trkpt lat="37.64074" lon="-4.70134">
        <ele>343.0</ele>
      </trkpt>
      <trkpt lat="37.63554" lon="-4.70208">
        <ele>346.0</ele>
      </trkpt>
      <trkpt lat="37.62855" lon="-4.7001">
        <ele>355.0</ele>
      </trkpt>
      <trkpt lat="37.61984" lon="-4.69824">
        <ele>369.0</ele>
      </trkpt>
      <trkpt lat="37.61924" lon="-4.69798">
        <ele>371.0</ele>
      </trkpt>
      <trkpt lat="37.61849" lon="-4.69722">
        <ele>371.0</ele>
      </trkpt>
      <trkpt lat="37.61752" lon="-4.69533">
        <ele>367.0</ele>
      </trkpt>
      <trkpt lat="37.6166" lon="-4.6941">
        <ele>362.0</ele>
      </trkpt>
      <trkpt lat="37.61434" lon="-4.69231">
        <ele>346.0</ele>
      </trkpt>
      <trkpt lat="37.61365" lon="-4.69203">
        <ele>339.0</ele>
      </trkpt>
      <trkpt lat="37.61344" lon="-4.69114">
        <ele>338.0</ele>
      </trkpt>
      <trkpt lat="37.60891" lon="-4.68387">
        <ele>339.0</ele>
      </trkpt>
      <trkpt lat="37.60766" lon="-4.6817">
        <ele>341.0</ele>
      </trkpt>
      <trkpt lat="37.60501" lon="-4.67327">
        <ele>336.0</ele>
      </trkpt>
      <trkpt lat="37.6043" lon="-4.67225">
        <ele>336.0</ele>
      </trkpt>
      <trkpt lat="37.60337" lon="-4.67164">
        <ele>337.0</ele>
      </trkpt>
      <trkpt lat="37.60239" lon="-4.67145">
        <ele>338.0</ele>
      </trkpt>
      <trkpt lat="37.60011" lon="-4.67159">
        <ele>341.0</ele>
      </trkpt>
      <trkpt lat="37.59907" lon="-4.67127">
        <ele>343.0</ele>
      </trkpt>
      <trkpt lat="37.59861" lon="-4.67088">
        <ele>346.0</ele>
      </trkpt>
      <trkpt lat="37.59821" lon="-4.67044">
        <ele>348.0</ele>
      </trkpt>
      <trkpt lat="37.59767" lon="-4.66928">
        <ele>349.0</ele>
      </trkpt>
      <trkpt lat="37.5958" lon="-4.66442">
        <ele>352.0</ele>
      </trkpt>
      <trkpt lat="37.59513" lon="-4.66341">
        <ele>355.0</ele>
      </trkpt>
      <trkpt lat="37.59371" lon="-4.66241">
        <ele>355.0</ele>
      </trkpt>
      <trkpt lat="37.58825" lon="-4.66051">
        <ele>351.0</ele>
      </trkpt>
      <trkpt lat="37.5865" lon="-4.66025">
        <ele>352.0</ele>
      </trkpt>
      <trkpt lat="37.58091" lon="-4.65994">
        <ele>354.0</ele>
      </trkpt>
      <trkpt lat="37.57766" lon="-4.6591">
        <ele>349.0</ele>
      </trkpt>
      <trkpt lat="37.57708" lon="-4.65914">
        <ele>348.0</ele>
      </trkpt>
      <trkpt lat="37.57684" lon="-4.65924">
        <ele>348.0</ele>
      </trkpt>
      <trkpt lat="37.5766" lon="-4.65958">
        <ele>348.0</ele>
      </trkpt>
      <trkpt lat="37.5764" lon="-4.65951">
        <ele>348.0</ele>
      </trkpt>
      <trkpt lat="37.57641" lon="-4.65918">
        <ele>348.0</ele>
      </trkpt>
      <trkpt lat="37.57672" lon="-4.65899">
        <ele>348.0</ele>
      </trkpt>
      <trkpt lat="37.57706" lon="-4.65845">
        <ele>349.0</ele>
      </trkpt>
      <trkpt lat="37.57718" lon="-4.65786">
        <ele>352.0</ele>
      </trkpt>
      <trkpt lat="37.57752" lon="-4.65759">
        <ele>354.0</ele>
      </trkpt>
      <trkpt lat="37.57875" lon="-4.65468">
        <ele>360.0</ele>
      </trkpt>
      <trkpt lat="37.57917" lon="-4.65271">
        <ele>364.0</ele>
      </trkpt>
      <trkpt lat="37.57907" lon="-4.65218">
        <ele>367.0</ele>
      </trkpt>
      <trkpt lat="37.57929" lon="-4.65193">
        <ele>368.0</ele>
      </trkpt>
      <trkpt lat="37.58127" lon="-4.64602">
        <ele>378.0</ele>
      </trkpt>
      <trkpt lat="37.58155" lon="-4.64545">
        <ele>380.0</ele>
      </trkpt>
      <trkpt lat="37.58286" lon="-4.64363">
        <ele>384.0</ele>
      </trkpt>
      <trkpt lat="37.58451" lon="-4.64198">
        <ele>383.0</ele>
      </trkpt>
      <trkpt lat="37.58579" lon="-4.6402">
        <ele>382.0</ele>
      </trkpt>
      <trkpt lat="37.5875" lon="-4.63913">
        <ele>385.0</ele>
      </trkpt>
      <trkpt lat="37.58901" lon="-4.63845">
        <ele>386.0</ele>
      </trkpt>
      <trkpt lat="37.59015" lon="-4.63814">
        <ele>386.0</ele>
      </trkpt>
      <trkpt lat="37.59035" lon="-4.63752">
        <ele>385.0</ele>
      </trkpt>
      <trkpt lat="37.59072" lon="-4.6369">
        <ele>384.0</ele>
      </trkpt>
      <trkpt lat="37.58955" lon="-4.63459">
        <ele>366.0</ele>
      </trkpt>
      <trkpt lat="37.58894" lon="-4.63292">
        <ele>348.0</ele>
      </trkpt>
      <trkpt lat="37.58802" lon="-4.63187">
        <ele>339.0</ele>
      </trkpt>
      <trkpt lat="37.58219" lon="-4.63322">
        <ele>338.0</ele>
      </trkpt>
      <trkpt lat="37.57909" lon="-4.63451">
        <ele>339.0</ele>
      </trkpt>
      <trkpt lat="37.57907" lon="-4.6348">
        <ele>339.0</ele>
      </trkpt>
      <trkpt lat="37.58047" lon="-4.63881">
        <ele>357.0</ele>
      </trkpt>
      <trkpt lat="37.58095" lon="-4.63922">
        <ele>365.0</ele>
      </trkpt>
      <trkpt lat="37.58138" lon="-4.63916">
        <ele>367.0</ele>
      </trkpt>
      <trkpt lat="37.5816" lon="-4.64001">
        <ele>370.0</ele>
      </trkpt>
      <trkpt lat="37.58245" lon="-4.64212">
        <ele>379.0</ele>
      </trkpt>
      <trkpt lat="37.58272" lon="-4.64363">
        <ele>383.0</ele>
      </trkpt>
      <trkpt lat="37.58262" lon="-4.64379">
        <ele>384.0</ele>
      </trkpt>
      <trkpt lat="37.57912" lon="-4.64541">
        <ele>378.0</ele>
      </trkpt>
      <trkpt lat="37.57912" lon="-4.64563">
        <ele>378.0</ele>
      </trkpt>
      <trkpt lat="37.57879" lon="-4.64609">
        <ele>378.0</ele>
      </trkpt>
      <trkpt lat="37.57629" lon="-4.64922">
        <ele>377.0</ele>
      </trkpt>
      <trkpt lat="37.57612" lon="-4.64919">
        <ele>375.0</ele>
      </trkpt>
      <trkpt lat="37.57603" lon="-4.64938">
        <ele>375.0</ele>
      </trkpt>
      <trkpt lat="37.57149" lon="-4.65032">
        <ele>368.0</ele>
      </trkpt>
      <trkpt lat="37.56945" lon="-4.65025">
        <ele>356.0</ele>
      </trkpt>
      <trkpt lat="37.56887" lon="-4.65095">
        <ele>353.0</ele>
      </trkpt>
      <trkpt lat="37.56856" lon="-4.65111">
        <ele>352.0</ele>
      </trkpt>
      <trkpt lat="37.56773" lon="-4.65069">
        <ele>350.0</ele>
      </trkpt>
      <trkpt lat="37.56722" lon="-4.651">
        <ele>347.0</ele>
      </trkpt>
      <trkpt lat="37.56676" lon="-4.65094">
        <ele>345.0</ele>
      </trkpt>
      <trkpt lat="37.56637" lon="-4.65021">
        <ele>342.0</ele>
      </trkpt>
      <trkpt lat="37.56555" lon="-4.65002">
        <ele>342.0</ele>
      </trkpt>
      <trkpt lat="37.5631" lon="-4.65066">
        <ele>341.0</ele>
      </trkpt>
      <trkpt lat="37.56065" lon="-4.65171">
        <ele>339.0</ele>
      </trkpt>
      <trkpt lat="37.5531" lon="-4.65357">
        <ele>319.0</ele>
      </trkpt>
      <trkpt lat="37.548" lon="-4.65251">
        <ele>307.0</ele>
      </trkpt>
      <trkpt lat="37.54525" lon="-4.6521">
        <ele>290.0</ele>
      </trkpt>
      <trkpt lat="37.54154" lon="-4.65115">
        <ele>276.0</ele>
      </trkpt>
      <trkpt lat="37.53987" lon="-4.65041">
        <ele>266.0</ele>
      </trkpt>
      <trkpt lat="37.53956" lon="-4.65059">
        <ele>262.0</ele>
      </trkpt>
      <trkpt lat="37.5392" lon="-4.65154">
        <ele>259.0</ele>
      </trkpt>
      <trkpt lat="37.53885" lon="-4.6519">
        <ele>258.0</ele>
      </trkpt>
      <trkpt lat="37.53705" lon="-4.65278">
        <ele>256.0</ele>
      </trkpt>
      <trkpt lat="37.53671" lon="-4.65321">
        <ele>253.0</ele>
      </trkpt>
      <trkpt lat="37.53634" lon="-4.65313">
        <ele>252.0</ele>
      </trkpt>
      <trkpt lat="37.53452" lon="-4.65381">
        <ele>250.0</ele>
      </trkpt>
      <trkpt lat="37.5325" lon="-4.65342">
        <ele>254.0</ele>
      </trkpt>
      <trkpt lat="37.53179" lon="-4.65341">
        <ele>259.0</ele>
      </trkpt>
      <trkpt lat="37.53127" lon="-4.65355">
        <ele>262.0</ele>
      </trkpt>
      <trkpt lat="37.53022" lon="-4.65419">
        <ele>268.0</ele>
      </trkpt>
      <trkpt lat="37.52877" lon="-4.65465">
        <ele>282.0</ele>
      </trkpt>
      <trkpt lat="37.52851" lon="-4.65451">
        <ele>283.0</ele>
      </trkpt>
      <trkpt lat="37.5255" lon="-4.65442">
        <ele>289.0</ele>
      </trkpt>
      <trkpt lat="37.52436" lon="-4.65421">
        <ele>294.0</ele>
      </trkpt>
      <trkpt lat="37.52324" lon="-4.65371">
        <ele>297.0</ele>
      </trkpt>
      <trkpt lat="37.52302" lon="-4.65384">
        <ele>301.0</ele>
      </trkpt>
      <trkpt lat="37.52276" lon="-4.65343">
        <ele>302.0</ele>
      </trkpt>
      <trkpt lat="37.52206" lon="-4.65294">
        <ele>305.0</ele>
      </trkpt>
      <trkpt lat="37.5205" lon="-4.65243">
        <ele>312.0</ele>
      </trkpt>
      <trkpt lat="37.51735" lon="-4.65277">
        <ele>328.0</ele>
      </trkpt>
      <trkpt lat="37.51581" lon="-4.65345">
        <ele>344.0</ele>
      </trkpt>
      <trkpt lat="37.51477" lon="-4.65336">
        <ele>351.0</ele>
      </trkpt>
      <trkpt lat="37.51351" lon="-4.65146">
        <ele>359.0</ele>
      </trkpt>
      <trkpt lat="37.51306" lon="-4.65101">
        <ele>366.0</ele>
      </trkpt>
      <trkpt lat="37.51214" lon="-4.65081">
        <ele>368.0</ele>
      </trkpt>
      <trkpt lat="37.5111" lon="-4.65095">
        <ele>366.0</ele>
      </trkpt>
      <trkpt lat="37.50632" lon="-4.64246">
        <ele>369.0</ele>
      </trkpt>
      <trkpt lat="37.50512" lon="-4.64069">
        <ele>376.0</ele>
      </trkpt>
      <trkpt lat="37.50457" lon="-4.64059">
        <ele>381.0</ele>
      </trkpt>
      <trkpt lat="37.50436" lon="-4.64039">
        <ele>382.0</ele>
      </trkpt>
      <trkpt lat="37.50423" lon="-4.63936">
        <ele>385.0</ele>
      </trkpt>
      <trkpt lat="37.50354" lon="-4.63769">
        <ele>389.0</ele>
      </trkpt>
      <trkpt lat="37.50267" lon="-4.63614">
        <ele>388.0</ele>
      </trkpt>
      <trkpt lat="37.50066" lon="-4.63373">
        <ele>376.0</ele>
      </trkpt>
      <trkpt lat="37.50021" lon="-4.63302">
        <ele>372.0</ele>
      </trkpt>
      <trkpt lat="37.49773" lon="-4.62835">
        <ele>355.0</ele>
      </trkpt>
      <trkpt lat="37.49708" lon="-4.62643">
        <ele>342.0</ele>
      </trkpt>
      <trkpt lat="37.49201" lon="-4.61549">
        <ele>317.0</ele>
      </trkpt>
      <trkpt lat="37.49146" lon="-4.61412">
        <ele>306.0</ele>
      </trkpt>
      <trkpt lat="37.49124" lon="-4.61314">
        <ele>300.0</ele>
      </trkpt>
      <trkpt lat="37.49105" lon="-4.607">
        <ele>300.0</ele>
      </trkpt>
      <trkpt lat="37.49083" lon="-4.60611">
        <ele>298.0</ele>
      </trkpt>
      <trkpt lat="37.48986" lon="-4.60382">
        <ele>295.0</ele>
      </trkpt>
      <trkpt lat="37.48945" lon="-4.60093">
        <ele>295.0</ele>
      </trkpt>
      <trkpt lat="37.4891" lon="-4.59982">
        <ele>295.0</ele>
      </trkpt>
      <trkpt lat="37.48841" lon="-4.59882">
        <ele>296.0</ele>
      </trkpt>
      <trkpt lat="37.48766" lon="-4.59822">
        <ele>297.0</ele>
      </trkpt>
      <trkpt lat="37.48349" lon="-4.59588">
        <ele>298.0</ele>
      </trkpt>
      <trkpt lat="37.48044" lon="-4.59487">
        <ele>301.0</ele>
      </trkpt>
      <trkpt lat="37.47869" lon="-4.5937">
        <ele>299.0</ele>
      </trkpt>
      <trkpt lat="37.47819" lon="-4.593">
        <ele>298.0</ele>
      </trkpt>
      <trkpt lat="37.47677" lon="-4.58994">
        <ele>298.0</ele>
      </trkpt>
      <trkpt lat="37.47645" lon="-4.58887">
        <ele>300.0</ele>
      </trkpt>
      <trkpt lat="37.47577" lon="-4.58126">
        <ele>305.0</ele>
      </trkpt>
      <trkpt lat="37.47602" lon="-4.579">
        <ele>305.0</ele>
      </trkpt>
      <trkpt lat="37.47593" lon="-4.57831">
        <ele>306.0</ele>
      </trkpt>
      <trkpt lat="37.47568" lon="-4.5777">
        <ele>307.0</ele>
      </trkpt>
      <trkpt lat="37.47327" lon="-4.57514">
        <ele>308.0</ele>
      </trkpt>
      <trkpt lat="37.47163" lon="-4.57217">
        <ele>307.0</ele>
      </trkpt>
      <trkpt lat="37.46683" lon="-4.56739">
        <ele>314.0</ele>
      </trkpt>
      <trkpt lat="37.46625" lon="-4.56718">
        <ele>320.0</ele>
      </trkpt>
      <trkpt lat="37.46596" lon="-4.56654">
        <ele>322.0</ele>
      </trkpt>
      <trkpt lat="37.46502" lon="-4.5655">
        <ele>324.0</ele>
      </trkpt>
      <trkpt lat="37.46203" lon="-4.56271">
        <ele>328.0</ele>
      </trkpt>
      <trkpt lat="37.46046" lon="-4.56103">
        <ele>333.0</ele>
      </trkpt>
      <trkpt lat="37.45929" lon="-4.55895">
        <ele>341.0</ele>
      </trkpt>
      <trkpt lat="37.45162" lon="-4.55318">
        <ele>356.0</ele>
      </trkpt>
      <trkpt lat="37.44935" lon="-4.55162">
        <ele>384.0</ele>
      </trkpt>
      <trkpt lat="37.4477" lon="-4.55103">
        <ele>397.0</ele>
      </trkpt>
      <trkpt lat="37.44509" lon="-4.55116">
        <ele>401.0</ele>
      </trkpt>
      <trkpt lat="37.44418" lon="-4.55068">
        <ele>402.0</ele>
      </trkpt>
      <trkpt lat="37.43815" lon="-4.54442">
        <ele>415.0</ele>
      </trkpt>
      <trkpt lat="37.4368" lon="-4.54277">
        <ele>424.0</ele>
      </trkpt>
      <trkpt lat="37.43561" lon="-4.54078">
        <ele>428.0</ele>
      </trkpt>
      <trkpt lat="37.43373" lon="-4.53867">
        <ele>435.0</ele>
      </trkpt>
      <trkpt lat="37.43176" lon="-4.53742">
        <ele>438.0</ele>
      </trkpt>
      <trkpt lat="37.43045" lon="-4.53627">
        <ele>439.0</ele>
      </trkpt>
      <trkpt lat="37.42952" lon="-4.53533">
        <ele>435.0</ele>
      </trkpt>
      <trkpt lat="37.4276" lon="-4.533">
        <ele>427.0</ele>
      </trkpt>
      <trkpt lat="37.42501" lon="-4.52909">
        <ele>419.0</ele>
      </trkpt>
      <trkpt lat="37.41996" lon="-4.51772">
        <ele>432.0</ele>
      </trkpt>
      <trkpt lat="37.41953" lon="-4.51658">
        <ele>436.0</ele>
      </trkpt>
      <trkpt lat="37.41913" lon="-4.51447">
        <ele>440.0</ele>
      </trkpt>
      <trkpt lat="37.41883" lon="-4.51362">
        <ele>443.0</ele>
      </trkpt>
      <trkpt lat="37.41827" lon="-4.51284">
        <ele>445.0</ele>
      </trkpt>
      <trkpt lat="37.41673" lon="-4.51129">
        <ele>447.0</ele>
      </trkpt>
      <trkpt lat="37.41622" lon="-4.51043">
        <ele>446.0</ele>
      </trkpt>
      <trkpt lat="37.41604" lon="-4.50927">
        <ele>445.0</ele>
      </trkpt>
      <trkpt lat="37.41622" lon="-4.50764">
        <ele>445.0</ele>
      </trkpt>
      <trkpt lat="37.41617" lon="-4.50653">
        <ele>445.0</ele>
      </trkpt>
      <trkpt lat="37.4155" lon="-4.5043">
        <ele>442.0</ele>
      </trkpt>
      <trkpt lat="37.41529" lon="-4.50312">
        <ele>440.0</ele>
      </trkpt>
      <trkpt lat="37.41518" lon="-4.503">
        <ele>439.0</ele>
      </trkpt>
      <trkpt lat="37.41484" lon="-4.5031">
        <ele>439.0</ele>
      </trkpt>
      <trkpt lat="37.41454" lon="-4.50294">
        <ele>438.0</ele>
      </trkpt>
      <trkpt lat="37.41439" lon="-4.50267">
        <ele>438.0</ele>
      </trkpt>
      <trkpt lat="37.41444" lon="-4.50205">
        <ele>437.0</ele>
      </trkpt>
      <trkpt lat="37.41432" lon="-4.5018">
        <ele>436.0</ele>
      </trkpt>
      <trkpt lat="37.41392" lon="-4.50167">
        <ele>435.0</ele>
      </trkpt>
      <trkpt lat="37.41272" lon="-4.50168">
        <ele>434.0</ele>
      </trkpt>
      <trkpt lat="37.41092" lon="-4.50233">
        <ele>441.0</ele>
      </trkpt>
      <trkpt lat="37.41002" lon="-4.50245">
        <ele>447.0</ele>
      </trkpt>
      <trkpt lat="37.40783" lon="-4.50159">
        <ele>466.0</ele>
      </trkpt>
      <trkpt lat="37.40719" lon="-4.50172">
        <ele>473.0</ele>
      </trkpt>
      <trkpt lat="37.40673" lon="-4.50124">
        <ele>477.0</ele>
      </trkpt>
      <trkpt lat="37.40486" lon="-4.50122">
        <ele>485.0</ele>
      </trkpt>
      <trkpt lat="37.40363" lon="-4.50161">
        <ele>489.0</ele>
      </trkpt>
      <trkpt lat="37.40179" lon="-4.50247">
        <ele>504.0</ele>
      </trkpt>
      <trkpt lat="37.40151" lon="-4.50279">
        <ele>504.0</ele>
      </trkpt>
      <trkpt lat="37.40131" lon="-4.50273">
        <ele>504.0</ele>
      </trkpt>
      <trkpt lat="37.39956" lon="-4.50356">
        <ele>501.0</ele>
      </trkpt>
      <trkpt lat="37.39825" lon="-4.50376">
        <ele>499.0</ele>
      </trkpt>
      <trkpt lat="37.39779" lon="-4.50406">
        <ele>497.0</ele>
      </trkpt>
      <trkpt lat="37.39719" lon="-4.50381">
        <ele>495.0</ele>
      </trkpt>
      <trkpt lat="37.39607" lon="-4.50392">
        <ele>493.0</ele>
      </trkpt>
      <trkpt lat="37.39369" lon="-4.50511">
        <ele>488.0</ele>
      </trkpt>
      <trkpt lat="37.39295" lon="-4.50527">
        <ele>487.0</ele>
      </trkpt>
      <trkpt lat="37.39218" lon="-4.50523">
        <ele>488.0</ele>
      </trkpt>
      <trkpt lat="37.39173" lon="-4.50539">
        <ele>489.0</ele>
      </trkpt>
      <trkpt lat="37.39126" lon="-4.50485">
        <ele>491.0</ele>
      </trkpt>
      <trkpt lat="37.38768" lon="-4.503">
        <ele>501.0</ele>
      </trkpt>
      <trkpt lat="37.38579" lon="-4.50254">
        <ele>508.0</ele>
      </trkpt>
      <trkpt lat="37.38517" lon="-4.50272">
        <ele>515.0</ele>
      </trkpt>
      <trkpt lat="37.384" lon="-4.50207">
        <ele>521.0</ele>
      </trkpt>
      <trkpt lat="37.38215" lon="-4.50072">
        <ele>529.0</ele>
      </trkpt>
      <trkpt lat="37.38108" lon="-4.49945">
        <ele>531.0</ele>
      </trkpt>
      <trkpt lat="37.38082" lon="-4.49947">
        <ele>531.0</ele>
      </trkpt>
      <trkpt lat="37.38077" lon="-4.49909">
        <ele>531.0</ele>
      </trkpt>
      <trkpt lat="37.38052" lon="-4.49887">
        <ele>531.0</ele>
      </trkpt>
      <trkpt lat="37.3781" lon="-4.4977">
        <ele>536.0</ele>
      </trkpt>
      <trkpt lat="37.37656" lon="-4.49655">
        <ele>538.0</ele>
      </trkpt>
      <trkpt lat="37.37446" lon="-4.49453">
        <ele>546.0</ele>
      </trkpt>
      <trkpt lat="37.37127" lon="-4.49064">
        <ele>556.0</ele>
      </trkpt>
      <trkpt lat="37.3678" lon="-4.489">
        <ele>554.0</ele>
      </trkpt>
      <trkpt lat="37.36285" lon="-4.48738">
        <ele>538.0</ele>
      </trkpt>
      <trkpt lat="37.36223" lon="-4.48729">
        <ele>531.0</ele>
      </trkpt>
      <trkpt lat="37.36111" lon="-4.48753">
        <ele>527.0</ele>
      </trkpt>
      <trkpt lat="37.36066" lon="-4.488">
        <ele>523.0</ele>
      </trkpt>
      <trkpt lat="37.35995" lon="-4.4878">
        <ele>521.0</ele>
      </trkpt>
      <trkpt lat="37.3553" lon="-4.48899">
        <ele>512.0</ele>
      </trkpt>
      <trkpt lat="37.35139" lon="-4.48845">
        <ele>503.0</ele>
      </trkpt>
      <trkpt lat="37.34737" lon="-4.48854">
        <ele>495.0</ele>
      </trkpt>
      <trkpt lat="37.3449" lon="-4.48767">
        <ele>485.0</ele>
      </trkpt>
      <trkpt lat="37.34285" lon="-4.48609">
        <ele>482.0</ele>
      </trkpt>
      <trkpt lat="37.34253" lon="-4.48599">
        <ele>477.0</ele>
      </trkpt>
      <trkpt lat="37.34247" lon="-4.48583">
        <ele>475.0</ele>
      </trkpt>
      <trkpt lat="37.34259" lon="-4.48547">
        <ele>473.0</ele>
      </trkpt>
      <trkpt lat="37.34216" lon="-4.48309">
        <ele>468.0</ele>
      </trkpt>
      <trkpt lat="37.34169" lon="-4.48139">
        <ele>464.0</ele>
      </trkpt>
      <trkpt lat="37.34164" lon="-4.48033">
        <ele>462.0</ele>
      </trkpt>
      <trkpt lat="37.34138" lon="-4.47931">
        <ele>461.0</ele>
      </trkpt>
      <trkpt lat="37.3412" lon="-4.47776">
        <ele>459.0</ele>
      </trkpt>
      <trkpt lat="37.3408" lon="-4.47699">
        <ele>456.0</ele>
      </trkpt>
      <trkpt lat="37.34053" lon="-4.47569">
        <ele>452.0</ele>
      </trkpt>
      <trkpt lat="37.3397" lon="-4.47437">
        <ele>450.0</ele>
      </trkpt>
      <trkpt lat="37.33928" lon="-4.47272">
        <ele>448.0</ele>
      </trkpt>
      <trkpt lat="37.33886" lon="-4.47178">
        <ele>445.0</ele>
      </trkpt>
      <trkpt lat="37.33839" lon="-4.47109">
        <ele>443.0</ele>
      </trkpt>
      <trkpt lat="37.33734" lon="-4.46807">
        <ele>440.0</ele>
      </trkpt>
      <trkpt lat="37.33733" lon="-4.4676">
        <ele>440.0</ele>
      </trkpt>
      <trkpt lat="37.33796" lon="-4.46456">
        <ele>443.0</ele>
      </trkpt>
      <trkpt lat="37.338" lon="-4.46335">
        <ele>444.0</ele>
      </trkpt>
      <trkpt lat="37.33824" lon="-4.46267">
        <ele>444.0</ele>
      </trkpt>
      <trkpt lat="37.33904" lon="-4.46125">
        <ele>444.0</ele>
      </trkpt>
      <trkpt lat="37.33929" lon="-4.45903">
        <ele>446.0</ele>
      </trkpt>
      <trkpt lat="37.34071" lon="-4.45481">
        <ele>452.0</ele>
      </trkpt>
      <trkpt lat="37.34049" lon="-4.452">
        <ele>452.0</ele>
      </trkpt>
      <trkpt lat="37.34016" lon="-4.45061">
        <ele>449.0</ele>
      </trkpt>
      <trkpt lat="37.3401" lon="-4.44984">
        <ele>448.0</ele>
      </trkpt>
      <trkpt lat="37.34049" lon="-4.44732">
        <ele>449.0</ele>
      </trkpt>
      <trkpt lat="37.34114" lon="-4.44579">
        <ele>454.0</ele>
      </trkpt>
      <trkpt lat="37.34124" lon="-4.44487">
        <ele>458.0</ele>
      </trkpt>
      <trkpt lat="37.34214" lon="-4.44574">
        <ele>467.0</ele>
      </trkpt>
      <trkpt lat="37.34263" lon="-4.44593">
        <ele>471.0</ele>
      </trkpt>
      <trkpt lat="37.34484" lon="-4.44441">
        <ele>474.0</ele>
      </trkpt>
      <trkpt lat="37.34568" lon="-4.44424">
        <ele>476.0</ele>
      </trkpt>
      <trkpt lat="37.34812" lon="-4.44417">
        <ele>480.0</ele>
      </trkpt>
      <trkpt lat="37.34966" lon="-4.44379">
        <ele>482.0</ele>
      </trkpt>
      <trkpt lat="37.35108" lon="-4.44312">
        <ele>484.0</ele>
      </trkpt>
      <trkpt lat="37.35195" lon="-4.44311">
        <ele>485.0</ele>
      </trkpt>
      <trkpt lat="37.35334" lon="-4.44271">
        <ele>488.0</ele>
      </trkpt>
      <trkpt lat="37.3567" lon="-4.44278">
        <ele>492.0</ele>
      </trkpt>
      <trkpt lat="37.35793" lon="-4.44266">
        <ele>495.0</ele>
      </trkpt>
      <trkpt lat="37.35853" lon="-4.44289">
        <ele>498.0</ele>
      </trkpt>
      <trkpt lat="37.36007" lon="-4.44393">
        <ele>501.0</ele>
      </trkpt>
      <trkpt lat="37.36151" lon="-4.44451">
        <ele>507.0</ele>
      </trkpt>
      <trkpt lat="37.36474" lon="-4.44449">
        <ele>514.0</ele>
      </trkpt>
      <trkpt lat="37.36605" lon="-4.44491">
        <ele>517.0</ele>
      </trkpt>
      <trkpt lat="37.36626" lon="-4.4452">
        <ele>518.0</ele>
      </trkpt>
      <trkpt lat="37.36649" lon="-4.44706">
        <ele>519.0</ele>
      </trkpt>
      <trkpt lat="37.36697" lon="-4.44804">
        <ele>522.0</ele>
      </trkpt>
      <trkpt lat="37.36773" lon="-4.45093">
        <ele>530.0</ele>
      </trkpt>
      <trkpt lat="37.36771" lon="-4.4517">
        <ele>534.0</ele>
      </trkpt>
      <trkpt lat="37.3674" lon="-4.45255">
        <ele>537.0</ele>
      </trkpt>
      <trkpt lat="37.36746" lon="-4.45383">
        <ele>541.0</ele>
      </trkpt>
      <trkpt lat="37.36819" lon="-4.45641">
        <ele>544.0</ele>
      </trkpt>
      <trkpt lat="37.36902" lon="-4.45748">
        <ele>545.0</ele>
      </trkpt>
      <trkpt lat="37.36917" lon="-4.45797">
        <ele>545.0</ele>
      </trkpt>
      <trkpt lat="37.36921" lon="-4.45876">
        <ele>546.0</ele>
      </trkpt>
      <trkpt lat="37.36871" lon="-4.46057">
        <ele>546.0</ele>
      </trkpt>
      <trkpt lat="37.37018" lon="-4.46036">
        <ele>548.0</ele>
      </trkpt>
      <trkpt lat="37.37242" lon="-4.46028">
        <ele>555.0</ele>
      </trkpt>
      <trkpt lat="37.3739" lon="-4.46006">
        <ele>560.0</ele>
      </trkpt>
      <trkpt lat="37.37445" lon="-4.45983">
        <ele>563.0</ele>
      </trkpt>
      <trkpt lat="37.37767" lon="-4.45639">
        <ele>586.0</ele>
      </trkpt>
      <trkpt lat="37.37845" lon="-4.45593">
        <ele>593.0</ele>
      </trkpt>
      <trkpt lat="37.38037" lon="-4.45532">
        <ele>609.0</ele>
      </trkpt>
      <trkpt lat="37.38109" lon="-4.45564">
        <ele>618.0</ele>
      </trkpt>
      <trkpt lat="37.38211" lon="-4.45646">
        <ele>630.0</ele>
      </trkpt>
      <trkpt lat="37.38372" lon="-4.45884">
        <ele>654.0</ele>
      </trkpt>
      <trkpt lat="37.38428" lon="-4.45942">
        <ele>668.0</ele>
      </trkpt>
      <trkpt lat="37.38595" lon="-4.46063">
        <ele>680.0</ele>
      </trkpt>
      <trkpt lat="37.38625" lon="-4.46134">
        <ele>690.0</ele>
      </trkpt>
      <trkpt lat="37.3867" lon="-4.46023">
        <ele>698.0</ele>
      </trkpt>
      <trkpt lat="37.38659" lon="-4.45956">
        <ele>703.0</ele>
      </trkpt>
      <trkpt lat="37.38682" lon="-4.45957">
        <ele>706.0</ele>
      </trkpt>
      <trkpt lat="37.38795" lon="-4.46078">
        <ele>714.0</ele>
      </trkpt>
      <trkpt lat="37.38887" lon="-4.46222">
        <ele>707.0</ele>
      </trkpt>
      <trkpt lat="37.38935" lon="-4.46247">
        <ele>704.0</ele>
      </trkpt>
      <trkpt lat="37.39069" lon="-4.46262">
        <ele>699.0</ele>
      </trkpt>
      <trkpt lat="37.39131" lon="-4.4631">
        <ele>694.0</ele>
      </trkpt>
      <trkpt lat="37.39155" lon="-4.46348">
        <ele>691.0</ele>
      </trkpt>
      <trkpt lat="37.3922" lon="-4.46513">
        <ele>683.0</ele>
      </trkpt>
      <trkpt lat="37.39302" lon="-4.46865">
        <ele>661.0</ele>
      </trkpt>
      <trkpt lat="37.39298" lon="-4.46985">
        <ele>653.0</ele>
      </trkpt>
      <trkpt lat="37.39274" lon="-4.47073">
        <ele>645.0</ele>
      </trkpt>
      <trkpt lat="37.39321" lon="-4.47309">
        <ele>631.0</ele>
      </trkpt>
      <trkpt lat="37.39341" lon="-4.47531">
        <ele>623.0</ele>
      </trkpt>
      <trkpt lat="37.39439" lon="-4.47781">
        <ele>609.0</ele>
      </trkpt>
      <trkpt lat="37.39509" lon="-4.47897">
        <ele>594.0</ele>
      </trkpt>
      <trkpt lat="37.39725" lon="-4.48112">
        <ele>566.0</ele>
      </trkpt>
      <trkpt lat="37.39994" lon="-4.48218">
        <ele>543.0</ele>
      </trkpt>
      <trkpt lat="37.40129" lon="-4.4832">
        <ele>532.0</ele>
      </trkpt>
      <trkpt lat="37.40163" lon="-4.48318">
        <ele>528.0</ele>
      </trkpt>
      <trkpt lat="37.40186" lon="-4.48357">
        <ele>525.0</ele>
      </trkpt>
      <trkpt lat="37.40412" lon="-4.48531">
        <ele>511.0</ele>
      </trkpt>
      <trkpt lat="37.40469" lon="-4.48541">
        <ele>508.0</ele>
      </trkpt>
      <trkpt lat="37.40542" lon="-4.48577">
        <ele>505.0</ele>
      </trkpt>
      <trkpt lat="37.40562" lon="-4.48572">
        <ele>503.0</ele>
      </trkpt>
      <trkpt lat="37.40564" lon="-4.48661">
        <ele>502.0</ele>
      </trkpt>
      <trkpt lat="37.40583" lon="-4.48712">
        <ele>503.0</ele>
      </trkpt>
      <trkpt lat="37.40576" lon="-4.48723">
        <ele>503.0</ele>
      </trkpt>
      <trkpt lat="37.40519" lon="-4.48704">
        <ele>504.0</ele>
      </trkpt>
      <trkpt lat="37.40493" lon="-4.48714">
        <ele>505.0</ele>
      </trkpt>
      <trkpt lat="37.40297" lon="-4.48884">
        <ele>526.0</ele>
      </trkpt>
      <trkpt lat="37.40279" lon="-4.48924">
        <ele>532.0</ele>
      </trkpt>
      <trkpt lat="37.40237" lon="-4.48931">
        <ele>535.0</ele>
      </trkpt>
      <trkpt lat="37.40065" lon="-4.49068">
        <ele>552.0</ele>
      </trkpt>
      <trkpt lat="37.39891" lon="-4.49269">
        <ele>570.0</ele>
      </trkpt>
      <trkpt lat="37.39584" lon="-4.49457">
        <ele>569.0</ele>
      </trkpt>
      <trkpt lat="37.39379" lon="-4.4956">
        <ele>564.0</ele>
      </trkpt>
      <trkpt lat="37.39048" lon="-4.49654">
        <ele>554.0</ele>
      </trkpt>
      <trkpt lat="37.38868" lon="-4.49736">
        <ele>547.0</ele>
      </trkpt>
      <trkpt lat="37.38649" lon="-4.4989">
        <ele>544.0</ele>
      </trkpt>
      <trkpt lat="37.3854" lon="-4.49942">
        <ele>543.0</ele>
      </trkpt>
      <trkpt lat="37.38336" lon="-4.49955">
        <ele>544.0</ele>
      </trkpt>
      <trkpt lat="37.38227" lon="-4.4994">
        <ele>543.0</ele>
      </trkpt>
      <trkpt lat="37.38108" lon="-4.49904">
        <ele>540.0</ele>
      </trkpt>
      <trkpt lat="37.38112" lon="-4.4994">
        <ele>534.0</ele>
      </trkpt>
      <trkpt lat="37.38088" lon="-4.4995">
        <ele>532.0</ele>
      </trkpt>
      <trkpt lat="37.38074" lon="-4.49934">
        <ele>532.0</ele>
      </trkpt>
      <trkpt lat="37.38077" lon="-4.49909">
        <ele>532.0</ele>
      </trkpt>
      <trkpt lat="37.38038" lon="-4.49877">
        <ele>532.0</ele>
      </trkpt>
      <trkpt lat="37.3781" lon="-4.4977">
        <ele>536.0</ele>
      </trkpt>
      <trkpt lat="37.37656" lon="-4.49655">
        <ele>538.0</ele>
      </trkpt>
      <trkpt lat="37.37506" lon="-4.49515">
        <ele>543.0</ele>
      </trkpt>
      <trkpt lat="37.37155" lon="-4.49091">
        <ele>555.0</ele>
      </trkpt>
      <trkpt lat="37.37108" lon="-4.4905">
        <ele>557.0</ele>
      </trkpt>
      <trkpt lat="37.3678" lon="-4.489">
        <ele>554.0</ele>
      </trkpt>
      <trkpt lat="37.36285" lon="-4.48738">
        <ele>538.0</ele>
      </trkpt>
      <trkpt lat="37.36169" lon="-4.48736">
        <ele>529.0</ele>
      </trkpt>
      <trkpt lat="37.36093" lon="-4.48764">
        <ele>526.0</ele>
      </trkpt>
      <trkpt lat="37.36066" lon="-4.488">
        <ele>523.0</ele>
      </trkpt>
      <trkpt lat="37.35995" lon="-4.4878">
        <ele>521.0</ele>
      </trkpt>
      <trkpt lat="37.35509" lon="-4.489">
        <ele>510.0</ele>
      </trkpt>
      <trkpt lat="37.35139" lon="-4.48845">
        <ele>501.0</ele>
      </trkpt>
      <trkpt lat="37.34737" lon="-4.48854">
        <ele>494.0</ele>
      </trkpt>
      <trkpt lat="37.34523" lon="-4.48784">
        <ele>488.0</ele>
      </trkpt>
      <trkpt lat="37.34249" lon="-4.48594">
        <ele>476.0</ele>
      </trkpt>
      <trkpt lat="37.34259" lon="-4.48547">
        <ele>473.0</ele>
      </trkpt>
      <trkpt lat="37.34216" lon="-4.48309">
        <ele>468.0</ele>
      </trkpt>
      <trkpt lat="37.34169" lon="-4.48139">
        <ele>464.0</ele>
      </trkpt>
      <trkpt lat="37.34164" lon="-4.48033">
        <ele>462.0</ele>
      </trkpt>
      <trkpt lat="37.34138" lon="-4.47931">
        <ele>461.0</ele>
      </trkpt>
      <trkpt lat="37.3412" lon="-4.47776">
        <ele>459.0</ele>
      </trkpt>
      <trkpt lat="37.3408" lon="-4.47699">
        <ele>456.0</ele>
      </trkpt>
      <trkpt lat="37.34053" lon="-4.47569">
        <ele>452.0</ele>
      </trkpt>
      <trkpt lat="37.3397" lon="-4.47437">
        <ele>450.0</ele>
      </trkpt>
      <trkpt lat="37.33928" lon="-4.47272">
        <ele>448.0</ele>
      </trkpt>
      <trkpt lat="37.33886" lon="-4.47178">
        <ele>445.0</ele>
      </trkpt>
      <trkpt lat="37.33839" lon="-4.47109">
        <ele>443.0</ele>
      </trkpt>
      <trkpt lat="37.33734" lon="-4.46807">
        <ele>440.0</ele>
      </trkpt>
      <trkpt lat="37.33733" lon="-4.4676">
        <ele>441.0</ele>
      </trkpt>
      <trkpt lat="37.33796" lon="-4.46456">
        <ele>443.0</ele>
      </trkpt>
      <trkpt lat="37.338" lon="-4.46335">
        <ele>444.0</ele>
      </trkpt>
      <trkpt lat="37.33824" lon="-4.46267">
        <ele>444.0</ele>
      </trkpt>
      <trkpt lat="37.33904" lon="-4.46125">
        <ele>444.0</ele>
      </trkpt>
      <trkpt lat="37.33929" lon="-4.45903">
        <ele>446.0</ele>
      </trkpt>
      <trkpt lat="37.34071" lon="-4.45481">
        <ele>452.0</ele>
      </trkpt>
      <trkpt lat="37.34049" lon="-4.452">
        <ele>452.0</ele>
      </trkpt>
      <trkpt lat="37.34016" lon="-4.45061">
        <ele>449.0</ele>
      </trkpt>
      <trkpt lat="37.3401" lon="-4.44984">
        <ele>448.0</ele>
      </trkpt>
      <trkpt lat="37.34049" lon="-4.44732">
        <ele>449.0</ele>
      </trkpt>
      <trkpt lat="37.34114" lon="-4.44579">
        <ele>454.0</ele>
      </trkpt>
      <trkpt lat="37.34124" lon="-4.44487">
        <ele>458.0</ele>
      </trkpt>
      <trkpt lat="37.34214" lon="-4.44574">
        <ele>467.0</ele>
      </trkpt>
      <trkpt lat="37.34263" lon="-4.44593">
        <ele>471.0</ele>
      </trkpt>
      <trkpt lat="37.34484" lon="-4.44441">
        <ele>474.0</ele>
      </trkpt>
      <trkpt lat="37.34568" lon="-4.44424">
        <ele>476.0</ele>
      </trkpt>
      <trkpt lat="37.34812" lon="-4.44417">
        <ele>480.0</ele>
      </trkpt>
      <trkpt lat="37.34966" lon="-4.44379">
        <ele>482.0</ele>
      </trkpt>
      <trkpt lat="37.35108" lon="-4.44312">
        <ele>484.0</ele>
      </trkpt>
      <trkpt lat="37.35195" lon="-4.44311">
        <ele>485.0</ele>
      </trkpt>
      <trkpt lat="37.35334" lon="-4.44271">
        <ele>487.0</ele>
      </trkpt>
      <trkpt lat="37.3567" lon="-4.44278">
        <ele>492.0</ele>
      </trkpt>
      <trkpt lat="37.35793" lon="-4.44266">
        <ele>494.0</ele>
      </trkpt>
      <trkpt lat="37.35853" lon="-4.44289">
        <ele>498.0</ele>
      </trkpt>
      <trkpt lat="37.36007" lon="-4.44393">
        <ele>501.0</ele>
      </trkpt>
      <trkpt lat="37.36151" lon="-4.44451">
        <ele>507.0</ele>
      </trkpt>
      <trkpt lat="37.36474" lon="-4.44449">
        <ele>514.0</ele>
      </trkpt>
      <trkpt lat="37.36605" lon="-4.44491">
        <ele>517.0</ele>
      </trkpt>
      <trkpt lat="37.36626" lon="-4.4452">
        <ele>518.0</ele>
      </trkpt>
      <trkpt lat="37.36649" lon="-4.44706">
        <ele>519.0</ele>
      </trkpt>
      <trkpt lat="37.36697" lon="-4.44804">
        <ele>522.0</ele>
      </trkpt>
      <trkpt lat="37.36773" lon="-4.45093">
        <ele>530.0</ele>
      </trkpt>
      <trkpt lat="37.36771" lon="-4.4517">
        <ele>534.0</ele>
      </trkpt>
      <trkpt lat="37.3674" lon="-4.45255">
        <ele>537.0</ele>
      </trkpt>
      <trkpt lat="37.36746" lon="-4.45383">
        <ele>541.0</ele>
      </trkpt>
      <trkpt lat="37.36819" lon="-4.45641">
        <ele>544.0</ele>
      </trkpt>
      <trkpt lat="37.36902" lon="-4.45748">
        <ele>545.0</ele>
      </trkpt>
      <trkpt lat="37.36917" lon="-4.45797">
        <ele>545.0</ele>
      </trkpt>
      <trkpt lat="37.36921" lon="-4.45876">
        <ele>546.0</ele>
      </trkpt>
      <trkpt lat="37.36871" lon="-4.46057">
        <ele>546.0</ele>
      </trkpt>
      <trkpt lat="37.37018" lon="-4.46036">
        <ele>548.0</ele>
      </trkpt>
      <trkpt lat="37.37242" lon="-4.46028">
        <ele>555.0</ele>
      </trkpt>
      <trkpt lat="37.3739" lon="-4.46006">
        <ele>560.0</ele>
      </trkpt>
      <trkpt lat="37.37445" lon="-4.45983">
        <ele>563.0</ele>
      </trkpt>
      <trkpt lat="37.37767" lon="-4.45639">
        <ele>586.0</ele>
      </trkpt>
      <trkpt lat="37.37845" lon="-4.45593">
        <ele>593.0</ele>
      </trkpt>
      <trkpt lat="37.38037" lon="-4.45532">
        <ele>609.0</ele>
      </trkpt>
      <trkpt lat="37.38109" lon="-4.45564">
        <ele>618.0</ele>
      </trkpt>
      <trkpt lat="37.38211" lon="-4.45646">
        <ele>633.0</ele>
      </trkpt>
      <trkpt lat="37.38372" lon="-4.45884">
        <ele>654.0</ele>
      </trkpt>
      <trkpt lat="37.38428" lon="-4.45942">
        <ele>668.0</ele>
      </trkpt>
      <trkpt lat="37.38595" lon="-4.46063">
        <ele>680.0</ele>
      </trkpt>
      <trkpt lat="37.38625" lon="-4.46134">
        <ele>690.0</ele>
      </trkpt>
      <trkpt lat="37.3867" lon="-4.46023">
        <ele>698.0</ele>
      </trkpt>
      <trkpt lat="37.38659" lon="-4.45956">
        <ele>703.0</ele>
      </trkpt>
      <trkpt lat="37.38682" lon="-4.45957">
        <ele>706.0</ele>
      </trkpt>
      <trkpt lat="37.38795" lon="-4.46078">
        <ele>714.0</ele>
      </trkpt>
      <trkpt lat="37.38887" lon="-4.46222">
        <ele>707.0</ele>
      </trkpt>
      <trkpt lat="37.38935" lon="-4.46247">
        <ele>704.0</ele>
      </trkpt>
      <trkpt lat="37.39069" lon="-4.46262">
        <ele>699.0</ele>
      </trkpt>
      <trkpt lat="37.39131" lon="-4.4631">
        <ele>694.0</ele>
      </trkpt>
      <trkpt lat="37.39155" lon="-4.46348">
        <ele>691.0</ele>
      </trkpt>
      <trkpt lat="37.3922" lon="-4.46513">
        <ele>683.0</ele>
      </trkpt>
      <trkpt lat="37.39302" lon="-4.46865">
        <ele>664.0</ele>
      </trkpt>
      <trkpt lat="37.39298" lon="-4.46985">
        <ele>654.0</ele>
      </trkpt>
      <trkpt lat="37.39274" lon="-4.47073">
        <ele>645.0</ele>
      </trkpt>
      <trkpt lat="37.39321" lon="-4.47309">
        <ele>631.0</ele>
      </trkpt>
      <trkpt lat="37.39333" lon="-4.47494">
        <ele>626.0</ele>
      </trkpt>
      <trkpt lat="37.39361" lon="-4.47587">
        <ele>620.0</ele>
      </trkpt>
      <trkpt lat="37.39469" lon="-4.47838">
        <ele>603.0</ele>
      </trkpt>
      <trkpt lat="37.39509" lon="-4.47897">
        <ele>594.0</ele>
      </trkpt>
      <trkpt lat="37.39703" lon="-4.48096">
        <ele>571.0</ele>
      </trkpt>
      <trkpt lat="37.39994" lon="-4.48218">
        <ele>543.0</ele>
      </trkpt>
      <trkpt lat="37.40129" lon="-4.4832">
        <ele>532.0</ele>
      </trkpt>
      <trkpt lat="37.40163" lon="-4.48318">
        <ele>528.0</ele>
      </trkpt>
      <trkpt lat="37.40186" lon="-4.48357">
        <ele>525.0</ele>
      </trkpt>
      <trkpt lat="37.40412" lon="-4.48531">
        <ele>511.0</ele>
      </trkpt>
      <trkpt lat="37.40469" lon="-4.48541">
        <ele>508.0</ele>
      </trkpt>
      <trkpt lat="37.40542" lon="-4.48577">
        <ele>505.0</ele>
      </trkpt>
      <trkpt lat="37.40562" lon="-4.48572">
        <ele>503.0</ele>
      </trkpt>
      <trkpt lat="37.406" lon="-4.48338">
        <ele>500.0</ele>
      </trkpt>
      <trkpt lat="37.40624" lon="-4.4827">
        <ele>500.0</ele>
      </trkpt>
      <trkpt lat="37.40744" lon="-4.48052">
        <ele>495.0</ele>
      </trkpt>
      <trkpt lat="37.40773" lon="-4.47968">
        <ele>492.0</ele>
      </trkpt>
      <trkpt lat="37.4082" lon="-4.47956">
        <ele>491.0</ele>
      </trkpt>
      <trkpt lat="37.40993" lon="-4.47853">
        <ele>487.0</ele>
      </trkpt>
      <trkpt lat="37.41126" lon="-4.47832">
        <ele>484.0</ele>
      </trkpt>
      <trkpt lat="37.41163" lon="-4.47804">
        <ele>481.0</ele>
      </trkpt>
      <trkpt lat="37.4122" lon="-4.47569">
        <ele>480.0</ele>
      </trkpt>
      <trkpt lat="37.41195" lon="-4.47561">
        <ele>481.0</ele>
      </trkpt>
      <trkpt lat="37.40992" lon="-4.47584">
        <ele>486.0</ele>
      </trkpt>
    </trkseg>
  </trk>
</gpx>