<?xml version="1.0" encoding="UTF-8"?>
<gpx xmlns="http://www.topografix.com/GPX/1/0" xmlns:xsi="http://www.w3.org/2001/XMLSchema-instance" xsi:schemaLocation="http://www.topografix.com/GPX/1/0 http://www.topografix.com/GPX/1/0/gpx.xsd" version="1.0" creator="GPSBabel - https://www.gpsbabel.org">
  <time>2026-02-04T09:26:37.362000Z</time>
  <bounds minlat="42.08011" maxlat="43.25471" minlon="11.98215" maxlon="13.37183" />
  <trk>
    <trkseg>
      <trkpt lat="43.25471" lon="11.98215">
        <ele>256.0</ele>
      </trkpt>
      <trkpt lat="43.25391" lon="11.98274">
        <ele>256.0</ele>
      </trkpt>
      <trkpt lat="43.24329" lon="11.99267">
        <ele>257.0</ele>
      </trkpt>
      <trkpt lat="43.24296" lon="11.99268">
        <ele>257.0</ele>
      </trkpt>
      <trkpt lat="43.24283" lon="11.99308">
        <ele>258.0</ele>
      </trkpt>
      <trkpt lat="43.23144" lon="12.00375">
        <ele>279.0</ele>
      </trkpt>
      <trkpt lat="43.22866" lon="12.00446">
        <ele>281.0</ele>
      </trkpt>
      <trkpt lat="43.22681" lon="12.00448">
        <ele>284.0</ele>
      </trkpt>
      <trkpt lat="43.2241" lon="12.005">
        <ele>286.0</ele>
      </trkpt>
      <trkpt lat="43.22219" lon="12.00614">
        <ele>286.0</ele>
      </trkpt>
      <trkpt lat="43.2202" lon="12.00788">
        <ele>282.0</ele>
      </trkpt>
      <trkpt lat="43.21784" lon="12.00901">
        <ele>277.0</ele>
      </trkpt>
      <trkpt lat="43.21677" lon="12.00934">
        <ele>276.0</ele>
      </trkpt>
      <trkpt lat="43.21524" lon="12.00945">
        <ele>274.0</ele>
      </trkpt>
      <trkpt lat="43.21331" lon="12.0092">
        <ele>274.0</ele>
      </trkpt>
      <trkpt lat="43.21149" lon="12.0096">
        <ele>275.0</ele>
      </trkpt>
      <trkpt lat="43.20941" lon="12.00969">
        <ele>274.0</ele>
      </trkpt>
      <trkpt lat="43.20847" lon="12.00991">
        <ele>272.0</ele>
      </trkpt>
      <trkpt lat="43.20812" lon="12.01011">
        <ele>271.0</ele>
      </trkpt>
      <trkpt lat="43.20493" lon="12.01327">
        <ele>270.0</ele>
      </trkpt>
      <trkpt lat="43.20421" lon="12.01374">
        <ele>270.0</ele>
      </trkpt>
      <trkpt lat="43.20352" lon="12.01369">
        <ele>269.0</ele>
      </trkpt>
      <trkpt lat="43.20117" lon="12.01296">
        <ele>265.0</ele>
      </trkpt>
      <trkpt lat="43.19687" lon="12.013">
        <ele>263.0</ele>
      </trkpt>
      <trkpt lat="43.18069" lon="12.01358">
        <ele>264.0</ele>
      </trkpt>
      <trkpt lat="43.17065" lon="12.01423">
        <ele>261.0</ele>
      </trkpt>
      <trkpt lat="43.1668" lon="12.01464">
        <ele>261.0</ele>
      </trkpt>
      <trkpt lat="43.15986" lon="12.0166">
        <ele>262.0</ele>
      </trkpt>
      <trkpt lat="43.15474" lon="12.01878">
        <ele>261.0</ele>
      </trkpt>
      <trkpt lat="43.15294" lon="12.02007">
        <ele>261.0</ele>
      </trkpt>
      <trkpt lat="43.15072" lon="12.02105">
        <ele>261.0</ele>
      </trkpt>
      <trkpt lat="43.14491" lon="12.0253">
        <ele>260.0</ele>
      </trkpt>
      <trkpt lat="43.144" lon="12.0254">
        <ele>260.0</ele>
      </trkpt>
      <trkpt lat="43.14248" lon="12.02443">
        <ele>262.0</ele>
      </trkpt>
      <trkpt lat="43.14188" lon="12.02436">
        <ele>263.0</ele>
      </trkpt>
      <trkpt lat="43.13228" lon="12.02865">
        <ele>262.0</ele>
      </trkpt>
      <trkpt lat="43.13178" lon="12.02908">
        <ele>262.0</ele>
      </trkpt>
      <trkpt lat="43.13155" lon="12.02992">
        <ele>261.0</ele>
      </trkpt>
      <trkpt lat="43.13238" lon="12.03753">
        <ele>262.0</ele>
      </trkpt>
      <trkpt lat="43.13232" lon="12.03867">
        <ele>264.0</ele>
      </trkpt>
      <trkpt lat="43.13045" lon="12.04249">
        <ele>261.0</ele>
      </trkpt>
      <trkpt lat="43.13016" lon="12.04275">
        <ele>261.0</ele>
      </trkpt>
      <trkpt lat="43.1298" lon="12.04283">
        <ele>260.0</ele>
      </trkpt>
      <trkpt lat="43.12989" lon="12.04346">
        <ele>260.0</ele>
      </trkpt>
      <trkpt lat="43.12906" lon="12.04489">
        <ele>260.0</ele>
      </trkpt>
      <trkpt lat="43.12831" lon="12.04741">
        <ele>263.0</ele>
      </trkpt>
      <trkpt lat="43.12739" lon="12.04824">
        <ele>269.0</ele>
      </trkpt>
      <trkpt lat="43.12652" lon="12.04797">
        <ele>274.0</ele>
      </trkpt>
      <trkpt lat="43.12614" lon="12.04762">
        <ele>274.0</ele>
      </trkpt>
      <trkpt lat="43.1237" lon="12.04369">
        <ele>265.0</ele>
      </trkpt>
      <trkpt lat="43.12368" lon="12.0434">
        <ele>262.0</ele>
      </trkpt>
      <trkpt lat="43.12348" lon="12.04335">
        <ele>261.0</ele>
      </trkpt>
      <trkpt lat="43.12119" lon="12.03971">
        <ele>261.0</ele>
      </trkpt>
      <trkpt lat="43.12087" lon="12.03954">
        <ele>261.0</ele>
      </trkpt>
      <trkpt lat="43.12" lon="12.03956">
        <ele>261.0</ele>
      </trkpt>
      <trkpt lat="43.11963" lon="12.03939">
        <ele>261.0</ele>
      </trkpt>
      <trkpt lat="43.11917" lon="12.03958">
        <ele>261.0</ele>
      </trkpt>
      <trkpt lat="43.10819" lon="12.03957">
        <ele>267.0</ele>
      </trkpt>
      <trkpt lat="43.10099" lon="12.04521">
        <ele>264.0</ele>
      </trkpt>
      <trkpt lat="43.10039" lon="12.04584">
        <ele>264.0</ele>
      </trkpt>
      <trkpt lat="43.09968" lon="12.04697">
        <ele>264.0</ele>
      </trkpt>
      <trkpt lat="43.09604" lon="12.05441">
        <ele>263.0</ele>
      </trkpt>
      <trkpt lat="43.09503" lon="12.05583">
        <ele>264.0</ele>
      </trkpt>
      <trkpt lat="43.09434" lon="12.05617">
        <ele>265.0</ele>
      </trkpt>
      <trkpt lat="43.09435" lon="12.05658">
        <ele>265.0</ele>
      </trkpt>
      <trkpt lat="43.09471" lon="12.05713">
        <ele>265.0</ele>
      </trkpt>
      <trkpt lat="43.09454" lon="12.05779">
        <ele>265.0</ele>
      </trkpt>
      <trkpt lat="43.07933" lon="12.08907">
        <ele>258.0</ele>
      </trkpt>
      <trkpt lat="43.07922" lon="12.08948">
        <ele>257.0</ele>
      </trkpt>
      <trkpt lat="43.07923" lon="12.09658">
        <ele>259.0</ele>
      </trkpt>
      <trkpt lat="43.0791" lon="12.09754">
        <ele>260.0</ele>
      </trkpt>
      <trkpt lat="43.07835" lon="12.10095">
        <ele>260.0</ele>
      </trkpt>
      <trkpt lat="43.07747" lon="12.10593">
        <ele>259.0</ele>
      </trkpt>
      <trkpt lat="43.07715" lon="12.10652">
        <ele>258.0</ele>
      </trkpt>
      <trkpt lat="43.07623" lon="12.10683">
        <ele>258.0</ele>
      </trkpt>
      <trkpt lat="43.0765" lon="12.10884">
        <ele>259.0</ele>
      </trkpt>
      <trkpt lat="43.07619" lon="12.11235">
        <ele>259.0</ele>
      </trkpt>
      <trkpt lat="43.07641" lon="12.11715">
        <ele>258.0</ele>
      </trkpt>
      <trkpt lat="43.07643" lon="12.12187">
        <ele>258.0</ele>
      </trkpt>
      <trkpt lat="43.0791" lon="12.13395">
        <ele>261.0</ele>
      </trkpt>
      <trkpt lat="43.07952" lon="12.13452">
        <ele>265.0</ele>
      </trkpt>
      <trkpt lat="43.08076" lon="12.13472">
        <ele>269.0</ele>
      </trkpt>
      <trkpt lat="43.08116" lon="12.13494">
        <ele>271.0</ele>
      </trkpt>
      <trkpt lat="43.08147" lon="12.13524">
        <ele>272.0</ele>
      </trkpt>
      <trkpt lat="43.08163" lon="12.13563">
        <ele>273.0</ele>
      </trkpt>
      <trkpt lat="43.08166" lon="12.1359">
        <ele>274.0</ele>
      </trkpt>
      <trkpt lat="43.08146" lon="12.13652">
        <ele>276.0</ele>
      </trkpt>
      <trkpt lat="43.08012" lon="12.13889">
        <ele>278.0</ele>
      </trkpt>
      <trkpt lat="43.0799" lon="12.14004">
        <ele>273.0</ele>
      </trkpt>
      <trkpt lat="43.08013" lon="12.14106">
        <ele>268.0</ele>
      </trkpt>
      <trkpt lat="43.08107" lon="12.14249">
        <ele>264.0</ele>
      </trkpt>
      <trkpt lat="43.082" lon="12.14672">
        <ele>261.0</ele>
      </trkpt>
      <trkpt lat="43.08203" lon="12.14806">
        <ele>262.0</ele>
      </trkpt>
      <trkpt lat="43.08173" lon="12.15235">
        <ele>265.0</ele>
      </trkpt>
      <trkpt lat="43.08185" lon="12.15354">
        <ele>266.0</ele>
      </trkpt>
      <trkpt lat="43.08342" lon="12.15863">
        <ele>270.0</ele>
      </trkpt>
      <trkpt lat="43.08491" lon="12.16035">
        <ele>270.0</ele>
      </trkpt>
      <trkpt lat="43.08635" lon="12.16005">
        <ele>268.0</ele>
      </trkpt>
      <trkpt lat="43.08694" lon="12.16035">
        <ele>268.0</ele>
      </trkpt>
      <trkpt lat="43.09004" lon="12.16337">
        <ele>268.0</ele>
      </trkpt>
      <trkpt lat="43.09079" lon="12.16574">
        <ele>265.0</ele>
      </trkpt>
      <trkpt lat="43.09029" lon="12.16875">
        <ele>263.0</ele>
      </trkpt>
      <trkpt lat="43.08838" lon="12.17242">
        <ele>260.0</ele>
      </trkpt>
      <trkpt lat="43.08828" lon="12.17281">
        <ele>261.0</ele>
      </trkpt>
      <trkpt lat="43.08725" lon="12.18534">
        <ele>264.0</ele>
      </trkpt>
      <trkpt lat="43.08766" lon="12.18765">
        <ele>271.0</ele>
      </trkpt>
      <trkpt lat="43.08707" lon="12.19022">
        <ele>276.0</ele>
      </trkpt>
      <trkpt lat="43.08713" lon="12.19071">
        <ele>278.0</ele>
      </trkpt>
      <trkpt lat="43.08769" lon="12.19214">
        <ele>280.0</ele>
      </trkpt>
      <trkpt lat="43.08751" lon="12.19429">
        <ele>284.0</ele>
      </trkpt>
      <trkpt lat="43.08709" lon="12.19448">
        <ele>290.0</ele>
      </trkpt>
      <trkpt lat="43.08536" lon="12.19758">
        <ele>300.0</ele>
      </trkpt>
      <trkpt lat="43.08293" lon="12.19938">
        <ele>301.0</ele>
      </trkpt>
      <trkpt lat="43.08087" lon="12.20026">
        <ele>292.0</ele>
      </trkpt>
      <trkpt lat="43.07556" lon="12.20492">
        <ele>267.0</ele>
      </trkpt>
      <trkpt lat="43.07261" lon="12.20648">
        <ele>258.0</ele>
      </trkpt>
      <trkpt lat="43.07259" lon="12.20594">
        <ele>255.0</ele>
      </trkpt>
      <trkpt lat="43.07261" lon="12.20648">
        <ele>251.0</ele>
      </trkpt>
      <trkpt lat="43.06607" lon="12.20883">
        <ele>244.0</ele>
      </trkpt>
      <trkpt lat="43.06446" lon="12.21106">
        <ele>238.0</ele>
      </trkpt>
      <trkpt lat="43.06181" lon="12.21241">
        <ele>237.0</ele>
      </trkpt>
      <trkpt lat="43.06012" lon="12.21428">
        <ele>236.0</ele>
      </trkpt>
      <trkpt lat="43.05979" lon="12.21433">
        <ele>236.0</ele>
      </trkpt>
      <trkpt lat="43.0572" lon="12.21347">
        <ele>233.0</ele>
      </trkpt>
      <trkpt lat="43.05666" lon="12.21365">
        <ele>232.0</ele>
      </trkpt>
      <trkpt lat="43.05491" lon="12.21636">
        <ele>232.0</ele>
      </trkpt>
      <trkpt lat="43.05307" lon="12.21788">
        <ele>231.0</ele>
      </trkpt>
      <trkpt lat="43.05258" lon="12.21853">
        <ele>231.0</ele>
      </trkpt>
      <trkpt lat="43.05239" lon="12.21916">
        <ele>231.0</ele>
      </trkpt>
      <trkpt lat="43.05233" lon="12.22017">
        <ele>231.0</ele>
      </trkpt>
      <trkpt lat="43.05365" lon="12.2253">
        <ele>240.0</ele>
      </trkpt>
      <trkpt lat="43.05366" lon="12.22582">
        <ele>243.0</ele>
      </trkpt>
      <trkpt lat="43.0531" lon="12.22714">
        <ele>249.0</ele>
      </trkpt>
      <trkpt lat="43.05224" lon="12.23079">
        <ele>265.0</ele>
      </trkpt>
      <trkpt lat="43.05055" lon="12.23354">
        <ele>275.0</ele>
      </trkpt>
      <trkpt lat="43.05036" lon="12.23463">
        <ele>275.0</ele>
      </trkpt>
      <trkpt lat="43.05013" lon="12.23506">
        <ele>274.0</ele>
      </trkpt>
      <trkpt lat="43.04927" lon="12.2352">
        <ele>273.0</ele>
      </trkpt>
      <trkpt lat="43.04798" lon="12.23634">
        <ele>277.0</ele>
      </trkpt>
      <trkpt lat="43.04745" lon="12.23661">
        <ele>276.0</ele>
      </trkpt>
      <trkpt lat="43.04712" lon="12.23655">
        <ele>274.0</ele>
      </trkpt>
      <trkpt lat="43.04664" lon="12.23827">
        <ele>268.0</ele>
      </trkpt>
      <trkpt lat="43.04624" lon="12.23863">
        <ele>266.0</ele>
      </trkpt>
      <trkpt lat="43.04599" lon="12.23859">
        <ele>265.0</ele>
      </trkpt>
      <trkpt lat="43.04482" lon="12.23774">
        <ele>261.0</ele>
      </trkpt>
      <trkpt lat="43.04359" lon="12.23757">
        <ele>256.0</ele>
      </trkpt>
      <trkpt lat="43.03995" lon="12.23799">
        <ele>254.0</ele>
      </trkpt>
      <trkpt lat="43.03826" lon="12.23894">
        <ele>253.0</ele>
      </trkpt>
      <trkpt lat="43.03549" lon="12.23978">
        <ele>252.0</ele>
      </trkpt>
      <trkpt lat="43.03423" lon="12.23922">
        <ele>255.0</ele>
      </trkpt>
      <trkpt lat="43.03238" lon="12.23944">
        <ele>257.0</ele>
      </trkpt>
      <trkpt lat="43.03146" lon="12.24139">
        <ele>257.0</ele>
      </trkpt>
      <trkpt lat="43.02965" lon="12.24233">
        <ele>251.0</ele>
      </trkpt>
      <trkpt lat="43.02893" lon="12.24444">
        <ele>244.0</ele>
      </trkpt>
      <trkpt lat="43.02857" lon="12.24497">
        <ele>236.0</ele>
      </trkpt>
      <trkpt lat="43.02776" lon="12.2456">
        <ele>229.0</ele>
      </trkpt>
      <trkpt lat="43.02662" lon="12.24708">
        <ele>223.0</ele>
      </trkpt>
      <trkpt lat="43.02558" lon="12.24781">
        <ele>219.0</ele>
      </trkpt>
      <trkpt lat="43.02502" lon="12.24866">
        <ele>218.0</ele>
      </trkpt>
      <trkpt lat="43.02334" lon="12.25044">
        <ele>216.0</ele>
      </trkpt>
      <trkpt lat="43.02044" lon="12.25403">
        <ele>212.0</ele>
      </trkpt>
      <trkpt lat="43.0178" lon="12.25664">
        <ele>209.0</ele>
      </trkpt>
      <trkpt lat="43.01736" lon="12.25666">
        <ele>208.0</ele>
      </trkpt>
      <trkpt lat="43.01646" lon="12.26091">
        <ele>208.0</ele>
      </trkpt>
      <trkpt lat="43.01456" lon="12.26397">
        <ele>211.0</ele>
      </trkpt>
      <trkpt lat="43.01427" lon="12.26699">
        <ele>210.0</ele>
      </trkpt>
      <trkpt lat="43.01223" lon="12.27331">
        <ele>212.0</ele>
      </trkpt>
      <trkpt lat="43.01203" lon="12.27383">
        <ele>212.0</ele>
      </trkpt>
      <trkpt lat="43.01143" lon="12.2746">
        <ele>212.0</ele>
      </trkpt>
      <trkpt lat="43.01076" lon="12.27491">
        <ele>212.0</ele>
      </trkpt>
      <trkpt lat="43.00822" lon="12.27539">
        <ele>216.0</ele>
      </trkpt>
      <trkpt lat="43.00784" lon="12.27539">
        <ele>222.0</ele>
      </trkpt>
      <trkpt lat="43.00629" lon="12.27476">
        <ele>232.0</ele>
      </trkpt>
      <trkpt lat="43.00477" lon="12.27517">
        <ele>245.0</ele>
      </trkpt>
      <trkpt lat="43.00368" lon="12.27432">
        <ele>252.0</ele>
      </trkpt>
      <trkpt lat="43.00269" lon="12.274">
        <ele>259.0</ele>
      </trkpt>
      <trkpt lat="43.00167" lon="12.2748">
        <ele>263.0</ele>
      </trkpt>
      <trkpt lat="43.00138" lon="12.27487">
        <ele>264.0</ele>
      </trkpt>
      <trkpt lat="42.9992" lon="12.27471">
        <ele>270.0</ele>
      </trkpt>
      <trkpt lat="42.99879" lon="12.27494">
        <ele>272.0</ele>
      </trkpt>
      <trkpt lat="42.99583" lon="12.27778">
        <ele>275.0</ele>
      </trkpt>
      <trkpt lat="42.99505" lon="12.27803">
        <ele>272.0</ele>
      </trkpt>
      <trkpt lat="42.99161" lon="12.27791">
        <ele>261.0</ele>
      </trkpt>
      <trkpt lat="42.99043" lon="12.27753">
        <ele>251.0</ele>
      </trkpt>
      <trkpt lat="42.98971" lon="12.27702">
        <ele>249.0</ele>
      </trkpt>
      <trkpt lat="42.9891" lon="12.27637">
        <ele>248.0</ele>
      </trkpt>
      <trkpt lat="42.9874" lon="12.27441">
        <ele>254.0</ele>
      </trkpt>
      <trkpt lat="42.98696" lon="12.27366">
        <ele>260.0</ele>
      </trkpt>
      <trkpt lat="42.98228" lon="12.27533">
        <ele>240.0</ele>
      </trkpt>
      <trkpt lat="42.98149" lon="12.27527">
        <ele>234.0</ele>
      </trkpt>
      <trkpt lat="42.9781" lon="12.27429">
        <ele>220.0</ele>
      </trkpt>
      <trkpt lat="42.97751" lon="12.27438">
        <ele>212.0</ele>
      </trkpt>
      <trkpt lat="42.97665" lon="12.27511">
        <ele>204.0</ele>
      </trkpt>
      <trkpt lat="42.97579" lon="12.27622">
        <ele>205.0</ele>
      </trkpt>
      <trkpt lat="42.97565" lon="12.27658">
        <ele>205.0</ele>
      </trkpt>
      <trkpt lat="42.97538" lon="12.27844">
        <ele>204.0</ele>
      </trkpt>
      <trkpt lat="42.97552" lon="12.2806">
        <ele>203.0</ele>
      </trkpt>
      <trkpt lat="42.97544" lon="12.28142">
        <ele>202.0</ele>
      </trkpt>
      <trkpt lat="42.97512" lon="12.28253">
        <ele>202.0</ele>
      </trkpt>
      <trkpt lat="42.97506" lon="12.2836">
        <ele>203.0</ele>
      </trkpt>
      <trkpt lat="42.97389" lon="12.28655">
        <ele>206.0</ele>
      </trkpt>
      <trkpt lat="42.97315" lon="12.28774">
        <ele>207.0</ele>
      </trkpt>
      <trkpt lat="42.97081" lon="12.28965">
        <ele>202.0</ele>
      </trkpt>
      <trkpt lat="42.96966" lon="12.29096">
        <ele>199.0</ele>
      </trkpt>
      <trkpt lat="42.96867" lon="12.29416">
        <ele>195.0</ele>
      </trkpt>
      <trkpt lat="42.96808" lon="12.29541">
        <ele>197.0</ele>
      </trkpt>
      <trkpt lat="42.96787" lon="12.29569">
        <ele>198.0</ele>
      </trkpt>
      <trkpt lat="42.96732" lon="12.29593">
        <ele>199.0</ele>
      </trkpt>
      <trkpt lat="42.96548" lon="12.29788">
        <ele>205.0</ele>
      </trkpt>
      <trkpt lat="42.96517" lon="12.29806">
        <ele>209.0</ele>
      </trkpt>
      <trkpt lat="42.96464" lon="12.29825">
        <ele>214.0</ele>
      </trkpt>
      <trkpt lat="42.96357" lon="12.29828">
        <ele>220.0</ele>
      </trkpt>
      <trkpt lat="42.962" lon="12.29884">
        <ele>234.0</ele>
      </trkpt>
      <trkpt lat="42.96009" lon="12.29893">
        <ele>246.0</ele>
      </trkpt>
      <trkpt lat="42.95863" lon="12.30053">
        <ele>270.0</ele>
      </trkpt>
      <trkpt lat="42.95764" lon="12.30189">
        <ele>277.0</ele>
      </trkpt>
      <trkpt lat="42.9571" lon="12.30287">
        <ele>280.0</ele>
      </trkpt>
      <trkpt lat="42.95683" lon="12.30376">
        <ele>283.0</ele>
      </trkpt>
      <trkpt lat="42.95694" lon="12.30572">
        <ele>285.0</ele>
      </trkpt>
      <trkpt lat="42.95685" lon="12.30624">
        <ele>287.0</ele>
      </trkpt>
      <trkpt lat="42.95596" lon="12.30761">
        <ele>288.0</ele>
      </trkpt>
      <trkpt lat="42.95499" lon="12.31014">
        <ele>289.0</ele>
      </trkpt>
      <trkpt lat="42.95411" lon="12.31312">
        <ele>293.0</ele>
      </trkpt>
      <trkpt lat="42.95428" lon="12.31458">
        <ele>300.0</ele>
      </trkpt>
      <trkpt lat="42.95418" lon="12.31583">
        <ele>306.0</ele>
      </trkpt>
      <trkpt lat="42.95327" lon="12.31781">
        <ele>314.0</ele>
      </trkpt>
      <trkpt lat="42.95065" lon="12.31887">
        <ele>312.0</ele>
      </trkpt>
      <trkpt lat="42.94984" lon="12.31845">
        <ele>310.0</ele>
      </trkpt>
      <trkpt lat="42.9492" lon="12.31831">
        <ele>310.0</ele>
      </trkpt>
      <trkpt lat="42.94719" lon="12.3184">
        <ele>309.0</ele>
      </trkpt>
      <trkpt lat="42.94633" lon="12.31864">
        <ele>307.0</ele>
      </trkpt>
      <trkpt lat="42.94507" lon="12.31942">
        <ele>304.0</ele>
      </trkpt>
      <trkpt lat="42.94429" lon="12.32034">
        <ele>302.0</ele>
      </trkpt>
      <trkpt lat="42.94191" lon="12.32201">
        <ele>300.0</ele>
      </trkpt>
      <trkpt lat="42.93896" lon="12.3229">
        <ele>296.0</ele>
      </trkpt>
      <trkpt lat="42.93492" lon="12.32452">
        <ele>289.0</ele>
      </trkpt>
      <trkpt lat="42.93224" lon="12.32376">
        <ele>286.0</ele>
      </trkpt>
      <trkpt lat="42.93178" lon="12.32407">
        <ele>284.0</ele>
      </trkpt>
      <trkpt lat="42.93044" lon="12.32591">
        <ele>278.0</ele>
      </trkpt>
      <trkpt lat="42.92965" lon="12.32634">
        <ele>273.0</ele>
      </trkpt>
      <trkpt lat="42.92896" lon="12.3265">
        <ele>269.0</ele>
      </trkpt>
      <trkpt lat="42.92674" lon="12.32579">
        <ele>260.0</ele>
      </trkpt>
      <trkpt lat="42.92406" lon="12.3224">
        <ele>245.0</ele>
      </trkpt>
      <trkpt lat="42.92379" lon="12.32238">
        <ele>242.0</ele>
      </trkpt>
      <trkpt lat="42.9237" lon="12.32274">
        <ele>241.0</ele>
      </trkpt>
      <trkpt lat="42.92424" lon="12.32374">
        <ele>239.0</ele>
      </trkpt>
      <trkpt lat="42.92414" lon="12.32471">
        <ele>234.0</ele>
      </trkpt>
      <trkpt lat="42.92385" lon="12.32515">
        <ele>231.0</ele>
      </trkpt>
      <trkpt lat="42.92285" lon="12.32534">
        <ele>227.0</ele>
      </trkpt>
      <trkpt lat="42.92263" lon="12.32556">
        <ele>225.0</ele>
      </trkpt>
      <trkpt lat="42.92256" lon="12.32597">
        <ele>223.0</ele>
      </trkpt>
      <trkpt lat="42.92276" lon="12.32743">
        <ele>219.0</ele>
      </trkpt>
      <trkpt lat="42.92264" lon="12.32768">
        <ele>217.0</ele>
      </trkpt>
      <trkpt lat="42.92236" lon="12.32757">
        <ele>215.0</ele>
      </trkpt>
      <trkpt lat="42.92217" lon="12.32672">
        <ele>213.0</ele>
      </trkpt>
      <trkpt lat="42.92172" lon="12.32573">
        <ele>211.0</ele>
      </trkpt>
      <trkpt lat="42.92152" lon="12.32555">
        <ele>209.0</ele>
      </trkpt>
      <trkpt lat="42.92137" lon="12.32561">
        <ele>207.0</ele>
      </trkpt>
      <trkpt lat="42.92128" lon="12.3259">
        <ele>206.0</ele>
      </trkpt>
      <trkpt lat="42.92152" lon="12.32831">
        <ele>198.0</ele>
      </trkpt>
      <trkpt lat="42.92141" lon="12.32892">
        <ele>194.0</ele>
      </trkpt>
      <trkpt lat="42.91883" lon="12.33662">
        <ele>172.0</ele>
      </trkpt>
      <trkpt lat="42.91734" lon="12.33784">
        <ele>168.0</ele>
      </trkpt>
      <trkpt lat="42.91735" lon="12.33805">
        <ele>168.0</ele>
      </trkpt>
      <trkpt lat="42.91763" lon="12.33827">
        <ele>169.0</ele>
      </trkpt>
      <trkpt lat="42.91813" lon="12.34081">
        <ele>169.0</ele>
      </trkpt>
      <trkpt lat="42.91805" lon="12.34097">
        <ele>168.0</ele>
      </trkpt>
      <trkpt lat="42.9176" lon="12.34099">
        <ele>168.0</ele>
      </trkpt>
      <trkpt lat="42.9174" lon="12.34128">
        <ele>167.0</ele>
      </trkpt>
      <trkpt lat="42.91715" lon="12.34426">
        <ele>166.0</ele>
      </trkpt>
      <trkpt lat="42.91693" lon="12.34491">
        <ele>166.0</ele>
      </trkpt>
      <trkpt lat="42.91651" lon="12.34521">
        <ele>165.0</ele>
      </trkpt>
      <trkpt lat="42.91356" lon="12.34537">
        <ele>161.0</ele>
      </trkpt>
      <trkpt lat="42.91335" lon="12.34569">
        <ele>160.0</ele>
      </trkpt>
      <trkpt lat="42.91369" lon="12.34689">
        <ele>160.0</ele>
      </trkpt>
      <trkpt lat="42.91651" lon="12.37927">
        <ele>156.0</ele>
      </trkpt>
      <trkpt lat="42.91789" lon="12.3853">
        <ele>158.0</ele>
      </trkpt>
      <trkpt lat="42.91866" lon="12.38758">
        <ele>158.0</ele>
      </trkpt>
      <trkpt lat="42.91863" lon="12.39017">
        <ele>158.0</ele>
      </trkpt>
      <trkpt lat="42.91892" lon="12.39024">
        <ele>159.0</ele>
      </trkpt>
      <trkpt lat="42.91906" lon="12.39052">
        <ele>160.0</ele>
      </trkpt>
      <trkpt lat="42.91907" lon="12.39222">
        <ele>163.0</ele>
      </trkpt>
      <trkpt lat="42.91886" lon="12.3925">
        <ele>163.0</ele>
      </trkpt>
      <trkpt lat="42.9186" lon="12.39252">
        <ele>164.0</ele>
      </trkpt>
      <trkpt lat="42.9179" lon="12.39189">
        <ele>163.0</ele>
      </trkpt>
      <trkpt lat="42.91379" lon="12.3921">
        <ele>168.0</ele>
      </trkpt>
      <trkpt lat="42.9119" lon="12.39229">
        <ele>170.0</ele>
      </trkpt>
      <trkpt lat="42.91159" lon="12.39284">
        <ele>170.0</ele>
      </trkpt>
      <trkpt lat="42.91127" lon="12.39303">
        <ele>169.0</ele>
      </trkpt>
      <trkpt lat="42.90971" lon="12.39255">
        <ele>167.0</ele>
      </trkpt>
      <trkpt lat="42.90864" lon="12.39272">
        <ele>167.0</ele>
      </trkpt>
      <trkpt lat="42.90647" lon="12.39174">
        <ele>170.0</ele>
      </trkpt>
      <trkpt lat="42.90222" lon="12.39033">
        <ele>173.0</ele>
      </trkpt>
      <trkpt lat="42.90111" lon="12.39062">
        <ele>174.0</ele>
      </trkpt>
      <trkpt lat="42.89957" lon="12.39021">
        <ele>174.0</ele>
      </trkpt>
      <trkpt lat="42.89581" lon="12.39032">
        <ele>173.0</ele>
      </trkpt>
      <trkpt lat="42.89378" lon="12.39101">
        <ele>168.0</ele>
      </trkpt>
      <trkpt lat="42.89266" lon="12.39206">
        <ele>168.0</ele>
      </trkpt>
      <trkpt lat="42.89004" lon="12.39337">
        <ele>172.0</ele>
      </trkpt>
      <trkpt lat="42.8889" lon="12.3943">
        <ele>179.0</ele>
      </trkpt>
      <trkpt lat="42.88859" lon="12.39441">
        <ele>179.0</ele>
      </trkpt>
      <trkpt lat="42.88701" lon="12.39429">
        <ele>174.0</ele>
      </trkpt>
      <trkpt lat="42.88626" lon="12.39363">
        <ele>168.0</ele>
      </trkpt>
      <trkpt lat="42.88588" lon="12.39349">
        <ele>165.0</ele>
      </trkpt>
      <trkpt lat="42.88393" lon="12.39357">
        <ele>161.0</ele>
      </trkpt>
      <trkpt lat="42.88052" lon="12.39286">
        <ele>166.0</ele>
      </trkpt>
      <trkpt lat="42.86741" lon="12.39448">
        <ele>159.0</ele>
      </trkpt>
      <trkpt lat="42.85188" lon="12.40211">
        <ele>152.0</ele>
      </trkpt>
      <trkpt lat="42.85144" lon="12.40246">
        <ele>152.0</ele>
      </trkpt>
      <trkpt lat="42.85014" lon="12.40431">
        <ele>153.0</ele>
      </trkpt>
      <trkpt lat="42.8497" lon="12.4047">
        <ele>154.0</ele>
      </trkpt>
      <trkpt lat="42.8479" lon="12.40583">
        <ele>155.0</ele>
      </trkpt>
      <trkpt lat="42.84457" lon="12.40762">
        <ele>155.0</ele>
      </trkpt>
      <trkpt lat="42.84404" lon="12.40776">
        <ele>155.0</ele>
      </trkpt>
      <trkpt lat="42.84157" lon="12.40739">
        <ele>153.0</ele>
      </trkpt>
      <trkpt lat="42.84081" lon="12.40708">
        <ele>154.0</ele>
      </trkpt>
      <trkpt lat="42.83694" lon="12.40372">
        <ele>153.0</ele>
      </trkpt>
      <trkpt lat="42.8339" lon="12.40169">
        <ele>153.0</ele>
      </trkpt>
      <trkpt lat="42.83368" lon="12.40137">
        <ele>153.0</ele>
      </trkpt>
      <trkpt lat="42.83346" lon="12.40064">
        <ele>154.0</ele>
      </trkpt>
      <trkpt lat="42.83308" lon="12.40031">
        <ele>155.0</ele>
      </trkpt>
      <trkpt lat="42.83197" lon="12.40011">
        <ele>157.0</ele>
      </trkpt>
      <trkpt lat="42.83007" lon="12.39946">
        <ele>164.0</ele>
      </trkpt>
      <trkpt lat="42.82999" lon="12.39958">
        <ele>165.0</ele>
      </trkpt>
      <trkpt lat="42.82879" lon="12.3994">
        <ele>170.0</ele>
      </trkpt>
      <trkpt lat="42.82713" lon="12.39872">
        <ele>181.0</ele>
      </trkpt>
      <trkpt lat="42.82554" lon="12.39832">
        <ele>193.0</ele>
      </trkpt>
      <trkpt lat="42.82537" lon="12.39857">
        <ele>193.0</ele>
      </trkpt>
      <trkpt lat="42.82534" lon="12.39981">
        <ele>194.0</ele>
      </trkpt>
      <trkpt lat="42.821" lon="12.40107">
        <ele>172.0</ele>
      </trkpt>
      <trkpt lat="42.81867" lon="12.40257">
        <ele>162.0</ele>
      </trkpt>
      <trkpt lat="42.81802" lon="12.4034">
        <ele>156.0</ele>
      </trkpt>
      <trkpt lat="42.81603" lon="12.4048">
        <ele>151.0</ele>
      </trkpt>
      <trkpt lat="42.80653" lon="12.40745">
        <ele>146.0</ele>
      </trkpt>
      <trkpt lat="42.80518" lon="12.40844">
        <ele>146.0</ele>
      </trkpt>
      <trkpt lat="42.80491" lon="12.40814">
        <ele>146.0</ele>
      </trkpt>
      <trkpt lat="42.80455" lon="12.40574">
        <ele>145.0</ele>
      </trkpt>
      <trkpt lat="42.80425" lon="12.40571">
        <ele>144.0</ele>
      </trkpt>
      <trkpt lat="42.80264" lon="12.40812">
        <ele>145.0</ele>
      </trkpt>
      <trkpt lat="42.80245" lon="12.40811">
        <ele>146.0</ele>
      </trkpt>
      <trkpt lat="42.80244" lon="12.40839">
        <ele>147.0</ele>
      </trkpt>
      <trkpt lat="42.80216" lon="12.40867">
        <ele>147.0</ele>
      </trkpt>
      <trkpt lat="42.79855" lon="12.4097">
        <ele>148.0</ele>
      </trkpt>
      <trkpt lat="42.79671" lon="12.41005">
        <ele>148.0</ele>
      </trkpt>
      <trkpt lat="42.79622" lon="12.41034">
        <ele>149.0</ele>
      </trkpt>
      <trkpt lat="42.79544" lon="12.41175">
        <ele>153.0</ele>
      </trkpt>
      <trkpt lat="42.79443" lon="12.41321">
        <ele>153.0</ele>
      </trkpt>
      <trkpt lat="42.79318" lon="12.41413">
        <ele>154.0</ele>
      </trkpt>
      <trkpt lat="42.79261" lon="12.41502">
        <ele>155.0</ele>
      </trkpt>
      <trkpt lat="42.79185" lon="12.41559">
        <ele>157.0</ele>
      </trkpt>
      <trkpt lat="42.79113" lon="12.41679">
        <ele>161.0</ele>
      </trkpt>
      <trkpt lat="42.79085" lon="12.41702">
        <ele>164.0</ele>
      </trkpt>
      <trkpt lat="42.7886" lon="12.41699">
        <ele>175.0</ele>
      </trkpt>
      <trkpt lat="42.78742" lon="12.4165">
        <ele>184.0</ele>
      </trkpt>
      <trkpt lat="42.78625" lon="12.41664">
        <ele>197.0</ele>
      </trkpt>
      <trkpt lat="42.7858" lon="12.41633">
        <ele>203.0</ele>
      </trkpt>
      <trkpt lat="42.785" lon="12.41544">
        <ele>209.0</ele>
      </trkpt>
      <trkpt lat="42.78457" lon="12.41451">
        <ele>213.0</ele>
      </trkpt>
      <trkpt lat="42.78432" lon="12.41447">
        <ele>214.0</ele>
      </trkpt>
      <trkpt lat="42.7836" lon="12.41498">
        <ele>215.0</ele>
      </trkpt>
      <trkpt lat="42.7835" lon="12.41526">
        <ele>216.0</ele>
      </trkpt>
      <trkpt lat="42.78425" lon="12.41628">
        <ele>220.0</ele>
      </trkpt>
      <trkpt lat="42.78498" lon="12.4184">
        <ele>232.0</ele>
      </trkpt>
      <trkpt lat="42.78495" lon="12.41861">
        <ele>233.0</ele>
      </trkpt>
      <trkpt lat="42.78468" lon="12.41868">
        <ele>234.0</ele>
      </trkpt>
      <trkpt lat="42.7834" lon="12.41843">
        <ele>241.0</ele>
      </trkpt>
      <trkpt lat="42.78232" lon="12.41855">
        <ele>251.0</ele>
      </trkpt>
      <trkpt lat="42.78062" lon="12.41943">
        <ele>264.0</ele>
      </trkpt>
      <trkpt lat="42.78019" lon="12.41954">
        <ele>267.0</ele>
      </trkpt>
      <trkpt lat="42.77943" lon="12.41938">
        <ele>271.0</ele>
      </trkpt>
      <trkpt lat="42.77907" lon="12.41964">
        <ele>273.0</ele>
      </trkpt>
      <trkpt lat="42.77886" lon="12.42016">
        <ele>275.0</ele>
      </trkpt>
      <trkpt lat="42.77879" lon="12.42255">
        <ele>283.0</ele>
      </trkpt>
      <trkpt lat="42.77717" lon="12.42359">
        <ele>288.0</ele>
      </trkpt>
      <trkpt lat="42.77691" lon="12.42348">
        <ele>289.0</ele>
      </trkpt>
      <trkpt lat="42.77631" lon="12.42417">
        <ele>291.0</ele>
      </trkpt>
      <trkpt lat="42.7758" lon="12.42442">
        <ele>294.0</ele>
      </trkpt>
      <trkpt lat="42.7757" lon="12.42478">
        <ele>294.0</ele>
      </trkpt>
      <trkpt lat="42.77511" lon="12.42533">
        <ele>296.0</ele>
      </trkpt>
      <trkpt lat="42.77155" lon="12.43366">
        <ele>288.0</ele>
      </trkpt>
      <trkpt lat="42.77114" lon="12.43435">
        <ele>291.0</ele>
      </trkpt>
      <trkpt lat="42.76959" lon="12.43622">
        <ele>300.0</ele>
      </trkpt>
      <trkpt lat="42.76844" lon="12.43687">
        <ele>306.0</ele>
      </trkpt>
      <trkpt lat="42.76795" lon="12.4376">
        <ele>307.0</ele>
      </trkpt>
      <trkpt lat="42.76716" lon="12.43829">
        <ele>309.0</ele>
      </trkpt>
      <trkpt lat="42.76519" lon="12.43899">
        <ele>306.0</ele>
      </trkpt>
      <trkpt lat="42.76392" lon="12.43919">
        <ele>309.0</ele>
      </trkpt>
      <trkpt lat="42.76171" lon="12.44047">
        <ele>313.0</ele>
      </trkpt>
      <trkpt lat="42.76107" lon="12.44169">
        <ele>309.0</ele>
      </trkpt>
      <trkpt lat="42.76022" lon="12.44436">
        <ele>302.0</ele>
      </trkpt>
      <trkpt lat="42.75973" lon="12.44552">
        <ele>301.0</ele>
      </trkpt>
      <trkpt lat="42.75631" lon="12.44966">
        <ele>300.0</ele>
      </trkpt>
      <trkpt lat="42.75467" lon="12.45117">
        <ele>298.0</ele>
      </trkpt>
      <trkpt lat="42.75242" lon="12.45366">
        <ele>290.0</ele>
      </trkpt>
      <trkpt lat="42.75208" lon="12.45434">
        <ele>294.0</ele>
      </trkpt>
      <trkpt lat="42.7518" lon="12.45576">
        <ele>300.0</ele>
      </trkpt>
      <trkpt lat="42.75021" lon="12.45835">
        <ele>309.0</ele>
      </trkpt>
      <trkpt lat="42.74911" lon="12.46078">
        <ele>312.0</ele>
      </trkpt>
      <trkpt lat="42.7468" lon="12.46328">
        <ele>319.0</ele>
      </trkpt>
      <trkpt lat="42.74547" lon="12.466">
        <ele>320.0</ele>
      </trkpt>
      <trkpt lat="42.74445" lon="12.46714">
        <ele>324.0</ele>
      </trkpt>
      <trkpt lat="42.74424" lon="12.46777">
        <ele>323.0</ele>
      </trkpt>
      <trkpt lat="42.74421" lon="12.46835">
        <ele>322.0</ele>
      </trkpt>
      <trkpt lat="42.74486" lon="12.47481">
        <ele>305.0</ele>
      </trkpt>
      <trkpt lat="42.74459" lon="12.47761">
        <ele>301.0</ele>
      </trkpt>
      <trkpt lat="42.74423" lon="12.47906">
        <ele>297.0</ele>
      </trkpt>
      <trkpt lat="42.74439" lon="12.48234">
        <ele>293.0</ele>
      </trkpt>
      <trkpt lat="42.74418" lon="12.48288">
        <ele>292.0</ele>
      </trkpt>
      <trkpt lat="42.74334" lon="12.48367">
        <ele>290.0</ele>
      </trkpt>
      <trkpt lat="42.74245" lon="12.48377">
        <ele>286.0</ele>
      </trkpt>
      <trkpt lat="42.74195" lon="12.4837">
        <ele>281.0</ele>
      </trkpt>
      <trkpt lat="42.74096" lon="12.48322">
        <ele>274.0</ele>
      </trkpt>
      <trkpt lat="42.73944" lon="12.48303">
        <ele>269.0</ele>
      </trkpt>
      <trkpt lat="42.73905" lon="12.48282">
        <ele>267.0</ele>
      </trkpt>
      <trkpt lat="42.7386" lon="12.48193">
        <ele>264.0</ele>
      </trkpt>
      <trkpt lat="42.73822" lon="12.48164">
        <ele>263.0</ele>
      </trkpt>
      <trkpt lat="42.73747" lon="12.48151">
        <ele>261.0</ele>
      </trkpt>
      <trkpt lat="42.7366" lon="12.48163">
        <ele>259.0</ele>
      </trkpt>
      <trkpt lat="42.73615" lon="12.4815">
        <ele>258.0</ele>
      </trkpt>
      <trkpt lat="42.73333" lon="12.4793">
        <ele>256.0</ele>
      </trkpt>
      <trkpt lat="42.73233" lon="12.4789">
        <ele>254.0</ele>
      </trkpt>
      <trkpt lat="42.7317" lon="12.47798">
        <ele>250.0</ele>
      </trkpt>
      <trkpt lat="42.73144" lon="12.47781">
        <ele>248.0</ele>
      </trkpt>
      <trkpt lat="42.72929" lon="12.4779">
        <ele>241.0</ele>
      </trkpt>
      <trkpt lat="42.729" lon="12.47815">
        <ele>239.0</ele>
      </trkpt>
      <trkpt lat="42.72868" lon="12.48008">
        <ele>235.0</ele>
      </trkpt>
      <trkpt lat="42.7276" lon="12.48151">
        <ele>229.0</ele>
      </trkpt>
      <trkpt lat="42.72781" lon="12.48317">
        <ele>221.0</ele>
      </trkpt>
      <trkpt lat="42.72778" lon="12.48388">
        <ele>218.0</ele>
      </trkpt>
      <trkpt lat="42.7258" lon="12.48828">
        <ele>211.0</ele>
      </trkpt>
      <trkpt lat="42.72576" lon="12.48896">
        <ele>209.0</ele>
      </trkpt>
      <trkpt lat="42.72607" lon="12.49171">
        <ele>205.0</ele>
      </trkpt>
      <trkpt lat="42.72567" lon="12.49372">
        <ele>204.0</ele>
      </trkpt>
      <trkpt lat="42.72628" lon="12.49736">
        <ele>206.0</ele>
      </trkpt>
      <trkpt lat="42.72625" lon="12.49812">
        <ele>206.0</ele>
      </trkpt>
      <trkpt lat="42.72547" lon="12.50022">
        <ele>206.0</ele>
      </trkpt>
      <trkpt lat="42.72513" lon="12.50174">
        <ele>209.0</ele>
      </trkpt>
      <trkpt lat="42.72474" lon="12.50212">
        <ele>210.0</ele>
      </trkpt>
      <trkpt lat="42.72408" lon="12.50214">
        <ele>210.0</ele>
      </trkpt>
      <trkpt lat="42.72363" lon="12.50235">
        <ele>209.0</ele>
      </trkpt>
      <trkpt lat="42.72297" lon="12.50328">
        <ele>207.0</ele>
      </trkpt>
      <trkpt lat="42.72221" lon="12.5056">
        <ele>207.0</ele>
      </trkpt>
      <trkpt lat="42.72202" lon="12.50692">
        <ele>207.0</ele>
      </trkpt>
      <trkpt lat="42.72323" lon="12.51253">
        <ele>208.0</ele>
      </trkpt>
      <trkpt lat="42.72525" lon="12.51825">
        <ele>214.0</ele>
      </trkpt>
      <trkpt lat="42.72598" lon="12.52122">
        <ele>218.0</ele>
      </trkpt>
      <trkpt lat="42.72755" lon="12.53176">
        <ele>226.0</ele>
      </trkpt>
      <trkpt lat="42.72739" lon="12.53425">
        <ele>229.0</ele>
      </trkpt>
      <trkpt lat="42.72738" lon="12.53687">
        <ele>230.0</ele>
      </trkpt>
      <trkpt lat="42.72726" lon="12.53752">
        <ele>231.0</ele>
      </trkpt>
      <trkpt lat="42.72699" lon="12.53814">
        <ele>233.0</ele>
      </trkpt>
      <trkpt lat="42.72359" lon="12.54476">
        <ele>238.0</ele>
      </trkpt>
      <trkpt lat="42.72321" lon="12.5451">
        <ele>239.0</ele>
      </trkpt>
      <trkpt lat="42.72229" lon="12.54505">
        <ele>239.0</ele>
      </trkpt>
      <trkpt lat="42.72213" lon="12.54526">
        <ele>239.0</ele>
      </trkpt>
      <trkpt lat="42.72206" lon="12.54744">
        <ele>240.0</ele>
      </trkpt>
      <trkpt lat="42.72182" lon="12.54808">
        <ele>240.0</ele>
      </trkpt>
      <trkpt lat="42.71849" lon="12.55287">
        <ele>242.0</ele>
      </trkpt>
      <trkpt lat="42.71732" lon="12.55358">
        <ele>245.0</ele>
      </trkpt>
      <trkpt lat="42.71512" lon="12.55357">
        <ele>249.0</ele>
      </trkpt>
      <trkpt lat="42.71274" lon="12.55152">
        <ele>254.0</ele>
      </trkpt>
      <trkpt lat="42.71202" lon="12.55033">
        <ele>256.0</ele>
      </trkpt>
      <trkpt lat="42.71013" lon="12.54948">
        <ele>259.0</ele>
      </trkpt>
      <trkpt lat="42.70895" lon="12.55016">
        <ele>261.0</ele>
      </trkpt>
      <trkpt lat="42.70813" lon="12.55005">
        <ele>262.0</ele>
      </trkpt>
      <trkpt lat="42.70648" lon="12.54895">
        <ele>268.0</ele>
      </trkpt>
      <trkpt lat="42.70506" lon="12.54936">
        <ele>267.0</ele>
      </trkpt>
      <trkpt lat="42.70204" lon="12.54904">
        <ele>272.0</ele>
      </trkpt>
      <trkpt lat="42.70162" lon="12.54935">
        <ele>271.0</ele>
      </trkpt>
      <trkpt lat="42.70121" lon="12.55052">
        <ele>270.0</ele>
      </trkpt>
      <trkpt lat="42.70081" lon="12.5507">
        <ele>270.0</ele>
      </trkpt>
      <trkpt lat="42.69541" lon="12.54815">
        <ele>280.0</ele>
      </trkpt>
      <trkpt lat="42.6908" lon="12.5489">
        <ele>281.0</ele>
      </trkpt>
      <trkpt lat="42.68923" lon="12.54939">
        <ele>283.0</ele>
      </trkpt>
      <trkpt lat="42.68512" lon="12.55">
        <ele>286.0</ele>
      </trkpt>
      <trkpt lat="42.68347" lon="12.55048">
        <ele>285.0</ele>
      </trkpt>
      <trkpt lat="42.6825" lon="12.55021">
        <ele>287.0</ele>
      </trkpt>
      <trkpt lat="42.68233" lon="12.55001">
        <ele>288.0</ele>
      </trkpt>
      <trkpt lat="42.68236" lon="12.54959">
        <ele>290.0</ele>
      </trkpt>
      <trkpt lat="42.68218" lon="12.54948">
        <ele>290.0</ele>
      </trkpt>
      <trkpt lat="42.68195" lon="12.54972">
        <ele>291.0</ele>
      </trkpt>
      <trkpt lat="42.68132" lon="12.54978">
        <ele>291.0</ele>
      </trkpt>
      <trkpt lat="42.67914" lon="12.55089">
        <ele>290.0</ele>
      </trkpt>
      <trkpt lat="42.66941" lon="12.55247">
        <ele>308.0</ele>
      </trkpt>
      <trkpt lat="42.66878" lon="12.55232">
        <ele>310.0</ele>
      </trkpt>
      <trkpt lat="42.66832" lon="12.55198">
        <ele>311.0</ele>
      </trkpt>
      <trkpt lat="42.6671" lon="12.55038">
        <ele>314.0</ele>
      </trkpt>
      <trkpt lat="42.66593" lon="12.55177">
        <ele>318.0</ele>
      </trkpt>
      <trkpt lat="42.66259" lon="12.55351">
        <ele>326.0</ele>
      </trkpt>
      <trkpt lat="42.66103" lon="12.55368">
        <ele>333.0</ele>
      </trkpt>
      <trkpt lat="42.66" lon="12.55354">
        <ele>337.0</ele>
      </trkpt>
      <trkpt lat="42.65865" lon="12.55378">
        <ele>341.0</ele>
      </trkpt>
      <trkpt lat="42.65646" lon="12.5539">
        <ele>349.0</ele>
      </trkpt>
      <trkpt lat="42.65025" lon="12.55525">
        <ele>384.0</ele>
      </trkpt>
      <trkpt lat="42.64928" lon="12.55601">
        <ele>392.0</ele>
      </trkpt>
      <trkpt lat="42.6485" lon="12.55713">
        <ele>400.0</ele>
      </trkpt>
      <trkpt lat="42.64649" lon="12.55821">
        <ele>417.0</ele>
      </trkpt>
      <trkpt lat="42.64599" lon="12.55874">
        <ele>421.0</ele>
      </trkpt>
      <trkpt lat="42.6454" lon="12.5597">
        <ele>425.0</ele>
      </trkpt>
      <trkpt lat="42.64463" lon="12.56014">
        <ele>428.0</ele>
      </trkpt>
      <trkpt lat="42.64444" lon="12.56043">
        <ele>430.0</ele>
      </trkpt>
      <trkpt lat="42.64425" lon="12.56116">
        <ele>433.0</ele>
      </trkpt>
      <trkpt lat="42.64383" lon="12.5617">
        <ele>437.0</ele>
      </trkpt>
      <trkpt lat="42.64339" lon="12.56263">
        <ele>442.0</ele>
      </trkpt>
      <trkpt lat="42.6431" lon="12.56285">
        <ele>447.0</ele>
      </trkpt>
      <trkpt lat="42.64268" lon="12.56278">
        <ele>449.0</ele>
      </trkpt>
      <trkpt lat="42.6422" lon="12.56226">
        <ele>451.0</ele>
      </trkpt>
      <trkpt lat="42.64115" lon="12.56224">
        <ele>452.0</ele>
      </trkpt>
      <trkpt lat="42.64014" lon="12.56175">
        <ele>453.0</ele>
      </trkpt>
      <trkpt lat="42.63864" lon="12.56238">
        <ele>457.0</ele>
      </trkpt>
      <trkpt lat="42.63514" lon="12.56138">
        <ele>469.0</ele>
      </trkpt>
      <trkpt lat="42.6348" lon="12.56143">
        <ele>470.0</ele>
      </trkpt>
      <trkpt lat="42.63436" lon="12.56188">
        <ele>471.0</ele>
      </trkpt>
      <trkpt lat="42.63413" lon="12.56234">
        <ele>472.0</ele>
      </trkpt>
      <trkpt lat="42.63336" lon="12.56447">
        <ele>471.0</ele>
      </trkpt>
      <trkpt lat="42.63315" lon="12.56478">
        <ele>470.0</ele>
      </trkpt>
      <trkpt lat="42.63281" lon="12.56485">
        <ele>468.0</ele>
      </trkpt>
      <trkpt lat="42.631" lon="12.56423">
        <ele>459.0</ele>
      </trkpt>
      <trkpt lat="42.63039" lon="12.56429">
        <ele>455.0</ele>
      </trkpt>
      <trkpt lat="42.62926" lon="12.56491">
        <ele>450.0</ele>
      </trkpt>
      <trkpt lat="42.62851" lon="12.56591">
        <ele>442.0</ele>
      </trkpt>
      <trkpt lat="42.62768" lon="12.56615">
        <ele>438.0</ele>
      </trkpt>
      <trkpt lat="42.62709" lon="12.56699">
        <ele>438.0</ele>
      </trkpt>
      <trkpt lat="42.62579" lon="12.56725">
        <ele>439.0</ele>
      </trkpt>
      <trkpt lat="42.62501" lon="12.56678">
        <ele>442.0</ele>
      </trkpt>
      <trkpt lat="42.6245" lon="12.5669">
        <ele>443.0</ele>
      </trkpt>
      <trkpt lat="42.62414" lon="12.56738">
        <ele>443.0</ele>
      </trkpt>
      <trkpt lat="42.62413" lon="12.56856">
        <ele>442.0</ele>
      </trkpt>
      <trkpt lat="42.62371" lon="12.57018">
        <ele>437.0</ele>
      </trkpt>
      <trkpt lat="42.62253" lon="12.56988">
        <ele>434.0</ele>
      </trkpt>
      <trkpt lat="42.62196" lon="12.56995">
        <ele>428.0</ele>
      </trkpt>
      <trkpt lat="42.62162" lon="12.57029">
        <ele>424.0</ele>
      </trkpt>
      <trkpt lat="42.62144" lon="12.571">
        <ele>420.0</ele>
      </trkpt>
      <trkpt lat="42.62013" lon="12.57158">
        <ele>414.0</ele>
      </trkpt>
      <trkpt lat="42.61885" lon="12.57277">
        <ele>410.0</ele>
      </trkpt>
      <trkpt lat="42.6181" lon="12.57259">
        <ele>404.0</ele>
      </trkpt>
      <trkpt lat="42.61723" lon="12.57297">
        <ele>400.0</ele>
      </trkpt>
      <trkpt lat="42.61658" lon="12.57372">
        <ele>396.0</ele>
      </trkpt>
      <trkpt lat="42.61598" lon="12.57475">
        <ele>393.0</ele>
      </trkpt>
      <trkpt lat="42.61417" lon="12.5764">
        <ele>390.0</ele>
      </trkpt>
      <trkpt lat="42.61264" lon="12.57846">
        <ele>397.0</ele>
      </trkpt>
      <trkpt lat="42.61186" lon="12.57964">
        <ele>401.0</ele>
      </trkpt>
      <trkpt lat="42.61041" lon="12.58256">
        <ele>406.0</ele>
      </trkpt>
      <trkpt lat="42.60932" lon="12.58301">
        <ele>394.0</ele>
      </trkpt>
      <trkpt lat="42.60884" lon="12.58217">
        <ele>380.0</ele>
      </trkpt>
      <trkpt lat="42.60838" lon="12.58198">
        <ele>374.0</ele>
      </trkpt>
      <trkpt lat="42.60807" lon="12.58217">
        <ele>370.0</ele>
      </trkpt>
      <trkpt lat="42.60785" lon="12.58244">
        <ele>367.0</ele>
      </trkpt>
      <trkpt lat="42.60749" lon="12.58379">
        <ele>358.0</ele>
      </trkpt>
      <trkpt lat="42.6063" lon="12.58553">
        <ele>346.0</ele>
      </trkpt>
      <trkpt lat="42.60505" lon="12.58782">
        <ele>323.0</ele>
      </trkpt>
      <trkpt lat="42.60366" lon="12.58876">
        <ele>317.0</ele>
      </trkpt>
      <trkpt lat="42.60249" lon="12.5905">
        <ele>304.0</ele>
      </trkpt>
      <trkpt lat="42.60198" lon="12.59072">
        <ele>299.0</ele>
      </trkpt>
      <trkpt lat="42.60097" lon="12.59168">
        <ele>292.0</ele>
      </trkpt>
      <trkpt lat="42.60003" lon="12.59232">
        <ele>283.0</ele>
      </trkpt>
      <trkpt lat="42.59935" lon="12.59263">
        <ele>266.0</ele>
      </trkpt>
      <trkpt lat="42.59823" lon="12.59381">
        <ele>249.0</ele>
      </trkpt>
      <trkpt lat="42.59743" lon="12.59491">
        <ele>239.0</ele>
      </trkpt>
      <trkpt lat="42.59677" lon="12.59261">
        <ele>218.0</ele>
      </trkpt>
      <trkpt lat="42.59595" lon="12.59229">
        <ele>214.0</ele>
      </trkpt>
      <trkpt lat="42.59484" lon="12.59255">
        <ele>207.0</ele>
      </trkpt>
      <trkpt lat="42.59458" lon="12.59323">
        <ele>203.0</ele>
      </trkpt>
      <trkpt lat="42.59448" lon="12.59478">
        <ele>199.0</ele>
      </trkpt>
      <trkpt lat="42.59475" lon="12.59614">
        <ele>197.0</ele>
      </trkpt>
      <trkpt lat="42.59525" lon="12.59754">
        <ele>195.0</ele>
      </trkpt>
      <trkpt lat="42.5949" lon="12.59902">
        <ele>193.0</ele>
      </trkpt>
      <trkpt lat="42.59469" lon="12.59936">
        <ele>192.0</ele>
      </trkpt>
      <trkpt lat="42.59313" lon="12.60077">
        <ele>191.0</ele>
      </trkpt>
      <trkpt lat="42.59163" lon="12.60188">
        <ele>188.0</ele>
      </trkpt>
      <trkpt lat="42.58935" lon="12.60478">
        <ele>182.0</ele>
      </trkpt>
      <trkpt lat="42.58893" lon="12.60501">
        <ele>181.0</ele>
      </trkpt>
      <trkpt lat="42.58816" lon="12.60498">
        <ele>178.0</ele>
      </trkpt>
      <trkpt lat="42.58717" lon="12.60436">
        <ele>171.0</ele>
      </trkpt>
      <trkpt lat="42.58667" lon="12.60371">
        <ele>166.0</ele>
      </trkpt>
      <trkpt lat="42.58595" lon="12.60174">
        <ele>160.0</ele>
      </trkpt>
      <trkpt lat="42.58568" lon="12.60157">
        <ele>158.0</ele>
      </trkpt>
      <trkpt lat="42.58549" lon="12.60166">
        <ele>157.0</ele>
      </trkpt>
      <trkpt lat="42.58534" lon="12.60199">
        <ele>156.0</ele>
      </trkpt>
      <trkpt lat="42.58541" lon="12.60307">
        <ele>155.0</ele>
      </trkpt>
      <trkpt lat="42.58245" lon="12.61467">
        <ele>155.0</ele>
      </trkpt>
      <trkpt lat="42.58029" lon="12.61992">
        <ele>149.0</ele>
      </trkpt>
      <trkpt lat="42.57906" lon="12.62218">
        <ele>140.0</ele>
      </trkpt>
      <trkpt lat="42.5786" lon="12.62281">
        <ele>137.0</ele>
      </trkpt>
      <trkpt lat="42.57829" lon="12.62295">
        <ele>136.0</ele>
      </trkpt>
      <trkpt lat="42.57813" lon="12.6234">
        <ele>135.0</ele>
      </trkpt>
      <trkpt lat="42.57684" lon="12.62504">
        <ele>134.0</ele>
      </trkpt>
      <trkpt lat="42.57579" lon="12.62577">
        <ele>134.0</ele>
      </trkpt>
      <trkpt lat="42.57552" lon="12.62645">
        <ele>134.0</ele>
      </trkpt>
      <trkpt lat="42.57459" lon="12.62681">
        <ele>135.0</ele>
      </trkpt>
      <trkpt lat="42.57415" lon="12.62715">
        <ele>137.0</ele>
      </trkpt>
      <trkpt lat="42.57243" lon="12.62911">
        <ele>134.0</ele>
      </trkpt>
      <trkpt lat="42.57071" lon="12.6303">
        <ele>128.0</ele>
      </trkpt>
      <trkpt lat="42.56881" lon="12.63052">
        <ele>124.0</ele>
      </trkpt>
      <trkpt lat="42.56838" lon="12.6308">
        <ele>123.0</ele>
      </trkpt>
      <trkpt lat="42.56502" lon="12.63766">
        <ele>121.0</ele>
      </trkpt>
      <trkpt lat="42.56476" lon="12.63774">
        <ele>121.0</ele>
      </trkpt>
      <trkpt lat="42.56345" lon="12.63681">
        <ele>121.0</ele>
      </trkpt>
      <trkpt lat="42.56294" lon="12.63668">
        <ele>122.0</ele>
      </trkpt>
      <trkpt lat="42.55935" lon="12.63674">
        <ele>118.0</ele>
      </trkpt>
      <trkpt lat="42.55851" lon="12.6391">
        <ele>120.0</ele>
      </trkpt>
      <trkpt lat="42.55835" lon="12.63936">
        <ele>121.0</ele>
      </trkpt>
      <trkpt lat="42.55808" lon="12.63943">
        <ele>120.0</ele>
      </trkpt>
      <trkpt lat="42.5529" lon="12.63608">
        <ele>124.0</ele>
      </trkpt>
      <trkpt lat="42.55229" lon="12.63595">
        <ele>125.0</ele>
      </trkpt>
      <trkpt lat="42.55097" lon="12.6362">
        <ele>129.0</ele>
      </trkpt>
      <trkpt lat="42.55092" lon="12.6364">
        <ele>129.0</ele>
      </trkpt>
      <trkpt lat="42.55136" lon="12.63722">
        <ele>130.0</ele>
      </trkpt>
      <trkpt lat="42.55209" lon="12.63972">
        <ele>130.0</ele>
      </trkpt>
      <trkpt lat="42.55279" lon="12.6442">
        <ele>129.0</ele>
      </trkpt>
      <trkpt lat="42.55296" lon="12.64597">
        <ele>128.0</ele>
      </trkpt>
      <trkpt lat="42.55406" lon="12.64868">
        <ele>129.0</ele>
      </trkpt>
      <trkpt lat="42.5547" lon="12.64976">
        <ele>131.0</ele>
      </trkpt>
      <trkpt lat="42.55526" lon="12.6519">
        <ele>133.0</ele>
      </trkpt>
      <trkpt lat="42.55513" lon="12.65219">
        <ele>135.0</ele>
      </trkpt>
      <trkpt lat="42.55478" lon="12.65217">
        <ele>135.0</ele>
      </trkpt>
      <trkpt lat="42.55433" lon="12.65276">
        <ele>137.0</ele>
      </trkpt>
      <trkpt lat="42.55103" lon="12.65427">
        <ele>147.0</ele>
      </trkpt>
      <trkpt lat="42.5507" lon="12.65406">
        <ele>152.0</ele>
      </trkpt>
      <trkpt lat="42.5506" lon="12.65415">
        <ele>151.0</ele>
      </trkpt>
      <trkpt lat="42.55125" lon="12.65538">
        <ele>149.0</ele>
      </trkpt>
      <trkpt lat="42.55174" lon="12.65587">
        <ele>147.0</ele>
      </trkpt>
      <trkpt lat="42.55249" lon="12.65606">
        <ele>147.0</ele>
      </trkpt>
      <trkpt lat="42.55452" lon="12.65584">
        <ele>150.0</ele>
      </trkpt>
      <trkpt lat="42.5549" lon="12.65606">
        <ele>151.0</ele>
      </trkpt>
      <trkpt lat="42.5551" lon="12.65652">
        <ele>152.0</ele>
      </trkpt>
      <trkpt lat="42.55505" lon="12.65788">
        <ele>152.0</ele>
      </trkpt>
      <trkpt lat="42.55474" lon="12.65919">
        <ele>151.0</ele>
      </trkpt>
      <trkpt lat="42.55421" lon="12.66012">
        <ele>151.0</ele>
      </trkpt>
      <trkpt lat="42.55394" lon="12.66102">
        <ele>152.0</ele>
      </trkpt>
      <trkpt lat="42.55371" lon="12.66516">
        <ele>155.0</ele>
      </trkpt>
      <trkpt lat="42.55333" lon="12.66695">
        <ele>159.0</ele>
      </trkpt>
      <trkpt lat="42.55297" lon="12.67027">
        <ele>169.0</ele>
      </trkpt>
      <trkpt lat="42.55268" lon="12.67125">
        <ele>176.0</ele>
      </trkpt>
      <trkpt lat="42.55327" lon="12.67271">
        <ele>182.0</ele>
      </trkpt>
      <trkpt lat="42.55325" lon="12.67455">
        <ele>189.0</ele>
      </trkpt>
      <trkpt lat="42.55363" lon="12.67666">
        <ele>192.0</ele>
      </trkpt>
      <trkpt lat="42.55361" lon="12.67853">
        <ele>197.0</ele>
      </trkpt>
      <trkpt lat="42.55311" lon="12.68072">
        <ele>206.0</ele>
      </trkpt>
      <trkpt lat="42.55296" lon="12.68282">
        <ele>215.0</ele>
      </trkpt>
      <trkpt lat="42.55327" lon="12.68481">
        <ele>223.0</ele>
      </trkpt>
      <trkpt lat="42.55231" lon="12.68596">
        <ele>228.0</ele>
      </trkpt>
      <trkpt lat="42.55155" lon="12.68615">
        <ele>232.0</ele>
      </trkpt>
      <trkpt lat="42.5509" lon="12.68655">
        <ele>235.0</ele>
      </trkpt>
      <trkpt lat="42.55027" lon="12.68738">
        <ele>243.0</ele>
      </trkpt>
      <trkpt lat="42.54923" lon="12.68775">
        <ele>253.0</ele>
      </trkpt>
      <trkpt lat="42.54845" lon="12.68766">
        <ele>265.0</ele>
      </trkpt>
      <trkpt lat="42.54855" lon="12.68806">
        <ele>267.0</ele>
      </trkpt>
      <trkpt lat="42.54901" lon="12.68879">
        <ele>267.0</ele>
      </trkpt>
      <trkpt lat="42.54909" lon="12.68925">
        <ele>267.0</ele>
      </trkpt>
      <trkpt lat="42.5489" lon="12.68985">
        <ele>268.0</ele>
      </trkpt>
      <trkpt lat="42.54811" lon="12.69064">
        <ele>273.0</ele>
      </trkpt>
      <trkpt lat="42.54769" lon="12.69055">
        <ele>278.0</ele>
      </trkpt>
      <trkpt lat="42.54697" lon="12.69003">
        <ele>284.0</ele>
      </trkpt>
      <trkpt lat="42.54606" lon="12.69031">
        <ele>291.0</ele>
      </trkpt>
      <trkpt lat="42.54552" lon="12.69015">
        <ele>294.0</ele>
      </trkpt>
      <trkpt lat="42.54431" lon="12.69023">
        <ele>300.0</ele>
      </trkpt>
      <trkpt lat="42.54356" lon="12.68996">
        <ele>304.0</ele>
      </trkpt>
      <trkpt lat="42.54345" lon="12.69033">
        <ele>304.0</ele>
      </trkpt>
      <trkpt lat="42.54425" lon="12.69116">
        <ele>303.0</ele>
      </trkpt>
      <trkpt lat="42.54491" lon="12.69125">
        <ele>303.0</ele>
      </trkpt>
      <trkpt lat="42.54563" lon="12.69234">
        <ele>313.0</ele>
      </trkpt>
      <trkpt lat="42.54704" lon="12.69316">
        <ele>326.0</ele>
      </trkpt>
      <trkpt lat="42.54729" lon="12.69394">
        <ele>329.0</ele>
      </trkpt>
      <trkpt lat="42.54815" lon="12.69394">
        <ele>331.0</ele>
      </trkpt>
      <trkpt lat="42.54833" lon="12.69603">
        <ele>333.0</ele>
      </trkpt>
      <trkpt lat="42.54789" lon="12.69757">
        <ele>343.0</ele>
      </trkpt>
      <trkpt lat="42.54798" lon="12.69848">
        <ele>353.0</ele>
      </trkpt>
      <trkpt lat="42.54827" lon="12.6992">
        <ele>357.0</ele>
      </trkpt>
      <trkpt lat="42.54892" lon="12.69981">
        <ele>359.0</ele>
      </trkpt>
      <trkpt lat="42.55005" lon="12.70047">
        <ele>359.0</ele>
      </trkpt>
      <trkpt lat="42.55093" lon="12.70053">
        <ele>359.0</ele>
      </trkpt>
      <trkpt lat="42.55133" lon="12.70112">
        <ele>360.0</ele>
      </trkpt>
      <trkpt lat="42.55138" lon="12.70142">
        <ele>361.0</ele>
      </trkpt>
      <trkpt lat="42.55122" lon="12.70201">
        <ele>362.0</ele>
      </trkpt>
      <trkpt lat="42.55143" lon="12.70276">
        <ele>365.0</ele>
      </trkpt>
      <trkpt lat="42.55136" lon="12.70332">
        <ele>366.0</ele>
      </trkpt>
      <trkpt lat="42.55144" lon="12.70443">
        <ele>367.0</ele>
      </trkpt>
      <trkpt lat="42.55164" lon="12.70496">
        <ele>367.0</ele>
      </trkpt>
      <trkpt lat="42.55162" lon="12.70561">
        <ele>368.0</ele>
      </trkpt>
      <trkpt lat="42.55147" lon="12.70612">
        <ele>368.0</ele>
      </trkpt>
      <trkpt lat="42.55076" lon="12.70677">
        <ele>369.0</ele>
      </trkpt>
      <trkpt lat="42.55049" lon="12.70785">
        <ele>369.0</ele>
      </trkpt>
      <trkpt lat="42.5497" lon="12.70946">
        <ele>372.0</ele>
      </trkpt>
      <trkpt lat="42.54819" lon="12.7134">
        <ele>375.0</ele>
      </trkpt>
      <trkpt lat="42.54781" lon="12.71817">
        <ele>377.0</ele>
      </trkpt>
      <trkpt lat="42.54798" lon="12.71898">
        <ele>379.0</ele>
      </trkpt>
      <trkpt lat="42.54615" lon="12.7204">
        <ele>380.0</ele>
      </trkpt>
      <trkpt lat="42.5449" lon="12.72211">
        <ele>380.0</ele>
      </trkpt>
      <trkpt lat="42.54339" lon="12.72468">
        <ele>385.0</ele>
      </trkpt>
      <trkpt lat="42.54326" lon="12.72526">
        <ele>386.0</ele>
      </trkpt>
      <trkpt lat="42.54334" lon="12.72634">
        <ele>388.0</ele>
      </trkpt>
      <trkpt lat="42.54316" lon="12.72761">
        <ele>390.0</ele>
      </trkpt>
      <trkpt lat="42.54312" lon="12.72914">
        <ele>393.0</ele>
      </trkpt>
      <trkpt lat="42.54278" lon="12.72989">
        <ele>394.0</ele>
      </trkpt>
      <trkpt lat="42.54254" lon="12.73106">
        <ele>393.0</ele>
      </trkpt>
      <trkpt lat="42.54136" lon="12.7329">
        <ele>391.0</ele>
      </trkpt>
      <trkpt lat="42.53766" lon="12.73468">
        <ele>384.0</ele>
      </trkpt>
      <trkpt lat="42.53691" lon="12.73553">
        <ele>385.0</ele>
      </trkpt>
      <trkpt lat="42.5351" lon="12.73672">
        <ele>378.0</ele>
      </trkpt>
      <trkpt lat="42.53489" lon="12.73717">
        <ele>377.0</ele>
      </trkpt>
      <trkpt lat="42.53498" lon="12.73764">
        <ele>378.0</ele>
      </trkpt>
      <trkpt lat="42.53581" lon="12.73851">
        <ele>379.0</ele>
      </trkpt>
      <trkpt lat="42.5362" lon="12.73915">
        <ele>379.0</ele>
      </trkpt>
      <trkpt lat="42.5369" lon="12.74134">
        <ele>379.0</ele>
      </trkpt>
      <trkpt lat="42.53706" lon="12.74293">
        <ele>378.0</ele>
      </trkpt>
      <trkpt lat="42.5369" lon="12.74454">
        <ele>377.0</ele>
      </trkpt>
      <trkpt lat="42.53801" lon="12.74539">
        <ele>378.0</ele>
      </trkpt>
      <trkpt lat="42.53935" lon="12.74608">
        <ele>378.0</ele>
      </trkpt>
      <trkpt lat="42.54008" lon="12.747">
        <ele>377.0</ele>
      </trkpt>
      <trkpt lat="42.5401" lon="12.74739">
        <ele>377.0</ele>
      </trkpt>
      <trkpt lat="42.53971" lon="12.74835">
        <ele>377.0</ele>
      </trkpt>
      <trkpt lat="42.53704" lon="12.74851">
        <ele>379.0</ele>
      </trkpt>
      <trkpt lat="42.53689" lon="12.74879">
        <ele>379.0</ele>
      </trkpt>
      <trkpt lat="42.537" lon="12.74947">
        <ele>379.0</ele>
      </trkpt>
      <trkpt lat="42.53749" lon="12.75018">
        <ele>379.0</ele>
      </trkpt>
      <trkpt lat="42.53842" lon="12.75085">
        <ele>379.0</ele>
      </trkpt>
      <trkpt lat="42.53971" lon="12.75221">
        <ele>380.0</ele>
      </trkpt>
      <trkpt lat="42.54091" lon="12.75297">
        <ele>380.0</ele>
      </trkpt>
      <trkpt lat="42.54135" lon="12.75341">
        <ele>380.0</ele>
      </trkpt>
      <trkpt lat="42.54161" lon="12.75384">
        <ele>380.0</ele>
      </trkpt>
      <trkpt lat="42.5422" lon="12.75558">
        <ele>379.0</ele>
      </trkpt>
      <trkpt lat="42.54403" lon="12.75827">
        <ele>378.0</ele>
      </trkpt>
      <trkpt lat="42.54444" lon="12.75931">
        <ele>379.0</ele>
      </trkpt>
      <trkpt lat="42.54453" lon="12.76019">
        <ele>380.0</ele>
      </trkpt>
      <trkpt lat="42.54425" lon="12.76631">
        <ele>383.0</ele>
      </trkpt>
      <trkpt lat="42.54383" lon="12.76806">
        <ele>392.0</ele>
      </trkpt>
      <trkpt lat="42.5433" lon="12.76913">
        <ele>399.0</ele>
      </trkpt>
      <trkpt lat="42.5427" lon="12.76992">
        <ele>403.0</ele>
      </trkpt>
      <trkpt lat="42.54188" lon="12.77065">
        <ele>406.0</ele>
      </trkpt>
      <trkpt lat="42.53721" lon="12.7732">
        <ele>383.0</ele>
      </trkpt>
      <trkpt lat="42.53603" lon="12.77425">
        <ele>379.0</ele>
      </trkpt>
      <trkpt lat="42.53508" lon="12.77598">
        <ele>379.0</ele>
      </trkpt>
      <trkpt lat="42.53416" lon="12.77969">
        <ele>381.0</ele>
      </trkpt>
      <trkpt lat="42.53346" lon="12.78184">
        <ele>385.0</ele>
      </trkpt>
      <trkpt lat="42.53324" lon="12.78208">
        <ele>385.0</ele>
      </trkpt>
      <trkpt lat="42.53187" lon="12.78225">
        <ele>384.0</ele>
      </trkpt>
      <trkpt lat="42.53154" lon="12.78211">
        <ele>386.0</ele>
      </trkpt>
      <trkpt lat="42.5308" lon="12.77951">
        <ele>392.0</ele>
      </trkpt>
      <trkpt lat="42.53057" lon="12.7792">
        <ele>394.0</ele>
      </trkpt>
      <trkpt lat="42.52591" lon="12.77833">
        <ele>389.0</ele>
      </trkpt>
      <trkpt lat="42.52478" lon="12.77782">
        <ele>386.0</ele>
      </trkpt>
      <trkpt lat="42.52305" lon="12.77795">
        <ele>384.0</ele>
      </trkpt>
      <trkpt lat="42.52047" lon="12.78011">
        <ele>384.0</ele>
      </trkpt>
      <trkpt lat="42.51929" lon="12.78078">
        <ele>382.0</ele>
      </trkpt>
      <trkpt lat="42.51829" lon="12.78101">
        <ele>383.0</ele>
      </trkpt>
      <trkpt lat="42.51814" lon="12.78124">
        <ele>384.0</ele>
      </trkpt>
      <trkpt lat="42.51737" lon="12.78426">
        <ele>392.0</ele>
      </trkpt>
      <trkpt lat="42.51665" lon="12.78491">
        <ele>390.0</ele>
      </trkpt>
      <trkpt lat="42.51545" lon="12.78723">
        <ele>395.0</ele>
      </trkpt>
      <trkpt lat="42.51482" lon="12.78763">
        <ele>396.0</ele>
      </trkpt>
      <trkpt lat="42.51378" lon="12.78912">
        <ele>394.0</ele>
      </trkpt>
      <trkpt lat="42.5124" lon="12.79327">
        <ele>402.0</ele>
      </trkpt>
      <trkpt lat="42.51112" lon="12.79547">
        <ele>408.0</ele>
      </trkpt>
      <trkpt lat="42.51021" lon="12.79771">
        <ele>410.0</ele>
      </trkpt>
      <trkpt lat="42.50981" lon="12.7996">
        <ele>415.0</ele>
      </trkpt>
      <trkpt lat="42.50955" lon="12.80012">
        <ele>419.0</ele>
      </trkpt>
      <trkpt lat="42.50895" lon="12.80048">
        <ele>422.0</ele>
      </trkpt>
      <trkpt lat="42.50713" lon="12.79979">
        <ele>424.0</ele>
      </trkpt>
      <trkpt lat="42.50665" lon="12.79981">
        <ele>424.0</ele>
      </trkpt>
      <trkpt lat="42.50615" lon="12.79996">
        <ele>423.0</ele>
      </trkpt>
      <trkpt lat="42.50589" lon="12.80081">
        <ele>421.0</ele>
      </trkpt>
      <trkpt lat="42.50536" lon="12.79994">
        <ele>419.0</ele>
      </trkpt>
      <trkpt lat="42.50458" lon="12.79988">
        <ele>418.0</ele>
      </trkpt>
      <trkpt lat="42.50376" lon="12.80054">
        <ele>418.0</ele>
      </trkpt>
      <trkpt lat="42.50346" lon="12.80101">
        <ele>419.0</ele>
      </trkpt>
      <trkpt lat="42.50324" lon="12.80188">
        <ele>420.0</ele>
      </trkpt>
      <trkpt lat="42.5034" lon="12.80393">
        <ele>428.0</ele>
      </trkpt>
      <trkpt lat="42.50322" lon="12.80421">
        <ele>431.0</ele>
      </trkpt>
      <trkpt lat="42.50285" lon="12.804">
        <ele>435.0</ele>
      </trkpt>
      <trkpt lat="42.50226" lon="12.80548">
        <ele>444.0</ele>
      </trkpt>
      <trkpt lat="42.50167" lon="12.80565">
        <ele>447.0</ele>
      </trkpt>
      <trkpt lat="42.50044" lon="12.80643">
        <ele>454.0</ele>
      </trkpt>
      <trkpt lat="42.50018" lon="12.8064">
        <ele>454.0</ele>
      </trkpt>
      <trkpt lat="42.49968" lon="12.8059">
        <ele>457.0</ele>
      </trkpt>
      <trkpt lat="42.49931" lon="12.80465">
        <ele>458.0</ele>
      </trkpt>
      <trkpt lat="42.49892" lon="12.80425">
        <ele>460.0</ele>
      </trkpt>
      <trkpt lat="42.49861" lon="12.80438">
        <ele>460.0</ele>
      </trkpt>
      <trkpt lat="42.4983" lon="12.80483">
        <ele>461.0</ele>
      </trkpt>
      <trkpt lat="42.49753" lon="12.80484">
        <ele>463.0</ele>
      </trkpt>
      <trkpt lat="42.49632" lon="12.80601">
        <ele>466.0</ele>
      </trkpt>
      <trkpt lat="42.49623" lon="12.80624">
        <ele>466.0</ele>
      </trkpt>
      <trkpt lat="42.49626" lon="12.80686">
        <ele>466.0</ele>
      </trkpt>
      <trkpt lat="42.49598" lon="12.8078">
        <ele>466.0</ele>
      </trkpt>
      <trkpt lat="42.49612" lon="12.80869">
        <ele>465.0</ele>
      </trkpt>
      <trkpt lat="42.49491" lon="12.80902">
        <ele>463.0</ele>
      </trkpt>
      <trkpt lat="42.49429" lon="12.81056">
        <ele>462.0</ele>
      </trkpt>
      <trkpt lat="42.49444" lon="12.81158">
        <ele>460.0</ele>
      </trkpt>
      <trkpt lat="42.49397" lon="12.81215">
        <ele>458.0</ele>
      </trkpt>
      <trkpt lat="42.49383" lon="12.81276">
        <ele>456.0</ele>
      </trkpt>
      <trkpt lat="42.49397" lon="12.81473">
        <ele>451.0</ele>
      </trkpt>
      <trkpt lat="42.49374" lon="12.81551">
        <ele>449.0</ele>
      </trkpt>
      <trkpt lat="42.49374" lon="12.81677">
        <ele>447.0</ele>
      </trkpt>
      <trkpt lat="42.49321" lon="12.81774">
        <ele>444.0</ele>
      </trkpt>
      <trkpt lat="42.49298" lon="12.81911">
        <ele>442.0</ele>
      </trkpt>
      <trkpt lat="42.49298" lon="12.82021">
        <ele>438.0</ele>
      </trkpt>
      <trkpt lat="42.49273" lon="12.82116">
        <ele>435.0</ele>
      </trkpt>
      <trkpt lat="42.49313" lon="12.82388">
        <ele>431.0</ele>
      </trkpt>
      <trkpt lat="42.49301" lon="12.82699">
        <ele>423.0</ele>
      </trkpt>
      <trkpt lat="42.49319" lon="12.82779">
        <ele>420.0</ele>
      </trkpt>
      <trkpt lat="42.49365" lon="12.82896">
        <ele>418.0</ele>
      </trkpt>
      <trkpt lat="42.49371" lon="12.83043">
        <ele>417.0</ele>
      </trkpt>
      <trkpt lat="42.49391" lon="12.83064">
        <ele>417.0</ele>
      </trkpt>
      <trkpt lat="42.49454" lon="12.83085">
        <ele>417.0</ele>
      </trkpt>
      <trkpt lat="42.49524" lon="12.83145">
        <ele>413.0</ele>
      </trkpt>
      <trkpt lat="42.49524" lon="12.8316">
        <ele>411.0</ele>
      </trkpt>
      <trkpt lat="42.49475" lon="12.83195">
        <ele>406.0</ele>
      </trkpt>
      <trkpt lat="42.49511" lon="12.83234">
        <ele>403.0</ele>
      </trkpt>
      <trkpt lat="42.49519" lon="12.83263">
        <ele>400.0</ele>
      </trkpt>
      <trkpt lat="42.49365" lon="12.83712">
        <ele>391.0</ele>
      </trkpt>
      <trkpt lat="42.491" lon="12.84153">
        <ele>382.0</ele>
      </trkpt>
      <trkpt lat="42.49043" lon="12.84167">
        <ele>380.0</ele>
      </trkpt>
      <trkpt lat="42.48881" lon="12.8407">
        <ele>379.0</ele>
      </trkpt>
      <trkpt lat="42.488" lon="12.83903">
        <ele>378.0</ele>
      </trkpt>
      <trkpt lat="42.48744" lon="12.83839">
        <ele>378.0</ele>
      </trkpt>
      <trkpt lat="42.48479" lon="12.83734">
        <ele>375.0</ele>
      </trkpt>
      <trkpt lat="42.48278" lon="12.8348">
        <ele>375.0</ele>
      </trkpt>
      <trkpt lat="42.48213" lon="12.83376">
        <ele>375.0</ele>
      </trkpt>
      <trkpt lat="42.48139" lon="12.83325">
        <ele>375.0</ele>
      </trkpt>
      <trkpt lat="42.48094" lon="12.83317">
        <ele>375.0</ele>
      </trkpt>
      <trkpt lat="42.48065" lon="12.83331">
        <ele>375.0</ele>
      </trkpt>
      <trkpt lat="42.47782" lon="12.83616">
        <ele>375.0</ele>
      </trkpt>
      <trkpt lat="42.47489" lon="12.83631">
        <ele>373.0</ele>
      </trkpt>
      <trkpt lat="42.4734" lon="12.83618">
        <ele>373.0</ele>
      </trkpt>
      <trkpt lat="42.47195" lon="12.83578">
        <ele>374.0</ele>
      </trkpt>
      <trkpt lat="42.46981" lon="12.83254">
        <ele>374.0</ele>
      </trkpt>
      <trkpt lat="42.46786" lon="12.83116">
        <ele>374.0</ele>
      </trkpt>
      <trkpt lat="42.46701" lon="12.83097">
        <ele>374.0</ele>
      </trkpt>
      <trkpt lat="42.46487" lon="12.83152">
        <ele>375.0</ele>
      </trkpt>
      <trkpt lat="42.46392" lon="12.831">
        <ele>374.0</ele>
      </trkpt>
      <trkpt lat="42.4631" lon="12.8299">
        <ele>374.0</ele>
      </trkpt>
      <trkpt lat="42.46269" lon="12.82973">
        <ele>375.0</ele>
      </trkpt>
      <trkpt lat="42.46212" lon="12.82976">
        <ele>375.0</ele>
      </trkpt>
      <trkpt lat="42.4594" lon="12.83134">
        <ele>374.0</ele>
      </trkpt>
      <trkpt lat="42.45849" lon="12.83116">
        <ele>374.0</ele>
      </trkpt>
      <trkpt lat="42.45819" lon="12.83126">
        <ele>374.0</ele>
      </trkpt>
      <trkpt lat="42.45233" lon="12.83656">
        <ele>376.0</ele>
      </trkpt>
      <trkpt lat="42.45194" lon="12.8367">
        <ele>376.0</ele>
      </trkpt>
      <trkpt lat="42.45107" lon="12.83663">
        <ele>375.0</ele>
      </trkpt>
      <trkpt lat="42.45061" lon="12.8369">
        <ele>375.0</ele>
      </trkpt>
      <trkpt lat="42.45009" lon="12.83764">
        <ele>374.0</ele>
      </trkpt>
      <trkpt lat="42.44884" lon="12.84002">
        <ele>374.0</ele>
      </trkpt>
      <trkpt lat="42.44748" lon="12.84378">
        <ele>375.0</ele>
      </trkpt>
      <trkpt lat="42.44687" lon="12.84418">
        <ele>375.0</ele>
      </trkpt>
      <trkpt lat="42.44552" lon="12.84453">
        <ele>376.0</ele>
      </trkpt>
      <trkpt lat="42.44434" lon="12.84549">
        <ele>376.0</ele>
      </trkpt>
      <trkpt lat="42.44379" lon="12.84639">
        <ele>376.0</ele>
      </trkpt>
      <trkpt lat="42.44067" lon="12.84657">
        <ele>376.0</ele>
      </trkpt>
      <trkpt lat="42.43972" lon="12.84727">
        <ele>376.0</ele>
      </trkpt>
      <trkpt lat="42.43901" lon="12.84759">
        <ele>376.0</ele>
      </trkpt>
      <trkpt lat="42.43836" lon="12.84751">
        <ele>375.0</ele>
      </trkpt>
      <trkpt lat="42.43617" lon="12.84652">
        <ele>375.0</ele>
      </trkpt>
      <trkpt lat="42.43458" lon="12.84709">
        <ele>377.0</ele>
      </trkpt>
      <trkpt lat="42.4342" lon="12.84752">
        <ele>379.0</ele>
      </trkpt>
      <trkpt lat="42.43305" lon="12.84973">
        <ele>386.0</ele>
      </trkpt>
      <trkpt lat="42.43166" lon="12.85173">
        <ele>390.0</ele>
      </trkpt>
      <trkpt lat="42.42961" lon="12.85527">
        <ele>391.0</ele>
      </trkpt>
      <trkpt lat="42.42892" lon="12.85583">
        <ele>392.0</ele>
      </trkpt>
      <trkpt lat="42.42888" lon="12.85632">
        <ele>392.0</ele>
      </trkpt>
      <trkpt lat="42.42796" lon="12.85793">
        <ele>392.0</ele>
      </trkpt>
      <trkpt lat="42.42757" lon="12.85829">
        <ele>391.0</ele>
      </trkpt>
      <trkpt lat="42.42532" lon="12.85952">
        <ele>390.0</ele>
      </trkpt>
      <trkpt lat="42.42269" lon="12.86268">
        <ele>394.0</ele>
      </trkpt>
      <trkpt lat="42.42041" lon="12.86454">
        <ele>395.0</ele>
      </trkpt>
      <trkpt lat="42.41983" lon="12.86482">
        <ele>395.0</ele>
      </trkpt>
      <trkpt lat="42.41775" lon="12.86535">
        <ele>394.0</ele>
      </trkpt>
      <trkpt lat="42.41591" lon="12.86612">
        <ele>392.0</ele>
      </trkpt>
      <trkpt lat="42.41555" lon="12.86616">
        <ele>392.0</ele>
      </trkpt>
      <trkpt lat="42.41519" lon="12.86594">
        <ele>392.0</ele>
      </trkpt>
      <trkpt lat="42.4151" lon="12.86628">
        <ele>392.0</ele>
      </trkpt>
      <trkpt lat="42.41149" lon="12.86616">
        <ele>392.0</ele>
      </trkpt>
      <trkpt lat="42.41071" lon="12.8663">
        <ele>392.0</ele>
      </trkpt>
      <trkpt lat="42.40929" lon="12.86777">
        <ele>392.0</ele>
      </trkpt>
      <trkpt lat="42.40749" lon="12.87017">
        <ele>395.0</ele>
      </trkpt>
      <trkpt lat="42.4044" lon="12.87172">
        <ele>402.0</ele>
      </trkpt>
      <trkpt lat="42.40315" lon="12.87192">
        <ele>401.0</ele>
      </trkpt>
      <trkpt lat="42.40286" lon="12.8718">
        <ele>400.0</ele>
      </trkpt>
      <trkpt lat="42.4017" lon="12.87045">
        <ele>398.0</ele>
      </trkpt>
      <trkpt lat="42.40156" lon="12.87008">
        <ele>399.0</ele>
      </trkpt>
      <trkpt lat="42.39882" lon="12.87007">
        <ele>403.0</ele>
      </trkpt>
      <trkpt lat="42.39861" lon="12.87018">
        <ele>404.0</ele>
      </trkpt>
      <trkpt lat="42.39795" lon="12.87108">
        <ele>404.0</ele>
      </trkpt>
      <trkpt lat="42.39768" lon="12.87222">
        <ele>405.0</ele>
      </trkpt>
      <trkpt lat="42.39735" lon="12.87283">
        <ele>405.0</ele>
      </trkpt>
      <trkpt lat="42.39709" lon="12.87302">
        <ele>405.0</ele>
      </trkpt>
      <trkpt lat="42.39622" lon="12.87315">
        <ele>404.0</ele>
      </trkpt>
      <trkpt lat="42.39584" lon="12.87354">
        <ele>403.0</ele>
      </trkpt>
      <trkpt lat="42.3954" lon="12.87447">
        <ele>402.0</ele>
      </trkpt>
      <trkpt lat="42.39453" lon="12.87817">
        <ele>399.0</ele>
      </trkpt>
      <trkpt lat="42.3938" lon="12.88034">
        <ele>396.0</ele>
      </trkpt>
      <trkpt lat="42.39311" lon="12.8815">
        <ele>396.0</ele>
      </trkpt>
      <trkpt lat="42.39252" lon="12.88318">
        <ele>396.0</ele>
      </trkpt>
      <trkpt lat="42.39203" lon="12.88691">
        <ele>398.0</ele>
      </trkpt>
      <trkpt lat="42.39182" lon="12.88741">
        <ele>400.0</ele>
      </trkpt>
      <trkpt lat="42.39083" lon="12.88844">
        <ele>404.0</ele>
      </trkpt>
      <trkpt lat="42.39031" lon="12.88983">
        <ele>408.0</ele>
      </trkpt>
      <trkpt lat="42.38975" lon="12.89082">
        <ele>411.0</ele>
      </trkpt>
      <trkpt lat="42.38941" lon="12.89215">
        <ele>411.0</ele>
      </trkpt>
      <trkpt lat="42.38918" lon="12.89558">
        <ele>406.0</ele>
      </trkpt>
      <trkpt lat="42.38824" lon="12.89707">
        <ele>404.0</ele>
      </trkpt>
      <trkpt lat="42.38703" lon="12.90092">
        <ele>402.0</ele>
      </trkpt>
      <trkpt lat="42.38604" lon="12.90363">
        <ele>399.0</ele>
      </trkpt>
      <trkpt lat="42.38503" lon="12.90428">
        <ele>400.0</ele>
      </trkpt>
      <trkpt lat="42.38365" lon="12.90577">
        <ele>400.0</ele>
      </trkpt>
      <trkpt lat="42.38245" lon="12.90734">
        <ele>400.0</ele>
      </trkpt>
      <trkpt lat="42.38085" lon="12.90896">
        <ele>398.0</ele>
      </trkpt>
      <trkpt lat="42.38003" lon="12.91043">
        <ele>398.0</ele>
      </trkpt>
      <trkpt lat="42.37694" lon="12.91327">
        <ele>401.0</ele>
      </trkpt>
      <trkpt lat="42.37657" lon="12.91389">
        <ele>404.0</ele>
      </trkpt>
      <trkpt lat="42.37539" lon="12.91716">
        <ele>406.0</ele>
      </trkpt>
      <trkpt lat="42.37513" lon="12.91761">
        <ele>407.0</ele>
      </trkpt>
      <trkpt lat="42.37351" lon="12.91885">
        <ele>406.0</ele>
      </trkpt>
      <trkpt lat="42.37308" lon="12.92171">
        <ele>401.0</ele>
      </trkpt>
      <trkpt lat="42.37283" lon="12.92219">
        <ele>401.0</ele>
      </trkpt>
      <trkpt lat="42.37183" lon="12.92285">
        <ele>405.0</ele>
      </trkpt>
      <trkpt lat="42.36826" lon="12.92578">
        <ele>412.0</ele>
      </trkpt>
      <trkpt lat="42.3671" lon="12.92611">
        <ele>411.0</ele>
      </trkpt>
      <trkpt lat="42.36564" lon="12.92589">
        <ele>405.0</ele>
      </trkpt>
      <trkpt lat="42.36523" lon="12.92598">
        <ele>404.0</ele>
      </trkpt>
      <trkpt lat="42.36437" lon="12.92649">
        <ele>403.0</ele>
      </trkpt>
      <trkpt lat="42.36344" lon="12.9274">
        <ele>402.0</ele>
      </trkpt>
      <trkpt lat="42.36266" lon="12.92793">
        <ele>401.0</ele>
      </trkpt>
      <trkpt lat="42.36083" lon="12.92838">
        <ele>401.0</ele>
      </trkpt>
      <trkpt lat="42.36022" lon="12.92869">
        <ele>403.0</ele>
      </trkpt>
      <trkpt lat="42.35972" lon="12.92909">
        <ele>404.0</ele>
      </trkpt>
      <trkpt lat="42.35917" lon="12.9298">
        <ele>403.0</ele>
      </trkpt>
      <trkpt lat="42.3587" lon="12.93089">
        <ele>403.0</ele>
      </trkpt>
      <trkpt lat="42.35817" lon="12.93355">
        <ele>403.0</ele>
      </trkpt>
      <trkpt lat="42.35753" lon="12.93533">
        <ele>399.0</ele>
      </trkpt>
      <trkpt lat="42.35672" lon="12.93654">
        <ele>398.0</ele>
      </trkpt>
      <trkpt lat="42.35506" lon="12.93824">
        <ele>403.0</ele>
      </trkpt>
      <trkpt lat="42.35446" lon="12.93929">
        <ele>407.0</ele>
      </trkpt>
      <trkpt lat="42.35411" lon="12.94037">
        <ele>408.0</ele>
      </trkpt>
      <trkpt lat="42.3537" lon="12.94424">
        <ele>411.0</ele>
      </trkpt>
      <trkpt lat="42.3528" lon="12.94918">
        <ele>415.0</ele>
      </trkpt>
      <trkpt lat="42.35258" lon="12.95306">
        <ele>420.0</ele>
      </trkpt>
      <trkpt lat="42.35233" lon="12.95512">
        <ele>419.0</ele>
      </trkpt>
      <trkpt lat="42.35127" lon="12.9595">
        <ele>425.0</ele>
      </trkpt>
      <trkpt lat="42.35077" lon="12.96098">
        <ele>423.0</ele>
      </trkpt>
      <trkpt lat="42.3501" lon="12.96196">
        <ele>419.0</ele>
      </trkpt>
      <trkpt lat="42.34437" lon="12.9676">
        <ele>416.0</ele>
      </trkpt>
      <trkpt lat="42.34257" lon="12.97001">
        <ele>417.0</ele>
      </trkpt>
      <trkpt lat="42.34201" lon="12.97045">
        <ele>417.0</ele>
      </trkpt>
      <trkpt lat="42.3366" lon="12.97345">
        <ele>420.0</ele>
      </trkpt>
      <trkpt lat="42.33585" lon="12.97406">
        <ele>421.0</ele>
      </trkpt>
      <trkpt lat="42.33511" lon="12.97514">
        <ele>420.0</ele>
      </trkpt>
      <trkpt lat="42.33252" lon="12.98012">
        <ele>423.0</ele>
      </trkpt>
      <trkpt lat="42.33211" lon="12.98122">
        <ele>425.0</ele>
      </trkpt>
      <trkpt lat="42.33177" lon="12.9828">
        <ele>429.0</ele>
      </trkpt>
      <trkpt lat="42.33184" lon="12.986">
        <ele>440.0</ele>
      </trkpt>
      <trkpt lat="42.33161" lon="12.98858">
        <ele>453.0</ele>
      </trkpt>
      <trkpt lat="42.33165" lon="12.99077">
        <ele>462.0</ele>
      </trkpt>
      <trkpt lat="42.3318" lon="12.99155">
        <ele>468.0</ele>
      </trkpt>
      <trkpt lat="42.33215" lon="12.99243">
        <ele>470.0</ele>
      </trkpt>
      <trkpt lat="42.33474" lon="12.99637">
        <ele>473.0</ele>
      </trkpt>
      <trkpt lat="42.33515" lon="12.99732">
        <ele>475.0</ele>
      </trkpt>
      <trkpt lat="42.33565" lon="12.99918">
        <ele>480.0</ele>
      </trkpt>
      <trkpt lat="42.33568" lon="13.00124">
        <ele>484.0</ele>
      </trkpt>
      <trkpt lat="42.33536" lon="13.00287">
        <ele>487.0</ele>
      </trkpt>
      <trkpt lat="42.33507" lon="13.00371">
        <ele>489.0</ele>
      </trkpt>
      <trkpt lat="42.33252" lon="13.01017">
        <ele>504.0</ele>
      </trkpt>
      <trkpt lat="42.33046" lon="13.01407">
        <ele>504.0</ele>
      </trkpt>
      <trkpt lat="42.32895" lon="13.01633">
        <ele>526.0</ele>
      </trkpt>
      <trkpt lat="42.32736" lon="13.01812">
        <ele>548.0</ele>
      </trkpt>
      <trkpt lat="42.32429" lon="13.02001">
        <ele>556.0</ele>
      </trkpt>
      <trkpt lat="42.32138" lon="13.02279">
        <ele>583.0</ele>
      </trkpt>
      <trkpt lat="42.31951" lon="13.02372">
        <ele>592.0</ele>
      </trkpt>
      <trkpt lat="42.31895" lon="13.02416">
        <ele>597.0</ele>
      </trkpt>
      <trkpt lat="42.31821" lon="13.02506">
        <ele>604.0</ele>
      </trkpt>
      <trkpt lat="42.31695" lon="13.02841">
        <ele>611.0</ele>
      </trkpt>
      <trkpt lat="42.3162" lon="13.0298">
        <ele>618.0</ele>
      </trkpt>
      <trkpt lat="42.31553" lon="13.03068">
        <ele>627.0</ele>
      </trkpt>
      <trkpt lat="42.31465" lon="13.0314">
        <ele>635.0</ele>
      </trkpt>
      <trkpt lat="42.31084" lon="13.0337">
        <ele>655.0</ele>
      </trkpt>
      <trkpt lat="42.30793" lon="13.03626">
        <ele>670.0</ele>
      </trkpt>
      <trkpt lat="42.30687" lon="13.03745">
        <ele>673.0</ele>
      </trkpt>
      <trkpt lat="42.30562" lon="13.03946">
        <ele>667.0</ele>
      </trkpt>
      <trkpt lat="42.30272" lon="13.04659">
        <ele>709.0</ele>
      </trkpt>
      <trkpt lat="42.2981" lon="13.05721">
        <ele>701.0</ele>
      </trkpt>
      <trkpt lat="42.29706" lon="13.0589">
        <ele>676.0</ele>
      </trkpt>
      <trkpt lat="42.29609" lon="13.06003">
        <ele>667.0</ele>
      </trkpt>
      <trkpt lat="42.29491" lon="13.06106">
        <ele>663.0</ele>
      </trkpt>
      <trkpt lat="42.29294" lon="13.06236">
        <ele>664.0</ele>
      </trkpt>
      <trkpt lat="42.27955" lon="13.07052">
        <ele>676.0</ele>
      </trkpt>
      <trkpt lat="42.27852" lon="13.07122">
        <ele>675.0</ele>
      </trkpt>
      <trkpt lat="42.27562" lon="13.07387">
        <ele>674.0</ele>
      </trkpt>
      <trkpt lat="42.27443" lon="13.07437">
        <ele>674.0</ele>
      </trkpt>
      <trkpt lat="42.27384" lon="13.07443">
        <ele>674.0</ele>
      </trkpt>
      <trkpt lat="42.27147" lon="13.07397">
        <ele>672.0</ele>
      </trkpt>
      <trkpt lat="42.27074" lon="13.07398">
        <ele>672.0</ele>
      </trkpt>
      <trkpt lat="42.26943" lon="13.07452">
        <ele>671.0</ele>
      </trkpt>
      <trkpt lat="42.26886" lon="13.07499">
        <ele>672.0</ele>
      </trkpt>
      <trkpt lat="42.26709" lon="13.07758">
        <ele>683.0</ele>
      </trkpt>
      <trkpt lat="42.26489" lon="13.08023">
        <ele>693.0</ele>
      </trkpt>
      <trkpt lat="42.26392" lon="13.08184">
        <ele>700.0</ele>
      </trkpt>
      <trkpt lat="42.26314" lon="13.08371">
        <ele>707.0</ele>
      </trkpt>
      <trkpt lat="42.26281" lon="13.08489">
        <ele>704.0</ele>
      </trkpt>
      <trkpt lat="42.26118" lon="13.09458">
        <ele>723.0</ele>
      </trkpt>
      <trkpt lat="42.26102" lon="13.09626">
        <ele>725.0</ele>
      </trkpt>
      <trkpt lat="42.26109" lon="13.09733">
        <ele>729.0</ele>
      </trkpt>
      <trkpt lat="42.26155" lon="13.09886">
        <ele>735.0</ele>
      </trkpt>
      <trkpt lat="42.2633" lon="13.10153">
        <ele>730.0</ele>
      </trkpt>
      <trkpt lat="42.26376" lon="13.10256">
        <ele>719.0</ele>
      </trkpt>
      <trkpt lat="42.26412" lon="13.10418">
        <ele>719.0</ele>
      </trkpt>
      <trkpt lat="42.26406" lon="13.10637">
        <ele>728.0</ele>
      </trkpt>
      <trkpt lat="42.26385" lon="13.10736">
        <ele>726.0</ele>
      </trkpt>
      <trkpt lat="42.2634" lon="13.10851">
        <ele>723.0</ele>
      </trkpt>
      <trkpt lat="42.25934" lon="13.11586">
        <ele>731.0</ele>
      </trkpt>
      <trkpt lat="42.25857" lon="13.11851">
        <ele>729.0</ele>
      </trkpt>
      <trkpt lat="42.25688" lon="13.12671">
        <ele>728.0</ele>
      </trkpt>
      <trkpt lat="42.25685" lon="13.12857">
        <ele>719.0</ele>
      </trkpt>
      <trkpt lat="42.25724" lon="13.13202">
        <ele>729.0</ele>
      </trkpt>
      <trkpt lat="42.25717" lon="13.13297">
        <ele>716.0</ele>
      </trkpt>
      <trkpt lat="42.25682" lon="13.13431">
        <ele>704.0</ele>
      </trkpt>
      <trkpt lat="42.25628" lon="13.13567">
        <ele>712.0</ele>
      </trkpt>
      <trkpt lat="42.25512" lon="13.13812">
        <ele>726.0</ele>
      </trkpt>
      <trkpt lat="42.25467" lon="13.14024">
        <ele>718.0</ele>
      </trkpt>
      <trkpt lat="42.25307" lon="13.15881">
        <ele>722.0</ele>
      </trkpt>
      <trkpt lat="42.25264" lon="13.16075">
        <ele>727.0</ele>
      </trkpt>
      <trkpt lat="42.25176" lon="13.16245">
        <ele>734.0</ele>
      </trkpt>
      <trkpt lat="42.24868" lon="13.16537">
        <ele>724.0</ele>
      </trkpt>
      <trkpt lat="42.24089" lon="13.17207">
        <ele>711.0</ele>
      </trkpt>
      <trkpt lat="42.23945" lon="13.17366">
        <ele>729.0</ele>
      </trkpt>
      <trkpt lat="42.232" lon="13.18551">
        <ele>761.0</ele>
      </trkpt>
      <trkpt lat="42.23126" lon="13.18737">
        <ele>773.0</ele>
      </trkpt>
      <trkpt lat="42.23019" lon="13.19152">
        <ele>782.0</ele>
      </trkpt>
      <trkpt lat="42.22978" lon="13.19268">
        <ele>785.0</ele>
      </trkpt>
      <trkpt lat="42.22891" lon="13.19413">
        <ele>788.0</ele>
      </trkpt>
      <trkpt lat="42.22833" lon="13.19474">
        <ele>790.0</ele>
      </trkpt>
      <trkpt lat="42.22735" lon="13.19543">
        <ele>793.0</ele>
      </trkpt>
      <trkpt lat="42.22605" lon="13.19589">
        <ele>792.0</ele>
      </trkpt>
      <trkpt lat="42.21961" lon="13.19689">
        <ele>785.0</ele>
      </trkpt>
      <trkpt lat="42.21691" lon="13.19808">
        <ele>763.0</ele>
      </trkpt>
      <trkpt lat="42.21552" lon="13.19852">
        <ele>748.0</ele>
      </trkpt>
      <trkpt lat="42.21314" lon="13.19857">
        <ele>749.0</ele>
      </trkpt>
      <trkpt lat="42.21176" lon="13.19934">
        <ele>746.0</ele>
      </trkpt>
      <trkpt lat="42.21104" lon="13.20027">
        <ele>744.0</ele>
      </trkpt>
      <trkpt lat="42.21006" lon="13.20226">
        <ele>742.0</ele>
      </trkpt>
      <trkpt lat="42.20866" lon="13.20408">
        <ele>744.0</ele>
      </trkpt>
      <trkpt lat="42.20805" lon="13.20509">
        <ele>745.0</ele>
      </trkpt>
      <trkpt lat="42.2075" lon="13.2066">
        <ele>746.0</ele>
      </trkpt>
      <trkpt lat="42.20609" lon="13.21167">
        <ele>742.0</ele>
      </trkpt>
      <trkpt lat="42.20537" lon="13.21344">
        <ele>733.0</ele>
      </trkpt>
      <trkpt lat="42.20124" lon="13.21955">
        <ele>743.0</ele>
      </trkpt>
      <trkpt lat="42.20022" lon="13.22163">
        <ele>753.0</ele>
      </trkpt>
      <trkpt lat="42.19909" lon="13.22436">
        <ele>754.0</ele>
      </trkpt>
      <trkpt lat="42.19691" lon="13.22856">
        <ele>765.0</ele>
      </trkpt>
      <trkpt lat="42.19553" lon="13.23231">
        <ele>780.0</ele>
      </trkpt>
      <trkpt lat="42.19507" lon="13.23372">
        <ele>784.0</ele>
      </trkpt>
      <trkpt lat="42.19455" lon="13.2362">
        <ele>787.0</ele>
      </trkpt>
      <trkpt lat="42.19445" lon="13.23751">
        <ele>786.0</ele>
      </trkpt>
      <trkpt lat="42.19467" lon="13.23902">
        <ele>776.0</ele>
      </trkpt>
      <trkpt lat="42.19567" lon="13.2414">
        <ele>778.0</ele>
      </trkpt>
      <trkpt lat="42.19598" lon="13.2425">
        <ele>783.0</ele>
      </trkpt>
      <trkpt lat="42.19612" lon="13.24421">
        <ele>789.0</ele>
      </trkpt>
      <trkpt lat="42.19601" lon="13.24525">
        <ele>791.0</ele>
      </trkpt>
      <trkpt lat="42.19582" lon="13.24627">
        <ele>793.0</ele>
      </trkpt>
      <trkpt lat="42.19446" lon="13.25051">
        <ele>797.0</ele>
      </trkpt>
      <trkpt lat="42.19316" lon="13.25407">
        <ele>795.0</ele>
      </trkpt>
      <trkpt lat="42.19205" lon="13.25634">
        <ele>796.0</ele>
      </trkpt>
      <trkpt lat="42.18947" lon="13.26084">
        <ele>797.0</ele>
      </trkpt>
      <trkpt lat="42.18758" lon="13.26351">
        <ele>797.0</ele>
      </trkpt>
      <trkpt lat="42.18498" lon="13.26605">
        <ele>798.0</ele>
      </trkpt>
      <trkpt lat="42.17867" lon="13.27155">
        <ele>802.0</ele>
      </trkpt>
      <trkpt lat="42.17785" lon="13.27273">
        <ele>810.0</ele>
      </trkpt>
      <trkpt lat="42.17735" lon="13.27452">
        <ele>818.0</ele>
      </trkpt>
      <trkpt lat="42.17714" lon="13.2749">
        <ele>820.0</ele>
      </trkpt>
      <trkpt lat="42.17564" lon="13.27544">
        <ele>826.0</ele>
      </trkpt>
      <trkpt lat="42.17522" lon="13.27628">
        <ele>827.0</ele>
      </trkpt>
      <trkpt lat="42.17491" lon="13.27661">
        <ele>827.0</ele>
      </trkpt>
      <trkpt lat="42.17412" lon="13.27617">
        <ele>823.0</ele>
      </trkpt>
      <trkpt lat="42.17369" lon="13.2763">
        <ele>820.0</ele>
      </trkpt>
      <trkpt lat="42.17338" lon="13.27667">
        <ele>819.0</ele>
      </trkpt>
      <trkpt lat="42.17277" lon="13.27823">
        <ele>816.0</ele>
      </trkpt>
      <trkpt lat="42.17248" lon="13.2783">
        <ele>814.0</ele>
      </trkpt>
      <trkpt lat="42.17005" lon="13.2745">
        <ele>799.0</ele>
      </trkpt>
      <trkpt lat="42.16072" lon="13.26942">
        <ele>766.0</ele>
      </trkpt>
      <trkpt lat="42.16016" lon="13.26934">
        <ele>756.0</ele>
      </trkpt>
      <trkpt lat="42.1594" lon="13.26982">
        <ele>750.0</ele>
      </trkpt>
      <trkpt lat="42.15888" lon="13.27096">
        <ele>745.0</ele>
      </trkpt>
      <trkpt lat="42.15808" lon="13.27202">
        <ele>741.0</ele>
      </trkpt>
      <trkpt lat="42.15107" lon="13.27542">
        <ele>733.0</ele>
      </trkpt>
      <trkpt lat="42.15037" lon="13.27569">
        <ele>731.0</ele>
      </trkpt>
      <trkpt lat="42.14722" lon="13.27599">
        <ele>725.0</ele>
      </trkpt>
      <trkpt lat="42.14691" lon="13.27589">
        <ele>722.0</ele>
      </trkpt>
      <trkpt lat="42.14503" lon="13.27446">
        <ele>717.0</ele>
      </trkpt>
      <trkpt lat="42.14409" lon="13.2745">
        <ele>715.0</ele>
      </trkpt>
      <trkpt lat="42.13945" lon="13.27635">
        <ele>703.0</ele>
      </trkpt>
      <trkpt lat="42.13723" lon="13.2784">
        <ele>701.0</ele>
      </trkpt>
      <trkpt lat="42.13279" lon="13.28064">
        <ele>699.0</ele>
      </trkpt>
      <trkpt lat="42.13144" lon="13.28184">
        <ele>696.0</ele>
      </trkpt>
      <trkpt lat="42.12813" lon="13.28848">
        <ele>698.0</ele>
      </trkpt>
      <trkpt lat="42.1279" lon="13.28945">
        <ele>698.0</ele>
      </trkpt>
      <trkpt lat="42.12771" lon="13.29201">
        <ele>701.0</ele>
      </trkpt>
      <trkpt lat="42.12717" lon="13.29321">
        <ele>702.0</ele>
      </trkpt>
      <trkpt lat="42.121" lon="13.30092">
        <ele>704.0</ele>
      </trkpt>
      <trkpt lat="42.11987" lon="13.30158">
        <ele>706.0</ele>
      </trkpt>
      <trkpt lat="42.11877" lon="13.30119">
        <ele>706.0</ele>
      </trkpt>
      <trkpt lat="42.11778" lon="13.30116">
        <ele>706.0</ele>
      </trkpt>
      <trkpt lat="42.11665" lon="13.30201">
        <ele>706.0</ele>
      </trkpt>
      <trkpt lat="42.11623" lon="13.30287">
        <ele>706.0</ele>
      </trkpt>
      <trkpt lat="42.11592" lon="13.30485">
        <ele>706.0</ele>
      </trkpt>
      <trkpt lat="42.11513" lon="13.30642">
        <ele>705.0</ele>
      </trkpt>
      <trkpt lat="42.11299" lon="13.3097">
        <ele>702.0</ele>
      </trkpt>
      <trkpt lat="42.11194" lon="13.31064">
        <ele>701.0</ele>
      </trkpt>
      <trkpt lat="42.11052" lon="13.31293">
        <ele>701.0</ele>
      </trkpt>
      <trkpt lat="42.10907" lon="13.31664">
        <ele>704.0</ele>
      </trkpt>
      <trkpt lat="42.10873" lon="13.31981">
        <ele>703.0</ele>
      </trkpt>
      <trkpt lat="42.10794" lon="13.32236">
        <ele>699.0</ele>
      </trkpt>
      <trkpt lat="42.10761" lon="13.32465">
        <ele>699.0</ele>
      </trkpt>
      <trkpt lat="42.10752" lon="13.3263">
        <ele>701.0</ele>
      </trkpt>
      <trkpt lat="42.10667" lon="13.32892">
        <ele>702.0</ele>
      </trkpt>
      <trkpt lat="42.10536" lon="13.33061">
        <ele>703.0</ele>
      </trkpt>
      <trkpt lat="42.10466" lon="13.3326">
        <ele>701.0</ele>
      </trkpt>
      <trkpt lat="42.10417" lon="13.33349">
        <ele>698.0</ele>
      </trkpt>
      <trkpt lat="42.10064" lon="13.33782">
        <ele>702.0</ele>
      </trkpt>
      <trkpt lat="42.09976" lon="13.33962">
        <ele>709.0</ele>
      </trkpt>
      <trkpt lat="42.0991" lon="13.34149">
        <ele>714.0</ele>
      </trkpt>
      <trkpt lat="42.09889" lon="13.34375">
        <ele>711.0</ele>
      </trkpt>
      <trkpt lat="42.09479" lon="13.35517">
        <ele>702.0</ele>
      </trkpt>
      <trkpt lat="42.0915" lon="13.35573">
        <ele>701.0</ele>
      </trkpt>
      <trkpt lat="42.08898" lon="13.35712">
        <ele>701.0</ele>
      </trkpt>
      <trkpt lat="42.08838" lon="13.3576">
        <ele>700.0</ele>
      </trkpt>
      <trkpt lat="42.08794" lon="13.35774">
        <ele>700.0</ele>
      </trkpt>
      <trkpt lat="42.08785" lon="13.35812">
        <ele>700.0</ele>
      </trkpt>
      <trkpt lat="42.08635" lon="13.35962">
        <ele>700.0</ele>
      </trkpt>
      <trkpt lat="42.0862" lon="13.36044">
        <ele>701.0</ele>
      </trkpt>
      <trkpt lat="42.08626" lon="13.36201">
        <ele>702.0</ele>
      </trkpt>
      <trkpt lat="42.08611" lon="13.36234">
        <ele>702.0</ele>
      </trkpt>
      <trkpt lat="42.08581" lon="13.36264">
        <ele>703.0</ele>
      </trkpt>
      <trkpt lat="42.08455" lon="13.36263">
        <ele>704.0</ele>
      </trkpt>
      <trkpt lat="42.08389" lon="13.36307">
        <ele>705.0</ele>
      </trkpt>
      <trkpt lat="42.08036" lon="13.3684">
        <ele>708.0</ele>
      </trkpt>
      <trkpt lat="42.08018" lon="13.36876">
        <ele>709.0</ele>
      </trkpt>
      <trkpt lat="42.08015" lon="13.36962">
        <ele>710.0</ele>
      </trkpt>
      <trkpt lat="42.08032" lon="13.36999">
        <ele>711.0</ele>
      </trkpt>
      <trkpt lat="42.08143" lon="13.37129">
        <ele>714.0</ele>
      </trkpt>
      <trkpt lat="42.08156" lon="13.37181">
        <ele>717.0</ele>
      </trkpt>
      <trkpt lat="42.08207" lon="13.3718">
        <ele>718.0</ele>
      </trkpt>
      <trkpt lat="42.08231" lon="13.3713">
        <ele>719.0</ele>
      </trkpt>
      <trkpt lat="42.09136" lon="13.36541">
        <ele>728.0</ele>
      </trkpt>
    </trkseg>
  </trk>
</gpx>