<?xml version="1.0" encoding="UTF-8"?>
<gpx xmlns="http://www.topografix.com/GPX/1/0" xmlns:xsi="http://www.w3.org/2001/XMLSchema-instance" xsi:schemaLocation="http://www.topografix.com/GPX/1/0 http://www.topografix.com/GPX/1/0/gpx.xsd" version="1.0" creator="GPSBabel - https://www.gpsbabel.org">
  <time>2026-01-20T04:15:11.331000Z</time>
  <bounds minlat="39.46025" maxlat="39.7484" minlon="-0.4808" maxlon="-0.32409" />
  <trk>
    <trkseg>
      <trkpt lat="39.58117" lon="-0.44228">
        <ele>84.0</ele>
      </trkpt>
      <trkpt lat="39.58076" lon="-0.44221">
        <ele>84.0</ele>
      </trkpt>
      <trkpt lat="39.58" lon="-0.4419">
        <ele>84.0</ele>
      </trkpt>
      <trkpt lat="39.57896" lon="-0.44137">
        <ele>83.0</ele>
      </trkpt>
      <trkpt lat="39.57801" lon="-0.44084">
        <ele>82.0</ele>
      </trkpt>
      <trkpt lat="39.57705" lon="-0.4402">
        <ele>80.0</ele>
      </trkpt>
      <trkpt lat="39.57644" lon="-0.43991">
        <ele>79.0</ele>
      </trkpt>
      <trkpt lat="39.57619" lon="-0.43979">
        <ele>78.0</ele>
      </trkpt>
      <trkpt lat="39.57616" lon="-0.43948">
        <ele>78.0</ele>
      </trkpt>
      <trkpt lat="39.57636" lon="-0.43927">
        <ele>77.0</ele>
      </trkpt>
      <trkpt lat="39.57824" lon="-0.43622">
        <ele>74.0</ele>
      </trkpt>
      <trkpt lat="39.57916" lon="-0.43509">
        <ele>70.0</ele>
      </trkpt>
      <trkpt lat="39.58071" lon="-0.43367">
        <ele>67.0</ele>
      </trkpt>
      <trkpt lat="39.58118" lon="-0.43313">
        <ele>68.0</ele>
      </trkpt>
      <trkpt lat="39.58142" lon="-0.43293">
        <ele>69.0</ele>
      </trkpt>
      <trkpt lat="39.5817" lon="-0.43304">
        <ele>70.0</ele>
      </trkpt>
      <trkpt lat="39.58295" lon="-0.43261">
        <ele>71.0</ele>
      </trkpt>
      <trkpt lat="39.58408" lon="-0.43237">
        <ele>72.0</ele>
      </trkpt>
      <trkpt lat="39.58548" lon="-0.43218">
        <ele>70.0</ele>
      </trkpt>
      <trkpt lat="39.58718" lon="-0.43199">
        <ele>66.0</ele>
      </trkpt>
      <trkpt lat="39.58997" lon="-0.43165">
        <ele>71.0</ele>
      </trkpt>
      <trkpt lat="39.59279" lon="-0.43139">
        <ele>73.0</ele>
      </trkpt>
      <trkpt lat="39.59493" lon="-0.43157">
        <ele>77.0</ele>
      </trkpt>
      <trkpt lat="39.59695" lon="-0.43218">
        <ele>78.0</ele>
      </trkpt>
      <trkpt lat="39.59812" lon="-0.43264">
        <ele>79.0</ele>
      </trkpt>
      <trkpt lat="39.59837" lon="-0.43253">
        <ele>80.0</ele>
      </trkpt>
      <trkpt lat="39.5986" lon="-0.43281">
        <ele>80.0</ele>
      </trkpt>
      <trkpt lat="39.59928" lon="-0.43345">
        <ele>81.0</ele>
      </trkpt>
      <trkpt lat="39.60111" lon="-0.43498">
        <ele>83.0</ele>
      </trkpt>
      <trkpt lat="39.60226" lon="-0.43625">
        <ele>84.0</ele>
      </trkpt>
      <trkpt lat="39.60366" lon="-0.43828">
        <ele>86.0</ele>
      </trkpt>
      <trkpt lat="39.60468" lon="-0.44027">
        <ele>92.0</ele>
      </trkpt>
      <trkpt lat="39.60553" lon="-0.4426">
        <ele>95.0</ele>
      </trkpt>
      <trkpt lat="39.60593" lon="-0.44412">
        <ele>98.0</ele>
      </trkpt>
      <trkpt lat="39.60635" lon="-0.44694">
        <ele>99.0</ele>
      </trkpt>
      <trkpt lat="39.6065" lon="-0.45056">
        <ele>100.0</ele>
      </trkpt>
      <trkpt lat="39.60666" lon="-0.45228">
        <ele>101.0</ele>
      </trkpt>
      <trkpt lat="39.60679" lon="-0.45267">
        <ele>101.0</ele>
      </trkpt>
      <trkpt lat="39.60663" lon="-0.45313">
        <ele>101.0</ele>
      </trkpt>
      <trkpt lat="39.60714" lon="-0.46004">
        <ele>102.0</ele>
      </trkpt>
      <trkpt lat="39.60586" lon="-0.46379">
        <ele>101.0</ele>
      </trkpt>
      <trkpt lat="39.60595" lon="-0.46405">
        <ele>101.0</ele>
      </trkpt>
      <trkpt lat="39.60907" lon="-0.46793">
        <ele>103.0</ele>
      </trkpt>
      <trkpt lat="39.60974" lon="-0.46841">
        <ele>106.0</ele>
      </trkpt>
      <trkpt lat="39.61039" lon="-0.46851">
        <ele>108.0</ele>
      </trkpt>
      <trkpt lat="39.61478" lon="-0.46968">
        <ele>111.0</ele>
      </trkpt>
      <trkpt lat="39.61903" lon="-0.46851">
        <ele>117.0</ele>
      </trkpt>
      <trkpt lat="39.61958" lon="-0.46839">
        <ele>119.0</ele>
      </trkpt>
      <trkpt lat="39.62032" lon="-0.46843">
        <ele>121.0</ele>
      </trkpt>
      <trkpt lat="39.62056" lon="-0.46853">
        <ele>122.0</ele>
      </trkpt>
      <trkpt lat="39.62218" lon="-0.46961">
        <ele>123.0</ele>
      </trkpt>
      <trkpt lat="39.62352" lon="-0.47022">
        <ele>126.0</ele>
      </trkpt>
      <trkpt lat="39.62475" lon="-0.46967">
        <ele>128.0</ele>
      </trkpt>
      <trkpt lat="39.6278" lon="-0.46867">
        <ele>132.0</ele>
      </trkpt>
      <trkpt lat="39.62938" lon="-0.46771">
        <ele>135.0</ele>
      </trkpt>
      <trkpt lat="39.63076" lon="-0.46711">
        <ele>138.0</ele>
      </trkpt>
      <trkpt lat="39.63192" lon="-0.46771">
        <ele>140.0</ele>
      </trkpt>
      <trkpt lat="39.63639" lon="-0.46998">
        <ele>146.0</ele>
      </trkpt>
      <trkpt lat="39.63685" lon="-0.47029">
        <ele>149.0</ele>
      </trkpt>
      <trkpt lat="39.63914" lon="-0.47137">
        <ele>153.0</ele>
      </trkpt>
      <trkpt lat="39.64397" lon="-0.47147">
        <ele>161.0</ele>
      </trkpt>
      <trkpt lat="39.64578" lon="-0.47266">
        <ele>166.0</ele>
      </trkpt>
      <trkpt lat="39.64762" lon="-0.47405">
        <ele>174.0</ele>
      </trkpt>
      <trkpt lat="39.6491" lon="-0.47553">
        <ele>181.0</ele>
      </trkpt>
      <trkpt lat="39.65003" lon="-0.47592">
        <ele>183.0</ele>
      </trkpt>
      <trkpt lat="39.65092" lon="-0.47591">
        <ele>185.0</ele>
      </trkpt>
      <trkpt lat="39.65321" lon="-0.47699">
        <ele>190.0</ele>
      </trkpt>
      <trkpt lat="39.65556" lon="-0.47838">
        <ele>194.0</ele>
      </trkpt>
      <trkpt lat="39.65609" lon="-0.47882">
        <ele>197.0</ele>
      </trkpt>
      <trkpt lat="39.65663" lon="-0.47947">
        <ele>200.0</ele>
      </trkpt>
      <trkpt lat="39.65753" lon="-0.48007">
        <ele>203.0</ele>
      </trkpt>
      <trkpt lat="39.6591" lon="-0.48022">
        <ele>208.0</ele>
      </trkpt>
      <trkpt lat="39.65949" lon="-0.4803">
        <ele>210.0</ele>
      </trkpt>
      <trkpt lat="39.6608" lon="-0.48061">
        <ele>211.0</ele>
      </trkpt>
      <trkpt lat="39.66164" lon="-0.48066">
        <ele>211.0</ele>
      </trkpt>
      <trkpt lat="39.66202" lon="-0.47986">
        <ele>211.0</ele>
      </trkpt>
      <trkpt lat="39.66204" lon="-0.47965">
        <ele>210.0</ele>
      </trkpt>
      <trkpt lat="39.66197" lon="-0.4795">
        <ele>210.0</ele>
      </trkpt>
      <trkpt lat="39.66182" lon="-0.47939">
        <ele>210.0</ele>
      </trkpt>
      <trkpt lat="39.66137" lon="-0.47907">
        <ele>210.0</ele>
      </trkpt>
      <trkpt lat="39.66121" lon="-0.4785">
        <ele>212.0</ele>
      </trkpt>
      <trkpt lat="39.66079" lon="-0.47679">
        <ele>220.0</ele>
      </trkpt>
      <trkpt lat="39.66084" lon="-0.47602">
        <ele>221.0</ele>
      </trkpt>
      <trkpt lat="39.66091" lon="-0.47528">
        <ele>222.0</ele>
      </trkpt>
      <trkpt lat="39.66129" lon="-0.47379">
        <ele>222.0</ele>
      </trkpt>
      <trkpt lat="39.66151" lon="-0.47202">
        <ele>222.0</ele>
      </trkpt>
      <trkpt lat="39.66149" lon="-0.47171">
        <ele>222.0</ele>
      </trkpt>
      <trkpt lat="39.66134" lon="-0.47105">
        <ele>222.0</ele>
      </trkpt>
      <trkpt lat="39.66133" lon="-0.47039">
        <ele>223.0</ele>
      </trkpt>
      <trkpt lat="39.6614" lon="-0.47019">
        <ele>224.0</ele>
      </trkpt>
      <trkpt lat="39.66157" lon="-0.4699">
        <ele>224.0</ele>
      </trkpt>
      <trkpt lat="39.66201" lon="-0.46961">
        <ele>225.0</ele>
      </trkpt>
      <trkpt lat="39.66212" lon="-0.46947">
        <ele>225.0</ele>
      </trkpt>
      <trkpt lat="39.66215" lon="-0.46924">
        <ele>226.0</ele>
      </trkpt>
      <trkpt lat="39.66209" lon="-0.46852">
        <ele>227.0</ele>
      </trkpt>
      <trkpt lat="39.662" lon="-0.46831">
        <ele>227.0</ele>
      </trkpt>
      <trkpt lat="39.66163" lon="-0.46779">
        <ele>228.0</ele>
      </trkpt>
      <trkpt lat="39.6615" lon="-0.46751">
        <ele>229.0</ele>
      </trkpt>
      <trkpt lat="39.66137" lon="-0.46696">
        <ele>229.0</ele>
      </trkpt>
      <trkpt lat="39.66021" lon="-0.46526">
        <ele>231.0</ele>
      </trkpt>
      <trkpt lat="39.65973" lon="-0.46456">
        <ele>231.0</ele>
      </trkpt>
      <trkpt lat="39.65969" lon="-0.46436">
        <ele>231.0</ele>
      </trkpt>
      <trkpt lat="39.65989" lon="-0.46339">
        <ele>232.0</ele>
      </trkpt>
      <trkpt lat="39.65986" lon="-0.46318">
        <ele>232.0</ele>
      </trkpt>
      <trkpt lat="39.65947" lon="-0.46202">
        <ele>232.0</ele>
      </trkpt>
      <trkpt lat="39.65946" lon="-0.46183">
        <ele>232.0</ele>
      </trkpt>
      <trkpt lat="39.65947" lon="-0.46147">
        <ele>232.0</ele>
      </trkpt>
      <trkpt lat="39.65937" lon="-0.46073">
        <ele>233.0</ele>
      </trkpt>
      <trkpt lat="39.65953" lon="-0.46007">
        <ele>233.0</ele>
      </trkpt>
      <trkpt lat="39.65976" lon="-0.45924">
        <ele>235.0</ele>
      </trkpt>
      <trkpt lat="39.65982" lon="-0.45916">
        <ele>235.0</ele>
      </trkpt>
      <trkpt lat="39.66048" lon="-0.45857">
        <ele>236.0</ele>
      </trkpt>
      <trkpt lat="39.66052" lon="-0.4584">
        <ele>237.0</ele>
      </trkpt>
      <trkpt lat="39.66051" lon="-0.45768">
        <ele>239.0</ele>
      </trkpt>
      <trkpt lat="39.66049" lon="-0.45627">
        <ele>244.0</ele>
      </trkpt>
      <trkpt lat="39.66054" lon="-0.4561">
        <ele>246.0</ele>
      </trkpt>
      <trkpt lat="39.66096" lon="-0.45554">
        <ele>249.0</ele>
      </trkpt>
      <trkpt lat="39.66107" lon="-0.45536">
        <ele>252.0</ele>
      </trkpt>
      <trkpt lat="39.66118" lon="-0.45488">
        <ele>254.0</ele>
      </trkpt>
      <trkpt lat="39.66132" lon="-0.45423">
        <ele>259.0</ele>
      </trkpt>
      <trkpt lat="39.66141" lon="-0.45404">
        <ele>261.0</ele>
      </trkpt>
      <trkpt lat="39.6619" lon="-0.45323">
        <ele>263.0</ele>
      </trkpt>
      <trkpt lat="39.66217" lon="-0.45274">
        <ele>266.0</ele>
      </trkpt>
      <trkpt lat="39.66212" lon="-0.45252">
        <ele>267.0</ele>
      </trkpt>
      <trkpt lat="39.66176" lon="-0.45215">
        <ele>268.0</ele>
      </trkpt>
      <trkpt lat="39.66163" lon="-0.45197">
        <ele>269.0</ele>
      </trkpt>
      <trkpt lat="39.66126" lon="-0.45115">
        <ele>271.0</ele>
      </trkpt>
      <trkpt lat="39.66123" lon="-0.45098">
        <ele>273.0</ele>
      </trkpt>
      <trkpt lat="39.66131" lon="-0.45063">
        <ele>274.0</ele>
      </trkpt>
      <trkpt lat="39.66154" lon="-0.44996">
        <ele>275.0</ele>
      </trkpt>
      <trkpt lat="39.66162" lon="-0.44984">
        <ele>274.0</ele>
      </trkpt>
      <trkpt lat="39.6622" lon="-0.44941">
        <ele>273.0</ele>
      </trkpt>
      <trkpt lat="39.66229" lon="-0.4493">
        <ele>272.0</ele>
      </trkpt>
      <trkpt lat="39.66237" lon="-0.44908">
        <ele>271.0</ele>
      </trkpt>
      <trkpt lat="39.66259" lon="-0.44807">
        <ele>269.0</ele>
      </trkpt>
      <trkpt lat="39.66275" lon="-0.44748">
        <ele>268.0</ele>
      </trkpt>
      <trkpt lat="39.66286" lon="-0.44733">
        <ele>267.0</ele>
      </trkpt>
      <trkpt lat="39.66303" lon="-0.44725">
        <ele>267.0</ele>
      </trkpt>
      <trkpt lat="39.66327" lon="-0.44723">
        <ele>266.0</ele>
      </trkpt>
      <trkpt lat="39.66342" lon="-0.44731">
        <ele>266.0</ele>
      </trkpt>
      <trkpt lat="39.66356" lon="-0.44747">
        <ele>266.0</ele>
      </trkpt>
      <trkpt lat="39.66373" lon="-0.44791">
        <ele>265.0</ele>
      </trkpt>
      <trkpt lat="39.66382" lon="-0.44803">
        <ele>263.0</ele>
      </trkpt>
      <trkpt lat="39.66391" lon="-0.44805">
        <ele>262.0</ele>
      </trkpt>
      <trkpt lat="39.66399" lon="-0.448">
        <ele>262.0</ele>
      </trkpt>
      <trkpt lat="39.66426" lon="-0.4477">
        <ele>260.0</ele>
      </trkpt>
      <trkpt lat="39.6643" lon="-0.44752">
        <ele>259.0</ele>
      </trkpt>
      <trkpt lat="39.6643" lon="-0.44619">
        <ele>255.0</ele>
      </trkpt>
      <trkpt lat="39.66425" lon="-0.44587">
        <ele>252.0</ele>
      </trkpt>
      <trkpt lat="39.66403" lon="-0.44528">
        <ele>250.0</ele>
      </trkpt>
      <trkpt lat="39.664" lon="-0.44502">
        <ele>249.0</ele>
      </trkpt>
      <trkpt lat="39.66411" lon="-0.44486">
        <ele>249.0</ele>
      </trkpt>
      <trkpt lat="39.66546" lon="-0.44406">
        <ele>252.0</ele>
      </trkpt>
      <trkpt lat="39.66561" lon="-0.4441">
        <ele>254.0</ele>
      </trkpt>
      <trkpt lat="39.66577" lon="-0.44413">
        <ele>256.0</ele>
      </trkpt>
      <trkpt lat="39.6659" lon="-0.44405">
        <ele>257.0</ele>
      </trkpt>
      <trkpt lat="39.66625" lon="-0.4436">
        <ele>261.0</ele>
      </trkpt>
      <trkpt lat="39.66626" lon="-0.44344">
        <ele>263.0</ele>
      </trkpt>
      <trkpt lat="39.66588" lon="-0.4429">
        <ele>262.0</ele>
      </trkpt>
      <trkpt lat="39.66582" lon="-0.44264">
        <ele>261.0</ele>
      </trkpt>
      <trkpt lat="39.66581" lon="-0.44252">
        <ele>260.0</ele>
      </trkpt>
      <trkpt lat="39.66584" lon="-0.44206">
        <ele>259.0</ele>
      </trkpt>
      <trkpt lat="39.6659" lon="-0.44185">
        <ele>258.0</ele>
      </trkpt>
      <trkpt lat="39.66631" lon="-0.44099">
        <ele>257.0</ele>
      </trkpt>
      <trkpt lat="39.6664" lon="-0.44073">
        <ele>257.0</ele>
      </trkpt>
      <trkpt lat="39.66646" lon="-0.44056">
        <ele>258.0</ele>
      </trkpt>
      <trkpt lat="39.6667" lon="-0.44019">
        <ele>258.0</ele>
      </trkpt>
      <trkpt lat="39.66688" lon="-0.43993">
        <ele>259.0</ele>
      </trkpt>
      <trkpt lat="39.66713" lon="-0.43945">
        <ele>261.0</ele>
      </trkpt>
      <trkpt lat="39.66723" lon="-0.43934">
        <ele>262.0</ele>
      </trkpt>
      <trkpt lat="39.66773" lon="-0.43923">
        <ele>262.0</ele>
      </trkpt>
      <trkpt lat="39.66841" lon="-0.43909">
        <ele>265.0</ele>
      </trkpt>
      <trkpt lat="39.66858" lon="-0.43901">
        <ele>266.0</ele>
      </trkpt>
      <trkpt lat="39.66895" lon="-0.43869">
        <ele>267.0</ele>
      </trkpt>
      <trkpt lat="39.66905" lon="-0.43859">
        <ele>269.0</ele>
      </trkpt>
      <trkpt lat="39.66922" lon="-0.43827">
        <ele>272.0</ele>
      </trkpt>
      <trkpt lat="39.66933" lon="-0.43809">
        <ele>275.0</ele>
      </trkpt>
      <trkpt lat="39.66954" lon="-0.43785">
        <ele>278.0</ele>
      </trkpt>
      <trkpt lat="39.66963" lon="-0.43772">
        <ele>281.0</ele>
      </trkpt>
      <trkpt lat="39.66968" lon="-0.43755">
        <ele>282.0</ele>
      </trkpt>
      <trkpt lat="39.6697" lon="-0.43722">
        <ele>285.0</ele>
      </trkpt>
      <trkpt lat="39.66974" lon="-0.43711">
        <ele>287.0</ele>
      </trkpt>
      <trkpt lat="39.66987" lon="-0.43684">
        <ele>290.0</ele>
      </trkpt>
      <trkpt lat="39.66995" lon="-0.43658">
        <ele>291.0</ele>
      </trkpt>
      <trkpt lat="39.67004" lon="-0.43638">
        <ele>292.0</ele>
      </trkpt>
      <trkpt lat="39.6703" lon="-0.43594">
        <ele>293.0</ele>
      </trkpt>
      <trkpt lat="39.67042" lon="-0.43572">
        <ele>294.0</ele>
      </trkpt>
      <trkpt lat="39.67049" lon="-0.43548">
        <ele>294.0</ele>
      </trkpt>
      <trkpt lat="39.67056" lon="-0.4352">
        <ele>295.0</ele>
      </trkpt>
      <trkpt lat="39.67061" lon="-0.43509">
        <ele>295.0</ele>
      </trkpt>
      <trkpt lat="39.67069" lon="-0.43508">
        <ele>296.0</ele>
      </trkpt>
      <trkpt lat="39.67087" lon="-0.43523">
        <ele>296.0</ele>
      </trkpt>
      <trkpt lat="39.67097" lon="-0.43523">
        <ele>297.0</ele>
      </trkpt>
      <trkpt lat="39.67103" lon="-0.43506">
        <ele>297.0</ele>
      </trkpt>
      <trkpt lat="39.67118" lon="-0.43433">
        <ele>299.0</ele>
      </trkpt>
      <trkpt lat="39.67129" lon="-0.43396">
        <ele>301.0</ele>
      </trkpt>
      <trkpt lat="39.67136" lon="-0.43389">
        <ele>302.0</ele>
      </trkpt>
      <trkpt lat="39.67154" lon="-0.43382">
        <ele>303.0</ele>
      </trkpt>
      <trkpt lat="39.67166" lon="-0.4337">
        <ele>304.0</ele>
      </trkpt>
      <trkpt lat="39.67194" lon="-0.43329">
        <ele>305.0</ele>
      </trkpt>
      <trkpt lat="39.67203" lon="-0.43312">
        <ele>305.0</ele>
      </trkpt>
      <trkpt lat="39.67211" lon="-0.4328">
        <ele>305.0</ele>
      </trkpt>
      <trkpt lat="39.67218" lon="-0.4326">
        <ele>305.0</ele>
      </trkpt>
      <trkpt lat="39.67271" lon="-0.43177">
        <ele>304.0</ele>
      </trkpt>
      <trkpt lat="39.67328" lon="-0.43055">
        <ele>301.0</ele>
      </trkpt>
      <trkpt lat="39.67399" lon="-0.42967">
        <ele>296.0</ele>
      </trkpt>
      <trkpt lat="39.67454" lon="-0.42878">
        <ele>292.0</ele>
      </trkpt>
      <trkpt lat="39.67448" lon="-0.42728">
        <ele>288.0</ele>
      </trkpt>
      <trkpt lat="39.67421" lon="-0.42599">
        <ele>286.0</ele>
      </trkpt>
      <trkpt lat="39.67649" lon="-0.42638">
        <ele>283.0</ele>
      </trkpt>
      <trkpt lat="39.6768" lon="-0.42634">
        <ele>282.0</ele>
      </trkpt>
      <trkpt lat="39.67761" lon="-0.42616">
        <ele>283.0</ele>
      </trkpt>
      <trkpt lat="39.67849" lon="-0.42611">
        <ele>284.0</ele>
      </trkpt>
      <trkpt lat="39.67986" lon="-0.4265">
        <ele>288.0</ele>
      </trkpt>
      <trkpt lat="39.68079" lon="-0.42659">
        <ele>298.0</ele>
      </trkpt>
      <trkpt lat="39.68157" lon="-0.42655">
        <ele>304.0</ele>
      </trkpt>
      <trkpt lat="39.68231" lon="-0.4264">
        <ele>294.0</ele>
      </trkpt>
      <trkpt lat="39.68292" lon="-0.42659">
        <ele>297.0</ele>
      </trkpt>
      <trkpt lat="39.68347" lon="-0.42664">
        <ele>303.0</ele>
      </trkpt>
      <trkpt lat="39.68381" lon="-0.42692">
        <ele>307.0</ele>
      </trkpt>
      <trkpt lat="39.68413" lon="-0.42716">
        <ele>311.0</ele>
      </trkpt>
      <trkpt lat="39.68436" lon="-0.42788">
        <ele>316.0</ele>
      </trkpt>
      <trkpt lat="39.68448" lon="-0.42804">
        <ele>319.0</ele>
      </trkpt>
      <trkpt lat="39.68462" lon="-0.42815">
        <ele>321.0</ele>
      </trkpt>
      <trkpt lat="39.6847" lon="-0.42815">
        <ele>321.0</ele>
      </trkpt>
      <trkpt lat="39.68525" lon="-0.42788">
        <ele>325.0</ele>
      </trkpt>
      <trkpt lat="39.68531" lon="-0.42774">
        <ele>327.0</ele>
      </trkpt>
      <trkpt lat="39.68517" lon="-0.42756">
        <ele>328.0</ele>
      </trkpt>
      <trkpt lat="39.68512" lon="-0.42737">
        <ele>328.0</ele>
      </trkpt>
      <trkpt lat="39.68514" lon="-0.42723">
        <ele>328.0</ele>
      </trkpt>
      <trkpt lat="39.68526" lon="-0.42687">
        <ele>328.0</ele>
      </trkpt>
      <trkpt lat="39.68538" lon="-0.42668">
        <ele>328.0</ele>
      </trkpt>
      <trkpt lat="39.6856" lon="-0.42647">
        <ele>329.0</ele>
      </trkpt>
      <trkpt lat="39.68578" lon="-0.42642">
        <ele>329.0</ele>
      </trkpt>
      <trkpt lat="39.68635" lon="-0.42629">
        <ele>330.0</ele>
      </trkpt>
      <trkpt lat="39.68662" lon="-0.42567">
        <ele>331.0</ele>
      </trkpt>
      <trkpt lat="39.68693" lon="-0.42491">
        <ele>334.0</ele>
      </trkpt>
      <trkpt lat="39.68722" lon="-0.42438">
        <ele>336.0</ele>
      </trkpt>
      <trkpt lat="39.6876" lon="-0.42329">
        <ele>339.0</ele>
      </trkpt>
      <trkpt lat="39.68807" lon="-0.42224">
        <ele>344.0</ele>
      </trkpt>
      <trkpt lat="39.68823" lon="-0.42215">
        <ele>346.0</ele>
      </trkpt>
      <trkpt lat="39.68838" lon="-0.42222">
        <ele>348.0</ele>
      </trkpt>
      <trkpt lat="39.68847" lon="-0.42271">
        <ele>350.0</ele>
      </trkpt>
      <trkpt lat="39.68854" lon="-0.42288">
        <ele>352.0</ele>
      </trkpt>
      <trkpt lat="39.68869" lon="-0.42297">
        <ele>353.0</ele>
      </trkpt>
      <trkpt lat="39.68881" lon="-0.42295">
        <ele>354.0</ele>
      </trkpt>
      <trkpt lat="39.68966" lon="-0.42237">
        <ele>360.0</ele>
      </trkpt>
      <trkpt lat="39.69008" lon="-0.42188">
        <ele>363.0</ele>
      </trkpt>
      <trkpt lat="39.69029" lon="-0.42172">
        <ele>365.0</ele>
      </trkpt>
      <trkpt lat="39.6905" lon="-0.42168">
        <ele>366.0</ele>
      </trkpt>
      <trkpt lat="39.69093" lon="-0.42186">
        <ele>368.0</ele>
      </trkpt>
      <trkpt lat="39.69203" lon="-0.42235">
        <ele>374.0</ele>
      </trkpt>
      <trkpt lat="39.69322" lon="-0.4222">
        <ele>380.0</ele>
      </trkpt>
      <trkpt lat="39.6945" lon="-0.42161">
        <ele>390.0</ele>
      </trkpt>
      <trkpt lat="39.69506" lon="-0.42155">
        <ele>395.0</ele>
      </trkpt>
      <trkpt lat="39.69573" lon="-0.42211">
        <ele>396.0</ele>
      </trkpt>
      <trkpt lat="39.69566" lon="-0.4229">
        <ele>405.0</ele>
      </trkpt>
      <trkpt lat="39.69562" lon="-0.42454">
        <ele>416.0</ele>
      </trkpt>
      <trkpt lat="39.69575" lon="-0.42538">
        <ele>425.0</ele>
      </trkpt>
      <trkpt lat="39.69593" lon="-0.42529">
        <ele>428.0</ele>
      </trkpt>
      <trkpt lat="39.69602" lon="-0.42391">
        <ele>422.0</ele>
      </trkpt>
      <trkpt lat="39.69655" lon="-0.42359">
        <ele>421.0</ele>
      </trkpt>
      <trkpt lat="39.69707" lon="-0.42394">
        <ele>426.0</ele>
      </trkpt>
      <trkpt lat="39.69747" lon="-0.42408">
        <ele>431.0</ele>
      </trkpt>
      <trkpt lat="39.69817" lon="-0.42238">
        <ele>436.0</ele>
      </trkpt>
      <trkpt lat="39.69903" lon="-0.42046">
        <ele>443.0</ele>
      </trkpt>
      <trkpt lat="39.69927" lon="-0.41948">
        <ele>449.0</ele>
      </trkpt>
      <trkpt lat="39.70015" lon="-0.41888">
        <ele>458.0</ele>
      </trkpt>
      <trkpt lat="39.70147" lon="-0.41906">
        <ele>471.0</ele>
      </trkpt>
      <trkpt lat="39.70286" lon="-0.41919">
        <ele>482.0</ele>
      </trkpt>
      <trkpt lat="39.7034" lon="-0.41899">
        <ele>485.0</ele>
      </trkpt>
      <trkpt lat="39.70412" lon="-0.41857">
        <ele>488.0</ele>
      </trkpt>
      <trkpt lat="39.70438" lon="-0.41821">
        <ele>491.0</ele>
      </trkpt>
      <trkpt lat="39.70528" lon="-0.41685">
        <ele>494.0</ele>
      </trkpt>
      <trkpt lat="39.70577" lon="-0.41688">
        <ele>493.0</ele>
      </trkpt>
      <trkpt lat="39.70645" lon="-0.41785">
        <ele>492.0</ele>
      </trkpt>
      <trkpt lat="39.70752" lon="-0.41747">
        <ele>488.0</ele>
      </trkpt>
      <trkpt lat="39.70786" lon="-0.41772">
        <ele>486.0</ele>
      </trkpt>
      <trkpt lat="39.70828" lon="-0.41692">
        <ele>483.0</ele>
      </trkpt>
      <trkpt lat="39.70933" lon="-0.41622">
        <ele>473.0</ele>
      </trkpt>
      <trkpt lat="39.71051" lon="-0.41567">
        <ele>461.0</ele>
      </trkpt>
      <trkpt lat="39.71109" lon="-0.41529">
        <ele>454.0</ele>
      </trkpt>
      <trkpt lat="39.71134" lon="-0.41531">
        <ele>450.0</ele>
      </trkpt>
      <trkpt lat="39.71165" lon="-0.41773">
        <ele>451.0</ele>
      </trkpt>
      <trkpt lat="39.71149" lon="-0.41813">
        <ele>452.0</ele>
      </trkpt>
      <trkpt lat="39.71125" lon="-0.41861">
        <ele>452.0</ele>
      </trkpt>
      <trkpt lat="39.71202" lon="-0.42051">
        <ele>453.0</ele>
      </trkpt>
      <trkpt lat="39.71222" lon="-0.42075">
        <ele>453.0</ele>
      </trkpt>
      <trkpt lat="39.71234" lon="-0.42066">
        <ele>453.0</ele>
      </trkpt>
      <trkpt lat="39.71227" lon="-0.42013">
        <ele>452.0</ele>
      </trkpt>
      <trkpt lat="39.7126" lon="-0.41917">
        <ele>449.0</ele>
      </trkpt>
      <trkpt lat="39.71302" lon="-0.41881">
        <ele>446.0</ele>
      </trkpt>
      <trkpt lat="39.71294" lon="-0.41827">
        <ele>443.0</ele>
      </trkpt>
      <trkpt lat="39.71301" lon="-0.41761">
        <ele>441.0</ele>
      </trkpt>
      <trkpt lat="39.71327" lon="-0.41724">
        <ele>439.0</ele>
      </trkpt>
      <trkpt lat="39.71335" lon="-0.41684">
        <ele>437.0</ele>
      </trkpt>
      <trkpt lat="39.71329" lon="-0.41613">
        <ele>434.0</ele>
      </trkpt>
      <trkpt lat="39.71348" lon="-0.41539">
        <ele>432.0</ele>
      </trkpt>
      <trkpt lat="39.71365" lon="-0.41536">
        <ele>431.0</ele>
      </trkpt>
      <trkpt lat="39.71457" lon="-0.41581">
        <ele>427.0</ele>
      </trkpt>
      <trkpt lat="39.71533" lon="-0.41545">
        <ele>416.0</ele>
      </trkpt>
      <trkpt lat="39.71613" lon="-0.41552">
        <ele>405.0</ele>
      </trkpt>
      <trkpt lat="39.71657" lon="-0.41644">
        <ele>400.0</ele>
      </trkpt>
      <trkpt lat="39.71704" lon="-0.41562">
        <ele>394.0</ele>
      </trkpt>
      <trkpt lat="39.7174" lon="-0.41497">
        <ele>389.0</ele>
      </trkpt>
      <trkpt lat="39.71727" lon="-0.41399">
        <ele>383.0</ele>
      </trkpt>
      <trkpt lat="39.71812" lon="-0.41251">
        <ele>378.0</ele>
      </trkpt>
      <trkpt lat="39.71855" lon="-0.41292">
        <ele>378.0</ele>
      </trkpt>
      <trkpt lat="39.71881" lon="-0.4133">
        <ele>377.0</ele>
      </trkpt>
      <trkpt lat="39.71947" lon="-0.41225">
        <ele>369.0</ele>
      </trkpt>
      <trkpt lat="39.71993" lon="-0.41287">
        <ele>360.0</ele>
      </trkpt>
      <trkpt lat="39.7204" lon="-0.41428">
        <ele>352.0</ele>
      </trkpt>
      <trkpt lat="39.72137" lon="-0.41483">
        <ele>343.0</ele>
      </trkpt>
      <trkpt lat="39.72185" lon="-0.41347">
        <ele>332.0</ele>
      </trkpt>
      <trkpt lat="39.72106" lon="-0.41367">
        <ele>324.0</ele>
      </trkpt>
      <trkpt lat="39.72123" lon="-0.41204">
        <ele>319.0</ele>
      </trkpt>
      <trkpt lat="39.72121" lon="-0.4118">
        <ele>316.0</ele>
      </trkpt>
      <trkpt lat="39.72154" lon="-0.40963">
        <ele>308.0</ele>
      </trkpt>
      <trkpt lat="39.72261" lon="-0.40956">
        <ele>298.0</ele>
      </trkpt>
      <trkpt lat="39.72404" lon="-0.40682">
        <ele>280.0</ele>
      </trkpt>
      <trkpt lat="39.7245" lon="-0.40525">
        <ele>266.0</ele>
      </trkpt>
      <trkpt lat="39.72709" lon="-0.40373">
        <ele>257.0</ele>
      </trkpt>
      <trkpt lat="39.72869" lon="-0.40277">
        <ele>253.0</ele>
      </trkpt>
      <trkpt lat="39.73031" lon="-0.40032">
        <ele>243.0</ele>
      </trkpt>
      <trkpt lat="39.73104" lon="-0.39831">
        <ele>232.0</ele>
      </trkpt>
      <trkpt lat="39.73145" lon="-0.39753">
        <ele>227.0</ele>
      </trkpt>
      <trkpt lat="39.73189" lon="-0.39497">
        <ele>225.0</ele>
      </trkpt>
      <trkpt lat="39.73386" lon="-0.3923">
        <ele>224.0</ele>
      </trkpt>
      <trkpt lat="39.7355" lon="-0.39145">
        <ele>224.0</ele>
      </trkpt>
      <trkpt lat="39.73764" lon="-0.39085">
        <ele>221.0</ele>
      </trkpt>
      <trkpt lat="39.73888" lon="-0.38921">
        <ele>219.0</ele>
      </trkpt>
      <trkpt lat="39.74021" lon="-0.38749">
        <ele>218.0</ele>
      </trkpt>
      <trkpt lat="39.74195" lon="-0.38299">
        <ele>217.0</ele>
      </trkpt>
      <trkpt lat="39.74341" lon="-0.38157">
        <ele>213.0</ele>
      </trkpt>
      <trkpt lat="39.74744" lon="-0.37756">
        <ele>206.0</ele>
      </trkpt>
      <trkpt lat="39.74826" lon="-0.37545">
        <ele>199.0</ele>
      </trkpt>
      <trkpt lat="39.74785" lon="-0.37449">
        <ele>194.0</ele>
      </trkpt>
      <trkpt lat="39.74803" lon="-0.37417">
        <ele>192.0</ele>
      </trkpt>
      <trkpt lat="39.74793" lon="-0.37322">
        <ele>191.0</ele>
      </trkpt>
      <trkpt lat="39.74833" lon="-0.37251">
        <ele>191.0</ele>
      </trkpt>
      <trkpt lat="39.74809" lon="-0.37082">
        <ele>188.0</ele>
      </trkpt>
      <trkpt lat="39.74708" lon="-0.36847">
        <ele>180.0</ele>
      </trkpt>
      <trkpt lat="39.74693" lon="-0.36774">
        <ele>178.0</ele>
      </trkpt>
      <trkpt lat="39.74672" lon="-0.36733">
        <ele>177.0</ele>
      </trkpt>
      <trkpt lat="39.74684" lon="-0.36687">
        <ele>176.0</ele>
      </trkpt>
      <trkpt lat="39.74457" lon="-0.35988">
        <ele>174.0</ele>
      </trkpt>
      <trkpt lat="39.7442" lon="-0.35782">
        <ele>174.0</ele>
      </trkpt>
      <trkpt lat="39.74377" lon="-0.35604">
        <ele>174.0</ele>
      </trkpt>
      <trkpt lat="39.7444" lon="-0.35581">
        <ele>174.0</ele>
      </trkpt>
      <trkpt lat="39.74451" lon="-0.35556">
        <ele>174.0</ele>
      </trkpt>
      <trkpt lat="39.74446" lon="-0.3537">
        <ele>171.0</ele>
      </trkpt>
      <trkpt lat="39.74425" lon="-0.35312">
        <ele>168.0</ele>
      </trkpt>
      <trkpt lat="39.74294" lon="-0.35198">
        <ele>168.0</ele>
      </trkpt>
      <trkpt lat="39.73922" lon="-0.35165">
        <ele>171.0</ele>
      </trkpt>
      <trkpt lat="39.73557" lon="-0.35219">
        <ele>173.0</ele>
      </trkpt>
      <trkpt lat="39.73397" lon="-0.35214">
        <ele>171.0</ele>
      </trkpt>
      <trkpt lat="39.73004" lon="-0.34935">
        <ele>173.0</ele>
      </trkpt>
      <trkpt lat="39.71923" lon="-0.34965">
        <ele>150.0</ele>
      </trkpt>
      <trkpt lat="39.7148" lon="-0.34946">
        <ele>125.0</ele>
      </trkpt>
      <trkpt lat="39.71404" lon="-0.34945">
        <ele>121.0</ele>
      </trkpt>
      <trkpt lat="39.71304" lon="-0.34888">
        <ele>120.0</ele>
      </trkpt>
      <trkpt lat="39.71222" lon="-0.34885">
        <ele>120.0</ele>
      </trkpt>
      <trkpt lat="39.71177" lon="-0.34864">
        <ele>119.0</ele>
      </trkpt>
      <trkpt lat="39.71134" lon="-0.3481">
        <ele>117.0</ele>
      </trkpt>
      <trkpt lat="39.71004" lon="-0.34807">
        <ele>113.0</ele>
      </trkpt>
      <trkpt lat="39.70972" lon="-0.34826">
        <ele>110.0</ele>
      </trkpt>
      <trkpt lat="39.70921" lon="-0.34906">
        <ele>111.0</ele>
      </trkpt>
      <trkpt lat="39.70811" lon="-0.34868">
        <ele>113.0</ele>
      </trkpt>
      <trkpt lat="39.70636" lon="-0.34769">
        <ele>109.0</ele>
      </trkpt>
      <trkpt lat="39.70293" lon="-0.34534">
        <ele>100.0</ele>
      </trkpt>
      <trkpt lat="39.69904" lon="-0.34133">
        <ele>96.0</ele>
      </trkpt>
      <trkpt lat="39.69883" lon="-0.34147">
        <ele>95.0</ele>
      </trkpt>
      <trkpt lat="39.69846" lon="-0.34256">
        <ele>99.0</ele>
      </trkpt>
      <trkpt lat="39.69848" lon="-0.34266">
        <ele>100.0</ele>
      </trkpt>
      <trkpt lat="39.69841" lon="-0.34279">
        <ele>101.0</ele>
      </trkpt>
      <trkpt lat="39.69789" lon="-0.34393">
        <ele>105.0</ele>
      </trkpt>
      <trkpt lat="39.69733" lon="-0.34475">
        <ele>108.0</ele>
      </trkpt>
      <trkpt lat="39.6974" lon="-0.34494">
        <ele>110.0</ele>
      </trkpt>
      <trkpt lat="39.69739" lon="-0.34509">
        <ele>111.0</ele>
      </trkpt>
      <trkpt lat="39.69728" lon="-0.34514">
        <ele>111.0</ele>
      </trkpt>
      <trkpt lat="39.69722" lon="-0.34508">
        <ele>111.0</ele>
      </trkpt>
      <trkpt lat="39.69696" lon="-0.34504">
        <ele>112.0</ele>
      </trkpt>
      <trkpt lat="39.69625" lon="-0.34573">
        <ele>113.0</ele>
      </trkpt>
      <trkpt lat="39.69489" lon="-0.34628">
        <ele>117.0</ele>
      </trkpt>
      <trkpt lat="39.69371" lon="-0.34627">
        <ele>120.0</ele>
      </trkpt>
      <trkpt lat="39.69323" lon="-0.34708">
        <ele>125.0</ele>
      </trkpt>
      <trkpt lat="39.69327" lon="-0.34772">
        <ele>129.0</ele>
      </trkpt>
      <trkpt lat="39.69364" lon="-0.34813">
        <ele>131.0</ele>
      </trkpt>
      <trkpt lat="39.69387" lon="-0.34878">
        <ele>133.0</ele>
      </trkpt>
      <trkpt lat="39.69365" lon="-0.34946">
        <ele>133.0</ele>
      </trkpt>
      <trkpt lat="39.69338" lon="-0.34984">
        <ele>133.0</ele>
      </trkpt>
      <trkpt lat="39.69246" lon="-0.35049">
        <ele>133.0</ele>
      </trkpt>
      <trkpt lat="39.69171" lon="-0.35115">
        <ele>138.0</ele>
      </trkpt>
      <trkpt lat="39.69134" lon="-0.35184">
        <ele>141.0</ele>
      </trkpt>
      <trkpt lat="39.69119" lon="-0.35286">
        <ele>144.0</ele>
      </trkpt>
      <trkpt lat="39.69134" lon="-0.35357">
        <ele>147.0</ele>
      </trkpt>
      <trkpt lat="39.6919" lon="-0.35455">
        <ele>150.0</ele>
      </trkpt>
      <trkpt lat="39.69169" lon="-0.35546">
        <ele>152.0</ele>
      </trkpt>
      <trkpt lat="39.69096" lon="-0.35653">
        <ele>153.0</ele>
      </trkpt>
      <trkpt lat="39.69014" lon="-0.35737">
        <ele>156.0</ele>
      </trkpt>
      <trkpt lat="39.69002" lon="-0.35783">
        <ele>157.0</ele>
      </trkpt>
      <trkpt lat="39.69004" lon="-0.3583">
        <ele>159.0</ele>
      </trkpt>
      <trkpt lat="39.69032" lon="-0.36006">
        <ele>168.0</ele>
      </trkpt>
      <trkpt lat="39.69007" lon="-0.36049">
        <ele>172.0</ele>
      </trkpt>
      <trkpt lat="39.68968" lon="-0.36051">
        <ele>173.0</ele>
      </trkpt>
      <trkpt lat="39.6891" lon="-0.3604">
        <ele>174.0</ele>
      </trkpt>
      <trkpt lat="39.68875" lon="-0.36063">
        <ele>175.0</ele>
      </trkpt>
      <trkpt lat="39.68847" lon="-0.3613">
        <ele>177.0</ele>
      </trkpt>
      <trkpt lat="39.68847" lon="-0.36173">
        <ele>179.0</ele>
      </trkpt>
      <trkpt lat="39.68853" lon="-0.36257">
        <ele>183.0</ele>
      </trkpt>
      <trkpt lat="39.68828" lon="-0.36315">
        <ele>186.0</ele>
      </trkpt>
      <trkpt lat="39.68751" lon="-0.36408">
        <ele>189.0</ele>
      </trkpt>
      <trkpt lat="39.68757" lon="-0.36465">
        <ele>190.0</ele>
      </trkpt>
      <trkpt lat="39.68804" lon="-0.36498">
        <ele>192.0</ele>
      </trkpt>
      <trkpt lat="39.68844" lon="-0.36562">
        <ele>195.0</ele>
      </trkpt>
      <trkpt lat="39.68828" lon="-0.36639">
        <ele>199.0</ele>
      </trkpt>
      <trkpt lat="39.68771" lon="-0.36778">
        <ele>206.0</ele>
      </trkpt>
      <trkpt lat="39.68804" lon="-0.36829">
        <ele>211.0</ele>
      </trkpt>
      <trkpt lat="39.68803" lon="-0.36861">
        <ele>213.0</ele>
      </trkpt>
      <trkpt lat="39.68765" lon="-0.36881">
        <ele>215.0</ele>
      </trkpt>
      <trkpt lat="39.68709" lon="-0.36959">
        <ele>219.0</ele>
      </trkpt>
      <trkpt lat="39.68693" lon="-0.3704">
        <ele>223.0</ele>
      </trkpt>
      <trkpt lat="39.68683" lon="-0.37055">
        <ele>225.0</ele>
      </trkpt>
      <trkpt lat="39.68649" lon="-0.37049">
        <ele>227.0</ele>
      </trkpt>
      <trkpt lat="39.68616" lon="-0.37059">
        <ele>230.0</ele>
      </trkpt>
      <trkpt lat="39.68584" lon="-0.37114">
        <ele>234.0</ele>
      </trkpt>
      <trkpt lat="39.68536" lon="-0.37166">
        <ele>240.0</ele>
      </trkpt>
      <trkpt lat="39.68521" lon="-0.3718">
        <ele>243.0</ele>
      </trkpt>
      <trkpt lat="39.68487" lon="-0.3716">
        <ele>246.0</ele>
      </trkpt>
      <trkpt lat="39.6843" lon="-0.37125">
        <ele>250.0</ele>
      </trkpt>
      <trkpt lat="39.68417" lon="-0.37123">
        <ele>252.0</ele>
      </trkpt>
      <trkpt lat="39.68402" lon="-0.37126">
        <ele>253.0</ele>
      </trkpt>
      <trkpt lat="39.68337" lon="-0.37163">
        <ele>255.0</ele>
      </trkpt>
      <trkpt lat="39.68311" lon="-0.37204">
        <ele>259.0</ele>
      </trkpt>
      <trkpt lat="39.68308" lon="-0.37221">
        <ele>260.0</ele>
      </trkpt>
      <trkpt lat="39.68309" lon="-0.37246">
        <ele>262.0</ele>
      </trkpt>
      <trkpt lat="39.68315" lon="-0.37266">
        <ele>263.0</ele>
      </trkpt>
      <trkpt lat="39.68333" lon="-0.3732">
        <ele>265.0</ele>
      </trkpt>
      <trkpt lat="39.68362" lon="-0.37355">
        <ele>268.0</ele>
      </trkpt>
      <trkpt lat="39.68372" lon="-0.37403">
        <ele>271.0</ele>
      </trkpt>
      <trkpt lat="39.68332" lon="-0.37411">
        <ele>272.0</ele>
      </trkpt>
      <trkpt lat="39.68313" lon="-0.3742">
        <ele>272.0</ele>
      </trkpt>
      <trkpt lat="39.68239" lon="-0.37533">
        <ele>271.0</ele>
      </trkpt>
      <trkpt lat="39.6823" lon="-0.37559">
        <ele>271.0</ele>
      </trkpt>
      <trkpt lat="39.68226" lon="-0.37566">
        <ele>271.0</ele>
      </trkpt>
      <trkpt lat="39.68219" lon="-0.37567">
        <ele>271.0</ele>
      </trkpt>
      <trkpt lat="39.68206" lon="-0.37551">
        <ele>271.0</ele>
      </trkpt>
      <trkpt lat="39.68181" lon="-0.37475">
        <ele>272.0</ele>
      </trkpt>
      <trkpt lat="39.68174" lon="-0.37449">
        <ele>272.0</ele>
      </trkpt>
      <trkpt lat="39.68162" lon="-0.37434">
        <ele>272.0</ele>
      </trkpt>
      <trkpt lat="39.68136" lon="-0.37446">
        <ele>272.0</ele>
      </trkpt>
      <trkpt lat="39.68105" lon="-0.37478">
        <ele>276.0</ele>
      </trkpt>
      <trkpt lat="39.6808" lon="-0.37546">
        <ele>282.0</ele>
      </trkpt>
      <trkpt lat="39.68047" lon="-0.37575">
        <ele>287.0</ele>
      </trkpt>
      <trkpt lat="39.68041" lon="-0.37587">
        <ele>290.0</ele>
      </trkpt>
      <trkpt lat="39.68047" lon="-0.37592">
        <ele>292.0</ele>
      </trkpt>
      <trkpt lat="39.68071" lon="-0.37593">
        <ele>294.0</ele>
      </trkpt>
      <trkpt lat="39.68095" lon="-0.37583">
        <ele>298.0</ele>
      </trkpt>
      <trkpt lat="39.68117" lon="-0.37572">
        <ele>301.0</ele>
      </trkpt>
      <trkpt lat="39.68124" lon="-0.37581">
        <ele>304.0</ele>
      </trkpt>
      <trkpt lat="39.68118" lon="-0.37628">
        <ele>308.0</ele>
      </trkpt>
      <trkpt lat="39.68118" lon="-0.37669">
        <ele>314.0</ele>
      </trkpt>
      <trkpt lat="39.68125" lon="-0.37729">
        <ele>320.0</ele>
      </trkpt>
      <trkpt lat="39.68122" lon="-0.37765">
        <ele>326.0</ele>
      </trkpt>
      <trkpt lat="39.68114" lon="-0.37796">
        <ele>330.0</ele>
      </trkpt>
      <trkpt lat="39.68111" lon="-0.37842">
        <ele>333.0</ele>
      </trkpt>
      <trkpt lat="39.68104" lon="-0.37882">
        <ele>338.0</ele>
      </trkpt>
      <trkpt lat="39.68088" lon="-0.37909">
        <ele>342.0</ele>
      </trkpt>
      <trkpt lat="39.68071" lon="-0.37926">
        <ele>345.0</ele>
      </trkpt>
      <trkpt lat="39.68062" lon="-0.37967">
        <ele>349.0</ele>
      </trkpt>
      <trkpt lat="39.68033" lon="-0.38011">
        <ele>355.0</ele>
      </trkpt>
      <trkpt lat="39.68017" lon="-0.3802">
        <ele>359.0</ele>
      </trkpt>
      <trkpt lat="39.68006" lon="-0.38026">
        <ele>361.0</ele>
      </trkpt>
      <trkpt lat="39.67946" lon="-0.38092">
        <ele>370.0</ele>
      </trkpt>
      <trkpt lat="39.67923" lon="-0.38134">
        <ele>377.0</ele>
      </trkpt>
      <trkpt lat="39.67925" lon="-0.38152">
        <ele>380.0</ele>
      </trkpt>
      <trkpt lat="39.67937" lon="-0.38169">
        <ele>382.0</ele>
      </trkpt>
      <trkpt lat="39.67956" lon="-0.38173">
        <ele>383.0</ele>
      </trkpt>
      <trkpt lat="39.6801" lon="-0.38148">
        <ele>387.0</ele>
      </trkpt>
      <trkpt lat="39.6805" lon="-0.3813">
        <ele>392.0</ele>
      </trkpt>
      <trkpt lat="39.68076" lon="-0.38135">
        <ele>395.0</ele>
      </trkpt>
      <trkpt lat="39.68102" lon="-0.38156">
        <ele>401.0</ele>
      </trkpt>
      <trkpt lat="39.68112" lon="-0.38196">
        <ele>407.0</ele>
      </trkpt>
      <trkpt lat="39.68113" lon="-0.38274">
        <ele>418.0</ele>
      </trkpt>
      <trkpt lat="39.68108" lon="-0.38341">
        <ele>430.0</ele>
      </trkpt>
      <trkpt lat="39.68117" lon="-0.38405">
        <ele>438.0</ele>
      </trkpt>
      <trkpt lat="39.68134" lon="-0.38478">
        <ele>447.0</ele>
      </trkpt>
      <trkpt lat="39.68133" lon="-0.38506">
        <ele>453.0</ele>
      </trkpt>
      <trkpt lat="39.6812" lon="-0.3853">
        <ele>457.0</ele>
      </trkpt>
      <trkpt lat="39.68069" lon="-0.38571">
        <ele>463.0</ele>
      </trkpt>
      <trkpt lat="39.68025" lon="-0.38594">
        <ele>470.0</ele>
      </trkpt>
      <trkpt lat="39.67998" lon="-0.38611">
        <ele>475.0</ele>
      </trkpt>
      <trkpt lat="39.67984" lon="-0.38636">
        <ele>478.0</ele>
      </trkpt>
      <trkpt lat="39.67982" lon="-0.38665">
        <ele>480.0</ele>
      </trkpt>
      <trkpt lat="39.67996" lon="-0.38741">
        <ele>485.0</ele>
      </trkpt>
      <trkpt lat="39.6801" lon="-0.38795">
        <ele>486.0</ele>
      </trkpt>
      <trkpt lat="39.68079" lon="-0.38828">
        <ele>486.0</ele>
      </trkpt>
      <trkpt lat="39.68127" lon="-0.3886">
        <ele>486.0</ele>
      </trkpt>
      <trkpt lat="39.6815" lon="-0.38862">
        <ele>488.0</ele>
      </trkpt>
      <trkpt lat="39.68185" lon="-0.38851">
        <ele>493.0</ele>
      </trkpt>
      <trkpt lat="39.682" lon="-0.38864">
        <ele>496.0</ele>
      </trkpt>
      <trkpt lat="39.68197" lon="-0.38892">
        <ele>499.0</ele>
      </trkpt>
      <trkpt lat="39.68197" lon="-0.38931">
        <ele>503.0</ele>
      </trkpt>
      <trkpt lat="39.68181" lon="-0.39002">
        <ele>510.0</ele>
      </trkpt>
      <trkpt lat="39.68188" lon="-0.39059">
        <ele>514.0</ele>
      </trkpt>
      <trkpt lat="39.68205" lon="-0.39103">
        <ele>518.0</ele>
      </trkpt>
      <trkpt lat="39.68241" lon="-0.39115">
        <ele>520.0</ele>
      </trkpt>
      <trkpt lat="39.68274" lon="-0.39094">
        <ele>523.0</ele>
      </trkpt>
      <trkpt lat="39.68346" lon="-0.39003">
        <ele>528.0</ele>
      </trkpt>
      <trkpt lat="39.68369" lon="-0.38951">
        <ele>532.0</ele>
      </trkpt>
      <trkpt lat="39.68376" lon="-0.38917">
        <ele>535.0</ele>
      </trkpt>
      <trkpt lat="39.68385" lon="-0.38853">
        <ele>539.0</ele>
      </trkpt>
      <trkpt lat="39.68433" lon="-0.3881">
        <ele>542.0</ele>
      </trkpt>
      <trkpt lat="39.68477" lon="-0.38711">
        <ele>544.0</ele>
      </trkpt>
      <trkpt lat="39.68628" lon="-0.38635">
        <ele>546.0</ele>
      </trkpt>
      <trkpt lat="39.68695" lon="-0.38678">
        <ele>546.0</ele>
      </trkpt>
      <trkpt lat="39.68707" lon="-0.38705">
        <ele>546.0</ele>
      </trkpt>
      <trkpt lat="39.68721" lon="-0.38746">
        <ele>545.0</ele>
      </trkpt>
      <trkpt lat="39.68769" lon="-0.3877">
        <ele>545.0</ele>
      </trkpt>
      <trkpt lat="39.68942" lon="-0.38885">
        <ele>543.0</ele>
      </trkpt>
      <trkpt lat="39.68974" lon="-0.38902">
        <ele>543.0</ele>
      </trkpt>
      <trkpt lat="39.69072" lon="-0.38914">
        <ele>544.0</ele>
      </trkpt>
      <trkpt lat="39.69091" lon="-0.38923">
        <ele>544.0</ele>
      </trkpt>
      <trkpt lat="39.69112" lon="-0.38927">
        <ele>544.0</ele>
      </trkpt>
      <trkpt lat="39.6915" lon="-0.38913">
        <ele>545.0</ele>
      </trkpt>
      <trkpt lat="39.69181" lon="-0.3889">
        <ele>546.0</ele>
      </trkpt>
      <trkpt lat="39.69195" lon="-0.38857">
        <ele>546.0</ele>
      </trkpt>
      <trkpt lat="39.69229" lon="-0.38819">
        <ele>547.0</ele>
      </trkpt>
      <trkpt lat="39.69292" lon="-0.38789">
        <ele>548.0</ele>
      </trkpt>
      <trkpt lat="39.69308" lon="-0.38781">
        <ele>549.0</ele>
      </trkpt>
      <trkpt lat="39.6933" lon="-0.38804">
        <ele>551.0</ele>
      </trkpt>
      <trkpt lat="39.69346" lon="-0.38807">
        <ele>552.0</ele>
      </trkpt>
      <trkpt lat="39.69387" lon="-0.38786">
        <ele>554.0</ele>
      </trkpt>
      <trkpt lat="39.69445" lon="-0.38735">
        <ele>558.0</ele>
      </trkpt>
      <trkpt lat="39.69449" lon="-0.38611">
        <ele>561.0</ele>
      </trkpt>
      <trkpt lat="39.69457" lon="-0.38548">
        <ele>565.0</ele>
      </trkpt>
      <trkpt lat="39.6947" lon="-0.38532">
        <ele>566.0</ele>
      </trkpt>
      <trkpt lat="39.69488" lon="-0.38518">
        <ele>567.0</ele>
      </trkpt>
      <trkpt lat="39.69577" lon="-0.38538">
        <ele>572.0</ele>
      </trkpt>
      <trkpt lat="39.69637" lon="-0.3855">
        <ele>580.0</ele>
      </trkpt>
      <trkpt lat="39.69653" lon="-0.38541">
        <ele>584.0</ele>
      </trkpt>
      <trkpt lat="39.69651" lon="-0.3849">
        <ele>587.0</ele>
      </trkpt>
      <trkpt lat="39.69658" lon="-0.38473">
        <ele>588.0</ele>
      </trkpt>
      <trkpt lat="39.69669" lon="-0.38556">
        <ele>591.0</ele>
      </trkpt>
      <trkpt lat="39.69664" lon="-0.38592">
        <ele>593.0</ele>
      </trkpt>
      <trkpt lat="39.69648" lon="-0.38661">
        <ele>595.0</ele>
      </trkpt>
      <trkpt lat="39.69689" lon="-0.38789">
        <ele>591.0</ele>
      </trkpt>
      <trkpt lat="39.69696" lon="-0.38822">
        <ele>585.0</ele>
      </trkpt>
      <trkpt lat="39.69698" lon="-0.38857">
        <ele>581.0</ele>
      </trkpt>
      <trkpt lat="39.69748" lon="-0.38974">
        <ele>577.0</ele>
      </trkpt>
      <trkpt lat="39.69756" lon="-0.38989">
        <ele>574.0</ele>
      </trkpt>
      <trkpt lat="39.69817" lon="-0.3908">
        <ele>571.0</ele>
      </trkpt>
      <trkpt lat="39.69824" lon="-0.39291">
        <ele>564.0</ele>
      </trkpt>
      <trkpt lat="39.6979" lon="-0.39349">
        <ele>560.0</ele>
      </trkpt>
      <trkpt lat="39.69779" lon="-0.39458">
        <ele>558.0</ele>
      </trkpt>
      <trkpt lat="39.69723" lon="-0.39598">
        <ele>556.0</ele>
      </trkpt>
      <trkpt lat="39.69704" lon="-0.39684">
        <ele>551.0</ele>
      </trkpt>
      <trkpt lat="39.69712" lon="-0.39714">
        <ele>547.0</ele>
      </trkpt>
      <trkpt lat="39.69775" lon="-0.39715">
        <ele>541.0</ele>
      </trkpt>
      <trkpt lat="39.69816" lon="-0.398">
        <ele>535.0</ele>
      </trkpt>
      <trkpt lat="39.69817" lon="-0.39843">
        <ele>533.0</ele>
      </trkpt>
      <trkpt lat="39.69815" lon="-0.40043">
        <ele>533.0</ele>
      </trkpt>
      <trkpt lat="39.69835" lon="-0.4011">
        <ele>535.0</ele>
      </trkpt>
      <trkpt lat="39.69824" lon="-0.40233">
        <ele>538.0</ele>
      </trkpt>
      <trkpt lat="39.69846" lon="-0.40321">
        <ele>541.0</ele>
      </trkpt>
      <trkpt lat="39.69879" lon="-0.40372">
        <ele>545.0</ele>
      </trkpt>
      <trkpt lat="39.69956" lon="-0.403">
        <ele>549.0</ele>
      </trkpt>
      <trkpt lat="39.69998" lon="-0.4029">
        <ele>553.0</ele>
      </trkpt>
      <trkpt lat="39.70051" lon="-0.40361">
        <ele>556.0</ele>
      </trkpt>
      <trkpt lat="39.70029" lon="-0.40615">
        <ele>560.0</ele>
      </trkpt>
      <trkpt lat="39.70037" lon="-0.40693">
        <ele>565.0</ele>
      </trkpt>
      <trkpt lat="39.70153" lon="-0.40969">
        <ele>562.0</ele>
      </trkpt>
      <trkpt lat="39.70204" lon="-0.41035">
        <ele>561.0</ele>
      </trkpt>
      <trkpt lat="39.70174" lon="-0.41121">
        <ele>560.0</ele>
      </trkpt>
      <trkpt lat="39.70224" lon="-0.41179">
        <ele>559.0</ele>
      </trkpt>
      <trkpt lat="39.70275" lon="-0.41385">
        <ele>555.0</ele>
      </trkpt>
      <trkpt lat="39.70256" lon="-0.41465">
        <ele>550.0</ele>
      </trkpt>
      <trkpt lat="39.70263" lon="-0.4151">
        <ele>548.0</ele>
      </trkpt>
      <trkpt lat="39.70343" lon="-0.41625">
        <ele>543.0</ele>
      </trkpt>
      <trkpt lat="39.70342" lon="-0.41711">
        <ele>538.0</ele>
      </trkpt>
      <trkpt lat="39.70286" lon="-0.41768">
        <ele>532.0</ele>
      </trkpt>
      <trkpt lat="39.70146" lon="-0.41698">
        <ele>524.0</ele>
      </trkpt>
      <trkpt lat="39.69982" lon="-0.41636">
        <ele>515.0</ele>
      </trkpt>
      <trkpt lat="39.69983" lon="-0.41663">
        <ele>511.0</ele>
      </trkpt>
      <trkpt lat="39.7023" lon="-0.41839">
        <ele>505.0</ele>
      </trkpt>
      <trkpt lat="39.70323" lon="-0.41854">
        <ele>499.0</ele>
      </trkpt>
      <trkpt lat="39.70344" lon="-0.41897">
        <ele>495.0</ele>
      </trkpt>
      <trkpt lat="39.70301" lon="-0.41911">
        <ele>489.0</ele>
      </trkpt>
      <trkpt lat="39.70214" lon="-0.41961">
        <ele>486.0</ele>
      </trkpt>
      <trkpt lat="39.70025" lon="-0.41888">
        <ele>471.0</ele>
      </trkpt>
      <trkpt lat="39.69936" lon="-0.41936">
        <ele>460.0</ele>
      </trkpt>
      <trkpt lat="39.69903" lon="-0.42046">
        <ele>453.0</ele>
      </trkpt>
      <trkpt lat="39.69817" lon="-0.42238">
        <ele>442.0</ele>
      </trkpt>
      <trkpt lat="39.69754" lon="-0.42395">
        <ele>437.0</ele>
      </trkpt>
      <trkpt lat="39.69721" lon="-0.42411">
        <ele>432.0</ele>
      </trkpt>
      <trkpt lat="39.6967" lon="-0.42361">
        <ele>427.0</ele>
      </trkpt>
      <trkpt lat="39.69607" lon="-0.4238">
        <ele>421.0</ele>
      </trkpt>
      <trkpt lat="39.69595" lon="-0.42515">
        <ele>424.0</ele>
      </trkpt>
      <trkpt lat="39.69575" lon="-0.42538">
        <ele>427.0</ele>
      </trkpt>
      <trkpt lat="39.69562" lon="-0.42454">
        <ele>425.0</ele>
      </trkpt>
      <trkpt lat="39.6955" lon="-0.42334">
        <ele>419.0</ele>
      </trkpt>
      <trkpt lat="39.69577" lon="-0.42233">
        <ele>407.0</ele>
      </trkpt>
      <trkpt lat="39.69548" lon="-0.42176">
        <ele>398.0</ele>
      </trkpt>
      <trkpt lat="39.69461" lon="-0.42155">
        <ele>396.0</ele>
      </trkpt>
      <trkpt lat="39.69391" lon="-0.42198">
        <ele>392.0</ele>
      </trkpt>
      <trkpt lat="39.69387" lon="-0.42214">
        <ele>390.0</ele>
      </trkpt>
      <trkpt lat="39.69369" lon="-0.4222">
        <ele>390.0</ele>
      </trkpt>
      <trkpt lat="39.69355" lon="-0.42222">
        <ele>390.0</ele>
      </trkpt>
      <trkpt lat="39.69284" lon="-0.42265">
        <ele>391.0</ele>
      </trkpt>
      <trkpt lat="39.69262" lon="-0.42287">
        <ele>392.0</ele>
      </trkpt>
      <trkpt lat="39.69215" lon="-0.42319">
        <ele>393.0</ele>
      </trkpt>
      <trkpt lat="39.69188" lon="-0.42354">
        <ele>394.0</ele>
      </trkpt>
      <trkpt lat="39.69163" lon="-0.42402">
        <ele>396.0</ele>
      </trkpt>
      <trkpt lat="39.6915" lon="-0.42444">
        <ele>398.0</ele>
      </trkpt>
      <trkpt lat="39.69137" lon="-0.42466">
        <ele>400.0</ele>
      </trkpt>
      <trkpt lat="39.6912" lon="-0.4248">
        <ele>401.0</ele>
      </trkpt>
      <trkpt lat="39.69094" lon="-0.42494">
        <ele>403.0</ele>
      </trkpt>
      <trkpt lat="39.69078" lon="-0.42521">
        <ele>405.0</ele>
      </trkpt>
      <trkpt lat="39.69079" lon="-0.42549">
        <ele>407.0</ele>
      </trkpt>
      <trkpt lat="39.69117" lon="-0.426">
        <ele>411.0</ele>
      </trkpt>
      <trkpt lat="39.6912" lon="-0.42621">
        <ele>414.0</ele>
      </trkpt>
      <trkpt lat="39.69115" lon="-0.42641">
        <ele>416.0</ele>
      </trkpt>
      <trkpt lat="39.69121" lon="-0.42665">
        <ele>418.0</ele>
      </trkpt>
      <trkpt lat="39.69155" lon="-0.42697">
        <ele>423.0</ele>
      </trkpt>
      <trkpt lat="39.69164" lon="-0.42721">
        <ele>426.0</ele>
      </trkpt>
      <trkpt lat="39.69159" lon="-0.42748">
        <ele>428.0</ele>
      </trkpt>
      <trkpt lat="39.69149" lon="-0.42776">
        <ele>430.0</ele>
      </trkpt>
      <trkpt lat="39.69158" lon="-0.42857">
        <ele>433.0</ele>
      </trkpt>
      <trkpt lat="39.69167" lon="-0.42884">
        <ele>435.0</ele>
      </trkpt>
      <trkpt lat="39.69227" lon="-0.42979">
        <ele>439.0</ele>
      </trkpt>
      <trkpt lat="39.69258" lon="-0.43013">
        <ele>439.0</ele>
      </trkpt>
      <trkpt lat="39.69259" lon="-0.43028">
        <ele>438.0</ele>
      </trkpt>
      <trkpt lat="39.69239" lon="-0.43076">
        <ele>436.0</ele>
      </trkpt>
      <trkpt lat="39.69214" lon="-0.4312">
        <ele>433.0</ele>
      </trkpt>
      <trkpt lat="39.69262" lon="-0.43207">
        <ele>429.0</ele>
      </trkpt>
      <trkpt lat="39.69263" lon="-0.43233">
        <ele>426.0</ele>
      </trkpt>
      <trkpt lat="39.69165" lon="-0.43309">
        <ele>425.0</ele>
      </trkpt>
      <trkpt lat="39.69114" lon="-0.4337">
        <ele>424.0</ele>
      </trkpt>
      <trkpt lat="39.69071" lon="-0.43412">
        <ele>424.0</ele>
      </trkpt>
      <trkpt lat="39.69045" lon="-0.43439">
        <ele>425.0</ele>
      </trkpt>
      <trkpt lat="39.69026" lon="-0.43474">
        <ele>425.0</ele>
      </trkpt>
      <trkpt lat="39.68975" lon="-0.43565">
        <ele>426.0</ele>
      </trkpt>
      <trkpt lat="39.68938" lon="-0.4357">
        <ele>428.0</ele>
      </trkpt>
      <trkpt lat="39.68886" lon="-0.43594">
        <ele>431.0</ele>
      </trkpt>
      <trkpt lat="39.68856" lon="-0.43684">
        <ele>433.0</ele>
      </trkpt>
      <trkpt lat="39.68876" lon="-0.43772">
        <ele>432.0</ele>
      </trkpt>
      <trkpt lat="39.68843" lon="-0.43813">
        <ele>431.0</ele>
      </trkpt>
      <trkpt lat="39.68814" lon="-0.43811">
        <ele>430.0</ele>
      </trkpt>
      <trkpt lat="39.68776" lon="-0.43791">
        <ele>428.0</ele>
      </trkpt>
      <trkpt lat="39.68765" lon="-0.43789">
        <ele>427.0</ele>
      </trkpt>
      <trkpt lat="39.68751" lon="-0.43795">
        <ele>426.0</ele>
      </trkpt>
      <trkpt lat="39.68742" lon="-0.43816">
        <ele>424.0</ele>
      </trkpt>
      <trkpt lat="39.68741" lon="-0.43852">
        <ele>422.0</ele>
      </trkpt>
      <trkpt lat="39.6872" lon="-0.43894">
        <ele>420.0</ele>
      </trkpt>
      <trkpt lat="39.68701" lon="-0.43912">
        <ele>417.0</ele>
      </trkpt>
      <trkpt lat="39.68671" lon="-0.43929">
        <ele>414.0</ele>
      </trkpt>
      <trkpt lat="39.6867" lon="-0.43971">
        <ele>411.0</ele>
      </trkpt>
      <trkpt lat="39.68673" lon="-0.4402">
        <ele>407.0</ele>
      </trkpt>
      <trkpt lat="39.68669" lon="-0.44055">
        <ele>403.0</ele>
      </trkpt>
      <trkpt lat="39.68661" lon="-0.4406">
        <ele>401.0</ele>
      </trkpt>
      <trkpt lat="39.68657" lon="-0.44034">
        <ele>399.0</ele>
      </trkpt>
      <trkpt lat="39.68643" lon="-0.43997">
        <ele>395.0</ele>
      </trkpt>
      <trkpt lat="39.68619" lon="-0.43964">
        <ele>391.0</ele>
      </trkpt>
      <trkpt lat="39.6858" lon="-0.43885">
        <ele>384.0</ele>
      </trkpt>
      <trkpt lat="39.6858" lon="-0.43867">
        <ele>380.0</ele>
      </trkpt>
      <trkpt lat="39.68594" lon="-0.43806">
        <ele>375.0</ele>
      </trkpt>
      <trkpt lat="39.686" lon="-0.43696">
        <ele>368.0</ele>
      </trkpt>
      <trkpt lat="39.68599" lon="-0.43665">
        <ele>364.0</ele>
      </trkpt>
      <trkpt lat="39.68597" lon="-0.43603">
        <ele>360.0</ele>
      </trkpt>
      <trkpt lat="39.68591" lon="-0.43564">
        <ele>358.0</ele>
      </trkpt>
      <trkpt lat="39.68574" lon="-0.43551">
        <ele>354.0</ele>
      </trkpt>
      <trkpt lat="39.68571" lon="-0.4357">
        <ele>354.0</ele>
      </trkpt>
      <trkpt lat="39.68559" lon="-0.43611">
        <ele>355.0</ele>
      </trkpt>
      <trkpt lat="39.68553" lon="-0.43698">
        <ele>358.0</ele>
      </trkpt>
      <trkpt lat="39.68543" lon="-0.43732">
        <ele>359.0</ele>
      </trkpt>
      <trkpt lat="39.68532" lon="-0.4374">
        <ele>360.0</ele>
      </trkpt>
      <trkpt lat="39.68491" lon="-0.43678">
        <ele>362.0</ele>
      </trkpt>
      <trkpt lat="39.68469" lon="-0.43631">
        <ele>366.0</ele>
      </trkpt>
      <trkpt lat="39.68342" lon="-0.43561">
        <ele>372.0</ele>
      </trkpt>
      <trkpt lat="39.68305" lon="-0.43512">
        <ele>376.0</ele>
      </trkpt>
      <trkpt lat="39.68268" lon="-0.43461">
        <ele>379.0</ele>
      </trkpt>
      <trkpt lat="39.68246" lon="-0.43443">
        <ele>381.0</ele>
      </trkpt>
      <trkpt lat="39.68223" lon="-0.43449">
        <ele>382.0</ele>
      </trkpt>
      <trkpt lat="39.68198" lon="-0.4345">
        <ele>383.0</ele>
      </trkpt>
      <trkpt lat="39.68182" lon="-0.43416">
        <ele>381.0</ele>
      </trkpt>
      <trkpt lat="39.68173" lon="-0.43379">
        <ele>379.0</ele>
      </trkpt>
      <trkpt lat="39.68166" lon="-0.4332">
        <ele>376.0</ele>
      </trkpt>
      <trkpt lat="39.68156" lon="-0.43291">
        <ele>374.0</ele>
      </trkpt>
      <trkpt lat="39.681" lon="-0.4321">
        <ele>369.0</ele>
      </trkpt>
      <trkpt lat="39.68015" lon="-0.43098">
        <ele>362.0</ele>
      </trkpt>
      <trkpt lat="39.67991" lon="-0.43049">
        <ele>357.0</ele>
      </trkpt>
      <trkpt lat="39.67961" lon="-0.43014">
        <ele>351.0</ele>
      </trkpt>
      <trkpt lat="39.67947" lon="-0.42995">
        <ele>347.0</ele>
      </trkpt>
      <trkpt lat="39.67928" lon="-0.42956">
        <ele>342.0</ele>
      </trkpt>
      <trkpt lat="39.67919" lon="-0.42926">
        <ele>337.0</ele>
      </trkpt>
      <trkpt lat="39.67906" lon="-0.42903">
        <ele>334.0</ele>
      </trkpt>
      <trkpt lat="39.67893" lon="-0.4288">
        <ele>330.0</ele>
      </trkpt>
      <trkpt lat="39.67889" lon="-0.42849">
        <ele>328.0</ele>
      </trkpt>
      <trkpt lat="39.67896" lon="-0.42819">
        <ele>325.0</ele>
      </trkpt>
      <trkpt lat="39.67907" lon="-0.42804">
        <ele>323.0</ele>
      </trkpt>
      <trkpt lat="39.67931" lon="-0.42784">
        <ele>320.0</ele>
      </trkpt>
      <trkpt lat="39.67957" lon="-0.42768">
        <ele>317.0</ele>
      </trkpt>
      <trkpt lat="39.67975" lon="-0.4274">
        <ele>314.0</ele>
      </trkpt>
      <trkpt lat="39.67993" lon="-0.42711">
        <ele>311.0</ele>
      </trkpt>
      <trkpt lat="39.68018" lon="-0.42706">
        <ele>310.0</ele>
      </trkpt>
      <trkpt lat="39.68056" lon="-0.42692">
        <ele>310.0</ele>
      </trkpt>
      <trkpt lat="39.68077" lon="-0.42684">
        <ele>310.0</ele>
      </trkpt>
      <trkpt lat="39.6811" lon="-0.4268">
        <ele>311.0</ele>
      </trkpt>
      <trkpt lat="39.68131" lon="-0.42678">
        <ele>311.0</ele>
      </trkpt>
      <trkpt lat="39.68125" lon="-0.42658">
        <ele>311.0</ele>
      </trkpt>
      <trkpt lat="39.68021" lon="-0.42658">
        <ele>303.0</ele>
      </trkpt>
      <trkpt lat="39.67849" lon="-0.42611">
        <ele>290.0</ele>
      </trkpt>
      <trkpt lat="39.67762" lon="-0.42631">
        <ele>286.0</ele>
      </trkpt>
      <trkpt lat="39.67723" lon="-0.42643">
        <ele>285.0</ele>
      </trkpt>
      <trkpt lat="39.67683" lon="-0.42645">
        <ele>284.0</ele>
      </trkpt>
      <trkpt lat="39.67649" lon="-0.42638">
        <ele>283.0</ele>
      </trkpt>
      <trkpt lat="39.67489" lon="-0.42608">
        <ele>282.0</ele>
      </trkpt>
      <trkpt lat="39.67372" lon="-0.42592">
        <ele>279.0</ele>
      </trkpt>
      <trkpt lat="39.67305" lon="-0.42563">
        <ele>274.0</ele>
      </trkpt>
      <trkpt lat="39.67119" lon="-0.42461">
        <ele>265.0</ele>
      </trkpt>
      <trkpt lat="39.66997" lon="-0.42451">
        <ele>262.0</ele>
      </trkpt>
      <trkpt lat="39.66778" lon="-0.42603">
        <ele>256.0</ele>
      </trkpt>
      <trkpt lat="39.66735" lon="-0.42689">
        <ele>251.0</ele>
      </trkpt>
      <trkpt lat="39.66683" lon="-0.4269">
        <ele>250.0</ele>
      </trkpt>
      <trkpt lat="39.66567" lon="-0.4261">
        <ele>248.0</ele>
      </trkpt>
      <trkpt lat="39.66376" lon="-0.4263">
        <ele>244.0</ele>
      </trkpt>
      <trkpt lat="39.66198" lon="-0.4263">
        <ele>237.0</ele>
      </trkpt>
      <trkpt lat="39.66191" lon="-0.42564">
        <ele>235.0</ele>
      </trkpt>
      <trkpt lat="39.66171" lon="-0.42498">
        <ele>234.0</ele>
      </trkpt>
      <trkpt lat="39.66146" lon="-0.42488">
        <ele>233.0</ele>
      </trkpt>
      <trkpt lat="39.66092" lon="-0.42429">
        <ele>233.0</ele>
      </trkpt>
      <trkpt lat="39.66017" lon="-0.42352">
        <ele>231.0</ele>
      </trkpt>
      <trkpt lat="39.65914" lon="-0.42225">
        <ele>228.0</ele>
      </trkpt>
      <trkpt lat="39.65878" lon="-0.42221">
        <ele>226.0</ele>
      </trkpt>
      <trkpt lat="39.65862" lon="-0.42226">
        <ele>225.0</ele>
      </trkpt>
      <trkpt lat="39.65846" lon="-0.42238">
        <ele>224.0</ele>
      </trkpt>
      <trkpt lat="39.65751" lon="-0.42316">
        <ele>222.0</ele>
      </trkpt>
      <trkpt lat="39.65651" lon="-0.42401">
        <ele>217.0</ele>
      </trkpt>
      <trkpt lat="39.65619" lon="-0.42432">
        <ele>215.0</ele>
      </trkpt>
      <trkpt lat="39.6557" lon="-0.42514">
        <ele>213.0</ele>
      </trkpt>
      <trkpt lat="39.65554" lon="-0.42528">
        <ele>213.0</ele>
      </trkpt>
      <trkpt lat="39.65506" lon="-0.42572">
        <ele>213.0</ele>
      </trkpt>
      <trkpt lat="39.65469" lon="-0.42605">
        <ele>214.0</ele>
      </trkpt>
      <trkpt lat="39.65275" lon="-0.42772">
        <ele>211.0</ele>
      </trkpt>
      <trkpt lat="39.65147" lon="-0.42805">
        <ele>207.0</ele>
      </trkpt>
      <trkpt lat="39.64868" lon="-0.42855">
        <ele>199.0</ele>
      </trkpt>
      <trkpt lat="39.64627" lon="-0.42962">
        <ele>186.0</ele>
      </trkpt>
      <trkpt lat="39.64614" lon="-0.42978">
        <ele>182.0</ele>
      </trkpt>
      <trkpt lat="39.64601" lon="-0.42969">
        <ele>181.0</ele>
      </trkpt>
      <trkpt lat="39.64599" lon="-0.42954">
        <ele>181.0</ele>
      </trkpt>
      <trkpt lat="39.64548" lon="-0.4284">
        <ele>181.0</ele>
      </trkpt>
      <trkpt lat="39.64458" lon="-0.4269">
        <ele>178.0</ele>
      </trkpt>
      <trkpt lat="39.64277" lon="-0.42509">
        <ele>174.0</ele>
      </trkpt>
      <trkpt lat="39.63694" lon="-0.41975">
        <ele>156.0</ele>
      </trkpt>
      <trkpt lat="39.63509" lon="-0.41836">
        <ele>155.0</ele>
      </trkpt>
      <trkpt lat="39.63213" lon="-0.41659">
        <ele>152.0</ele>
      </trkpt>
      <trkpt lat="39.63167" lon="-0.41645">
        <ele>151.0</ele>
      </trkpt>
      <trkpt lat="39.6302" lon="-0.41571">
        <ele>148.0</ele>
      </trkpt>
      <trkpt lat="39.62951" lon="-0.41416">
        <ele>145.0</ele>
      </trkpt>
      <trkpt lat="39.62805" lon="-0.41218">
        <ele>142.0</ele>
      </trkpt>
      <trkpt lat="39.627" lon="-0.4113">
        <ele>140.0</ele>
      </trkpt>
      <trkpt lat="39.6261" lon="-0.41012">
        <ele>138.0</ele>
      </trkpt>
      <trkpt lat="39.62389" lon="-0.40835">
        <ele>138.0</ele>
      </trkpt>
      <trkpt lat="39.62314" lon="-0.40753">
        <ele>139.0</ele>
      </trkpt>
      <trkpt lat="39.62134" lon="-0.40657">
        <ele>134.0</ele>
      </trkpt>
      <trkpt lat="39.6194" lon="-0.40644">
        <ele>130.0</ele>
      </trkpt>
      <trkpt lat="39.6176" lon="-0.40604">
        <ele>125.0</ele>
      </trkpt>
      <trkpt lat="39.61476" lon="-0.40398">
        <ele>117.0</ele>
      </trkpt>
      <trkpt lat="39.61358" lon="-0.40279">
        <ele>112.0</ele>
      </trkpt>
      <trkpt lat="39.61201" lon="-0.40202">
        <ele>108.0</ele>
      </trkpt>
      <trkpt lat="39.61023" lon="-0.40065">
        <ele>103.0</ele>
      </trkpt>
      <trkpt lat="39.60928" lon="-0.4002">
        <ele>99.0</ele>
      </trkpt>
      <trkpt lat="39.60911" lon="-0.40017">
        <ele>97.0</ele>
      </trkpt>
      <trkpt lat="39.60841" lon="-0.40011">
        <ele>96.0</ele>
      </trkpt>
      <trkpt lat="39.6067" lon="-0.39968">
        <ele>94.0</ele>
      </trkpt>
      <trkpt lat="39.60128" lon="-0.3976">
        <ele>84.0</ele>
      </trkpt>
      <trkpt lat="39.601" lon="-0.39765">
        <ele>81.0</ele>
      </trkpt>
      <trkpt lat="39.60085" lon="-0.3976">
        <ele>80.0</ele>
      </trkpt>
      <trkpt lat="39.60068" lon="-0.39736">
        <ele>79.0</ele>
      </trkpt>
      <trkpt lat="39.60013" lon="-0.39702">
        <ele>78.0</ele>
      </trkpt>
      <trkpt lat="39.59501" lon="-0.39451">
        <ele>72.0</ele>
      </trkpt>
      <trkpt lat="39.59458" lon="-0.3945">
        <ele>71.0</ele>
      </trkpt>
      <trkpt lat="39.59442" lon="-0.3946">
        <ele>70.0</ele>
      </trkpt>
      <trkpt lat="39.59417" lon="-0.39451">
        <ele>70.0</ele>
      </trkpt>
      <trkpt lat="39.59374" lon="-0.39452">
        <ele>69.0</ele>
      </trkpt>
      <trkpt lat="39.59246" lon="-0.39444">
        <ele>66.0</ele>
      </trkpt>
      <trkpt lat="39.59002" lon="-0.39435">
        <ele>64.0</ele>
      </trkpt>
      <trkpt lat="39.58933" lon="-0.39436">
        <ele>64.0</ele>
      </trkpt>
      <trkpt lat="39.58687" lon="-0.39384">
        <ele>63.0</ele>
      </trkpt>
      <trkpt lat="39.58438" lon="-0.39337">
        <ele>57.0</ele>
      </trkpt>
      <trkpt lat="39.58273" lon="-0.39385">
        <ele>53.0</ele>
      </trkpt>
      <trkpt lat="39.58227" lon="-0.39394">
        <ele>52.0</ele>
      </trkpt>
      <trkpt lat="39.58136" lon="-0.39454">
        <ele>50.0</ele>
      </trkpt>
      <trkpt lat="39.58107" lon="-0.3945">
        <ele>50.0</ele>
      </trkpt>
      <trkpt lat="39.57791" lon="-0.3976">
        <ele>50.0</ele>
      </trkpt>
      <trkpt lat="39.57709" lon="-0.39813">
        <ele>51.0</ele>
      </trkpt>
      <trkpt lat="39.57438" lon="-0.39927">
        <ele>51.0</ele>
      </trkpt>
      <trkpt lat="39.57352" lon="-0.3995">
        <ele>51.0</ele>
      </trkpt>
      <trkpt lat="39.57312" lon="-0.39947">
        <ele>51.0</ele>
      </trkpt>
      <trkpt lat="39.57077" lon="-0.39904">
        <ele>51.0</ele>
      </trkpt>
      <trkpt lat="39.57035" lon="-0.39921">
        <ele>51.0</ele>
      </trkpt>
      <trkpt lat="39.56868" lon="-0.3991">
        <ele>52.0</ele>
      </trkpt>
      <trkpt lat="39.56771" lon="-0.39857">
        <ele>51.0</ele>
      </trkpt>
      <trkpt lat="39.56547" lon="-0.39702">
        <ele>47.0</ele>
      </trkpt>
      <trkpt lat="39.56488" lon="-0.39665">
        <ele>46.0</ele>
      </trkpt>
      <trkpt lat="39.56474" lon="-0.39647">
        <ele>45.0</ele>
      </trkpt>
      <trkpt lat="39.56374" lon="-0.39591">
        <ele>44.0</ele>
      </trkpt>
      <trkpt lat="39.56225" lon="-0.3948">
        <ele>43.0</ele>
      </trkpt>
      <trkpt lat="39.55933" lon="-0.39362">
        <ele>42.0</ele>
      </trkpt>
      <trkpt lat="39.55779" lon="-0.39375">
        <ele>42.0</ele>
      </trkpt>
      <trkpt lat="39.55467" lon="-0.39208">
        <ele>38.0</ele>
      </trkpt>
      <trkpt lat="39.55382" lon="-0.39162">
        <ele>36.0</ele>
      </trkpt>
      <trkpt lat="39.55361" lon="-0.39149">
        <ele>36.0</ele>
      </trkpt>
      <trkpt lat="39.55288" lon="-0.3911">
        <ele>35.0</ele>
      </trkpt>
      <trkpt lat="39.55087" lon="-0.39007">
        <ele>35.0</ele>
      </trkpt>
      <trkpt lat="39.5488" lon="-0.38895">
        <ele>34.0</ele>
      </trkpt>
      <trkpt lat="39.54852" lon="-0.38882">
        <ele>34.0</ele>
      </trkpt>
      <trkpt lat="39.54836" lon="-0.38861">
        <ele>34.0</ele>
      </trkpt>
      <trkpt lat="39.5478" lon="-0.38827">
        <ele>34.0</ele>
      </trkpt>
      <trkpt lat="39.54622" lon="-0.38795">
        <ele>33.0</ele>
      </trkpt>
      <trkpt lat="39.54561" lon="-0.38782">
        <ele>32.0</ele>
      </trkpt>
      <trkpt lat="39.54439" lon="-0.38758">
        <ele>32.0</ele>
      </trkpt>
      <trkpt lat="39.54301" lon="-0.38731">
        <ele>32.0</ele>
      </trkpt>
      <trkpt lat="39.54277" lon="-0.38739">
        <ele>32.0</ele>
      </trkpt>
      <trkpt lat="39.54268" lon="-0.38733">
        <ele>32.0</ele>
      </trkpt>
      <trkpt lat="39.54268" lon="-0.38719">
        <ele>32.0</ele>
      </trkpt>
      <trkpt lat="39.5428" lon="-0.38711">
        <ele>32.0</ele>
      </trkpt>
      <trkpt lat="39.54288" lon="-0.38703">
        <ele>32.0</ele>
      </trkpt>
      <trkpt lat="39.54299" lon="-0.38671">
        <ele>32.0</ele>
      </trkpt>
      <trkpt lat="39.54317" lon="-0.38597">
        <ele>32.0</ele>
      </trkpt>
      <trkpt lat="39.54315" lon="-0.3857">
        <ele>32.0</ele>
      </trkpt>
      <trkpt lat="39.54291" lon="-0.38448">
        <ele>32.0</ele>
      </trkpt>
      <trkpt lat="39.54263" lon="-0.38371">
        <ele>31.0</ele>
      </trkpt>
      <trkpt lat="39.54256" lon="-0.38352">
        <ele>31.0</ele>
      </trkpt>
      <trkpt lat="39.54263" lon="-0.38339">
        <ele>31.0</ele>
      </trkpt>
      <trkpt lat="39.54282" lon="-0.38308">
        <ele>31.0</ele>
      </trkpt>
      <trkpt lat="39.54299" lon="-0.3823">
        <ele>31.0</ele>
      </trkpt>
      <trkpt lat="39.54312" lon="-0.38152">
        <ele>31.0</ele>
      </trkpt>
      <trkpt lat="39.54315" lon="-0.38086">
        <ele>30.0</ele>
      </trkpt>
      <trkpt lat="39.54301" lon="-0.37949">
        <ele>27.0</ele>
      </trkpt>
      <trkpt lat="39.54286" lon="-0.37795">
        <ele>25.0</ele>
      </trkpt>
      <trkpt lat="39.54263" lon="-0.3757">
        <ele>25.0</ele>
      </trkpt>
      <trkpt lat="39.5424" lon="-0.37345">
        <ele>24.0</ele>
      </trkpt>
      <trkpt lat="39.54195" lon="-0.37247">
        <ele>24.0</ele>
      </trkpt>
      <trkpt lat="39.54181" lon="-0.37237">
        <ele>24.0</ele>
      </trkpt>
      <trkpt lat="39.54171" lon="-0.37228">
        <ele>25.0</ele>
      </trkpt>
      <trkpt lat="39.54101" lon="-0.37212">
        <ele>26.0</ele>
      </trkpt>
      <trkpt lat="39.54022" lon="-0.37207">
        <ele>27.0</ele>
      </trkpt>
      <trkpt lat="39.54001" lon="-0.37206">
        <ele>27.0</ele>
      </trkpt>
      <trkpt lat="39.5389" lon="-0.372">
        <ele>27.0</ele>
      </trkpt>
      <trkpt lat="39.53816" lon="-0.37209">
        <ele>27.0</ele>
      </trkpt>
      <trkpt lat="39.53748" lon="-0.37233">
        <ele>28.0</ele>
      </trkpt>
      <trkpt lat="39.53715" lon="-0.37246">
        <ele>29.0</ele>
      </trkpt>
      <trkpt lat="39.53699" lon="-0.37237">
        <ele>29.0</ele>
      </trkpt>
      <trkpt lat="39.53646" lon="-0.37179">
        <ele>29.0</ele>
      </trkpt>
      <trkpt lat="39.53602" lon="-0.37134">
        <ele>28.0</ele>
      </trkpt>
      <trkpt lat="39.53569" lon="-0.371">
        <ele>28.0</ele>
      </trkpt>
      <trkpt lat="39.53543" lon="-0.37061">
        <ele>27.0</ele>
      </trkpt>
      <trkpt lat="39.53471" lon="-0.36947">
        <ele>25.0</ele>
      </trkpt>
      <trkpt lat="39.53436" lon="-0.36895">
        <ele>23.0</ele>
      </trkpt>
      <trkpt lat="39.53419" lon="-0.3687">
        <ele>22.0</ele>
      </trkpt>
      <trkpt lat="39.53389" lon="-0.3686">
        <ele>21.0</ele>
      </trkpt>
      <trkpt lat="39.5338" lon="-0.36849">
        <ele>21.0</ele>
      </trkpt>
      <trkpt lat="39.53376" lon="-0.36808">
        <ele>21.0</ele>
      </trkpt>
      <trkpt lat="39.53311" lon="-0.36715">
        <ele>21.0</ele>
      </trkpt>
      <trkpt lat="39.53226" lon="-0.36619">
        <ele>20.0</ele>
      </trkpt>
      <trkpt lat="39.53076" lon="-0.36526">
        <ele>19.0</ele>
      </trkpt>
      <trkpt lat="39.52993" lon="-0.3647">
        <ele>18.0</ele>
      </trkpt>
      <trkpt lat="39.5293" lon="-0.36397">
        <ele>18.0</ele>
      </trkpt>
      <trkpt lat="39.52873" lon="-0.36279">
        <ele>17.0</ele>
      </trkpt>
      <trkpt lat="39.5265" lon="-0.35774">
        <ele>16.0</ele>
      </trkpt>
      <trkpt lat="39.52593" lon="-0.35712">
        <ele>15.0</ele>
      </trkpt>
      <trkpt lat="39.52538" lon="-0.35686">
        <ele>13.0</ele>
      </trkpt>
      <trkpt lat="39.52431" lon="-0.35648">
        <ele>12.0</ele>
      </trkpt>
      <trkpt lat="39.52413" lon="-0.35643">
        <ele>12.0</ele>
      </trkpt>
      <trkpt lat="39.52398" lon="-0.35634">
        <ele>12.0</ele>
      </trkpt>
      <trkpt lat="39.52392" lon="-0.35619">
        <ele>13.0</ele>
      </trkpt>
      <trkpt lat="39.52398" lon="-0.35594">
        <ele>13.0</ele>
      </trkpt>
      <trkpt lat="39.52405" lon="-0.35575">
        <ele>13.0</ele>
      </trkpt>
      <trkpt lat="39.52406" lon="-0.35526">
        <ele>13.0</ele>
      </trkpt>
      <trkpt lat="39.52374" lon="-0.35434">
        <ele>13.0</ele>
      </trkpt>
      <trkpt lat="39.52351" lon="-0.35376">
        <ele>12.0</ele>
      </trkpt>
      <trkpt lat="39.52345" lon="-0.35349">
        <ele>11.0</ele>
      </trkpt>
      <trkpt lat="39.52357" lon="-0.35334">
        <ele>11.0</ele>
      </trkpt>
      <trkpt lat="39.52311" lon="-0.3519">
        <ele>10.0</ele>
      </trkpt>
      <trkpt lat="39.52256" lon="-0.35045">
        <ele>10.0</ele>
      </trkpt>
      <trkpt lat="39.52237" lon="-0.3497">
        <ele>10.0</ele>
      </trkpt>
      <trkpt lat="39.52229" lon="-0.34952">
        <ele>10.0</ele>
      </trkpt>
      <trkpt lat="39.52228" lon="-0.3491">
        <ele>10.0</ele>
      </trkpt>
      <trkpt lat="39.52189" lon="-0.34778">
        <ele>10.0</ele>
      </trkpt>
      <trkpt lat="39.52164" lon="-0.34702">
        <ele>10.0</ele>
      </trkpt>
      <trkpt lat="39.52131" lon="-0.34609">
        <ele>10.0</ele>
      </trkpt>
      <trkpt lat="39.52081" lon="-0.3449">
        <ele>10.0</ele>
      </trkpt>
      <trkpt lat="39.52016" lon="-0.34355">
        <ele>9.0</ele>
      </trkpt>
      <trkpt lat="39.51993" lon="-0.34267">
        <ele>8.0</ele>
      </trkpt>
      <trkpt lat="39.51948" lon="-0.3407">
        <ele>7.0</ele>
      </trkpt>
      <trkpt lat="39.51896" lon="-0.33909">
        <ele>8.0</ele>
      </trkpt>
      <trkpt lat="39.51878" lon="-0.33879">
        <ele>8.0</ele>
      </trkpt>
      <trkpt lat="39.51853" lon="-0.33891">
        <ele>8.0</ele>
      </trkpt>
      <trkpt lat="39.51808" lon="-0.33792">
        <ele>7.0</ele>
      </trkpt>
      <trkpt lat="39.51686" lon="-0.33513">
        <ele>4.0</ele>
      </trkpt>
      <trkpt lat="39.51632" lon="-0.33331">
        <ele>3.0</ele>
      </trkpt>
      <trkpt lat="39.51555" lon="-0.33356">
        <ele>3.0</ele>
      </trkpt>
      <trkpt lat="39.51485" lon="-0.33408">
        <ele>3.0</ele>
      </trkpt>
      <trkpt lat="39.5139" lon="-0.33462">
        <ele>3.0</ele>
      </trkpt>
      <trkpt lat="39.51338" lon="-0.33512">
        <ele>3.0</ele>
      </trkpt>
      <trkpt lat="39.51215" lon="-0.33592">
        <ele>3.0</ele>
      </trkpt>
      <trkpt lat="39.51181" lon="-0.33646">
        <ele>4.0</ele>
      </trkpt>
      <trkpt lat="39.5119" lon="-0.3369">
        <ele>5.0</ele>
      </trkpt>
      <trkpt lat="39.51216" lon="-0.33731">
        <ele>6.0</ele>
      </trkpt>
      <trkpt lat="39.51221" lon="-0.33751">
        <ele>6.0</ele>
      </trkpt>
      <trkpt lat="39.51216" lon="-0.33768">
        <ele>6.0</ele>
      </trkpt>
      <trkpt lat="39.51203" lon="-0.3378">
        <ele>6.0</ele>
      </trkpt>
      <trkpt lat="39.51083" lon="-0.33853">
        <ele>6.0</ele>
      </trkpt>
      <trkpt lat="39.5088" lon="-0.33957">
        <ele>6.0</ele>
      </trkpt>
      <trkpt lat="39.50847" lon="-0.33995">
        <ele>6.0</ele>
      </trkpt>
      <trkpt lat="39.50861" lon="-0.34141">
        <ele>6.0</ele>
      </trkpt>
      <trkpt lat="39.50825" lon="-0.34229">
        <ele>5.0</ele>
      </trkpt>
      <trkpt lat="39.50746" lon="-0.34324">
        <ele>5.0</ele>
      </trkpt>
      <trkpt lat="39.50702" lon="-0.34349">
        <ele>5.0</ele>
      </trkpt>
      <trkpt lat="39.50533" lon="-0.34444">
        <ele>4.0</ele>
      </trkpt>
      <trkpt lat="39.5044" lon="-0.345">
        <ele>6.0</ele>
      </trkpt>
      <trkpt lat="39.50308" lon="-0.34588">
        <ele>9.0</ele>
      </trkpt>
      <trkpt lat="39.50152" lon="-0.34601">
        <ele>8.0</ele>
      </trkpt>
      <trkpt lat="39.50124" lon="-0.3462">
        <ele>7.0</ele>
      </trkpt>
      <trkpt lat="39.50111" lon="-0.34606">
        <ele>6.0</ele>
      </trkpt>
      <trkpt lat="39.50037" lon="-0.34319">
        <ele>6.0</ele>
      </trkpt>
      <trkpt lat="39.499" lon="-0.34041">
        <ele>3.0</ele>
      </trkpt>
      <trkpt lat="39.49863" lon="-0.33839">
        <ele>2.0</ele>
      </trkpt>
      <trkpt lat="39.49813" lon="-0.33581">
        <ele>2.0</ele>
      </trkpt>
      <trkpt lat="39.49773" lon="-0.33457">
        <ele>2.0</ele>
      </trkpt>
      <trkpt lat="39.49718" lon="-0.33308">
        <ele>2.0</ele>
      </trkpt>
      <trkpt lat="39.49654" lon="-0.33112">
        <ele>1.0</ele>
      </trkpt>
      <trkpt lat="39.49649" lon="-0.33078">
        <ele>1.0</ele>
      </trkpt>
      <trkpt lat="39.49632" lon="-0.3297">
        <ele>1.0</ele>
      </trkpt>
      <trkpt lat="39.49592" lon="-0.32874">
        <ele>1.0</ele>
      </trkpt>
      <trkpt lat="39.49577" lon="-0.32849">
        <ele>1.0</ele>
      </trkpt>
      <trkpt lat="39.49517" lon="-0.32753">
        <ele>1.0</ele>
      </trkpt>
      <trkpt lat="39.49491" lon="-0.32619">
        <ele>1.0</ele>
      </trkpt>
      <trkpt lat="39.4945" lon="-0.32554">
        <ele>1.0</ele>
      </trkpt>
      <trkpt lat="39.49398" lon="-0.32545">
        <ele>1.0</ele>
      </trkpt>
      <trkpt lat="39.49353" lon="-0.32559">
        <ele>2.0</ele>
      </trkpt>
      <trkpt lat="39.49341" lon="-0.32617">
        <ele>2.0</ele>
      </trkpt>
      <trkpt lat="39.49355" lon="-0.3265">
        <ele>2.0</ele>
      </trkpt>
      <trkpt lat="39.49347" lon="-0.32667">
        <ele>2.0</ele>
      </trkpt>
      <trkpt lat="39.49335" lon="-0.32664">
        <ele>2.0</ele>
      </trkpt>
      <trkpt lat="39.49322" lon="-0.32655">
        <ele>2.0</ele>
      </trkpt>
      <trkpt lat="39.49233" lon="-0.32671">
        <ele>2.0</ele>
      </trkpt>
      <trkpt lat="39.49119" lon="-0.32688">
        <ele>2.0</ele>
      </trkpt>
      <trkpt lat="39.49023" lon="-0.32705">
        <ele>2.0</ele>
      </trkpt>
      <trkpt lat="39.48895" lon="-0.32722">
        <ele>3.0</ele>
      </trkpt>
      <trkpt lat="39.48808" lon="-0.32742">
        <ele>4.0</ele>
      </trkpt>
      <trkpt lat="39.4859" lon="-0.32798">
        <ele>4.0</ele>
      </trkpt>
      <trkpt lat="39.48508" lon="-0.32823">
        <ele>4.0</ele>
      </trkpt>
      <trkpt lat="39.48478" lon="-0.32841">
        <ele>4.0</ele>
      </trkpt>
      <trkpt lat="39.48469" lon="-0.3286">
        <ele>4.0</ele>
      </trkpt>
      <trkpt lat="39.48454" lon="-0.32856">
        <ele>4.0</ele>
      </trkpt>
      <trkpt lat="39.48442" lon="-0.3282">
        <ele>4.0</ele>
      </trkpt>
      <trkpt lat="39.48425" lon="-0.32771">
        <ele>5.0</ele>
      </trkpt>
      <trkpt lat="39.48419" lon="-0.32553">
        <ele>5.0</ele>
      </trkpt>
      <trkpt lat="39.48347" lon="-0.3255">
        <ele>3.0</ele>
      </trkpt>
      <trkpt lat="39.48343" lon="-0.32539">
        <ele>3.0</ele>
      </trkpt>
      <trkpt lat="39.48342" lon="-0.32508">
        <ele>2.0</ele>
      </trkpt>
      <trkpt lat="39.48319" lon="-0.32493">
        <ele>1.0</ele>
      </trkpt>
      <trkpt lat="39.48289" lon="-0.32494">
        <ele>1.0</ele>
      </trkpt>
      <trkpt lat="39.48024" lon="-0.32483">
      </trkpt>
      <trkpt lat="39.47926" lon="-0.3248">
      </trkpt>
      <trkpt lat="39.47699" lon="-0.32477">
      </trkpt>
      <trkpt lat="39.47474" lon="-0.32478">
        <ele>1.0</ele>
      </trkpt>
      <trkpt lat="39.47446" lon="-0.32478">
        <ele>2.0</ele>
      </trkpt>
      <trkpt lat="39.47329" lon="-0.32475">
        <ele>2.0</ele>
      </trkpt>
      <trkpt lat="39.47265" lon="-0.32457">
        <ele>2.0</ele>
      </trkpt>
      <trkpt lat="39.47182" lon="-0.32459">
        <ele>1.0</ele>
      </trkpt>
      <trkpt lat="39.47137" lon="-0.32475">
        <ele>1.0</ele>
      </trkpt>
      <trkpt lat="39.47109" lon="-0.3248">
      </trkpt>
      <trkpt lat="39.47036" lon="-0.3248">
      </trkpt>
      <trkpt lat="39.46939" lon="-0.3248">
        <ele>-1.0</ele>
      </trkpt>
      <trkpt lat="39.46921" lon="-0.32481">
        <ele>-1.0</ele>
      </trkpt>
      <trkpt lat="39.46828" lon="-0.32481">
        <ele>-1.0</ele>
      </trkpt>
      <trkpt lat="39.46789" lon="-0.32489">
        <ele>-1.0</ele>
      </trkpt>
      <trkpt lat="39.46736" lon="-0.325">
        <ele>-1.0</ele>
      </trkpt>
      <trkpt lat="39.4665" lon="-0.32501">
      </trkpt>
      <trkpt lat="39.46558" lon="-0.3249">
        <ele>1.0</ele>
      </trkpt>
      <trkpt lat="39.46483" lon="-0.32487">
        <ele>1.0</ele>
      </trkpt>
      <trkpt lat="39.46335" lon="-0.32499">
        <ele>1.0</ele>
      </trkpt>
      <trkpt lat="39.46324" lon="-0.32509">
        <ele>1.0</ele>
      </trkpt>
      <trkpt lat="39.46312" lon="-0.32504">
        <ele>1.0</ele>
      </trkpt>
      <trkpt lat="39.4631" lon="-0.32484">
        <ele>1.0</ele>
      </trkpt>
      <trkpt lat="39.46308" lon="-0.32423">
        <ele>1.0</ele>
      </trkpt>
      <trkpt lat="39.46293" lon="-0.32409">
        <ele>1.0</ele>
      </trkpt>
      <trkpt lat="39.46263" lon="-0.32431">
        <ele>1.0</ele>
      </trkpt>
      <trkpt lat="39.4622" lon="-0.32475">
        <ele>1.0</ele>
      </trkpt>
      <trkpt lat="39.46218" lon="-0.32499">
        <ele>1.0</ele>
      </trkpt>
      <trkpt lat="39.46225" lon="-0.32602">
        <ele>1.0</ele>
      </trkpt>
      <trkpt lat="39.46242" lon="-0.32854">
      </trkpt>
      <trkpt lat="39.46242" lon="-0.32913">
      </trkpt>
      <trkpt lat="39.46228" lon="-0.32982">
      </trkpt>
      <trkpt lat="39.46209" lon="-0.33031">
      </trkpt>
      <trkpt lat="39.46152" lon="-0.33106">
      </trkpt>
      <trkpt lat="39.46046" lon="-0.33217">
        <ele>1.0</ele>
      </trkpt>
      <trkpt lat="39.46025" lon="-0.33228">
        <ele>3.0</ele>
      </trkpt>
    </trkseg>
  </trk>
</gpx>