<?xml version="1.0" encoding="UTF-8"?>
<gpx xmlns="http://www.topografix.com/GPX/1/0" xmlns:xsi="http://www.w3.org/2001/XMLSchema-instance" xsi:schemaLocation="http://www.topografix.com/GPX/1/0 http://www.topografix.com/GPX/1/0/gpx.xsd" version="1.0" creator="GPSBabel - https://www.gpsbabel.org">
  <time>2026-03-23T07:59:18.664000Z</time>
  <bounds minlat="42.74465" maxlat="43.02488" minlon="-2.06402" maxlon="-1.71957" />
  <trk>
    <trkseg>
      <trkpt lat="42.81825" lon="-1.71957">
        <ele>396.0</ele>
      </trkpt>
      <trkpt lat="42.81825" lon="-1.72125">
        <ele>396.0</ele>
      </trkpt>
      <trkpt lat="42.8187" lon="-1.72489">
        <ele>396.0</ele>
      </trkpt>
      <trkpt lat="42.81886" lon="-1.73876">
        <ele>394.0</ele>
      </trkpt>
      <trkpt lat="42.81862" lon="-1.74094">
        <ele>395.0</ele>
      </trkpt>
      <trkpt lat="42.81795" lon="-1.74369">
        <ele>398.0</ele>
      </trkpt>
      <trkpt lat="42.81746" lon="-1.74636">
        <ele>400.0</ele>
      </trkpt>
      <trkpt lat="42.81692" lon="-1.74762">
        <ele>398.0</ele>
      </trkpt>
      <trkpt lat="42.8158" lon="-1.74764">
        <ele>394.0</ele>
      </trkpt>
      <trkpt lat="42.81564" lon="-1.74775">
        <ele>393.0</ele>
      </trkpt>
      <trkpt lat="42.81535" lon="-1.74847">
        <ele>392.0</ele>
      </trkpt>
      <trkpt lat="42.81391" lon="-1.7532">
        <ele>388.0</ele>
      </trkpt>
      <trkpt lat="42.81223" lon="-1.7611">
        <ele>387.0</ele>
      </trkpt>
      <trkpt lat="42.81096" lon="-1.7642">
        <ele>385.0</ele>
      </trkpt>
      <trkpt lat="42.80861" lon="-1.76787">
        <ele>385.0</ele>
      </trkpt>
      <trkpt lat="42.80797" lon="-1.76935">
        <ele>387.0</ele>
      </trkpt>
      <trkpt lat="42.806" lon="-1.77293">
        <ele>390.0</ele>
      </trkpt>
      <trkpt lat="42.80393" lon="-1.77535">
        <ele>393.0</ele>
      </trkpt>
      <trkpt lat="42.80387" lon="-1.77595">
        <ele>393.0</ele>
      </trkpt>
      <trkpt lat="42.80401" lon="-1.77639">
        <ele>392.0</ele>
      </trkpt>
      <trkpt lat="42.80595" lon="-1.77727">
        <ele>388.0</ele>
      </trkpt>
      <trkpt lat="42.80602" lon="-1.77779">
        <ele>388.0</ele>
      </trkpt>
      <trkpt lat="42.80574" lon="-1.7793">
        <ele>390.0</ele>
      </trkpt>
      <trkpt lat="42.80554" lon="-1.77951">
        <ele>391.0</ele>
      </trkpt>
      <trkpt lat="42.80459" lon="-1.77958">
        <ele>394.0</ele>
      </trkpt>
      <trkpt lat="42.80199" lon="-1.77885">
        <ele>396.0</ele>
      </trkpt>
      <trkpt lat="42.79831" lon="-1.78072">
        <ele>423.0</ele>
      </trkpt>
      <trkpt lat="42.79792" lon="-1.78142">
        <ele>427.0</ele>
      </trkpt>
      <trkpt lat="42.79438" lon="-1.79085">
        <ele>414.0</ele>
      </trkpt>
      <trkpt lat="42.79412" lon="-1.7945">
        <ele>409.0</ele>
      </trkpt>
      <trkpt lat="42.79418" lon="-1.79762">
        <ele>410.0</ele>
      </trkpt>
      <trkpt lat="42.79437" lon="-1.79859">
        <ele>415.0</ele>
      </trkpt>
      <trkpt lat="42.79496" lon="-1.79998">
        <ele>423.0</ele>
      </trkpt>
      <trkpt lat="42.79539" lon="-1.8022">
        <ele>435.0</ele>
      </trkpt>
      <trkpt lat="42.79527" lon="-1.80409">
        <ele>448.0</ele>
      </trkpt>
      <trkpt lat="42.79565" lon="-1.80709">
        <ele>464.0</ele>
      </trkpt>
      <trkpt lat="42.7958" lon="-1.80749">
        <ele>468.0</ele>
      </trkpt>
      <trkpt lat="42.79637" lon="-1.80788">
        <ele>476.0</ele>
      </trkpt>
      <trkpt lat="42.79662" lon="-1.80867">
        <ele>485.0</ele>
      </trkpt>
      <trkpt lat="42.79658" lon="-1.80903">
        <ele>490.0</ele>
      </trkpt>
      <trkpt lat="42.79623" lon="-1.80939">
        <ele>493.0</ele>
      </trkpt>
      <trkpt lat="42.7961" lon="-1.80985">
        <ele>495.0</ele>
      </trkpt>
      <trkpt lat="42.79602" lon="-1.81203">
        <ele>502.0</ele>
      </trkpt>
      <trkpt lat="42.79624" lon="-1.81305">
        <ele>510.0</ele>
      </trkpt>
      <trkpt lat="42.79594" lon="-1.81408">
        <ele>520.0</ele>
      </trkpt>
      <trkpt lat="42.7955" lon="-1.81918">
        <ele>547.0</ele>
      </trkpt>
      <trkpt lat="42.79655" lon="-1.82331">
        <ele>566.0</ele>
      </trkpt>
      <trkpt lat="42.79675" lon="-1.82458">
        <ele>575.0</ele>
      </trkpt>
      <trkpt lat="42.79655" lon="-1.82791">
        <ele>594.0</ele>
      </trkpt>
      <trkpt lat="42.79692" lon="-1.8315">
        <ele>618.0</ele>
      </trkpt>
      <trkpt lat="42.79692" lon="-1.83344">
        <ele>629.0</ele>
      </trkpt>
      <trkpt lat="42.79681" lon="-1.83425">
        <ele>634.0</ele>
      </trkpt>
      <trkpt lat="42.79567" lon="-1.83711">
        <ele>652.0</ele>
      </trkpt>
      <trkpt lat="42.79507" lon="-1.84054">
        <ele>673.0</ele>
      </trkpt>
      <trkpt lat="42.79465" lon="-1.84197">
        <ele>681.0</ele>
      </trkpt>
      <trkpt lat="42.7947" lon="-1.84214">
        <ele>683.0</ele>
      </trkpt>
      <trkpt lat="42.79651" lon="-1.83772">
        <ele>704.0</ele>
      </trkpt>
      <trkpt lat="42.7979" lon="-1.83518">
        <ele>725.0</ele>
      </trkpt>
      <trkpt lat="42.79801" lon="-1.83525">
        <ele>728.0</ele>
      </trkpt>
      <trkpt lat="42.79762" lon="-1.836">
        <ele>731.0</ele>
      </trkpt>
      <trkpt lat="42.79711" lon="-1.83792">
        <ele>734.0</ele>
      </trkpt>
      <trkpt lat="42.79664" lon="-1.83996">
        <ele>742.0</ele>
      </trkpt>
      <trkpt lat="42.79647" lon="-1.8415">
        <ele>751.0</ele>
      </trkpt>
      <trkpt lat="42.79618" lon="-1.8425">
        <ele>760.0</ele>
      </trkpt>
      <trkpt lat="42.79606" lon="-1.84352">
        <ele>767.0</ele>
      </trkpt>
      <trkpt lat="42.79555" lon="-1.84436">
        <ele>771.0</ele>
      </trkpt>
      <trkpt lat="42.79525" lon="-1.84456">
        <ele>774.0</ele>
      </trkpt>
      <trkpt lat="42.79371" lon="-1.84379">
        <ele>782.0</ele>
      </trkpt>
      <trkpt lat="42.7934" lon="-1.84377">
        <ele>785.0</ele>
      </trkpt>
      <trkpt lat="42.79245" lon="-1.8442">
        <ele>792.0</ele>
      </trkpt>
      <trkpt lat="42.79046" lon="-1.84348">
        <ele>801.0</ele>
      </trkpt>
      <trkpt lat="42.78929" lon="-1.84283">
        <ele>808.0</ele>
      </trkpt>
      <trkpt lat="42.7888" lon="-1.84279">
        <ele>810.0</ele>
      </trkpt>
      <trkpt lat="42.78837" lon="-1.84297">
        <ele>815.0</ele>
      </trkpt>
      <trkpt lat="42.78655" lon="-1.84279">
        <ele>830.0</ele>
      </trkpt>
      <trkpt lat="42.78598" lon="-1.84329">
        <ele>837.0</ele>
      </trkpt>
      <trkpt lat="42.78587" lon="-1.84371">
        <ele>840.0</ele>
      </trkpt>
      <trkpt lat="42.78596" lon="-1.84424">
        <ele>843.0</ele>
      </trkpt>
      <trkpt lat="42.78794" lon="-1.84679">
        <ele>831.0</ele>
      </trkpt>
      <trkpt lat="42.78849" lon="-1.84718">
        <ele>822.0</ele>
      </trkpt>
      <trkpt lat="42.78836" lon="-1.84734">
        <ele>820.0</ele>
      </trkpt>
      <trkpt lat="42.78718" lon="-1.84707">
        <ele>815.0</ele>
      </trkpt>
      <trkpt lat="42.78693" lon="-1.84717">
        <ele>812.0</ele>
      </trkpt>
      <trkpt lat="42.78685" lon="-1.84754">
        <ele>810.0</ele>
      </trkpt>
      <trkpt lat="42.78714" lon="-1.84826">
        <ele>806.0</ele>
      </trkpt>
      <trkpt lat="42.78701" lon="-1.84903">
        <ele>804.0</ele>
      </trkpt>
      <trkpt lat="42.78658" lon="-1.84993">
        <ele>800.0</ele>
      </trkpt>
      <trkpt lat="42.78597" lon="-1.85077">
        <ele>795.0</ele>
      </trkpt>
      <trkpt lat="42.78611" lon="-1.85102">
        <ele>793.0</ele>
      </trkpt>
      <trkpt lat="42.78755" lon="-1.85201">
        <ele>783.0</ele>
      </trkpt>
      <trkpt lat="42.78785" lon="-1.85246">
        <ele>779.0</ele>
      </trkpt>
      <trkpt lat="42.78792" lon="-1.85292">
        <ele>776.0</ele>
      </trkpt>
      <trkpt lat="42.78709" lon="-1.85537">
        <ele>768.0</ele>
      </trkpt>
      <trkpt lat="42.78492" lon="-1.85905">
        <ele>744.0</ele>
      </trkpt>
      <trkpt lat="42.78483" lon="-1.8601">
        <ele>739.0</ele>
      </trkpt>
      <trkpt lat="42.78453" lon="-1.86092">
        <ele>735.0</ele>
      </trkpt>
      <trkpt lat="42.78253" lon="-1.86228">
        <ele>727.0</ele>
      </trkpt>
      <trkpt lat="42.78209" lon="-1.86473">
        <ele>724.0</ele>
      </trkpt>
      <trkpt lat="42.78218" lon="-1.86609">
        <ele>721.0</ele>
      </trkpt>
      <trkpt lat="42.78209" lon="-1.86677">
        <ele>719.0</ele>
      </trkpt>
      <trkpt lat="42.78183" lon="-1.86716">
        <ele>717.0</ele>
      </trkpt>
      <trkpt lat="42.78114" lon="-1.8676">
        <ele>712.0</ele>
      </trkpt>
      <trkpt lat="42.78102" lon="-1.86788">
        <ele>709.0</ele>
      </trkpt>
      <trkpt lat="42.78136" lon="-1.86863">
        <ele>704.0</ele>
      </trkpt>
      <trkpt lat="42.78142" lon="-1.86954">
        <ele>699.0</ele>
      </trkpt>
      <trkpt lat="42.78235" lon="-1.87046">
        <ele>693.0</ele>
      </trkpt>
      <trkpt lat="42.78263" lon="-1.87095">
        <ele>689.0</ele>
      </trkpt>
      <trkpt lat="42.78271" lon="-1.87177">
        <ele>682.0</ele>
      </trkpt>
      <trkpt lat="42.78309" lon="-1.87219">
        <ele>676.0</ele>
      </trkpt>
      <trkpt lat="42.78305" lon="-1.87236">
        <ele>673.0</ele>
      </trkpt>
      <trkpt lat="42.78293" lon="-1.87235">
        <ele>672.0</ele>
      </trkpt>
      <trkpt lat="42.78189" lon="-1.8712">
        <ele>665.0</ele>
      </trkpt>
      <trkpt lat="42.78187" lon="-1.87143">
        <ele>664.0</ele>
      </trkpt>
      <trkpt lat="42.78244" lon="-1.87316">
        <ele>659.0</ele>
      </trkpt>
      <trkpt lat="42.78361" lon="-1.87457">
        <ele>649.0</ele>
      </trkpt>
      <trkpt lat="42.78366" lon="-1.87494">
        <ele>647.0</ele>
      </trkpt>
      <trkpt lat="42.78189" lon="-1.87902">
        <ele>641.0</ele>
      </trkpt>
      <trkpt lat="42.78047" lon="-1.87997">
        <ele>643.0</ele>
      </trkpt>
      <trkpt lat="42.77922" lon="-1.88141">
        <ele>646.0</ele>
      </trkpt>
      <trkpt lat="42.77848" lon="-1.88254">
        <ele>650.0</ele>
      </trkpt>
      <trkpt lat="42.77779" lon="-1.88271">
        <ele>652.0</ele>
      </trkpt>
      <trkpt lat="42.77721" lon="-1.88337">
        <ele>652.0</ele>
      </trkpt>
      <trkpt lat="42.77656" lon="-1.88337">
        <ele>653.0</ele>
      </trkpt>
      <trkpt lat="42.77633" lon="-1.88352">
        <ele>654.0</ele>
      </trkpt>
      <trkpt lat="42.77591" lon="-1.88445">
        <ele>657.0</ele>
      </trkpt>
      <trkpt lat="42.77516" lon="-1.88529">
        <ele>660.0</ele>
      </trkpt>
      <trkpt lat="42.77512" lon="-1.88587">
        <ele>662.0</ele>
      </trkpt>
      <trkpt lat="42.77532" lon="-1.88763">
        <ele>665.0</ele>
      </trkpt>
      <trkpt lat="42.77393" lon="-1.88935">
        <ele>659.0</ele>
      </trkpt>
      <trkpt lat="42.77434" lon="-1.89176">
        <ele>651.0</ele>
      </trkpt>
      <trkpt lat="42.77427" lon="-1.89235">
        <ele>647.0</ele>
      </trkpt>
      <trkpt lat="42.77407" lon="-1.89252">
        <ele>646.0</ele>
      </trkpt>
      <trkpt lat="42.77229" lon="-1.89283">
        <ele>640.0</ele>
      </trkpt>
      <trkpt lat="42.77179" lon="-1.89309">
        <ele>637.0</ele>
      </trkpt>
      <trkpt lat="42.77115" lon="-1.8939">
        <ele>634.0</ele>
      </trkpt>
      <trkpt lat="42.77087" lon="-1.89449">
        <ele>631.0</ele>
      </trkpt>
      <trkpt lat="42.7702" lon="-1.89478">
        <ele>630.0</ele>
      </trkpt>
      <trkpt lat="42.77005" lon="-1.89499">
        <ele>629.0</ele>
      </trkpt>
      <trkpt lat="42.77002" lon="-1.89538">
        <ele>628.0</ele>
      </trkpt>
      <trkpt lat="42.77022" lon="-1.89641">
        <ele>625.0</ele>
      </trkpt>
      <trkpt lat="42.77016" lon="-1.89668">
        <ele>624.0</ele>
      </trkpt>
      <trkpt lat="42.76884" lon="-1.89745">
        <ele>617.0</ele>
      </trkpt>
      <trkpt lat="42.76811" lon="-1.89884">
        <ele>610.0</ele>
      </trkpt>
      <trkpt lat="42.76742" lon="-1.89944">
        <ele>605.0</ele>
      </trkpt>
      <trkpt lat="42.76731" lon="-1.90115">
        <ele>600.0</ele>
      </trkpt>
      <trkpt lat="42.76651" lon="-1.90162">
        <ele>598.0</ele>
      </trkpt>
      <trkpt lat="42.76595" lon="-1.90246">
        <ele>596.0</ele>
      </trkpt>
      <trkpt lat="42.76559" lon="-1.9035">
        <ele>594.0</ele>
      </trkpt>
      <trkpt lat="42.76546" lon="-1.90431">
        <ele>593.0</ele>
      </trkpt>
      <trkpt lat="42.76548" lon="-1.90508">
        <ele>591.0</ele>
      </trkpt>
      <trkpt lat="42.76571" lon="-1.9054">
        <ele>589.0</ele>
      </trkpt>
      <trkpt lat="42.76629" lon="-1.90573">
        <ele>586.0</ele>
      </trkpt>
      <trkpt lat="42.76649" lon="-1.90639">
        <ele>583.0</ele>
      </trkpt>
      <trkpt lat="42.76421" lon="-1.91068">
        <ele>573.0</ele>
      </trkpt>
      <trkpt lat="42.76439" lon="-1.91282">
        <ele>568.0</ele>
      </trkpt>
      <trkpt lat="42.76485" lon="-1.91386">
        <ele>557.0</ele>
      </trkpt>
      <trkpt lat="42.76408" lon="-1.91585">
        <ele>544.0</ele>
      </trkpt>
      <trkpt lat="42.76356" lon="-1.91639">
        <ele>538.0</ele>
      </trkpt>
      <trkpt lat="42.76251" lon="-1.91699">
        <ele>531.0</ele>
      </trkpt>
      <trkpt lat="42.76259" lon="-1.91715">
        <ele>528.0</ele>
      </trkpt>
      <trkpt lat="42.76335" lon="-1.91689">
        <ele>526.0</ele>
      </trkpt>
      <trkpt lat="42.76353" lon="-1.91701">
        <ele>524.0</ele>
      </trkpt>
      <trkpt lat="42.76223" lon="-1.91923">
        <ele>516.0</ele>
      </trkpt>
      <trkpt lat="42.75766" lon="-1.92434">
        <ele>507.0</ele>
      </trkpt>
      <trkpt lat="42.75626" lon="-1.92644">
        <ele>510.0</ele>
      </trkpt>
      <trkpt lat="42.75558" lon="-1.92874">
        <ele>515.0</ele>
      </trkpt>
      <trkpt lat="42.75586" lon="-1.93093">
        <ele>515.0</ele>
      </trkpt>
      <trkpt lat="42.75573" lon="-1.93141">
        <ele>514.0</ele>
      </trkpt>
      <trkpt lat="42.75252" lon="-1.93333">
        <ele>509.0</ele>
      </trkpt>
      <trkpt lat="42.75223" lon="-1.93369">
        <ele>505.0</ele>
      </trkpt>
      <trkpt lat="42.75227" lon="-1.93424">
        <ele>502.0</ele>
      </trkpt>
      <trkpt lat="42.75348" lon="-1.9358">
        <ele>494.0</ele>
      </trkpt>
      <trkpt lat="42.75346" lon="-1.93747">
        <ele>485.0</ele>
      </trkpt>
      <trkpt lat="42.75332" lon="-1.93785">
        <ele>479.0</ele>
      </trkpt>
      <trkpt lat="42.75185" lon="-1.93915">
        <ele>476.0</ele>
      </trkpt>
      <trkpt lat="42.75178" lon="-1.93936">
        <ele>476.0</ele>
      </trkpt>
      <trkpt lat="42.75244" lon="-1.94078">
        <ele>477.0</ele>
      </trkpt>
      <trkpt lat="42.75251" lon="-1.94196">
        <ele>480.0</ele>
      </trkpt>
      <trkpt lat="42.75302" lon="-1.94319">
        <ele>481.0</ele>
      </trkpt>
      <trkpt lat="42.75331" lon="-1.94446">
        <ele>482.0</ele>
      </trkpt>
      <trkpt lat="42.75385" lon="-1.94813">
        <ele>480.0</ele>
      </trkpt>
      <trkpt lat="42.75401" lon="-1.94872">
        <ele>479.0</ele>
      </trkpt>
      <trkpt lat="42.75461" lon="-1.94975">
        <ele>479.0</ele>
      </trkpt>
      <trkpt lat="42.75517" lon="-1.95266">
        <ele>487.0</ele>
      </trkpt>
      <trkpt lat="42.75504" lon="-1.95306">
        <ele>489.0</ele>
      </trkpt>
      <trkpt lat="42.75338" lon="-1.95546">
        <ele>496.0</ele>
      </trkpt>
      <trkpt lat="42.75145" lon="-1.95949">
        <ele>508.0</ele>
      </trkpt>
      <trkpt lat="42.7514" lon="-1.96081">
        <ele>511.0</ele>
      </trkpt>
      <trkpt lat="42.75189" lon="-1.96187">
        <ele>515.0</ele>
      </trkpt>
      <trkpt lat="42.75205" lon="-1.96358">
        <ele>520.0</ele>
      </trkpt>
      <trkpt lat="42.75052" lon="-1.96899">
        <ele>522.0</ele>
      </trkpt>
      <trkpt lat="42.74656" lon="-1.97544">
        <ele>535.0</ele>
      </trkpt>
      <trkpt lat="42.74533" lon="-1.97694">
        <ele>547.0</ele>
      </trkpt>
      <trkpt lat="42.74465" lon="-1.97734">
        <ele>554.0</ele>
      </trkpt>
      <trkpt lat="42.74508" lon="-1.98186">
        <ele>566.0</ele>
      </trkpt>
      <trkpt lat="42.74726" lon="-1.98478">
        <ele>580.0</ele>
      </trkpt>
      <trkpt lat="42.74762" lon="-1.98502">
        <ele>585.0</ele>
      </trkpt>
      <trkpt lat="42.7479" lon="-1.985">
        <ele>587.0</ele>
      </trkpt>
      <trkpt lat="42.74869" lon="-1.98428">
        <ele>592.0</ele>
      </trkpt>
      <trkpt lat="42.74907" lon="-1.98412">
        <ele>594.0</ele>
      </trkpt>
      <trkpt lat="42.75008" lon="-1.98434">
        <ele>602.0</ele>
      </trkpt>
      <trkpt lat="42.75076" lon="-1.98388">
        <ele>607.0</ele>
      </trkpt>
      <trkpt lat="42.75194" lon="-1.98355">
        <ele>616.0</ele>
      </trkpt>
      <trkpt lat="42.75329" lon="-1.98211">
        <ele>628.0</ele>
      </trkpt>
      <trkpt lat="42.75454" lon="-1.98122">
        <ele>636.0</ele>
      </trkpt>
      <trkpt lat="42.75566" lon="-1.98072">
        <ele>643.0</ele>
      </trkpt>
      <trkpt lat="42.75634" lon="-1.98014">
        <ele>649.0</ele>
      </trkpt>
      <trkpt lat="42.75632" lon="-1.98034">
        <ele>650.0</ele>
      </trkpt>
      <trkpt lat="42.75521" lon="-1.98179">
        <ele>655.0</ele>
      </trkpt>
      <trkpt lat="42.75455" lon="-1.98233">
        <ele>663.0</ele>
      </trkpt>
      <trkpt lat="42.75607" lon="-1.98225">
        <ele>672.0</ele>
      </trkpt>
      <trkpt lat="42.75666" lon="-1.98134">
        <ele>680.0</ele>
      </trkpt>
      <trkpt lat="42.75642" lon="-1.98248">
        <ele>684.0</ele>
      </trkpt>
      <trkpt lat="42.75661" lon="-1.98288">
        <ele>687.0</ele>
      </trkpt>
      <trkpt lat="42.75704" lon="-1.98309">
        <ele>691.0</ele>
      </trkpt>
      <trkpt lat="42.7581" lon="-1.98284">
        <ele>699.0</ele>
      </trkpt>
      <trkpt lat="42.75843" lon="-1.98305">
        <ele>702.0</ele>
      </trkpt>
      <trkpt lat="42.75878" lon="-1.98354">
        <ele>703.0</ele>
      </trkpt>
      <trkpt lat="42.75876" lon="-1.98379">
        <ele>705.0</ele>
      </trkpt>
      <trkpt lat="42.7582" lon="-1.98391">
        <ele>708.0</ele>
      </trkpt>
      <trkpt lat="42.75789" lon="-1.98426">
        <ele>711.0</ele>
      </trkpt>
      <trkpt lat="42.75815" lon="-1.98558">
        <ele>719.0</ele>
      </trkpt>
      <trkpt lat="42.75946" lon="-1.98736">
        <ele>734.0</ele>
      </trkpt>
      <trkpt lat="42.75975" lon="-1.98798">
        <ele>740.0</ele>
      </trkpt>
      <trkpt lat="42.75971" lon="-1.98879">
        <ele>745.0</ele>
      </trkpt>
      <trkpt lat="42.7599" lon="-1.9892">
        <ele>749.0</ele>
      </trkpt>
      <trkpt lat="42.76038" lon="-1.98941">
        <ele>753.0</ele>
      </trkpt>
      <trkpt lat="42.7609" lon="-1.9892">
        <ele>757.0</ele>
      </trkpt>
      <trkpt lat="42.7611" lon="-1.98936">
        <ele>759.0</ele>
      </trkpt>
      <trkpt lat="42.76123" lon="-1.99059">
        <ele>764.0</ele>
      </trkpt>
      <trkpt lat="42.76106" lon="-1.99151">
        <ele>767.0</ele>
      </trkpt>
      <trkpt lat="42.76056" lon="-1.99235">
        <ele>770.0</ele>
      </trkpt>
      <trkpt lat="42.76057" lon="-1.99349">
        <ele>771.0</ele>
      </trkpt>
      <trkpt lat="42.76099" lon="-1.99441">
        <ele>772.0</ele>
      </trkpt>
      <trkpt lat="42.76261" lon="-1.99594">
        <ele>771.0</ele>
      </trkpt>
      <trkpt lat="42.76354" lon="-1.9961">
        <ele>768.0</ele>
      </trkpt>
      <trkpt lat="42.76445" lon="-1.99569">
        <ele>767.0</ele>
      </trkpt>
      <trkpt lat="42.76567" lon="-1.99494">
        <ele>771.0</ele>
      </trkpt>
      <trkpt lat="42.76915" lon="-1.99229">
        <ele>792.0</ele>
      </trkpt>
      <trkpt lat="42.77553" lon="-1.99545">
        <ele>794.0</ele>
      </trkpt>
      <trkpt lat="42.77581" lon="-1.99608">
        <ele>797.0</ele>
      </trkpt>
      <trkpt lat="42.77571" lon="-1.9971">
        <ele>800.0</ele>
      </trkpt>
      <trkpt lat="42.77588" lon="-1.99922">
        <ele>803.0</ele>
      </trkpt>
      <trkpt lat="42.77687" lon="-2.00076">
        <ele>804.0</ele>
      </trkpt>
      <trkpt lat="42.77737" lon="-2.00252">
        <ele>804.0</ele>
      </trkpt>
      <trkpt lat="42.77725" lon="-2.00685">
        <ele>813.0</ele>
      </trkpt>
      <trkpt lat="42.77864" lon="-2.01027">
        <ele>832.0</ele>
      </trkpt>
      <trkpt lat="42.7797" lon="-2.01337">
        <ele>833.0</ele>
      </trkpt>
      <trkpt lat="42.78026" lon="-2.01791">
        <ele>830.0</ele>
      </trkpt>
      <trkpt lat="42.7804" lon="-2.01836">
        <ele>830.0</ele>
      </trkpt>
      <trkpt lat="42.78085" lon="-2.01916">
        <ele>829.0</ele>
      </trkpt>
      <trkpt lat="42.78457" lon="-2.0218">
        <ele>826.0</ele>
      </trkpt>
      <trkpt lat="42.7878" lon="-2.02264">
        <ele>823.0</ele>
      </trkpt>
      <trkpt lat="42.80609" lon="-2.02338">
        <ele>841.0</ele>
      </trkpt>
      <trkpt lat="42.80996" lon="-2.02299">
        <ele>853.0</ele>
      </trkpt>
      <trkpt lat="42.81531" lon="-2.02345">
        <ele>865.0</ele>
      </trkpt>
      <trkpt lat="42.81677" lon="-2.02395">
        <ele>868.0</ele>
      </trkpt>
      <trkpt lat="42.81885" lon="-2.0252">
        <ele>865.0</ele>
      </trkpt>
      <trkpt lat="42.82081" lon="-2.02775">
        <ele>858.0</ele>
      </trkpt>
      <trkpt lat="42.82148" lon="-2.02806">
        <ele>856.0</ele>
      </trkpt>
      <trkpt lat="42.82552" lon="-2.02795">
        <ele>854.0</ele>
      </trkpt>
      <trkpt lat="42.82817" lon="-2.02814">
        <ele>854.0</ele>
      </trkpt>
      <trkpt lat="42.83025" lon="-2.02777">
        <ele>849.0</ele>
      </trkpt>
      <trkpt lat="42.83174" lon="-2.02773">
        <ele>846.0</ele>
      </trkpt>
      <trkpt lat="42.83369" lon="-2.02793">
        <ele>845.0</ele>
      </trkpt>
      <trkpt lat="42.83417" lon="-2.02783">
        <ele>845.0</ele>
      </trkpt>
      <trkpt lat="42.83494" lon="-2.02734">
        <ele>846.0</ele>
      </trkpt>
      <trkpt lat="42.8361" lon="-2.02687">
        <ele>850.0</ele>
      </trkpt>
      <trkpt lat="42.83648" lon="-2.02635">
        <ele>854.0</ele>
      </trkpt>
      <trkpt lat="42.83691" lon="-2.02433">
        <ele>858.0</ele>
      </trkpt>
      <trkpt lat="42.83721" lon="-2.02345">
        <ele>865.0</ele>
      </trkpt>
      <trkpt lat="42.83814" lon="-2.02196">
        <ele>870.0</ele>
      </trkpt>
      <trkpt lat="42.83903" lon="-2.02093">
        <ele>876.0</ele>
      </trkpt>
      <trkpt lat="42.84076" lon="-2.01979">
        <ele>883.0</ele>
      </trkpt>
      <trkpt lat="42.84158" lon="-2.01876">
        <ele>885.0</ele>
      </trkpt>
      <trkpt lat="42.84315" lon="-2.01531">
        <ele>889.0</ele>
      </trkpt>
      <trkpt lat="42.84378" lon="-2.01278">
        <ele>898.0</ele>
      </trkpt>
      <trkpt lat="42.84394" lon="-2.01278">
        <ele>900.0</ele>
      </trkpt>
      <trkpt lat="42.8441" lon="-2.01302">
        <ele>901.0</ele>
      </trkpt>
      <trkpt lat="42.84432" lon="-2.01405">
        <ele>907.0</ele>
      </trkpt>
      <trkpt lat="42.84504" lon="-2.01461">
        <ele>912.0</ele>
      </trkpt>
      <trkpt lat="42.84506" lon="-2.01532">
        <ele>916.0</ele>
      </trkpt>
      <trkpt lat="42.84529" lon="-2.01576">
        <ele>919.0</ele>
      </trkpt>
      <trkpt lat="42.84754" lon="-2.01595">
        <ele>931.0</ele>
      </trkpt>
      <trkpt lat="42.84946" lon="-2.01663">
        <ele>942.0</ele>
      </trkpt>
      <trkpt lat="42.85013" lon="-2.01668">
        <ele>951.0</ele>
      </trkpt>
      <trkpt lat="42.85109" lon="-2.01625">
        <ele>959.0</ele>
      </trkpt>
      <trkpt lat="42.85328" lon="-2.01378">
        <ele>980.0</ele>
      </trkpt>
      <trkpt lat="42.85494" lon="-2.01329">
        <ele>990.0</ele>
      </trkpt>
      <trkpt lat="42.85744" lon="-2.01284">
        <ele>1010.0</ele>
      </trkpt>
      <trkpt lat="42.86002" lon="-2.01122">
        <ele>1024.0</ele>
      </trkpt>
      <trkpt lat="42.86209" lon="-2.00869">
        <ele>1049.0</ele>
      </trkpt>
      <trkpt lat="42.86224" lon="-2.00776">
        <ele>1053.0</ele>
      </trkpt>
      <trkpt lat="42.86219" lon="-2.00714">
        <ele>1053.0</ele>
      </trkpt>
      <trkpt lat="42.86242" lon="-2.00646">
        <ele>1051.0</ele>
      </trkpt>
      <trkpt lat="42.8627" lon="-2.0047">
        <ele>1035.0</ele>
      </trkpt>
      <trkpt lat="42.86285" lon="-2.00262">
        <ele>1016.0</ele>
      </trkpt>
      <trkpt lat="42.86332" lon="-2.00115">
        <ele>997.0</ele>
      </trkpt>
      <trkpt lat="42.86349" lon="-1.9997">
        <ele>994.0</ele>
      </trkpt>
      <trkpt lat="42.86402" lon="-1.99718">
        <ele>988.0</ele>
      </trkpt>
      <trkpt lat="42.86383" lon="-2.00153">
        <ele>970.0</ele>
      </trkpt>
      <trkpt lat="42.86353" lon="-2.00239">
        <ele>964.0</ele>
      </trkpt>
      <trkpt lat="42.86345" lon="-2.00485">
        <ele>957.0</ele>
      </trkpt>
      <trkpt lat="42.86319" lon="-2.0063">
        <ele>949.0</ele>
      </trkpt>
      <trkpt lat="42.86332" lon="-2.00873">
        <ele>931.0</ele>
      </trkpt>
      <trkpt lat="42.86322" lon="-2.01098">
        <ele>922.0</ele>
      </trkpt>
      <trkpt lat="42.86334" lon="-2.01278">
        <ele>916.0</ele>
      </trkpt>
      <trkpt lat="42.86308" lon="-2.01431">
        <ele>915.0</ele>
      </trkpt>
      <trkpt lat="42.86317" lon="-2.01499">
        <ele>914.0</ele>
      </trkpt>
      <trkpt lat="42.86375" lon="-2.01691">
        <ele>902.0</ele>
      </trkpt>
      <trkpt lat="42.8637" lon="-2.02076">
        <ele>892.0</ele>
      </trkpt>
      <trkpt lat="42.86435" lon="-2.0233">
        <ele>887.0</ele>
      </trkpt>
      <trkpt lat="42.86463" lon="-2.02396">
        <ele>881.0</ele>
      </trkpt>
      <trkpt lat="42.86466" lon="-2.02626">
        <ele>870.0</ele>
      </trkpt>
      <trkpt lat="42.86501" lon="-2.02805">
        <ele>859.0</ele>
      </trkpt>
      <trkpt lat="42.86607" lon="-2.03083">
        <ele>844.0</ele>
      </trkpt>
      <trkpt lat="42.86619" lon="-2.03083">
        <ele>842.0</ele>
      </trkpt>
      <trkpt lat="42.86621" lon="-2.03065">
        <ele>841.0</ele>
      </trkpt>
      <trkpt lat="42.86584" lon="-2.02968">
        <ele>839.0</ele>
      </trkpt>
      <trkpt lat="42.86545" lon="-2.02761">
        <ele>830.0</ele>
      </trkpt>
      <trkpt lat="42.86573" lon="-2.02509">
        <ele>821.0</ele>
      </trkpt>
      <trkpt lat="42.86638" lon="-2.02342">
        <ele>811.0</ele>
      </trkpt>
      <trkpt lat="42.86589" lon="-2.02236">
        <ele>806.0</ele>
      </trkpt>
      <trkpt lat="42.86581" lon="-2.01963">
        <ele>799.0</ele>
      </trkpt>
      <trkpt lat="42.86625" lon="-2.01833">
        <ele>790.0</ele>
      </trkpt>
      <trkpt lat="42.86613" lon="-2.01736">
        <ele>783.0</ele>
      </trkpt>
      <trkpt lat="42.86686" lon="-2.01652">
        <ele>776.0</ele>
      </trkpt>
      <trkpt lat="42.86688" lon="-2.01679">
        <ele>774.0</ele>
      </trkpt>
      <trkpt lat="42.86647" lon="-2.0172">
        <ele>771.0</ele>
      </trkpt>
      <trkpt lat="42.86638" lon="-2.01748">
        <ele>770.0</ele>
      </trkpt>
      <trkpt lat="42.86671" lon="-2.01824">
        <ele>768.0</ele>
      </trkpt>
      <trkpt lat="42.86677" lon="-2.01914">
        <ele>766.0</ele>
      </trkpt>
      <trkpt lat="42.86717" lon="-2.01992">
        <ele>764.0</ele>
      </trkpt>
      <trkpt lat="42.86731" lon="-2.0211">
        <ele>759.0</ele>
      </trkpt>
      <trkpt lat="42.86721" lon="-2.02183">
        <ele>756.0</ele>
      </trkpt>
      <trkpt lat="42.8673" lon="-2.02204">
        <ele>754.0</ele>
      </trkpt>
      <trkpt lat="42.86813" lon="-2.02262">
        <ele>749.0</ele>
      </trkpt>
      <trkpt lat="42.86825" lon="-2.02288">
        <ele>745.0</ele>
      </trkpt>
      <trkpt lat="42.86763" lon="-2.02409">
        <ele>738.0</ele>
      </trkpt>
      <trkpt lat="42.86757" lon="-2.02472">
        <ele>735.0</ele>
      </trkpt>
      <trkpt lat="42.86768" lon="-2.02557">
        <ele>732.0</ele>
      </trkpt>
      <trkpt lat="42.86786" lon="-2.02589">
        <ele>731.0</ele>
      </trkpt>
      <trkpt lat="42.86826" lon="-2.02617">
        <ele>728.0</ele>
      </trkpt>
      <trkpt lat="42.86846" lon="-2.02755">
        <ele>719.0</ele>
      </trkpt>
      <trkpt lat="42.86916" lon="-2.0285">
        <ele>713.0</ele>
      </trkpt>
      <trkpt lat="42.86933" lon="-2.02947">
        <ele>711.0</ele>
      </trkpt>
      <trkpt lat="42.86984" lon="-2.03092">
        <ele>710.0</ele>
      </trkpt>
      <trkpt lat="42.87018" lon="-2.03267">
        <ele>696.0</ele>
      </trkpt>
      <trkpt lat="42.87091" lon="-2.03313">
        <ele>681.0</ele>
      </trkpt>
      <trkpt lat="42.87083" lon="-2.03351">
        <ele>680.0</ele>
      </trkpt>
      <trkpt lat="42.87045" lon="-2.03397">
        <ele>680.0</ele>
      </trkpt>
      <trkpt lat="42.87038" lon="-2.03432">
        <ele>679.0</ele>
      </trkpt>
      <trkpt lat="42.87087" lon="-2.03528">
        <ele>678.0</ele>
      </trkpt>
      <trkpt lat="42.87094" lon="-2.03573">
        <ele>674.0</ele>
      </trkpt>
      <trkpt lat="42.87208" lon="-2.03635">
        <ele>662.0</ele>
      </trkpt>
      <trkpt lat="42.87282" lon="-2.03764">
        <ele>656.0</ele>
      </trkpt>
      <trkpt lat="42.87292" lon="-2.03817">
        <ele>653.0</ele>
      </trkpt>
      <trkpt lat="42.87281" lon="-2.03959">
        <ele>649.0</ele>
      </trkpt>
      <trkpt lat="42.87291" lon="-2.04031">
        <ele>644.0</ele>
      </trkpt>
      <trkpt lat="42.87313" lon="-2.04018">
        <ele>641.0</ele>
      </trkpt>
      <trkpt lat="42.87359" lon="-2.03785">
        <ele>629.0</ele>
      </trkpt>
      <trkpt lat="42.87313" lon="-2.03545">
        <ele>615.0</ele>
      </trkpt>
      <trkpt lat="42.87327" lon="-2.03518">
        <ele>612.0</ele>
      </trkpt>
      <trkpt lat="42.87417" lon="-2.03647">
        <ele>606.0</ele>
      </trkpt>
      <trkpt lat="42.87477" lon="-2.03703">
        <ele>602.0</ele>
      </trkpt>
      <trkpt lat="42.87549" lon="-2.03741">
        <ele>598.0</ele>
      </trkpt>
      <trkpt lat="42.87714" lon="-2.03764">
        <ele>586.0</ele>
      </trkpt>
      <trkpt lat="42.87811" lon="-2.03901">
        <ele>576.0</ele>
      </trkpt>
      <trkpt lat="42.87979" lon="-2.0402">
        <ele>564.0</ele>
      </trkpt>
      <trkpt lat="42.88057" lon="-2.04165">
        <ele>553.0</ele>
      </trkpt>
      <trkpt lat="42.88659" lon="-2.04953">
        <ele>526.0</ele>
      </trkpt>
      <trkpt lat="42.89602" lon="-2.0571">
        <ele>516.0</ele>
      </trkpt>
      <trkpt lat="42.89669" lon="-2.05741">
        <ele>517.0</ele>
      </trkpt>
      <trkpt lat="42.89838" lon="-2.05777">
        <ele>516.0</ele>
      </trkpt>
      <trkpt lat="42.90039" lon="-2.05905">
        <ele>516.0</ele>
      </trkpt>
      <trkpt lat="42.90327" lon="-2.06139">
        <ele>518.0</ele>
      </trkpt>
      <trkpt lat="42.90576" lon="-2.06399">
        <ele>510.0</ele>
      </trkpt>
      <trkpt lat="42.90607" lon="-2.06399">
        <ele>507.0</ele>
      </trkpt>
      <trkpt lat="42.90716" lon="-2.06159">
        <ele>497.0</ele>
      </trkpt>
      <trkpt lat="42.90752" lon="-2.06048">
        <ele>496.0</ele>
      </trkpt>
      <trkpt lat="42.91141" lon="-2.04769">
        <ele>504.0</ele>
      </trkpt>
      <trkpt lat="42.91163" lon="-2.04652">
        <ele>507.0</ele>
      </trkpt>
      <trkpt lat="42.91299" lon="-2.04369">
        <ele>506.0</ele>
      </trkpt>
      <trkpt lat="42.91348" lon="-2.04303">
        <ele>505.0</ele>
      </trkpt>
      <trkpt lat="42.91494" lon="-2.04158">
        <ele>500.0</ele>
      </trkpt>
      <trkpt lat="42.91549" lon="-2.04072">
        <ele>496.0</ele>
      </trkpt>
      <trkpt lat="42.91608" lon="-2.03869">
        <ele>493.0</ele>
      </trkpt>
      <trkpt lat="42.91833" lon="-2.03449">
        <ele>494.0</ele>
      </trkpt>
      <trkpt lat="42.92018" lon="-2.02942">
        <ele>485.0</ele>
      </trkpt>
      <trkpt lat="42.92044" lon="-2.02786">
        <ele>485.0</ele>
      </trkpt>
      <trkpt lat="42.92045" lon="-2.02428">
        <ele>488.0</ele>
      </trkpt>
      <trkpt lat="42.92059" lon="-2.02279">
        <ele>492.0</ele>
      </trkpt>
      <trkpt lat="42.92093" lon="-2.02116">
        <ele>490.0</ele>
      </trkpt>
      <trkpt lat="42.92204" lon="-2.01785">
        <ele>484.0</ele>
      </trkpt>
      <trkpt lat="42.92225" lon="-2.01648">
        <ele>480.0</ele>
      </trkpt>
      <trkpt lat="42.92232" lon="-2.01347">
        <ele>474.0</ele>
      </trkpt>
      <trkpt lat="42.92267" lon="-2.00997">
        <ele>472.0</ele>
      </trkpt>
      <trkpt lat="42.92269" lon="-2.00623">
        <ele>471.0</ele>
      </trkpt>
      <trkpt lat="42.92282" lon="-2.00493">
        <ele>470.0</ele>
      </trkpt>
      <trkpt lat="42.92309" lon="-2.00343">
        <ele>470.0</ele>
      </trkpt>
      <trkpt lat="42.92337" lon="-2.00292">
        <ele>470.0</ele>
      </trkpt>
      <trkpt lat="42.92407" lon="-2.0022">
        <ele>470.0</ele>
      </trkpt>
      <trkpt lat="42.92426" lon="-2.00152">
        <ele>470.0</ele>
      </trkpt>
      <trkpt lat="42.92349" lon="-1.99807">
        <ele>469.0</ele>
      </trkpt>
      <trkpt lat="42.92295" lon="-1.99442">
        <ele>468.0</ele>
      </trkpt>
      <trkpt lat="42.92206" lon="-1.98687">
        <ele>466.0</ele>
      </trkpt>
      <trkpt lat="42.92215" lon="-1.98573">
        <ele>467.0</ele>
      </trkpt>
      <trkpt lat="42.92205" lon="-1.98519">
        <ele>471.0</ele>
      </trkpt>
      <trkpt lat="42.92267" lon="-1.98512">
        <ele>471.0</ele>
      </trkpt>
      <trkpt lat="42.9229" lon="-1.98448">
        <ele>470.0</ele>
      </trkpt>
      <trkpt lat="42.92272" lon="-1.98392">
        <ele>470.0</ele>
      </trkpt>
      <trkpt lat="42.92231" lon="-1.9833">
        <ele>469.0</ele>
      </trkpt>
      <trkpt lat="42.92174" lon="-1.98072">
        <ele>469.0</ele>
      </trkpt>
      <trkpt lat="42.9234" lon="-1.98043">
        <ele>466.0</ele>
      </trkpt>
      <trkpt lat="42.92384" lon="-1.98">
        <ele>465.0</ele>
      </trkpt>
      <trkpt lat="42.92406" lon="-1.97943">
        <ele>465.0</ele>
      </trkpt>
      <trkpt lat="42.92406" lon="-1.97854">
        <ele>465.0</ele>
      </trkpt>
      <trkpt lat="42.92318" lon="-1.97379">
        <ele>462.0</ele>
      </trkpt>
      <trkpt lat="42.92335" lon="-1.97046">
        <ele>459.0</ele>
      </trkpt>
      <trkpt lat="42.92301" lon="-1.96905">
        <ele>459.0</ele>
      </trkpt>
      <trkpt lat="42.92339" lon="-1.96749">
        <ele>459.0</ele>
      </trkpt>
      <trkpt lat="42.92401" lon="-1.96646">
        <ele>460.0</ele>
      </trkpt>
      <trkpt lat="42.92431" lon="-1.96498">
        <ele>460.0</ele>
      </trkpt>
      <trkpt lat="42.92407" lon="-1.96113">
        <ele>465.0</ele>
      </trkpt>
      <trkpt lat="42.92397" lon="-1.96051">
        <ele>464.0</ele>
      </trkpt>
      <trkpt lat="42.92357" lon="-1.95948">
        <ele>462.0</ele>
      </trkpt>
      <trkpt lat="42.92106" lon="-1.95552">
        <ele>460.0</ele>
      </trkpt>
      <trkpt lat="42.92068" lon="-1.95461">
        <ele>461.0</ele>
      </trkpt>
      <trkpt lat="42.92034" lon="-1.95245">
        <ele>462.0</ele>
      </trkpt>
      <trkpt lat="42.91995" lon="-1.94678">
        <ele>466.0</ele>
      </trkpt>
      <trkpt lat="42.91927" lon="-1.9449">
        <ele>469.0</ele>
      </trkpt>
      <trkpt lat="42.919" lon="-1.94378">
        <ele>472.0</ele>
      </trkpt>
      <trkpt lat="42.91897" lon="-1.94161">
        <ele>473.0</ele>
      </trkpt>
      <trkpt lat="42.91859" lon="-1.93877">
        <ele>472.0</ele>
      </trkpt>
      <trkpt lat="42.91905" lon="-1.93202">
        <ele>466.0</ele>
      </trkpt>
      <trkpt lat="42.91856" lon="-1.91851">
        <ele>459.0</ele>
      </trkpt>
      <trkpt lat="42.91529" lon="-1.89421">
        <ele>450.0</ele>
      </trkpt>
      <trkpt lat="42.91486" lon="-1.89357">
        <ele>446.0</ele>
      </trkpt>
      <trkpt lat="42.91486" lon="-1.89247">
        <ele>443.0</ele>
      </trkpt>
      <trkpt lat="42.91442" lon="-1.89238">
        <ele>442.0</ele>
      </trkpt>
      <trkpt lat="42.91434" lon="-1.8886">
        <ele>445.0</ele>
      </trkpt>
      <trkpt lat="42.91452" lon="-1.88499">
        <ele>451.0</ele>
      </trkpt>
      <trkpt lat="42.91306" lon="-1.8852">
        <ele>459.0</ele>
      </trkpt>
      <trkpt lat="42.91223" lon="-1.88457">
        <ele>466.0</ele>
      </trkpt>
      <trkpt lat="42.91034" lon="-1.88475">
        <ele>471.0</ele>
      </trkpt>
      <trkpt lat="42.9098" lon="-1.88441">
        <ele>475.0</ele>
      </trkpt>
      <trkpt lat="42.90951" lon="-1.8835">
        <ele>479.0</ele>
      </trkpt>
      <trkpt lat="42.90881" lon="-1.87766">
        <ele>479.0</ele>
      </trkpt>
      <trkpt lat="42.90914" lon="-1.87254">
        <ele>493.0</ele>
      </trkpt>
      <trkpt lat="42.90885" lon="-1.86634">
        <ele>498.0</ele>
      </trkpt>
      <trkpt lat="42.90893" lon="-1.86593">
        <ele>498.0</ele>
      </trkpt>
      <trkpt lat="42.90937" lon="-1.86542">
        <ele>495.0</ele>
      </trkpt>
      <trkpt lat="42.91036" lon="-1.86555">
        <ele>487.0</ele>
      </trkpt>
      <trkpt lat="42.91126" lon="-1.86539">
        <ele>486.0</ele>
      </trkpt>
      <trkpt lat="42.91137" lon="-1.86518">
        <ele>483.0</ele>
      </trkpt>
      <trkpt lat="42.91152" lon="-1.86534">
        <ele>482.0</ele>
      </trkpt>
      <trkpt lat="42.91228" lon="-1.86519">
        <ele>481.0</ele>
      </trkpt>
      <trkpt lat="42.91266" lon="-1.8649">
        <ele>478.0</ele>
      </trkpt>
      <trkpt lat="42.91269" lon="-1.86331">
        <ele>476.0</ele>
      </trkpt>
      <trkpt lat="42.91381" lon="-1.85746">
        <ele>467.0</ele>
      </trkpt>
      <trkpt lat="42.91705" lon="-1.84593">
        <ele>435.0</ele>
      </trkpt>
      <trkpt lat="42.91735" lon="-1.8434">
        <ele>442.0</ele>
      </trkpt>
      <trkpt lat="42.91802" lon="-1.84139">
        <ele>451.0</ele>
      </trkpt>
      <trkpt lat="42.91815" lon="-1.84149">
        <ele>452.0</ele>
      </trkpt>
      <trkpt lat="42.91771" lon="-1.84299">
        <ele>453.0</ele>
      </trkpt>
      <trkpt lat="42.91763" lon="-1.84377">
        <ele>455.0</ele>
      </trkpt>
      <trkpt lat="42.91798" lon="-1.84445">
        <ele>456.0</ele>
      </trkpt>
      <trkpt lat="42.91855" lon="-1.84505">
        <ele>457.0</ele>
      </trkpt>
      <trkpt lat="42.91946" lon="-1.84538">
        <ele>458.0</ele>
      </trkpt>
      <trkpt lat="42.92249" lon="-1.84728">
        <ele>469.0</ele>
      </trkpt>
      <trkpt lat="42.92424" lon="-1.84767">
        <ele>477.0</ele>
      </trkpt>
      <trkpt lat="42.92506" lon="-1.84847">
        <ele>486.0</ele>
      </trkpt>
      <trkpt lat="42.92628" lon="-1.84851">
        <ele>494.0</ele>
      </trkpt>
      <trkpt lat="42.92684" lon="-1.8481">
        <ele>500.0</ele>
      </trkpt>
      <trkpt lat="42.92717" lon="-1.84813">
        <ele>504.0</ele>
      </trkpt>
      <trkpt lat="42.92718" lon="-1.8483">
        <ele>505.0</ele>
      </trkpt>
      <trkpt lat="42.92692" lon="-1.84861">
        <ele>507.0</ele>
      </trkpt>
      <trkpt lat="42.92697" lon="-1.8493">
        <ele>511.0</ele>
      </trkpt>
      <trkpt lat="42.92688" lon="-1.84965">
        <ele>514.0</ele>
      </trkpt>
      <trkpt lat="42.92721" lon="-1.85022">
        <ele>518.0</ele>
      </trkpt>
      <trkpt lat="42.92744" lon="-1.85134">
        <ele>524.0</ele>
      </trkpt>
      <trkpt lat="42.92741" lon="-1.85175">
        <ele>528.0</ele>
      </trkpt>
      <trkpt lat="42.92773" lon="-1.85288">
        <ele>534.0</ele>
      </trkpt>
      <trkpt lat="42.92734" lon="-1.85385">
        <ele>541.0</ele>
      </trkpt>
      <trkpt lat="42.92725" lon="-1.85458">
        <ele>546.0</ele>
      </trkpt>
      <trkpt lat="42.92746" lon="-1.85554">
        <ele>551.0</ele>
      </trkpt>
      <trkpt lat="42.92747" lon="-1.85646">
        <ele>556.0</ele>
      </trkpt>
      <trkpt lat="42.92773" lon="-1.85739">
        <ele>561.0</ele>
      </trkpt>
      <trkpt lat="42.92735" lon="-1.85963">
        <ele>566.0</ele>
      </trkpt>
      <trkpt lat="42.92744" lon="-1.86157">
        <ele>579.0</ele>
      </trkpt>
      <trkpt lat="42.92836" lon="-1.8622">
        <ele>585.0</ele>
      </trkpt>
      <trkpt lat="42.9291" lon="-1.86234">
        <ele>591.0</ele>
      </trkpt>
      <trkpt lat="42.93012" lon="-1.86196">
        <ele>599.0</ele>
      </trkpt>
      <trkpt lat="42.93055" lon="-1.86226">
        <ele>603.0</ele>
      </trkpt>
      <trkpt lat="42.93061" lon="-1.86244">
        <ele>604.0</ele>
      </trkpt>
      <trkpt lat="42.9304" lon="-1.86294">
        <ele>606.0</ele>
      </trkpt>
      <trkpt lat="42.93021" lon="-1.86511">
        <ele>613.0</ele>
      </trkpt>
      <trkpt lat="42.93034" lon="-1.86566">
        <ele>616.0</ele>
      </trkpt>
      <trkpt lat="42.93073" lon="-1.86627">
        <ele>621.0</ele>
      </trkpt>
      <trkpt lat="42.93076" lon="-1.86678">
        <ele>624.0</ele>
      </trkpt>
      <trkpt lat="42.93086" lon="-1.86685">
        <ele>626.0</ele>
      </trkpt>
      <trkpt lat="42.93081" lon="-1.86617">
        <ele>628.0</ele>
      </trkpt>
      <trkpt lat="42.93052" lon="-1.86554">
        <ele>630.0</ele>
      </trkpt>
      <trkpt lat="42.93047" lon="-1.8649">
        <ele>632.0</ele>
      </trkpt>
      <trkpt lat="42.93101" lon="-1.86329">
        <ele>638.0</ele>
      </trkpt>
      <trkpt lat="42.93152" lon="-1.86118">
        <ele>649.0</ele>
      </trkpt>
      <trkpt lat="42.93137" lon="-1.86055">
        <ele>654.0</ele>
      </trkpt>
      <trkpt lat="42.93134" lon="-1.85953">
        <ele>659.0</ele>
      </trkpt>
      <trkpt lat="42.93113" lon="-1.85913">
        <ele>661.0</ele>
      </trkpt>
      <trkpt lat="42.93107" lon="-1.85852">
        <ele>664.0</ele>
      </trkpt>
      <trkpt lat="42.93133" lon="-1.85918">
        <ele>667.0</ele>
      </trkpt>
      <trkpt lat="42.9316" lon="-1.8594">
        <ele>669.0</ele>
      </trkpt>
      <trkpt lat="42.93152" lon="-1.85997">
        <ele>670.0</ele>
      </trkpt>
      <trkpt lat="42.9318" lon="-1.86086">
        <ele>674.0</ele>
      </trkpt>
      <trkpt lat="42.93181" lon="-1.86213">
        <ele>677.0</ele>
      </trkpt>
      <trkpt lat="42.93172" lon="-1.8635">
        <ele>682.0</ele>
      </trkpt>
      <trkpt lat="42.93151" lon="-1.8643">
        <ele>688.0</ele>
      </trkpt>
      <trkpt lat="42.93194" lon="-1.86534">
        <ele>693.0</ele>
      </trkpt>
      <trkpt lat="42.93204" lon="-1.87115">
        <ele>709.0</ele>
      </trkpt>
      <trkpt lat="42.93222" lon="-1.87328">
        <ele>720.0</ele>
      </trkpt>
      <trkpt lat="42.93283" lon="-1.87473">
        <ele>732.0</ele>
      </trkpt>
      <trkpt lat="42.93296" lon="-1.87553">
        <ele>738.0</ele>
      </trkpt>
      <trkpt lat="42.93315" lon="-1.87577">
        <ele>739.0</ele>
      </trkpt>
      <trkpt lat="42.93362" lon="-1.87714">
        <ele>745.0</ele>
      </trkpt>
      <trkpt lat="42.93476" lon="-1.87973">
        <ele>756.0</ele>
      </trkpt>
      <trkpt lat="42.93512" lon="-1.87959">
        <ele>758.0</ele>
      </trkpt>
      <trkpt lat="42.93527" lon="-1.87904">
        <ele>759.0</ele>
      </trkpt>
      <trkpt lat="42.93568" lon="-1.87851">
        <ele>761.0</ele>
      </trkpt>
      <trkpt lat="42.93595" lon="-1.87771">
        <ele>760.0</ele>
      </trkpt>
      <trkpt lat="42.93648" lon="-1.87725">
        <ele>758.0</ele>
      </trkpt>
      <trkpt lat="42.93666" lon="-1.87612">
        <ele>757.0</ele>
      </trkpt>
      <trkpt lat="42.93732" lon="-1.87585">
        <ele>758.0</ele>
      </trkpt>
      <trkpt lat="42.93805" lon="-1.87669">
        <ele>760.0</ele>
      </trkpt>
      <trkpt lat="42.93825" lon="-1.87667">
        <ele>762.0</ele>
      </trkpt>
      <trkpt lat="42.93849" lon="-1.87576">
        <ele>764.0</ele>
      </trkpt>
      <trkpt lat="42.93893" lon="-1.8753">
        <ele>766.0</ele>
      </trkpt>
      <trkpt lat="42.93894" lon="-1.87457">
        <ele>769.0</ele>
      </trkpt>
      <trkpt lat="42.93932" lon="-1.87407">
        <ele>773.0</ele>
      </trkpt>
      <trkpt lat="42.93945" lon="-1.87366">
        <ele>777.0</ele>
      </trkpt>
      <trkpt lat="42.9406" lon="-1.87463">
        <ele>786.0</ele>
      </trkpt>
      <trkpt lat="42.94082" lon="-1.87511">
        <ele>789.0</ele>
      </trkpt>
      <trkpt lat="42.94142" lon="-1.87523">
        <ele>792.0</ele>
      </trkpt>
      <trkpt lat="42.94332" lon="-1.87486">
        <ele>798.0</ele>
      </trkpt>
      <trkpt lat="42.94485" lon="-1.8743">
        <ele>795.0</ele>
      </trkpt>
      <trkpt lat="42.94521" lon="-1.87403">
        <ele>792.0</ele>
      </trkpt>
      <trkpt lat="42.94635" lon="-1.87392">
        <ele>786.0</ele>
      </trkpt>
      <trkpt lat="42.94672" lon="-1.87429">
        <ele>783.0</ele>
      </trkpt>
      <trkpt lat="42.94692" lon="-1.87427">
        <ele>782.0</ele>
      </trkpt>
      <trkpt lat="42.94782" lon="-1.87341">
        <ele>778.0</ele>
      </trkpt>
      <trkpt lat="42.94875" lon="-1.87316">
        <ele>774.0</ele>
      </trkpt>
      <trkpt lat="42.94921" lon="-1.87362">
        <ele>770.0</ele>
      </trkpt>
      <trkpt lat="42.94982" lon="-1.87375">
        <ele>765.0</ele>
      </trkpt>
      <trkpt lat="42.95107" lon="-1.87274">
        <ele>756.0</ele>
      </trkpt>
      <trkpt lat="42.95181" lon="-1.87306">
        <ele>752.0</ele>
      </trkpt>
      <trkpt lat="42.95297" lon="-1.87298">
        <ele>749.0</ele>
      </trkpt>
      <trkpt lat="42.9552" lon="-1.87372">
        <ele>742.0</ele>
      </trkpt>
      <trkpt lat="42.95653" lon="-1.87312">
        <ele>738.0</ele>
      </trkpt>
      <trkpt lat="42.95781" lon="-1.87341">
        <ele>733.0</ele>
      </trkpt>
      <trkpt lat="42.95844" lon="-1.87398">
        <ele>725.0</ele>
      </trkpt>
      <trkpt lat="42.95963" lon="-1.87355">
        <ele>722.0</ele>
      </trkpt>
      <trkpt lat="42.96058" lon="-1.87373">
        <ele>721.0</ele>
      </trkpt>
      <trkpt lat="42.96092" lon="-1.87393">
        <ele>719.0</ele>
      </trkpt>
      <trkpt lat="42.96217" lon="-1.87606">
        <ele>708.0</ele>
      </trkpt>
      <trkpt lat="42.96322" lon="-1.87644">
        <ele>706.0</ele>
      </trkpt>
      <trkpt lat="42.96524" lon="-1.87637">
        <ele>700.0</ele>
      </trkpt>
      <trkpt lat="42.96671" lon="-1.87717">
        <ele>696.0</ele>
      </trkpt>
      <trkpt lat="42.96749" lon="-1.87688">
        <ele>691.0</ele>
      </trkpt>
      <trkpt lat="42.96894" lon="-1.87765">
        <ele>688.0</ele>
      </trkpt>
      <trkpt lat="42.97062" lon="-1.87766">
        <ele>691.0</ele>
      </trkpt>
      <trkpt lat="42.97092" lon="-1.87793">
        <ele>691.0</ele>
      </trkpt>
      <trkpt lat="42.97111" lon="-1.87861">
        <ele>687.0</ele>
      </trkpt>
      <trkpt lat="42.97223" lon="-1.8792">
        <ele>679.0</ele>
      </trkpt>
      <trkpt lat="42.9727" lon="-1.87991">
        <ele>672.0</ele>
      </trkpt>
      <trkpt lat="42.97491" lon="-1.8805">
        <ele>663.0</ele>
      </trkpt>
      <trkpt lat="42.97639" lon="-1.88129">
        <ele>659.0</ele>
      </trkpt>
      <trkpt lat="42.97717" lon="-1.88208">
        <ele>659.0</ele>
      </trkpt>
      <trkpt lat="42.97784" lon="-1.88347">
        <ele>659.0</ele>
      </trkpt>
      <trkpt lat="42.97912" lon="-1.88466">
        <ele>662.0</ele>
      </trkpt>
      <trkpt lat="42.9798" lon="-1.88507">
        <ele>665.0</ele>
      </trkpt>
      <trkpt lat="42.98023" lon="-1.88591">
        <ele>668.0</ele>
      </trkpt>
      <trkpt lat="42.98095" lon="-1.88671">
        <ele>667.0</ele>
      </trkpt>
      <trkpt lat="42.982" lon="-1.88738">
        <ele>661.0</ele>
      </trkpt>
      <trkpt lat="42.98252" lon="-1.88734">
        <ele>659.0</ele>
      </trkpt>
      <trkpt lat="42.98272" lon="-1.88824">
        <ele>654.0</ele>
      </trkpt>
      <trkpt lat="42.98358" lon="-1.88888">
        <ele>647.0</ele>
      </trkpt>
      <trkpt lat="42.98429" lon="-1.88908">
        <ele>641.0</ele>
      </trkpt>
      <trkpt lat="42.98506" lon="-1.88897">
        <ele>634.0</ele>
      </trkpt>
      <trkpt lat="42.98529" lon="-1.88972">
        <ele>631.0</ele>
      </trkpt>
      <trkpt lat="42.98631" lon="-1.89053">
        <ele>629.0</ele>
      </trkpt>
      <trkpt lat="42.98684" lon="-1.89126">
        <ele>626.0</ele>
      </trkpt>
      <trkpt lat="42.9877" lon="-1.89145">
        <ele>622.0</ele>
      </trkpt>
      <trkpt lat="42.98824" lon="-1.89179">
        <ele>620.0</ele>
      </trkpt>
      <trkpt lat="42.98908" lon="-1.89274">
        <ele>620.0</ele>
      </trkpt>
      <trkpt lat="42.98979" lon="-1.89444">
        <ele>620.0</ele>
      </trkpt>
      <trkpt lat="42.9904" lon="-1.89466">
        <ele>619.0</ele>
      </trkpt>
      <trkpt lat="42.99084" lon="-1.89515">
        <ele>617.0</ele>
      </trkpt>
      <trkpt lat="42.99121" lon="-1.89588">
        <ele>612.0</ele>
      </trkpt>
      <trkpt lat="42.99179" lon="-1.89588">
        <ele>609.0</ele>
      </trkpt>
      <trkpt lat="42.99248" lon="-1.89633">
        <ele>600.0</ele>
      </trkpt>
      <trkpt lat="42.99315" lon="-1.89638">
        <ele>595.0</ele>
      </trkpt>
      <trkpt lat="42.99411" lon="-1.89541">
        <ele>586.0</ele>
      </trkpt>
      <trkpt lat="42.99509" lon="-1.89503">
        <ele>574.0</ele>
      </trkpt>
      <trkpt lat="42.9951" lon="-1.89522">
        <ele>568.0</ele>
      </trkpt>
      <trkpt lat="42.99409" lon="-1.89623">
        <ele>564.0</ele>
      </trkpt>
      <trkpt lat="42.99418" lon="-1.8963">
        <ele>563.0</ele>
      </trkpt>
      <trkpt lat="42.99454" lon="-1.89606">
        <ele>561.0</ele>
      </trkpt>
      <trkpt lat="42.99508" lon="-1.89657">
        <ele>562.0</ele>
      </trkpt>
      <trkpt lat="42.99596" lon="-1.89608">
        <ele>563.0</ele>
      </trkpt>
      <trkpt lat="42.99673" lon="-1.89633">
        <ele>564.0</ele>
      </trkpt>
      <trkpt lat="42.99735" lon="-1.89559">
        <ele>561.0</ele>
      </trkpt>
      <trkpt lat="42.99869" lon="-1.89165">
        <ele>561.0</ele>
      </trkpt>
      <trkpt lat="42.99997" lon="-1.88984">
        <ele>563.0</ele>
      </trkpt>
      <trkpt lat="42.99988" lon="-1.88942">
        <ele>564.0</ele>
      </trkpt>
      <trkpt lat="42.99908" lon="-1.88836">
        <ele>567.0</ele>
      </trkpt>
      <trkpt lat="42.99796" lon="-1.88848">
        <ele>575.0</ele>
      </trkpt>
      <trkpt lat="42.99801" lon="-1.88826">
        <ele>577.0</ele>
      </trkpt>
      <trkpt lat="42.99857" lon="-1.88809">
        <ele>581.0</ele>
      </trkpt>
      <trkpt lat="42.99886" lon="-1.88773">
        <ele>585.0</ele>
      </trkpt>
      <trkpt lat="42.99917" lon="-1.88599">
        <ele>597.0</ele>
      </trkpt>
      <trkpt lat="42.99918" lon="-1.88407">
        <ele>603.0</ele>
      </trkpt>
      <trkpt lat="42.99907" lon="-1.88369">
        <ele>604.0</ele>
      </trkpt>
      <trkpt lat="42.99837" lon="-1.88262">
        <ele>605.0</ele>
      </trkpt>
      <trkpt lat="42.99721" lon="-1.87932">
        <ele>606.0</ele>
      </trkpt>
      <trkpt lat="42.99624" lon="-1.87746">
        <ele>610.0</ele>
      </trkpt>
      <trkpt lat="42.99673" lon="-1.87685">
        <ele>611.0</ele>
      </trkpt>
      <trkpt lat="42.99715" lon="-1.87786">
        <ele>613.0</ele>
      </trkpt>
      <trkpt lat="42.99877" lon="-1.87676">
        <ele>619.0</ele>
      </trkpt>
      <trkpt lat="42.99898" lon="-1.87616">
        <ele>624.0</ele>
      </trkpt>
      <trkpt lat="42.99883" lon="-1.8747">
        <ele>633.0</ele>
      </trkpt>
      <trkpt lat="42.99893" lon="-1.87367">
        <ele>638.0</ele>
      </trkpt>
      <trkpt lat="42.99926" lon="-1.8729">
        <ele>641.0</ele>
      </trkpt>
      <trkpt lat="42.99952" lon="-1.87264">
        <ele>643.0</ele>
      </trkpt>
      <trkpt lat="43.00193" lon="-1.8713">
        <ele>649.0</ele>
      </trkpt>
      <trkpt lat="43.00215" lon="-1.87135">
        <ele>650.0</ele>
      </trkpt>
      <trkpt lat="43.00354" lon="-1.8728">
        <ele>649.0</ele>
      </trkpt>
      <trkpt lat="43.0037" lon="-1.87278">
        <ele>647.0</ele>
      </trkpt>
      <trkpt lat="43.00429" lon="-1.8713">
        <ele>644.0</ele>
      </trkpt>
      <trkpt lat="43.00463" lon="-1.86977">
        <ele>642.0</ele>
      </trkpt>
      <trkpt lat="43.00543" lon="-1.86863">
        <ele>643.0</ele>
      </trkpt>
      <trkpt lat="43.00582" lon="-1.86763">
        <ele>643.0</ele>
      </trkpt>
      <trkpt lat="43.00589" lon="-1.86652">
        <ele>642.0</ele>
      </trkpt>
      <trkpt lat="43.00629" lon="-1.86582">
        <ele>640.0</ele>
      </trkpt>
      <trkpt lat="43.00709" lon="-1.8651">
        <ele>635.0</ele>
      </trkpt>
      <trkpt lat="43.00743" lon="-1.86438">
        <ele>635.0</ele>
      </trkpt>
      <trkpt lat="43.00883" lon="-1.86253">
        <ele>640.0</ele>
      </trkpt>
      <trkpt lat="43.00895" lon="-1.86227">
        <ele>642.0</ele>
      </trkpt>
      <trkpt lat="43.00908" lon="-1.861">
        <ele>644.0</ele>
      </trkpt>
      <trkpt lat="43.00947" lon="-1.86033">
        <ele>644.0</ele>
      </trkpt>
      <trkpt lat="43.00947" lon="-1.85997">
        <ele>644.0</ele>
      </trkpt>
      <trkpt lat="43.00919" lon="-1.85977">
        <ele>643.0</ele>
      </trkpt>
      <trkpt lat="43.00902" lon="-1.85939">
        <ele>642.0</ele>
      </trkpt>
      <trkpt lat="43.00869" lon="-1.85821">
        <ele>640.0</ele>
      </trkpt>
      <trkpt lat="43.00744" lon="-1.85627">
        <ele>640.0</ele>
      </trkpt>
      <trkpt lat="43.00689" lon="-1.85464">
        <ele>643.0</ele>
      </trkpt>
      <trkpt lat="43.00729" lon="-1.85295">
        <ele>651.0</ele>
      </trkpt>
      <trkpt lat="43.00794" lon="-1.85144">
        <ele>664.0</ele>
      </trkpt>
      <trkpt lat="43.00834" lon="-1.85096">
        <ele>669.0</ele>
      </trkpt>
      <trkpt lat="43.00839" lon="-1.85032">
        <ele>675.0</ele>
      </trkpt>
      <trkpt lat="43.00967" lon="-1.84757">
        <ele>684.0</ele>
      </trkpt>
      <trkpt lat="43.00996" lon="-1.84667">
        <ele>699.0</ele>
      </trkpt>
      <trkpt lat="43.00998" lon="-1.84572">
        <ele>709.0</ele>
      </trkpt>
      <trkpt lat="43.01052" lon="-1.84459">
        <ele>724.0</ele>
      </trkpt>
      <trkpt lat="43.01065" lon="-1.84405">
        <ele>727.0</ele>
      </trkpt>
      <trkpt lat="43.01078" lon="-1.84264">
        <ele>734.0</ele>
      </trkpt>
      <trkpt lat="43.01042" lon="-1.83975">
        <ele>748.0</ele>
      </trkpt>
      <trkpt lat="43.01054" lon="-1.83871">
        <ele>757.0</ele>
      </trkpt>
      <trkpt lat="43.01203" lon="-1.83536">
        <ele>773.0</ele>
      </trkpt>
      <trkpt lat="43.01311" lon="-1.83479">
        <ele>781.0</ele>
      </trkpt>
      <trkpt lat="43.01421" lon="-1.83373">
        <ele>787.0</ele>
      </trkpt>
      <trkpt lat="43.01559" lon="-1.83323">
        <ele>786.0</ele>
      </trkpt>
      <trkpt lat="43.01576" lon="-1.83329">
        <ele>785.0</ele>
      </trkpt>
      <trkpt lat="43.01715" lon="-1.83144">
        <ele>779.0</ele>
      </trkpt>
      <trkpt lat="43.01827" lon="-1.83047">
        <ele>772.0</ele>
      </trkpt>
      <trkpt lat="43.01876" lon="-1.83036">
        <ele>766.0</ele>
      </trkpt>
      <trkpt lat="43.01903" lon="-1.82921">
        <ele>758.0</ele>
      </trkpt>
      <trkpt lat="43.01885" lon="-1.82777">
        <ele>749.0</ele>
      </trkpt>
      <trkpt lat="43.01931" lon="-1.82657">
        <ele>742.0</ele>
      </trkpt>
      <trkpt lat="43.01951" lon="-1.82675">
        <ele>735.0</ele>
      </trkpt>
      <trkpt lat="43.01944" lon="-1.82746">
        <ele>733.0</ele>
      </trkpt>
      <trkpt lat="43.01954" lon="-1.82761">
        <ele>732.0</ele>
      </trkpt>
      <trkpt lat="43.0197" lon="-1.8275">
        <ele>731.0</ele>
      </trkpt>
      <trkpt lat="43.01998" lon="-1.82652">
        <ele>729.0</ele>
      </trkpt>
      <trkpt lat="43.02026" lon="-1.82642">
        <ele>726.0</ele>
      </trkpt>
      <trkpt lat="43.02096" lon="-1.82762">
        <ele>718.0</ele>
      </trkpt>
      <trkpt lat="43.02149" lon="-1.82789">
        <ele>713.0</ele>
      </trkpt>
      <trkpt lat="43.02216" lon="-1.82774">
        <ele>709.0</ele>
      </trkpt>
      <trkpt lat="43.0222" lon="-1.82788">
        <ele>707.0</ele>
      </trkpt>
      <trkpt lat="43.02194" lon="-1.8282">
        <ele>706.0</ele>
      </trkpt>
      <trkpt lat="43.02199" lon="-1.82838">
        <ele>705.0</ele>
      </trkpt>
      <trkpt lat="43.02255" lon="-1.82848">
        <ele>703.0</ele>
      </trkpt>
      <trkpt lat="43.02365" lon="-1.82775">
        <ele>691.0</ele>
      </trkpt>
      <trkpt lat="43.02361" lon="-1.82708">
        <ele>682.0</ele>
      </trkpt>
      <trkpt lat="43.02375" lon="-1.8268">
        <ele>679.0</ele>
      </trkpt>
      <trkpt lat="43.02418" lon="-1.82652">
        <ele>678.0</ele>
      </trkpt>
      <trkpt lat="43.02477" lon="-1.8267">
        <ele>679.0</ele>
      </trkpt>
      <trkpt lat="43.02488" lon="-1.82656">
        <ele>680.0</ele>
      </trkpt>
      <trkpt lat="43.02364" lon="-1.8255">
        <ele>673.0</ele>
      </trkpt>
      <trkpt lat="43.02329" lon="-1.82493">
        <ele>669.0</ele>
      </trkpt>
      <trkpt lat="43.0226" lon="-1.82425">
        <ele>663.0</ele>
      </trkpt>
      <trkpt lat="43.02087" lon="-1.82385">
        <ele>664.0</ele>
      </trkpt>
      <trkpt lat="43.02052" lon="-1.8236">
        <ele>663.0</ele>
      </trkpt>
      <trkpt lat="43.02025" lon="-1.823">
        <ele>662.0</ele>
      </trkpt>
      <trkpt lat="43.01862" lon="-1.82206">
        <ele>656.0</ele>
      </trkpt>
      <trkpt lat="43.01822" lon="-1.82211">
        <ele>652.0</ele>
      </trkpt>
      <trkpt lat="43.01769" lon="-1.82249">
        <ele>649.0</ele>
      </trkpt>
      <trkpt lat="43.01614" lon="-1.82255">
        <ele>644.0</ele>
      </trkpt>
      <trkpt lat="43.01549" lon="-1.82309">
        <ele>638.0</ele>
      </trkpt>
      <trkpt lat="43.01394" lon="-1.82198">
        <ele>629.0</ele>
      </trkpt>
      <trkpt lat="43.0127" lon="-1.82214">
        <ele>628.0</ele>
      </trkpt>
      <trkpt lat="43.01167" lon="-1.82095">
        <ele>620.0</ele>
      </trkpt>
      <trkpt lat="43.01081" lon="-1.82081">
        <ele>611.0</ele>
      </trkpt>
      <trkpt lat="43.00921" lon="-1.81965">
        <ele>605.0</ele>
      </trkpt>
      <trkpt lat="43.00802" lon="-1.81789">
        <ele>600.0</ele>
      </trkpt>
      <trkpt lat="43.00695" lon="-1.8169">
        <ele>594.0</ele>
      </trkpt>
      <trkpt lat="43.00577" lon="-1.81638">
        <ele>590.0</ele>
      </trkpt>
      <trkpt lat="43.00508" lon="-1.81587">
        <ele>585.0</ele>
      </trkpt>
      <trkpt lat="43.00473" lon="-1.8153">
        <ele>584.0</ele>
      </trkpt>
      <trkpt lat="43.00503" lon="-1.81392">
        <ele>581.0</ele>
      </trkpt>
      <trkpt lat="43.00433" lon="-1.81091">
        <ele>574.0</ele>
      </trkpt>
      <trkpt lat="43.00378" lon="-1.80927">
        <ele>571.0</ele>
      </trkpt>
      <trkpt lat="43.0029" lon="-1.80763">
        <ele>567.0</ele>
      </trkpt>
      <trkpt lat="43.00198" lon="-1.8044">
        <ele>561.0</ele>
      </trkpt>
      <trkpt lat="43.00176" lon="-1.80307">
        <ele>557.0</ele>
      </trkpt>
      <trkpt lat="43.00104" lon="-1.8021">
        <ele>552.0</ele>
      </trkpt>
      <trkpt lat="43.00068" lon="-1.8019">
        <ele>551.0</ele>
      </trkpt>
      <trkpt lat="43.00025" lon="-1.8017">
        <ele>550.0</ele>
      </trkpt>
      <trkpt lat="42.99688" lon="-1.80411">
        <ele>547.0</ele>
      </trkpt>
      <trkpt lat="42.99577" lon="-1.80659">
        <ele>546.0</ele>
      </trkpt>
      <trkpt lat="42.99498" lon="-1.80793">
        <ele>541.0</ele>
      </trkpt>
      <trkpt lat="42.9943" lon="-1.81024">
        <ele>537.0</ele>
      </trkpt>
      <trkpt lat="42.99385" lon="-1.81104">
        <ele>536.0</ele>
      </trkpt>
      <trkpt lat="42.99268" lon="-1.81195">
        <ele>536.0</ele>
      </trkpt>
      <trkpt lat="42.99189" lon="-1.81238">
        <ele>535.0</ele>
      </trkpt>
      <trkpt lat="42.99136" lon="-1.81247">
        <ele>534.0</ele>
      </trkpt>
      <trkpt lat="42.99076" lon="-1.812">
        <ele>534.0</ele>
      </trkpt>
      <trkpt lat="42.99054" lon="-1.81091">
        <ele>533.0</ele>
      </trkpt>
      <trkpt lat="42.99034" lon="-1.81071">
        <ele>532.0</ele>
      </trkpt>
      <trkpt lat="42.98992" lon="-1.81066">
        <ele>529.0</ele>
      </trkpt>
      <trkpt lat="42.98996" lon="-1.80985">
        <ele>526.0</ele>
      </trkpt>
      <trkpt lat="42.98974" lon="-1.80869">
        <ele>526.0</ele>
      </trkpt>
      <trkpt lat="42.9888" lon="-1.80731">
        <ele>535.0</ele>
      </trkpt>
      <trkpt lat="42.98839" lon="-1.80696">
        <ele>542.0</ele>
      </trkpt>
      <trkpt lat="42.98802" lon="-1.80702">
        <ele>546.0</ele>
      </trkpt>
      <trkpt lat="42.98779" lon="-1.80756">
        <ele>549.0</ele>
      </trkpt>
      <trkpt lat="42.98724" lon="-1.80772">
        <ele>552.0</ele>
      </trkpt>
      <trkpt lat="42.98686" lon="-1.80754">
        <ele>555.0</ele>
      </trkpt>
      <trkpt lat="42.98665" lon="-1.80726">
        <ele>557.0</ele>
      </trkpt>
      <trkpt lat="42.98667" lon="-1.80662">
        <ele>560.0</ele>
      </trkpt>
      <trkpt lat="42.98641" lon="-1.80629">
        <ele>563.0</ele>
      </trkpt>
      <trkpt lat="42.98558" lon="-1.80641">
        <ele>566.0</ele>
      </trkpt>
      <trkpt lat="42.9849" lon="-1.80604">
        <ele>565.0</ele>
      </trkpt>
      <trkpt lat="42.98426" lon="-1.80625">
        <ele>565.0</ele>
      </trkpt>
      <trkpt lat="42.98247" lon="-1.80643">
        <ele>565.0</ele>
      </trkpt>
      <trkpt lat="42.98118" lon="-1.80621">
        <ele>567.0</ele>
      </trkpt>
      <trkpt lat="42.97947" lon="-1.80553">
        <ele>573.0</ele>
      </trkpt>
      <trkpt lat="42.97783" lon="-1.80448">
        <ele>584.0</ele>
      </trkpt>
      <trkpt lat="42.97742" lon="-1.80449">
        <ele>588.0</ele>
      </trkpt>
      <trkpt lat="42.97682" lon="-1.8049">
        <ele>593.0</ele>
      </trkpt>
      <trkpt lat="42.97452" lon="-1.80455">
        <ele>603.0</ele>
      </trkpt>
      <trkpt lat="42.97409" lon="-1.80296">
        <ele>604.0</ele>
      </trkpt>
      <trkpt lat="42.97323" lon="-1.80125">
        <ele>603.0</ele>
      </trkpt>
      <trkpt lat="42.97286" lon="-1.80016">
        <ele>602.0</ele>
      </trkpt>
      <trkpt lat="42.97221" lon="-1.79922">
        <ele>601.0</ele>
      </trkpt>
      <trkpt lat="42.97182" lon="-1.79701">
        <ele>599.0</ele>
      </trkpt>
      <trkpt lat="42.97189" lon="-1.79547">
        <ele>596.0</ele>
      </trkpt>
      <trkpt lat="42.97086" lon="-1.79493">
        <ele>596.0</ele>
      </trkpt>
      <trkpt lat="42.96908" lon="-1.79275">
        <ele>597.0</ele>
      </trkpt>
      <trkpt lat="42.96851" lon="-1.79246">
        <ele>597.0</ele>
      </trkpt>
      <trkpt lat="42.96793" lon="-1.79171">
        <ele>594.0</ele>
      </trkpt>
      <trkpt lat="42.96755" lon="-1.79171">
        <ele>593.0</ele>
      </trkpt>
      <trkpt lat="42.96729" lon="-1.79221">
        <ele>592.0</ele>
      </trkpt>
      <trkpt lat="42.96687" lon="-1.79244">
        <ele>589.0</ele>
      </trkpt>
      <trkpt lat="42.96646" lon="-1.79215">
        <ele>586.0</ele>
      </trkpt>
      <trkpt lat="42.96588" lon="-1.7913">
        <ele>579.0</ele>
      </trkpt>
      <trkpt lat="42.96555" lon="-1.79144">
        <ele>577.0</ele>
      </trkpt>
      <trkpt lat="42.96512" lon="-1.79204">
        <ele>573.0</ele>
      </trkpt>
      <trkpt lat="42.9649" lon="-1.79191">
        <ele>572.0</ele>
      </trkpt>
      <trkpt lat="42.96453" lon="-1.79124">
        <ele>569.0</ele>
      </trkpt>
      <trkpt lat="42.96375" lon="-1.7911">
        <ele>566.0</ele>
      </trkpt>
      <trkpt lat="42.96281" lon="-1.79173">
        <ele>560.0</ele>
      </trkpt>
      <trkpt lat="42.9623" lon="-1.79262">
        <ele>557.0</ele>
      </trkpt>
      <trkpt lat="42.96143" lon="-1.79134">
        <ele>552.0</ele>
      </trkpt>
      <trkpt lat="42.96025" lon="-1.79057">
        <ele>542.0</ele>
      </trkpt>
      <trkpt lat="42.9598" lon="-1.79049">
        <ele>536.0</ele>
      </trkpt>
      <trkpt lat="42.95928" lon="-1.79219">
        <ele>533.0</ele>
      </trkpt>
      <trkpt lat="42.9584" lon="-1.79235">
        <ele>533.0</ele>
      </trkpt>
      <trkpt lat="42.95827" lon="-1.7926">
        <ele>534.0</ele>
      </trkpt>
      <trkpt lat="42.95941" lon="-1.79393">
        <ele>539.0</ele>
      </trkpt>
      <trkpt lat="42.96003" lon="-1.79537">
        <ele>536.0</ele>
      </trkpt>
      <trkpt lat="42.96076" lon="-1.79619">
        <ele>533.0</ele>
      </trkpt>
      <trkpt lat="42.96075" lon="-1.79657">
        <ele>534.0</ele>
      </trkpt>
      <trkpt lat="42.96014" lon="-1.79669">
        <ele>535.0</ele>
      </trkpt>
      <trkpt lat="42.95949" lon="-1.79772">
        <ele>537.0</ele>
      </trkpt>
      <trkpt lat="42.95895" lon="-1.79818">
        <ele>540.0</ele>
      </trkpt>
      <trkpt lat="42.9586" lon="-1.79826">
        <ele>541.0</ele>
      </trkpt>
      <trkpt lat="42.95793" lon="-1.79805">
        <ele>544.0</ele>
      </trkpt>
      <trkpt lat="42.95774" lon="-1.79819">
        <ele>545.0</ele>
      </trkpt>
      <trkpt lat="42.95755" lon="-1.79872">
        <ele>546.0</ele>
      </trkpt>
      <trkpt lat="42.95727" lon="-1.80044">
        <ele>547.0</ele>
      </trkpt>
      <trkpt lat="42.95686" lon="-1.80121">
        <ele>543.0</ele>
      </trkpt>
      <trkpt lat="42.95579" lon="-1.80164">
        <ele>537.0</ele>
      </trkpt>
      <trkpt lat="42.95456" lon="-1.80261">
        <ele>534.0</ele>
      </trkpt>
      <trkpt lat="42.95376" lon="-1.80269">
        <ele>533.0</ele>
      </trkpt>
      <trkpt lat="42.95305" lon="-1.80203">
        <ele>528.0</ele>
      </trkpt>
      <trkpt lat="42.95263" lon="-1.80186">
        <ele>525.0</ele>
      </trkpt>
      <trkpt lat="42.95191" lon="-1.80232">
        <ele>521.0</ele>
      </trkpt>
      <trkpt lat="42.95043" lon="-1.80542">
        <ele>510.0</ele>
      </trkpt>
      <trkpt lat="42.94911" lon="-1.80658">
        <ele>506.0</ele>
      </trkpt>
      <trkpt lat="42.94889" lon="-1.80733">
        <ele>503.0</ele>
      </trkpt>
      <trkpt lat="42.94879" lon="-1.80873">
        <ele>502.0</ele>
      </trkpt>
      <trkpt lat="42.94887" lon="-1.81014">
        <ele>500.0</ele>
      </trkpt>
      <trkpt lat="42.94877" lon="-1.81077">
        <ele>500.0</ele>
      </trkpt>
      <trkpt lat="42.94923" lon="-1.81434">
        <ele>502.0</ele>
      </trkpt>
      <trkpt lat="42.94949" lon="-1.81548">
        <ele>501.0</ele>
      </trkpt>
      <trkpt lat="42.94985" lon="-1.81623">
        <ele>500.0</ele>
      </trkpt>
      <trkpt lat="42.95071" lon="-1.81895">
        <ele>501.0</ele>
      </trkpt>
      <trkpt lat="42.95113" lon="-1.82078">
        <ele>504.0</ele>
      </trkpt>
      <trkpt lat="42.9517" lon="-1.82167">
        <ele>503.0</ele>
      </trkpt>
      <trkpt lat="42.95316" lon="-1.82203">
        <ele>497.0</ele>
      </trkpt>
      <trkpt lat="42.9537" lon="-1.82244">
        <ele>491.0</ele>
      </trkpt>
      <trkpt lat="42.95486" lon="-1.82292">
        <ele>480.0</ele>
      </trkpt>
      <trkpt lat="42.95486" lon="-1.82323">
        <ele>478.0</ele>
      </trkpt>
      <trkpt lat="42.95399" lon="-1.82342">
        <ele>473.0</ele>
      </trkpt>
      <trkpt lat="42.95366" lon="-1.82447">
        <ele>470.0</ele>
      </trkpt>
      <trkpt lat="42.95318" lon="-1.82447">
        <ele>470.0</ele>
      </trkpt>
      <trkpt lat="42.95248" lon="-1.82422">
        <ele>470.0</ele>
      </trkpt>
      <trkpt lat="42.95228" lon="-1.82447">
        <ele>471.0</ele>
      </trkpt>
      <trkpt lat="42.95217" lon="-1.82526">
        <ele>471.0</ele>
      </trkpt>
      <trkpt lat="42.95189" lon="-1.82576">
        <ele>472.0</ele>
      </trkpt>
      <trkpt lat="42.95138" lon="-1.82587">
        <ele>472.0</ele>
      </trkpt>
      <trkpt lat="42.95132" lon="-1.82616">
        <ele>472.0</ele>
      </trkpt>
      <trkpt lat="42.9509" lon="-1.82628">
        <ele>473.0</ele>
      </trkpt>
      <trkpt lat="42.9492" lon="-1.8278">
        <ele>474.0</ele>
      </trkpt>
      <trkpt lat="42.94797" lon="-1.82838">
        <ele>477.0</ele>
      </trkpt>
      <trkpt lat="42.94489" lon="-1.82941">
        <ele>476.0</ele>
      </trkpt>
      <trkpt lat="42.9446" lon="-1.8294">
        <ele>474.0</ele>
      </trkpt>
      <trkpt lat="42.94434" lon="-1.82908">
        <ele>473.0</ele>
      </trkpt>
      <trkpt lat="42.94309" lon="-1.8249">
        <ele>470.0</ele>
      </trkpt>
      <trkpt lat="42.94259" lon="-1.82365">
        <ele>472.0</ele>
      </trkpt>
      <trkpt lat="42.94212" lon="-1.82311">
        <ele>471.0</ele>
      </trkpt>
      <trkpt lat="42.94183" lon="-1.82304">
        <ele>471.0</ele>
      </trkpt>
      <trkpt lat="42.94042" lon="-1.82379">
        <ele>468.0</ele>
      </trkpt>
      <trkpt lat="42.94002" lon="-1.82438">
        <ele>467.0</ele>
      </trkpt>
      <trkpt lat="42.93978" lon="-1.82546">
        <ele>467.0</ele>
      </trkpt>
      <trkpt lat="42.93962" lon="-1.82572">
        <ele>467.0</ele>
      </trkpt>
      <trkpt lat="42.93774" lon="-1.82676">
        <ele>477.0</ele>
      </trkpt>
      <trkpt lat="42.93668" lon="-1.8292">
        <ele>478.0</ele>
      </trkpt>
      <trkpt lat="42.93629" lon="-1.82962">
        <ele>476.0</ele>
      </trkpt>
      <trkpt lat="42.93564" lon="-1.82966">
        <ele>474.0</ele>
      </trkpt>
      <trkpt lat="42.93446" lon="-1.82907">
        <ele>475.0</ele>
      </trkpt>
      <trkpt lat="42.93381" lon="-1.82833">
        <ele>478.0</ele>
      </trkpt>
      <trkpt lat="42.933" lon="-1.82843">
        <ele>477.0</ele>
      </trkpt>
      <trkpt lat="42.93183" lon="-1.82813">
        <ele>476.0</ele>
      </trkpt>
      <trkpt lat="42.93082" lon="-1.82737">
        <ele>479.0</ele>
      </trkpt>
      <trkpt lat="42.92977" lon="-1.82695">
        <ele>483.0</ele>
      </trkpt>
      <trkpt lat="42.92633" lon="-1.82751">
        <ele>487.0</ele>
      </trkpt>
      <trkpt lat="42.92556" lon="-1.82783">
        <ele>481.0</ele>
      </trkpt>
      <trkpt lat="42.9246" lon="-1.8291">
        <ele>472.0</ele>
      </trkpt>
      <trkpt lat="42.92375" lon="-1.83118">
        <ele>459.0</ele>
      </trkpt>
      <trkpt lat="42.92349" lon="-1.83149">
        <ele>452.0</ele>
      </trkpt>
      <trkpt lat="42.92191" lon="-1.83092">
        <ele>444.0</ele>
      </trkpt>
      <trkpt lat="42.92183" lon="-1.8311">
        <ele>444.0</ele>
      </trkpt>
      <trkpt lat="42.9194" lon="-1.83051">
        <ele>446.0</ele>
      </trkpt>
      <trkpt lat="42.91906" lon="-1.83064">
        <ele>444.0</ele>
      </trkpt>
      <trkpt lat="42.91889" lon="-1.83134">
        <ele>442.0</ele>
      </trkpt>
      <trkpt lat="42.91865" lon="-1.8348">
        <ele>436.0</ele>
      </trkpt>
      <trkpt lat="42.91875" lon="-1.83502">
        <ele>434.0</ele>
      </trkpt>
      <trkpt lat="42.91862" lon="-1.83511">
        <ele>434.0</ele>
      </trkpt>
      <trkpt lat="42.91854" lon="-1.837">
        <ele>433.0</ele>
      </trkpt>
      <trkpt lat="42.91861" lon="-1.83741">
        <ele>434.0</ele>
      </trkpt>
      <trkpt lat="42.91908" lon="-1.83826">
        <ele>438.0</ele>
      </trkpt>
      <trkpt lat="42.91906" lon="-1.83863">
        <ele>441.0</ele>
      </trkpt>
      <trkpt lat="42.91751" lon="-1.84274">
        <ele>450.0</ele>
      </trkpt>
      <trkpt lat="42.91705" lon="-1.84593">
        <ele>438.0</ele>
      </trkpt>
      <trkpt lat="42.91381" lon="-1.85746">
        <ele>455.0</ele>
      </trkpt>
      <trkpt lat="42.91269" lon="-1.86331">
        <ele>467.0</ele>
      </trkpt>
      <trkpt lat="42.91264" lon="-1.86518">
        <ele>475.0</ele>
      </trkpt>
      <trkpt lat="42.91255" lon="-1.86531">
        <ele>476.0</ele>
      </trkpt>
      <trkpt lat="42.91238" lon="-1.86516">
        <ele>477.0</ele>
      </trkpt>
      <trkpt lat="42.91165" lon="-1.8653">
        <ele>479.0</ele>
      </trkpt>
      <trkpt lat="42.91138" lon="-1.86554">
        <ele>482.0</ele>
      </trkpt>
      <trkpt lat="42.91126" lon="-1.86539">
        <ele>483.0</ele>
      </trkpt>
      <trkpt lat="42.91036" lon="-1.86555">
        <ele>484.0</ele>
      </trkpt>
      <trkpt lat="42.90937" lon="-1.86542">
        <ele>491.0</ele>
      </trkpt>
      <trkpt lat="42.90901" lon="-1.86576">
        <ele>495.0</ele>
      </trkpt>
      <trkpt lat="42.90885" lon="-1.86634">
        <ele>497.0</ele>
      </trkpt>
      <trkpt lat="42.90914" lon="-1.87254">
        <ele>498.0</ele>
      </trkpt>
      <trkpt lat="42.90881" lon="-1.87766">
        <ele>482.0</ele>
      </trkpt>
      <trkpt lat="42.90965" lon="-1.88406">
        <ele>481.0</ele>
      </trkpt>
      <trkpt lat="42.9098" lon="-1.88441">
        <ele>479.0</ele>
      </trkpt>
      <trkpt lat="42.91018" lon="-1.88473">
        <ele>476.0</ele>
      </trkpt>
      <trkpt lat="42.91223" lon="-1.88457">
        <ele>471.0</ele>
      </trkpt>
      <trkpt lat="42.91306" lon="-1.8852">
        <ele>465.0</ele>
      </trkpt>
      <trkpt lat="42.91452" lon="-1.88499">
        <ele>457.0</ele>
      </trkpt>
      <trkpt lat="42.91434" lon="-1.8886">
        <ele>452.0</ele>
      </trkpt>
      <trkpt lat="42.91442" lon="-1.89238">
        <ele>443.0</ele>
      </trkpt>
      <trkpt lat="42.91486" lon="-1.89247">
        <ele>442.0</ele>
      </trkpt>
      <trkpt lat="42.91486" lon="-1.89357">
        <ele>444.0</ele>
      </trkpt>
      <trkpt lat="42.91529" lon="-1.89421">
        <ele>447.0</ele>
      </trkpt>
      <trkpt lat="42.91856" lon="-1.91851">
        <ele>459.0</ele>
      </trkpt>
      <trkpt lat="42.91905" lon="-1.93202">
        <ele>461.0</ele>
      </trkpt>
      <trkpt lat="42.9186" lon="-1.93919">
        <ele>469.0</ele>
      </trkpt>
      <trkpt lat="42.91894" lon="-1.94128">
        <ele>471.0</ele>
      </trkpt>
      <trkpt lat="42.91905" lon="-1.94413">
        <ele>474.0</ele>
      </trkpt>
      <trkpt lat="42.91995" lon="-1.94678">
        <ele>469.0</ele>
      </trkpt>
      <trkpt lat="42.92034" lon="-1.95245">
        <ele>461.0</ele>
      </trkpt>
      <trkpt lat="42.92068" lon="-1.95461">
        <ele>462.0</ele>
      </trkpt>
      <trkpt lat="42.92106" lon="-1.95552">
        <ele>462.0</ele>
      </trkpt>
      <trkpt lat="42.92379" lon="-1.95993">
        <ele>462.0</ele>
      </trkpt>
      <trkpt lat="42.92407" lon="-1.96113">
        <ele>463.0</ele>
      </trkpt>
      <trkpt lat="42.92426" lon="-1.96377">
        <ele>464.0</ele>
      </trkpt>
      <trkpt lat="42.92441" lon="-1.96331">
        <ele>466.0</ele>
      </trkpt>
      <trkpt lat="42.92456" lon="-1.96195">
        <ele>473.0</ele>
      </trkpt>
      <trkpt lat="42.92533" lon="-1.96096">
        <ele>482.0</ele>
      </trkpt>
      <trkpt lat="42.9258" lon="-1.9597">
        <ele>500.0</ele>
      </trkpt>
      <trkpt lat="42.92658" lon="-1.95877">
        <ele>512.0</ele>
      </trkpt>
      <trkpt lat="42.92892" lon="-1.957">
        <ele>545.0</ele>
      </trkpt>
      <trkpt lat="42.92992" lon="-1.95599">
        <ele>554.0</ele>
      </trkpt>
      <trkpt lat="42.93129" lon="-1.95365">
        <ele>574.0</ele>
      </trkpt>
      <trkpt lat="42.93209" lon="-1.95275">
        <ele>584.0</ele>
      </trkpt>
      <trkpt lat="42.93289" lon="-1.95081">
        <ele>594.0</ele>
      </trkpt>
      <trkpt lat="42.93401" lon="-1.94941">
        <ele>605.0</ele>
      </trkpt>
      <trkpt lat="42.93426" lon="-1.94936">
        <ele>613.0</ele>
      </trkpt>
      <trkpt lat="42.93511" lon="-1.9508">
        <ele>622.0</ele>
      </trkpt>
      <trkpt lat="42.93583" lon="-1.95145">
        <ele>622.0</ele>
      </trkpt>
      <trkpt lat="42.93659" lon="-1.95152">
        <ele>625.0</ele>
      </trkpt>
      <trkpt lat="42.93723" lon="-1.95118">
        <ele>630.0</ele>
      </trkpt>
      <trkpt lat="42.93798" lon="-1.94833">
        <ele>643.0</ele>
      </trkpt>
      <trkpt lat="42.93857" lon="-1.947">
        <ele>652.0</ele>
      </trkpt>
      <trkpt lat="42.93875" lon="-1.94592">
        <ele>660.0</ele>
      </trkpt>
      <trkpt lat="42.93937" lon="-1.9448">
        <ele>675.0</ele>
      </trkpt>
      <trkpt lat="42.93959" lon="-1.94367">
        <ele>686.0</ele>
      </trkpt>
      <trkpt lat="42.94021" lon="-1.9418">
        <ele>705.0</ele>
      </trkpt>
      <trkpt lat="42.9403" lon="-1.94062">
        <ele>717.0</ele>
      </trkpt>
      <trkpt lat="42.9408" lon="-1.93981">
        <ele>726.0</ele>
      </trkpt>
      <trkpt lat="42.94114" lon="-1.93966">
        <ele>732.0</ele>
      </trkpt>
      <trkpt lat="42.94202" lon="-1.93866">
        <ele>742.0</ele>
      </trkpt>
      <trkpt lat="42.94259" lon="-1.93824">
        <ele>750.0</ele>
      </trkpt>
      <trkpt lat="42.94271" lon="-1.93849">
        <ele>752.0</ele>
      </trkpt>
      <trkpt lat="42.94274" lon="-1.93927">
        <ele>756.0</ele>
      </trkpt>
      <trkpt lat="42.94249" lon="-1.94131">
        <ele>770.0</ele>
      </trkpt>
      <trkpt lat="42.94275" lon="-1.94162">
        <ele>779.0</ele>
      </trkpt>
      <trkpt lat="42.94321" lon="-1.94149">
        <ele>785.0</ele>
      </trkpt>
      <trkpt lat="42.94429" lon="-1.93979">
        <ele>797.0</ele>
      </trkpt>
      <trkpt lat="42.9444" lon="-1.93896">
        <ele>798.0</ele>
      </trkpt>
      <trkpt lat="42.94475" lon="-1.93801">
        <ele>800.0</ele>
      </trkpt>
      <trkpt lat="42.94546" lon="-1.9372">
        <ele>811.0</ele>
      </trkpt>
      <trkpt lat="42.94536" lon="-1.93267">
        <ele>841.0</ele>
      </trkpt>
      <trkpt lat="42.94554" lon="-1.93265">
        <ele>844.0</ele>
      </trkpt>
      <trkpt lat="42.94577" lon="-1.93368">
        <ele>850.0</ele>
      </trkpt>
      <trkpt lat="42.94597" lon="-1.93388">
        <ele>855.0</ele>
      </trkpt>
      <trkpt lat="42.94636" lon="-1.93343">
        <ele>860.0</ele>
      </trkpt>
      <trkpt lat="42.94651" lon="-1.93262">
        <ele>864.0</ele>
      </trkpt>
      <trkpt lat="42.94693" lon="-1.93176">
        <ele>864.0</ele>
      </trkpt>
      <trkpt lat="42.94737" lon="-1.93139">
        <ele>864.0</ele>
      </trkpt>
      <trkpt lat="42.94774" lon="-1.93148">
        <ele>866.0</ele>
      </trkpt>
      <trkpt lat="42.94799" lon="-1.93212">
        <ele>869.0</ele>
      </trkpt>
      <trkpt lat="42.94871" lon="-1.93785">
        <ele>901.0</ele>
      </trkpt>
      <trkpt lat="42.94857" lon="-1.94283">
        <ele>922.0</ele>
      </trkpt>
      <trkpt lat="42.94871" lon="-1.94834">
        <ele>962.0</ele>
      </trkpt>
      <trkpt lat="42.94863" lon="-1.95225">
        <ele>993.0</ele>
      </trkpt>
      <trkpt lat="42.94836" lon="-1.95369">
        <ele>1000.0</ele>
      </trkpt>
      <trkpt lat="42.94816" lon="-1.95385">
        <ele>1006.0</ele>
      </trkpt>
      <trkpt lat="42.94649" lon="-1.95139">
        <ele>1011.0</ele>
      </trkpt>
      <trkpt lat="42.94623" lon="-1.95135">
        <ele>1013.0</ele>
      </trkpt>
      <trkpt lat="42.94584" lon="-1.95191">
        <ele>1018.0</ele>
      </trkpt>
      <trkpt lat="42.94562" lon="-1.9532">
        <ele>1023.0</ele>
      </trkpt>
      <trkpt lat="42.94548" lon="-1.95647">
        <ele>1041.0</ele>
      </trkpt>
      <trkpt lat="42.94532" lon="-1.95772">
        <ele>1057.0</ele>
      </trkpt>
      <trkpt lat="42.94465" lon="-1.96122">
        <ele>1099.0</ele>
      </trkpt>
      <trkpt lat="42.94427" lon="-1.96183">
        <ele>1109.0</ele>
      </trkpt>
      <trkpt lat="42.94347" lon="-1.96373">
        <ele>1119.0</ele>
      </trkpt>
      <trkpt lat="42.9434" lon="-1.9644">
        <ele>1124.0</ele>
      </trkpt>
      <trkpt lat="42.94348" lon="-1.96526">
        <ele>1128.0</ele>
      </trkpt>
      <trkpt lat="42.94358" lon="-1.96553">
        <ele>1131.0</ele>
      </trkpt>
      <trkpt lat="42.94374" lon="-1.96559">
        <ele>1132.0</ele>
      </trkpt>
      <trkpt lat="42.94394" lon="-1.9643">
        <ele>1140.0</ele>
      </trkpt>
      <trkpt lat="42.94415" lon="-1.96412">
        <ele>1144.0</ele>
      </trkpt>
      <trkpt lat="42.94437" lon="-1.96418">
        <ele>1147.0</ele>
      </trkpt>
      <trkpt lat="42.94507" lon="-1.96571">
        <ele>1155.0</ele>
      </trkpt>
      <trkpt lat="42.94658" lon="-1.96979">
        <ele>1179.0</ele>
      </trkpt>
      <trkpt lat="42.94692" lon="-1.96977">
        <ele>1183.0</ele>
      </trkpt>
      <trkpt lat="42.94834" lon="-1.96785">
        <ele>1200.0</ele>
      </trkpt>
      <trkpt lat="42.94888" lon="-1.96745">
        <ele>1204.0</ele>
      </trkpt>
      <trkpt lat="42.94895" lon="-1.96754">
        <ele>1204.0</ele>
      </trkpt>
      <trkpt lat="42.94929" lon="-1.9686">
        <ele>1204.0</ele>
      </trkpt>
      <trkpt lat="42.94961" lon="-1.97028">
        <ele>1203.0</ele>
      </trkpt>
      <trkpt lat="42.9508" lon="-1.97353">
        <ele>1198.0</ele>
      </trkpt>
      <trkpt lat="42.95045" lon="-1.97511">
        <ele>1187.0</ele>
      </trkpt>
      <trkpt lat="42.95061" lon="-1.9771">
        <ele>1173.0</ele>
      </trkpt>
      <trkpt lat="42.95127" lon="-1.97904">
        <ele>1162.0</ele>
      </trkpt>
      <trkpt lat="42.95177" lon="-1.97948">
        <ele>1159.0</ele>
      </trkpt>
      <trkpt lat="42.95207" lon="-1.98001">
        <ele>1157.0</ele>
      </trkpt>
      <trkpt lat="42.95331" lon="-1.98039">
        <ele>1152.0</ele>
      </trkpt>
      <trkpt lat="42.95389" lon="-1.98136">
        <ele>1143.0</ele>
      </trkpt>
      <trkpt lat="42.95396" lon="-1.98325">
        <ele>1125.0</ele>
      </trkpt>
      <trkpt lat="42.95365" lon="-1.98514">
        <ele>1108.0</ele>
      </trkpt>
      <trkpt lat="42.95389" lon="-1.98654">
        <ele>1108.0</ele>
      </trkpt>
      <trkpt lat="42.9547" lon="-1.98803">
        <ele>1111.0</ele>
      </trkpt>
      <trkpt lat="42.95555" lon="-1.9888">
        <ele>1110.0</ele>
      </trkpt>
      <trkpt lat="42.9558" lon="-1.98953">
        <ele>1107.0</ele>
      </trkpt>
      <trkpt lat="42.95566" lon="-1.99249">
        <ele>1096.0</ele>
      </trkpt>
      <trkpt lat="42.95582" lon="-1.99396">
        <ele>1089.0</ele>
      </trkpt>
      <trkpt lat="42.95582" lon="-1.99618">
        <ele>1078.0</ele>
      </trkpt>
      <trkpt lat="42.95643" lon="-2.00142">
        <ele>1052.0</ele>
      </trkpt>
      <trkpt lat="42.95668" lon="-2.00183">
        <ele>1047.0</ele>
      </trkpt>
      <trkpt lat="42.95692" lon="-2.00183">
        <ele>1045.0</ele>
      </trkpt>
      <trkpt lat="42.957" lon="-2.00169">
        <ele>1043.0</ele>
      </trkpt>
      <trkpt lat="42.95742" lon="-1.99997">
        <ele>1038.0</ele>
      </trkpt>
      <trkpt lat="42.95819" lon="-1.99804">
        <ele>1027.0</ele>
      </trkpt>
      <trkpt lat="42.9586" lon="-1.99782">
        <ele>1023.0</ele>
      </trkpt>
      <trkpt lat="42.95968" lon="-1.99783">
        <ele>1017.0</ele>
      </trkpt>
      <trkpt lat="42.96195" lon="-1.9968">
        <ele>1004.0</ele>
      </trkpt>
      <trkpt lat="42.96243" lon="-1.99627">
        <ele>999.0</ele>
      </trkpt>
      <trkpt lat="42.96288" lon="-1.99509">
        <ele>994.0</ele>
      </trkpt>
      <trkpt lat="42.96307" lon="-1.99333">
        <ele>989.0</ele>
      </trkpt>
      <trkpt lat="42.96397" lon="-1.98892">
        <ele>979.0</ele>
      </trkpt>
      <trkpt lat="42.96569" lon="-1.98565">
        <ele>991.0</ele>
      </trkpt>
      <trkpt lat="42.96574" lon="-1.98525">
        <ele>995.0</ele>
      </trkpt>
      <trkpt lat="42.96556" lon="-1.98388">
        <ele>999.0</ele>
      </trkpt>
      <trkpt lat="42.96505" lon="-1.98304">
        <ele>1001.0</ele>
      </trkpt>
      <trkpt lat="42.96488" lon="-1.98252">
        <ele>1000.0</ele>
      </trkpt>
      <trkpt lat="42.96482" lon="-1.98031">
        <ele>998.0</ele>
      </trkpt>
      <trkpt lat="42.96466" lon="-1.97935">
        <ele>995.0</ele>
      </trkpt>
      <trkpt lat="42.96525" lon="-1.97742">
        <ele>990.0</ele>
      </trkpt>
      <trkpt lat="42.96545" lon="-1.97623">
        <ele>985.0</ele>
      </trkpt>
      <trkpt lat="42.96611" lon="-1.97532">
        <ele>975.0</ele>
      </trkpt>
      <trkpt lat="42.96668" lon="-1.97517">
        <ele>968.0</ele>
      </trkpt>
      <trkpt lat="42.96699" lon="-1.9749">
        <ele>964.0</ele>
      </trkpt>
      <trkpt lat="42.96774" lon="-1.97273">
        <ele>954.0</ele>
      </trkpt>
      <trkpt lat="42.96788" lon="-1.97059">
        <ele>950.0</ele>
      </trkpt>
      <trkpt lat="42.96825" lon="-1.96945">
        <ele>948.0</ele>
      </trkpt>
      <trkpt lat="42.96775" lon="-1.96756">
        <ele>948.0</ele>
      </trkpt>
      <trkpt lat="42.96794" lon="-1.96553">
        <ele>947.0</ele>
      </trkpt>
      <trkpt lat="42.96808" lon="-1.96498">
        <ele>946.0</ele>
      </trkpt>
      <trkpt lat="42.96872" lon="-1.96423">
        <ele>942.0</ele>
      </trkpt>
      <trkpt lat="42.96916" lon="-1.96319">
        <ele>939.0</ele>
      </trkpt>
      <trkpt lat="42.9693" lon="-1.96261">
        <ele>935.0</ele>
      </trkpt>
      <trkpt lat="42.96921" lon="-1.96137">
        <ele>928.0</ele>
      </trkpt>
      <trkpt lat="42.9697" lon="-1.96051">
        <ele>925.0</ele>
      </trkpt>
      <trkpt lat="42.96981" lon="-1.96009">
        <ele>921.0</ele>
      </trkpt>
      <trkpt lat="42.96974" lon="-1.95893">
        <ele>915.0</ele>
      </trkpt>
      <trkpt lat="42.96823" lon="-1.95517">
        <ele>890.0</ele>
      </trkpt>
      <trkpt lat="42.96826" lon="-1.95482">
        <ele>887.0</ele>
      </trkpt>
      <trkpt lat="42.96883" lon="-1.9537">
        <ele>880.0</ele>
      </trkpt>
      <trkpt lat="42.96929" lon="-1.952">
        <ele>868.0</ele>
      </trkpt>
      <trkpt lat="42.9691" lon="-1.95108">
        <ele>860.0</ele>
      </trkpt>
      <trkpt lat="42.96843" lon="-1.95035">
        <ele>854.0</ele>
      </trkpt>
      <trkpt lat="42.96829" lon="-1.95002">
        <ele>848.0</ele>
      </trkpt>
      <trkpt lat="42.96892" lon="-1.9487">
        <ele>839.0</ele>
      </trkpt>
      <trkpt lat="42.96897" lon="-1.94815">
        <ele>836.0</ele>
      </trkpt>
      <trkpt lat="42.96877" lon="-1.94704">
        <ele>828.0</ele>
      </trkpt>
      <trkpt lat="42.96913" lon="-1.94599">
        <ele>821.0</ele>
      </trkpt>
      <trkpt lat="42.96933" lon="-1.94489">
        <ele>811.0</ele>
      </trkpt>
      <trkpt lat="42.97021" lon="-1.94405">
        <ele>795.0</ele>
      </trkpt>
      <trkpt lat="42.9703" lon="-1.94263">
        <ele>789.0</ele>
      </trkpt>
      <trkpt lat="42.97001" lon="-1.94195">
        <ele>787.0</ele>
      </trkpt>
      <trkpt lat="42.97001" lon="-1.94164">
        <ele>786.0</ele>
      </trkpt>
      <trkpt lat="42.97058" lon="-1.94068">
        <ele>782.0</ele>
      </trkpt>
      <trkpt lat="42.97101" lon="-1.93881">
        <ele>770.0</ele>
      </trkpt>
      <trkpt lat="42.97168" lon="-1.937">
        <ele>759.0</ele>
      </trkpt>
      <trkpt lat="42.97228" lon="-1.9365">
        <ele>753.0</ele>
      </trkpt>
      <trkpt lat="42.97246" lon="-1.93555">
        <ele>749.0</ele>
      </trkpt>
      <trkpt lat="42.97241" lon="-1.93458">
        <ele>745.0</ele>
      </trkpt>
      <trkpt lat="42.97284" lon="-1.93341">
        <ele>739.0</ele>
      </trkpt>
      <trkpt lat="42.9731" lon="-1.93303">
        <ele>735.0</ele>
      </trkpt>
      <trkpt lat="42.9736" lon="-1.93278">
        <ele>732.0</ele>
      </trkpt>
      <trkpt lat="42.97483" lon="-1.93252">
        <ele>725.0</ele>
      </trkpt>
      <trkpt lat="42.97598" lon="-1.93192">
        <ele>721.0</ele>
      </trkpt>
      <trkpt lat="42.97624" lon="-1.93156">
        <ele>718.0</ele>
      </trkpt>
      <trkpt lat="42.9763" lon="-1.9307">
        <ele>715.0</ele>
      </trkpt>
      <trkpt lat="42.97583" lon="-1.92915">
        <ele>714.0</ele>
      </trkpt>
      <trkpt lat="42.97616" lon="-1.92601">
        <ele>706.0</ele>
      </trkpt>
      <trkpt lat="42.9765" lon="-1.92496">
        <ele>700.0</ele>
      </trkpt>
      <trkpt lat="42.97661" lon="-1.92332">
        <ele>694.0</ele>
      </trkpt>
      <trkpt lat="42.97698" lon="-1.92189">
        <ele>694.0</ele>
      </trkpt>
      <trkpt lat="42.97781" lon="-1.92085">
        <ele>695.0</ele>
      </trkpt>
      <trkpt lat="42.97912" lon="-1.92104">
        <ele>689.0</ele>
      </trkpt>
      <trkpt lat="42.98066" lon="-1.92072">
        <ele>684.0</ele>
      </trkpt>
      <trkpt lat="42.98215" lon="-1.92132">
        <ele>680.0</ele>
      </trkpt>
      <trkpt lat="42.98484" lon="-1.92049">
        <ele>676.0</ele>
      </trkpt>
      <trkpt lat="42.98556" lon="-1.91982">
        <ele>669.0</ele>
      </trkpt>
      <trkpt lat="42.98658" lon="-1.92056">
        <ele>663.0</ele>
      </trkpt>
      <trkpt lat="42.9869" lon="-1.92128">
        <ele>659.0</ele>
      </trkpt>
      <trkpt lat="42.98789" lon="-1.92208">
        <ele>652.0</ele>
      </trkpt>
      <trkpt lat="42.98844" lon="-1.92291">
        <ele>646.0</ele>
      </trkpt>
      <trkpt lat="42.98911" lon="-1.9229">
        <ele>641.0</ele>
      </trkpt>
      <trkpt lat="42.98944" lon="-1.92324">
        <ele>638.0</ele>
      </trkpt>
      <trkpt lat="42.9901" lon="-1.92319">
        <ele>636.0</ele>
      </trkpt>
      <trkpt lat="42.99058" lon="-1.92298">
        <ele>632.0</ele>
      </trkpt>
      <trkpt lat="42.99113" lon="-1.92318">
        <ele>629.0</ele>
      </trkpt>
      <trkpt lat="42.99191" lon="-1.92252">
        <ele>626.0</ele>
      </trkpt>
      <trkpt lat="42.99215" lon="-1.92186">
        <ele>627.0</ele>
      </trkpt>
      <trkpt lat="42.9924" lon="-1.92157">
        <ele>629.0</ele>
      </trkpt>
      <trkpt lat="42.99389" lon="-1.92124">
        <ele>633.0</ele>
      </trkpt>
      <trkpt lat="42.99471" lon="-1.92123">
        <ele>639.0</ele>
      </trkpt>
      <trkpt lat="42.99531" lon="-1.9204">
        <ele>641.0</ele>
      </trkpt>
      <trkpt lat="42.99664" lon="-1.91837">
        <ele>647.0</ele>
      </trkpt>
      <trkpt lat="42.99696" lon="-1.91766">
        <ele>652.0</ele>
      </trkpt>
      <trkpt lat="42.99726" lon="-1.91653">
        <ele>652.0</ele>
      </trkpt>
      <trkpt lat="42.99714" lon="-1.91486">
        <ele>647.0</ele>
      </trkpt>
      <trkpt lat="42.99789" lon="-1.91298">
        <ele>644.0</ele>
      </trkpt>
      <trkpt lat="42.99803" lon="-1.91066">
        <ele>641.0</ele>
      </trkpt>
      <trkpt lat="42.99798" lon="-1.9084">
        <ele>636.0</ele>
      </trkpt>
      <trkpt lat="42.99806" lon="-1.9069">
        <ele>635.0</ele>
      </trkpt>
      <trkpt lat="42.99827" lon="-1.90576">
        <ele>628.0</ele>
      </trkpt>
      <trkpt lat="42.9985" lon="-1.90193">
        <ele>611.0</ele>
      </trkpt>
      <trkpt lat="42.99847" lon="-1.90074">
        <ele>607.0</ele>
      </trkpt>
      <trkpt lat="42.99803" lon="-1.89911">
        <ele>596.0</ele>
      </trkpt>
      <trkpt lat="42.9974" lon="-1.89837">
        <ele>585.0</ele>
      </trkpt>
      <trkpt lat="42.99757" lon="-1.8976">
        <ele>578.0</ele>
      </trkpt>
      <trkpt lat="42.99752" lon="-1.89736">
        <ele>576.0</ele>
      </trkpt>
      <trkpt lat="42.99678" lon="-1.89668">
        <ele>569.0</ele>
      </trkpt>
      <trkpt lat="42.99673" lon="-1.89633">
        <ele>567.0</ele>
      </trkpt>
      <trkpt lat="42.99596" lon="-1.89608">
        <ele>565.0</ele>
      </trkpt>
      <trkpt lat="42.99504" lon="-1.89657">
        <ele>562.0</ele>
      </trkpt>
      <trkpt lat="42.99454" lon="-1.89606">
        <ele>561.0</ele>
      </trkpt>
      <trkpt lat="42.99411" lon="-1.89628">
        <ele>562.0</ele>
      </trkpt>
      <trkpt lat="42.9951" lon="-1.89522">
        <ele>565.0</ele>
      </trkpt>
      <trkpt lat="42.99509" lon="-1.89503">
        <ele>566.0</ele>
      </trkpt>
      <trkpt lat="42.99411" lon="-1.89541">
        <ele>573.0</ele>
      </trkpt>
      <trkpt lat="42.99315" lon="-1.89638">
        <ele>588.0</ele>
      </trkpt>
      <trkpt lat="42.99248" lon="-1.89633">
        <ele>593.0</ele>
      </trkpt>
      <trkpt lat="42.99179" lon="-1.89588">
        <ele>600.0</ele>
      </trkpt>
      <trkpt lat="42.99121" lon="-1.89588">
        <ele>605.0</ele>
      </trkpt>
      <trkpt lat="42.99084" lon="-1.89515">
        <ele>614.0</ele>
      </trkpt>
      <trkpt lat="42.9904" lon="-1.89466">
        <ele>617.0</ele>
      </trkpt>
      <trkpt lat="42.98979" lon="-1.89444">
        <ele>619.0</ele>
      </trkpt>
      <trkpt lat="42.98908" lon="-1.89274">
        <ele>620.0</ele>
      </trkpt>
      <trkpt lat="42.98806" lon="-1.89162">
        <ele>619.0</ele>
      </trkpt>
      <trkpt lat="42.98684" lon="-1.89126">
        <ele>623.0</ele>
      </trkpt>
      <trkpt lat="42.98631" lon="-1.89053">
        <ele>626.0</ele>
      </trkpt>
      <trkpt lat="42.98529" lon="-1.88972">
        <ele>629.0</ele>
      </trkpt>
      <trkpt lat="42.98506" lon="-1.88897">
        <ele>632.0</ele>
      </trkpt>
      <trkpt lat="42.98404" lon="-1.88904">
        <ele>638.0</ele>
      </trkpt>
      <trkpt lat="42.98281" lon="-1.88834">
        <ele>644.0</ele>
      </trkpt>
      <trkpt lat="42.98262" lon="-1.88804">
        <ele>651.0</ele>
      </trkpt>
      <trkpt lat="42.98262" lon="-1.88752">
        <ele>656.0</ele>
      </trkpt>
      <trkpt lat="42.98252" lon="-1.88734">
        <ele>657.0</ele>
      </trkpt>
      <trkpt lat="42.982" lon="-1.88738">
        <ele>659.0</ele>
      </trkpt>
      <trkpt lat="42.98095" lon="-1.88671">
        <ele>663.0</ele>
      </trkpt>
      <trkpt lat="42.98023" lon="-1.88591">
        <ele>665.0</ele>
      </trkpt>
      <trkpt lat="42.9798" lon="-1.88507">
        <ele>667.0</ele>
      </trkpt>
      <trkpt lat="42.97912" lon="-1.88466">
        <ele>665.0</ele>
      </trkpt>
      <trkpt lat="42.97868" lon="-1.88584">
        <ele>668.0</ele>
      </trkpt>
      <trkpt lat="42.97856" lon="-1.88686">
        <ele>676.0</ele>
      </trkpt>
      <trkpt lat="42.9781" lon="-1.88732">
        <ele>681.0</ele>
      </trkpt>
      <trkpt lat="42.9779" lon="-1.889">
        <ele>690.0</ele>
      </trkpt>
      <trkpt lat="42.9781" lon="-1.89104">
        <ele>700.0</ele>
      </trkpt>
      <trkpt lat="42.97795" lon="-1.89168">
        <ele>706.0</ele>
      </trkpt>
      <trkpt lat="42.97745" lon="-1.89196">
        <ele>712.0</ele>
      </trkpt>
      <trkpt lat="42.97631" lon="-1.8915">
        <ele>721.0</ele>
      </trkpt>
      <trkpt lat="42.97533" lon="-1.89169">
        <ele>726.0</ele>
      </trkpt>
      <trkpt lat="42.97525" lon="-1.89194">
        <ele>729.0</ele>
      </trkpt>
      <trkpt lat="42.97544" lon="-1.89293">
        <ele>740.0</ele>
      </trkpt>
      <trkpt lat="42.97436" lon="-1.89459">
        <ele>756.0</ele>
      </trkpt>
    </trkseg>
  </trk>
</gpx>