<?xml version="1.0" encoding="UTF-8"?>
<gpx xmlns="http://www.topografix.com/GPX/1/0" xmlns:xsi="http://www.w3.org/2001/XMLSchema-instance" xsi:schemaLocation="http://www.topografix.com/GPX/1/0 http://www.topografix.com/GPX/1/0/gpx.xsd" version="1.0" creator="GPSBabel - https://www.gpsbabel.org">
  <time>2026-04-15T14:12:58.908000Z</time>
  <bounds minlat="46.57073" maxlat="47.29332" minlon="10.48802" maxlon="11.04935" />
  <trk>
    <trkseg>
      <trkpt lat="47.29332" lon="11.04935">
        <ele>625.0</ele>
      </trkpt>
      <trkpt lat="47.29284" lon="11.04462">
        <ele>627.0</ele>
      </trkpt>
      <trkpt lat="47.2921" lon="11.04153">
        <ele>626.0</ele>
      </trkpt>
      <trkpt lat="47.29189" lon="11.03783">
        <ele>626.0</ele>
      </trkpt>
      <trkpt lat="47.29217" lon="11.02806">
        <ele>633.0</ele>
      </trkpt>
      <trkpt lat="47.29199" lon="11.02579">
        <ele>636.0</ele>
      </trkpt>
      <trkpt lat="47.29186" lon="11.02483">
        <ele>636.0</ele>
      </trkpt>
      <trkpt lat="47.2912" lon="11.02092">
        <ele>633.0</ele>
      </trkpt>
      <trkpt lat="47.29012" lon="11.01623">
        <ele>632.0</ele>
      </trkpt>
      <trkpt lat="47.28901" lon="11.01452">
        <ele>632.0</ele>
      </trkpt>
      <trkpt lat="47.28804" lon="11.01249">
        <ele>634.0</ele>
      </trkpt>
      <trkpt lat="47.28713" lon="11.00857">
        <ele>633.0</ele>
      </trkpt>
      <trkpt lat="47.28515" lon="11.0008">
        <ele>632.0</ele>
      </trkpt>
      <trkpt lat="47.28309" lon="10.99226">
        <ele>634.0</ele>
      </trkpt>
      <trkpt lat="47.28169" lon="10.98508">
        <ele>635.0</ele>
      </trkpt>
      <trkpt lat="47.28111" lon="10.98339">
        <ele>637.0</ele>
      </trkpt>
      <trkpt lat="47.28107" lon="10.98294">
        <ele>637.0</ele>
      </trkpt>
      <trkpt lat="47.28068" lon="10.98179">
        <ele>637.0</ele>
      </trkpt>
      <trkpt lat="47.28024" lon="10.97757">
        <ele>637.0</ele>
      </trkpt>
      <trkpt lat="47.27968" lon="10.97349">
        <ele>638.0</ele>
      </trkpt>
      <trkpt lat="47.27787" lon="10.96711">
        <ele>639.0</ele>
      </trkpt>
      <trkpt lat="47.27726" lon="10.96509">
        <ele>639.0</ele>
      </trkpt>
      <trkpt lat="47.27607" lon="10.96199">
        <ele>642.0</ele>
      </trkpt>
      <trkpt lat="47.27365" lon="10.95721">
        <ele>642.0</ele>
      </trkpt>
      <trkpt lat="47.27238" lon="10.95454">
        <ele>643.0</ele>
      </trkpt>
      <trkpt lat="47.27098" lon="10.94602">
        <ele>646.0</ele>
      </trkpt>
      <trkpt lat="47.26941" lon="10.94174">
        <ele>646.0</ele>
      </trkpt>
      <trkpt lat="47.2684" lon="10.9369">
        <ele>646.0</ele>
      </trkpt>
      <trkpt lat="47.26721" lon="10.93242">
        <ele>648.0</ele>
      </trkpt>
      <trkpt lat="47.26653" lon="10.93077">
        <ele>650.0</ele>
      </trkpt>
      <trkpt lat="47.2661" lon="10.92925">
        <ele>651.0</ele>
      </trkpt>
      <trkpt lat="47.2656" lon="10.9275">
        <ele>653.0</ele>
      </trkpt>
      <trkpt lat="47.26481" lon="10.92493">
        <ele>656.0</ele>
      </trkpt>
      <trkpt lat="47.26412" lon="10.92325">
        <ele>659.0</ele>
      </trkpt>
      <trkpt lat="47.2618" lon="10.91621">
        <ele>664.0</ele>
      </trkpt>
      <trkpt lat="47.25683" lon="10.89866">
        <ele>666.0</ele>
      </trkpt>
      <trkpt lat="47.25531" lon="10.89501">
        <ele>667.0</ele>
      </trkpt>
      <trkpt lat="47.25047" lon="10.88764">
        <ele>671.0</ele>
      </trkpt>
      <trkpt lat="47.24594" lon="10.88348">
        <ele>675.0</ele>
      </trkpt>
      <trkpt lat="47.24408" lon="10.88158">
        <ele>680.0</ele>
      </trkpt>
      <trkpt lat="47.24395" lon="10.88132">
        <ele>681.0</ele>
      </trkpt>
      <trkpt lat="47.24199" lon="10.87811">
        <ele>681.0</ele>
      </trkpt>
      <trkpt lat="47.2389" lon="10.87278">
        <ele>685.0</ele>
      </trkpt>
      <trkpt lat="47.23825" lon="10.87154">
        <ele>689.0</ele>
      </trkpt>
      <trkpt lat="47.23513" lon="10.86555">
        <ele>695.0</ele>
      </trkpt>
      <trkpt lat="47.23445" lon="10.86345">
        <ele>702.0</ele>
      </trkpt>
      <trkpt lat="47.23403" lon="10.8597">
        <ele>711.0</ele>
      </trkpt>
      <trkpt lat="47.23212" lon="10.85438">
        <ele>726.0</ele>
      </trkpt>
      <trkpt lat="47.23183" lon="10.85372">
        <ele>733.0</ele>
      </trkpt>
      <trkpt lat="47.23133" lon="10.85304">
        <ele>733.0</ele>
      </trkpt>
      <trkpt lat="47.23017" lon="10.85148">
        <ele>730.0</ele>
      </trkpt>
      <trkpt lat="47.22868" lon="10.84842">
        <ele>728.0</ele>
      </trkpt>
      <trkpt lat="47.22445" lon="10.8422">
        <ele>728.0</ele>
      </trkpt>
      <trkpt lat="47.22195" lon="10.83559">
        <ele>738.0</ele>
      </trkpt>
      <trkpt lat="47.22155" lon="10.83171">
        <ele>740.0</ele>
      </trkpt>
      <trkpt lat="47.22174" lon="10.8296">
        <ele>733.0</ele>
      </trkpt>
      <trkpt lat="47.22349" lon="10.82651">
        <ele>726.0</ele>
      </trkpt>
      <trkpt lat="47.22403" lon="10.82504">
        <ele>721.0</ele>
      </trkpt>
      <trkpt lat="47.22404" lon="10.82286">
        <ele>715.0</ele>
      </trkpt>
      <trkpt lat="47.22337" lon="10.81845">
        <ele>709.0</ele>
      </trkpt>
      <trkpt lat="47.22233" lon="10.81647">
        <ele>714.0</ele>
      </trkpt>
      <trkpt lat="47.22111" lon="10.81453">
        <ele>720.0</ele>
      </trkpt>
      <trkpt lat="47.21938" lon="10.81153">
        <ele>729.0</ele>
      </trkpt>
      <trkpt lat="47.21847" lon="10.80828">
        <ele>746.0</ele>
      </trkpt>
      <trkpt lat="47.21586" lon="10.80315">
        <ele>766.0</ele>
      </trkpt>
      <trkpt lat="47.21456" lon="10.80043">
        <ele>788.0</ele>
      </trkpt>
      <trkpt lat="47.21378" lon="10.79549">
        <ele>805.0</ele>
      </trkpt>
      <trkpt lat="47.21354" lon="10.78944">
        <ele>821.0</ele>
      </trkpt>
      <trkpt lat="47.21359" lon="10.78655">
        <ele>826.0</ele>
      </trkpt>
      <trkpt lat="47.21448" lon="10.78271">
        <ele>813.0</ele>
      </trkpt>
      <trkpt lat="47.21515" lon="10.78056">
        <ele>803.0</ele>
      </trkpt>
      <trkpt lat="47.21605" lon="10.77761">
        <ele>799.0</ele>
      </trkpt>
      <trkpt lat="47.21877" lon="10.77091">
        <ele>780.0</ele>
      </trkpt>
      <trkpt lat="47.21989" lon="10.76758">
        <ele>773.0</ele>
      </trkpt>
      <trkpt lat="47.22036" lon="10.76502">
        <ele>769.0</ele>
      </trkpt>
      <trkpt lat="47.221" lon="10.76274">
        <ele>765.0</ele>
      </trkpt>
      <trkpt lat="47.22125" lon="10.75773">
        <ele>760.0</ele>
      </trkpt>
      <trkpt lat="47.22088" lon="10.75483">
        <ele>759.0</ele>
      </trkpt>
      <trkpt lat="47.22052" lon="10.75559">
        <ele>753.0</ele>
      </trkpt>
      <trkpt lat="47.2202" lon="10.75599">
        <ele>748.0</ele>
      </trkpt>
      <trkpt lat="47.21782" lon="10.75721">
        <ele>742.0</ele>
      </trkpt>
      <trkpt lat="47.21702" lon="10.75644">
        <ele>751.0</ele>
      </trkpt>
      <trkpt lat="47.21593" lon="10.75481">
        <ele>770.0</ele>
      </trkpt>
      <trkpt lat="47.21392" lon="10.75404">
        <ele>793.0</ele>
      </trkpt>
      <trkpt lat="47.2134" lon="10.75366">
        <ele>805.0</ele>
      </trkpt>
      <trkpt lat="47.21316" lon="10.75313">
        <ele>810.0</ele>
      </trkpt>
      <trkpt lat="47.21322" lon="10.75176">
        <ele>815.0</ele>
      </trkpt>
      <trkpt lat="47.21316" lon="10.7514">
        <ele>817.0</ele>
      </trkpt>
      <trkpt lat="47.21295" lon="10.75135">
        <ele>818.0</ele>
      </trkpt>
      <trkpt lat="47.21273" lon="10.75211">
        <ele>820.0</ele>
      </trkpt>
      <trkpt lat="47.21282" lon="10.75352">
        <ele>825.0</ele>
      </trkpt>
      <trkpt lat="47.21298" lon="10.75476">
        <ele>833.0</ele>
      </trkpt>
      <trkpt lat="47.21257" lon="10.75567">
        <ele>837.0</ele>
      </trkpt>
      <trkpt lat="47.21244" lon="10.7571">
        <ele>844.0</ele>
      </trkpt>
      <trkpt lat="47.21238" lon="10.75785">
        <ele>849.0</ele>
      </trkpt>
      <trkpt lat="47.21214" lon="10.75829">
        <ele>851.0</ele>
      </trkpt>
      <trkpt lat="47.21176" lon="10.75877">
        <ele>853.0</ele>
      </trkpt>
      <trkpt lat="47.21125" lon="10.75935">
        <ele>857.0</ele>
      </trkpt>
      <trkpt lat="47.2105" lon="10.75985">
        <ele>859.0</ele>
      </trkpt>
      <trkpt lat="47.20971" lon="10.76033">
        <ele>861.0</ele>
      </trkpt>
      <trkpt lat="47.20876" lon="10.76108">
        <ele>860.0</ele>
      </trkpt>
      <trkpt lat="47.20773" lon="10.76155">
        <ele>855.0</ele>
      </trkpt>
      <trkpt lat="47.20723" lon="10.76174">
        <ele>857.0</ele>
      </trkpt>
      <trkpt lat="47.2063" lon="10.76161">
        <ele>865.0</ele>
      </trkpt>
      <trkpt lat="47.20536" lon="10.76092">
        <ele>873.0</ele>
      </trkpt>
      <trkpt lat="47.2048" lon="10.76074">
        <ele>877.0</ele>
      </trkpt>
      <trkpt lat="47.20451" lon="10.76071">
        <ele>878.0</ele>
      </trkpt>
      <trkpt lat="47.20368" lon="10.75894">
        <ele>883.0</ele>
      </trkpt>
      <trkpt lat="47.20317" lon="10.75812">
        <ele>891.0</ele>
      </trkpt>
      <trkpt lat="47.203" lon="10.75736">
        <ele>896.0</ele>
      </trkpt>
      <trkpt lat="47.20277" lon="10.75714">
        <ele>899.0</ele>
      </trkpt>
      <trkpt lat="47.20225" lon="10.75756">
        <ele>902.0</ele>
      </trkpt>
      <trkpt lat="47.20082" lon="10.75722">
        <ele>912.0</ele>
      </trkpt>
      <trkpt lat="47.20014" lon="10.75667">
        <ele>922.0</ele>
      </trkpt>
      <trkpt lat="47.19929" lon="10.75613">
        <ele>931.0</ele>
      </trkpt>
      <trkpt lat="47.19867" lon="10.75592">
        <ele>935.0</ele>
      </trkpt>
      <trkpt lat="47.19827" lon="10.7564">
        <ele>937.0</ele>
      </trkpt>
      <trkpt lat="47.19761" lon="10.75688">
        <ele>937.0</ele>
      </trkpt>
      <trkpt lat="47.19677" lon="10.75638">
        <ele>933.0</ele>
      </trkpt>
      <trkpt lat="47.19593" lon="10.75594">
        <ele>930.0</ele>
      </trkpt>
      <trkpt lat="47.19351" lon="10.75381">
        <ele>944.0</ele>
      </trkpt>
      <trkpt lat="47.19148" lon="10.75246">
        <ele>944.0</ele>
      </trkpt>
      <trkpt lat="47.18972" lon="10.75217">
        <ele>949.0</ele>
      </trkpt>
      <trkpt lat="47.18833" lon="10.75062">
        <ele>949.0</ele>
      </trkpt>
      <trkpt lat="47.18754" lon="10.75003">
        <ele>946.0</ele>
      </trkpt>
      <trkpt lat="47.18697" lon="10.74941">
        <ele>943.0</ele>
      </trkpt>
      <trkpt lat="47.18514" lon="10.74727">
        <ele>942.0</ele>
      </trkpt>
      <trkpt lat="47.18403" lon="10.74601">
        <ele>942.0</ele>
      </trkpt>
      <trkpt lat="47.18268" lon="10.74381">
        <ele>944.0</ele>
      </trkpt>
      <trkpt lat="47.18156" lon="10.74297">
        <ele>947.0</ele>
      </trkpt>
      <trkpt lat="47.18097" lon="10.7421">
        <ele>950.0</ele>
      </trkpt>
      <trkpt lat="47.18037" lon="10.74105">
        <ele>953.0</ele>
      </trkpt>
      <trkpt lat="47.1795" lon="10.73983">
        <ele>958.0</ele>
      </trkpt>
      <trkpt lat="47.17925" lon="10.73935">
        <ele>961.0</ele>
      </trkpt>
      <trkpt lat="47.17869" lon="10.73896">
        <ele>962.0</ele>
      </trkpt>
      <trkpt lat="47.17825" lon="10.73854">
        <ele>963.0</ele>
      </trkpt>
      <trkpt lat="47.17719" lon="10.73772">
        <ele>965.0</ele>
      </trkpt>
      <trkpt lat="47.17656" lon="10.73717">
        <ele>968.0</ele>
      </trkpt>
      <trkpt lat="47.17585" lon="10.73632">
        <ele>971.0</ele>
      </trkpt>
      <trkpt lat="47.17527" lon="10.73556">
        <ele>973.0</ele>
      </trkpt>
      <trkpt lat="47.17507" lon="10.73505">
        <ele>973.0</ele>
      </trkpt>
      <trkpt lat="47.17455" lon="10.73401">
        <ele>975.0</ele>
      </trkpt>
      <trkpt lat="47.17412" lon="10.73345">
        <ele>977.0</ele>
      </trkpt>
      <trkpt lat="47.17383" lon="10.73228">
        <ele>980.0</ele>
      </trkpt>
      <trkpt lat="47.17344" lon="10.73191">
        <ele>982.0</ele>
      </trkpt>
      <trkpt lat="47.17216" lon="10.73131">
        <ele>984.0</ele>
      </trkpt>
      <trkpt lat="47.17094" lon="10.73105">
        <ele>988.0</ele>
      </trkpt>
      <trkpt lat="47.17004" lon="10.73072">
        <ele>995.0</ele>
      </trkpt>
      <trkpt lat="47.1693" lon="10.73086">
        <ele>1000.0</ele>
      </trkpt>
      <trkpt lat="47.1692" lon="10.73063">
        <ele>1004.0</ele>
      </trkpt>
      <trkpt lat="47.16927" lon="10.73036">
        <ele>1006.0</ele>
      </trkpt>
      <trkpt lat="47.16806" lon="10.73022">
        <ele>1011.0</ele>
      </trkpt>
      <trkpt lat="47.16731" lon="10.72994">
        <ele>1018.0</ele>
      </trkpt>
      <trkpt lat="47.16631" lon="10.72983">
        <ele>1024.0</ele>
      </trkpt>
      <trkpt lat="47.1654" lon="10.72961">
        <ele>1029.0</ele>
      </trkpt>
      <trkpt lat="47.16471" lon="10.7291">
        <ele>1035.0</ele>
      </trkpt>
      <trkpt lat="47.1634" lon="10.72812">
        <ele>1046.0</ele>
      </trkpt>
      <trkpt lat="47.16162" lon="10.72775">
        <ele>1058.0</ele>
      </trkpt>
      <trkpt lat="47.16012" lon="10.72657">
        <ele>1068.0</ele>
      </trkpt>
      <trkpt lat="47.1588" lon="10.72636">
        <ele>1073.0</ele>
      </trkpt>
      <trkpt lat="47.15799" lon="10.72691">
        <ele>1076.0</ele>
      </trkpt>
      <trkpt lat="47.157" lon="10.72655">
        <ele>1081.0</ele>
      </trkpt>
      <trkpt lat="47.15598" lon="10.7262">
        <ele>1089.0</ele>
      </trkpt>
      <trkpt lat="47.1552" lon="10.72679">
        <ele>1092.0</ele>
      </trkpt>
      <trkpt lat="47.15447" lon="10.72681">
        <ele>1093.0</ele>
      </trkpt>
      <trkpt lat="47.15273" lon="10.72624">
        <ele>1107.0</ele>
      </trkpt>
      <trkpt lat="47.15193" lon="10.72583">
        <ele>1115.0</ele>
      </trkpt>
      <trkpt lat="47.15039" lon="10.72339">
        <ele>1131.0</ele>
      </trkpt>
      <trkpt lat="47.14999" lon="10.72153">
        <ele>1140.0</ele>
      </trkpt>
      <trkpt lat="47.15019" lon="10.71947">
        <ele>1151.0</ele>
      </trkpt>
      <trkpt lat="47.15018" lon="10.71856">
        <ele>1157.0</ele>
      </trkpt>
      <trkpt lat="47.14991" lon="10.7179">
        <ele>1158.0</ele>
      </trkpt>
      <trkpt lat="47.1481" lon="10.71661">
        <ele>1159.0</ele>
      </trkpt>
      <trkpt lat="47.14641" lon="10.71428">
        <ele>1167.0</ele>
      </trkpt>
      <trkpt lat="47.14573" lon="10.71338">
        <ele>1175.0</ele>
      </trkpt>
      <trkpt lat="47.14358" lon="10.71151">
        <ele>1190.0</ele>
      </trkpt>
      <trkpt lat="47.14205" lon="10.70891">
        <ele>1212.0</ele>
      </trkpt>
      <trkpt lat="47.14123" lon="10.70717">
        <ele>1225.0</ele>
      </trkpt>
      <trkpt lat="47.14027" lon="10.70697">
        <ele>1232.0</ele>
      </trkpt>
      <trkpt lat="47.13895" lon="10.70607">
        <ele>1240.0</ele>
      </trkpt>
      <trkpt lat="47.13766" lon="10.70451">
        <ele>1248.0</ele>
      </trkpt>
      <trkpt lat="47.13819" lon="10.70477">
        <ele>1252.0</ele>
      </trkpt>
      <trkpt lat="47.1391" lon="10.70491">
        <ele>1256.0</ele>
      </trkpt>
      <trkpt lat="47.13937" lon="10.70385">
        <ele>1264.0</ele>
      </trkpt>
      <trkpt lat="47.13844" lon="10.70219">
        <ele>1279.0</ele>
      </trkpt>
      <trkpt lat="47.13778" lon="10.70112">
        <ele>1287.0</ele>
      </trkpt>
      <trkpt lat="47.13711" lon="10.69913">
        <ele>1298.0</ele>
      </trkpt>
      <trkpt lat="47.13647" lon="10.69753">
        <ele>1309.0</ele>
      </trkpt>
      <trkpt lat="47.1362" lon="10.69696">
        <ele>1317.0</ele>
      </trkpt>
      <trkpt lat="47.13612" lon="10.69467">
        <ele>1338.0</ele>
      </trkpt>
      <trkpt lat="47.13575" lon="10.6939">
        <ele>1349.0</ele>
      </trkpt>
      <trkpt lat="47.13457" lon="10.69186">
        <ele>1361.0</ele>
      </trkpt>
      <trkpt lat="47.13381" lon="10.69088">
        <ele>1368.0</ele>
      </trkpt>
      <trkpt lat="47.13257" lon="10.69025">
        <ele>1370.0</ele>
      </trkpt>
      <trkpt lat="47.13143" lon="10.6887">
        <ele>1366.0</ele>
      </trkpt>
      <trkpt lat="47.13068" lon="10.68881">
        <ele>1364.0</ele>
      </trkpt>
      <trkpt lat="47.1289" lon="10.68676">
        <ele>1364.0</ele>
      </trkpt>
      <trkpt lat="47.12809" lon="10.68614">
        <ele>1368.0</ele>
      </trkpt>
      <trkpt lat="47.12802" lon="10.68581">
        <ele>1372.0</ele>
      </trkpt>
      <trkpt lat="47.12828" lon="10.68558">
        <ele>1373.0</ele>
      </trkpt>
      <trkpt lat="47.12801" lon="10.68491">
        <ele>1376.0</ele>
      </trkpt>
      <trkpt lat="47.12774" lon="10.68412">
        <ele>1380.0</ele>
      </trkpt>
      <trkpt lat="47.12744" lon="10.6833">
        <ele>1385.0</ele>
      </trkpt>
      <trkpt lat="47.12715" lon="10.68228">
        <ele>1393.0</ele>
      </trkpt>
      <trkpt lat="47.12674" lon="10.68079">
        <ele>1405.0</ele>
      </trkpt>
      <trkpt lat="47.12638" lon="10.68038">
        <ele>1412.0</ele>
      </trkpt>
      <trkpt lat="47.12571" lon="10.68032">
        <ele>1418.0</ele>
      </trkpt>
      <trkpt lat="47.12479" lon="10.67914">
        <ele>1432.0</ele>
      </trkpt>
      <trkpt lat="47.12427" lon="10.67811">
        <ele>1445.0</ele>
      </trkpt>
      <trkpt lat="47.12392" lon="10.67722">
        <ele>1456.0</ele>
      </trkpt>
      <trkpt lat="47.12344" lon="10.67614">
        <ele>1467.0</ele>
      </trkpt>
      <trkpt lat="47.12307" lon="10.67503">
        <ele>1476.0</ele>
      </trkpt>
      <trkpt lat="47.12269" lon="10.67254">
        <ele>1493.0</ele>
      </trkpt>
      <trkpt lat="47.12289" lon="10.67057">
        <ele>1506.0</ele>
      </trkpt>
      <trkpt lat="47.12303" lon="10.66928">
        <ele>1519.0</ele>
      </trkpt>
      <trkpt lat="47.12264" lon="10.66902">
        <ele>1525.0</ele>
      </trkpt>
      <trkpt lat="47.12239" lon="10.66874">
        <ele>1528.0</ele>
      </trkpt>
      <trkpt lat="47.12212" lon="10.6691">
        <ele>1532.0</ele>
      </trkpt>
      <trkpt lat="47.12174" lon="10.66908">
        <ele>1535.0</ele>
      </trkpt>
      <trkpt lat="47.12124" lon="10.66883">
        <ele>1540.0</ele>
      </trkpt>
      <trkpt lat="47.12063" lon="10.66836">
        <ele>1546.0</ele>
      </trkpt>
      <trkpt lat="47.11952" lon="10.66755">
        <ele>1554.0</ele>
      </trkpt>
      <trkpt lat="47.11901" lon="10.6667">
        <ele>1562.0</ele>
      </trkpt>
      <trkpt lat="47.11863" lon="10.6667">
        <ele>1563.0</ele>
      </trkpt>
      <trkpt lat="47.11771" lon="10.66701">
        <ele>1563.0</ele>
      </trkpt>
      <trkpt lat="47.11702" lon="10.66734">
        <ele>1564.0</ele>
      </trkpt>
      <trkpt lat="47.11693" lon="10.66773">
        <ele>1565.0</ele>
      </trkpt>
      <trkpt lat="47.11655" lon="10.6682">
        <ele>1567.0</ele>
      </trkpt>
      <trkpt lat="47.11606" lon="10.66847">
        <ele>1570.0</ele>
      </trkpt>
      <trkpt lat="47.11489" lon="10.66862">
        <ele>1572.0</ele>
      </trkpt>
      <trkpt lat="47.11418" lon="10.66879">
        <ele>1570.0</ele>
      </trkpt>
      <trkpt lat="47.1131" lon="10.66956">
        <ele>1562.0</ele>
      </trkpt>
      <trkpt lat="47.11228" lon="10.67078">
        <ele>1549.0</ele>
      </trkpt>
      <trkpt lat="47.11156" lon="10.67116">
        <ele>1540.0</ele>
      </trkpt>
      <trkpt lat="47.11091" lon="10.67286">
        <ele>1528.0</ele>
      </trkpt>
      <trkpt lat="47.11052" lon="10.67407">
        <ele>1519.0</ele>
      </trkpt>
      <trkpt lat="47.11019" lon="10.67506">
        <ele>1514.0</ele>
      </trkpt>
      <trkpt lat="47.11013" lon="10.67567">
        <ele>1512.0</ele>
      </trkpt>
      <trkpt lat="47.10977" lon="10.67655">
        <ele>1514.0</ele>
      </trkpt>
      <trkpt lat="47.10944" lon="10.67711">
        <ele>1516.0</ele>
      </trkpt>
      <trkpt lat="47.10908" lon="10.6773">
        <ele>1517.0</ele>
      </trkpt>
      <trkpt lat="47.10854" lon="10.67756">
        <ele>1520.0</ele>
      </trkpt>
      <trkpt lat="47.10813" lon="10.67877">
        <ele>1523.0</ele>
      </trkpt>
      <trkpt lat="47.10771" lon="10.67896">
        <ele>1527.0</ele>
      </trkpt>
      <trkpt lat="47.1074" lon="10.67944">
        <ele>1529.0</ele>
      </trkpt>
      <trkpt lat="47.10687" lon="10.68017">
        <ele>1533.0</ele>
      </trkpt>
      <trkpt lat="47.10654" lon="10.68009">
        <ele>1535.0</ele>
      </trkpt>
      <trkpt lat="47.10629" lon="10.68062">
        <ele>1537.0</ele>
      </trkpt>
      <trkpt lat="47.10619" lon="10.68125">
        <ele>1541.0</ele>
      </trkpt>
      <trkpt lat="47.10664" lon="10.68286">
        <ele>1548.0</ele>
      </trkpt>
      <trkpt lat="47.10638" lon="10.68372">
        <ele>1550.0</ele>
      </trkpt>
      <trkpt lat="47.10593" lon="10.68394">
        <ele>1550.0</ele>
      </trkpt>
      <trkpt lat="47.10483" lon="10.68389">
        <ele>1549.0</ele>
      </trkpt>
      <trkpt lat="47.10381" lon="10.68376">
        <ele>1541.0</ele>
      </trkpt>
      <trkpt lat="47.10249" lon="10.68394">
        <ele>1534.0</ele>
      </trkpt>
      <trkpt lat="47.10203" lon="10.68392">
        <ele>1533.0</ele>
      </trkpt>
      <trkpt lat="47.10149" lon="10.68368">
        <ele>1533.0</ele>
      </trkpt>
      <trkpt lat="47.1013" lon="10.68367">
        <ele>1533.0</ele>
      </trkpt>
      <trkpt lat="47.10095" lon="10.68406">
        <ele>1532.0</ele>
      </trkpt>
      <trkpt lat="47.10009" lon="10.68432">
        <ele>1528.0</ele>
      </trkpt>
      <trkpt lat="47.09941" lon="10.68454">
        <ele>1524.0</ele>
      </trkpt>
      <trkpt lat="47.09903" lon="10.68451">
        <ele>1522.0</ele>
      </trkpt>
      <trkpt lat="47.09823" lon="10.68408">
        <ele>1520.0</ele>
      </trkpt>
      <trkpt lat="47.09714" lon="10.68417">
        <ele>1518.0</ele>
      </trkpt>
      <trkpt lat="47.09636" lon="10.68382">
        <ele>1518.0</ele>
      </trkpt>
      <trkpt lat="47.09569" lon="10.68375">
        <ele>1516.0</ele>
      </trkpt>
      <trkpt lat="47.09524" lon="10.6834">
        <ele>1513.0</ele>
      </trkpt>
      <trkpt lat="47.09437" lon="10.68326">
        <ele>1508.0</ele>
      </trkpt>
      <trkpt lat="47.0941" lon="10.68332">
        <ele>1504.0</ele>
      </trkpt>
      <trkpt lat="47.09365" lon="10.68341">
        <ele>1499.0</ele>
      </trkpt>
      <trkpt lat="47.09321" lon="10.68357">
        <ele>1493.0</ele>
      </trkpt>
      <trkpt lat="47.09272" lon="10.6838">
        <ele>1485.0</ele>
      </trkpt>
      <trkpt lat="47.09225" lon="10.68385">
        <ele>1478.0</ele>
      </trkpt>
      <trkpt lat="47.09186" lon="10.68428">
        <ele>1473.0</ele>
      </trkpt>
      <trkpt lat="47.0913" lon="10.68478">
        <ele>1466.0</ele>
      </trkpt>
      <trkpt lat="47.09057" lon="10.68517">
        <ele>1458.0</ele>
      </trkpt>
      <trkpt lat="47.09013" lon="10.68521">
        <ele>1450.0</ele>
      </trkpt>
      <trkpt lat="47.08956" lon="10.6857">
        <ele>1443.0</ele>
      </trkpt>
      <trkpt lat="47.08877" lon="10.6863">
        <ele>1435.0</ele>
      </trkpt>
      <trkpt lat="47.0875" lon="10.68797">
        <ele>1426.0</ele>
      </trkpt>
      <trkpt lat="47.08633" lon="10.68997">
        <ele>1417.0</ele>
      </trkpt>
      <trkpt lat="47.08609" lon="10.69197">
        <ele>1414.0</ele>
      </trkpt>
      <trkpt lat="47.08641" lon="10.69253">
        <ele>1410.0</ele>
      </trkpt>
      <trkpt lat="47.08639" lon="10.6934">
        <ele>1401.0</ele>
      </trkpt>
      <trkpt lat="47.08609" lon="10.69489">
        <ele>1385.0</ele>
      </trkpt>
      <trkpt lat="47.08577" lon="10.6958">
        <ele>1378.0</ele>
      </trkpt>
      <trkpt lat="47.08525" lon="10.69642">
        <ele>1373.0</ele>
      </trkpt>
      <trkpt lat="47.08495" lon="10.69689">
        <ele>1370.0</ele>
      </trkpt>
      <trkpt lat="47.08455" lon="10.69865">
        <ele>1364.0</ele>
      </trkpt>
      <trkpt lat="47.08428" lon="10.6997">
        <ele>1355.0</ele>
      </trkpt>
      <trkpt lat="47.08325" lon="10.70168">
        <ele>1335.0</ele>
      </trkpt>
      <trkpt lat="47.08284" lon="10.70287">
        <ele>1322.0</ele>
      </trkpt>
      <trkpt lat="47.08286" lon="10.70329">
        <ele>1318.0</ele>
      </trkpt>
      <trkpt lat="47.08312" lon="10.70387">
        <ele>1314.0</ele>
      </trkpt>
      <trkpt lat="47.08334" lon="10.70404">
        <ele>1311.0</ele>
      </trkpt>
      <trkpt lat="47.08293" lon="10.70389">
        <ele>1306.0</ele>
      </trkpt>
      <trkpt lat="47.08176" lon="10.70127">
        <ele>1284.0</ele>
      </trkpt>
      <trkpt lat="47.08148" lon="10.69997">
        <ele>1261.0</ele>
      </trkpt>
      <trkpt lat="47.08121" lon="10.69841">
        <ele>1241.0</ele>
      </trkpt>
      <trkpt lat="47.08107" lon="10.69654">
        <ele>1225.0</ele>
      </trkpt>
      <trkpt lat="47.08125" lon="10.6938">
        <ele>1202.0</ele>
      </trkpt>
      <trkpt lat="47.08111" lon="10.69369">
        <ele>1191.0</ele>
      </trkpt>
      <trkpt lat="47.08065" lon="10.69475">
        <ele>1182.0</ele>
      </trkpt>
      <trkpt lat="47.07994" lon="10.69682">
        <ele>1163.0</ele>
      </trkpt>
      <trkpt lat="47.07957" lon="10.69846">
        <ele>1146.0</ele>
      </trkpt>
      <trkpt lat="47.07918" lon="10.70012">
        <ele>1132.0</ele>
      </trkpt>
      <trkpt lat="47.07904" lon="10.70026">
        <ele>1123.0</ele>
      </trkpt>
      <trkpt lat="47.0786" lon="10.69856">
        <ele>1111.0</ele>
      </trkpt>
      <trkpt lat="47.07869" lon="10.69799">
        <ele>1101.0</ele>
      </trkpt>
      <trkpt lat="47.07885" lon="10.6973">
        <ele>1096.0</ele>
      </trkpt>
      <trkpt lat="47.07849" lon="10.6947">
        <ele>1084.0</ele>
      </trkpt>
      <trkpt lat="47.07809" lon="10.6935">
        <ele>1070.0</ele>
      </trkpt>
      <trkpt lat="47.07812" lon="10.69222">
        <ele>1061.0</ele>
      </trkpt>
      <trkpt lat="47.07798" lon="10.69163">
        <ele>1056.0</ele>
      </trkpt>
      <trkpt lat="47.07801" lon="10.69036">
        <ele>1050.0</ele>
      </trkpt>
      <trkpt lat="47.07789" lon="10.689">
        <ele>1037.0</ele>
      </trkpt>
      <trkpt lat="47.07815" lon="10.68832">
        <ele>1028.0</ele>
      </trkpt>
      <trkpt lat="47.07794" lon="10.68675">
        <ele>1019.0</ele>
      </trkpt>
      <trkpt lat="47.07764" lon="10.68489">
        <ele>1010.0</ele>
      </trkpt>
      <trkpt lat="47.07736" lon="10.68295">
        <ele>999.0</ele>
      </trkpt>
      <trkpt lat="47.07708" lon="10.68127">
        <ele>988.0</ele>
      </trkpt>
      <trkpt lat="47.07727" lon="10.68046">
        <ele>980.0</ele>
      </trkpt>
      <trkpt lat="47.07754" lon="10.67936">
        <ele>972.0</ele>
      </trkpt>
      <trkpt lat="47.07763" lon="10.67877">
        <ele>964.0</ele>
      </trkpt>
      <trkpt lat="47.07781" lon="10.6763">
        <ele>945.0</ele>
      </trkpt>
      <trkpt lat="47.0772" lon="10.67569">
        <ele>930.0</ele>
      </trkpt>
      <trkpt lat="47.07681" lon="10.67601">
        <ele>922.0</ele>
      </trkpt>
      <trkpt lat="47.07664" lon="10.67638">
        <ele>917.0</ele>
      </trkpt>
      <trkpt lat="47.07716" lon="10.67504">
        <ele>912.0</ele>
      </trkpt>
      <trkpt lat="47.07968" lon="10.67344">
        <ele>896.0</ele>
      </trkpt>
      <trkpt lat="47.08053" lon="10.67299">
        <ele>885.0</ele>
      </trkpt>
      <trkpt lat="47.08066" lon="10.6723">
        <ele>878.0</ele>
      </trkpt>
      <trkpt lat="47.0799" lon="10.67028">
        <ele>872.0</ele>
      </trkpt>
      <trkpt lat="47.07983" lon="10.66956">
        <ele>869.0</ele>
      </trkpt>
      <trkpt lat="47.08021" lon="10.66825">
        <ele>868.0</ele>
      </trkpt>
      <trkpt lat="47.07943" lon="10.66738">
        <ele>868.0</ele>
      </trkpt>
      <trkpt lat="47.07863" lon="10.66668">
        <ele>868.0</ele>
      </trkpt>
      <trkpt lat="47.07794" lon="10.66615">
        <ele>869.0</ele>
      </trkpt>
      <trkpt lat="47.07693" lon="10.66551">
        <ele>869.0</ele>
      </trkpt>
      <trkpt lat="47.07658" lon="10.66414">
        <ele>868.0</ele>
      </trkpt>
      <trkpt lat="47.07633" lon="10.66366">
        <ele>867.0</ele>
      </trkpt>
      <trkpt lat="47.07587" lon="10.66396">
        <ele>867.0</ele>
      </trkpt>
      <trkpt lat="47.07496" lon="10.66444">
        <ele>867.0</ele>
      </trkpt>
      <trkpt lat="47.07365" lon="10.66543">
        <ele>867.0</ele>
      </trkpt>
      <trkpt lat="47.07296" lon="10.66579">
        <ele>867.0</ele>
      </trkpt>
      <trkpt lat="47.07191" lon="10.66661">
        <ele>869.0</ele>
      </trkpt>
      <trkpt lat="47.0714" lon="10.66668">
        <ele>870.0</ele>
      </trkpt>
      <trkpt lat="47.07117" lon="10.66616">
        <ele>870.0</ele>
      </trkpt>
      <trkpt lat="47.0708" lon="10.66409">
        <ele>869.0</ele>
      </trkpt>
      <trkpt lat="47.07035" lon="10.6639">
        <ele>869.0</ele>
      </trkpt>
      <trkpt lat="47.06936" lon="10.66385">
        <ele>869.0</ele>
      </trkpt>
      <trkpt lat="47.06822" lon="10.66384">
        <ele>869.0</ele>
      </trkpt>
      <trkpt lat="47.06741" lon="10.66379">
        <ele>870.0</ele>
      </trkpt>
      <trkpt lat="47.06672" lon="10.66369">
        <ele>872.0</ele>
      </trkpt>
      <trkpt lat="47.06547" lon="10.66339">
        <ele>876.0</ele>
      </trkpt>
      <trkpt lat="47.06365" lon="10.66315">
        <ele>882.0</ele>
      </trkpt>
      <trkpt lat="47.06209" lon="10.66313">
        <ele>903.0</ele>
      </trkpt>
      <trkpt lat="47.06092" lon="10.6622">
        <ele>916.0</ele>
      </trkpt>
      <trkpt lat="47.0598" lon="10.66223">
        <ele>910.0</ele>
      </trkpt>
      <trkpt lat="47.05818" lon="10.66133">
        <ele>908.0</ele>
      </trkpt>
      <trkpt lat="47.05755" lon="10.66033">
        <ele>906.0</ele>
      </trkpt>
      <trkpt lat="47.05728" lon="10.66004">
        <ele>906.0</ele>
      </trkpt>
      <trkpt lat="47.05614" lon="10.65946">
        <ele>902.0</ele>
      </trkpt>
      <trkpt lat="47.05514" lon="10.65821">
        <ele>891.0</ele>
      </trkpt>
      <trkpt lat="47.05485" lon="10.65723">
        <ele>885.0</ele>
      </trkpt>
      <trkpt lat="47.05551" lon="10.65493">
        <ele>879.0</ele>
      </trkpt>
      <trkpt lat="47.05525" lon="10.65434">
        <ele>878.0</ele>
      </trkpt>
      <trkpt lat="47.05484" lon="10.65344">
        <ele>878.0</ele>
      </trkpt>
      <trkpt lat="47.0535" lon="10.65261">
        <ele>881.0</ele>
      </trkpt>
      <trkpt lat="47.05262" lon="10.65183">
        <ele>884.0</ele>
      </trkpt>
      <trkpt lat="47.05121" lon="10.64963">
        <ele>883.0</ele>
      </trkpt>
      <trkpt lat="47.04987" lon="10.64755">
        <ele>886.0</ele>
      </trkpt>
      <trkpt lat="47.04885" lon="10.64657">
        <ele>889.0</ele>
      </trkpt>
      <trkpt lat="47.04773" lon="10.6445">
        <ele>896.0</ele>
      </trkpt>
      <trkpt lat="47.04604" lon="10.64199">
        <ele>910.0</ele>
      </trkpt>
      <trkpt lat="47.04411" lon="10.64035">
        <ele>919.0</ele>
      </trkpt>
      <trkpt lat="47.04216" lon="10.63823">
        <ele>939.0</ele>
      </trkpt>
      <trkpt lat="47.04164" lon="10.63672">
        <ele>942.0</ele>
      </trkpt>
      <trkpt lat="47.0405" lon="10.63643">
        <ele>943.0</ele>
      </trkpt>
      <trkpt lat="47.03995" lon="10.6357">
        <ele>945.0</ele>
      </trkpt>
      <trkpt lat="47.04046" lon="10.63442">
        <ele>942.0</ele>
      </trkpt>
      <trkpt lat="47.03965" lon="10.63375">
        <ele>939.0</ele>
      </trkpt>
      <trkpt lat="47.0386" lon="10.63339">
        <ele>937.0</ele>
      </trkpt>
      <trkpt lat="47.03494" lon="10.63333">
        <ele>939.0</ele>
      </trkpt>
      <trkpt lat="47.03306" lon="10.63171">
        <ele>939.0</ele>
      </trkpt>
      <trkpt lat="47.031" lon="10.62987">
        <ele>931.0</ele>
      </trkpt>
      <trkpt lat="47.02779" lon="10.62712">
        <ele>926.0</ele>
      </trkpt>
      <trkpt lat="47.02613" lon="10.6256">
        <ele>929.0</ele>
      </trkpt>
      <trkpt lat="47.02555" lon="10.62468">
        <ele>927.0</ele>
      </trkpt>
      <trkpt lat="47.02566" lon="10.62229">
        <ele>920.0</ele>
      </trkpt>
      <trkpt lat="47.02481" lon="10.62083">
        <ele>918.0</ele>
      </trkpt>
      <trkpt lat="47.02336" lon="10.61865">
        <ele>917.0</ele>
      </trkpt>
      <trkpt lat="47.02235" lon="10.61589">
        <ele>918.0</ele>
      </trkpt>
      <trkpt lat="47.02175" lon="10.61299">
        <ele>919.0</ele>
      </trkpt>
      <trkpt lat="47.02117" lon="10.61132">
        <ele>922.0</ele>
      </trkpt>
      <trkpt lat="47.02072" lon="10.60979">
        <ele>927.0</ele>
      </trkpt>
      <trkpt lat="47.01973" lon="10.60896">
        <ele>928.0</ele>
      </trkpt>
      <trkpt lat="47.0185" lon="10.60783">
        <ele>928.0</ele>
      </trkpt>
      <trkpt lat="47.01782" lon="10.60666">
        <ele>930.0</ele>
      </trkpt>
      <trkpt lat="47.01731" lon="10.60602">
        <ele>931.0</ele>
      </trkpt>
      <trkpt lat="47.0152" lon="10.60407">
        <ele>931.0</ele>
      </trkpt>
      <trkpt lat="47.01275" lon="10.60022">
        <ele>929.0</ele>
      </trkpt>
      <trkpt lat="47.011" lon="10.59891">
        <ele>929.0</ele>
      </trkpt>
      <trkpt lat="47.00752" lon="10.59784">
        <ele>937.0</ele>
      </trkpt>
      <trkpt lat="47.00415" lon="10.59513">
        <ele>936.0</ele>
      </trkpt>
      <trkpt lat="46.99861" lon="10.58639">
        <ele>940.0</ele>
      </trkpt>
      <trkpt lat="46.99667" lon="10.58228">
        <ele>935.0</ele>
      </trkpt>
      <trkpt lat="46.99475" lon="10.57804">
        <ele>937.0</ele>
      </trkpt>
      <trkpt lat="46.99269" lon="10.57556">
        <ele>935.0</ele>
      </trkpt>
      <trkpt lat="46.98933" lon="10.57303">
        <ele>935.0</ele>
      </trkpt>
      <trkpt lat="46.98636" lon="10.56894">
        <ele>941.0</ele>
      </trkpt>
      <trkpt lat="46.98535" lon="10.5661">
        <ele>941.0</ele>
      </trkpt>
      <trkpt lat="46.98435" lon="10.5631">
        <ele>941.0</ele>
      </trkpt>
      <trkpt lat="46.9836" lon="10.56195">
        <ele>941.0</ele>
      </trkpt>
      <trkpt lat="46.97974" lon="10.55918">
        <ele>943.0</ele>
      </trkpt>
      <trkpt lat="46.97875" lon="10.55817">
        <ele>943.0</ele>
      </trkpt>
      <trkpt lat="46.97813" lon="10.557">
        <ele>944.0</ele>
      </trkpt>
      <trkpt lat="46.9765" lon="10.55242">
        <ele>954.0</ele>
      </trkpt>
      <trkpt lat="46.97558" lon="10.55049">
        <ele>954.0</ele>
      </trkpt>
      <trkpt lat="46.97358" lon="10.5479">
        <ele>950.0</ele>
      </trkpt>
      <trkpt lat="46.97249" lon="10.54583">
        <ele>949.0</ele>
      </trkpt>
      <trkpt lat="46.97179" lon="10.54315">
        <ele>959.0</ele>
      </trkpt>
      <trkpt lat="46.97126" lon="10.53911">
        <ele>972.0</ele>
      </trkpt>
      <trkpt lat="46.97082" lon="10.53784">
        <ele>972.0</ele>
      </trkpt>
      <trkpt lat="46.97003" lon="10.53641">
        <ele>970.0</ele>
      </trkpt>
      <trkpt lat="46.96953" lon="10.53568">
        <ele>969.0</ele>
      </trkpt>
      <trkpt lat="46.96911" lon="10.53511">
        <ele>971.0</ele>
      </trkpt>
      <trkpt lat="46.96873" lon="10.53438">
        <ele>974.0</ele>
      </trkpt>
      <trkpt lat="46.96823" lon="10.5327">
        <ele>977.0</ele>
      </trkpt>
      <trkpt lat="46.96789" lon="10.53146">
        <ele>975.0</ele>
      </trkpt>
      <trkpt lat="46.96757" lon="10.5304">
        <ele>973.0</ele>
      </trkpt>
      <trkpt lat="46.9672" lon="10.52968">
        <ele>971.0</ele>
      </trkpt>
      <trkpt lat="46.96668" lon="10.52922">
        <ele>970.0</ele>
      </trkpt>
      <trkpt lat="46.96606" lon="10.52885">
        <ele>970.0</ele>
      </trkpt>
      <trkpt lat="46.96512" lon="10.52762">
        <ele>974.0</ele>
      </trkpt>
      <trkpt lat="46.96395" lon="10.52656">
        <ele>974.0</ele>
      </trkpt>
      <trkpt lat="46.96247" lon="10.52412">
        <ele>970.0</ele>
      </trkpt>
      <trkpt lat="46.96057" lon="10.52181">
        <ele>973.0</ele>
      </trkpt>
      <trkpt lat="46.95953" lon="10.52055">
        <ele>974.0</ele>
      </trkpt>
      <trkpt lat="46.95922" lon="10.51945">
        <ele>971.0</ele>
      </trkpt>
      <trkpt lat="46.95894" lon="10.51703">
        <ele>975.0</ele>
      </trkpt>
      <trkpt lat="46.95782" lon="10.51461">
        <ele>981.0</ele>
      </trkpt>
      <trkpt lat="46.95568" lon="10.51283">
        <ele>984.0</ele>
      </trkpt>
      <trkpt lat="46.95419" lon="10.51131">
        <ele>988.0</ele>
      </trkpt>
      <trkpt lat="46.95311" lon="10.51092">
        <ele>988.0</ele>
      </trkpt>
      <trkpt lat="46.95257" lon="10.51088">
        <ele>986.0</ele>
      </trkpt>
      <trkpt lat="46.95215" lon="10.51101">
        <ele>985.0</ele>
      </trkpt>
      <trkpt lat="46.95131" lon="10.51204">
        <ele>982.0</ele>
      </trkpt>
      <trkpt lat="46.95067" lon="10.51234">
        <ele>981.0</ele>
      </trkpt>
      <trkpt lat="46.9501" lon="10.51198">
        <ele>990.0</ele>
      </trkpt>
      <trkpt lat="46.94932" lon="10.5101">
        <ele>1008.0</ele>
      </trkpt>
      <trkpt lat="46.94868" lon="10.50916">
        <ele>1014.0</ele>
      </trkpt>
      <trkpt lat="46.94703" lon="10.5085">
        <ele>1021.0</ele>
      </trkpt>
      <trkpt lat="46.94525" lon="10.50811">
        <ele>1039.0</ele>
      </trkpt>
      <trkpt lat="46.94445" lon="10.50789">
        <ele>1053.0</ele>
      </trkpt>
      <trkpt lat="46.94397" lon="10.50716">
        <ele>1055.0</ele>
      </trkpt>
      <trkpt lat="46.94357" lon="10.50603">
        <ele>1052.0</ele>
      </trkpt>
      <trkpt lat="46.94284" lon="10.50494">
        <ele>1051.0</ele>
      </trkpt>
      <trkpt lat="46.94169" lon="10.50245">
        <ele>1056.0</ele>
      </trkpt>
      <trkpt lat="46.94133" lon="10.50172">
        <ele>1062.0</ele>
      </trkpt>
      <trkpt lat="46.94098" lon="10.50108">
        <ele>1066.0</ele>
      </trkpt>
      <trkpt lat="46.94051" lon="10.5005">
        <ele>1070.0</ele>
      </trkpt>
      <trkpt lat="46.9392" lon="10.49884">
        <ele>1080.0</ele>
      </trkpt>
      <trkpt lat="46.93835" lon="10.49743">
        <ele>1096.0</ele>
      </trkpt>
      <trkpt lat="46.93758" lon="10.49642">
        <ele>1094.0</ele>
      </trkpt>
      <trkpt lat="46.93728" lon="10.4949">
        <ele>1088.36</ele>
      </trkpt>
      <trkpt lat="46.93717" lon="10.49442">
        <ele>1090.08</ele>
      </trkpt>
      <trkpt lat="46.93674" lon="10.49415">
        <ele>1092.34</ele>
      </trkpt>
      <trkpt lat="46.93589" lon="10.49333">
        <ele>1097.23</ele>
      </trkpt>
      <trkpt lat="46.93542" lon="10.49256">
        <ele>1100.67</ele>
      </trkpt>
      <trkpt lat="46.93456" lon="10.49258">
        <ele>1104.83</ele>
      </trkpt>
      <trkpt lat="46.9332" lon="10.49217">
        <ele>1111.69</ele>
      </trkpt>
      <trkpt lat="46.93212" lon="10.48995">
        <ele>1120.83</ele>
      </trkpt>
      <trkpt lat="46.93203" lon="10.48877">
        <ele>1124.74</ele>
      </trkpt>
      <trkpt lat="46.93189" lon="10.4884">
        <ele>1126.15</ele>
      </trkpt>
      <trkpt lat="46.93175" lon="10.48822">
        <ele>1127.04</ele>
      </trkpt>
      <trkpt lat="46.9314" lon="10.48803">
        <ele>1128.86</ele>
      </trkpt>
      <trkpt lat="46.93097" lon="10.4881">
        <ele>1130.95</ele>
      </trkpt>
      <trkpt lat="46.93064" lon="10.48842">
        <ele>1131.0</ele>
      </trkpt>
      <trkpt lat="46.93002" lon="10.49024">
        <ele>1134.0</ele>
      </trkpt>
      <trkpt lat="46.92985" lon="10.49271">
        <ele>1143.0</ele>
      </trkpt>
      <trkpt lat="46.92946" lon="10.49343">
        <ele>1150.0</ele>
      </trkpt>
      <trkpt lat="46.92901" lon="10.49358">
        <ele>1154.0</ele>
      </trkpt>
      <trkpt lat="46.92768" lon="10.49281">
        <ele>1160.0</ele>
      </trkpt>
      <trkpt lat="46.92507" lon="10.49104">
        <ele>1159.0</ele>
      </trkpt>
      <trkpt lat="46.92305" lon="10.49023">
        <ele>1165.41</ele>
      </trkpt>
      <trkpt lat="46.92227" lon="10.49043">
        <ele>1168.5</ele>
      </trkpt>
      <trkpt lat="46.92109" lon="10.4908">
        <ele>1173.22</ele>
      </trkpt>
      <trkpt lat="46.91968" lon="10.49006">
        <ele>1179.07</ele>
      </trkpt>
      <trkpt lat="46.91827" lon="10.4897">
        <ele>1184.68</ele>
      </trkpt>
      <trkpt lat="46.91752" lon="10.48997">
        <ele>1187.71</ele>
      </trkpt>
      <trkpt lat="46.91677" lon="10.4904">
        <ele>1190.87</ele>
      </trkpt>
      <trkpt lat="46.91594" lon="10.49036">
        <ele>1194.11</ele>
      </trkpt>
      <trkpt lat="46.91513" lon="10.49096">
        <ele>1208.0</ele>
      </trkpt>
      <trkpt lat="46.91443" lon="10.49241">
        <ele>1202.0</ele>
      </trkpt>
      <trkpt lat="46.91376" lon="10.493">
        <ele>1203.0</ele>
      </trkpt>
      <trkpt lat="46.91318" lon="10.49356">
        <ele>1207.0</ele>
      </trkpt>
      <trkpt lat="46.91226" lon="10.49478">
        <ele>1215.0</ele>
      </trkpt>
      <trkpt lat="46.91087" lon="10.49527">
        <ele>1234.0</ele>
      </trkpt>
      <trkpt lat="46.90951" lon="10.49584">
        <ele>1236.0</ele>
      </trkpt>
      <trkpt lat="46.90861" lon="10.49621">
        <ele>1233.0</ele>
      </trkpt>
      <trkpt lat="46.90739" lon="10.49589">
        <ele>1232.0</ele>
      </trkpt>
      <trkpt lat="46.90569" lon="10.49464">
        <ele>1249.0</ele>
      </trkpt>
      <trkpt lat="46.90469" lon="10.49424">
        <ele>1256.0</ele>
      </trkpt>
      <trkpt lat="46.90292" lon="10.49292">
        <ele>1257.0</ele>
      </trkpt>
      <trkpt lat="46.90194" lon="10.49236">
        <ele>1260.0</ele>
      </trkpt>
      <trkpt lat="46.90116" lon="10.49267">
        <ele>1263.0</ele>
      </trkpt>
      <trkpt lat="46.89989" lon="10.49381">
        <ele>1269.0</ele>
      </trkpt>
      <trkpt lat="46.89885" lon="10.49429">
        <ele>1274.0</ele>
      </trkpt>
      <trkpt lat="46.89795" lon="10.49397">
        <ele>1277.0</ele>
      </trkpt>
      <trkpt lat="46.89694" lon="10.49371">
        <ele>1279.0</ele>
      </trkpt>
      <trkpt lat="46.89682" lon="10.49407">
        <ele>1280.0</ele>
      </trkpt>
      <trkpt lat="46.89793" lon="10.49465">
        <ele>1281.0</ele>
      </trkpt>
      <trkpt lat="46.8985" lon="10.49528">
        <ele>1283.0</ele>
      </trkpt>
      <trkpt lat="46.90011" lon="10.49512">
        <ele>1289.0</ele>
      </trkpt>
      <trkpt lat="46.90087" lon="10.4951">
        <ele>1297.0</ele>
      </trkpt>
      <trkpt lat="46.90146" lon="10.4954">
        <ele>1299.0</ele>
      </trkpt>
      <trkpt lat="46.9014" lon="10.49582">
        <ele>1300.0</ele>
      </trkpt>
      <trkpt lat="46.90081" lon="10.49551">
        <ele>1302.0</ele>
      </trkpt>
      <trkpt lat="46.90023" lon="10.49561">
        <ele>1305.0</ele>
      </trkpt>
      <trkpt lat="46.89915" lon="10.49689">
        <ele>1313.0</ele>
      </trkpt>
      <trkpt lat="46.89812" lon="10.49809">
        <ele>1319.0</ele>
      </trkpt>
      <trkpt lat="46.89739" lon="10.49826">
        <ele>1323.0</ele>
      </trkpt>
      <trkpt lat="46.89688" lon="10.49882">
        <ele>1326.0</ele>
      </trkpt>
      <trkpt lat="46.89643" lon="10.49892">
        <ele>1329.0</ele>
      </trkpt>
      <trkpt lat="46.89525" lon="10.49862">
        <ele>1333.0</ele>
      </trkpt>
      <trkpt lat="46.89457" lon="10.49861">
        <ele>1335.0</ele>
      </trkpt>
      <trkpt lat="46.8935" lon="10.49866">
        <ele>1337.0</ele>
      </trkpt>
      <trkpt lat="46.89238" lon="10.49871">
        <ele>1339.0</ele>
      </trkpt>
      <trkpt lat="46.89171" lon="10.49876">
        <ele>1340.0</ele>
      </trkpt>
      <trkpt lat="46.89115" lon="10.49891">
        <ele>1340.0</ele>
      </trkpt>
      <trkpt lat="46.89062" lon="10.49916">
        <ele>1341.0</ele>
      </trkpt>
      <trkpt lat="46.88908" lon="10.50003">
        <ele>1341.0</ele>
      </trkpt>
      <trkpt lat="46.88821" lon="10.50053">
        <ele>1340.0</ele>
      </trkpt>
      <trkpt lat="46.88694" lon="10.50124">
        <ele>1342.0</ele>
      </trkpt>
      <trkpt lat="46.88617" lon="10.50175">
        <ele>1346.0</ele>
      </trkpt>
      <trkpt lat="46.88527" lon="10.50269">
        <ele>1352.0</ele>
      </trkpt>
      <trkpt lat="46.88466" lon="10.5035">
        <ele>1357.0</ele>
      </trkpt>
      <trkpt lat="46.88366" lon="10.50463">
        <ele>1362.0</ele>
      </trkpt>
      <trkpt lat="46.88214" lon="10.50527">
        <ele>1364.0</ele>
      </trkpt>
      <trkpt lat="46.87785" lon="10.50642">
        <ele>1373.0</ele>
      </trkpt>
      <trkpt lat="46.87556" lon="10.50703">
        <ele>1393.0</ele>
      </trkpt>
      <trkpt lat="46.87306" lon="10.50768">
        <ele>1403.0</ele>
      </trkpt>
      <trkpt lat="46.86843" lon="10.5089">
        <ele>1414.0</ele>
      </trkpt>
      <trkpt lat="46.86768" lon="10.50904">
        <ele>1416.0</ele>
      </trkpt>
      <trkpt lat="46.86409" lon="10.50894">
        <ele>1416.0</ele>
      </trkpt>
      <trkpt lat="46.86144" lon="10.50806">
        <ele>1427.0</ele>
      </trkpt>
      <trkpt lat="46.85356" lon="10.50511">
        <ele>1433.0</ele>
      </trkpt>
      <trkpt lat="46.85196" lon="10.5047">
        <ele>1442.0</ele>
      </trkpt>
      <trkpt lat="46.85098" lon="10.50476">
        <ele>1444.0</ele>
      </trkpt>
      <trkpt lat="46.8499" lon="10.50494">
        <ele>1444.0</ele>
      </trkpt>
      <trkpt lat="46.84776" lon="10.50535">
        <ele>1452.0</ele>
      </trkpt>
      <trkpt lat="46.84705" lon="10.50548">
        <ele>1457.0</ele>
      </trkpt>
      <trkpt lat="46.84654" lon="10.50569">
        <ele>1459.0</ele>
      </trkpt>
      <trkpt lat="46.8462" lon="10.50601">
        <ele>1460.0</ele>
      </trkpt>
      <trkpt lat="46.84553" lon="10.50632">
        <ele>1461.0</ele>
      </trkpt>
      <trkpt lat="46.84416" lon="10.50691">
        <ele>1463.0</ele>
      </trkpt>
      <trkpt lat="46.84319" lon="10.50722">
        <ele>1469.0</ele>
      </trkpt>
      <trkpt lat="46.84143" lon="10.50711">
        <ele>1477.0</ele>
      </trkpt>
      <trkpt lat="46.84014" lon="10.50726">
        <ele>1481.0</ele>
      </trkpt>
      <trkpt lat="46.83872" lon="10.50709">
        <ele>1490.0</ele>
      </trkpt>
      <trkpt lat="46.83831" lon="10.50731">
        <ele>1494.0</ele>
      </trkpt>
      <trkpt lat="46.83767" lon="10.50795">
        <ele>1499.0</ele>
      </trkpt>
      <trkpt lat="46.8357" lon="10.5089">
        <ele>1508.0</ele>
      </trkpt>
      <trkpt lat="46.8347" lon="10.50995">
        <ele>1508.0</ele>
      </trkpt>
      <trkpt lat="46.83335" lon="10.5112">
        <ele>1508.0</ele>
      </trkpt>
      <trkpt lat="46.83211" lon="10.51267">
        <ele>1509.0</ele>
      </trkpt>
      <trkpt lat="46.83153" lon="10.51315">
        <ele>1511.0</ele>
      </trkpt>
      <trkpt lat="46.83106" lon="10.51357">
        <ele>1512.0</ele>
      </trkpt>
      <trkpt lat="46.83061" lon="10.51415">
        <ele>1514.0</ele>
      </trkpt>
      <trkpt lat="46.83003" lon="10.51524">
        <ele>1515.0</ele>
      </trkpt>
      <trkpt lat="46.82892" lon="10.51798">
        <ele>1518.0</ele>
      </trkpt>
      <trkpt lat="46.82818" lon="10.51981">
        <ele>1520.0</ele>
      </trkpt>
      <trkpt lat="46.82756" lon="10.52103">
        <ele>1516.0</ele>
      </trkpt>
      <trkpt lat="46.82713" lon="10.52133">
        <ele>1513.0</ele>
      </trkpt>
      <trkpt lat="46.82618" lon="10.52141">
        <ele>1511.0</ele>
      </trkpt>
      <trkpt lat="46.82299" lon="10.52159">
        <ele>1503.0</ele>
      </trkpt>
      <trkpt lat="46.82108" lon="10.52297">
        <ele>1500.0</ele>
      </trkpt>
      <trkpt lat="46.82048" lon="10.5236">
        <ele>1498.0</ele>
      </trkpt>
      <trkpt lat="46.81874" lon="10.5269">
        <ele>1497.0</ele>
      </trkpt>
      <trkpt lat="46.8183" lon="10.52961">
        <ele>1498.0</ele>
      </trkpt>
      <trkpt lat="46.81791" lon="10.53036">
        <ele>1499.0</ele>
      </trkpt>
      <trkpt lat="46.81661" lon="10.53092">
        <ele>1495.0</ele>
      </trkpt>
      <trkpt lat="46.81457" lon="10.5325">
        <ele>1499.0</ele>
      </trkpt>
      <trkpt lat="46.81338" lon="10.53436">
        <ele>1504.0</ele>
      </trkpt>
      <trkpt lat="46.81202" lon="10.53598">
        <ele>1506.0</ele>
      </trkpt>
      <trkpt lat="46.81132" lon="10.53766">
        <ele>1507.0</ele>
      </trkpt>
      <trkpt lat="46.81093" lon="10.53823">
        <ele>1508.0</ele>
      </trkpt>
      <trkpt lat="46.80889" lon="10.54014">
        <ele>1508.0</ele>
      </trkpt>
      <trkpt lat="46.80836" lon="10.54064">
        <ele>1507.0</ele>
      </trkpt>
      <trkpt lat="46.80747" lon="10.54147">
        <ele>1506.0</ele>
      </trkpt>
      <trkpt lat="46.80655" lon="10.54187">
        <ele>1504.0</ele>
      </trkpt>
      <trkpt lat="46.80609" lon="10.54181">
        <ele>1503.0</ele>
      </trkpt>
      <trkpt lat="46.80474" lon="10.54113">
        <ele>1504.0</ele>
      </trkpt>
      <trkpt lat="46.80408" lon="10.54074">
        <ele>1510.0</ele>
      </trkpt>
      <trkpt lat="46.80359" lon="10.53999">
        <ele>1514.0</ele>
      </trkpt>
      <trkpt lat="46.80321" lon="10.53966">
        <ele>1517.0</ele>
      </trkpt>
      <trkpt lat="46.80191" lon="10.53985">
        <ele>1517.0</ele>
      </trkpt>
      <trkpt lat="46.79923" lon="10.54115">
        <ele>1517.0</ele>
      </trkpt>
      <trkpt lat="46.79643" lon="10.54205">
        <ele>1511.0</ele>
      </trkpt>
      <trkpt lat="46.79565" lon="10.54194">
        <ele>1508.0</ele>
      </trkpt>
      <trkpt lat="46.79432" lon="10.54147">
        <ele>1506.0</ele>
      </trkpt>
      <trkpt lat="46.794" lon="10.54147">
        <ele>1507.0</ele>
      </trkpt>
      <trkpt lat="46.79305" lon="10.54177">
        <ele>1511.0</ele>
      </trkpt>
      <trkpt lat="46.79248" lon="10.54159">
        <ele>1512.0</ele>
      </trkpt>
      <trkpt lat="46.79173" lon="10.54159">
        <ele>1510.0</ele>
      </trkpt>
      <trkpt lat="46.79101" lon="10.5417">
        <ele>1507.0</ele>
      </trkpt>
      <trkpt lat="46.79019" lon="10.54144">
        <ele>1505.0</ele>
      </trkpt>
      <trkpt lat="46.78906" lon="10.54131">
        <ele>1504.0</ele>
      </trkpt>
      <trkpt lat="46.78796" lon="10.54152">
        <ele>1502.0</ele>
      </trkpt>
      <trkpt lat="46.78547" lon="10.54219">
        <ele>1500.0</ele>
      </trkpt>
      <trkpt lat="46.78431" lon="10.5424">
        <ele>1505.0</ele>
      </trkpt>
      <trkpt lat="46.78289" lon="10.54096">
        <ele>1503.0</ele>
      </trkpt>
      <trkpt lat="46.78148" lon="10.53937">
        <ele>1505.0</ele>
      </trkpt>
      <trkpt lat="46.78041" lon="10.53768">
        <ele>1509.0</ele>
      </trkpt>
      <trkpt lat="46.77795" lon="10.53588">
        <ele>1505.0</ele>
      </trkpt>
      <trkpt lat="46.77568" lon="10.53495">
        <ele>1501.0</ele>
      </trkpt>
      <trkpt lat="46.7741" lon="10.5349">
        <ele>1500.0</ele>
      </trkpt>
      <trkpt lat="46.77371" lon="10.53486">
        <ele>1499.0</ele>
      </trkpt>
      <trkpt lat="46.76931" lon="10.5331">
        <ele>1493.0</ele>
      </trkpt>
      <trkpt lat="46.76839" lon="10.53285">
        <ele>1483.0</ele>
      </trkpt>
      <trkpt lat="46.76775" lon="10.53294">
        <ele>1481.0</ele>
      </trkpt>
      <trkpt lat="46.76732" lon="10.53303">
        <ele>1480.0</ele>
      </trkpt>
      <trkpt lat="46.76622" lon="10.53325">
        <ele>1478.0</ele>
      </trkpt>
      <trkpt lat="46.76498" lon="10.53337">
        <ele>1473.0</ele>
      </trkpt>
      <trkpt lat="46.76432" lon="10.53355">
        <ele>1470.0</ele>
      </trkpt>
      <trkpt lat="46.76393" lon="10.53374">
        <ele>1469.0</ele>
      </trkpt>
      <trkpt lat="46.76333" lon="10.53389">
        <ele>1467.0</ele>
      </trkpt>
      <trkpt lat="46.76188" lon="10.5344">
        <ele>1461.0</ele>
      </trkpt>
      <trkpt lat="46.76139" lon="10.53464">
        <ele>1458.0</ele>
      </trkpt>
      <trkpt lat="46.76094" lon="10.53504">
        <ele>1458.0</ele>
      </trkpt>
      <trkpt lat="46.76042" lon="10.53557">
        <ele>1458.0</ele>
      </trkpt>
      <trkpt lat="46.75981" lon="10.53634">
        <ele>1457.0</ele>
      </trkpt>
      <trkpt lat="46.75916" lon="10.53717">
        <ele>1457.0</ele>
      </trkpt>
      <trkpt lat="46.75886" lon="10.53743">
        <ele>1457.0</ele>
      </trkpt>
      <trkpt lat="46.75837" lon="10.53758">
        <ele>1456.0</ele>
      </trkpt>
      <trkpt lat="46.75701" lon="10.53721">
        <ele>1455.0</ele>
      </trkpt>
      <trkpt lat="46.75585" lon="10.53694">
        <ele>1454.0</ele>
      </trkpt>
      <trkpt lat="46.75278" lon="10.53622">
        <ele>1455.0</ele>
      </trkpt>
      <trkpt lat="46.75123" lon="10.53571">
        <ele>1454.0</ele>
      </trkpt>
      <trkpt lat="46.75061" lon="10.53568">
        <ele>1454.0</ele>
      </trkpt>
      <trkpt lat="46.74959" lon="10.53582">
        <ele>1454.0</ele>
      </trkpt>
      <trkpt lat="46.74841" lon="10.53551">
        <ele>1454.0</ele>
      </trkpt>
      <trkpt lat="46.7471" lon="10.53555">
        <ele>1455.0</ele>
      </trkpt>
      <trkpt lat="46.74486" lon="10.53527">
        <ele>1457.0</ele>
      </trkpt>
      <trkpt lat="46.74217" lon="10.53463">
        <ele>1453.0</ele>
      </trkpt>
      <trkpt lat="46.74075" lon="10.53436">
        <ele>1452.0</ele>
      </trkpt>
      <trkpt lat="46.73753" lon="10.5342">
        <ele>1450.0</ele>
      </trkpt>
      <trkpt lat="46.73667" lon="10.53449">
        <ele>1447.0</ele>
      </trkpt>
      <trkpt lat="46.73592" lon="10.5351">
        <ele>1447.0</ele>
      </trkpt>
      <trkpt lat="46.73442" lon="10.53613">
        <ele>1447.0</ele>
      </trkpt>
      <trkpt lat="46.73206" lon="10.53718">
        <ele>1446.0</ele>
      </trkpt>
      <trkpt lat="46.73083" lon="10.53821">
        <ele>1444.0</ele>
      </trkpt>
      <trkpt lat="46.72891" lon="10.53858">
        <ele>1438.0</ele>
      </trkpt>
      <trkpt lat="46.72809" lon="10.53886">
        <ele>1432.0</ele>
      </trkpt>
      <trkpt lat="46.72522" lon="10.54083">
        <ele>1419.0</ele>
      </trkpt>
      <trkpt lat="46.72489" lon="10.5408">
        <ele>1412.0</ele>
      </trkpt>
      <trkpt lat="46.72477" lon="10.54035">
        <ele>1409.0</ele>
      </trkpt>
      <trkpt lat="46.72507" lon="10.53842">
        <ele>1402.0</ele>
      </trkpt>
      <trkpt lat="46.72523" lon="10.53524">
        <ele>1389.0</ele>
      </trkpt>
      <trkpt lat="46.72576" lon="10.53291">
        <ele>1378.0</ele>
      </trkpt>
      <trkpt lat="46.72561" lon="10.53255">
        <ele>1374.0</ele>
      </trkpt>
      <trkpt lat="46.72522" lon="10.53243">
        <ele>1372.0</ele>
      </trkpt>
      <trkpt lat="46.7208" lon="10.53392">
        <ele>1348.0</ele>
      </trkpt>
      <trkpt lat="46.72026" lon="10.53427">
        <ele>1342.0</ele>
      </trkpt>
      <trkpt lat="46.71679" lon="10.53755">
        <ele>1327.0</ele>
      </trkpt>
      <trkpt lat="46.7164" lon="10.53756">
        <ele>1318.0</ele>
      </trkpt>
      <trkpt lat="46.71631" lon="10.53568">
        <ele>1313.0</ele>
      </trkpt>
      <trkpt lat="46.71655" lon="10.53119">
        <ele>1294.0</ele>
      </trkpt>
      <trkpt lat="46.71624" lon="10.53105">
        <ele>1288.0</ele>
      </trkpt>
      <trkpt lat="46.71523" lon="10.53239">
        <ele>1280.0</ele>
      </trkpt>
      <trkpt lat="46.71469" lon="10.53274">
        <ele>1276.0</ele>
      </trkpt>
      <trkpt lat="46.71219" lon="10.53348">
        <ele>1264.0</ele>
      </trkpt>
      <trkpt lat="46.71172" lon="10.53392">
        <ele>1257.0</ele>
      </trkpt>
      <trkpt lat="46.7115" lon="10.53419">
        <ele>1254.0</ele>
      </trkpt>
      <trkpt lat="46.71148" lon="10.53442">
        <ele>1253.0</ele>
      </trkpt>
      <trkpt lat="46.71135" lon="10.53491">
        <ele>1251.0</ele>
      </trkpt>
      <trkpt lat="46.71082" lon="10.53549">
        <ele>1248.0</ele>
      </trkpt>
      <trkpt lat="46.70858" lon="10.53682">
        <ele>1239.0</ele>
      </trkpt>
      <trkpt lat="46.70781" lon="10.53696">
        <ele>1232.0</ele>
      </trkpt>
      <trkpt lat="46.70641" lon="10.53831">
        <ele>1225.0</ele>
      </trkpt>
      <trkpt lat="46.70437" lon="10.54043">
        <ele>1207.0</ele>
      </trkpt>
      <trkpt lat="46.70405" lon="10.54004">
        <ele>1202.0</ele>
      </trkpt>
      <trkpt lat="46.70423" lon="10.53902">
        <ele>1197.0</ele>
      </trkpt>
      <trkpt lat="46.70377" lon="10.53408">
        <ele>1189.0</ele>
      </trkpt>
      <trkpt lat="46.70386" lon="10.53281">
        <ele>1182.0</ele>
      </trkpt>
      <trkpt lat="46.70388" lon="10.53213">
        <ele>1178.0</ele>
      </trkpt>
      <trkpt lat="46.70371" lon="10.53195">
        <ele>1176.0</ele>
      </trkpt>
      <trkpt lat="46.70348" lon="10.53195">
        <ele>1175.0</ele>
      </trkpt>
      <trkpt lat="46.702" lon="10.53336">
        <ele>1169.0</ele>
      </trkpt>
      <trkpt lat="46.70054" lon="10.53482">
        <ele>1158.0</ele>
      </trkpt>
      <trkpt lat="46.69958" lon="10.53582">
        <ele>1149.0</ele>
      </trkpt>
      <trkpt lat="46.69836" lon="10.53647">
        <ele>1140.0</ele>
      </trkpt>
      <trkpt lat="46.69741" lon="10.53603">
        <ele>1132.0</ele>
      </trkpt>
      <trkpt lat="46.69675" lon="10.53616">
        <ele>1125.0</ele>
      </trkpt>
      <trkpt lat="46.69544" lon="10.53801">
        <ele>1118.0</ele>
      </trkpt>
      <trkpt lat="46.69467" lon="10.53921">
        <ele>1106.0</ele>
      </trkpt>
      <trkpt lat="46.69369" lon="10.54063">
        <ele>1095.0</ele>
      </trkpt>
      <trkpt lat="46.69327" lon="10.54083">
        <ele>1089.0</ele>
      </trkpt>
      <trkpt lat="46.69277" lon="10.54055">
        <ele>1085.0</ele>
      </trkpt>
      <trkpt lat="46.6916" lon="10.53907">
        <ele>1077.0</ele>
      </trkpt>
      <trkpt lat="46.69041" lon="10.53768">
        <ele>1067.0</ele>
      </trkpt>
      <trkpt lat="46.68986" lon="10.53752">
        <ele>1061.0</ele>
      </trkpt>
      <trkpt lat="46.68906" lon="10.53785">
        <ele>1055.0</ele>
      </trkpt>
      <trkpt lat="46.68782" lon="10.5398">
        <ele>1047.0</ele>
      </trkpt>
      <trkpt lat="46.68726" lon="10.54087">
        <ele>1038.0</ele>
      </trkpt>
      <trkpt lat="46.6872" lon="10.54172">
        <ele>1034.0</ele>
      </trkpt>
      <trkpt lat="46.68717" lon="10.54319">
        <ele>1030.0</ele>
      </trkpt>
      <trkpt lat="46.68713" lon="10.54504">
        <ele>1026.0</ele>
      </trkpt>
      <trkpt lat="46.68706" lon="10.54683">
        <ele>1025.0</ele>
      </trkpt>
      <trkpt lat="46.68684" lon="10.54844">
        <ele>1028.0</ele>
      </trkpt>
      <trkpt lat="46.68661" lon="10.55011">
        <ele>1033.0</ele>
      </trkpt>
      <trkpt lat="46.68632" lon="10.5514">
        <ele>1038.0</ele>
      </trkpt>
      <trkpt lat="46.6858" lon="10.55254">
        <ele>1039.0</ele>
      </trkpt>
      <trkpt lat="46.68525" lon="10.55342">
        <ele>1039.0</ele>
      </trkpt>
      <trkpt lat="46.68469" lon="10.55439">
        <ele>1039.0</ele>
      </trkpt>
      <trkpt lat="46.68453" lon="10.55526">
        <ele>1038.0</ele>
      </trkpt>
      <trkpt lat="46.68442" lon="10.55738">
        <ele>1037.0</ele>
      </trkpt>
      <trkpt lat="46.68373" lon="10.55892">
        <ele>1038.0</ele>
      </trkpt>
      <trkpt lat="46.68342" lon="10.55938">
        <ele>1037.0</ele>
      </trkpt>
      <trkpt lat="46.68293" lon="10.55941">
        <ele>1035.0</ele>
      </trkpt>
      <trkpt lat="46.68239" lon="10.55901">
        <ele>1032.0</ele>
      </trkpt>
      <trkpt lat="46.68188" lon="10.55866">
        <ele>1030.0</ele>
      </trkpt>
      <trkpt lat="46.68144" lon="10.55863">
        <ele>1029.0</ele>
      </trkpt>
      <trkpt lat="46.68111" lon="10.55928">
        <ele>1029.0</ele>
      </trkpt>
      <trkpt lat="46.68106" lon="10.55989">
        <ele>1029.0</ele>
      </trkpt>
      <trkpt lat="46.68081" lon="10.5616">
        <ele>1029.0</ele>
      </trkpt>
      <trkpt lat="46.6805" lon="10.56314">
        <ele>1030.0</ele>
      </trkpt>
      <trkpt lat="46.6803" lon="10.56401">
        <ele>1027.0</ele>
      </trkpt>
      <trkpt lat="46.67989" lon="10.56576">
        <ele>1016.0</ele>
      </trkpt>
      <trkpt lat="46.67955" lon="10.56645">
        <ele>1013.0</ele>
      </trkpt>
      <trkpt lat="46.67917" lon="10.56745">
        <ele>1011.0</ele>
      </trkpt>
      <trkpt lat="46.67895" lon="10.56922">
        <ele>1008.0</ele>
      </trkpt>
      <trkpt lat="46.67875" lon="10.56996">
        <ele>1005.0</ele>
      </trkpt>
      <trkpt lat="46.67757" lon="10.57108">
        <ele>999.0</ele>
      </trkpt>
      <trkpt lat="46.67678" lon="10.57173">
        <ele>992.0</ele>
      </trkpt>
      <trkpt lat="46.67614" lon="10.57258">
        <ele>988.0</ele>
      </trkpt>
      <trkpt lat="46.67537" lon="10.57362">
        <ele>985.0</ele>
      </trkpt>
      <trkpt lat="46.6744" lon="10.57496">
        <ele>981.0</ele>
      </trkpt>
      <trkpt lat="46.67374" lon="10.5756">
        <ele>978.0</ele>
      </trkpt>
      <trkpt lat="46.67292" lon="10.57674">
        <ele>974.0</ele>
      </trkpt>
      <trkpt lat="46.67195" lon="10.57846">
        <ele>966.0</ele>
      </trkpt>
      <trkpt lat="46.67063" lon="10.58007">
        <ele>957.0</ele>
      </trkpt>
      <trkpt lat="46.66996" lon="10.58082">
        <ele>949.0</ele>
      </trkpt>
      <trkpt lat="46.66919" lon="10.58127">
        <ele>943.0</ele>
      </trkpt>
      <trkpt lat="46.66795" lon="10.58207">
        <ele>931.0</ele>
      </trkpt>
      <trkpt lat="46.66713" lon="10.58279">
        <ele>922.0</ele>
      </trkpt>
      <trkpt lat="46.66677" lon="10.58277">
        <ele>919.0</ele>
      </trkpt>
      <trkpt lat="46.66579" lon="10.58202">
        <ele>919.0</ele>
      </trkpt>
      <trkpt lat="46.66542" lon="10.58196">
        <ele>919.0</ele>
      </trkpt>
      <trkpt lat="46.66507" lon="10.58206">
        <ele>919.0</ele>
      </trkpt>
      <trkpt lat="46.66385" lon="10.58254">
        <ele>920.0</ele>
      </trkpt>
      <trkpt lat="46.66315" lon="10.58287">
        <ele>920.0</ele>
      </trkpt>
      <trkpt lat="46.66269" lon="10.58355">
        <ele>918.0</ele>
      </trkpt>
      <trkpt lat="46.66141" lon="10.58604">
        <ele>914.0</ele>
      </trkpt>
      <trkpt lat="46.66051" lon="10.58666">
        <ele>911.0</ele>
      </trkpt>
      <trkpt lat="46.65983" lon="10.58706">
        <ele>909.0</ele>
      </trkpt>
      <trkpt lat="46.65869" lon="10.58745">
        <ele>907.0</ele>
      </trkpt>
      <trkpt lat="46.65659" lon="10.58826">
        <ele>904.0</ele>
      </trkpt>
      <trkpt lat="46.65459" lon="10.58897">
        <ele>901.0</ele>
      </trkpt>
      <trkpt lat="46.65283" lon="10.58969">
        <ele>899.0</ele>
      </trkpt>
      <trkpt lat="46.65182" lon="10.59016">
        <ele>897.0</ele>
      </trkpt>
      <trkpt lat="46.64978" lon="10.59157">
        <ele>900.0</ele>
      </trkpt>
      <trkpt lat="46.6485" lon="10.59255">
        <ele>903.0</ele>
      </trkpt>
      <trkpt lat="46.64784" lon="10.59285">
        <ele>903.0</ele>
      </trkpt>
      <trkpt lat="46.64625" lon="10.59319">
        <ele>901.0</ele>
      </trkpt>
      <trkpt lat="46.64481" lon="10.59444">
        <ele>900.0</ele>
      </trkpt>
      <trkpt lat="46.64283" lon="10.59688">
        <ele>897.0</ele>
      </trkpt>
      <trkpt lat="46.64181" lon="10.59773">
        <ele>894.0</ele>
      </trkpt>
      <trkpt lat="46.63958" lon="10.60046">
        <ele>900.0</ele>
      </trkpt>
      <trkpt lat="46.63824" lon="10.6022">
        <ele>898.0</ele>
      </trkpt>
      <trkpt lat="46.63666" lon="10.60551">
        <ele>896.0</ele>
      </trkpt>
      <trkpt lat="46.63582" lon="10.60807">
        <ele>895.0</ele>
      </trkpt>
      <trkpt lat="46.63476" lon="10.61074">
        <ele>893.0</ele>
      </trkpt>
      <trkpt lat="46.63394" lon="10.61306">
        <ele>893.0</ele>
      </trkpt>
      <trkpt lat="46.63376" lon="10.61383">
        <ele>892.0</ele>
      </trkpt>
      <trkpt lat="46.63347" lon="10.61435">
        <ele>892.0</ele>
      </trkpt>
      <trkpt lat="46.63341" lon="10.61451">
        <ele>891.0</ele>
      </trkpt>
      <trkpt lat="46.63341" lon="10.61477">
        <ele>891.0</ele>
      </trkpt>
      <trkpt lat="46.63324" lon="10.6155">
        <ele>891.0</ele>
      </trkpt>
      <trkpt lat="46.63312" lon="10.61638">
        <ele>890.0</ele>
      </trkpt>
      <trkpt lat="46.63304" lon="10.61678">
        <ele>890.0</ele>
      </trkpt>
      <trkpt lat="46.63267" lon="10.61778">
        <ele>889.0</ele>
      </trkpt>
      <trkpt lat="46.63252" lon="10.61918">
        <ele>888.0</ele>
      </trkpt>
      <trkpt lat="46.63202" lon="10.62122">
        <ele>888.0</ele>
      </trkpt>
      <trkpt lat="46.63199" lon="10.6224">
        <ele>887.0</ele>
      </trkpt>
      <trkpt lat="46.63165" lon="10.6236">
        <ele>886.0</ele>
      </trkpt>
      <trkpt lat="46.63107" lon="10.62731">
        <ele>885.0</ele>
      </trkpt>
      <trkpt lat="46.63084" lon="10.62995">
        <ele>885.0</ele>
      </trkpt>
      <trkpt lat="46.63089" lon="10.63357">
        <ele>888.0</ele>
      </trkpt>
      <trkpt lat="46.63054" lon="10.63655">
        <ele>884.0</ele>
      </trkpt>
      <trkpt lat="46.63021" lon="10.63916">
        <ele>878.0</ele>
      </trkpt>
      <trkpt lat="46.63012" lon="10.63991">
        <ele>876.0</ele>
      </trkpt>
      <trkpt lat="46.62995" lon="10.64116">
        <ele>876.0</ele>
      </trkpt>
      <trkpt lat="46.62987" lon="10.64135">
        <ele>876.0</ele>
      </trkpt>
      <trkpt lat="46.62985" lon="10.6415">
        <ele>876.0</ele>
      </trkpt>
      <trkpt lat="46.62986" lon="10.64196">
        <ele>876.0</ele>
      </trkpt>
      <trkpt lat="46.62956" lon="10.64443">
        <ele>875.0</ele>
      </trkpt>
      <trkpt lat="46.62933" lon="10.64624">
        <ele>877.0</ele>
      </trkpt>
      <trkpt lat="46.62902" lon="10.64868">
        <ele>882.0</ele>
      </trkpt>
      <trkpt lat="46.62889" lon="10.64973">
        <ele>884.0</ele>
      </trkpt>
      <trkpt lat="46.62875" lon="10.65104">
        <ele>885.0</ele>
      </trkpt>
      <trkpt lat="46.62868" lon="10.65528">
        <ele>890.0</ele>
      </trkpt>
      <trkpt lat="46.62848" lon="10.65937">
        <ele>887.0</ele>
      </trkpt>
      <trkpt lat="46.62841" lon="10.6618">
        <ele>886.0</ele>
      </trkpt>
      <trkpt lat="46.62881" lon="10.66574">
        <ele>888.0</ele>
      </trkpt>
      <trkpt lat="46.62859" lon="10.66868">
        <ele>891.0</ele>
      </trkpt>
      <trkpt lat="46.6277" lon="10.67849">
        <ele>888.0</ele>
      </trkpt>
      <trkpt lat="46.62665" lon="10.6836">
        <ele>881.0</ele>
      </trkpt>
      <trkpt lat="46.62529" lon="10.69004">
        <ele>873.0</ele>
      </trkpt>
      <trkpt lat="46.62444" lon="10.69327">
        <ele>874.0</ele>
      </trkpt>
      <trkpt lat="46.61932" lon="10.70646">
        <ele>898.0</ele>
      </trkpt>
      <trkpt lat="46.6178" lon="10.71077">
        <ele>911.0</ele>
      </trkpt>
      <trkpt lat="46.61692" lon="10.71373">
        <ele>913.0</ele>
      </trkpt>
      <trkpt lat="46.61662" lon="10.71621">
        <ele>913.0</ele>
      </trkpt>
      <trkpt lat="46.6165" lon="10.71886">
        <ele>913.0</ele>
      </trkpt>
      <trkpt lat="46.616" lon="10.72173">
        <ele>910.0</ele>
      </trkpt>
      <trkpt lat="46.61601" lon="10.72312">
        <ele>908.0</ele>
      </trkpt>
      <trkpt lat="46.6161" lon="10.72481">
        <ele>906.0</ele>
      </trkpt>
      <trkpt lat="46.6164" lon="10.72654">
        <ele>902.0</ele>
      </trkpt>
      <trkpt lat="46.61657" lon="10.72855">
        <ele>898.0</ele>
      </trkpt>
      <trkpt lat="46.61717" lon="10.73019">
        <ele>894.0</ele>
      </trkpt>
      <trkpt lat="46.61741" lon="10.73155">
        <ele>892.0</ele>
      </trkpt>
      <trkpt lat="46.61784" lon="10.73237">
        <ele>892.0</ele>
      </trkpt>
      <trkpt lat="46.61881" lon="10.7337">
        <ele>892.0</ele>
      </trkpt>
      <trkpt lat="46.61917" lon="10.73483">
        <ele>892.0</ele>
      </trkpt>
      <trkpt lat="46.61968" lon="10.73565">
        <ele>892.0</ele>
      </trkpt>
      <trkpt lat="46.62212" lon="10.73889">
        <ele>894.0</ele>
      </trkpt>
      <trkpt lat="46.62311" lon="10.7399">
        <ele>894.0</ele>
      </trkpt>
      <trkpt lat="46.62429" lon="10.74124">
        <ele>892.0</ele>
      </trkpt>
      <trkpt lat="46.62466" lon="10.74278">
        <ele>886.0</ele>
      </trkpt>
      <trkpt lat="46.62504" lon="10.74467">
        <ele>876.0</ele>
      </trkpt>
      <trkpt lat="46.62598" lon="10.74696">
        <ele>865.0</ele>
      </trkpt>
      <trkpt lat="46.62732" lon="10.74948">
        <ele>855.0</ele>
      </trkpt>
      <trkpt lat="46.62854" lon="10.75148">
        <ele>844.0</ele>
      </trkpt>
      <trkpt lat="46.62869" lon="10.75234">
        <ele>835.0</ele>
      </trkpt>
      <trkpt lat="46.62837" lon="10.75304">
        <ele>830.0</ele>
      </trkpt>
      <trkpt lat="46.62732" lon="10.75325">
        <ele>826.0</ele>
      </trkpt>
      <trkpt lat="46.6251" lon="10.75343">
        <ele>817.0</ele>
      </trkpt>
      <trkpt lat="46.62456" lon="10.75411">
        <ele>809.0</ele>
      </trkpt>
      <trkpt lat="46.62448" lon="10.7547">
        <ele>805.0</ele>
      </trkpt>
      <trkpt lat="46.62488" lon="10.75581">
        <ele>802.0</ele>
      </trkpt>
      <trkpt lat="46.62691" lon="10.75954">
        <ele>789.0</ele>
      </trkpt>
      <trkpt lat="46.62781" lon="10.76112">
        <ele>780.0</ele>
      </trkpt>
      <trkpt lat="46.62861" lon="10.76222">
        <ele>777.0</ele>
      </trkpt>
      <trkpt lat="46.62869" lon="10.76259">
        <ele>775.0</ele>
      </trkpt>
      <trkpt lat="46.6288" lon="10.76276">
        <ele>775.0</ele>
      </trkpt>
      <trkpt lat="46.62902" lon="10.7628">
        <ele>774.0</ele>
      </trkpt>
      <trkpt lat="46.63035" lon="10.76464">
        <ele>771.0</ele>
      </trkpt>
      <trkpt lat="46.6308" lon="10.76536">
        <ele>769.0</ele>
      </trkpt>
      <trkpt lat="46.6311" lon="10.76662">
        <ele>765.0</ele>
      </trkpt>
      <trkpt lat="46.63104" lon="10.76774">
        <ele>763.0</ele>
      </trkpt>
      <trkpt lat="46.63023" lon="10.77042">
        <ele>753.0</ele>
      </trkpt>
      <trkpt lat="46.6298" lon="10.7704">
        <ele>749.0</ele>
      </trkpt>
      <trkpt lat="46.629" lon="10.76991">
        <ele>743.0</ele>
      </trkpt>
      <trkpt lat="46.62804" lon="10.76955">
        <ele>735.0</ele>
      </trkpt>
      <trkpt lat="46.62791" lon="10.7695">
        <ele>733.0</ele>
      </trkpt>
      <trkpt lat="46.62776" lon="10.7697">
        <ele>732.0</ele>
      </trkpt>
      <trkpt lat="46.62641" lon="10.77042">
        <ele>724.0</ele>
      </trkpt>
      <trkpt lat="46.62578" lon="10.77084">
        <ele>719.0</ele>
      </trkpt>
      <trkpt lat="46.62472" lon="10.77209">
        <ele>713.0</ele>
      </trkpt>
      <trkpt lat="46.62437" lon="10.77318">
        <ele>711.0</ele>
      </trkpt>
      <trkpt lat="46.62472" lon="10.77551">
        <ele>709.0</ele>
      </trkpt>
      <trkpt lat="46.62545" lon="10.77805">
        <ele>704.0</ele>
      </trkpt>
      <trkpt lat="46.62543" lon="10.77822">
        <ele>702.0</ele>
      </trkpt>
      <trkpt lat="46.62544" lon="10.77838">
        <ele>701.0</ele>
      </trkpt>
      <trkpt lat="46.62553" lon="10.77843">
        <ele>701.0</ele>
      </trkpt>
      <trkpt lat="46.62569" lon="10.7789">
        <ele>700.0</ele>
      </trkpt>
      <trkpt lat="46.62598" lon="10.77996">
        <ele>700.0</ele>
      </trkpt>
      <trkpt lat="46.62611" lon="10.78128">
        <ele>700.0</ele>
      </trkpt>
      <trkpt lat="46.62609" lon="10.78269">
        <ele>697.0</ele>
      </trkpt>
      <trkpt lat="46.62609" lon="10.78416">
        <ele>694.0</ele>
      </trkpt>
      <trkpt lat="46.62606" lon="10.78788">
        <ele>689.0</ele>
      </trkpt>
      <trkpt lat="46.62599" lon="10.78939">
        <ele>686.0</ele>
      </trkpt>
      <trkpt lat="46.62574" lon="10.79167">
        <ele>684.0</ele>
      </trkpt>
      <trkpt lat="46.6254" lon="10.79475">
        <ele>680.0</ele>
      </trkpt>
      <trkpt lat="46.62492" lon="10.79805">
        <ele>679.0</ele>
      </trkpt>
      <trkpt lat="46.62325" lon="10.80138">
        <ele>676.0</ele>
      </trkpt>
      <trkpt lat="46.62316" lon="10.80265">
        <ele>673.0</ele>
      </trkpt>
      <trkpt lat="46.6231" lon="10.80431">
        <ele>670.0</ele>
      </trkpt>
      <trkpt lat="46.62301" lon="10.80653">
        <ele>669.0</ele>
      </trkpt>
      <trkpt lat="46.62291" lon="10.80683">
        <ele>668.0</ele>
      </trkpt>
      <trkpt lat="46.62281" lon="10.80695">
        <ele>668.0</ele>
      </trkpt>
      <trkpt lat="46.62281" lon="10.80715">
        <ele>668.0</ele>
      </trkpt>
      <trkpt lat="46.62297" lon="10.80726">
        <ele>668.0</ele>
      </trkpt>
      <trkpt lat="46.62285" lon="10.80841">
        <ele>668.0</ele>
      </trkpt>
      <trkpt lat="46.62229" lon="10.81264">
        <ele>666.0</ele>
      </trkpt>
      <trkpt lat="46.62154" lon="10.81788">
        <ele>669.0</ele>
      </trkpt>
      <trkpt lat="46.62107" lon="10.82116">
        <ele>673.0</ele>
      </trkpt>
      <trkpt lat="46.62116" lon="10.82504">
        <ele>665.0</ele>
      </trkpt>
      <trkpt lat="46.62138" lon="10.83057">
        <ele>657.0</ele>
      </trkpt>
      <trkpt lat="46.62117" lon="10.83231">
        <ele>656.0</ele>
      </trkpt>
      <trkpt lat="46.62057" lon="10.83413">
        <ele>655.0</ele>
      </trkpt>
      <trkpt lat="46.61925" lon="10.83752">
        <ele>655.0</ele>
      </trkpt>
      <trkpt lat="46.61895" lon="10.83857">
        <ele>654.0</ele>
      </trkpt>
      <trkpt lat="46.61891" lon="10.83977">
        <ele>652.0</ele>
      </trkpt>
      <trkpt lat="46.61935" lon="10.84152">
        <ele>649.0</ele>
      </trkpt>
      <trkpt lat="46.61947" lon="10.84219">
        <ele>646.0</ele>
      </trkpt>
      <trkpt lat="46.61934" lon="10.84245">
        <ele>645.0</ele>
      </trkpt>
      <trkpt lat="46.61903" lon="10.84251">
        <ele>645.0</ele>
      </trkpt>
      <trkpt lat="46.61813" lon="10.84127">
        <ele>646.0</ele>
      </trkpt>
      <trkpt lat="46.61787" lon="10.84048">
        <ele>647.0</ele>
      </trkpt>
      <trkpt lat="46.61801" lon="10.83957">
        <ele>648.0</ele>
      </trkpt>
      <trkpt lat="46.61808" lon="10.83889">
        <ele>649.0</ele>
      </trkpt>
      <trkpt lat="46.61786" lon="10.83818">
        <ele>650.0</ele>
      </trkpt>
      <trkpt lat="46.61751" lon="10.83779">
        <ele>651.0</ele>
      </trkpt>
      <trkpt lat="46.6171" lon="10.83768">
        <ele>652.0</ele>
      </trkpt>
      <trkpt lat="46.61644" lon="10.83763">
        <ele>653.0</ele>
      </trkpt>
      <trkpt lat="46.61637" lon="10.83733">
        <ele>653.0</ele>
      </trkpt>
      <trkpt lat="46.61645" lon="10.83714">
        <ele>653.0</ele>
      </trkpt>
      <trkpt lat="46.61668" lon="10.83708">
        <ele>654.0</ele>
      </trkpt>
      <trkpt lat="46.61715" lon="10.83626">
        <ele>654.0</ele>
      </trkpt>
      <trkpt lat="46.61777" lon="10.83476">
        <ele>655.0</ele>
      </trkpt>
      <trkpt lat="46.61804" lon="10.83369">
        <ele>656.0</ele>
      </trkpt>
      <trkpt lat="46.61802" lon="10.83194">
        <ele>657.0</ele>
      </trkpt>
      <trkpt lat="46.61839" lon="10.82986">
        <ele>657.0</ele>
      </trkpt>
      <trkpt lat="46.619" lon="10.82757">
        <ele>658.0</ele>
      </trkpt>
      <trkpt lat="46.61927" lon="10.82575">
        <ele>659.0</ele>
      </trkpt>
      <trkpt lat="46.61919" lon="10.82502">
        <ele>658.0</ele>
      </trkpt>
      <trkpt lat="46.61923" lon="10.8249">
        <ele>658.0</ele>
      </trkpt>
      <trkpt lat="46.61917" lon="10.82475">
        <ele>658.0</ele>
      </trkpt>
      <trkpt lat="46.61909" lon="10.82482">
        <ele>658.0</ele>
      </trkpt>
      <trkpt lat="46.61872" lon="10.8249">
        <ele>658.0</ele>
      </trkpt>
      <trkpt lat="46.61826" lon="10.82488">
        <ele>660.0</ele>
      </trkpt>
      <trkpt lat="46.61731" lon="10.82453">
        <ele>662.0</ele>
      </trkpt>
      <trkpt lat="46.61597" lon="10.82399">
        <ele>666.0</ele>
      </trkpt>
      <trkpt lat="46.61523" lon="10.82385">
        <ele>668.0</ele>
      </trkpt>
      <trkpt lat="46.61424" lon="10.82382">
        <ele>673.0</ele>
      </trkpt>
      <trkpt lat="46.61308" lon="10.82404">
        <ele>678.0</ele>
      </trkpt>
      <trkpt lat="46.61185" lon="10.82378">
        <ele>682.0</ele>
      </trkpt>
      <trkpt lat="46.61151" lon="10.82371">
        <ele>685.0</ele>
      </trkpt>
      <trkpt lat="46.61042" lon="10.82367">
        <ele>689.0</ele>
      </trkpt>
      <trkpt lat="46.60846" lon="10.82437">
        <ele>697.0</ele>
      </trkpt>
      <trkpt lat="46.60763" lon="10.82475">
        <ele>705.0</ele>
      </trkpt>
      <trkpt lat="46.60594" lon="10.82415">
        <ele>713.0</ele>
      </trkpt>
      <trkpt lat="46.60341" lon="10.82381">
        <ele>727.0</ele>
      </trkpt>
      <trkpt lat="46.60242" lon="10.82352">
        <ele>741.0</ele>
      </trkpt>
      <trkpt lat="46.60086" lon="10.82348">
        <ele>751.0</ele>
      </trkpt>
      <trkpt lat="46.59948" lon="10.82398">
        <ele>768.0</ele>
      </trkpt>
      <trkpt lat="46.59861" lon="10.82492">
        <ele>776.0</ele>
      </trkpt>
      <trkpt lat="46.59719" lon="10.82508">
        <ele>780.0</ele>
      </trkpt>
      <trkpt lat="46.59581" lon="10.82417">
        <ele>789.0</ele>
      </trkpt>
      <trkpt lat="46.59381" lon="10.82362">
        <ele>804.0</ele>
      </trkpt>
      <trkpt lat="46.59262" lon="10.82326">
        <ele>820.0</ele>
      </trkpt>
      <trkpt lat="46.59146" lon="10.82224">
        <ele>836.0</ele>
      </trkpt>
      <trkpt lat="46.59018" lon="10.82196">
        <ele>850.0</ele>
      </trkpt>
      <trkpt lat="46.5895" lon="10.82176">
        <ele>862.0</ele>
      </trkpt>
      <trkpt lat="46.58884" lon="10.82084">
        <ele>870.0</ele>
      </trkpt>
      <trkpt lat="46.58804" lon="10.82013">
        <ele>881.0</ele>
      </trkpt>
      <trkpt lat="46.58697" lon="10.81925">
        <ele>889.0</ele>
      </trkpt>
      <trkpt lat="46.58667" lon="10.81893">
        <ele>894.0</ele>
      </trkpt>
      <trkpt lat="46.58634" lon="10.81813">
        <ele>898.0</ele>
      </trkpt>
      <trkpt lat="46.58613" lon="10.81776">
        <ele>901.0</ele>
      </trkpt>
      <trkpt lat="46.58548" lon="10.81732">
        <ele>905.0</ele>
      </trkpt>
      <trkpt lat="46.5847" lon="10.8166">
        <ele>913.0</ele>
      </trkpt>
      <trkpt lat="46.58324" lon="10.81514">
        <ele>947.0</ele>
      </trkpt>
      <trkpt lat="46.58259" lon="10.81487">
        <ele>961.0</ele>
      </trkpt>
      <trkpt lat="46.58209" lon="10.81484">
        <ele>968.0</ele>
      </trkpt>
      <trkpt lat="46.58189" lon="10.81493">
        <ele>974.0</ele>
      </trkpt>
      <trkpt lat="46.58186" lon="10.81521">
        <ele>976.0</ele>
      </trkpt>
      <trkpt lat="46.58215" lon="10.81583">
        <ele>980.0</ele>
      </trkpt>
      <trkpt lat="46.58217" lon="10.81602">
        <ele>983.0</ele>
      </trkpt>
      <trkpt lat="46.58203" lon="10.8162">
        <ele>984.0</ele>
      </trkpt>
      <trkpt lat="46.58135" lon="10.81645">
        <ele>990.0</ele>
      </trkpt>
      <trkpt lat="46.58114" lon="10.81664">
        <ele>993.0</ele>
      </trkpt>
      <trkpt lat="46.581" lon="10.81679">
        <ele>995.0</ele>
      </trkpt>
      <trkpt lat="46.58088" lon="10.81673">
        <ele>997.0</ele>
      </trkpt>
      <trkpt lat="46.58081" lon="10.81631">
        <ele>999.0</ele>
      </trkpt>
      <trkpt lat="46.58072" lon="10.81593">
        <ele>1002.0</ele>
      </trkpt>
      <trkpt lat="46.58054" lon="10.81529">
        <ele>1007.0</ele>
      </trkpt>
      <trkpt lat="46.58058" lon="10.8149">
        <ele>1009.0</ele>
      </trkpt>
      <trkpt lat="46.58066" lon="10.81461">
        <ele>1011.0</ele>
      </trkpt>
      <trkpt lat="46.58057" lon="10.8144">
        <ele>1012.0</ele>
      </trkpt>
      <trkpt lat="46.58032" lon="10.81452">
        <ele>1014.0</ele>
      </trkpt>
      <trkpt lat="46.57928" lon="10.81536">
        <ele>1021.0</ele>
      </trkpt>
      <trkpt lat="46.57918" lon="10.81527">
        <ele>1022.0</ele>
      </trkpt>
      <trkpt lat="46.57919" lon="10.81472">
        <ele>1025.0</ele>
      </trkpt>
      <trkpt lat="46.5793" lon="10.813">
        <ele>1035.0</ele>
      </trkpt>
      <trkpt lat="46.5792" lon="10.81292">
        <ele>1037.0</ele>
      </trkpt>
      <trkpt lat="46.57894" lon="10.81323">
        <ele>1041.0</ele>
      </trkpt>
      <trkpt lat="46.57801" lon="10.81421">
        <ele>1056.0</ele>
      </trkpt>
      <trkpt lat="46.57787" lon="10.81462">
        <ele>1066.0</ele>
      </trkpt>
      <trkpt lat="46.57791" lon="10.81489">
        <ele>1070.0</ele>
      </trkpt>
      <trkpt lat="46.57809" lon="10.81562">
        <ele>1075.0</ele>
      </trkpt>
      <trkpt lat="46.57799" lon="10.81568">
        <ele>1077.0</ele>
      </trkpt>
      <trkpt lat="46.5779" lon="10.81545">
        <ele>1079.0</ele>
      </trkpt>
      <trkpt lat="46.57752" lon="10.8149">
        <ele>1083.0</ele>
      </trkpt>
      <trkpt lat="46.57735" lon="10.81457">
        <ele>1087.0</ele>
      </trkpt>
      <trkpt lat="46.57729" lon="10.81429">
        <ele>1089.0</ele>
      </trkpt>
      <trkpt lat="46.57724" lon="10.81358">
        <ele>1091.0</ele>
      </trkpt>
      <trkpt lat="46.577" lon="10.81307">
        <ele>1093.0</ele>
      </trkpt>
      <trkpt lat="46.57661" lon="10.81238">
        <ele>1096.0</ele>
      </trkpt>
      <trkpt lat="46.57647" lon="10.81206">
        <ele>1100.0</ele>
      </trkpt>
      <trkpt lat="46.57639" lon="10.81162">
        <ele>1103.0</ele>
      </trkpt>
      <trkpt lat="46.57628" lon="10.80925">
        <ele>1120.0</ele>
      </trkpt>
      <trkpt lat="46.57568" lon="10.80676">
        <ele>1134.0</ele>
      </trkpt>
      <trkpt lat="46.57432" lon="10.80529">
        <ele>1159.0</ele>
      </trkpt>
      <trkpt lat="46.57378" lon="10.80375">
        <ele>1163.0</ele>
      </trkpt>
      <trkpt lat="46.57253" lon="10.80054">
        <ele>1153.0</ele>
      </trkpt>
      <trkpt lat="46.57161" lon="10.79873">
        <ele>1147.0</ele>
      </trkpt>
      <trkpt lat="46.57073" lon="10.79543">
        <ele>1153.0</ele>
      </trkpt>
    </trkseg>
  </trk>
</gpx>