<?xml version="1.0" encoding="UTF-8"?>
<gpx xmlns="http://www.topografix.com/GPX/1/0" xmlns:xsi="http://www.w3.org/2001/XMLSchema-instance" xsi:schemaLocation="http://www.topografix.com/GPX/1/0 http://www.topografix.com/GPX/1/0/gpx.xsd" version="1.0" creator="GPSBabel - https://www.gpsbabel.org">
  <time>2026-04-15T14:13:04.382000Z</time>
  <bounds minlat="45.85493" maxlat="46.21905" minlon="10.88546" maxlon="11.34119" />
  <trk>
    <trkseg>
      <trkpt lat="45.90092" lon="10.89922">
        <ele>132.0</ele>
      </trkpt>
      <trkpt lat="45.89786" lon="10.89705">
        <ele>139.0</ele>
      </trkpt>
      <trkpt lat="45.8948" lon="10.89528">
        <ele>149.0</ele>
      </trkpt>
      <trkpt lat="45.89194" lon="10.89224">
        <ele>162.0</ele>
      </trkpt>
      <trkpt lat="45.89112" lon="10.89012">
        <ele>170.0</ele>
      </trkpt>
      <trkpt lat="45.89043" lon="10.88797">
        <ele>169.0</ele>
      </trkpt>
      <trkpt lat="45.88692" lon="10.8865">
        <ele>176.0</ele>
      </trkpt>
      <trkpt lat="45.88388" lon="10.88608">
        <ele>183.0</ele>
      </trkpt>
      <trkpt lat="45.88139" lon="10.88583">
        <ele>189.0</ele>
      </trkpt>
      <trkpt lat="45.87986" lon="10.88738">
        <ele>203.0</ele>
      </trkpt>
      <trkpt lat="45.87934" lon="10.88779">
        <ele>206.0</ele>
      </trkpt>
      <trkpt lat="45.87856" lon="10.88806">
        <ele>208.0</ele>
      </trkpt>
      <trkpt lat="45.87843" lon="10.88876">
        <ele>210.0</ele>
      </trkpt>
      <trkpt lat="45.87847" lon="10.89148">
        <ele>216.0</ele>
      </trkpt>
      <trkpt lat="45.87807" lon="10.89493">
        <ele>222.0</ele>
      </trkpt>
      <trkpt lat="45.87791" lon="10.89695">
        <ele>225.0</ele>
      </trkpt>
      <trkpt lat="45.87799" lon="10.89798">
        <ele>227.0</ele>
      </trkpt>
      <trkpt lat="45.87777" lon="10.90171">
        <ele>239.0</ele>
      </trkpt>
      <trkpt lat="45.87608" lon="10.90504">
        <ele>260.0</ele>
      </trkpt>
      <trkpt lat="45.87397" lon="10.90641">
        <ele>271.0</ele>
      </trkpt>
      <trkpt lat="45.87134" lon="10.9079">
        <ele>267.0</ele>
      </trkpt>
      <trkpt lat="45.86888" lon="10.90691">
        <ele>253.0</ele>
      </trkpt>
      <trkpt lat="45.86818" lon="10.90756">
        <ele>247.0</ele>
      </trkpt>
      <trkpt lat="45.86893" lon="10.9109">
        <ele>239.0</ele>
      </trkpt>
      <trkpt lat="45.86811" lon="10.9133">
        <ele>233.0</ele>
      </trkpt>
      <trkpt lat="45.86783" lon="10.91457">
        <ele>232.0</ele>
      </trkpt>
      <trkpt lat="45.86614" lon="10.91484">
        <ele>236.0</ele>
      </trkpt>
      <trkpt lat="45.8644" lon="10.91636">
        <ele>242.0</ele>
      </trkpt>
      <trkpt lat="45.86338" lon="10.91678">
        <ele>238.0</ele>
      </trkpt>
      <trkpt lat="45.8585" lon="10.92007">
        <ele>232.0</ele>
      </trkpt>
      <trkpt lat="45.85786" lon="10.92069">
        <ele>232.0</ele>
      </trkpt>
      <trkpt lat="45.8576" lon="10.92116">
        <ele>229.0</ele>
      </trkpt>
      <trkpt lat="45.85609" lon="10.92767">
        <ele>223.0</ele>
      </trkpt>
      <trkpt lat="45.85553" lon="10.9302">
        <ele>226.0</ele>
      </trkpt>
      <trkpt lat="45.85516" lon="10.93158">
        <ele>228.0</ele>
      </trkpt>
      <trkpt lat="45.85494" lon="10.932">
        <ele>230.0</ele>
      </trkpt>
      <trkpt lat="45.85515" lon="10.93221">
        <ele>231.0</ele>
      </trkpt>
      <trkpt lat="45.85562" lon="10.93215">
        <ele>232.0</ele>
      </trkpt>
      <trkpt lat="45.8562" lon="10.93234">
        <ele>238.0</ele>
      </trkpt>
      <trkpt lat="45.85644" lon="10.93207">
        <ele>243.0</ele>
      </trkpt>
      <trkpt lat="45.85675" lon="10.93073">
        <ele>257.0</ele>
      </trkpt>
      <trkpt lat="45.85688" lon="10.93083">
        <ele>260.0</ele>
      </trkpt>
      <trkpt lat="45.85679" lon="10.93132">
        <ele>262.0</ele>
      </trkpt>
      <trkpt lat="45.85684" lon="10.93211">
        <ele>263.0</ele>
      </trkpt>
      <trkpt lat="45.85729" lon="10.93396">
        <ele>268.0</ele>
      </trkpt>
      <trkpt lat="45.85725" lon="10.93526">
        <ele>276.0</ele>
      </trkpt>
      <trkpt lat="45.85713" lon="10.93693">
        <ele>281.0</ele>
      </trkpt>
      <trkpt lat="45.85727" lon="10.9389">
        <ele>293.0</ele>
      </trkpt>
      <trkpt lat="45.85708" lon="10.9409">
        <ele>301.0</ele>
      </trkpt>
      <trkpt lat="45.85653" lon="10.94272">
        <ele>298.0</ele>
      </trkpt>
      <trkpt lat="45.85653" lon="10.94308">
        <ele>302.0</ele>
      </trkpt>
      <trkpt lat="45.85665" lon="10.94303">
        <ele>305.0</ele>
      </trkpt>
      <trkpt lat="45.85699" lon="10.9421">
        <ele>317.0</ele>
      </trkpt>
      <trkpt lat="45.85796" lon="10.94036">
        <ele>345.0</ele>
      </trkpt>
      <trkpt lat="45.85804" lon="10.93854">
        <ele>351.0</ele>
      </trkpt>
      <trkpt lat="45.85832" lon="10.93778">
        <ele>356.0</ele>
      </trkpt>
      <trkpt lat="45.8588" lon="10.9377">
        <ele>362.0</ele>
      </trkpt>
      <trkpt lat="45.85914" lon="10.93757">
        <ele>367.0</ele>
      </trkpt>
      <trkpt lat="45.85931" lon="10.93716">
        <ele>371.0</ele>
      </trkpt>
      <trkpt lat="45.85966" lon="10.93634">
        <ele>375.0</ele>
      </trkpt>
      <trkpt lat="45.8601" lon="10.93611">
        <ele>377.0</ele>
      </trkpt>
      <trkpt lat="45.86037" lon="10.93682">
        <ele>380.0</ele>
      </trkpt>
      <trkpt lat="45.86058" lon="10.93736">
        <ele>383.0</ele>
      </trkpt>
      <trkpt lat="45.86121" lon="10.93743">
        <ele>389.0</ele>
      </trkpt>
      <trkpt lat="45.8606" lon="10.93793">
        <ele>395.0</ele>
      </trkpt>
      <trkpt lat="45.86019" lon="10.93837">
        <ele>401.0</ele>
      </trkpt>
      <trkpt lat="45.85968" lon="10.9392">
        <ele>407.0</ele>
      </trkpt>
      <trkpt lat="45.85988" lon="10.93938">
        <ele>410.0</ele>
      </trkpt>
      <trkpt lat="45.86102" lon="10.93901">
        <ele>416.0</ele>
      </trkpt>
      <trkpt lat="45.86157" lon="10.93814">
        <ele>423.0</ele>
      </trkpt>
      <trkpt lat="45.86218" lon="10.9376">
        <ele>431.0</ele>
      </trkpt>
      <trkpt lat="45.8633" lon="10.93826">
        <ele>441.0</ele>
      </trkpt>
      <trkpt lat="45.86381" lon="10.9383">
        <ele>452.0</ele>
      </trkpt>
      <trkpt lat="45.86472" lon="10.93794">
        <ele>463.0</ele>
      </trkpt>
      <trkpt lat="45.86488" lon="10.9373">
        <ele>471.0</ele>
      </trkpt>
      <trkpt lat="45.86392" lon="10.93439">
        <ele>478.0</ele>
      </trkpt>
      <trkpt lat="45.86383" lon="10.93327">
        <ele>486.0</ele>
      </trkpt>
      <trkpt lat="45.86456" lon="10.93211">
        <ele>490.0</ele>
      </trkpt>
      <trkpt lat="45.86568" lon="10.92976">
        <ele>505.0</ele>
      </trkpt>
      <trkpt lat="45.866" lon="10.92948">
        <ele>509.0</ele>
      </trkpt>
      <trkpt lat="45.86621" lon="10.93048">
        <ele>512.0</ele>
      </trkpt>
      <trkpt lat="45.86544" lon="10.93165">
        <ele>518.0</ele>
      </trkpt>
      <trkpt lat="45.865" lon="10.93391">
        <ele>544.0</ele>
      </trkpt>
      <trkpt lat="45.8655" lon="10.93527">
        <ele>548.0</ele>
      </trkpt>
      <trkpt lat="45.86655" lon="10.93668">
        <ele>552.0</ele>
      </trkpt>
      <trkpt lat="45.86674" lon="10.93719">
        <ele>554.0</ele>
      </trkpt>
      <trkpt lat="45.86713" lon="10.93741">
        <ele>556.0</ele>
      </trkpt>
      <trkpt lat="45.86795" lon="10.9371">
        <ele>563.0</ele>
      </trkpt>
      <trkpt lat="45.86873" lon="10.93726">
        <ele>572.0</ele>
      </trkpt>
      <trkpt lat="45.86863" lon="10.9375">
        <ele>574.0</ele>
      </trkpt>
      <trkpt lat="45.86821" lon="10.93742">
        <ele>576.0</ele>
      </trkpt>
      <trkpt lat="45.86769" lon="10.93806">
        <ele>580.0</ele>
      </trkpt>
      <trkpt lat="45.86765" lon="10.9384">
        <ele>582.0</ele>
      </trkpt>
      <trkpt lat="45.86807" lon="10.93942">
        <ele>587.0</ele>
      </trkpt>
      <trkpt lat="45.86847" lon="10.93999">
        <ele>596.0</ele>
      </trkpt>
      <trkpt lat="45.86865" lon="10.94088">
        <ele>604.0</ele>
      </trkpt>
      <trkpt lat="45.86958" lon="10.94172">
        <ele>616.0</ele>
      </trkpt>
      <trkpt lat="45.87094" lon="10.94162">
        <ele>629.0</ele>
      </trkpt>
      <trkpt lat="45.87106" lon="10.93983">
        <ele>642.0</ele>
      </trkpt>
      <trkpt lat="45.87121" lon="10.93867">
        <ele>649.0</ele>
      </trkpt>
      <trkpt lat="45.872" lon="10.93728">
        <ele>645.0</ele>
      </trkpt>
      <trkpt lat="45.87309" lon="10.93684">
        <ele>662.0</ele>
      </trkpt>
      <trkpt lat="45.87327" lon="10.93646">
        <ele>673.0</ele>
      </trkpt>
      <trkpt lat="45.87319" lon="10.93616">
        <ele>679.0</ele>
      </trkpt>
      <trkpt lat="45.87221" lon="10.93551">
        <ele>685.0</ele>
      </trkpt>
      <trkpt lat="45.87096" lon="10.93326">
        <ele>686.0</ele>
      </trkpt>
      <trkpt lat="45.87064" lon="10.93255">
        <ele>682.0</ele>
      </trkpt>
      <trkpt lat="45.87092" lon="10.93256">
        <ele>683.0</ele>
      </trkpt>
      <trkpt lat="45.87171" lon="10.93337">
        <ele>694.0</ele>
      </trkpt>
      <trkpt lat="45.87102" lon="10.9314">
        <ele>709.0</ele>
      </trkpt>
      <trkpt lat="45.87128" lon="10.93068">
        <ele>717.0</ele>
      </trkpt>
      <trkpt lat="45.87235" lon="10.93028">
        <ele>727.0</ele>
      </trkpt>
      <trkpt lat="45.87276" lon="10.92884">
        <ele>738.0</ele>
      </trkpt>
      <trkpt lat="45.87301" lon="10.92885">
        <ele>743.0</ele>
      </trkpt>
      <trkpt lat="45.87338" lon="10.93041">
        <ele>750.0</ele>
      </trkpt>
      <trkpt lat="45.87444" lon="10.93123">
        <ele>749.0</ele>
      </trkpt>
      <trkpt lat="45.87585" lon="10.93273">
        <ele>754.0</ele>
      </trkpt>
      <trkpt lat="45.8764" lon="10.93333">
        <ele>759.0</ele>
      </trkpt>
      <trkpt lat="45.87732" lon="10.93431">
        <ele>766.0</ele>
      </trkpt>
      <trkpt lat="45.8779" lon="10.93459">
        <ele>772.0</ele>
      </trkpt>
      <trkpt lat="45.87831" lon="10.93381">
        <ele>780.0</ele>
      </trkpt>
      <trkpt lat="45.87695" lon="10.9314">
        <ele>798.0</ele>
      </trkpt>
      <trkpt lat="45.87633" lon="10.93094">
        <ele>811.0</ele>
      </trkpt>
      <trkpt lat="45.87647" lon="10.93077">
        <ele>815.0</ele>
      </trkpt>
      <trkpt lat="45.87797" lon="10.93201">
        <ele>826.0</ele>
      </trkpt>
      <trkpt lat="45.88034" lon="10.93464">
        <ele>839.0</ele>
      </trkpt>
      <trkpt lat="45.88083" lon="10.93629">
        <ele>847.0</ele>
      </trkpt>
      <trkpt lat="45.88085" lon="10.93777">
        <ele>855.0</ele>
      </trkpt>
      <trkpt lat="45.8815" lon="10.93843">
        <ele>860.0</ele>
      </trkpt>
      <trkpt lat="45.88194" lon="10.93927">
        <ele>867.0</ele>
      </trkpt>
      <trkpt lat="45.88231" lon="10.94014">
        <ele>874.0</ele>
      </trkpt>
      <trkpt lat="45.8829" lon="10.93975">
        <ele>883.0</ele>
      </trkpt>
      <trkpt lat="45.88307" lon="10.9387">
        <ele>891.0</ele>
      </trkpt>
      <trkpt lat="45.88382" lon="10.93981">
        <ele>901.0</ele>
      </trkpt>
      <trkpt lat="45.88397" lon="10.94143">
        <ele>909.0</ele>
      </trkpt>
      <trkpt lat="45.88381" lon="10.94241">
        <ele>915.0</ele>
      </trkpt>
      <trkpt lat="45.8839" lon="10.94279">
        <ele>919.0</ele>
      </trkpt>
      <trkpt lat="45.88506" lon="10.94448">
        <ele>933.0</ele>
      </trkpt>
      <trkpt lat="45.88538" lon="10.94488">
        <ele>937.0</ele>
      </trkpt>
      <trkpt lat="45.88607" lon="10.94532">
        <ele>940.0</ele>
      </trkpt>
      <trkpt lat="45.88609" lon="10.94533">
        <ele>941.0</ele>
      </trkpt>
      <trkpt lat="45.88691" lon="10.94683">
        <ele>947.0</ele>
      </trkpt>
      <trkpt lat="45.88724" lon="10.94749">
        <ele>951.0</ele>
      </trkpt>
      <trkpt lat="45.88764" lon="10.94794">
        <ele>955.0</ele>
      </trkpt>
      <trkpt lat="45.88834" lon="10.94842">
        <ele>959.0</ele>
      </trkpt>
      <trkpt lat="45.88886" lon="10.949">
        <ele>965.0</ele>
      </trkpt>
      <trkpt lat="45.88939" lon="10.94942">
        <ele>968.0</ele>
      </trkpt>
      <trkpt lat="45.88965" lon="10.94968">
        <ele>971.0</ele>
      </trkpt>
      <trkpt lat="45.89009" lon="10.95046">
        <ele>975.0</ele>
      </trkpt>
      <trkpt lat="45.89072" lon="10.95154">
        <ele>981.0</ele>
      </trkpt>
      <trkpt lat="45.89108" lon="10.95202">
        <ele>985.0</ele>
      </trkpt>
      <trkpt lat="45.89139" lon="10.95228">
        <ele>989.0</ele>
      </trkpt>
      <trkpt lat="45.8915" lon="10.95189">
        <ele>991.0</ele>
      </trkpt>
      <trkpt lat="45.89164" lon="10.9517">
        <ele>993.0</ele>
      </trkpt>
      <trkpt lat="45.89171" lon="10.95179">
        <ele>994.0</ele>
      </trkpt>
      <trkpt lat="45.89166" lon="10.95223">
        <ele>996.0</ele>
      </trkpt>
      <trkpt lat="45.89185" lon="10.95288">
        <ele>999.0</ele>
      </trkpt>
      <trkpt lat="45.89213" lon="10.95328">
        <ele>1003.0</ele>
      </trkpt>
      <trkpt lat="45.89296" lon="10.95415">
        <ele>1010.0</ele>
      </trkpt>
      <trkpt lat="45.89362" lon="10.95435">
        <ele>1018.0</ele>
      </trkpt>
      <trkpt lat="45.89446" lon="10.95584">
        <ele>1028.0</ele>
      </trkpt>
      <trkpt lat="45.89502" lon="10.95606">
        <ele>1039.0</ele>
      </trkpt>
      <trkpt lat="45.89517" lon="10.95673">
        <ele>1047.0</ele>
      </trkpt>
      <trkpt lat="45.89548" lon="10.95738">
        <ele>1055.0</ele>
      </trkpt>
      <trkpt lat="45.89564" lon="10.95864">
        <ele>1064.0</ele>
      </trkpt>
      <trkpt lat="45.89538" lon="10.95911">
        <ele>1069.0</ele>
      </trkpt>
      <trkpt lat="45.89507" lon="10.95939">
        <ele>1073.0</ele>
      </trkpt>
      <trkpt lat="45.89498" lon="10.96034">
        <ele>1074.0</ele>
      </trkpt>
      <trkpt lat="45.89522" lon="10.96106">
        <ele>1072.0</ele>
      </trkpt>
      <trkpt lat="45.89469" lon="10.96202">
        <ele>1070.0</ele>
      </trkpt>
      <trkpt lat="45.89447" lon="10.96256">
        <ele>1071.0</ele>
      </trkpt>
      <trkpt lat="45.89415" lon="10.96352">
        <ele>1079.0</ele>
      </trkpt>
      <trkpt lat="45.89423" lon="10.96409">
        <ele>1083.0</ele>
      </trkpt>
      <trkpt lat="45.89473" lon="10.96474">
        <ele>1088.0</ele>
      </trkpt>
      <trkpt lat="45.89534" lon="10.96562">
        <ele>1094.0</ele>
      </trkpt>
      <trkpt lat="45.8958" lon="10.96628">
        <ele>1098.0</ele>
      </trkpt>
      <trkpt lat="45.89687" lon="10.9666">
        <ele>1113.0</ele>
      </trkpt>
      <trkpt lat="45.89699" lon="10.96683">
        <ele>1119.0</ele>
      </trkpt>
      <trkpt lat="45.89674" lon="10.96748">
        <ele>1124.0</ele>
      </trkpt>
      <trkpt lat="45.89679" lon="10.96902">
        <ele>1132.0</ele>
      </trkpt>
      <trkpt lat="45.89695" lon="10.96924">
        <ele>1137.0</ele>
      </trkpt>
      <trkpt lat="45.89728" lon="10.96894">
        <ele>1141.0</ele>
      </trkpt>
      <trkpt lat="45.8976" lon="10.96921">
        <ele>1145.0</ele>
      </trkpt>
      <trkpt lat="45.89778" lon="10.97026">
        <ele>1156.0</ele>
      </trkpt>
      <trkpt lat="45.89888" lon="10.97201">
        <ele>1173.0</ele>
      </trkpt>
      <trkpt lat="45.89887" lon="10.97222">
        <ele>1180.0</ele>
      </trkpt>
      <trkpt lat="45.89872" lon="10.97222">
        <ele>1182.0</ele>
      </trkpt>
      <trkpt lat="45.89838" lon="10.97219">
        <ele>1185.0</ele>
      </trkpt>
      <trkpt lat="45.89818" lon="10.97326">
        <ele>1191.0</ele>
      </trkpt>
      <trkpt lat="45.89845" lon="10.97421">
        <ele>1195.0</ele>
      </trkpt>
      <trkpt lat="45.89889" lon="10.97437">
        <ele>1197.0</ele>
      </trkpt>
      <trkpt lat="45.89991" lon="10.97481">
        <ele>1201.0</ele>
      </trkpt>
      <trkpt lat="45.90055" lon="10.9742">
        <ele>1205.0</ele>
      </trkpt>
      <trkpt lat="45.90137" lon="10.97423">
        <ele>1209.0</ele>
      </trkpt>
      <trkpt lat="45.90227" lon="10.97428">
        <ele>1214.0</ele>
      </trkpt>
      <trkpt lat="45.90301" lon="10.97416">
        <ele>1218.0</ele>
      </trkpt>
      <trkpt lat="45.90399" lon="10.97396">
        <ele>1226.0</ele>
      </trkpt>
      <trkpt lat="45.90542" lon="10.97388">
        <ele>1234.0</ele>
      </trkpt>
      <trkpt lat="45.90582" lon="10.9744">
        <ele>1243.0</ele>
      </trkpt>
      <trkpt lat="45.90606" lon="10.97544">
        <ele>1249.0</ele>
      </trkpt>
      <trkpt lat="45.9073" lon="10.97754">
        <ele>1255.0</ele>
      </trkpt>
      <trkpt lat="45.90787" lon="10.97893">
        <ele>1249.0</ele>
      </trkpt>
      <trkpt lat="45.90808" lon="10.98007">
        <ele>1241.0</ele>
      </trkpt>
      <trkpt lat="45.90802" lon="10.98096">
        <ele>1235.0</ele>
      </trkpt>
      <trkpt lat="45.90875" lon="10.98146">
        <ele>1228.0</ele>
      </trkpt>
      <trkpt lat="45.90909" lon="10.98199">
        <ele>1226.0</ele>
      </trkpt>
      <trkpt lat="45.90898" lon="10.98364">
        <ele>1226.0</ele>
      </trkpt>
      <trkpt lat="45.90858" lon="10.98539">
        <ele>1221.0</ele>
      </trkpt>
      <trkpt lat="45.90841" lon="10.986">
        <ele>1215.0</ele>
      </trkpt>
      <trkpt lat="45.90678" lon="10.98666">
        <ele>1204.0</ele>
      </trkpt>
      <trkpt lat="45.90681" lon="10.9868">
        <ele>1198.0</ele>
      </trkpt>
      <trkpt lat="45.90752" lon="10.98709">
        <ele>1192.0</ele>
      </trkpt>
      <trkpt lat="45.90749" lon="10.98737">
        <ele>1190.0</ele>
      </trkpt>
      <trkpt lat="45.90725" lon="10.98758">
        <ele>1187.0</ele>
      </trkpt>
      <trkpt lat="45.90782" lon="10.98789">
        <ele>1183.0</ele>
      </trkpt>
      <trkpt lat="45.90867" lon="10.98813">
        <ele>1177.0</ele>
      </trkpt>
      <trkpt lat="45.90932" lon="10.98865">
        <ele>1168.0</ele>
      </trkpt>
      <trkpt lat="45.90944" lon="10.98846">
        <ele>1165.0</ele>
      </trkpt>
      <trkpt lat="45.90937" lon="10.98786">
        <ele>1161.0</ele>
      </trkpt>
      <trkpt lat="45.90966" lon="10.98777">
        <ele>1159.0</ele>
      </trkpt>
      <trkpt lat="45.91004" lon="10.98713">
        <ele>1153.0</ele>
      </trkpt>
      <trkpt lat="45.91036" lon="10.9868">
        <ele>1147.0</ele>
      </trkpt>
      <trkpt lat="45.91169" lon="10.98606">
        <ele>1145.0</ele>
      </trkpt>
      <trkpt lat="45.91252" lon="10.98599">
        <ele>1151.0</ele>
      </trkpt>
      <trkpt lat="45.91304" lon="10.98569">
        <ele>1149.0</ele>
      </trkpt>
      <trkpt lat="45.91348" lon="10.98483">
        <ele>1141.0</ele>
      </trkpt>
      <trkpt lat="45.91418" lon="10.98506">
        <ele>1134.0</ele>
      </trkpt>
      <trkpt lat="45.91486" lon="10.98532">
        <ele>1130.0</ele>
      </trkpt>
      <trkpt lat="45.91526" lon="10.98627">
        <ele>1125.0</ele>
      </trkpt>
      <trkpt lat="45.91543" lon="10.98781">
        <ele>1124.0</ele>
      </trkpt>
      <trkpt lat="45.91573" lon="10.98876">
        <ele>1124.0</ele>
      </trkpt>
      <trkpt lat="45.91611" lon="10.98919">
        <ele>1123.0</ele>
      </trkpt>
      <trkpt lat="45.9168" lon="10.98968">
        <ele>1120.0</ele>
      </trkpt>
      <trkpt lat="45.9186" lon="10.99132">
        <ele>1110.0</ele>
      </trkpt>
      <trkpt lat="45.91975" lon="10.99091">
        <ele>1101.0</ele>
      </trkpt>
      <trkpt lat="45.92075" lon="10.99079">
        <ele>1096.0</ele>
      </trkpt>
      <trkpt lat="45.92144" lon="10.99001">
        <ele>1090.0</ele>
      </trkpt>
      <trkpt lat="45.92306" lon="10.99138">
        <ele>1073.0</ele>
      </trkpt>
      <trkpt lat="45.92374" lon="10.99433">
        <ele>1060.0</ele>
      </trkpt>
      <trkpt lat="45.92511" lon="10.9962">
        <ele>1056.0</ele>
      </trkpt>
      <trkpt lat="45.92666" lon="10.99687">
        <ele>1050.0</ele>
      </trkpt>
      <trkpt lat="45.92747" lon="10.99836">
        <ele>1045.0</ele>
      </trkpt>
      <trkpt lat="45.9277" lon="11.00034">
        <ele>1034.0</ele>
      </trkpt>
      <trkpt lat="45.92851" lon="11.00099">
        <ele>1022.0</ele>
      </trkpt>
      <trkpt lat="45.92949" lon="11.00167">
        <ele>1013.0</ele>
      </trkpt>
      <trkpt lat="45.93085" lon="11.0027">
        <ele>1000.0</ele>
      </trkpt>
      <trkpt lat="45.9314" lon="11.00384">
        <ele>987.0</ele>
      </trkpt>
      <trkpt lat="45.93193" lon="11.00428">
        <ele>980.0</ele>
      </trkpt>
      <trkpt lat="45.93225" lon="11.00433">
        <ele>976.0</ele>
      </trkpt>
      <trkpt lat="45.9321" lon="11.00455">
        <ele>973.0</ele>
      </trkpt>
      <trkpt lat="45.93104" lon="11.00404">
        <ele>966.0</ele>
      </trkpt>
      <trkpt lat="45.92972" lon="11.00364">
        <ele>957.0</ele>
      </trkpt>
      <trkpt lat="45.92823" lon="11.0028">
        <ele>941.0</ele>
      </trkpt>
      <trkpt lat="45.92956" lon="11.00495">
        <ele>924.0</ele>
      </trkpt>
      <trkpt lat="45.93144" lon="11.00677">
        <ele>913.0</ele>
      </trkpt>
      <trkpt lat="45.93258" lon="11.00738">
        <ele>910.0</ele>
      </trkpt>
      <trkpt lat="45.93403" lon="11.00872">
        <ele>906.0</ele>
      </trkpt>
      <trkpt lat="45.93739" lon="11.00873">
        <ele>911.0</ele>
      </trkpt>
      <trkpt lat="45.93843" lon="11.00953">
        <ele>920.0</ele>
      </trkpt>
      <trkpt lat="45.94103" lon="11.00964">
        <ele>929.0</ele>
      </trkpt>
      <trkpt lat="45.94302" lon="11.01079">
        <ele>933.0</ele>
      </trkpt>
      <trkpt lat="45.94472" lon="11.01164">
        <ele>947.0</ele>
      </trkpt>
      <trkpt lat="45.94599" lon="11.0127">
        <ele>956.0</ele>
      </trkpt>
      <trkpt lat="45.94735" lon="11.01456">
        <ele>959.0</ele>
      </trkpt>
      <trkpt lat="45.94792" lon="11.01559">
        <ele>954.0</ele>
      </trkpt>
      <trkpt lat="45.94978" lon="11.02028">
        <ele>934.0</ele>
      </trkpt>
      <trkpt lat="45.95029" lon="11.02184">
        <ele>928.0</ele>
      </trkpt>
      <trkpt lat="45.95158" lon="11.02419">
        <ele>931.0</ele>
      </trkpt>
      <trkpt lat="45.95424" lon="11.027">
        <ele>930.0</ele>
      </trkpt>
      <trkpt lat="45.95748" lon="11.03274">
        <ele>901.0</ele>
      </trkpt>
      <trkpt lat="45.9578" lon="11.03518">
        <ele>891.0</ele>
      </trkpt>
      <trkpt lat="45.96001" lon="11.04193">
        <ele>892.0</ele>
      </trkpt>
      <trkpt lat="45.96185" lon="11.04564">
        <ele>875.0</ele>
      </trkpt>
      <trkpt lat="45.96395" lon="11.04999">
        <ele>840.0</ele>
      </trkpt>
      <trkpt lat="45.96692" lon="11.05516">
        <ele>797.0</ele>
      </trkpt>
      <trkpt lat="45.97072" lon="11.06014">
        <ele>742.0</ele>
      </trkpt>
      <trkpt lat="45.97253" lon="11.0631">
        <ele>700.0</ele>
      </trkpt>
      <trkpt lat="45.97207" lon="11.06062">
        <ele>675.0</ele>
      </trkpt>
      <trkpt lat="45.97174" lon="11.05808">
        <ele>651.0</ele>
      </trkpt>
      <trkpt lat="45.9735" lon="11.05848">
        <ele>634.0</ele>
      </trkpt>
      <trkpt lat="45.97337" lon="11.05893">
        <ele>629.0</ele>
      </trkpt>
      <trkpt lat="45.97274" lon="11.05918">
        <ele>626.0</ele>
      </trkpt>
      <trkpt lat="45.97396" lon="11.06181">
        <ele>607.0</ele>
      </trkpt>
      <trkpt lat="45.97459" lon="11.06673">
        <ele>553.0</ele>
      </trkpt>
      <trkpt lat="45.9743" lon="11.06903">
        <ele>536.0</ele>
      </trkpt>
      <trkpt lat="45.97474" lon="11.07073">
        <ele>517.0</ele>
      </trkpt>
      <trkpt lat="45.9752" lon="11.0717">
        <ele>509.0</ele>
      </trkpt>
      <trkpt lat="45.97585" lon="11.07785">
        <ele>483.0</ele>
      </trkpt>
      <trkpt lat="45.97525" lon="11.08122">
        <ele>429.0</ele>
      </trkpt>
      <trkpt lat="45.97666" lon="11.08241">
        <ele>396.0</ele>
      </trkpt>
      <trkpt lat="45.97693" lon="11.08314">
        <ele>383.0</ele>
      </trkpt>
      <trkpt lat="45.9751" lon="11.08393">
        <ele>371.0</ele>
      </trkpt>
      <trkpt lat="45.97288" lon="11.08546">
        <ele>341.0</ele>
      </trkpt>
      <trkpt lat="45.97107" lon="11.08748">
        <ele>317.0</ele>
      </trkpt>
      <trkpt lat="45.97288" lon="11.0866">
        <ele>302.0</ele>
      </trkpt>
      <trkpt lat="45.97378" lon="11.08646">
        <ele>287.0</ele>
      </trkpt>
      <trkpt lat="45.97457" lon="11.08733">
        <ele>269.0</ele>
      </trkpt>
      <trkpt lat="45.97536" lon="11.08793">
        <ele>251.0</ele>
      </trkpt>
      <trkpt lat="45.97641" lon="11.08781">
        <ele>239.0</ele>
      </trkpt>
      <trkpt lat="45.97919" lon="11.08976">
        <ele>223.0</ele>
      </trkpt>
      <trkpt lat="45.98054" lon="11.09067">
        <ele>214.0</ele>
      </trkpt>
      <trkpt lat="45.98148" lon="11.09172">
        <ele>205.0</ele>
      </trkpt>
      <trkpt lat="45.98329" lon="11.09345">
        <ele>195.0</ele>
      </trkpt>
      <trkpt lat="45.98391" lon="11.09425">
        <ele>188.0</ele>
      </trkpt>
      <trkpt lat="45.9838" lon="11.09458">
        <ele>186.0</ele>
      </trkpt>
      <trkpt lat="45.98401" lon="11.09493">
        <ele>184.0</ele>
      </trkpt>
      <trkpt lat="45.98469" lon="11.09485">
        <ele>183.0</ele>
      </trkpt>
      <trkpt lat="45.98698" lon="11.09631">
        <ele>181.0</ele>
      </trkpt>
      <trkpt lat="45.99142" lon="11.09784">
        <ele>181.0</ele>
      </trkpt>
      <trkpt lat="45.99523" lon="11.10047">
        <ele>184.0</ele>
      </trkpt>
      <trkpt lat="45.99493" lon="11.10377">
        <ele>182.0</ele>
      </trkpt>
      <trkpt lat="45.99637" lon="11.10546">
        <ele>180.0</ele>
      </trkpt>
      <trkpt lat="45.9975" lon="11.10781">
        <ele>182.0</ele>
      </trkpt>
      <trkpt lat="45.99814" lon="11.11118">
        <ele>182.0</ele>
      </trkpt>
      <trkpt lat="46.00125" lon="11.11886">
        <ele>181.0</ele>
      </trkpt>
      <trkpt lat="46.00324" lon="11.12066">
        <ele>182.0</ele>
      </trkpt>
      <trkpt lat="46.0089" lon="11.12008">
        <ele>180.0</ele>
      </trkpt>
      <trkpt lat="46.00961" lon="11.12074">
        <ele>180.0</ele>
      </trkpt>
      <trkpt lat="46.00959" lon="11.12365">
        <ele>182.0</ele>
      </trkpt>
      <trkpt lat="46.00937" lon="11.12512">
        <ele>183.0</ele>
      </trkpt>
      <trkpt lat="46.00906" lon="11.12707">
        <ele>185.0</ele>
      </trkpt>
      <trkpt lat="46.00894" lon="11.12778">
        <ele>187.0</ele>
      </trkpt>
      <trkpt lat="46.00821" lon="11.12821">
        <ele>192.0</ele>
      </trkpt>
      <trkpt lat="46.00692" lon="11.12772">
        <ele>197.0</ele>
      </trkpt>
      <trkpt lat="46.00618" lon="11.12831">
        <ele>201.0</ele>
      </trkpt>
      <trkpt lat="46.0057" lon="11.12932">
        <ele>206.0</ele>
      </trkpt>
      <trkpt lat="46.00599" lon="11.13191">
        <ele>215.0</ele>
      </trkpt>
      <trkpt lat="46.00521" lon="11.1334">
        <ele>226.0</ele>
      </trkpt>
      <trkpt lat="46.00555" lon="11.13398">
        <ele>231.0</ele>
      </trkpt>
      <trkpt lat="46.00609" lon="11.1357">
        <ele>239.0</ele>
      </trkpt>
      <trkpt lat="46.00656" lon="11.13688">
        <ele>252.0</ele>
      </trkpt>
      <trkpt lat="46.00779" lon="11.13713">
        <ele>266.0</ele>
      </trkpt>
      <trkpt lat="46.00873" lon="11.13922">
        <ele>290.0</ele>
      </trkpt>
      <trkpt lat="46.00999" lon="11.13892">
        <ele>299.0</ele>
      </trkpt>
      <trkpt lat="46.01127" lon="11.13882">
        <ele>315.0</ele>
      </trkpt>
      <trkpt lat="46.01342" lon="11.1396">
        <ele>334.0</ele>
      </trkpt>
      <trkpt lat="46.01524" lon="11.14221">
        <ele>353.0</ele>
      </trkpt>
      <trkpt lat="46.01762" lon="11.14445">
        <ele>395.0</ele>
      </trkpt>
      <trkpt lat="46.02023" lon="11.14486">
        <ele>402.0</ele>
      </trkpt>
      <trkpt lat="46.02166" lon="11.14469">
        <ele>410.0</ele>
      </trkpt>
      <trkpt lat="46.02131" lon="11.14507">
        <ele>415.0</ele>
      </trkpt>
      <trkpt lat="46.02" lon="11.14534">
        <ele>421.0</ele>
      </trkpt>
      <trkpt lat="46.01802" lon="11.14502">
        <ele>427.0</ele>
      </trkpt>
      <trkpt lat="46.01702" lon="11.14509">
        <ele>432.0</ele>
      </trkpt>
      <trkpt lat="46.016" lon="11.14512">
        <ele>438.0</ele>
      </trkpt>
      <trkpt lat="46.01246" lon="11.14702">
        <ele>456.0</ele>
      </trkpt>
      <trkpt lat="46.01136" lon="11.14949">
        <ele>478.0</ele>
      </trkpt>
      <trkpt lat="46.00973" lon="11.14934">
        <ele>492.0</ele>
      </trkpt>
      <trkpt lat="46.00912" lon="11.15072">
        <ele>501.0</ele>
      </trkpt>
      <trkpt lat="46.01039" lon="11.15455">
        <ele>523.0</ele>
      </trkpt>
      <trkpt lat="46.01082" lon="11.15686">
        <ele>548.0</ele>
      </trkpt>
      <trkpt lat="46.00987" lon="11.15624">
        <ele>554.0</ele>
      </trkpt>
      <trkpt lat="46.00867" lon="11.15548">
        <ele>560.0</ele>
      </trkpt>
      <trkpt lat="46.00827" lon="11.15561">
        <ele>563.0</ele>
      </trkpt>
      <trkpt lat="46.00754" lon="11.15825">
        <ele>575.0</ele>
      </trkpt>
      <trkpt lat="46.00643" lon="11.16205">
        <ele>600.0</ele>
      </trkpt>
      <trkpt lat="46.00628" lon="11.16542">
        <ele>620.0</ele>
      </trkpt>
      <trkpt lat="46.00686" lon="11.16748">
        <ele>635.0</ele>
      </trkpt>
      <trkpt lat="46.0062" lon="11.1727">
        <ele>654.0</ele>
      </trkpt>
      <trkpt lat="46.00568" lon="11.1768">
        <ele>663.0</ele>
      </trkpt>
      <trkpt lat="46.00498" lon="11.18211">
        <ele>676.0</ele>
      </trkpt>
      <trkpt lat="46.0052" lon="11.18464">
        <ele>689.0</ele>
      </trkpt>
      <trkpt lat="46.00549" lon="11.18751">
        <ele>698.0</ele>
      </trkpt>
      <trkpt lat="46.00589" lon="11.18925">
        <ele>704.0</ele>
      </trkpt>
      <trkpt lat="46.0057" lon="11.19294">
        <ele>713.0</ele>
      </trkpt>
      <trkpt lat="46.00449" lon="11.19521">
        <ele>714.0</ele>
      </trkpt>
      <trkpt lat="46.00335" lon="11.19716">
        <ele>711.0</ele>
      </trkpt>
      <trkpt lat="46.0029" lon="11.19826">
        <ele>709.0</ele>
      </trkpt>
      <trkpt lat="46.0025" lon="11.19969">
        <ele>702.0</ele>
      </trkpt>
      <trkpt lat="46.00123" lon="11.20098">
        <ele>695.0</ele>
      </trkpt>
      <trkpt lat="46.00014" lon="11.20328">
        <ele>683.0</ele>
      </trkpt>
      <trkpt lat="45.99985" lon="11.20354">
        <ele>678.0</ele>
      </trkpt>
      <trkpt lat="46.0" lon="11.20392">
        <ele>675.0</ele>
      </trkpt>
      <trkpt lat="46.00028" lon="11.20549">
        <ele>672.0</ele>
      </trkpt>
      <trkpt lat="46.00066" lon="11.21481">
        <ele>658.0</ele>
      </trkpt>
      <trkpt lat="46.00036" lon="11.21902">
        <ele>661.0</ele>
      </trkpt>
      <trkpt lat="46.00122" lon="11.22347">
        <ele>672.0</ele>
      </trkpt>
      <trkpt lat="46.00144" lon="11.2257">
        <ele>671.0</ele>
      </trkpt>
      <trkpt lat="46.00215" lon="11.2283">
        <ele>659.0</ele>
      </trkpt>
      <trkpt lat="46.0017" lon="11.23003">
        <ele>642.0</ele>
      </trkpt>
      <trkpt lat="46.00238" lon="11.23174">
        <ele>627.0</ele>
      </trkpt>
      <trkpt lat="46.00407" lon="11.23351">
        <ele>609.0</ele>
      </trkpt>
      <trkpt lat="46.0052" lon="11.2344">
        <ele>594.0</ele>
      </trkpt>
      <trkpt lat="46.00825" lon="11.23429">
        <ele>572.0</ele>
      </trkpt>
      <trkpt lat="46.00858" lon="11.23439">
        <ele>562.0</ele>
      </trkpt>
      <trkpt lat="46.00623" lon="11.23597">
        <ele>544.0</ele>
      </trkpt>
      <trkpt lat="46.00652" lon="11.23643">
        <ele>533.0</ele>
      </trkpt>
      <trkpt lat="46.00722" lon="11.23656">
        <ele>523.0</ele>
      </trkpt>
      <trkpt lat="46.0056" lon="11.23842">
        <ele>510.0</ele>
      </trkpt>
      <trkpt lat="46.00536" lon="11.23913">
        <ele>499.0</ele>
      </trkpt>
      <trkpt lat="46.00574" lon="11.23906">
        <ele>496.0</ele>
      </trkpt>
      <trkpt lat="46.00652" lon="11.23854">
        <ele>490.0</ele>
      </trkpt>
      <trkpt lat="46.00567" lon="11.23995">
        <ele>480.0</ele>
      </trkpt>
      <trkpt lat="46.00512" lon="11.24157">
        <ele>467.0</ele>
      </trkpt>
      <trkpt lat="46.00495" lon="11.24194">
        <ele>463.0</ele>
      </trkpt>
      <trkpt lat="46.00493" lon="11.2421">
        <ele>462.0</ele>
      </trkpt>
      <trkpt lat="46.00506" lon="11.24215">
        <ele>461.0</ele>
      </trkpt>
      <trkpt lat="46.00621" lon="11.24134">
        <ele>458.0</ele>
      </trkpt>
      <trkpt lat="46.00726" lon="11.24032">
        <ele>453.0</ele>
      </trkpt>
      <trkpt lat="46.00873" lon="11.23743">
        <ele>459.0</ele>
      </trkpt>
      <trkpt lat="46.01092" lon="11.23658">
        <ele>458.0</ele>
      </trkpt>
      <trkpt lat="46.01323" lon="11.23561">
        <ele>458.0</ele>
      </trkpt>
      <trkpt lat="46.01571" lon="11.23457">
        <ele>455.0</ele>
      </trkpt>
      <trkpt lat="46.01783" lon="11.23274">
        <ele>455.0</ele>
      </trkpt>
      <trkpt lat="46.02038" lon="11.23081">
        <ele>455.0</ele>
      </trkpt>
      <trkpt lat="46.02679" lon="11.22928">
        <ele>460.0</ele>
      </trkpt>
      <trkpt lat="46.02918" lon="11.22951">
        <ele>465.0</ele>
      </trkpt>
      <trkpt lat="46.03299" lon="11.22921">
        <ele>465.0</ele>
      </trkpt>
      <trkpt lat="46.03573" lon="11.22957">
        <ele>459.0</ele>
      </trkpt>
      <trkpt lat="46.03783" lon="11.23188">
        <ele>451.0</ele>
      </trkpt>
      <trkpt lat="46.03963" lon="11.23503">
        <ele>451.0</ele>
      </trkpt>
      <trkpt lat="46.04218" lon="11.2356">
        <ele>450.0</ele>
      </trkpt>
      <trkpt lat="46.04519" lon="11.23448">
        <ele>453.0</ele>
      </trkpt>
      <trkpt lat="46.04588" lon="11.23468">
        <ele>455.0</ele>
      </trkpt>
      <trkpt lat="46.0476" lon="11.23415">
        <ele>456.0</ele>
      </trkpt>
      <trkpt lat="46.04991" lon="11.23449">
        <ele>458.0</ele>
      </trkpt>
      <trkpt lat="46.05121" lon="11.2342">
        <ele>458.0</ele>
      </trkpt>
      <trkpt lat="46.05301" lon="11.23513">
        <ele>459.0</ele>
      </trkpt>
      <trkpt lat="46.05535" lon="11.23615">
        <ele>463.0</ele>
      </trkpt>
      <trkpt lat="46.05705" lon="11.23706">
        <ele>468.0</ele>
      </trkpt>
      <trkpt lat="46.05638" lon="11.23734">
        <ele>471.0</ele>
      </trkpt>
      <trkpt lat="46.05422" lon="11.23989">
        <ele>483.0</ele>
      </trkpt>
      <trkpt lat="46.05373" lon="11.24306">
        <ele>497.0</ele>
      </trkpt>
      <trkpt lat="46.05287" lon="11.24737">
        <ele>522.0</ele>
      </trkpt>
      <trkpt lat="46.05242" lon="11.24973">
        <ele>531.0</ele>
      </trkpt>
      <trkpt lat="46.05186" lon="11.25175">
        <ele>530.0</ele>
      </trkpt>
      <trkpt lat="46.05373" lon="11.2513">
        <ele>525.0</ele>
      </trkpt>
      <trkpt lat="46.05713" lon="11.25156">
        <ele>513.0</ele>
      </trkpt>
      <trkpt lat="46.05953" lon="11.25221">
        <ele>512.0</ele>
      </trkpt>
      <trkpt lat="46.06152" lon="11.25243">
        <ele>510.0</ele>
      </trkpt>
      <trkpt lat="46.06253" lon="11.25221">
        <ele>508.0</ele>
      </trkpt>
      <trkpt lat="46.06506" lon="11.25287">
        <ele>505.0</ele>
      </trkpt>
      <trkpt lat="46.06571" lon="11.25274">
        <ele>504.0</ele>
      </trkpt>
      <trkpt lat="46.06636" lon="11.25189">
        <ele>504.0</ele>
      </trkpt>
      <trkpt lat="46.06743" lon="11.25296">
        <ele>504.0</ele>
      </trkpt>
      <trkpt lat="46.07047" lon="11.25775">
        <ele>515.0</ele>
      </trkpt>
      <trkpt lat="46.07148" lon="11.25947">
        <ele>523.0</ele>
      </trkpt>
      <trkpt lat="46.07242" lon="11.26158">
        <ele>533.0</ele>
      </trkpt>
      <trkpt lat="46.07314" lon="11.26249">
        <ele>540.0</ele>
      </trkpt>
      <trkpt lat="46.07361" lon="11.26568">
        <ele>562.0</ele>
      </trkpt>
      <trkpt lat="46.07693" lon="11.27191">
        <ele>574.0</ele>
      </trkpt>
      <trkpt lat="46.07679" lon="11.27391">
        <ele>578.0</ele>
      </trkpt>
      <trkpt lat="46.07847" lon="11.27531">
        <ele>587.0</ele>
      </trkpt>
      <trkpt lat="46.07857" lon="11.27479">
        <ele>592.0</ele>
      </trkpt>
      <trkpt lat="46.07827" lon="11.27373">
        <ele>597.0</ele>
      </trkpt>
      <trkpt lat="46.07963" lon="11.2747">
        <ele>605.0</ele>
      </trkpt>
      <trkpt lat="46.08089" lon="11.27862">
        <ele>620.0</ele>
      </trkpt>
      <trkpt lat="46.0815" lon="11.27965">
        <ele>631.0</ele>
      </trkpt>
      <trkpt lat="46.08275" lon="11.2812">
        <ele>649.0</ele>
      </trkpt>
      <trkpt lat="46.08302" lon="11.27621">
        <ele>681.0</ele>
      </trkpt>
      <trkpt lat="46.08454" lon="11.27761">
        <ele>700.0</ele>
      </trkpt>
      <trkpt lat="46.08549" lon="11.27908">
        <ele>715.0</ele>
      </trkpt>
      <trkpt lat="46.08507" lon="11.27657">
        <ele>727.0</ele>
      </trkpt>
      <trkpt lat="46.08541" lon="11.27648">
        <ele>735.0</ele>
      </trkpt>
      <trkpt lat="46.08774" lon="11.279">
        <ele>754.0</ele>
      </trkpt>
      <trkpt lat="46.09211" lon="11.28253">
        <ele>782.0</ele>
      </trkpt>
      <trkpt lat="46.09365" lon="11.28299">
        <ele>810.0</ele>
      </trkpt>
      <trkpt lat="46.09393" lon="11.28437">
        <ele>820.0</ele>
      </trkpt>
      <trkpt lat="46.09476" lon="11.28663">
        <ele>824.0</ele>
      </trkpt>
      <trkpt lat="46.09526" lon="11.28861">
        <ele>832.0</ele>
      </trkpt>
      <trkpt lat="46.09805" lon="11.2936">
        <ele>850.0</ele>
      </trkpt>
      <trkpt lat="46.10153" lon="11.29762">
        <ele>870.0</ele>
      </trkpt>
      <trkpt lat="46.10581" lon="11.30024">
        <ele>907.0</ele>
      </trkpt>
      <trkpt lat="46.1066" lon="11.30013">
        <ele>923.0</ele>
      </trkpt>
      <trkpt lat="46.10753" lon="11.30004">
        <ele>930.0</ele>
      </trkpt>
      <trkpt lat="46.10771" lon="11.3013">
        <ele>934.0</ele>
      </trkpt>
      <trkpt lat="46.10813" lon="11.30258">
        <ele>940.0</ele>
      </trkpt>
      <trkpt lat="46.11002" lon="11.30418">
        <ele>950.0</ele>
      </trkpt>
      <trkpt lat="46.11289" lon="11.30843">
        <ele>979.0</ele>
      </trkpt>
      <trkpt lat="46.11312" lon="11.30963">
        <ele>1002.0</ele>
      </trkpt>
      <trkpt lat="46.11358" lon="11.30953">
        <ele>1015.0</ele>
      </trkpt>
      <trkpt lat="46.11371" lon="11.30735">
        <ele>1021.0</ele>
      </trkpt>
      <trkpt lat="46.11295" lon="11.30516">
        <ele>1039.0</ele>
      </trkpt>
      <trkpt lat="46.11308" lon="11.30493">
        <ele>1049.0</ele>
      </trkpt>
      <trkpt lat="46.11371" lon="11.30577">
        <ele>1051.0</ele>
      </trkpt>
      <trkpt lat="46.11459" lon="11.30682">
        <ele>1051.0</ele>
      </trkpt>
      <trkpt lat="46.11497" lon="11.30854">
        <ele>1061.0</ele>
      </trkpt>
      <trkpt lat="46.11561" lon="11.30848">
        <ele>1067.0</ele>
      </trkpt>
      <trkpt lat="46.11648" lon="11.30779">
        <ele>1073.0</ele>
      </trkpt>
      <trkpt lat="46.11749" lon="11.3078">
        <ele>1080.0</ele>
      </trkpt>
      <trkpt lat="46.11758" lon="11.30863">
        <ele>1082.0</ele>
      </trkpt>
      <trkpt lat="46.11702" lon="11.30911">
        <ele>1084.0</ele>
      </trkpt>
      <trkpt lat="46.11764" lon="11.31018">
        <ele>1091.0</ele>
      </trkpt>
      <trkpt lat="46.11868" lon="11.31017">
        <ele>1108.0</ele>
      </trkpt>
      <trkpt lat="46.12019" lon="11.31121">
        <ele>1122.0</ele>
      </trkpt>
      <trkpt lat="46.12022" lon="11.31169">
        <ele>1126.0</ele>
      </trkpt>
      <trkpt lat="46.11936" lon="11.3118">
        <ele>1126.0</ele>
      </trkpt>
      <trkpt lat="46.11927" lon="11.31252">
        <ele>1126.0</ele>
      </trkpt>
      <trkpt lat="46.12002" lon="11.31544">
        <ele>1145.0</ele>
      </trkpt>
      <trkpt lat="46.12304" lon="11.31884">
        <ele>1190.0</ele>
      </trkpt>
      <trkpt lat="46.12353" lon="11.32042">
        <ele>1205.0</ele>
      </trkpt>
      <trkpt lat="46.12326" lon="11.32305">
        <ele>1214.0</ele>
      </trkpt>
      <trkpt lat="46.12398" lon="11.32769">
        <ele>1235.0</ele>
      </trkpt>
      <trkpt lat="46.12479" lon="11.33091">
        <ele>1245.0</ele>
      </trkpt>
      <trkpt lat="46.12628" lon="11.3327">
        <ele>1265.0</ele>
      </trkpt>
      <trkpt lat="46.12758" lon="11.333">
        <ele>1281.0</ele>
      </trkpt>
      <trkpt lat="46.1282" lon="11.33475">
        <ele>1284.0</ele>
      </trkpt>
      <trkpt lat="46.12873" lon="11.33567">
        <ele>1291.0</ele>
      </trkpt>
      <trkpt lat="46.12948" lon="11.33938">
        <ele>1305.0</ele>
      </trkpt>
      <trkpt lat="46.13001" lon="11.34057">
        <ele>1317.0</ele>
      </trkpt>
      <trkpt lat="46.13052" lon="11.34055">
        <ele>1338.0</ele>
      </trkpt>
      <trkpt lat="46.1299" lon="11.33926">
        <ele>1348.0</ele>
      </trkpt>
      <trkpt lat="46.12985" lon="11.33712">
        <ele>1361.0</ele>
      </trkpt>
      <trkpt lat="46.12927" lon="11.3338">
        <ele>1386.0</ele>
      </trkpt>
      <trkpt lat="46.12918" lon="11.33267">
        <ele>1393.0</ele>
      </trkpt>
      <trkpt lat="46.12995" lon="11.33141">
        <ele>1404.0</ele>
      </trkpt>
      <trkpt lat="46.13014" lon="11.33063">
        <ele>1411.0</ele>
      </trkpt>
      <trkpt lat="46.13132" lon="11.32878">
        <ele>1432.0</ele>
      </trkpt>
      <trkpt lat="46.13454" lon="11.3253">
        <ele>1455.0</ele>
      </trkpt>
      <trkpt lat="46.13573" lon="11.32338">
        <ele>1456.0</ele>
      </trkpt>
      <trkpt lat="46.13687" lon="11.3223">
        <ele>1458.0</ele>
      </trkpt>
      <trkpt lat="46.13844" lon="11.32059">
        <ele>1456.0</ele>
      </trkpt>
      <trkpt lat="46.14105" lon="11.31691">
        <ele>1438.0</ele>
      </trkpt>
      <trkpt lat="46.14196" lon="11.3161">
        <ele>1419.0</ele>
      </trkpt>
      <trkpt lat="46.14211" lon="11.31577">
        <ele>1414.0</ele>
      </trkpt>
      <trkpt lat="46.14157" lon="11.31538">
        <ele>1407.0</ele>
      </trkpt>
      <trkpt lat="46.14236" lon="11.31491">
        <ele>1398.0</ele>
      </trkpt>
      <trkpt lat="46.14168" lon="11.31435">
        <ele>1392.0</ele>
      </trkpt>
      <trkpt lat="46.14272" lon="11.31435">
        <ele>1385.0</ele>
      </trkpt>
      <trkpt lat="46.14537" lon="11.31319">
        <ele>1355.0</ele>
      </trkpt>
      <trkpt lat="46.14767" lon="11.31242">
        <ele>1325.0</ele>
      </trkpt>
      <trkpt lat="46.14726" lon="11.31209">
        <ele>1312.0</ele>
      </trkpt>
      <trkpt lat="46.14695" lon="11.31184">
        <ele>1306.0</ele>
      </trkpt>
      <trkpt lat="46.14923" lon="11.31073">
        <ele>1282.0</ele>
      </trkpt>
      <trkpt lat="46.15086" lon="11.31062">
        <ele>1254.0</ele>
      </trkpt>
      <trkpt lat="46.15022" lon="11.31003">
        <ele>1246.0</ele>
      </trkpt>
      <trkpt lat="46.15064" lon="11.31003">
        <ele>1239.0</ele>
      </trkpt>
      <trkpt lat="46.15324" lon="11.30966">
        <ele>1220.0</ele>
      </trkpt>
      <trkpt lat="46.15561" lon="11.30911">
        <ele>1198.0</ele>
      </trkpt>
      <trkpt lat="46.15653" lon="11.30938">
        <ele>1186.0</ele>
      </trkpt>
      <trkpt lat="46.15582" lon="11.3085">
        <ele>1176.0</ele>
      </trkpt>
      <trkpt lat="46.15637" lon="11.30804">
        <ele>1165.0</ele>
      </trkpt>
      <trkpt lat="46.15582" lon="11.30677">
        <ele>1163.0</ele>
      </trkpt>
      <trkpt lat="46.15811" lon="11.30368">
        <ele>1126.0</ele>
      </trkpt>
      <trkpt lat="46.15964" lon="11.30184">
        <ele>1092.0</ele>
      </trkpt>
      <trkpt lat="46.16002" lon="11.30016">
        <ele>1066.0</ele>
      </trkpt>
      <trkpt lat="46.15964" lon="11.29791">
        <ele>1054.0</ele>
      </trkpt>
      <trkpt lat="46.15902" lon="11.29638">
        <ele>1042.0</ele>
      </trkpt>
      <trkpt lat="46.15801" lon="11.29659">
        <ele>1039.0</ele>
      </trkpt>
      <trkpt lat="46.15669" lon="11.2944">
        <ele>1035.0</ele>
      </trkpt>
      <trkpt lat="46.15551" lon="11.29036">
        <ele>1029.0</ele>
      </trkpt>
      <trkpt lat="46.15628" lon="11.28609">
        <ele>1029.0</ele>
      </trkpt>
      <trkpt lat="46.15736" lon="11.28394">
        <ele>1025.0</ele>
      </trkpt>
      <trkpt lat="46.15722" lon="11.2825">
        <ele>1026.0</ele>
      </trkpt>
      <trkpt lat="46.15551" lon="11.27818">
        <ele>1030.0</ele>
      </trkpt>
      <trkpt lat="46.15423" lon="11.27483">
        <ele>1033.0</ele>
      </trkpt>
      <trkpt lat="46.1524" lon="11.27369">
        <ele>1031.0</ele>
      </trkpt>
      <trkpt lat="46.15001" lon="11.27061">
        <ele>1027.0</ele>
      </trkpt>
      <trkpt lat="46.14948" lon="11.26891">
        <ele>1027.0</ele>
      </trkpt>
      <trkpt lat="46.14811" lon="11.26624">
        <ele>1023.0</ele>
      </trkpt>
      <trkpt lat="46.14764" lon="11.26538">
        <ele>1020.0</ele>
      </trkpt>
      <trkpt lat="46.14248" lon="11.25992">
        <ele>1003.0</ele>
      </trkpt>
      <trkpt lat="46.14167" lon="11.25824">
        <ele>996.0</ele>
      </trkpt>
      <trkpt lat="46.13834" lon="11.25303">
        <ele>984.0</ele>
      </trkpt>
      <trkpt lat="46.13636" lon="11.25077">
        <ele>976.0</ele>
      </trkpt>
      <trkpt lat="46.13476" lon="11.24934">
        <ele>975.0</ele>
      </trkpt>
      <trkpt lat="46.13338" lon="11.24797">
        <ele>971.0</ele>
      </trkpt>
      <trkpt lat="46.13144" lon="11.24653">
        <ele>962.0</ele>
      </trkpt>
      <trkpt lat="46.13002" lon="11.24456">
        <ele>955.0</ele>
      </trkpt>
      <trkpt lat="46.13009" lon="11.24415">
        <ele>951.0</ele>
      </trkpt>
      <trkpt lat="46.13" lon="11.24396">
        <ele>950.0</ele>
      </trkpt>
      <trkpt lat="46.12977" lon="11.24324">
        <ele>947.0</ele>
      </trkpt>
      <trkpt lat="46.13036" lon="11.24166">
        <ele>943.0</ele>
      </trkpt>
      <trkpt lat="46.12936" lon="11.23933">
        <ele>932.0</ele>
      </trkpt>
      <trkpt lat="46.12839" lon="11.23621">
        <ele>915.0</ele>
      </trkpt>
      <trkpt lat="46.12682" lon="11.23292">
        <ele>900.0</ele>
      </trkpt>
      <trkpt lat="46.12638" lon="11.2319">
        <ele>891.0</ele>
      </trkpt>
      <trkpt lat="46.12634" lon="11.23172">
        <ele>890.0</ele>
      </trkpt>
      <trkpt lat="46.12595" lon="11.23137">
        <ele>890.0</ele>
      </trkpt>
      <trkpt lat="46.12496" lon="11.2304">
        <ele>891.0</ele>
      </trkpt>
      <trkpt lat="46.1246" lon="11.2281">
        <ele>879.0</ele>
      </trkpt>
      <trkpt lat="46.12322" lon="11.22686">
        <ele>869.0</ele>
      </trkpt>
      <trkpt lat="46.12067" lon="11.22611">
        <ele>865.0</ele>
      </trkpt>
      <trkpt lat="46.11706" lon="11.22294">
        <ele>849.0</ele>
      </trkpt>
      <trkpt lat="46.11436" lon="11.22079">
        <ele>823.0</ele>
      </trkpt>
      <trkpt lat="46.11185" lon="11.21792">
        <ele>808.0</ele>
      </trkpt>
      <trkpt lat="46.1101" lon="11.21588">
        <ele>800.0</ele>
      </trkpt>
      <trkpt lat="46.10845" lon="11.21431">
        <ele>780.0</ele>
      </trkpt>
      <trkpt lat="46.10623" lon="11.2136">
        <ele>753.0</ele>
      </trkpt>
      <trkpt lat="46.10617" lon="11.21337">
        <ele>749.0</ele>
      </trkpt>
      <trkpt lat="46.1063" lon="11.21324">
        <ele>747.0</ele>
      </trkpt>
      <trkpt lat="46.10876" lon="11.21329">
        <ele>745.0</ele>
      </trkpt>
      <trkpt lat="46.10998" lon="11.21474">
        <ele>744.0</ele>
      </trkpt>
      <trkpt lat="46.11025" lon="11.21456">
        <ele>741.0</ele>
      </trkpt>
      <trkpt lat="46.11053" lon="11.21481">
        <ele>731.0</ele>
      </trkpt>
      <trkpt lat="46.11217" lon="11.21646">
        <ele>710.0</ele>
      </trkpt>
      <trkpt lat="46.11478" lon="11.21815">
        <ele>675.0</ele>
      </trkpt>
      <trkpt lat="46.11735" lon="11.21871">
        <ele>644.0</ele>
      </trkpt>
      <trkpt lat="46.11918" lon="11.21718">
        <ele>629.0</ele>
      </trkpt>
      <trkpt lat="46.11964" lon="11.21675">
        <ele>633.0</ele>
      </trkpt>
      <trkpt lat="46.11985" lon="11.21648">
        <ele>637.0</ele>
      </trkpt>
      <trkpt lat="46.12024" lon="11.21639">
        <ele>640.0</ele>
      </trkpt>
      <trkpt lat="46.12211" lon="11.21712">
        <ele>635.0</ele>
      </trkpt>
      <trkpt lat="46.12492" lon="11.21595">
        <ele>647.0</ele>
      </trkpt>
      <trkpt lat="46.12597" lon="11.21616">
        <ele>652.0</ele>
      </trkpt>
      <trkpt lat="46.12721" lon="11.21822">
        <ele>654.0</ele>
      </trkpt>
      <trkpt lat="46.12864" lon="11.21913">
        <ele>654.0</ele>
      </trkpt>
      <trkpt lat="46.13001" lon="11.22228">
        <ele>661.0</ele>
      </trkpt>
      <trkpt lat="46.13285" lon="11.22443">
        <ele>656.0</ele>
      </trkpt>
      <trkpt lat="46.1341" lon="11.22444">
        <ele>659.0</ele>
      </trkpt>
      <trkpt lat="46.13857" lon="11.21973">
        <ele>654.0</ele>
      </trkpt>
      <trkpt lat="46.14187" lon="11.21829">
        <ele>638.0</ele>
      </trkpt>
      <trkpt lat="46.14408" lon="11.21891">
        <ele>634.0</ele>
      </trkpt>
      <trkpt lat="46.14573" lon="11.21987">
        <ele>640.0</ele>
      </trkpt>
      <trkpt lat="46.14686" lon="11.2199">
        <ele>649.0</ele>
      </trkpt>
      <trkpt lat="46.14822" lon="11.21927">
        <ele>652.0</ele>
      </trkpt>
      <trkpt lat="46.14953" lon="11.22143">
        <ele>662.0</ele>
      </trkpt>
      <trkpt lat="46.15049" lon="11.22296">
        <ele>670.0</ele>
      </trkpt>
      <trkpt lat="46.15163" lon="11.22484">
        <ele>675.0</ele>
      </trkpt>
      <trkpt lat="46.15407" lon="11.22821">
        <ele>687.0</ele>
      </trkpt>
      <trkpt lat="46.15715" lon="11.23126">
        <ele>700.0</ele>
      </trkpt>
      <trkpt lat="46.159" lon="11.23296">
        <ele>693.0</ele>
      </trkpt>
      <trkpt lat="46.16022" lon="11.23441">
        <ele>695.0</ele>
      </trkpt>
      <trkpt lat="46.16057" lon="11.23631">
        <ele>697.0</ele>
      </trkpt>
      <trkpt lat="46.1602" lon="11.23764">
        <ele>698.0</ele>
      </trkpt>
      <trkpt lat="46.1606" lon="11.23884">
        <ele>702.0</ele>
      </trkpt>
      <trkpt lat="46.1631" lon="11.24116">
        <ele>707.0</ele>
      </trkpt>
      <trkpt lat="46.16519" lon="11.2433">
        <ele>721.0</ele>
      </trkpt>
      <trkpt lat="46.16686" lon="11.24498">
        <ele>716.0</ele>
      </trkpt>
      <trkpt lat="46.16769" lon="11.24691">
        <ele>712.0</ele>
      </trkpt>
      <trkpt lat="46.16985" lon="11.24699">
        <ele>699.0</ele>
      </trkpt>
      <trkpt lat="46.17101" lon="11.24717">
        <ele>690.0</ele>
      </trkpt>
      <trkpt lat="46.17218" lon="11.24692">
        <ele>683.0</ele>
      </trkpt>
      <trkpt lat="46.17278" lon="11.24826">
        <ele>677.0</ele>
      </trkpt>
      <trkpt lat="46.17349" lon="11.24832">
        <ele>668.0</ele>
      </trkpt>
      <trkpt lat="46.17483" lon="11.2485">
        <ele>658.0</ele>
      </trkpt>
      <trkpt lat="46.17531" lon="11.25105">
        <ele>656.0</ele>
      </trkpt>
      <trkpt lat="46.17627" lon="11.25083">
        <ele>644.0</ele>
      </trkpt>
      <trkpt lat="46.17747" lon="11.25157">
        <ele>643.0</ele>
      </trkpt>
      <trkpt lat="46.17968" lon="11.25437">
        <ele>638.0</ele>
      </trkpt>
      <trkpt lat="46.17988" lon="11.25666">
        <ele>641.0</ele>
      </trkpt>
      <trkpt lat="46.18097" lon="11.26032">
        <ele>625.0</ele>
      </trkpt>
      <trkpt lat="46.18055" lon="11.26325">
        <ele>622.0</ele>
      </trkpt>
      <trkpt lat="46.18171" lon="11.26336">
        <ele>610.0</ele>
      </trkpt>
      <trkpt lat="46.18264" lon="11.26187">
        <ele>613.0</ele>
      </trkpt>
      <trkpt lat="46.18318" lon="11.26054">
        <ele>618.0</ele>
      </trkpt>
      <trkpt lat="46.18339" lon="11.25845">
        <ele>627.0</ele>
      </trkpt>
      <trkpt lat="46.18398" lon="11.25737">
        <ele>637.0</ele>
      </trkpt>
      <trkpt lat="46.18503" lon="11.25656">
        <ele>646.0</ele>
      </trkpt>
      <trkpt lat="46.18611" lon="11.25734">
        <ele>659.0</ele>
      </trkpt>
      <trkpt lat="46.18692" lon="11.25822">
        <ele>663.0</ele>
      </trkpt>
      <trkpt lat="46.18794" lon="11.25889">
        <ele>667.0</ele>
      </trkpt>
      <trkpt lat="46.18863" lon="11.25869">
        <ele>672.0</ele>
      </trkpt>
      <trkpt lat="46.18968" lon="11.25836">
        <ele>679.0</ele>
      </trkpt>
      <trkpt lat="46.19153" lon="11.2589">
        <ele>694.0</ele>
      </trkpt>
      <trkpt lat="46.19228" lon="11.26008">
        <ele>702.0</ele>
      </trkpt>
      <trkpt lat="46.19307" lon="11.26031">
        <ele>708.0</ele>
      </trkpt>
      <trkpt lat="46.19353" lon="11.25919">
        <ele>714.0</ele>
      </trkpt>
      <trkpt lat="46.19498" lon="11.25877">
        <ele>722.0</ele>
      </trkpt>
      <trkpt lat="46.19794" lon="11.25835">
        <ele>735.0</ele>
      </trkpt>
      <trkpt lat="46.19915" lon="11.25874">
        <ele>745.0</ele>
      </trkpt>
      <trkpt lat="46.19934" lon="11.26228">
        <ele>757.0</ele>
      </trkpt>
      <trkpt lat="46.19881" lon="11.26375">
        <ele>762.0</ele>
      </trkpt>
      <trkpt lat="46.19855" lon="11.26647">
        <ele>763.0</ele>
      </trkpt>
      <trkpt lat="46.19942" lon="11.26931">
        <ele>764.0</ele>
      </trkpt>
      <trkpt lat="46.19955" lon="11.27279">
        <ele>778.0</ele>
      </trkpt>
      <trkpt lat="46.19977" lon="11.27434">
        <ele>771.0</ele>
      </trkpt>
      <trkpt lat="46.20201" lon="11.27693">
        <ele>753.0</ele>
      </trkpt>
      <trkpt lat="46.20349" lon="11.2797">
        <ele>747.0</ele>
      </trkpt>
      <trkpt lat="46.20514" lon="11.28189">
        <ele>753.0</ele>
      </trkpt>
      <trkpt lat="46.20388" lon="11.28619">
        <ele>759.0</ele>
      </trkpt>
      <trkpt lat="46.20374" lon="11.28767">
        <ele>756.0</ele>
      </trkpt>
      <trkpt lat="46.20428" lon="11.28764">
        <ele>753.0</ele>
      </trkpt>
      <trkpt lat="46.20679" lon="11.2854">
        <ele>745.0</ele>
      </trkpt>
      <trkpt lat="46.20762" lon="11.28566">
        <ele>748.0</ele>
      </trkpt>
      <trkpt lat="46.20853" lon="11.28979">
        <ele>763.0</ele>
      </trkpt>
      <trkpt lat="46.20963" lon="11.29277">
        <ele>762.0</ele>
      </trkpt>
      <trkpt lat="46.211" lon="11.29721">
        <ele>768.0</ele>
      </trkpt>
      <trkpt lat="46.21139" lon="11.29892">
        <ele>766.0</ele>
      </trkpt>
      <trkpt lat="46.21406" lon="11.30115">
        <ele>767.0</ele>
      </trkpt>
      <trkpt lat="46.21567" lon="11.30274">
        <ele>767.0</ele>
      </trkpt>
      <trkpt lat="46.21851" lon="11.30592">
        <ele>777.0</ele>
      </trkpt>
      <trkpt lat="46.21857" lon="11.30769">
        <ele>798.0</ele>
      </trkpt>
      <trkpt lat="46.21629" lon="11.30997">
        <ele>842.0</ele>
      </trkpt>
      <trkpt lat="46.21455" lon="11.31065">
        <ele>863.0</ele>
      </trkpt>
      <trkpt lat="46.21217" lon="11.31192">
        <ele>883.0</ele>
      </trkpt>
      <trkpt lat="46.20934" lon="11.3126">
        <ele>914.0</ele>
      </trkpt>
      <trkpt lat="46.20738" lon="11.31222">
        <ele>925.0</ele>
      </trkpt>
      <trkpt lat="46.2063" lon="11.31188">
        <ele>931.0</ele>
      </trkpt>
      <trkpt lat="46.2045" lon="11.31184">
        <ele>946.0</ele>
      </trkpt>
      <trkpt lat="46.20355" lon="11.31206">
        <ele>962.0</ele>
      </trkpt>
      <trkpt lat="46.20185" lon="11.31357">
        <ele>984.0</ele>
      </trkpt>
      <trkpt lat="46.20122" lon="11.31501">
        <ele>997.0</ele>
      </trkpt>
      <trkpt lat="46.19971" lon="11.31699">
        <ele>1008.0</ele>
      </trkpt>
      <trkpt lat="46.19878" lon="11.31785">
        <ele>1013.0</ele>
      </trkpt>
      <trkpt lat="46.19643" lon="11.3186">
        <ele>1016.0</ele>
      </trkpt>
      <trkpt lat="46.19541" lon="11.31941">
        <ele>1024.0</ele>
      </trkpt>
      <trkpt lat="46.19374" lon="11.3213">
        <ele>1032.0</ele>
      </trkpt>
      <trkpt lat="46.19117" lon="11.32297">
        <ele>1054.0</ele>
      </trkpt>
      <trkpt lat="46.19008" lon="11.32372">
        <ele>1061.0</ele>
      </trkpt>
      <trkpt lat="46.18896" lon="11.32409">
        <ele>1066.0</ele>
      </trkpt>
      <trkpt lat="46.18813" lon="11.32367">
        <ele>1071.0</ele>
      </trkpt>
      <trkpt lat="46.18626" lon="11.32492">
        <ele>1076.0</ele>
      </trkpt>
      <trkpt lat="46.18485" lon="11.32551">
        <ele>1081.0</ele>
      </trkpt>
      <trkpt lat="46.18315" lon="11.32536">
        <ele>1094.0</ele>
      </trkpt>
      <trkpt lat="46.18266" lon="11.32582">
        <ele>1102.0</ele>
      </trkpt>
      <trkpt lat="46.1816" lon="11.32603">
        <ele>1107.0</ele>
      </trkpt>
      <trkpt lat="46.18055" lon="11.32603">
        <ele>1105.0</ele>
      </trkpt>
      <trkpt lat="46.17911" lon="11.3252">
        <ele>1105.0</ele>
      </trkpt>
      <trkpt lat="46.17775" lon="11.32424">
        <ele>1106.0</ele>
      </trkpt>
      <trkpt lat="46.17566" lon="11.32132">
        <ele>1103.0</ele>
      </trkpt>
      <trkpt lat="46.17471" lon="11.31909">
        <ele>1101.0</ele>
      </trkpt>
      <trkpt lat="46.17321" lon="11.31755">
        <ele>1100.0</ele>
      </trkpt>
      <trkpt lat="46.1721" lon="11.31548">
        <ele>1092.0</ele>
      </trkpt>
      <trkpt lat="46.17138" lon="11.31449">
        <ele>1087.0</ele>
      </trkpt>
      <trkpt lat="46.16904" lon="11.31214">
        <ele>1087.0</ele>
      </trkpt>
      <trkpt lat="46.16814" lon="11.31068">
        <ele>1083.0</ele>
      </trkpt>
      <trkpt lat="46.16672" lon="11.3098">
        <ele>1082.0</ele>
      </trkpt>
      <trkpt lat="46.16542" lon="11.309">
        <ele>1088.0</ele>
      </trkpt>
      <trkpt lat="46.16476" lon="11.30779">
        <ele>1087.0</ele>
      </trkpt>
      <trkpt lat="46.16266" lon="11.30595">
        <ele>1071.0</ele>
      </trkpt>
      <trkpt lat="46.16209" lon="11.30445">
        <ele>1073.0</ele>
      </trkpt>
      <trkpt lat="46.16107" lon="11.30266">
        <ele>1067.0</ele>
      </trkpt>
      <trkpt lat="46.16064" lon="11.3023">
        <ele>1063.0</ele>
      </trkpt>
      <trkpt lat="46.15997" lon="11.30202">
        <ele>1064.0</ele>
      </trkpt>
      <trkpt lat="46.16015" lon="11.30012">
        <ele>1063.0</ele>
      </trkpt>
      <trkpt lat="46.15929" lon="11.29655">
        <ele>1046.0</ele>
      </trkpt>
      <trkpt lat="46.15878" lon="11.2964">
        <ele>1041.0</ele>
      </trkpt>
      <trkpt lat="46.15775" lon="11.29641">
        <ele>1038.0</ele>
      </trkpt>
      <trkpt lat="46.15564" lon="11.29162">
        <ele>1031.0</ele>
      </trkpt>
      <trkpt lat="46.15548" lon="11.28862">
        <ele>1032.0</ele>
      </trkpt>
      <trkpt lat="46.15656" lon="11.28547">
        <ele>1027.0</ele>
      </trkpt>
      <trkpt lat="46.15733" lon="11.28293">
        <ele>1025.0</ele>
      </trkpt>
      <trkpt lat="46.15687" lon="11.282">
        <ele>1027.0</ele>
      </trkpt>
      <trkpt lat="46.15474" lon="11.27589">
        <ele>1031.0</ele>
      </trkpt>
      <trkpt lat="46.15309" lon="11.27368">
        <ele>1033.0</ele>
      </trkpt>
      <trkpt lat="46.15105" lon="11.27315">
        <ele>1028.0</ele>
      </trkpt>
      <trkpt lat="46.14952" lon="11.26909">
        <ele>1027.0</ele>
      </trkpt>
      <trkpt lat="46.14823" lon="11.26648">
        <ele>1026.0</ele>
      </trkpt>
      <trkpt lat="46.14784" lon="11.26558">
        <ele>1021.0</ele>
      </trkpt>
      <trkpt lat="46.14308" lon="11.26055">
        <ele>1006.0</ele>
      </trkpt>
      <trkpt lat="46.14196" lon="11.25904">
        <ele>998.0</ele>
      </trkpt>
      <trkpt lat="46.13903" lon="11.25403">
        <ele>987.0</ele>
      </trkpt>
      <trkpt lat="46.13694" lon="11.25155">
        <ele>979.0</ele>
      </trkpt>
      <trkpt lat="46.13539" lon="11.24964">
        <ele>975.0</ele>
      </trkpt>
      <trkpt lat="46.13419" lon="11.24868">
        <ele>973.0</ele>
      </trkpt>
      <trkpt lat="46.13162" lon="11.24672">
        <ele>963.0</ele>
      </trkpt>
      <trkpt lat="46.13028" lon="11.24487">
        <ele>958.0</ele>
      </trkpt>
      <trkpt lat="46.13007" lon="11.24424">
        <ele>951.0</ele>
      </trkpt>
      <trkpt lat="46.13006" lon="11.24401">
        <ele>950.0</ele>
      </trkpt>
      <trkpt lat="46.12978" lon="11.24361">
        <ele>948.0</ele>
      </trkpt>
      <trkpt lat="46.13027" lon="11.24205">
        <ele>945.0</ele>
      </trkpt>
      <trkpt lat="46.13012" lon="11.24045">
        <ele>938.0</ele>
      </trkpt>
      <trkpt lat="46.12872" lon="11.23738">
        <ele>921.0</ele>
      </trkpt>
      <trkpt lat="46.12699" lon="11.23348">
        <ele>905.0</ele>
      </trkpt>
      <trkpt lat="46.12642" lon="11.23211">
        <ele>894.0</ele>
      </trkpt>
      <trkpt lat="46.12636" lon="11.23176">
        <ele>890.0</ele>
      </trkpt>
      <trkpt lat="46.12619" lon="11.23166">
        <ele>890.0</ele>
      </trkpt>
      <trkpt lat="46.12496" lon="11.2304">
        <ele>891.0</ele>
      </trkpt>
      <trkpt lat="46.12464" lon="11.22856">
        <ele>882.0</ele>
      </trkpt>
      <trkpt lat="46.12374" lon="11.22733">
        <ele>872.0</ele>
      </trkpt>
      <trkpt lat="46.12103" lon="11.22628">
        <ele>866.0</ele>
      </trkpt>
      <trkpt lat="46.11744" lon="11.22328">
        <ele>854.0</ele>
      </trkpt>
      <trkpt lat="46.11508" lon="11.221">
        <ele>831.0</ele>
      </trkpt>
      <trkpt lat="46.11262" lon="11.219">
        <ele>809.0</ele>
      </trkpt>
      <trkpt lat="46.11039" lon="11.21623">
        <ele>804.0</ele>
      </trkpt>
      <trkpt lat="46.10873" lon="11.2147">
        <ele>787.0</ele>
      </trkpt>
      <trkpt lat="46.10633" lon="11.21363">
        <ele>758.0</ele>
      </trkpt>
      <trkpt lat="46.10617" lon="11.21345">
        <ele>750.0</ele>
      </trkpt>
      <trkpt lat="46.10626" lon="11.21324">
        <ele>747.0</ele>
      </trkpt>
      <trkpt lat="46.10682" lon="11.21349">
        <ele>746.0</ele>
      </trkpt>
      <trkpt lat="46.10948" lon="11.21372">
        <ele>745.0</ele>
      </trkpt>
      <trkpt lat="46.11024" lon="11.21476">
        <ele>742.0</ele>
      </trkpt>
      <trkpt lat="46.11016" lon="11.21386">
        <ele>734.0</ele>
      </trkpt>
      <trkpt lat="46.11173" lon="11.21584">
        <ele>717.0</ele>
      </trkpt>
      <trkpt lat="46.11478" lon="11.21815">
        <ele>677.0</ele>
      </trkpt>
      <trkpt lat="46.11735" lon="11.21871">
        <ele>645.0</ele>
      </trkpt>
      <trkpt lat="46.11918" lon="11.21718">
        <ele>627.0</ele>
      </trkpt>
      <trkpt lat="46.11964" lon="11.21675">
        <ele>630.0</ele>
      </trkpt>
      <trkpt lat="46.11977" lon="11.21646">
        <ele>632.0</ele>
      </trkpt>
      <trkpt lat="46.11957" lon="11.21632">
        <ele>633.0</ele>
      </trkpt>
      <trkpt lat="46.11854" lon="11.21658">
        <ele>633.0</ele>
      </trkpt>
      <trkpt lat="46.11624" lon="11.21569">
        <ele>628.0</ele>
      </trkpt>
      <trkpt lat="46.11415" lon="11.21459">
        <ele>623.0</ele>
      </trkpt>
      <trkpt lat="46.11283" lon="11.21172">
        <ele>611.0</ele>
      </trkpt>
      <trkpt lat="46.11127" lon="11.20972">
        <ele>599.0</ele>
      </trkpt>
      <trkpt lat="46.10867" lon="11.20779">
        <ele>597.0</ele>
      </trkpt>
      <trkpt lat="46.10688" lon="11.20847">
        <ele>597.0</ele>
      </trkpt>
      <trkpt lat="46.10553" lon="11.2078">
        <ele>592.0</ele>
      </trkpt>
      <trkpt lat="46.10115" lon="11.2066">
        <ele>582.0</ele>
      </trkpt>
      <trkpt lat="46.09935" lon="11.20648">
        <ele>574.0</ele>
      </trkpt>
      <trkpt lat="46.0982" lon="11.20651">
        <ele>567.0</ele>
      </trkpt>
      <trkpt lat="46.09733" lon="11.20573">
        <ele>562.0</ele>
      </trkpt>
      <trkpt lat="46.09629" lon="11.20639">
        <ele>560.0</ele>
      </trkpt>
      <trkpt lat="46.09376" lon="11.20609">
        <ele>545.0</ele>
      </trkpt>
      <trkpt lat="46.0928" lon="11.20282">
        <ele>539.0</ele>
      </trkpt>
      <trkpt lat="46.09267" lon="11.20094">
        <ele>538.0</ele>
      </trkpt>
      <trkpt lat="46.09216" lon="11.1982">
        <ele>534.0</ele>
      </trkpt>
      <trkpt lat="46.09068" lon="11.19839">
        <ele>532.0</ele>
      </trkpt>
      <trkpt lat="46.09029" lon="11.19618">
        <ele>542.0</ele>
      </trkpt>
      <trkpt lat="46.09043" lon="11.19334">
        <ele>560.0</ele>
      </trkpt>
      <trkpt lat="46.09244" lon="11.19231">
        <ele>576.0</ele>
      </trkpt>
      <trkpt lat="46.09569" lon="11.18897">
        <ele>604.0</ele>
      </trkpt>
      <trkpt lat="46.09714" lon="11.18966">
        <ele>629.0</ele>
      </trkpt>
      <trkpt lat="46.0982" lon="11.18924">
        <ele>644.0</ele>
      </trkpt>
      <trkpt lat="46.09951" lon="11.18897">
        <ele>662.0</ele>
      </trkpt>
      <trkpt lat="46.10107" lon="11.19003">
        <ele>684.0</ele>
      </trkpt>
      <trkpt lat="46.1015" lon="11.1891">
        <ele>693.0</ele>
      </trkpt>
      <trkpt lat="46.10122" lon="11.18769">
        <ele>694.0</ele>
      </trkpt>
      <trkpt lat="46.10184" lon="11.1862">
        <ele>696.0</ele>
      </trkpt>
      <trkpt lat="46.10313" lon="11.18529">
        <ele>706.0</ele>
      </trkpt>
      <trkpt lat="46.10358" lon="11.18434">
        <ele>717.0</ele>
      </trkpt>
      <trkpt lat="46.10427" lon="11.18376">
        <ele>728.0</ele>
      </trkpt>
      <trkpt lat="46.10533" lon="11.18409">
        <ele>739.0</ele>
      </trkpt>
      <trkpt lat="46.10643" lon="11.1838">
        <ele>747.0</ele>
      </trkpt>
      <trkpt lat="46.10688" lon="11.18282">
        <ele>752.0</ele>
      </trkpt>
      <trkpt lat="46.10833" lon="11.18201">
        <ele>753.0</ele>
      </trkpt>
      <trkpt lat="46.10982" lon="11.18185">
        <ele>753.0</ele>
      </trkpt>
      <trkpt lat="46.1112" lon="11.18157">
        <ele>752.0</ele>
      </trkpt>
      <trkpt lat="46.1124" lon="11.18161">
        <ele>755.0</ele>
      </trkpt>
      <trkpt lat="46.11308" lon="11.18065">
        <ele>753.0</ele>
      </trkpt>
      <trkpt lat="46.11308" lon="11.17929">
        <ele>748.0</ele>
      </trkpt>
      <trkpt lat="46.11305" lon="11.17736">
        <ele>750.0</ele>
      </trkpt>
      <trkpt lat="46.11357" lon="11.17609">
        <ele>755.0</ele>
      </trkpt>
      <trkpt lat="46.11422" lon="11.17416">
        <ele>758.0</ele>
      </trkpt>
      <trkpt lat="46.11318" lon="11.17356">
        <ele>763.0</ele>
      </trkpt>
      <trkpt lat="46.11227" lon="11.17221">
        <ele>764.0</ele>
      </trkpt>
      <trkpt lat="46.11123" lon="11.1706">
        <ele>758.0</ele>
      </trkpt>
      <trkpt lat="46.11068" lon="11.17161">
        <ele>748.0</ele>
      </trkpt>
      <trkpt lat="46.10968" lon="11.17238">
        <ele>738.0</ele>
      </trkpt>
      <trkpt lat="46.10733" lon="11.17263">
        <ele>716.0</ele>
      </trkpt>
      <trkpt lat="46.10576" lon="11.17244">
        <ele>702.0</ele>
      </trkpt>
      <trkpt lat="46.10444" lon="11.1725">
        <ele>691.0</ele>
      </trkpt>
      <trkpt lat="46.10269" lon="11.17283">
        <ele>679.0</ele>
      </trkpt>
      <trkpt lat="46.10174" lon="11.17156">
        <ele>662.0</ele>
      </trkpt>
      <trkpt lat="46.10137" lon="11.1725">
        <ele>648.0</ele>
      </trkpt>
      <trkpt lat="46.10195" lon="11.17443">
        <ele>626.0</ele>
      </trkpt>
      <trkpt lat="46.10235" lon="11.17508">
        <ele>616.0</ele>
      </trkpt>
      <trkpt lat="46.10208" lon="11.17633">
        <ele>608.0</ele>
      </trkpt>
      <trkpt lat="46.10103" lon="11.17691">
        <ele>608.0</ele>
      </trkpt>
      <trkpt lat="46.09857" lon="11.17873">
        <ele>586.0</ele>
      </trkpt>
      <trkpt lat="46.09748" lon="11.17937">
        <ele>565.0</ele>
      </trkpt>
      <trkpt lat="46.09583" lon="11.17854">
        <ele>555.0</ele>
      </trkpt>
      <trkpt lat="46.09504" lon="11.17758">
        <ele>548.0</ele>
      </trkpt>
      <trkpt lat="46.09383" lon="11.17824">
        <ele>531.0</ele>
      </trkpt>
      <trkpt lat="46.09329" lon="11.17929">
        <ele>518.0</ele>
      </trkpt>
      <trkpt lat="46.09269" lon="11.18019">
        <ele>507.0</ele>
      </trkpt>
      <trkpt lat="46.09121" lon="11.18105">
        <ele>494.0</ele>
      </trkpt>
      <trkpt lat="46.09041" lon="11.18142">
        <ele>481.0</ele>
      </trkpt>
      <trkpt lat="46.0898" lon="11.18216">
        <ele>474.0</ele>
      </trkpt>
      <trkpt lat="46.09071" lon="11.18325">
        <ele>467.0</ele>
      </trkpt>
      <trkpt lat="46.09183" lon="11.18341">
        <ele>464.0</ele>
      </trkpt>
      <trkpt lat="46.09167" lon="11.18418">
        <ele>464.0</ele>
      </trkpt>
      <trkpt lat="46.09045" lon="11.18499">
        <ele>457.0</ele>
      </trkpt>
      <trkpt lat="46.08933" lon="11.1853">
        <ele>446.0</ele>
      </trkpt>
      <trkpt lat="46.08913" lon="11.1848">
        <ele>445.0</ele>
      </trkpt>
      <trkpt lat="46.08836" lon="11.18432">
        <ele>443.0</ele>
      </trkpt>
      <trkpt lat="46.08598" lon="11.18301">
        <ele>435.0</ele>
      </trkpt>
      <trkpt lat="46.08516" lon="11.18317">
        <ele>434.0</ele>
      </trkpt>
      <trkpt lat="46.08481" lon="11.18305">
        <ele>434.0</ele>
      </trkpt>
      <trkpt lat="46.08481" lon="11.18244">
        <ele>434.0</ele>
      </trkpt>
      <trkpt lat="46.08515" lon="11.1811">
        <ele>439.0</ele>
      </trkpt>
      <trkpt lat="46.08441" lon="11.17883">
        <ele>456.0</ele>
      </trkpt>
      <trkpt lat="46.08395" lon="11.17516">
        <ele>487.0</ele>
      </trkpt>
      <trkpt lat="46.08354" lon="11.17374">
        <ele>496.0</ele>
      </trkpt>
      <trkpt lat="46.08281" lon="11.17161">
        <ele>503.0</ele>
      </trkpt>
      <trkpt lat="46.0817" lon="11.16783">
        <ele>495.0</ele>
      </trkpt>
      <trkpt lat="46.08189" lon="11.16297">
        <ele>483.0</ele>
      </trkpt>
      <trkpt lat="46.08185" lon="11.16128">
        <ele>473.0</ele>
      </trkpt>
      <trkpt lat="46.08093" lon="11.15917">
        <ele>463.0</ele>
      </trkpt>
      <trkpt lat="46.07984" lon="11.15738">
        <ele>448.0</ele>
      </trkpt>
      <trkpt lat="46.07909" lon="11.15473">
        <ele>433.0</ele>
      </trkpt>
      <trkpt lat="46.07809" lon="11.15172">
        <ele>414.0</ele>
      </trkpt>
      <trkpt lat="46.0766" lon="11.14934">
        <ele>399.0</ele>
      </trkpt>
      <trkpt lat="46.07594" lon="11.14664">
        <ele>383.0</ele>
      </trkpt>
      <trkpt lat="46.07603" lon="11.14489">
        <ele>373.0</ele>
      </trkpt>
      <trkpt lat="46.07562" lon="11.14363">
        <ele>364.0</ele>
      </trkpt>
      <trkpt lat="46.07561" lon="11.14345">
        <ele>362.0</ele>
      </trkpt>
      <trkpt lat="46.07561" lon="11.14282">
        <ele>359.0</ele>
      </trkpt>
      <trkpt lat="46.0757" lon="11.14125">
        <ele>353.0</ele>
      </trkpt>
      <trkpt lat="46.07542" lon="11.13975">
        <ele>345.0</ele>
      </trkpt>
      <trkpt lat="46.07529" lon="11.13833">
        <ele>336.0</ele>
      </trkpt>
      <trkpt lat="46.07489" lon="11.13798">
        <ele>331.0</ele>
      </trkpt>
      <trkpt lat="46.07442" lon="11.13825">
        <ele>327.0</ele>
      </trkpt>
      <trkpt lat="46.07382" lon="11.13907">
        <ele>318.0</ele>
      </trkpt>
      <trkpt lat="46.07369" lon="11.13901">
        <ele>316.0</ele>
      </trkpt>
      <trkpt lat="46.07363" lon="11.13918">
        <ele>314.0</ele>
      </trkpt>
      <trkpt lat="46.07373" lon="11.1393">
        <ele>312.0</ele>
      </trkpt>
      <trkpt lat="46.07344" lon="11.13981">
        <ele>308.0</ele>
      </trkpt>
      <trkpt lat="46.07309" lon="11.13951">
        <ele>303.0</ele>
      </trkpt>
      <trkpt lat="46.07248" lon="11.1384">
        <ele>294.0</ele>
      </trkpt>
      <trkpt lat="46.07184" lon="11.13833">
        <ele>291.0</ele>
      </trkpt>
      <trkpt lat="46.07144" lon="11.13855">
        <ele>289.0</ele>
      </trkpt>
      <trkpt lat="46.07092" lon="11.13919">
        <ele>286.0</ele>
      </trkpt>
      <trkpt lat="46.07069" lon="11.1398">
        <ele>282.0</ele>
      </trkpt>
      <trkpt lat="46.07015" lon="11.13964">
        <ele>278.0</ele>
      </trkpt>
      <trkpt lat="46.07004" lon="11.1395">
        <ele>276.0</ele>
      </trkpt>
      <trkpt lat="46.06986" lon="11.13968">
        <ele>274.0</ele>
      </trkpt>
      <trkpt lat="46.0691" lon="11.14051">
        <ele>274.0</ele>
      </trkpt>
      <trkpt lat="46.06859" lon="11.1405">
        <ele>276.0</ele>
      </trkpt>
      <trkpt lat="46.06778" lon="11.1392">
        <ele>281.0</ele>
      </trkpt>
      <trkpt lat="46.06736" lon="11.13903">
        <ele>287.0</ele>
      </trkpt>
      <trkpt lat="46.0671" lon="11.13996">
        <ele>293.0</ele>
      </trkpt>
      <trkpt lat="46.06684" lon="11.14043">
        <ele>300.0</ele>
      </trkpt>
      <trkpt lat="46.06609" lon="11.14052">
        <ele>303.0</ele>
      </trkpt>
      <trkpt lat="46.06515" lon="11.14089">
        <ele>308.0</ele>
      </trkpt>
      <trkpt lat="46.06493" lon="11.14208">
        <ele>313.0</ele>
      </trkpt>
      <trkpt lat="46.06482" lon="11.14272">
        <ele>319.0</ele>
      </trkpt>
      <trkpt lat="46.0645" lon="11.14476">
        <ele>328.0</ele>
      </trkpt>
      <trkpt lat="46.06578" lon="11.14645">
        <ele>342.0</ele>
      </trkpt>
      <trkpt lat="46.0662" lon="11.1473">
        <ele>351.0</ele>
      </trkpt>
      <trkpt lat="46.06546" lon="11.14833">
        <ele>360.0</ele>
      </trkpt>
      <trkpt lat="46.06488" lon="11.14843">
        <ele>366.0</ele>
      </trkpt>
      <trkpt lat="46.06389" lon="11.1483">
        <ele>372.0</ele>
      </trkpt>
      <trkpt lat="46.06373" lon="11.14988">
        <ele>375.0</ele>
      </trkpt>
      <trkpt lat="46.06359" lon="11.15012">
        <ele>375.0</ele>
      </trkpt>
      <trkpt lat="46.06211" lon="11.15038">
        <ele>373.0</ele>
      </trkpt>
      <trkpt lat="46.0615" lon="11.15051">
        <ele>369.0</ele>
      </trkpt>
      <trkpt lat="46.05888" lon="11.1503">
        <ele>358.0</ele>
      </trkpt>
      <trkpt lat="46.05777" lon="11.14968">
        <ele>359.0</ele>
      </trkpt>
      <trkpt lat="46.05698" lon="11.14923">
        <ele>359.0</ele>
      </trkpt>
      <trkpt lat="46.05564" lon="11.14894">
        <ele>357.0</ele>
      </trkpt>
      <trkpt lat="46.05394" lon="11.14867">
        <ele>354.0</ele>
      </trkpt>
      <trkpt lat="46.05247" lon="11.14708">
        <ele>348.0</ele>
      </trkpt>
      <trkpt lat="46.05141" lon="11.14543">
        <ele>344.0</ele>
      </trkpt>
      <trkpt lat="46.05069" lon="11.14461">
        <ele>341.0</ele>
      </trkpt>
      <trkpt lat="46.04993" lon="11.14424">
        <ele>339.0</ele>
      </trkpt>
      <trkpt lat="46.04956" lon="11.14402">
        <ele>338.0</ele>
      </trkpt>
      <trkpt lat="46.04878" lon="11.14368">
        <ele>333.0</ele>
      </trkpt>
      <trkpt lat="46.04806" lon="11.14314">
        <ele>323.0</ele>
      </trkpt>
      <trkpt lat="46.04753" lon="11.14241">
        <ele>316.0</ele>
      </trkpt>
      <trkpt lat="46.04665" lon="11.14199">
        <ele>307.0</ele>
      </trkpt>
      <trkpt lat="46.04581" lon="11.14138">
        <ele>300.0</ele>
      </trkpt>
      <trkpt lat="46.04456" lon="11.14093">
        <ele>292.0</ele>
      </trkpt>
      <trkpt lat="46.04389" lon="11.14046">
        <ele>287.0</ele>
      </trkpt>
      <trkpt lat="46.04374" lon="11.13962">
        <ele>283.0</ele>
      </trkpt>
      <trkpt lat="46.04374" lon="11.13934">
        <ele>282.0</ele>
      </trkpt>
      <trkpt lat="46.04353" lon="11.13936">
        <ele>281.0</ele>
      </trkpt>
      <trkpt lat="46.04349" lon="11.1397">
        <ele>280.0</ele>
      </trkpt>
      <trkpt lat="46.04318" lon="11.14009">
        <ele>281.0</ele>
      </trkpt>
      <trkpt lat="46.04246" lon="11.14093">
        <ele>285.0</ele>
      </trkpt>
      <trkpt lat="46.04178" lon="11.1414">
        <ele>288.0</ele>
      </trkpt>
      <trkpt lat="46.04133" lon="11.14159">
        <ele>289.0</ele>
      </trkpt>
      <trkpt lat="46.04066" lon="11.14204">
        <ele>290.0</ele>
      </trkpt>
      <trkpt lat="46.04032" lon="11.142">
        <ele>290.0</ele>
      </trkpt>
      <trkpt lat="46.04012" lon="11.14143">
        <ele>287.0</ele>
      </trkpt>
      <trkpt lat="46.03989" lon="11.1411">
        <ele>284.0</ele>
      </trkpt>
      <trkpt lat="46.03926" lon="11.14043">
        <ele>278.0</ele>
      </trkpt>
      <trkpt lat="46.03864" lon="11.13946">
        <ele>270.0</ele>
      </trkpt>
      <trkpt lat="46.03881" lon="11.1379">
        <ele>261.0</ele>
      </trkpt>
      <trkpt lat="46.03946" lon="11.13786">
        <ele>256.0</ele>
      </trkpt>
      <trkpt lat="46.03977" lon="11.13765">
        <ele>252.0</ele>
      </trkpt>
      <trkpt lat="46.03965" lon="11.1368">
        <ele>248.0</ele>
      </trkpt>
      <trkpt lat="46.03936" lon="11.13567">
        <ele>241.0</ele>
      </trkpt>
      <trkpt lat="46.03839" lon="11.13457">
        <ele>231.0</ele>
      </trkpt>
      <trkpt lat="46.03744" lon="11.13372">
        <ele>222.0</ele>
      </trkpt>
      <trkpt lat="46.03737" lon="11.13321">
        <ele>217.0</ele>
      </trkpt>
      <trkpt lat="46.03794" lon="11.13291">
        <ele>213.0</ele>
      </trkpt>
      <trkpt lat="46.03936" lon="11.13232">
        <ele>208.0</ele>
      </trkpt>
      <trkpt lat="46.04091" lon="11.13161">
        <ele>202.0</ele>
      </trkpt>
      <trkpt lat="46.04193" lon="11.13141">
        <ele>197.0</ele>
      </trkpt>
      <trkpt lat="46.04226" lon="11.13097">
        <ele>194.0</ele>
      </trkpt>
      <trkpt lat="46.04243" lon="11.13016">
        <ele>190.0</ele>
      </trkpt>
      <trkpt lat="46.04396" lon="11.12861">
        <ele>188.0</ele>
      </trkpt>
      <trkpt lat="46.04466" lon="11.12817">
        <ele>189.0</ele>
      </trkpt>
      <trkpt lat="46.04642" lon="11.1278">
        <ele>189.0</ele>
      </trkpt>
      <trkpt lat="46.04748" lon="11.12762">
        <ele>189.0</ele>
      </trkpt>
      <trkpt lat="46.04755" lon="11.12733">
        <ele>189.0</ele>
      </trkpt>
      <trkpt lat="46.04872" lon="11.12606">
        <ele>191.0</ele>
      </trkpt>
      <trkpt lat="46.0495" lon="11.12512">
        <ele>193.0</ele>
      </trkpt>
      <trkpt lat="46.05044" lon="11.12384">
        <ele>194.0</ele>
      </trkpt>
      <trkpt lat="46.05065" lon="11.12365">
        <ele>195.0</ele>
      </trkpt>
      <trkpt lat="46.05076" lon="11.12373">
        <ele>195.0</ele>
      </trkpt>
      <trkpt lat="46.05087" lon="11.12364">
        <ele>195.0</ele>
      </trkpt>
      <trkpt lat="46.05088" lon="11.12346">
        <ele>196.0</ele>
      </trkpt>
      <trkpt lat="46.05083" lon="11.12333">
        <ele>196.0</ele>
      </trkpt>
      <trkpt lat="46.05181" lon="11.12198">
        <ele>196.0</ele>
      </trkpt>
      <trkpt lat="46.05232" lon="11.12184">
        <ele>196.0</ele>
      </trkpt>
      <trkpt lat="46.05272" lon="11.12134">
        <ele>196.0</ele>
      </trkpt>
      <trkpt lat="46.05278" lon="11.1208">
        <ele>196.0</ele>
      </trkpt>
      <trkpt lat="46.05265" lon="11.1191">
        <ele>194.0</ele>
      </trkpt>
      <trkpt lat="46.05223" lon="11.11769">
        <ele>191.0</ele>
      </trkpt>
      <trkpt lat="46.0523" lon="11.11728">
        <ele>190.0</ele>
      </trkpt>
      <trkpt lat="46.05201" lon="11.11695">
        <ele>189.0</ele>
      </trkpt>
      <trkpt lat="46.05127" lon="11.11403">
        <ele>188.0</ele>
      </trkpt>
      <trkpt lat="46.05149" lon="11.11355">
        <ele>187.0</ele>
      </trkpt>
      <trkpt lat="46.05138" lon="11.11315">
        <ele>187.0</ele>
      </trkpt>
      <trkpt lat="46.0514" lon="11.11268">
        <ele>186.0</ele>
      </trkpt>
      <trkpt lat="46.05151" lon="11.11177">
        <ele>186.0</ele>
      </trkpt>
      <trkpt lat="46.05249" lon="11.112">
        <ele>185.0</ele>
      </trkpt>
      <trkpt lat="46.05408" lon="11.11231">
        <ele>185.0</ele>
      </trkpt>
      <trkpt lat="46.05668" lon="11.11243">
        <ele>188.0</ele>
      </trkpt>
      <trkpt lat="46.05697" lon="11.11249">
        <ele>189.0</ele>
      </trkpt>
      <trkpt lat="46.05693" lon="11.1126">
        <ele>189.0</ele>
      </trkpt>
      <trkpt lat="46.05718" lon="11.11486">
        <ele>188.0</ele>
      </trkpt>
      <trkpt lat="46.05816" lon="11.115">
        <ele>188.0</ele>
      </trkpt>
      <trkpt lat="46.05843" lon="11.11509">
        <ele>188.0</ele>
      </trkpt>
      <trkpt lat="46.05963" lon="11.11593">
        <ele>188.0</ele>
      </trkpt>
      <trkpt lat="46.06103" lon="11.11581">
        <ele>187.0</ele>
      </trkpt>
      <trkpt lat="46.06219" lon="11.11564">
        <ele>189.0</ele>
      </trkpt>
      <trkpt lat="46.06241" lon="11.11548">
        <ele>190.0</ele>
      </trkpt>
      <trkpt lat="46.06238" lon="11.11494">
        <ele>191.0</ele>
      </trkpt>
      <trkpt lat="46.06225" lon="11.11307">
        <ele>189.0</ele>
      </trkpt>
      <trkpt lat="46.06217" lon="11.11284">
        <ele>188.0</ele>
      </trkpt>
      <trkpt lat="46.0626" lon="11.11293">
        <ele>188.0</ele>
      </trkpt>
      <trkpt lat="46.06395" lon="11.11331">
        <ele>190.0</ele>
      </trkpt>
      <trkpt lat="46.06515" lon="11.1138">
        <ele>191.0</ele>
      </trkpt>
      <trkpt lat="46.06608" lon="11.11429">
        <ele>191.0</ele>
      </trkpt>
      <trkpt lat="46.06647" lon="11.11698">
        <ele>195.0</ele>
      </trkpt>
      <trkpt lat="46.0665" lon="11.11752">
        <ele>197.0</ele>
      </trkpt>
      <trkpt lat="46.06663" lon="11.11885">
        <ele>198.0</ele>
      </trkpt>
    </trkseg>
  </trk>
</gpx>