<?xml version="1.0" encoding="UTF-8"?>
<gpx xmlns="http://www.topografix.com/GPX/1/0" xmlns:xsi="http://www.w3.org/2001/XMLSchema-instance" xsi:schemaLocation="http://www.topografix.com/GPX/1/0 http://www.topografix.com/GPX/1/0/gpx.xsd" version="1.0" creator="GPSBabel - https://www.gpsbabel.org">
  <time>2026-03-23T07:59:21.304000Z</time>
  <bounds minlat="43.25834" maxlat="43.2899" minlon="-2.96159" maxlon="-2.90415" />
  <trk>
    <trkseg>
      <trkpt lat="43.25905" lon="-2.91356">
        <ele>87.0</ele>
      </trkpt>
      <trkpt lat="43.25896" lon="-2.91292">
        <ele>90.0</ele>
      </trkpt>
      <trkpt lat="43.25854" lon="-2.91233">
        <ele>93.0</ele>
      </trkpt>
      <trkpt lat="43.25834" lon="-2.91169">
        <ele>99.0</ele>
      </trkpt>
      <trkpt lat="43.25887" lon="-2.91226">
        <ele>104.0</ele>
      </trkpt>
      <trkpt lat="43.25933" lon="-2.91235">
        <ele>108.0</ele>
      </trkpt>
      <trkpt lat="43.25988" lon="-2.9122">
        <ele>111.0</ele>
      </trkpt>
      <trkpt lat="43.26106" lon="-2.91136">
        <ele>122.0</ele>
      </trkpt>
      <trkpt lat="43.26225" lon="-2.90867">
        <ele>138.0</ele>
      </trkpt>
      <trkpt lat="43.26282" lon="-2.90801">
        <ele>146.0</ele>
      </trkpt>
      <trkpt lat="43.26298" lon="-2.90731">
        <ele>152.0</ele>
      </trkpt>
      <trkpt lat="43.26314" lon="-2.90716">
        <ele>154.0</ele>
      </trkpt>
      <trkpt lat="43.26365" lon="-2.90711">
        <ele>160.0</ele>
      </trkpt>
      <trkpt lat="43.26408" lon="-2.90679">
        <ele>164.0</ele>
      </trkpt>
      <trkpt lat="43.26472" lon="-2.90597">
        <ele>172.0</ele>
      </trkpt>
      <trkpt lat="43.26496" lon="-2.90531">
        <ele>182.0</ele>
      </trkpt>
      <trkpt lat="43.26572" lon="-2.90467">
        <ele>193.0</ele>
      </trkpt>
      <trkpt lat="43.26572" lon="-2.90431">
        <ele>199.0</ele>
      </trkpt>
      <trkpt lat="43.26546" lon="-2.90415">
        <ele>200.0</ele>
      </trkpt>
      <trkpt lat="43.26535" lon="-2.90448">
        <ele>200.0</ele>
      </trkpt>
      <trkpt lat="43.2655" lon="-2.90496">
        <ele>200.0</ele>
      </trkpt>
      <trkpt lat="43.2655" lon="-2.90564">
        <ele>199.0</ele>
      </trkpt>
      <trkpt lat="43.26488" lon="-2.9067">
        <ele>199.0</ele>
      </trkpt>
      <trkpt lat="43.26477" lon="-2.90722">
        <ele>200.0</ele>
      </trkpt>
      <trkpt lat="43.26496" lon="-2.90785">
        <ele>201.0</ele>
      </trkpt>
      <trkpt lat="43.26532" lon="-2.90811">
        <ele>203.0</ele>
      </trkpt>
      <trkpt lat="43.26582" lon="-2.90798">
        <ele>209.0</ele>
      </trkpt>
      <trkpt lat="43.26651" lon="-2.90726">
        <ele>220.0</ele>
      </trkpt>
      <trkpt lat="43.26767" lon="-2.90744">
        <ele>235.0</ele>
      </trkpt>
      <trkpt lat="43.26841" lon="-2.90697">
        <ele>245.0</ele>
      </trkpt>
      <trkpt lat="43.26914" lon="-2.90675">
        <ele>252.0</ele>
      </trkpt>
      <trkpt lat="43.26931" lon="-2.90649">
        <ele>254.0</ele>
      </trkpt>
      <trkpt lat="43.26934" lon="-2.90615">
        <ele>256.0</ele>
      </trkpt>
      <trkpt lat="43.26891" lon="-2.90498">
        <ele>263.0</ele>
      </trkpt>
      <trkpt lat="43.26898" lon="-2.90483">
        <ele>263.0</ele>
      </trkpt>
      <trkpt lat="43.26914" lon="-2.90487">
        <ele>262.0</ele>
      </trkpt>
      <trkpt lat="43.26923" lon="-2.90545">
        <ele>260.0</ele>
      </trkpt>
      <trkpt lat="43.27069" lon="-2.90777">
        <ele>253.0</ele>
      </trkpt>
      <trkpt lat="43.27066" lon="-2.91143">
        <ele>240.0</ele>
      </trkpt>
      <trkpt lat="43.27282" lon="-2.9157">
        <ele>229.0</ele>
      </trkpt>
      <trkpt lat="43.27236" lon="-2.91764">
        <ele>223.0</ele>
      </trkpt>
      <trkpt lat="43.27289" lon="-2.91897">
        <ele>223.0</ele>
      </trkpt>
      <trkpt lat="43.27359" lon="-2.91933">
        <ele>225.0</ele>
      </trkpt>
      <trkpt lat="43.27375" lon="-2.91962">
        <ele>224.0</ele>
      </trkpt>
      <trkpt lat="43.27366" lon="-2.92043">
        <ele>220.0</ele>
      </trkpt>
      <trkpt lat="43.27376" lon="-2.92196">
        <ele>213.0</ele>
      </trkpt>
      <trkpt lat="43.27512" lon="-2.92385">
        <ele>215.0</ele>
      </trkpt>
      <trkpt lat="43.27589" lon="-2.92453">
        <ele>213.0</ele>
      </trkpt>
      <trkpt lat="43.27622" lon="-2.92463">
        <ele>213.0</ele>
      </trkpt>
      <trkpt lat="43.27742" lon="-2.92788">
        <ele>213.0</ele>
      </trkpt>
      <trkpt lat="43.27872" lon="-2.93008">
        <ele>212.0</ele>
      </trkpt>
      <trkpt lat="43.27865" lon="-2.93107">
        <ele>210.0</ele>
      </trkpt>
      <trkpt lat="43.27918" lon="-2.93365">
        <ele>206.0</ele>
      </trkpt>
      <trkpt lat="43.27901" lon="-2.93406">
        <ele>205.0</ele>
      </trkpt>
      <trkpt lat="43.27798" lon="-2.93533">
        <ele>202.0</ele>
      </trkpt>
      <trkpt lat="43.27796" lon="-2.93656">
        <ele>200.0</ele>
      </trkpt>
      <trkpt lat="43.27804" lon="-2.93694">
        <ele>200.0</ele>
      </trkpt>
      <trkpt lat="43.27943" lon="-2.93921">
        <ele>192.0</ele>
      </trkpt>
      <trkpt lat="43.27964" lon="-2.93979">
        <ele>190.0</ele>
      </trkpt>
      <trkpt lat="43.27989" lon="-2.94387">
        <ele>185.0</ele>
      </trkpt>
      <trkpt lat="43.27937" lon="-2.94586">
        <ele>181.0</ele>
      </trkpt>
      <trkpt lat="43.27933" lon="-2.94644">
        <ele>181.0</ele>
      </trkpt>
      <trkpt lat="43.28029" lon="-2.95004">
        <ele>181.0</ele>
      </trkpt>
      <trkpt lat="43.28081" lon="-2.9511">
        <ele>178.0</ele>
      </trkpt>
      <trkpt lat="43.28137" lon="-2.9518">
        <ele>174.0</ele>
      </trkpt>
      <trkpt lat="43.28304" lon="-2.95294">
        <ele>172.0</ele>
      </trkpt>
      <trkpt lat="43.28473" lon="-2.95449">
        <ele>163.0</ele>
      </trkpt>
      <trkpt lat="43.28654" lon="-2.9571">
        <ele>149.0</ele>
      </trkpt>
      <trkpt lat="43.28706" lon="-2.95747">
        <ele>141.0</ele>
      </trkpt>
      <trkpt lat="43.28768" lon="-2.95752">
        <ele>133.0</ele>
      </trkpt>
      <trkpt lat="43.28792" lon="-2.95768">
        <ele>129.0</ele>
      </trkpt>
      <trkpt lat="43.28844" lon="-2.95919">
        <ele>116.0</ele>
      </trkpt>
      <trkpt lat="43.28962" lon="-2.9595">
        <ele>104.0</ele>
      </trkpt>
      <trkpt lat="43.28984" lon="-2.95991">
        <ele>101.0</ele>
      </trkpt>
      <trkpt lat="43.2899" lon="-2.9604">
        <ele>98.0</ele>
      </trkpt>
      <trkpt lat="43.28972" lon="-2.96159">
        <ele>93.0</ele>
      </trkpt>
      <trkpt lat="43.28859" lon="-2.96094">
        <ele>89.0</ele>
      </trkpt>
      <trkpt lat="43.28666" lon="-2.95895">
        <ele>88.0</ele>
      </trkpt>
      <trkpt lat="43.28457" lon="-2.95839">
        <ele>87.0</ele>
      </trkpt>
      <trkpt lat="43.2827" lon="-2.95695">
        <ele>80.0</ele>
      </trkpt>
      <trkpt lat="43.27943" lon="-2.9562">
        <ele>65.0</ele>
      </trkpt>
      <trkpt lat="43.27749" lon="-2.95509">
        <ele>57.0</ele>
      </trkpt>
      <trkpt lat="43.2762" lon="-2.95456">
        <ele>48.0</ele>
      </trkpt>
      <trkpt lat="43.27361" lon="-2.95419">
        <ele>38.0</ele>
      </trkpt>
      <trkpt lat="43.27305" lon="-2.95248">
        <ele>34.0</ele>
      </trkpt>
      <trkpt lat="43.27231" lon="-2.94822">
        <ele>29.0</ele>
      </trkpt>
      <trkpt lat="43.27193" lon="-2.94772">
        <ele>27.0</ele>
      </trkpt>
      <trkpt lat="43.27182" lon="-2.945">
        <ele>22.0</ele>
      </trkpt>
      <trkpt lat="43.27141" lon="-2.94198">
        <ele>20.0</ele>
      </trkpt>
      <trkpt lat="43.27101" lon="-2.94172">
        <ele>18.0</ele>
      </trkpt>
      <trkpt lat="43.27044" lon="-2.94218">
        <ele>15.0</ele>
      </trkpt>
      <trkpt lat="43.26966" lon="-2.94218">
        <ele>9.0</ele>
      </trkpt>
      <trkpt lat="43.26951" lon="-2.94205">
        <ele>6.0</ele>
      </trkpt>
      <trkpt lat="43.26996" lon="-2.94019">
        <ele>-1.0</ele>
      </trkpt>
      <trkpt lat="43.27021" lon="-2.93805">
        <ele>3.0</ele>
      </trkpt>
      <trkpt lat="43.27011" lon="-2.93387">
        <ele>8.0</ele>
      </trkpt>
      <trkpt lat="43.27002" lon="-2.93266">
        <ele>6.0</ele>
      </trkpt>
      <trkpt lat="43.2698" lon="-2.93164">
        <ele>6.0</ele>
      </trkpt>
      <trkpt lat="43.2696" lon="-2.93107">
        <ele>7.0</ele>
      </trkpt>
      <trkpt lat="43.2688" lon="-2.92984">
        <ele>9.0</ele>
      </trkpt>
      <trkpt lat="43.26355" lon="-2.92336">
        <ele>6.0</ele>
      </trkpt>
      <trkpt lat="43.26353" lon="-2.92308">
        <ele>7.0</ele>
      </trkpt>
      <trkpt lat="43.26392" lon="-2.92273">
        <ele>10.0</ele>
      </trkpt>
      <trkpt lat="43.26391" lon="-2.92259">
        <ele>11.0</ele>
      </trkpt>
      <trkpt lat="43.26352" lon="-2.92129">
        <ele>18.0</ele>
      </trkpt>
      <trkpt lat="43.26362" lon="-2.92103">
        <ele>22.0</ele>
      </trkpt>
      <trkpt lat="43.26333" lon="-2.92107">
        <ele>26.0</ele>
      </trkpt>
      <trkpt lat="43.26304" lon="-2.92028">
        <ele>34.0</ele>
      </trkpt>
      <trkpt lat="43.26315" lon="-2.91965">
        <ele>39.0</ele>
      </trkpt>
      <trkpt lat="43.26344" lon="-2.91933">
        <ele>43.0</ele>
      </trkpt>
      <trkpt lat="43.26282" lon="-2.919">
        <ele>49.0</ele>
      </trkpt>
      <trkpt lat="43.26256" lon="-2.91789">
        <ele>55.0</ele>
      </trkpt>
    </trkseg>
  </trk>
</gpx>