<?xml version="1.0" encoding="UTF-8"?>
<gpx xmlns="http://www.topografix.com/GPX/1/0" xmlns:xsi="http://www.w3.org/2001/XMLSchema-instance" xsi:schemaLocation="http://www.topografix.com/GPX/1/0 http://www.topografix.com/GPX/1/0/gpx.xsd" version="1.0" creator="GPSBabel - https://www.gpsbabel.org">
  <time>2026-06-10T09:27:21.974000Z</time>
  <bounds minlat="46.13355" maxlat="46.19913" minlon="9.45996" maxlon="10.07443" />
  <trk>
    <trkseg>
      <trkpt lat="46.15848" lon="9.85748">
        <ele>292.0</ele>
      </trkpt>
      <trkpt lat="46.15949" lon="9.85298">
        <ele>294.0</ele>
      </trkpt>
      <trkpt lat="46.16013" lon="9.8513">
        <ele>295.0</ele>
      </trkpt>
      <trkpt lat="46.16042" lon="9.84826">
        <ele>292.0</ele>
      </trkpt>
      <trkpt lat="46.16026" lon="9.84602">
        <ele>292.0</ele>
      </trkpt>
      <trkpt lat="46.15981" lon="9.84315">
        <ele>292.0</ele>
      </trkpt>
      <trkpt lat="46.15923" lon="9.84113">
        <ele>290.0</ele>
      </trkpt>
      <trkpt lat="46.15812" lon="9.83875">
        <ele>292.0</ele>
      </trkpt>
      <trkpt lat="46.15759" lon="9.83691">
        <ele>290.0</ele>
      </trkpt>
      <trkpt lat="46.15621" lon="9.83341">
        <ele>287.0</ele>
      </trkpt>
      <trkpt lat="46.15474" lon="9.8313">
        <ele>286.0</ele>
      </trkpt>
      <trkpt lat="46.15467" lon="9.83103">
        <ele>286.0</ele>
      </trkpt>
      <trkpt lat="46.15477" lon="9.83069">
        <ele>286.0</ele>
      </trkpt>
      <trkpt lat="46.15564" lon="9.82964">
        <ele>287.0</ele>
      </trkpt>
      <trkpt lat="46.15588" lon="9.82908">
        <ele>288.0</ele>
      </trkpt>
      <trkpt lat="46.15597" lon="9.82838">
        <ele>289.0</ele>
      </trkpt>
      <trkpt lat="46.15589" lon="9.82607">
        <ele>290.0</ele>
      </trkpt>
      <trkpt lat="46.15602" lon="9.82489">
        <ele>290.0</ele>
      </trkpt>
      <trkpt lat="46.15659" lon="9.82285">
        <ele>287.0</ele>
      </trkpt>
      <trkpt lat="46.15686" lon="9.82107">
        <ele>286.0</ele>
      </trkpt>
      <trkpt lat="46.15737" lon="9.81977">
        <ele>286.0</ele>
      </trkpt>
      <trkpt lat="46.1575" lon="9.81887">
        <ele>286.0</ele>
      </trkpt>
      <trkpt lat="46.15812" lon="9.81774">
        <ele>284.0</ele>
      </trkpt>
      <trkpt lat="46.15825" lon="9.81677">
        <ele>281.0</ele>
      </trkpt>
      <trkpt lat="46.15727" lon="9.81428">
        <ele>281.0</ele>
      </trkpt>
      <trkpt lat="46.1566" lon="9.81319">
        <ele>281.0</ele>
      </trkpt>
      <trkpt lat="46.15623" lon="9.81226">
        <ele>281.0</ele>
      </trkpt>
      <trkpt lat="46.15617" lon="9.81165">
        <ele>281.0</ele>
      </trkpt>
      <trkpt lat="46.15637" lon="9.80937">
        <ele>280.0</ele>
      </trkpt>
      <trkpt lat="46.15602" lon="9.80797">
        <ele>279.0</ele>
      </trkpt>
      <trkpt lat="46.15492" lon="9.80474">
        <ele>275.0</ele>
      </trkpt>
      <trkpt lat="46.15371" lon="9.79793">
        <ele>274.0</ele>
      </trkpt>
      <trkpt lat="46.15336" lon="9.79531">
        <ele>274.0</ele>
      </trkpt>
      <trkpt lat="46.15317" lon="9.79094">
        <ele>272.0</ele>
      </trkpt>
      <trkpt lat="46.15383" lon="9.78767">
        <ele>271.0</ele>
      </trkpt>
      <trkpt lat="46.15373" lon="9.78486">
        <ele>274.0</ele>
      </trkpt>
      <trkpt lat="46.15305" lon="9.78241">
        <ele>277.0</ele>
      </trkpt>
      <trkpt lat="46.15167" lon="9.7804">
        <ele>276.0</ele>
      </trkpt>
      <trkpt lat="46.15121" lon="9.7795">
        <ele>275.0</ele>
      </trkpt>
      <trkpt lat="46.15023" lon="9.77634">
        <ele>274.0</ele>
      </trkpt>
      <trkpt lat="46.14909" lon="9.77343">
        <ele>277.0</ele>
      </trkpt>
      <trkpt lat="46.14888" lon="9.77226">
        <ele>280.0</ele>
      </trkpt>
      <trkpt lat="46.14915" lon="9.77114">
        <ele>282.0</ele>
      </trkpt>
      <trkpt lat="46.15025" lon="9.76919">
        <ele>285.0</ele>
      </trkpt>
      <trkpt lat="46.15062" lon="9.76775">
        <ele>285.0</ele>
      </trkpt>
      <trkpt lat="46.15062" lon="9.76647">
        <ele>285.0</ele>
      </trkpt>
      <trkpt lat="46.14986" lon="9.7595">
        <ele>279.0</ele>
      </trkpt>
      <trkpt lat="46.1495" lon="9.75369">
        <ele>280.0</ele>
      </trkpt>
      <trkpt lat="46.14973" lon="9.7526">
        <ele>282.0</ele>
      </trkpt>
      <trkpt lat="46.15076" lon="9.74988">
        <ele>284.0</ele>
      </trkpt>
      <trkpt lat="46.15116" lon="9.74767">
        <ele>282.0</ele>
      </trkpt>
      <trkpt lat="46.15138" lon="9.7472">
        <ele>281.0</ele>
      </trkpt>
      <trkpt lat="46.15495" lon="9.74407">
        <ele>274.0</ele>
      </trkpt>
      <trkpt lat="46.15655" lon="9.74283">
        <ele>272.0</ele>
      </trkpt>
      <trkpt lat="46.15688" lon="9.74271">
        <ele>270.0</ele>
      </trkpt>
      <trkpt lat="46.15749" lon="9.74279">
        <ele>269.0</ele>
      </trkpt>
      <trkpt lat="46.15757" lon="9.74266">
        <ele>269.0</ele>
      </trkpt>
      <trkpt lat="46.15707" lon="9.74092">
        <ele>270.0</ele>
      </trkpt>
      <trkpt lat="46.15426" lon="9.73993">
        <ele>271.0</ele>
      </trkpt>
      <trkpt lat="46.15355" lon="9.73953">
        <ele>271.0</ele>
      </trkpt>
      <trkpt lat="46.15232" lon="9.73819">
        <ele>271.0</ele>
      </trkpt>
      <trkpt lat="46.15171" lon="9.73663">
        <ele>272.0</ele>
      </trkpt>
      <trkpt lat="46.15176" lon="9.73626">
        <ele>272.0</ele>
      </trkpt>
      <trkpt lat="46.15208" lon="9.73566">
        <ele>273.0</ele>
      </trkpt>
      <trkpt lat="46.15541" lon="9.73016">
        <ele>283.0</ele>
      </trkpt>
      <trkpt lat="46.15568" lon="9.7294">
        <ele>285.0</ele>
      </trkpt>
      <trkpt lat="46.15584" lon="9.72817">
        <ele>287.0</ele>
      </trkpt>
      <trkpt lat="46.15558" lon="9.72659">
        <ele>290.0</ele>
      </trkpt>
      <trkpt lat="46.15559" lon="9.72475">
        <ele>293.0</ele>
      </trkpt>
      <trkpt lat="46.1559" lon="9.72236">
        <ele>292.0</ele>
      </trkpt>
      <trkpt lat="46.15541" lon="9.71965">
        <ele>286.0</ele>
      </trkpt>
      <trkpt lat="46.15579" lon="9.7153">
        <ele>277.0</ele>
      </trkpt>
      <trkpt lat="46.15609" lon="9.71452">
        <ele>276.0</ele>
      </trkpt>
      <trkpt lat="46.15633" lon="9.71429">
        <ele>276.0</ele>
      </trkpt>
      <trkpt lat="46.15743" lon="9.7142">
        <ele>277.0</ele>
      </trkpt>
      <trkpt lat="46.15784" lon="9.71389">
        <ele>277.0</ele>
      </trkpt>
      <trkpt lat="46.15839" lon="9.71187">
        <ele>277.0</ele>
      </trkpt>
      <trkpt lat="46.15841" lon="9.71068">
        <ele>278.0</ele>
      </trkpt>
      <trkpt lat="46.15881" lon="9.70935">
        <ele>280.0</ele>
      </trkpt>
      <trkpt lat="46.15897" lon="9.70763">
        <ele>277.0</ele>
      </trkpt>
      <trkpt lat="46.15942" lon="9.70602">
        <ele>274.0</ele>
      </trkpt>
      <trkpt lat="46.1596" lon="9.70477">
        <ele>274.0</ele>
      </trkpt>
      <trkpt lat="46.15966" lon="9.70354">
        <ele>275.0</ele>
      </trkpt>
      <trkpt lat="46.15947" lon="9.7013">
        <ele>280.0</ele>
      </trkpt>
      <trkpt lat="46.15952" lon="9.69722">
        <ele>273.0</ele>
      </trkpt>
      <trkpt lat="46.15908" lon="9.6931">
        <ele>267.0</ele>
      </trkpt>
      <trkpt lat="46.15929" lon="9.68825">
        <ele>268.0</ele>
      </trkpt>
      <trkpt lat="46.15886" lon="9.68409">
        <ele>265.0</ele>
      </trkpt>
      <trkpt lat="46.15915" lon="9.68179">
        <ele>267.0</ele>
      </trkpt>
      <trkpt lat="46.15895" lon="9.68088">
        <ele>267.0</ele>
      </trkpt>
      <trkpt lat="46.15816" lon="9.67949">
        <ele>268.0</ele>
      </trkpt>
      <trkpt lat="46.1581" lon="9.67876">
        <ele>269.0</ele>
      </trkpt>
      <trkpt lat="46.15812" lon="9.67752">
        <ele>271.0</ele>
      </trkpt>
      <trkpt lat="46.15845" lon="9.67471">
        <ele>277.0</ele>
      </trkpt>
      <trkpt lat="46.15874" lon="9.67332">
        <ele>279.0</ele>
      </trkpt>
      <trkpt lat="46.15948" lon="9.67132">
        <ele>276.0</ele>
      </trkpt>
      <trkpt lat="46.15966" lon="9.66998">
        <ele>277.0</ele>
      </trkpt>
      <trkpt lat="46.15963" lon="9.66901">
        <ele>280.0</ele>
      </trkpt>
      <trkpt lat="46.15946" lon="9.66831">
        <ele>282.0</ele>
      </trkpt>
      <trkpt lat="46.15973" lon="9.66478">
        <ele>272.0</ele>
      </trkpt>
      <trkpt lat="46.15973" lon="9.66137">
        <ele>264.0</ele>
      </trkpt>
      <trkpt lat="46.15933" lon="9.65894">
        <ele>264.0</ele>
      </trkpt>
      <trkpt lat="46.15887" lon="9.65775">
        <ele>264.0</ele>
      </trkpt>
      <trkpt lat="46.15799" lon="9.657">
        <ele>265.0</ele>
      </trkpt>
      <trkpt lat="46.15684" lon="9.65638">
        <ele>266.0</ele>
      </trkpt>
      <trkpt lat="46.15635" lon="9.65578">
        <ele>268.0</ele>
      </trkpt>
      <trkpt lat="46.15612" lon="9.65276">
        <ele>267.0</ele>
      </trkpt>
      <trkpt lat="46.1554" lon="9.65154">
        <ele>268.0</ele>
      </trkpt>
      <trkpt lat="46.15511" lon="9.65066">
        <ele>269.0</ele>
      </trkpt>
      <trkpt lat="46.15513" lon="9.64959">
        <ele>271.0</ele>
      </trkpt>
      <trkpt lat="46.15452" lon="9.64864">
        <ele>273.0</ele>
      </trkpt>
      <trkpt lat="46.15363" lon="9.64614">
        <ele>266.0</ele>
      </trkpt>
      <trkpt lat="46.15236" lon="9.63935">
        <ele>274.0</ele>
      </trkpt>
      <trkpt lat="46.15237" lon="9.63597">
        <ele>268.0</ele>
      </trkpt>
      <trkpt lat="46.1519" lon="9.63521">
        <ele>268.0</ele>
      </trkpt>
      <trkpt lat="46.15095" lon="9.63416">
        <ele>267.0</ele>
      </trkpt>
      <trkpt lat="46.1508" lon="9.63375">
        <ele>267.0</ele>
      </trkpt>
      <trkpt lat="46.15088" lon="9.63313">
        <ele>267.0</ele>
      </trkpt>
      <trkpt lat="46.15081" lon="9.6329">
        <ele>267.0</ele>
      </trkpt>
      <trkpt lat="46.15062" lon="9.63283">
        <ele>268.0</ele>
      </trkpt>
      <trkpt lat="46.15046" lon="9.63303">
        <ele>269.0</ele>
      </trkpt>
      <trkpt lat="46.15013" lon="9.63304">
        <ele>270.0</ele>
      </trkpt>
      <trkpt lat="46.14958" lon="9.63226">
        <ele>270.0</ele>
      </trkpt>
      <trkpt lat="46.14863" lon="9.63171">
        <ele>270.0</ele>
      </trkpt>
      <trkpt lat="46.14676" lon="9.62991">
        <ele>270.0</ele>
      </trkpt>
      <trkpt lat="46.14577" lon="9.6282">
        <ele>265.0</ele>
      </trkpt>
      <trkpt lat="46.14522" lon="9.62663">
        <ele>264.0</ele>
      </trkpt>
      <trkpt lat="46.14495" lon="9.62513">
        <ele>265.0</ele>
      </trkpt>
      <trkpt lat="46.14475" lon="9.6216">
        <ele>262.0</ele>
      </trkpt>
      <trkpt lat="46.14452" lon="9.61991">
        <ele>259.0</ele>
      </trkpt>
      <trkpt lat="46.13481" lon="9.58118">
        <ele>236.0</ele>
      </trkpt>
      <trkpt lat="46.13462" lon="9.57952">
        <ele>240.0</ele>
      </trkpt>
      <trkpt lat="46.1346" lon="9.57783">
        <ele>243.0</ele>
      </trkpt>
      <trkpt lat="46.13517" lon="9.57267">
        <ele>249.0</ele>
      </trkpt>
      <trkpt lat="46.13535" lon="9.57226">
        <ele>249.0</ele>
      </trkpt>
      <trkpt lat="46.13526" lon="9.57179">
        <ele>249.0</ele>
      </trkpt>
      <trkpt lat="46.13549" lon="9.56929">
        <ele>250.0</ele>
      </trkpt>
      <trkpt lat="46.13565" lon="9.56884">
        <ele>250.0</ele>
      </trkpt>
      <trkpt lat="46.1355" lon="9.56839">
        <ele>250.0</ele>
      </trkpt>
      <trkpt lat="46.13547" lon="9.56656">
        <ele>250.0</ele>
      </trkpt>
      <trkpt lat="46.13556" lon="9.56606">
        <ele>250.0</ele>
      </trkpt>
      <trkpt lat="46.1352" lon="9.56406">
        <ele>248.0</ele>
      </trkpt>
      <trkpt lat="46.13394" lon="9.56067">
        <ele>246.0</ele>
      </trkpt>
      <trkpt lat="46.13361" lon="9.55834">
        <ele>241.0</ele>
      </trkpt>
      <trkpt lat="46.13384" lon="9.55221">
        <ele>228.0</ele>
      </trkpt>
      <trkpt lat="46.13367" lon="9.55114">
        <ele>227.0</ele>
      </trkpt>
      <trkpt lat="46.13355" lon="9.54304">
        <ele>215.0</ele>
      </trkpt>
      <trkpt lat="46.13517" lon="9.52805">
        <ele>215.0</ele>
      </trkpt>
      <trkpt lat="46.13515" lon="9.52421">
        <ele>213.0</ele>
      </trkpt>
      <trkpt lat="46.13493" lon="9.52054">
        <ele>211.0</ele>
      </trkpt>
      <trkpt lat="46.13558" lon="9.51536">
        <ele>209.0</ele>
      </trkpt>
      <trkpt lat="46.13576" lon="9.5125">
        <ele>208.0</ele>
      </trkpt>
      <trkpt lat="46.1357" lon="9.51198">
        <ele>208.0</ele>
      </trkpt>
      <trkpt lat="46.13598" lon="9.50892">
        <ele>205.0</ele>
      </trkpt>
      <trkpt lat="46.13791" lon="9.5007">
        <ele>207.0</ele>
      </trkpt>
      <trkpt lat="46.13827" lon="9.49763">
        <ele>207.0</ele>
      </trkpt>
      <trkpt lat="46.13832" lon="9.49264">
        <ele>207.0</ele>
      </trkpt>
      <trkpt lat="46.13818" lon="9.49052">
        <ele>207.0</ele>
      </trkpt>
      <trkpt lat="46.13771" lon="9.48848">
        <ele>207.0</ele>
      </trkpt>
      <trkpt lat="46.13767" lon="9.48779">
        <ele>207.0</ele>
      </trkpt>
      <trkpt lat="46.13734" lon="9.4872">
        <ele>207.0</ele>
      </trkpt>
      <trkpt lat="46.13706" lon="9.48624">
        <ele>207.0</ele>
      </trkpt>
      <trkpt lat="46.13648" lon="9.48419">
        <ele>206.0</ele>
      </trkpt>
      <trkpt lat="46.13627" lon="9.48296">
        <ele>207.0</ele>
      </trkpt>
      <trkpt lat="46.13631" lon="9.48206">
        <ele>207.0</ele>
      </trkpt>
      <trkpt lat="46.13705" lon="9.4782">
        <ele>208.0</ele>
      </trkpt>
      <trkpt lat="46.13732" lon="9.47747">
        <ele>210.0</ele>
      </trkpt>
      <trkpt lat="46.1375" lon="9.47347">
        <ele>215.0</ele>
      </trkpt>
      <trkpt lat="46.13761" lon="9.47325">
        <ele>216.0</ele>
      </trkpt>
      <trkpt lat="46.13765" lon="9.46897">
        <ele>219.0</ele>
      </trkpt>
      <trkpt lat="46.13791" lon="9.4687">
        <ele>218.0</ele>
      </trkpt>
      <trkpt lat="46.13904" lon="9.46869">
        <ele>215.0</ele>
      </trkpt>
      <trkpt lat="46.13976" lon="9.46833">
        <ele>213.0</ele>
      </trkpt>
      <trkpt lat="46.14216" lon="9.46857">
        <ele>208.0</ele>
      </trkpt>
      <trkpt lat="46.14329" lon="9.46822">
        <ele>207.0</ele>
      </trkpt>
      <trkpt lat="46.1441" lon="9.46773">
        <ele>205.0</ele>
      </trkpt>
      <trkpt lat="46.14638" lon="9.4652">
        <ele>204.0</ele>
      </trkpt>
      <trkpt lat="46.14694" lon="9.46409">
        <ele>204.0</ele>
      </trkpt>
      <trkpt lat="46.148" lon="9.46058">
        <ele>203.0</ele>
      </trkpt>
      <trkpt lat="46.14862" lon="9.46003">
        <ele>202.0</ele>
      </trkpt>
      <trkpt lat="46.14905" lon="9.45996">
        <ele>202.0</ele>
      </trkpt>
      <trkpt lat="46.15076" lon="9.46084">
        <ele>201.0</ele>
      </trkpt>
      <trkpt lat="46.15136" lon="9.46333">
        <ele>206.0</ele>
      </trkpt>
      <trkpt lat="46.15134" lon="9.46537">
        <ele>209.0</ele>
      </trkpt>
      <trkpt lat="46.15206" lon="9.47508">
        <ele>209.0</ele>
      </trkpt>
      <trkpt lat="46.15189" lon="9.47605">
        <ele>210.0</ele>
      </trkpt>
      <trkpt lat="46.15113" lon="9.47831">
        <ele>210.0</ele>
      </trkpt>
      <trkpt lat="46.15101" lon="9.47918">
        <ele>211.0</ele>
      </trkpt>
      <trkpt lat="46.15147" lon="9.48493">
        <ele>209.0</ele>
      </trkpt>
      <trkpt lat="46.15148" lon="9.48553">
        <ele>209.0</ele>
      </trkpt>
      <trkpt lat="46.15131" lon="9.48589">
        <ele>209.0</ele>
      </trkpt>
      <trkpt lat="46.15147" lon="9.4863">
        <ele>209.0</ele>
      </trkpt>
      <trkpt lat="46.15145" lon="9.48752">
        <ele>209.0</ele>
      </trkpt>
      <trkpt lat="46.15253" lon="9.49556">
        <ele>206.0</ele>
      </trkpt>
      <trkpt lat="46.15043" lon="9.50183">
        <ele>211.0</ele>
      </trkpt>
      <trkpt lat="46.15013" lon="9.50346">
        <ele>212.0</ele>
      </trkpt>
      <trkpt lat="46.15015" lon="9.50457">
        <ele>213.0</ele>
      </trkpt>
      <trkpt lat="46.15032" lon="9.50567">
        <ele>213.0</ele>
      </trkpt>
      <trkpt lat="46.15115" lon="9.50879">
        <ele>213.0</ele>
      </trkpt>
      <trkpt lat="46.15099" lon="9.51042">
        <ele>211.0</ele>
      </trkpt>
      <trkpt lat="46.15078" lon="9.51623">
        <ele>212.0</ele>
      </trkpt>
      <trkpt lat="46.14856" lon="9.52286">
        <ele>221.0</ele>
      </trkpt>
      <trkpt lat="46.14814" lon="9.52388">
        <ele>222.0</ele>
      </trkpt>
      <trkpt lat="46.14778" lon="9.52439">
        <ele>222.0</ele>
      </trkpt>
      <trkpt lat="46.14781" lon="9.52452">
        <ele>222.0</ele>
      </trkpt>
      <trkpt lat="46.14592" lon="9.52876">
        <ele>224.0</ele>
      </trkpt>
      <trkpt lat="46.14417" lon="9.54075">
        <ele>215.0</ele>
      </trkpt>
      <trkpt lat="46.14391" lon="9.5424">
        <ele>215.0</ele>
      </trkpt>
      <trkpt lat="46.14377" lon="9.54252">
        <ele>214.0</ele>
      </trkpt>
      <trkpt lat="46.14386" lon="9.54273">
        <ele>214.0</ele>
      </trkpt>
      <trkpt lat="46.14354" lon="9.54476">
        <ele>214.0</ele>
      </trkpt>
      <trkpt lat="46.14353" lon="9.54928">
        <ele>216.0</ele>
      </trkpt>
      <trkpt lat="46.14363" lon="9.54984">
        <ele>218.0</ele>
      </trkpt>
      <trkpt lat="46.14445" lon="9.55098">
        <ele>223.0</ele>
      </trkpt>
      <trkpt lat="46.14479" lon="9.552">
        <ele>226.0</ele>
      </trkpt>
      <trkpt lat="46.14497" lon="9.55639">
        <ele>241.0</ele>
      </trkpt>
      <trkpt lat="46.14527" lon="9.55895">
        <ele>239.0</ele>
      </trkpt>
      <trkpt lat="46.14567" lon="9.56118">
        <ele>242.0</ele>
      </trkpt>
      <trkpt lat="46.14589" lon="9.56533">
        <ele>247.0</ele>
      </trkpt>
      <trkpt lat="46.14624" lon="9.56735">
        <ele>254.0</ele>
      </trkpt>
      <trkpt lat="46.14624" lon="9.56843">
        <ele>256.0</ele>
      </trkpt>
      <trkpt lat="46.14643" lon="9.56864">
        <ele>257.0</ele>
      </trkpt>
      <trkpt lat="46.1463" lon="9.56997">
        <ele>256.0</ele>
      </trkpt>
      <trkpt lat="46.14648" lon="9.57359">
        <ele>241.0</ele>
      </trkpt>
      <trkpt lat="46.14688" lon="9.57533">
        <ele>243.0</ele>
      </trkpt>
      <trkpt lat="46.14712" lon="9.57731">
        <ele>242.0</ele>
      </trkpt>
      <trkpt lat="46.14699" lon="9.57902">
        <ele>237.0</ele>
      </trkpt>
      <trkpt lat="46.14653" lon="9.58092">
        <ele>231.0</ele>
      </trkpt>
      <trkpt lat="46.14618" lon="9.58384">
        <ele>228.0</ele>
      </trkpt>
      <trkpt lat="46.14611" lon="9.58833">
        <ele>231.0</ele>
      </trkpt>
      <trkpt lat="46.14594" lon="9.58953">
        <ele>232.0</ele>
      </trkpt>
      <trkpt lat="46.14557" lon="9.59055">
        <ele>234.0</ele>
      </trkpt>
      <trkpt lat="46.14533" lon="9.59216">
        <ele>238.0</ele>
      </trkpt>
      <trkpt lat="46.14535" lon="9.59894">
        <ele>238.0</ele>
      </trkpt>
      <trkpt lat="46.14526" lon="9.6001">
        <ele>238.0</ele>
      </trkpt>
      <trkpt lat="46.14398" lon="9.61033">
        <ele>242.0</ele>
      </trkpt>
      <trkpt lat="46.14235" lon="9.61039">
        <ele>240.0</ele>
      </trkpt>
      <trkpt lat="46.14226" lon="9.60987">
        <ele>240.0</ele>
      </trkpt>
      <trkpt lat="46.14246" lon="9.60909">
        <ele>241.0</ele>
      </trkpt>
      <trkpt lat="46.14221" lon="9.60864">
        <ele>242.0</ele>
      </trkpt>
      <trkpt lat="46.1413" lon="9.60903">
        <ele>242.0</ele>
      </trkpt>
      <trkpt lat="46.14108" lon="9.60876">
        <ele>242.0</ele>
      </trkpt>
      <trkpt lat="46.14084" lon="9.60872">
        <ele>242.0</ele>
      </trkpt>
      <trkpt lat="46.14005" lon="9.60923">
        <ele>245.0</ele>
      </trkpt>
      <trkpt lat="46.13935" lon="9.60891">
        <ele>248.0</ele>
      </trkpt>
      <trkpt lat="46.13793" lon="9.60409">
        <ele>243.0</ele>
      </trkpt>
      <trkpt lat="46.13622" lon="9.60714">
        <ele>259.0</ele>
      </trkpt>
      <trkpt lat="46.13621" lon="9.60742">
        <ele>263.0</ele>
      </trkpt>
      <trkpt lat="46.13662" lon="9.60848">
        <ele>270.0</ele>
      </trkpt>
      <trkpt lat="46.13581" lon="9.61018">
        <ele>282.0</ele>
      </trkpt>
      <trkpt lat="46.13714" lon="9.61261">
        <ele>291.0</ele>
      </trkpt>
      <trkpt lat="46.13778" lon="9.61421">
        <ele>291.0</ele>
      </trkpt>
      <trkpt lat="46.1378" lon="9.61465">
        <ele>290.0</ele>
      </trkpt>
      <trkpt lat="46.138" lon="9.61468">
        <ele>290.0</ele>
      </trkpt>
      <trkpt lat="46.13839" lon="9.61524">
        <ele>290.0</ele>
      </trkpt>
      <trkpt lat="46.1402" lon="9.61645">
        <ele>282.0</ele>
      </trkpt>
      <trkpt lat="46.14083" lon="9.61775">
        <ele>279.0</ele>
      </trkpt>
      <trkpt lat="46.14148" lon="9.61882">
        <ele>277.0</ele>
      </trkpt>
      <trkpt lat="46.14178" lon="9.6191">
        <ele>276.0</ele>
      </trkpt>
      <trkpt lat="46.14232" lon="9.62036">
        <ele>275.0</ele>
      </trkpt>
      <trkpt lat="46.14323" lon="9.62199">
        <ele>271.0</ele>
      </trkpt>
      <trkpt lat="46.14476" lon="9.62256">
        <ele>265.0</ele>
      </trkpt>
      <trkpt lat="46.14495" lon="9.62513">
        <ele>265.0</ele>
      </trkpt>
      <trkpt lat="46.14522" lon="9.62663">
        <ele>264.0</ele>
      </trkpt>
      <trkpt lat="46.14577" lon="9.6282">
        <ele>264.0</ele>
      </trkpt>
      <trkpt lat="46.14657" lon="9.62963">
        <ele>267.0</ele>
      </trkpt>
      <trkpt lat="46.14713" lon="9.63034">
        <ele>270.0</ele>
      </trkpt>
      <trkpt lat="46.14863" lon="9.63171">
        <ele>270.0</ele>
      </trkpt>
      <trkpt lat="46.14958" lon="9.63226">
        <ele>270.0</ele>
      </trkpt>
      <trkpt lat="46.15013" lon="9.63304">
        <ele>271.0</ele>
      </trkpt>
      <trkpt lat="46.15066" lon="9.63343">
        <ele>270.0</ele>
      </trkpt>
      <trkpt lat="46.15095" lon="9.63416">
        <ele>270.0</ele>
      </trkpt>
      <trkpt lat="46.1519" lon="9.63521">
        <ele>269.0</ele>
      </trkpt>
      <trkpt lat="46.15237" lon="9.63597">
        <ele>268.0</ele>
      </trkpt>
      <trkpt lat="46.15236" lon="9.63935">
        <ele>271.0</ele>
      </trkpt>
      <trkpt lat="46.15363" lon="9.64614">
        <ele>267.0</ele>
      </trkpt>
      <trkpt lat="46.15452" lon="9.64864">
        <ele>272.0</ele>
      </trkpt>
      <trkpt lat="46.15513" lon="9.64959">
        <ele>272.0</ele>
      </trkpt>
      <trkpt lat="46.15511" lon="9.65066">
        <ele>271.0</ele>
      </trkpt>
      <trkpt lat="46.1554" lon="9.65154">
        <ele>270.0</ele>
      </trkpt>
      <trkpt lat="46.15612" lon="9.65276">
        <ele>266.0</ele>
      </trkpt>
      <trkpt lat="46.15635" lon="9.65578">
        <ele>270.0</ele>
      </trkpt>
      <trkpt lat="46.15684" lon="9.65638">
        <ele>268.0</ele>
      </trkpt>
      <trkpt lat="46.15832" lon="9.65723">
        <ele>266.0</ele>
      </trkpt>
      <trkpt lat="46.15896" lon="9.65791">
        <ele>265.0</ele>
      </trkpt>
      <trkpt lat="46.15933" lon="9.65894">
        <ele>265.0</ele>
      </trkpt>
      <trkpt lat="46.1596" lon="9.66034">
        <ele>264.0</ele>
      </trkpt>
      <trkpt lat="46.15977" lon="9.66189">
        <ele>265.0</ele>
      </trkpt>
      <trkpt lat="46.15976" lon="9.66358">
        <ele>265.0</ele>
      </trkpt>
      <trkpt lat="46.16084" lon="9.66365">
        <ele>265.0</ele>
      </trkpt>
      <trkpt lat="46.16092" lon="9.66546">
        <ele>264.0</ele>
      </trkpt>
      <trkpt lat="46.16439" lon="9.66632">
        <ele>261.0</ele>
      </trkpt>
      <trkpt lat="46.1646" lon="9.66196">
        <ele>261.0</ele>
      </trkpt>
      <trkpt lat="46.16437" lon="9.65991">
        <ele>261.0</ele>
      </trkpt>
      <trkpt lat="46.16361" lon="9.65713">
        <ele>262.0</ele>
      </trkpt>
      <trkpt lat="46.16292" lon="9.65493">
        <ele>262.0</ele>
      </trkpt>
      <trkpt lat="46.1623" lon="9.65355">
        <ele>262.0</ele>
      </trkpt>
      <trkpt lat="46.16185" lon="9.65187">
        <ele>262.0</ele>
      </trkpt>
      <trkpt lat="46.16153" lon="9.65131">
        <ele>262.0</ele>
      </trkpt>
      <trkpt lat="46.16125" lon="9.65036">
        <ele>263.0</ele>
      </trkpt>
      <trkpt lat="46.1613" lon="9.64967">
        <ele>263.0</ele>
      </trkpt>
      <trkpt lat="46.16114" lon="9.64911">
        <ele>263.0</ele>
      </trkpt>
      <trkpt lat="46.161" lon="9.64902">
        <ele>263.0</ele>
      </trkpt>
      <trkpt lat="46.16097" lon="9.64937">
        <ele>263.0</ele>
      </trkpt>
      <trkpt lat="46.16113" lon="9.64961">
        <ele>263.0</ele>
      </trkpt>
      <trkpt lat="46.16251" lon="9.64913">
        <ele>264.0</ele>
      </trkpt>
      <trkpt lat="46.16977" lon="9.65055">
        <ele>265.0</ele>
      </trkpt>
      <trkpt lat="46.17032" lon="9.65087">
        <ele>266.0</ele>
      </trkpt>
      <trkpt lat="46.1707" lon="9.65144">
        <ele>266.0</ele>
      </trkpt>
      <trkpt lat="46.17065" lon="9.65337">
        <ele>266.0</ele>
      </trkpt>
      <trkpt lat="46.17111" lon="9.65607">
        <ele>264.0</ele>
      </trkpt>
      <trkpt lat="46.17257" lon="9.66184">
        <ele>268.0</ele>
      </trkpt>
      <trkpt lat="46.17252" lon="9.66279">
        <ele>276.0</ele>
      </trkpt>
      <trkpt lat="46.17368" lon="9.66312">
        <ele>285.0</ele>
      </trkpt>
      <trkpt lat="46.17393" lon="9.66427">
        <ele>294.0</ele>
      </trkpt>
      <trkpt lat="46.17563" lon="9.66442">
        <ele>317.0</ele>
      </trkpt>
      <trkpt lat="46.17703" lon="9.66403">
        <ele>343.0</ele>
      </trkpt>
      <trkpt lat="46.17785" lon="9.66346">
        <ele>365.0</ele>
      </trkpt>
      <trkpt lat="46.17809" lon="9.66288">
        <ele>372.0</ele>
      </trkpt>
      <trkpt lat="46.17836" lon="9.66275">
        <ele>377.0</ele>
      </trkpt>
      <trkpt lat="46.17877" lon="9.6634">
        <ele>386.0</ele>
      </trkpt>
      <trkpt lat="46.17895" lon="9.66432">
        <ele>395.0</ele>
      </trkpt>
      <trkpt lat="46.17911" lon="9.66422">
        <ele>397.0</ele>
      </trkpt>
      <trkpt lat="46.17924" lon="9.66355">
        <ele>402.0</ele>
      </trkpt>
      <trkpt lat="46.17949" lon="9.66359">
        <ele>405.0</ele>
      </trkpt>
      <trkpt lat="46.17953" lon="9.6642">
        <ele>410.0</ele>
      </trkpt>
      <trkpt lat="46.17941" lon="9.66451">
        <ele>412.0</ele>
      </trkpt>
      <trkpt lat="46.17908" lon="9.66481">
        <ele>415.0</ele>
      </trkpt>
      <trkpt lat="46.17919" lon="9.66504">
        <ele>417.0</ele>
      </trkpt>
      <trkpt lat="46.18033" lon="9.66354">
        <ele>429.0</ele>
      </trkpt>
      <trkpt lat="46.18048" lon="9.66361">
        <ele>431.0</ele>
      </trkpt>
      <trkpt lat="46.1803" lon="9.66412">
        <ele>434.0</ele>
      </trkpt>
      <trkpt lat="46.17973" lon="9.66485">
        <ele>441.0</ele>
      </trkpt>
      <trkpt lat="46.17958" lon="9.66527">
        <ele>444.0</ele>
      </trkpt>
      <trkpt lat="46.179" lon="9.66571">
        <ele>449.0</ele>
      </trkpt>
      <trkpt lat="46.17858" lon="9.66648">
        <ele>455.0</ele>
      </trkpt>
      <trkpt lat="46.17874" lon="9.66655">
        <ele>457.0</ele>
      </trkpt>
      <trkpt lat="46.17922" lon="9.66586">
        <ele>466.0</ele>
      </trkpt>
      <trkpt lat="46.17926" lon="9.66659">
        <ele>473.0</ele>
      </trkpt>
      <trkpt lat="46.17987" lon="9.66755">
        <ele>482.0</ele>
      </trkpt>
      <trkpt lat="46.1802" lon="9.66781">
        <ele>485.0</ele>
      </trkpt>
      <trkpt lat="46.18014" lon="9.66858">
        <ele>492.0</ele>
      </trkpt>
      <trkpt lat="46.18032" lon="9.67119">
        <ele>502.0</ele>
      </trkpt>
      <trkpt lat="46.18097" lon="9.6731">
        <ele>515.0</ele>
      </trkpt>
      <trkpt lat="46.18105" lon="9.67324">
        <ele>519.0</ele>
      </trkpt>
      <trkpt lat="46.18123" lon="9.67132">
        <ele>530.0</ele>
      </trkpt>
      <trkpt lat="46.18135" lon="9.67111">
        <ele>537.0</ele>
      </trkpt>
      <trkpt lat="46.18148" lon="9.67126">
        <ele>542.0</ele>
      </trkpt>
      <trkpt lat="46.18187" lon="9.67277">
        <ele>550.0</ele>
      </trkpt>
      <trkpt lat="46.18227" lon="9.67303">
        <ele>560.0</ele>
      </trkpt>
      <trkpt lat="46.18287" lon="9.67537">
        <ele>574.0</ele>
      </trkpt>
      <trkpt lat="46.18287" lon="9.67682">
        <ele>572.0</ele>
      </trkpt>
      <trkpt lat="46.18307" lon="9.67735">
        <ele>571.0</ele>
      </trkpt>
      <trkpt lat="46.18317" lon="9.67871">
        <ele>565.0</ele>
      </trkpt>
      <trkpt lat="46.18301" lon="9.67941">
        <ele>562.0</ele>
      </trkpt>
      <trkpt lat="46.18296" lon="9.68058">
        <ele>554.0</ele>
      </trkpt>
      <trkpt lat="46.18279" lon="9.68034">
        <ele>551.0</ele>
      </trkpt>
      <trkpt lat="46.18259" lon="9.67929">
        <ele>540.0</ele>
      </trkpt>
      <trkpt lat="46.18231" lon="9.68007">
        <ele>534.0</ele>
      </trkpt>
      <trkpt lat="46.18215" lon="9.68002">
        <ele>532.0</ele>
      </trkpt>
      <trkpt lat="46.18218" lon="9.67942">
        <ele>530.0</ele>
      </trkpt>
      <trkpt lat="46.18196" lon="9.68007">
        <ele>529.0</ele>
      </trkpt>
      <trkpt lat="46.18202" lon="9.68029">
        <ele>529.0</ele>
      </trkpt>
      <trkpt lat="46.18245" lon="9.68057">
        <ele>528.0</ele>
      </trkpt>
      <trkpt lat="46.18279" lon="9.68113">
        <ele>527.0</ele>
      </trkpt>
      <trkpt lat="46.18356" lon="9.68192">
        <ele>526.0</ele>
      </trkpt>
      <trkpt lat="46.18391" lon="9.68291">
        <ele>524.0</ele>
      </trkpt>
      <trkpt lat="46.18361" lon="9.68314">
        <ele>519.0</ele>
      </trkpt>
      <trkpt lat="46.18292" lon="9.68257">
        <ele>505.0</ele>
      </trkpt>
      <trkpt lat="46.18181" lon="9.68246">
        <ele>492.0</ele>
      </trkpt>
      <trkpt lat="46.18085" lon="9.68292">
        <ele>481.0</ele>
      </trkpt>
      <trkpt lat="46.18027" lon="9.68292">
        <ele>477.0</ele>
      </trkpt>
      <trkpt lat="46.17989" lon="9.68274">
        <ele>471.0</ele>
      </trkpt>
      <trkpt lat="46.17979" lon="9.683">
        <ele>468.0</ele>
      </trkpt>
      <trkpt lat="46.1798" lon="9.68594">
        <ele>455.0</ele>
      </trkpt>
      <trkpt lat="46.17967" lon="9.68662">
        <ele>445.0</ele>
      </trkpt>
      <trkpt lat="46.17976" lon="9.68726">
        <ele>440.0</ele>
      </trkpt>
      <trkpt lat="46.17962" lon="9.68876">
        <ele>431.0</ele>
      </trkpt>
      <trkpt lat="46.17942" lon="9.68882">
        <ele>424.0</ele>
      </trkpt>
      <trkpt lat="46.17894" lon="9.68837">
        <ele>417.0</ele>
      </trkpt>
      <trkpt lat="46.17852" lon="9.6888">
        <ele>408.0</ele>
      </trkpt>
      <trkpt lat="46.17853" lon="9.68854">
        <ele>407.0</ele>
      </trkpt>
      <trkpt lat="46.17878" lon="9.68815">
        <ele>405.0</ele>
      </trkpt>
      <trkpt lat="46.1791" lon="9.68826">
        <ele>404.0</ele>
      </trkpt>
      <trkpt lat="46.17921" lon="9.68797">
        <ele>402.0</ele>
      </trkpt>
      <trkpt lat="46.17886" lon="9.68707">
        <ele>399.0</ele>
      </trkpt>
      <trkpt lat="46.17876" lon="9.68609">
        <ele>394.0</ele>
      </trkpt>
      <trkpt lat="46.17783" lon="9.68368">
        <ele>378.0</ele>
      </trkpt>
      <trkpt lat="46.17748" lon="9.68199">
        <ele>372.0</ele>
      </trkpt>
      <trkpt lat="46.17727" lon="9.6805">
        <ele>357.0</ele>
      </trkpt>
      <trkpt lat="46.17731" lon="9.67977">
        <ele>352.0</ele>
      </trkpt>
      <trkpt lat="46.17715" lon="9.67908">
        <ele>347.0</ele>
      </trkpt>
      <trkpt lat="46.17727" lon="9.67899">
        <ele>345.0</ele>
      </trkpt>
      <trkpt lat="46.1775" lon="9.67946">
        <ele>342.0</ele>
      </trkpt>
      <trkpt lat="46.17799" lon="9.67981">
        <ele>339.0</ele>
      </trkpt>
      <trkpt lat="46.17835" lon="9.67954">
        <ele>334.0</ele>
      </trkpt>
      <trkpt lat="46.17861" lon="9.67838">
        <ele>334.0</ele>
      </trkpt>
      <trkpt lat="46.17832" lon="9.67685">
        <ele>338.0</ele>
      </trkpt>
      <trkpt lat="46.1782" lon="9.67682">
        <ele>338.0</ele>
      </trkpt>
      <trkpt lat="46.17813" lon="9.67776">
        <ele>331.0</ele>
      </trkpt>
      <trkpt lat="46.17787" lon="9.67815">
        <ele>325.0</ele>
      </trkpt>
      <trkpt lat="46.17782" lon="9.67681">
        <ele>314.0</ele>
      </trkpt>
      <trkpt lat="46.17739" lon="9.67575">
        <ele>304.0</ele>
      </trkpt>
      <trkpt lat="46.17692" lon="9.67503">
        <ele>299.0</ele>
      </trkpt>
      <trkpt lat="46.17683" lon="9.67512">
        <ele>297.0</ele>
      </trkpt>
      <trkpt lat="46.17708" lon="9.67569">
        <ele>294.0</ele>
      </trkpt>
      <trkpt lat="46.17635" lon="9.67652">
        <ele>288.0</ele>
      </trkpt>
      <trkpt lat="46.17617" lon="9.67645">
        <ele>287.0</ele>
      </trkpt>
      <trkpt lat="46.17543" lon="9.67548">
        <ele>281.0</ele>
      </trkpt>
      <trkpt lat="46.17468" lon="9.67677">
        <ele>276.0</ele>
      </trkpt>
      <trkpt lat="46.17455" lon="9.67732">
        <ele>274.0</ele>
      </trkpt>
      <trkpt lat="46.17444" lon="9.67963">
        <ele>270.0</ele>
      </trkpt>
      <trkpt lat="46.17429" lon="9.67989">
        <ele>269.0</ele>
      </trkpt>
      <trkpt lat="46.17447" lon="9.68005">
        <ele>268.0</ele>
      </trkpt>
      <trkpt lat="46.17521" lon="9.68171">
        <ele>267.0</ele>
      </trkpt>
      <trkpt lat="46.17524" lon="9.68353">
        <ele>268.0</ele>
      </trkpt>
      <trkpt lat="46.17556" lon="9.68575">
        <ele>269.0</ele>
      </trkpt>
      <trkpt lat="46.17556" lon="9.68848">
        <ele>267.0</ele>
      </trkpt>
      <trkpt lat="46.17571" lon="9.68899">
        <ele>266.0</ele>
      </trkpt>
      <trkpt lat="46.17607" lon="9.68952">
        <ele>266.0</ele>
      </trkpt>
      <trkpt lat="46.17605" lon="9.68986">
        <ele>266.0</ele>
      </trkpt>
      <trkpt lat="46.1758" lon="9.6901">
        <ele>266.0</ele>
      </trkpt>
      <trkpt lat="46.17443" lon="9.69066">
        <ele>264.0</ele>
      </trkpt>
      <trkpt lat="46.17298" lon="9.6923">
        <ele>265.0</ele>
      </trkpt>
      <trkpt lat="46.17147" lon="9.69671">
        <ele>269.0</ele>
      </trkpt>
      <trkpt lat="46.17126" lon="9.69695">
        <ele>269.0</ele>
      </trkpt>
      <trkpt lat="46.17126" lon="9.69863">
        <ele>269.0</ele>
      </trkpt>
      <trkpt lat="46.17162" lon="9.69966">
        <ele>271.0</ele>
      </trkpt>
      <trkpt lat="46.17183" lon="9.70098">
        <ele>272.0</ele>
      </trkpt>
      <trkpt lat="46.17238" lon="9.70275">
        <ele>276.0</ele>
      </trkpt>
      <trkpt lat="46.1731" lon="9.70384">
        <ele>277.0</ele>
      </trkpt>
      <trkpt lat="46.17373" lon="9.7062">
        <ele>275.0</ele>
      </trkpt>
      <trkpt lat="46.17366" lon="9.70864">
        <ele>272.0</ele>
      </trkpt>
      <trkpt lat="46.17381" lon="9.71011">
        <ele>271.0</ele>
      </trkpt>
      <trkpt lat="46.17345" lon="9.71134">
        <ele>270.0</ele>
      </trkpt>
      <trkpt lat="46.17325" lon="9.71265">
        <ele>269.0</ele>
      </trkpt>
      <trkpt lat="46.17321" lon="9.71427">
        <ele>269.0</ele>
      </trkpt>
      <trkpt lat="46.17291" lon="9.71498">
        <ele>269.0</ele>
      </trkpt>
      <trkpt lat="46.17255" lon="9.71665">
        <ele>268.0</ele>
      </trkpt>
      <trkpt lat="46.17249" lon="9.7179">
        <ele>267.0</ele>
      </trkpt>
      <trkpt lat="46.17184" lon="9.71849">
        <ele>266.0</ele>
      </trkpt>
      <trkpt lat="46.17101" lon="9.71895">
        <ele>265.0</ele>
      </trkpt>
      <trkpt lat="46.16995" lon="9.72214">
        <ele>265.0</ele>
      </trkpt>
      <trkpt lat="46.16771" lon="9.72619">
        <ele>266.0</ele>
      </trkpt>
      <trkpt lat="46.16623" lon="9.72955">
        <ele>266.0</ele>
      </trkpt>
      <trkpt lat="46.16375" lon="9.73598">
        <ele>267.0</ele>
      </trkpt>
      <trkpt lat="46.16358" lon="9.73608">
        <ele>268.0</ele>
      </trkpt>
      <trkpt lat="46.16356" lon="9.73627">
        <ele>268.0</ele>
      </trkpt>
      <trkpt lat="46.16377" lon="9.73639">
        <ele>269.0</ele>
      </trkpt>
      <trkpt lat="46.16403" lon="9.73724">
        <ele>270.0</ele>
      </trkpt>
      <trkpt lat="46.163" lon="9.73942">
        <ele>275.0</ele>
      </trkpt>
      <trkpt lat="46.16279" lon="9.74041">
        <ele>279.0</ele>
      </trkpt>
      <trkpt lat="46.16343" lon="9.74357">
        <ele>293.0</ele>
      </trkpt>
      <trkpt lat="46.16393" lon="9.74364">
        <ele>296.0</ele>
      </trkpt>
      <trkpt lat="46.16462" lon="9.74421">
        <ele>301.0</ele>
      </trkpt>
      <trkpt lat="46.16474" lon="9.7441">
        <ele>303.0</ele>
      </trkpt>
      <trkpt lat="46.16474" lon="9.74346">
        <ele>305.0</ele>
      </trkpt>
      <trkpt lat="46.16501" lon="9.74256">
        <ele>310.0</ele>
      </trkpt>
      <trkpt lat="46.16521" lon="9.74245">
        <ele>314.0</ele>
      </trkpt>
      <trkpt lat="46.16553" lon="9.74288">
        <ele>318.0</ele>
      </trkpt>
      <trkpt lat="46.16572" lon="9.74283">
        <ele>321.0</ele>
      </trkpt>
      <trkpt lat="46.16623" lon="9.74203">
        <ele>333.0</ele>
      </trkpt>
      <trkpt lat="46.16662" lon="9.74201">
        <ele>340.0</ele>
      </trkpt>
      <trkpt lat="46.16723" lon="9.74071">
        <ele>353.0</ele>
      </trkpt>
      <trkpt lat="46.16742" lon="9.7412">
        <ele>356.0</ele>
      </trkpt>
      <trkpt lat="46.16711" lon="9.74205">
        <ele>358.0</ele>
      </trkpt>
      <trkpt lat="46.16705" lon="9.74316">
        <ele>361.0</ele>
      </trkpt>
      <trkpt lat="46.16771" lon="9.74392">
        <ele>369.0</ele>
      </trkpt>
      <trkpt lat="46.16865" lon="9.7442">
        <ele>378.0</ele>
      </trkpt>
      <trkpt lat="46.16907" lon="9.74496">
        <ele>381.0</ele>
      </trkpt>
      <trkpt lat="46.16883" lon="9.74619">
        <ele>383.0</ele>
      </trkpt>
      <trkpt lat="46.16918" lon="9.74821">
        <ele>385.0</ele>
      </trkpt>
      <trkpt lat="46.16954" lon="9.75543">
        <ele>392.0</ele>
      </trkpt>
      <trkpt lat="46.16992" lon="9.7585">
        <ele>396.0</ele>
      </trkpt>
      <trkpt lat="46.16977" lon="9.76187">
        <ele>401.0</ele>
      </trkpt>
      <trkpt lat="46.16973" lon="9.77219">
        <ele>432.0</ele>
      </trkpt>
      <trkpt lat="46.17077" lon="9.77294">
        <ele>445.0</ele>
      </trkpt>
      <trkpt lat="46.17151" lon="9.77414">
        <ele>452.0</ele>
      </trkpt>
      <trkpt lat="46.17286" lon="9.77536">
        <ele>470.0</ele>
      </trkpt>
      <trkpt lat="46.17304" lon="9.77593">
        <ele>471.0</ele>
      </trkpt>
      <trkpt lat="46.17315" lon="9.77779">
        <ele>464.0</ele>
      </trkpt>
      <trkpt lat="46.17272" lon="9.78009">
        <ele>460.0</ele>
      </trkpt>
      <trkpt lat="46.17309" lon="9.78213">
        <ele>460.0</ele>
      </trkpt>
      <trkpt lat="46.17347" lon="9.78294">
        <ele>461.0</ele>
      </trkpt>
      <trkpt lat="46.17276" lon="9.78291">
        <ele>462.0</ele>
      </trkpt>
      <trkpt lat="46.17251" lon="9.78267">
        <ele>462.0</ele>
      </trkpt>
      <trkpt lat="46.17217" lon="9.78282">
        <ele>461.0</ele>
      </trkpt>
      <trkpt lat="46.17268" lon="9.78403">
        <ele>458.0</ele>
      </trkpt>
      <trkpt lat="46.17263" lon="9.78445">
        <ele>456.0</ele>
      </trkpt>
      <trkpt lat="46.17249" lon="9.78463">
        <ele>456.0</ele>
      </trkpt>
      <trkpt lat="46.17057" lon="9.7845">
        <ele>454.0</ele>
      </trkpt>
      <trkpt lat="46.17003" lon="9.78464">
        <ele>452.0</ele>
      </trkpt>
      <trkpt lat="46.16995" lon="9.78496">
        <ele>451.0</ele>
      </trkpt>
      <trkpt lat="46.17055" lon="9.78904">
        <ele>451.0</ele>
      </trkpt>
      <trkpt lat="46.17112" lon="9.78959">
        <ele>458.0</ele>
      </trkpt>
      <trkpt lat="46.17278" lon="9.7894">
        <ele>464.0</ele>
      </trkpt>
      <trkpt lat="46.17322" lon="9.78958">
        <ele>467.0</ele>
      </trkpt>
      <trkpt lat="46.17345" lon="9.79011">
        <ele>467.0</ele>
      </trkpt>
      <trkpt lat="46.17376" lon="9.79234">
        <ele>466.0</ele>
      </trkpt>
      <trkpt lat="46.17418" lon="9.7939">
        <ele>474.0</ele>
      </trkpt>
      <trkpt lat="46.17447" lon="9.7944">
        <ele>475.0</ele>
      </trkpt>
      <trkpt lat="46.17444" lon="9.7946">
        <ele>476.0</ele>
      </trkpt>
      <trkpt lat="46.17386" lon="9.79487">
        <ele>477.0</ele>
      </trkpt>
      <trkpt lat="46.17293" lon="9.79562">
        <ele>480.0</ele>
      </trkpt>
      <trkpt lat="46.17292" lon="9.79702">
        <ele>481.0</ele>
      </trkpt>
      <trkpt lat="46.17239" lon="9.79749">
        <ele>482.0</ele>
      </trkpt>
      <trkpt lat="46.17231" lon="9.7978">
        <ele>482.0</ele>
      </trkpt>
      <trkpt lat="46.17235" lon="9.79809">
        <ele>482.0</ele>
      </trkpt>
      <trkpt lat="46.17258" lon="9.79842">
        <ele>482.0</ele>
      </trkpt>
      <trkpt lat="46.1734" lon="9.79852">
        <ele>481.0</ele>
      </trkpt>
      <trkpt lat="46.17416" lon="9.79894">
        <ele>489.0</ele>
      </trkpt>
      <trkpt lat="46.17412" lon="9.79963">
        <ele>497.0</ele>
      </trkpt>
      <trkpt lat="46.17454" lon="9.80025">
        <ele>506.0</ele>
      </trkpt>
      <trkpt lat="46.17461" lon="9.8008">
        <ele>510.0</ele>
      </trkpt>
      <trkpt lat="46.17419" lon="9.80214">
        <ele>515.0</ele>
      </trkpt>
      <trkpt lat="46.17436" lon="9.80445">
        <ele>525.0</ele>
      </trkpt>
      <trkpt lat="46.1741" lon="9.80547">
        <ele>530.0</ele>
      </trkpt>
      <trkpt lat="46.17367" lon="9.80871">
        <ele>541.0</ele>
      </trkpt>
      <trkpt lat="46.1732" lon="9.81096">
        <ele>555.0</ele>
      </trkpt>
      <trkpt lat="46.17333" lon="9.81103">
        <ele>558.0</ele>
      </trkpt>
      <trkpt lat="46.17356" lon="9.81017">
        <ele>562.0</ele>
      </trkpt>
      <trkpt lat="46.17393" lon="9.80985">
        <ele>567.0</ele>
      </trkpt>
      <trkpt lat="46.17404" lon="9.80943">
        <ele>571.0</ele>
      </trkpt>
      <trkpt lat="46.17417" lon="9.8094">
        <ele>573.0</ele>
      </trkpt>
      <trkpt lat="46.17384" lon="9.8111">
        <ele>583.0</ele>
      </trkpt>
      <trkpt lat="46.17384" lon="9.81278">
        <ele>594.0</ele>
      </trkpt>
      <trkpt lat="46.17394" lon="9.81336">
        <ele>601.0</ele>
      </trkpt>
      <trkpt lat="46.17364" lon="9.81438">
        <ele>608.0</ele>
      </trkpt>
      <trkpt lat="46.17296" lon="9.81509">
        <ele>614.0</ele>
      </trkpt>
      <trkpt lat="46.17247" lon="9.81665">
        <ele>620.0</ele>
      </trkpt>
      <trkpt lat="46.17225" lon="9.81781">
        <ele>628.0</ele>
      </trkpt>
      <trkpt lat="46.17172" lon="9.81872">
        <ele>634.0</ele>
      </trkpt>
      <trkpt lat="46.17174" lon="9.81893">
        <ele>637.0</ele>
      </trkpt>
      <trkpt lat="46.17188" lon="9.81897">
        <ele>639.0</ele>
      </trkpt>
      <trkpt lat="46.17288" lon="9.8176">
        <ele>648.0</ele>
      </trkpt>
      <trkpt lat="46.17305" lon="9.81767">
        <ele>659.0</ele>
      </trkpt>
      <trkpt lat="46.17157" lon="9.82135">
        <ele>688.0</ele>
      </trkpt>
      <trkpt lat="46.17175" lon="9.82147">
        <ele>691.0</ele>
      </trkpt>
      <trkpt lat="46.17238" lon="9.82067">
        <ele>695.0</ele>
      </trkpt>
      <trkpt lat="46.17277" lon="9.81955">
        <ele>699.0</ele>
      </trkpt>
      <trkpt lat="46.17289" lon="9.81952">
        <ele>702.0</ele>
      </trkpt>
      <trkpt lat="46.17287" lon="9.82066">
        <ele>706.0</ele>
      </trkpt>
      <trkpt lat="46.17312" lon="9.82297">
        <ele>721.0</ele>
      </trkpt>
      <trkpt lat="46.17336" lon="9.82318">
        <ele>728.0</ele>
      </trkpt>
      <trkpt lat="46.17368" lon="9.82303">
        <ele>730.0</ele>
      </trkpt>
      <trkpt lat="46.17385" lon="9.82284">
        <ele>732.0</ele>
      </trkpt>
      <trkpt lat="46.17406" lon="9.82207">
        <ele>735.0</ele>
      </trkpt>
      <trkpt lat="46.17426" lon="9.82219">
        <ele>739.0</ele>
      </trkpt>
      <trkpt lat="46.1735" lon="9.82476">
        <ele>755.0</ele>
      </trkpt>
      <trkpt lat="46.17314" lon="9.83328">
        <ele>784.0</ele>
      </trkpt>
      <trkpt lat="46.17334" lon="9.83423">
        <ele>782.0</ele>
      </trkpt>
      <trkpt lat="46.17333" lon="9.83612">
        <ele>770.0</ele>
      </trkpt>
      <trkpt lat="46.17374" lon="9.83876">
        <ele>751.0</ele>
      </trkpt>
      <trkpt lat="46.1735" lon="9.84009">
        <ele>737.0</ele>
      </trkpt>
      <trkpt lat="46.17348" lon="9.84189">
        <ele>725.0</ele>
      </trkpt>
      <trkpt lat="46.17319" lon="9.84316">
        <ele>713.0</ele>
      </trkpt>
      <trkpt lat="46.17331" lon="9.84327">
        <ele>709.0</ele>
      </trkpt>
      <trkpt lat="46.17364" lon="9.8428">
        <ele>706.0</ele>
      </trkpt>
      <trkpt lat="46.1739" lon="9.84279">
        <ele>702.0</ele>
      </trkpt>
      <trkpt lat="46.17485" lon="9.8444">
        <ele>688.0</ele>
      </trkpt>
      <trkpt lat="46.17481" lon="9.84455">
        <ele>686.0</ele>
      </trkpt>
      <trkpt lat="46.17429" lon="9.84429">
        <ele>681.0</ele>
      </trkpt>
      <trkpt lat="46.17375" lon="9.84493">
        <ele>675.0</ele>
      </trkpt>
      <trkpt lat="46.1738" lon="9.84508">
        <ele>674.0</ele>
      </trkpt>
      <trkpt lat="46.17421" lon="9.84495">
        <ele>669.0</ele>
      </trkpt>
      <trkpt lat="46.17473" lon="9.84562">
        <ele>662.0</ele>
      </trkpt>
      <trkpt lat="46.17469" lon="9.84578">
        <ele>661.0</ele>
      </trkpt>
      <trkpt lat="46.17398" lon="9.84591">
        <ele>654.0</ele>
      </trkpt>
      <trkpt lat="46.1739" lon="9.84609">
        <ele>653.0</ele>
      </trkpt>
      <trkpt lat="46.17441" lon="9.84642">
        <ele>648.0</ele>
      </trkpt>
      <trkpt lat="46.17503" lon="9.84729">
        <ele>642.0</ele>
      </trkpt>
      <trkpt lat="46.17547" lon="9.84762">
        <ele>637.0</ele>
      </trkpt>
      <trkpt lat="46.176" lon="9.84852">
        <ele>631.0</ele>
      </trkpt>
      <trkpt lat="46.1759" lon="9.84865">
        <ele>629.0</ele>
      </trkpt>
      <trkpt lat="46.1756" lon="9.84836">
        <ele>626.0</ele>
      </trkpt>
      <trkpt lat="46.17517" lon="9.84897">
        <ele>619.0</ele>
      </trkpt>
      <trkpt lat="46.1747" lon="9.84881">
        <ele>612.0</ele>
      </trkpt>
      <trkpt lat="46.17417" lon="9.849">
        <ele>603.0</ele>
      </trkpt>
      <trkpt lat="46.1742" lon="9.84918">
        <ele>601.0</ele>
      </trkpt>
      <trkpt lat="46.17467" lon="9.84941">
        <ele>597.0</ele>
      </trkpt>
      <trkpt lat="46.17613" lon="9.85123">
        <ele>581.0</ele>
      </trkpt>
      <trkpt lat="46.176" lon="9.85134">
        <ele>579.0</ele>
      </trkpt>
      <trkpt lat="46.17568" lon="9.85117">
        <ele>576.0</ele>
      </trkpt>
      <trkpt lat="46.17468" lon="9.85111">
        <ele>568.0</ele>
      </trkpt>
      <trkpt lat="46.17441" lon="9.85137">
        <ele>564.0</ele>
      </trkpt>
      <trkpt lat="46.1741" lon="9.85233">
        <ele>557.0</ele>
      </trkpt>
      <trkpt lat="46.17421" lon="9.85239">
        <ele>556.0</ele>
      </trkpt>
      <trkpt lat="46.17451" lon="9.85195">
        <ele>553.0</ele>
      </trkpt>
      <trkpt lat="46.17487" lon="9.85202">
        <ele>549.0</ele>
      </trkpt>
      <trkpt lat="46.17568" lon="9.85326">
        <ele>537.0</ele>
      </trkpt>
      <trkpt lat="46.17633" lon="9.85364">
        <ele>530.0</ele>
      </trkpt>
      <trkpt lat="46.17639" lon="9.85381">
        <ele>528.0</ele>
      </trkpt>
      <trkpt lat="46.17627" lon="9.8539">
        <ele>527.0</ele>
      </trkpt>
      <trkpt lat="46.17597" lon="9.85365">
        <ele>526.0</ele>
      </trkpt>
      <trkpt lat="46.17497" lon="9.85346">
        <ele>523.0</ele>
      </trkpt>
      <trkpt lat="46.17423" lon="9.85501">
        <ele>516.0</ele>
      </trkpt>
      <trkpt lat="46.17437" lon="9.85511">
        <ele>515.0</ele>
      </trkpt>
      <trkpt lat="46.17487" lon="9.85451">
        <ele>511.0</ele>
      </trkpt>
      <trkpt lat="46.17524" lon="9.85445">
        <ele>509.0</ele>
      </trkpt>
      <trkpt lat="46.17549" lon="9.85461">
        <ele>507.0</ele>
      </trkpt>
      <trkpt lat="46.17663" lon="9.85686">
        <ele>493.0</ele>
      </trkpt>
      <trkpt lat="46.17651" lon="9.85695">
        <ele>490.0</ele>
      </trkpt>
      <trkpt lat="46.17622" lon="9.85655">
        <ele>486.0</ele>
      </trkpt>
      <trkpt lat="46.17539" lon="9.85619">
        <ele>482.0</ele>
      </trkpt>
      <trkpt lat="46.17522" lon="9.85632">
        <ele>479.0</ele>
      </trkpt>
      <trkpt lat="46.17525" lon="9.85662">
        <ele>476.0</ele>
      </trkpt>
      <trkpt lat="46.17561" lon="9.85697">
        <ele>473.0</ele>
      </trkpt>
      <trkpt lat="46.17662" lon="9.85875">
        <ele>459.0</ele>
      </trkpt>
      <trkpt lat="46.17659" lon="9.85909">
        <ele>456.0</ele>
      </trkpt>
      <trkpt lat="46.17755" lon="9.86109">
        <ele>453.0</ele>
      </trkpt>
      <trkpt lat="46.18077" lon="9.86493">
        <ele>477.0</ele>
      </trkpt>
      <trkpt lat="46.18139" lon="9.86522">
        <ele>479.0</ele>
      </trkpt>
      <trkpt lat="46.18287" lon="9.86535">
        <ele>483.0</ele>
      </trkpt>
      <trkpt lat="46.18306" lon="9.86558">
        <ele>485.0</ele>
      </trkpt>
      <trkpt lat="46.18464" lon="9.8661">
        <ele>495.0</ele>
      </trkpt>
      <trkpt lat="46.18545" lon="9.86582">
        <ele>505.0</ele>
      </trkpt>
      <trkpt lat="46.18618" lon="9.86593">
        <ele>511.0</ele>
      </trkpt>
      <trkpt lat="46.18683" lon="9.86644">
        <ele>512.0</ele>
      </trkpt>
      <trkpt lat="46.18775" lon="9.86657">
        <ele>512.0</ele>
      </trkpt>
      <trkpt lat="46.18887" lon="9.86709">
        <ele>512.0</ele>
      </trkpt>
      <trkpt lat="46.19005" lon="9.86724">
        <ele>511.0</ele>
      </trkpt>
      <trkpt lat="46.1905" lon="9.86748">
        <ele>510.0</ele>
      </trkpt>
      <trkpt lat="46.19134" lon="9.86748">
        <ele>507.0</ele>
      </trkpt>
      <trkpt lat="46.19209" lon="9.86716">
        <ele>505.0</ele>
      </trkpt>
      <trkpt lat="46.19264" lon="9.86755">
        <ele>504.0</ele>
      </trkpt>
      <trkpt lat="46.19447" lon="9.86831">
        <ele>500.0</ele>
      </trkpt>
      <trkpt lat="46.19601" lon="9.86867">
        <ele>486.0</ele>
      </trkpt>
      <trkpt lat="46.19719" lon="9.86863">
        <ele>475.0</ele>
      </trkpt>
      <trkpt lat="46.19786" lon="9.86933">
        <ele>473.0</ele>
      </trkpt>
      <trkpt lat="46.1981" lon="9.87011">
        <ele>473.0</ele>
      </trkpt>
      <trkpt lat="46.19913" lon="9.87118">
        <ele>477.0</ele>
      </trkpt>
      <trkpt lat="46.19885" lon="9.87134">
        <ele>478.0</ele>
      </trkpt>
      <trkpt lat="46.19866" lon="9.87179">
        <ele>480.0</ele>
      </trkpt>
      <trkpt lat="46.19777" lon="9.8715">
        <ele>484.0</ele>
      </trkpt>
      <trkpt lat="46.19654" lon="9.87249">
        <ele>487.0</ele>
      </trkpt>
      <trkpt lat="46.19599" lon="9.87271">
        <ele>488.0</ele>
      </trkpt>
      <trkpt lat="46.19431" lon="9.87225">
        <ele>488.0</ele>
      </trkpt>
      <trkpt lat="46.19313" lon="9.87242">
        <ele>490.0</ele>
      </trkpt>
      <trkpt lat="46.19142" lon="9.87189">
        <ele>489.0</ele>
      </trkpt>
      <trkpt lat="46.19036" lon="9.87209">
        <ele>489.0</ele>
      </trkpt>
      <trkpt lat="46.18904" lon="9.87207">
        <ele>489.0</ele>
      </trkpt>
      <trkpt lat="46.18704" lon="9.8731">
        <ele>501.0</ele>
      </trkpt>
      <trkpt lat="46.18585" lon="9.8726">
        <ele>502.0</ele>
      </trkpt>
      <trkpt lat="46.18547" lon="9.87261">
        <ele>501.0</ele>
      </trkpt>
      <trkpt lat="46.18484" lon="9.8718">
        <ele>494.0</ele>
      </trkpt>
      <trkpt lat="46.18388" lon="9.87216">
        <ele>485.0</ele>
      </trkpt>
      <trkpt lat="46.18184" lon="9.87163">
        <ele>476.0</ele>
      </trkpt>
      <trkpt lat="46.18041" lon="9.87065">
        <ele>456.0</ele>
      </trkpt>
      <trkpt lat="46.17992" lon="9.87051">
        <ele>450.0</ele>
      </trkpt>
      <trkpt lat="46.17934" lon="9.86997">
        <ele>442.0</ele>
      </trkpt>
      <trkpt lat="46.17889" lon="9.87002">
        <ele>436.0</ele>
      </trkpt>
      <trkpt lat="46.17843" lon="9.86922">
        <ele>430.0</ele>
      </trkpt>
      <trkpt lat="46.17821" lon="9.86909">
        <ele>427.0</ele>
      </trkpt>
      <trkpt lat="46.17795" lon="9.8694">
        <ele>423.0</ele>
      </trkpt>
      <trkpt lat="46.17754" lon="9.87295">
        <ele>402.0</ele>
      </trkpt>
      <trkpt lat="46.17718" lon="9.8739">
        <ele>390.0</ele>
      </trkpt>
      <trkpt lat="46.17677" lon="9.87439">
        <ele>383.0</ele>
      </trkpt>
      <trkpt lat="46.17599" lon="9.87491">
        <ele>376.0</ele>
      </trkpt>
      <trkpt lat="46.17555" lon="9.87426">
        <ele>371.0</ele>
      </trkpt>
      <trkpt lat="46.17519" lon="9.87421">
        <ele>367.0</ele>
      </trkpt>
      <trkpt lat="46.17432" lon="9.87548">
        <ele>353.0</ele>
      </trkpt>
      <trkpt lat="46.17434" lon="9.87654">
        <ele>351.0</ele>
      </trkpt>
      <trkpt lat="46.17482" lon="9.87802">
        <ele>348.0</ele>
      </trkpt>
      <trkpt lat="46.17485" lon="9.87882">
        <ele>348.0</ele>
      </trkpt>
      <trkpt lat="46.17527" lon="9.87997">
        <ele>348.0</ele>
      </trkpt>
      <trkpt lat="46.17553" lon="9.8822">
        <ele>359.0</ele>
      </trkpt>
      <trkpt lat="46.17597" lon="9.8842">
        <ele>372.0</ele>
      </trkpt>
      <trkpt lat="46.17608" lon="9.89079">
        <ele>411.0</ele>
      </trkpt>
      <trkpt lat="46.17633" lon="9.89215">
        <ele>424.0</ele>
      </trkpt>
      <trkpt lat="46.17554" lon="9.89656">
        <ele>441.0</ele>
      </trkpt>
      <trkpt lat="46.17548" lon="9.89771">
        <ele>450.0</ele>
      </trkpt>
      <trkpt lat="46.17565" lon="9.89873">
        <ele>457.0</ele>
      </trkpt>
      <trkpt lat="46.17651" lon="9.90081">
        <ele>468.0</ele>
      </trkpt>
      <trkpt lat="46.17648" lon="9.90387">
        <ele>490.0</ele>
      </trkpt>
      <trkpt lat="46.17677" lon="9.90606">
        <ele>496.0</ele>
      </trkpt>
      <trkpt lat="46.17665" lon="9.9066">
        <ele>496.0</ele>
      </trkpt>
      <trkpt lat="46.17591" lon="9.9081">
        <ele>491.0</ele>
      </trkpt>
      <trkpt lat="46.17599" lon="9.91023">
        <ele>486.0</ele>
      </trkpt>
      <trkpt lat="46.17559" lon="9.91622">
        <ele>484.0</ele>
      </trkpt>
      <trkpt lat="46.17536" lon="9.91806">
        <ele>483.0</ele>
      </trkpt>
      <trkpt lat="46.1748" lon="9.91997">
        <ele>482.0</ele>
      </trkpt>
      <trkpt lat="46.17471" lon="9.92126">
        <ele>482.0</ele>
      </trkpt>
      <trkpt lat="46.17491" lon="9.924">
        <ele>482.0</ele>
      </trkpt>
      <trkpt lat="46.1753" lon="9.92486">
        <ele>488.0</ele>
      </trkpt>
      <trkpt lat="46.17545" lon="9.92576">
        <ele>498.0</ele>
      </trkpt>
      <trkpt lat="46.17526" lon="9.92686">
        <ele>502.0</ele>
      </trkpt>
      <trkpt lat="46.17471" lon="9.92789">
        <ele>506.0</ele>
      </trkpt>
      <trkpt lat="46.17519" lon="9.93027">
        <ele>513.0</ele>
      </trkpt>
      <trkpt lat="46.17518" lon="9.93129">
        <ele>512.0</ele>
      </trkpt>
      <trkpt lat="46.17531" lon="9.93204">
        <ele>512.0</ele>
      </trkpt>
      <trkpt lat="46.17469" lon="9.93678">
        <ele>500.0</ele>
      </trkpt>
      <trkpt lat="46.17514" lon="9.93844">
        <ele>499.0</ele>
      </trkpt>
      <trkpt lat="46.17464" lon="9.94062">
        <ele>492.0</ele>
      </trkpt>
      <trkpt lat="46.17458" lon="9.94176">
        <ele>490.0</ele>
      </trkpt>
      <trkpt lat="46.17477" lon="9.94318">
        <ele>489.0</ele>
      </trkpt>
      <trkpt lat="46.17495" lon="9.95143">
        <ele>485.0</ele>
      </trkpt>
      <trkpt lat="46.17594" lon="9.95683">
        <ele>493.0</ele>
      </trkpt>
      <trkpt lat="46.17587" lon="9.95794">
        <ele>497.0</ele>
      </trkpt>
      <trkpt lat="46.17557" lon="9.95872">
        <ele>504.0</ele>
      </trkpt>
      <trkpt lat="46.17358" lon="9.96068">
        <ele>512.0</ele>
      </trkpt>
      <trkpt lat="46.17319" lon="9.96125">
        <ele>514.0</ele>
      </trkpt>
      <trkpt lat="46.17274" lon="9.96301">
        <ele>512.0</ele>
      </trkpt>
      <trkpt lat="46.1727" lon="9.964">
        <ele>512.0</ele>
      </trkpt>
      <trkpt lat="46.17284" lon="9.96528">
        <ele>515.0</ele>
      </trkpt>
      <trkpt lat="46.17322" lon="9.96703">
        <ele>520.0</ele>
      </trkpt>
      <trkpt lat="46.17336" lon="9.96966">
        <ele>523.0</ele>
      </trkpt>
      <trkpt lat="46.17328" lon="9.97076">
        <ele>521.0</ele>
      </trkpt>
      <trkpt lat="46.17375" lon="9.97238">
        <ele>518.0</ele>
      </trkpt>
      <trkpt lat="46.17399" lon="9.97388">
        <ele>517.0</ele>
      </trkpt>
      <trkpt lat="46.17436" lon="9.97416">
        <ele>517.0</ele>
      </trkpt>
      <trkpt lat="46.17646" lon="9.97464">
        <ele>530.0</ele>
      </trkpt>
      <trkpt lat="46.17772" lon="9.97567">
        <ele>536.0</ele>
      </trkpt>
      <trkpt lat="46.17793" lon="9.97609">
        <ele>537.0</ele>
      </trkpt>
      <trkpt lat="46.17814" lon="9.97959">
        <ele>532.0</ele>
      </trkpt>
      <trkpt lat="46.17847" lon="9.98229">
        <ele>524.0</ele>
      </trkpt>
      <trkpt lat="46.17843" lon="9.98611">
        <ele>525.0</ele>
      </trkpt>
      <trkpt lat="46.17861" lon="9.98728">
        <ele>525.0</ele>
      </trkpt>
      <trkpt lat="46.17805" lon="9.98928">
        <ele>524.0</ele>
      </trkpt>
      <trkpt lat="46.1782" lon="9.9901">
        <ele>526.0</ele>
      </trkpt>
      <trkpt lat="46.17886" lon="9.99154">
        <ele>533.0</ele>
      </trkpt>
      <trkpt lat="46.17907" lon="9.99434">
        <ele>547.0</ele>
      </trkpt>
      <trkpt lat="46.17953" lon="9.99591">
        <ele>551.0</ele>
      </trkpt>
      <trkpt lat="46.17945" lon="9.99791">
        <ele>550.0</ele>
      </trkpt>
      <trkpt lat="46.17919" lon="9.99838">
        <ele>550.0</ele>
      </trkpt>
      <trkpt lat="46.17849" lon="9.99853">
        <ele>550.0</ele>
      </trkpt>
      <trkpt lat="46.1781" lon="9.99888">
        <ele>550.0</ele>
      </trkpt>
      <trkpt lat="46.17665" lon="10.00165">
        <ele>550.0</ele>
      </trkpt>
      <trkpt lat="46.17635" lon="10.00292">
        <ele>549.0</ele>
      </trkpt>
      <trkpt lat="46.1763" lon="10.00455">
        <ele>547.0</ele>
      </trkpt>
      <trkpt lat="46.17598" lon="10.00524">
        <ele>549.0</ele>
      </trkpt>
      <trkpt lat="46.17587" lon="10.00526">
        <ele>549.0</ele>
      </trkpt>
      <trkpt lat="46.1751" lon="10.00735">
        <ele>554.0</ele>
      </trkpt>
      <trkpt lat="46.17462" lon="10.00798">
        <ele>556.0</ele>
      </trkpt>
      <trkpt lat="46.1737" lon="10.01044">
        <ele>566.0</ele>
      </trkpt>
      <trkpt lat="46.17364" lon="10.01229">
        <ele>581.0</ele>
      </trkpt>
      <trkpt lat="46.17332" lon="10.0124">
        <ele>585.0</ele>
      </trkpt>
      <trkpt lat="46.17273" lon="10.012">
        <ele>588.0</ele>
      </trkpt>
      <trkpt lat="46.17242" lon="10.01225">
        <ele>590.0</ele>
      </trkpt>
      <trkpt lat="46.17209" lon="10.01288">
        <ele>591.0</ele>
      </trkpt>
      <trkpt lat="46.17175" lon="10.01286">
        <ele>591.0</ele>
      </trkpt>
      <trkpt lat="46.17152" lon="10.0124">
        <ele>592.0</ele>
      </trkpt>
      <trkpt lat="46.17112" lon="10.013">
        <ele>592.0</ele>
      </trkpt>
      <trkpt lat="46.1707" lon="10.0145">
        <ele>595.0</ele>
      </trkpt>
      <trkpt lat="46.17065" lon="10.01587">
        <ele>602.0</ele>
      </trkpt>
      <trkpt lat="46.1702" lon="10.01639">
        <ele>609.0</ele>
      </trkpt>
      <trkpt lat="46.17043" lon="10.01763">
        <ele>616.0</ele>
      </trkpt>
      <trkpt lat="46.17028" lon="10.01825">
        <ele>621.0</ele>
      </trkpt>
      <trkpt lat="46.17047" lon="10.01832">
        <ele>624.0</ele>
      </trkpt>
      <trkpt lat="46.17162" lon="10.01643">
        <ele>634.0</ele>
      </trkpt>
      <trkpt lat="46.17187" lon="10.01635">
        <ele>639.0</ele>
      </trkpt>
      <trkpt lat="46.17216" lon="10.01678">
        <ele>643.0</ele>
      </trkpt>
      <trkpt lat="46.17226" lon="10.01858">
        <ele>649.0</ele>
      </trkpt>
      <trkpt lat="46.17216" lon="10.01883">
        <ele>652.0</ele>
      </trkpt>
      <trkpt lat="46.17149" lon="10.01929">
        <ele>655.0</ele>
      </trkpt>
      <trkpt lat="46.17079" lon="10.02009">
        <ele>656.0</ele>
      </trkpt>
      <trkpt lat="46.1708" lon="10.02188">
        <ele>660.0</ele>
      </trkpt>
      <trkpt lat="46.17027" lon="10.02418">
        <ele>668.0</ele>
      </trkpt>
      <trkpt lat="46.17031" lon="10.02541">
        <ele>678.0</ele>
      </trkpt>
      <trkpt lat="46.16988" lon="10.02712">
        <ele>684.0</ele>
      </trkpt>
      <trkpt lat="46.16977" lon="10.02723">
        <ele>685.0</ele>
      </trkpt>
      <trkpt lat="46.16925" lon="10.02704">
        <ele>686.0</ele>
      </trkpt>
      <trkpt lat="46.16908" lon="10.02715">
        <ele>688.0</ele>
      </trkpt>
      <trkpt lat="46.16895" lon="10.02794">
        <ele>687.0</ele>
      </trkpt>
      <trkpt lat="46.16844" lon="10.02921">
        <ele>685.0</ele>
      </trkpt>
      <trkpt lat="46.16817" lon="10.03109">
        <ele>689.0</ele>
      </trkpt>
      <trkpt lat="46.16761" lon="10.03165">
        <ele>693.0</ele>
      </trkpt>
      <trkpt lat="46.16749" lon="10.03231">
        <ele>696.0</ele>
      </trkpt>
      <trkpt lat="46.16716" lon="10.03303">
        <ele>699.0</ele>
      </trkpt>
      <trkpt lat="46.16707" lon="10.03416">
        <ele>703.0</ele>
      </trkpt>
      <trkpt lat="46.16661" lon="10.03619">
        <ele>702.0</ele>
      </trkpt>
      <trkpt lat="46.16651" lon="10.03739">
        <ele>700.0</ele>
      </trkpt>
      <trkpt lat="46.16617" lon="10.03821">
        <ele>700.0</ele>
      </trkpt>
      <trkpt lat="46.16616" lon="10.03934">
        <ele>699.0</ele>
      </trkpt>
      <trkpt lat="46.16584" lon="10.04018">
        <ele>698.0</ele>
      </trkpt>
      <trkpt lat="46.16573" lon="10.04118">
        <ele>698.0</ele>
      </trkpt>
      <trkpt lat="46.16598" lon="10.04269">
        <ele>700.0</ele>
      </trkpt>
      <trkpt lat="46.16617" lon="10.04283">
        <ele>705.0</ele>
      </trkpt>
      <trkpt lat="46.16627" lon="10.04263">
        <ele>707.0</ele>
      </trkpt>
      <trkpt lat="46.1663" lon="10.04061">
        <ele>717.0</ele>
      </trkpt>
      <trkpt lat="46.16662" lon="10.0398">
        <ele>721.0</ele>
      </trkpt>
      <trkpt lat="46.16702" lon="10.03797">
        <ele>728.0</ele>
      </trkpt>
      <trkpt lat="46.16736" lon="10.03725">
        <ele>730.0</ele>
      </trkpt>
      <trkpt lat="46.16738" lon="10.03528">
        <ele>731.0</ele>
      </trkpt>
      <trkpt lat="46.1676" lon="10.03429">
        <ele>737.0</ele>
      </trkpt>
      <trkpt lat="46.16781" lon="10.03421">
        <ele>742.0</ele>
      </trkpt>
      <trkpt lat="46.16813" lon="10.03496">
        <ele>749.0</ele>
      </trkpt>
      <trkpt lat="46.16855" lon="10.03508">
        <ele>753.0</ele>
      </trkpt>
      <trkpt lat="46.16923" lon="10.0346">
        <ele>755.0</ele>
      </trkpt>
      <trkpt lat="46.16949" lon="10.03372">
        <ele>756.0</ele>
      </trkpt>
      <trkpt lat="46.16963" lon="10.03368">
        <ele>756.0</ele>
      </trkpt>
      <trkpt lat="46.1698" lon="10.03501">
        <ele>762.0</ele>
      </trkpt>
      <trkpt lat="46.17008" lon="10.03589">
        <ele>767.0</ele>
      </trkpt>
      <trkpt lat="46.17034" lon="10.03837">
        <ele>780.0</ele>
      </trkpt>
      <trkpt lat="46.17017" lon="10.03929">
        <ele>786.0</ele>
      </trkpt>
      <trkpt lat="46.17017" lon="10.04012">
        <ele>789.0</ele>
      </trkpt>
      <trkpt lat="46.17114" lon="10.04224">
        <ele>801.0</ele>
      </trkpt>
      <trkpt lat="46.17052" lon="10.04491">
        <ele>813.0</ele>
      </trkpt>
      <trkpt lat="46.17029" lon="10.04483">
        <ele>815.0</ele>
      </trkpt>
      <trkpt lat="46.16979" lon="10.04346">
        <ele>819.0</ele>
      </trkpt>
      <trkpt lat="46.1696" lon="10.04354">
        <ele>821.0</ele>
      </trkpt>
      <trkpt lat="46.16999" lon="10.04492">
        <ele>825.0</ele>
      </trkpt>
      <trkpt lat="46.16996" lon="10.04555">
        <ele>827.0</ele>
      </trkpt>
      <trkpt lat="46.17025" lon="10.04692">
        <ele>831.0</ele>
      </trkpt>
      <trkpt lat="46.17023" lon="10.05142">
        <ele>829.0</ele>
      </trkpt>
      <trkpt lat="46.1701" lon="10.05273">
        <ele>825.0</ele>
      </trkpt>
      <trkpt lat="46.17022" lon="10.05504">
        <ele>820.0</ele>
      </trkpt>
      <trkpt lat="46.17042" lon="10.05607">
        <ele>819.0</ele>
      </trkpt>
      <trkpt lat="46.17058" lon="10.0586">
        <ele>826.0</ele>
      </trkpt>
      <trkpt lat="46.1711" lon="10.06079">
        <ele>833.0</ele>
      </trkpt>
      <trkpt lat="46.17059" lon="10.06114">
        <ele>836.0</ele>
      </trkpt>
      <trkpt lat="46.17052" lon="10.06236">
        <ele>838.0</ele>
      </trkpt>
      <trkpt lat="46.17145" lon="10.06647">
        <ele>864.0</ele>
      </trkpt>
      <trkpt lat="46.1722" lon="10.06694">
        <ele>860.0</ele>
      </trkpt>
      <trkpt lat="46.17266" lon="10.07053">
        <ele>847.0</ele>
      </trkpt>
      <trkpt lat="46.17257" lon="10.07082">
        <ele>844.0</ele>
      </trkpt>
      <trkpt lat="46.17238" lon="10.07092">
        <ele>842.0</ele>
      </trkpt>
      <trkpt lat="46.1706" lon="10.06981">
        <ele>834.0</ele>
      </trkpt>
      <trkpt lat="46.17034" lon="10.0699">
        <ele>829.0</ele>
      </trkpt>
      <trkpt lat="46.17017" lon="10.07031">
        <ele>824.0</ele>
      </trkpt>
      <trkpt lat="46.17066" lon="10.07136">
        <ele>812.0</ele>
      </trkpt>
      <trkpt lat="46.17117" lon="10.07292">
        <ele>803.0</ele>
      </trkpt>
      <trkpt lat="46.17169" lon="10.07319">
        <ele>797.0</ele>
      </trkpt>
      <trkpt lat="46.17245" lon="10.07403">
        <ele>790.0</ele>
      </trkpt>
      <trkpt lat="46.1725" lon="10.07425">
        <ele>787.0</ele>
      </trkpt>
      <trkpt lat="46.17236" lon="10.07443">
        <ele>784.0</ele>
      </trkpt>
      <trkpt lat="46.17189" lon="10.07411">
        <ele>780.0</ele>
      </trkpt>
      <trkpt lat="46.17087" lon="10.07394">
        <ele>773.0</ele>
      </trkpt>
      <trkpt lat="46.16952" lon="10.07057">
        <ele>759.0</ele>
      </trkpt>
      <trkpt lat="46.16864" lon="10.0673">
        <ele>743.0</ele>
      </trkpt>
      <trkpt lat="46.16851" lon="10.06704">
        <ele>739.0</ele>
      </trkpt>
      <trkpt lat="46.16784" lon="10.06649">
        <ele>725.0</ele>
      </trkpt>
      <trkpt lat="46.16783" lon="10.06521">
        <ele>719.0</ele>
      </trkpt>
      <trkpt lat="46.1671" lon="10.06286">
        <ele>707.0</ele>
      </trkpt>
      <trkpt lat="46.16663" lon="10.06067">
        <ele>696.0</ele>
      </trkpt>
      <trkpt lat="46.16465" lon="10.05569">
        <ele>657.0</ele>
      </trkpt>
      <trkpt lat="46.16453" lon="10.05435">
        <ele>648.0</ele>
      </trkpt>
      <trkpt lat="46.16481" lon="10.05281">
        <ele>638.0</ele>
      </trkpt>
      <trkpt lat="46.16391" lon="10.05008">
        <ele>627.0</ele>
      </trkpt>
      <trkpt lat="46.16401" lon="10.04874">
        <ele>621.0</ele>
      </trkpt>
      <trkpt lat="46.16396" lon="10.04744">
        <ele>618.0</ele>
      </trkpt>
      <trkpt lat="46.16345" lon="10.04587">
        <ele>612.0</ele>
      </trkpt>
      <trkpt lat="46.16344" lon="10.04455">
        <ele>608.0</ele>
      </trkpt>
      <trkpt lat="46.16314" lon="10.04248">
        <ele>598.0</ele>
      </trkpt>
      <trkpt lat="46.16294" lon="10.04232">
        <ele>595.0</ele>
      </trkpt>
      <trkpt lat="46.16275" lon="10.04253">
        <ele>592.0</ele>
      </trkpt>
      <trkpt lat="46.16279" lon="10.04311">
        <ele>588.0</ele>
      </trkpt>
      <trkpt lat="46.16243" lon="10.04376">
        <ele>582.0</ele>
      </trkpt>
      <trkpt lat="46.16242" lon="10.0452">
        <ele>571.0</ele>
      </trkpt>
      <trkpt lat="46.16214" lon="10.04603">
        <ele>564.0</ele>
      </trkpt>
      <trkpt lat="46.16237" lon="10.04803">
        <ele>554.0</ele>
      </trkpt>
      <trkpt lat="46.16222" lon="10.04945">
        <ele>544.0</ele>
      </trkpt>
      <trkpt lat="46.16245" lon="10.05066">
        <ele>538.0</ele>
      </trkpt>
      <trkpt lat="46.16261" lon="10.05377">
        <ele>525.0</ele>
      </trkpt>
      <trkpt lat="46.16294" lon="10.05573">
        <ele>519.0</ele>
      </trkpt>
      <trkpt lat="46.16287" lon="10.05605">
        <ele>516.0</ele>
      </trkpt>
      <trkpt lat="46.16226" lon="10.05307">
        <ele>509.0</ele>
      </trkpt>
      <trkpt lat="46.16217" lon="10.05188">
        <ele>505.0</ele>
      </trkpt>
      <trkpt lat="46.16119" lon="10.04896">
        <ele>486.0</ele>
      </trkpt>
      <trkpt lat="46.1607" lon="10.04603">
        <ele>464.0</ele>
      </trkpt>
      <trkpt lat="46.16042" lon="10.04515">
        <ele>460.0</ele>
      </trkpt>
      <trkpt lat="46.15975" lon="10.04004">
        <ele>426.0</ele>
      </trkpt>
      <trkpt lat="46.1598" lon="10.03918">
        <ele>413.0</ele>
      </trkpt>
      <trkpt lat="46.15965" lon="10.03934">
        <ele>410.0</ele>
      </trkpt>
      <trkpt lat="46.15963" lon="10.04279">
        <ele>408.0</ele>
      </trkpt>
      <trkpt lat="46.1595" lon="10.04285">
        <ele>407.0</ele>
      </trkpt>
      <trkpt lat="46.15941" lon="10.04265">
        <ele>405.0</ele>
      </trkpt>
      <trkpt lat="46.15899" lon="10.03934">
        <ele>382.0</ele>
      </trkpt>
      <trkpt lat="46.15895" lon="10.03793">
        <ele>378.0</ele>
      </trkpt>
      <trkpt lat="46.15917" lon="10.03721">
        <ele>374.0</ele>
      </trkpt>
      <trkpt lat="46.15905" lon="10.03636">
        <ele>370.0</ele>
      </trkpt>
      <trkpt lat="46.15733" lon="10.03567">
        <ele>363.0</ele>
      </trkpt>
      <trkpt lat="46.15691" lon="10.03449">
        <ele>364.0</ele>
      </trkpt>
      <trkpt lat="46.15611" lon="10.0339">
        <ele>365.0</ele>
      </trkpt>
      <trkpt lat="46.15528" lon="10.03149">
        <ele>366.0</ele>
      </trkpt>
      <trkpt lat="46.15493" lon="10.03093">
        <ele>367.0</ele>
      </trkpt>
      <trkpt lat="46.15341" lon="10.03026">
        <ele>369.0</ele>
      </trkpt>
      <trkpt lat="46.15242" lon="10.02929">
        <ele>372.0</ele>
      </trkpt>
      <trkpt lat="46.15135" lon="10.0297">
        <ele>375.0</ele>
      </trkpt>
      <trkpt lat="46.15026" lon="10.02913">
        <ele>377.0</ele>
      </trkpt>
      <trkpt lat="46.14954" lon="10.02843">
        <ele>377.0</ele>
      </trkpt>
      <trkpt lat="46.14882" lon="10.02858">
        <ele>380.0</ele>
      </trkpt>
      <trkpt lat="46.14867" lon="10.02813">
        <ele>383.0</ele>
      </trkpt>
      <trkpt lat="46.14899" lon="10.02688">
        <ele>392.0</ele>
      </trkpt>
      <trkpt lat="46.14892" lon="10.02629">
        <ele>397.0</ele>
      </trkpt>
      <trkpt lat="46.14909" lon="10.02505">
        <ele>406.0</ele>
      </trkpt>
      <trkpt lat="46.14892" lon="10.02409">
        <ele>416.0</ele>
      </trkpt>
      <trkpt lat="46.14921" lon="10.02374">
        <ele>420.0</ele>
      </trkpt>
      <trkpt lat="46.14971" lon="10.02204">
        <ele>424.0</ele>
      </trkpt>
      <trkpt lat="46.14997" lon="10.02023">
        <ele>433.0</ele>
      </trkpt>
      <trkpt lat="46.14981" lon="10.01942">
        <ele>439.0</ele>
      </trkpt>
      <trkpt lat="46.1499" lon="10.01856">
        <ele>444.0</ele>
      </trkpt>
      <trkpt lat="46.14976" lon="10.01702">
        <ele>452.0</ele>
      </trkpt>
      <trkpt lat="46.15047" lon="10.01524">
        <ele>461.0</ele>
      </trkpt>
      <trkpt lat="46.15071" lon="10.01432">
        <ele>457.0</ele>
      </trkpt>
      <trkpt lat="46.15113" lon="10.0135">
        <ele>451.0</ele>
      </trkpt>
      <trkpt lat="46.15122" lon="10.01282">
        <ele>450.0</ele>
      </trkpt>
      <trkpt lat="46.15176" lon="10.01217">
        <ele>452.0</ele>
      </trkpt>
      <trkpt lat="46.15157" lon="10.01122">
        <ele>455.0</ele>
      </trkpt>
      <trkpt lat="46.15152" lon="10.00988">
        <ele>459.0</ele>
      </trkpt>
      <trkpt lat="46.15194" lon="10.00917">
        <ele>464.0</ele>
      </trkpt>
      <trkpt lat="46.15262" lon="10.00875">
        <ele>466.0</ele>
      </trkpt>
      <trkpt lat="46.15324" lon="10.00796">
        <ele>467.0</ele>
      </trkpt>
      <trkpt lat="46.1534" lon="10.00733">
        <ele>468.0</ele>
      </trkpt>
      <trkpt lat="46.15339" lon="10.00598">
        <ele>466.0</ele>
      </trkpt>
      <trkpt lat="46.15426" lon="10.00243">
        <ele>471.0</ele>
      </trkpt>
      <trkpt lat="46.15504" lon="10.00147">
        <ele>469.0</ele>
      </trkpt>
      <trkpt lat="46.15569" lon="10.00005">
        <ele>458.0</ele>
      </trkpt>
      <trkpt lat="46.15585" lon="10.00013">
        <ele>453.0</ele>
      </trkpt>
      <trkpt lat="46.15597" lon="10.00102">
        <ele>445.0</ele>
      </trkpt>
      <trkpt lat="46.15611" lon="10.00113">
        <ele>441.0</ele>
      </trkpt>
      <trkpt lat="46.15638" lon="9.99968">
        <ele>428.0</ele>
      </trkpt>
      <trkpt lat="46.15733" lon="9.9987">
        <ele>418.0</ele>
      </trkpt>
      <trkpt lat="46.15738" lon="9.99775">
        <ele>411.0</ele>
      </trkpt>
      <trkpt lat="46.1572" lon="9.99732">
        <ele>407.0</ele>
      </trkpt>
      <trkpt lat="46.15785" lon="9.996">
        <ele>402.0</ele>
      </trkpt>
      <trkpt lat="46.15816" lon="9.99501">
        <ele>397.0</ele>
      </trkpt>
      <trkpt lat="46.15874" lon="9.99403">
        <ele>391.0</ele>
      </trkpt>
      <trkpt lat="46.15919" lon="9.99198">
        <ele>380.0</ele>
      </trkpt>
      <trkpt lat="46.15949" lon="9.99117">
        <ele>373.0</ele>
      </trkpt>
      <trkpt lat="46.16" lon="9.9905">
        <ele>360.0</ele>
      </trkpt>
      <trkpt lat="46.16097" lon="9.99119">
        <ele>355.0</ele>
      </trkpt>
      <trkpt lat="46.16309" lon="9.99188">
        <ele>351.0</ele>
      </trkpt>
      <trkpt lat="46.16309" lon="9.9927">
        <ele>351.0</ele>
      </trkpt>
      <trkpt lat="46.16358" lon="9.99347">
        <ele>353.0</ele>
      </trkpt>
      <trkpt lat="46.16389" lon="9.99373">
        <ele>354.0</ele>
      </trkpt>
      <trkpt lat="46.16471" lon="9.99391">
        <ele>355.0</ele>
      </trkpt>
      <trkpt lat="46.16496" lon="9.99364">
        <ele>356.0</ele>
      </trkpt>
      <trkpt lat="46.16506" lon="9.99256">
        <ele>356.0</ele>
      </trkpt>
      <trkpt lat="46.16498" lon="9.99216">
        <ele>357.0</ele>
      </trkpt>
      <trkpt lat="46.16507" lon="9.99198">
        <ele>357.0</ele>
      </trkpt>
      <trkpt lat="46.16783" lon="9.99173">
        <ele>362.0</ele>
      </trkpt>
      <trkpt lat="46.16815" lon="9.99183">
        <ele>366.0</ele>
      </trkpt>
      <trkpt lat="46.16773" lon="9.99019">
        <ele>369.0</ele>
      </trkpt>
      <trkpt lat="46.16679" lon="9.98803">
        <ele>375.0</ele>
      </trkpt>
      <trkpt lat="46.16648" lon="9.98671">
        <ele>377.0</ele>
      </trkpt>
      <trkpt lat="46.1657" lon="9.98455">
        <ele>385.0</ele>
      </trkpt>
      <trkpt lat="46.17135" lon="9.9793">
        <ele>445.0</ele>
      </trkpt>
      <trkpt lat="46.1723" lon="9.97811">
        <ele>467.0</ele>
      </trkpt>
      <trkpt lat="46.17217" lon="9.97701">
        <ele>479.0</ele>
      </trkpt>
      <trkpt lat="46.17289" lon="9.97403">
        <ele>494.0</ele>
      </trkpt>
      <trkpt lat="46.17341" lon="9.97325">
        <ele>505.0</ele>
      </trkpt>
      <trkpt lat="46.17364" lon="9.97221">
        <ele>513.0</ele>
      </trkpt>
      <trkpt lat="46.17328" lon="9.97076">
        <ele>518.0</ele>
      </trkpt>
      <trkpt lat="46.17336" lon="9.96966">
        <ele>521.0</ele>
      </trkpt>
      <trkpt lat="46.17322" lon="9.96703">
        <ele>524.0</ele>
      </trkpt>
      <trkpt lat="46.17276" lon="9.96479">
        <ele>518.0</ele>
      </trkpt>
      <trkpt lat="46.17274" lon="9.96301">
        <ele>513.0</ele>
      </trkpt>
      <trkpt lat="46.17327" lon="9.96108">
        <ele>514.0</ele>
      </trkpt>
      <trkpt lat="46.17548" lon="9.95884">
        <ele>510.0</ele>
      </trkpt>
      <trkpt lat="46.1759" lon="9.95778">
        <ele>502.0</ele>
      </trkpt>
      <trkpt lat="46.17591" lon="9.95635">
        <ele>495.0</ele>
      </trkpt>
      <trkpt lat="46.17549" lon="9.95467">
        <ele>488.0</ele>
      </trkpt>
      <trkpt lat="46.17495" lon="9.95143">
        <ele>485.0</ele>
      </trkpt>
      <trkpt lat="46.17477" lon="9.94318">
        <ele>491.0</ele>
      </trkpt>
      <trkpt lat="46.17458" lon="9.94176">
        <ele>489.0</ele>
      </trkpt>
      <trkpt lat="46.17464" lon="9.94062">
        <ele>490.0</ele>
      </trkpt>
      <trkpt lat="46.17514" lon="9.93844">
        <ele>497.0</ele>
      </trkpt>
      <trkpt lat="46.17469" lon="9.93678">
        <ele>500.0</ele>
      </trkpt>
      <trkpt lat="46.17531" lon="9.93204">
        <ele>508.0</ele>
      </trkpt>
      <trkpt lat="46.17518" lon="9.93129">
        <ele>511.0</ele>
      </trkpt>
      <trkpt lat="46.17519" lon="9.93027">
        <ele>512.0</ele>
      </trkpt>
      <trkpt lat="46.17471" lon="9.92789">
        <ele>509.0</ele>
      </trkpt>
      <trkpt lat="46.17519" lon="9.92703">
        <ele>505.0</ele>
      </trkpt>
      <trkpt lat="46.17535" lon="9.92642">
        <ele>504.0</ele>
      </trkpt>
      <trkpt lat="46.17545" lon="9.92576">
        <ele>503.0</ele>
      </trkpt>
      <trkpt lat="46.1753" lon="9.92486">
        <ele>497.0</ele>
      </trkpt>
      <trkpt lat="46.17498" lon="9.92423">
        <ele>492.0</ele>
      </trkpt>
      <trkpt lat="46.17474" lon="9.92558">
        <ele>482.0</ele>
      </trkpt>
      <trkpt lat="46.17462" lon="9.92582">
        <ele>480.0</ele>
      </trkpt>
      <trkpt lat="46.17452" lon="9.92579">
        <ele>479.0</ele>
      </trkpt>
      <trkpt lat="46.17438" lon="9.92345">
        <ele>468.0</ele>
      </trkpt>
      <trkpt lat="46.1741" lon="9.92181">
        <ele>458.0</ele>
      </trkpt>
      <trkpt lat="46.174" lon="9.92178">
        <ele>455.0</ele>
      </trkpt>
      <trkpt lat="46.17402" lon="9.92257">
        <ele>449.0</ele>
      </trkpt>
      <trkpt lat="46.17368" lon="9.92527">
        <ele>435.0</ele>
      </trkpt>
      <trkpt lat="46.17371" lon="9.92665">
        <ele>429.0</ele>
      </trkpt>
      <trkpt lat="46.17323" lon="9.92861">
        <ele>420.0</ele>
      </trkpt>
      <trkpt lat="46.17314" lon="9.92862">
        <ele>419.0</ele>
      </trkpt>
      <trkpt lat="46.17338" lon="9.92667">
        <ele>407.0</ele>
      </trkpt>
      <trkpt lat="46.1732" lon="9.92509">
        <ele>396.0</ele>
      </trkpt>
      <trkpt lat="46.17285" lon="9.92387">
        <ele>390.0</ele>
      </trkpt>
      <trkpt lat="46.17279" lon="9.92272">
        <ele>387.0</ele>
      </trkpt>
      <trkpt lat="46.17299" lon="9.92197">
        <ele>385.0</ele>
      </trkpt>
      <trkpt lat="46.17286" lon="9.92192">
        <ele>384.0</ele>
      </trkpt>
      <trkpt lat="46.17264" lon="9.92349">
        <ele>376.0</ele>
      </trkpt>
      <trkpt lat="46.17287" lon="9.92527">
        <ele>364.0</ele>
      </trkpt>
      <trkpt lat="46.17284" lon="9.92629">
        <ele>360.0</ele>
      </trkpt>
      <trkpt lat="46.17229" lon="9.92846">
        <ele>352.0</ele>
      </trkpt>
      <trkpt lat="46.17226" lon="9.93061">
        <ele>345.0</ele>
      </trkpt>
      <trkpt lat="46.17213" lon="9.9308">
        <ele>342.0</ele>
      </trkpt>
      <trkpt lat="46.17201" lon="9.93074">
        <ele>340.0</ele>
      </trkpt>
      <trkpt lat="46.17209" lon="9.93024">
        <ele>336.0</ele>
      </trkpt>
      <trkpt lat="46.17197" lon="9.93015">
        <ele>335.0</ele>
      </trkpt>
      <trkpt lat="46.17168" lon="9.93069">
        <ele>331.0</ele>
      </trkpt>
      <trkpt lat="46.17084" lon="9.93062">
        <ele>324.0</ele>
      </trkpt>
      <trkpt lat="46.17025" lon="9.93232">
        <ele>312.0</ele>
      </trkpt>
      <trkpt lat="46.16777" lon="9.93242">
        <ele>301.0</ele>
      </trkpt>
      <trkpt lat="46.16738" lon="9.93214">
        <ele>300.0</ele>
      </trkpt>
      <trkpt lat="46.16759" lon="9.93169">
        <ele>300.0</ele>
      </trkpt>
      <trkpt lat="46.16752" lon="9.9315">
        <ele>299.0</ele>
      </trkpt>
      <trkpt lat="46.16621" lon="9.93078">
        <ele>297.0</ele>
      </trkpt>
      <trkpt lat="46.16406" lon="9.9303">
        <ele>296.0</ele>
      </trkpt>
      <trkpt lat="46.16279" lon="9.9297">
        <ele>295.0</ele>
      </trkpt>
      <trkpt lat="46.16164" lon="9.92962">
        <ele>294.0</ele>
      </trkpt>
      <trkpt lat="46.16146" lon="9.92902">
        <ele>294.0</ele>
      </trkpt>
      <trkpt lat="46.16134" lon="9.92746">
        <ele>295.0</ele>
      </trkpt>
      <trkpt lat="46.1616" lon="9.92386">
        <ele>294.0</ele>
      </trkpt>
      <trkpt lat="46.16136" lon="9.92296">
        <ele>294.0</ele>
      </trkpt>
      <trkpt lat="46.16076" lon="9.9219">
        <ele>294.0</ele>
      </trkpt>
      <trkpt lat="46.16061" lon="9.92078">
        <ele>294.0</ele>
      </trkpt>
      <trkpt lat="46.16087" lon="9.91742">
        <ele>296.0</ele>
      </trkpt>
      <trkpt lat="46.16206" lon="9.91575">
        <ele>297.0</ele>
      </trkpt>
      <trkpt lat="46.16273" lon="9.914">
        <ele>299.0</ele>
      </trkpt>
      <trkpt lat="46.16277" lon="9.91366">
        <ele>299.0</ele>
      </trkpt>
      <trkpt lat="46.16213" lon="9.90906">
        <ele>300.0</ele>
      </trkpt>
      <trkpt lat="46.16219" lon="9.90863">
        <ele>299.0</ele>
      </trkpt>
      <trkpt lat="46.16262" lon="9.9078">
        <ele>297.0</ele>
      </trkpt>
      <trkpt lat="46.16233" lon="9.90747">
        <ele>297.0</ele>
      </trkpt>
      <trkpt lat="46.16241" lon="9.9065">
        <ele>295.0</ele>
      </trkpt>
      <trkpt lat="46.16168" lon="9.90439">
        <ele>292.0</ele>
      </trkpt>
      <trkpt lat="46.16139" lon="9.90418">
        <ele>290.0</ele>
      </trkpt>
      <trkpt lat="46.16069" lon="9.90313">
        <ele>288.0</ele>
      </trkpt>
      <trkpt lat="46.15966" lon="9.90058">
        <ele>291.0</ele>
      </trkpt>
      <trkpt lat="46.159" lon="9.90003">
        <ele>296.0</ele>
      </trkpt>
      <trkpt lat="46.15873" lon="9.89859">
        <ele>309.0</ele>
      </trkpt>
      <trkpt lat="46.15853" lon="9.8989">
        <ele>314.0</ele>
      </trkpt>
      <trkpt lat="46.15842" lon="9.8988">
        <ele>316.0</ele>
      </trkpt>
      <trkpt lat="46.15848" lon="9.89708">
        <ele>331.0</ele>
      </trkpt>
      <trkpt lat="46.15776" lon="9.89726">
        <ele>346.0</ele>
      </trkpt>
      <trkpt lat="46.15803" lon="9.89623">
        <ele>353.0</ele>
      </trkpt>
      <trkpt lat="46.15774" lon="9.89583">
        <ele>358.0</ele>
      </trkpt>
      <trkpt lat="46.15767" lon="9.89534">
        <ele>361.0</ele>
      </trkpt>
      <trkpt lat="46.15741" lon="9.8953">
        <ele>366.0</ele>
      </trkpt>
      <trkpt lat="46.15712" lon="9.89463">
        <ele>372.0</ele>
      </trkpt>
      <trkpt lat="46.15704" lon="9.89307">
        <ele>387.0</ele>
      </trkpt>
      <trkpt lat="46.1573" lon="9.89193">
        <ele>402.0</ele>
      </trkpt>
      <trkpt lat="46.15722" lon="9.89134">
        <ele>407.0</ele>
      </trkpt>
      <trkpt lat="46.15674" lon="9.88987">
        <ele>423.0</ele>
      </trkpt>
      <trkpt lat="46.15629" lon="9.88918">
        <ele>425.0</ele>
      </trkpt>
      <trkpt lat="46.15552" lon="9.88848">
        <ele>425.0</ele>
      </trkpt>
      <trkpt lat="46.15456" lon="9.88617">
        <ele>419.0</ele>
      </trkpt>
      <trkpt lat="46.15388" lon="9.88562">
        <ele>417.0</ele>
      </trkpt>
      <trkpt lat="46.15433" lon="9.8844">
        <ele>416.0</ele>
      </trkpt>
      <trkpt lat="46.15423" lon="9.88391">
        <ele>415.0</ele>
      </trkpt>
      <trkpt lat="46.15443" lon="9.88174">
        <ele>413.0</ele>
      </trkpt>
      <trkpt lat="46.15425" lon="9.8804">
        <ele>412.0</ele>
      </trkpt>
      <trkpt lat="46.15432" lon="9.87971">
        <ele>411.0</ele>
      </trkpt>
      <trkpt lat="46.15527" lon="9.87715">
        <ele>400.0</ele>
      </trkpt>
      <trkpt lat="46.15567" lon="9.87427">
        <ele>399.0</ele>
      </trkpt>
      <trkpt lat="46.15571" lon="9.87261">
        <ele>401.0</ele>
      </trkpt>
      <trkpt lat="46.15533" lon="9.87137">
        <ele>401.0</ele>
      </trkpt>
      <trkpt lat="46.15555" lon="9.87009">
        <ele>397.0</ele>
      </trkpt>
      <trkpt lat="46.15546" lon="9.86886">
        <ele>390.0</ele>
      </trkpt>
      <trkpt lat="46.15561" lon="9.86772">
        <ele>380.0</ele>
      </trkpt>
      <trkpt lat="46.15535" lon="9.86639">
        <ele>372.0</ele>
      </trkpt>
      <trkpt lat="46.15507" lon="9.8657">
        <ele>366.0</ele>
      </trkpt>
      <trkpt lat="46.15512" lon="9.8639">
        <ele>362.0</ele>
      </trkpt>
      <trkpt lat="46.1553" lon="9.86239">
        <ele>352.0</ele>
      </trkpt>
      <trkpt lat="46.15557" lon="9.8625">
        <ele>346.0</ele>
      </trkpt>
      <trkpt lat="46.15554" lon="9.86319">
        <ele>342.0</ele>
      </trkpt>
      <trkpt lat="46.15597" lon="9.86423">
        <ele>336.0</ele>
      </trkpt>
      <trkpt lat="46.15613" lon="9.86568">
        <ele>333.0</ele>
      </trkpt>
      <trkpt lat="46.15631" lon="9.8661">
        <ele>332.0</ele>
      </trkpt>
      <trkpt lat="46.15699" lon="9.86613">
        <ele>326.0</ele>
      </trkpt>
      <trkpt lat="46.15738" lon="9.86762">
        <ele>315.0</ele>
      </trkpt>
      <trkpt lat="46.15795" lon="9.86882">
        <ele>299.0</ele>
      </trkpt>
      <trkpt lat="46.15815" lon="9.86859">
        <ele>296.0</ele>
      </trkpt>
      <trkpt lat="46.15816" lon="9.86779">
        <ele>290.0</ele>
      </trkpt>
      <trkpt lat="46.15832" lon="9.86757">
        <ele>289.0</ele>
      </trkpt>
      <trkpt lat="46.15934" lon="9.86838">
        <ele>288.0</ele>
      </trkpt>
      <trkpt lat="46.15977" lon="9.86827">
        <ele>288.0</ele>
      </trkpt>
      <trkpt lat="46.16121" lon="9.86834">
        <ele>287.0</ele>
      </trkpt>
      <trkpt lat="46.16145" lon="9.86849">
        <ele>287.0</ele>
      </trkpt>
      <trkpt lat="46.16173" lon="9.86836">
        <ele>287.0</ele>
      </trkpt>
      <trkpt lat="46.16537" lon="9.86854">
        <ele>294.0</ele>
      </trkpt>
      <trkpt lat="46.16747" lon="9.86895">
        <ele>299.0</ele>
      </trkpt>
      <trkpt lat="46.17022" lon="9.86975">
        <ele>306.0</ele>
      </trkpt>
    </trkseg>
  </trk>
</gpx>