<?xml version="1.0" encoding="UTF-8"?>
<gpx xmlns="http://www.topografix.com/GPX/1/0" xmlns:xsi="http://www.w3.org/2001/XMLSchema-instance" xsi:schemaLocation="http://www.topografix.com/GPX/1/0 http://www.topografix.com/GPX/1/0/gpx.xsd" version="1.0" creator="GPSBabel - https://www.gpsbabel.org">
  <time>2026-04-15T14:12:54.199000Z</time>
  <bounds minlat="47.22603" maxlat="47.31333" minlon="10.9562" maxlon="11.40517" />
  <trk>
    <trkseg>
      <trkpt lat="47.25001" lon="11.36283">
        <ele>588.0</ele>
      </trkpt>
      <trkpt lat="47.25001" lon="11.35661">
        <ele>592.0</ele>
      </trkpt>
      <trkpt lat="47.25004" lon="11.34846">
        <ele>613.0</ele>
      </trkpt>
      <trkpt lat="47.25054" lon="11.34372">
        <ele>627.0</ele>
      </trkpt>
      <trkpt lat="47.2512" lon="11.34064">
        <ele>617.0</ele>
      </trkpt>
      <trkpt lat="47.25148" lon="11.33862">
        <ele>602.0</ele>
      </trkpt>
      <trkpt lat="47.25324" lon="11.33506">
        <ele>589.0</ele>
      </trkpt>
      <trkpt lat="47.25537" lon="11.32851">
        <ele>583.0</ele>
      </trkpt>
      <trkpt lat="47.25514" lon="11.32602">
        <ele>580.0</ele>
      </trkpt>
      <trkpt lat="47.25536" lon="11.32398">
        <ele>580.0</ele>
      </trkpt>
      <trkpt lat="47.2562" lon="11.32115">
        <ele>580.0</ele>
      </trkpt>
      <trkpt lat="47.25637" lon="11.32003">
        <ele>580.0</ele>
      </trkpt>
      <trkpt lat="47.25682" lon="11.31807">
        <ele>582.0</ele>
      </trkpt>
      <trkpt lat="47.25627" lon="11.31554">
        <ele>581.0</ele>
      </trkpt>
      <trkpt lat="47.25646" lon="11.313">
        <ele>580.0</ele>
      </trkpt>
      <trkpt lat="47.2569" lon="11.30908">
        <ele>582.0</ele>
      </trkpt>
      <trkpt lat="47.25708" lon="11.30076">
        <ele>581.0</ele>
      </trkpt>
      <trkpt lat="47.25743" lon="11.2911">
        <ele>582.0</ele>
      </trkpt>
      <trkpt lat="47.25877" lon="11.2849">
        <ele>586.0</ele>
      </trkpt>
      <trkpt lat="47.25987" lon="11.28095">
        <ele>590.0</ele>
      </trkpt>
      <trkpt lat="47.26001" lon="11.28014">
        <ele>590.0</ele>
      </trkpt>
      <trkpt lat="47.26006" lon="11.27974">
        <ele>591.0</ele>
      </trkpt>
      <trkpt lat="47.26011" lon="11.27947">
        <ele>592.0</ele>
      </trkpt>
      <trkpt lat="47.25998" lon="11.27919">
        <ele>592.0</ele>
      </trkpt>
      <trkpt lat="47.25967" lon="11.2783">
        <ele>593.0</ele>
      </trkpt>
      <trkpt lat="47.25897" lon="11.27747">
        <ele>595.0</ele>
      </trkpt>
      <trkpt lat="47.25825" lon="11.27689">
        <ele>596.0</ele>
      </trkpt>
      <trkpt lat="47.25775" lon="11.27635">
        <ele>597.0</ele>
      </trkpt>
      <trkpt lat="47.25678" lon="11.2749">
        <ele>601.0</ele>
      </trkpt>
      <trkpt lat="47.25583" lon="11.27345">
        <ele>604.0</ele>
      </trkpt>
      <trkpt lat="47.25555" lon="11.27318">
        <ele>605.0</ele>
      </trkpt>
      <trkpt lat="47.25516" lon="11.273">
        <ele>607.0</ele>
      </trkpt>
      <trkpt lat="47.25479" lon="11.27298">
        <ele>607.0</ele>
      </trkpt>
      <trkpt lat="47.25454" lon="11.27285">
        <ele>607.0</ele>
      </trkpt>
      <trkpt lat="47.25442" lon="11.27264">
        <ele>607.0</ele>
      </trkpt>
      <trkpt lat="47.25428" lon="11.27221">
        <ele>609.0</ele>
      </trkpt>
      <trkpt lat="47.2541" lon="11.27205">
        <ele>609.0</ele>
      </trkpt>
      <trkpt lat="47.25394" lon="11.272">
        <ele>610.0</ele>
      </trkpt>
      <trkpt lat="47.25352" lon="11.272">
        <ele>611.0</ele>
      </trkpt>
      <trkpt lat="47.25302" lon="11.27177">
        <ele>611.0</ele>
      </trkpt>
      <trkpt lat="47.25273" lon="11.2716">
        <ele>612.0</ele>
      </trkpt>
      <trkpt lat="47.25205" lon="11.27106">
        <ele>615.0</ele>
      </trkpt>
      <trkpt lat="47.25131" lon="11.26988">
        <ele>618.0</ele>
      </trkpt>
      <trkpt lat="47.2503" lon="11.26897">
        <ele>623.0</ele>
      </trkpt>
      <trkpt lat="47.25054" lon="11.26729">
        <ele>625.0</ele>
      </trkpt>
      <trkpt lat="47.2531" lon="11.266">
        <ele>619.0</ele>
      </trkpt>
      <trkpt lat="47.25319" lon="11.26543">
        <ele>618.0</ele>
      </trkpt>
      <trkpt lat="47.25327" lon="11.26465">
        <ele>617.0</ele>
      </trkpt>
      <trkpt lat="47.25505" lon="11.26324">
        <ele>609.0</ele>
      </trkpt>
      <trkpt lat="47.25671" lon="11.26177">
        <ele>605.0</ele>
      </trkpt>
      <trkpt lat="47.25789" lon="11.26079">
        <ele>603.0</ele>
      </trkpt>
      <trkpt lat="47.2582" lon="11.26052">
        <ele>602.0</ele>
      </trkpt>
      <trkpt lat="47.2587" lon="11.2602">
        <ele>602.0</ele>
      </trkpt>
      <trkpt lat="47.25915" lon="11.25989">
        <ele>600.0</ele>
      </trkpt>
      <trkpt lat="47.25942" lon="11.25962">
        <ele>598.0</ele>
      </trkpt>
      <trkpt lat="47.25966" lon="11.25923">
        <ele>597.0</ele>
      </trkpt>
      <trkpt lat="47.25986" lon="11.25867">
        <ele>596.0</ele>
      </trkpt>
      <trkpt lat="47.26003" lon="11.25817">
        <ele>595.0</ele>
      </trkpt>
      <trkpt lat="47.26073" lon="11.25663">
        <ele>594.0</ele>
      </trkpt>
      <trkpt lat="47.26107" lon="11.25443">
        <ele>591.0</ele>
      </trkpt>
      <trkpt lat="47.26069" lon="11.24987">
        <ele>592.0</ele>
      </trkpt>
      <trkpt lat="47.2614" lon="11.24239">
        <ele>605.0</ele>
      </trkpt>
      <trkpt lat="47.26236" lon="11.2384">
        <ele>601.0</ele>
      </trkpt>
      <trkpt lat="47.26232" lon="11.23418">
        <ele>596.0</ele>
      </trkpt>
      <trkpt lat="47.26252" lon="11.23011">
        <ele>594.0</ele>
      </trkpt>
      <trkpt lat="47.26322" lon="11.22821">
        <ele>598.0</ele>
      </trkpt>
      <trkpt lat="47.26502" lon="11.22548">
        <ele>595.0</ele>
      </trkpt>
      <trkpt lat="47.2659" lon="11.22489">
        <ele>595.0</ele>
      </trkpt>
      <trkpt lat="47.26608" lon="11.22467">
        <ele>596.0</ele>
      </trkpt>
      <trkpt lat="47.26653" lon="11.22324">
        <ele>596.0</ele>
      </trkpt>
      <trkpt lat="47.26675" lon="11.22118">
        <ele>596.0</ele>
      </trkpt>
      <trkpt lat="47.26693" lon="11.22032">
        <ele>596.0</ele>
      </trkpt>
      <trkpt lat="47.2673" lon="11.21907">
        <ele>597.0</ele>
      </trkpt>
      <trkpt lat="47.26748" lon="11.21824">
        <ele>597.0</ele>
      </trkpt>
      <trkpt lat="47.26779" lon="11.21698">
        <ele>596.0</ele>
      </trkpt>
      <trkpt lat="47.26827" lon="11.21562">
        <ele>596.0</ele>
      </trkpt>
      <trkpt lat="47.26846" lon="11.21497">
        <ele>596.0</ele>
      </trkpt>
      <trkpt lat="47.26868" lon="11.21379">
        <ele>596.0</ele>
      </trkpt>
      <trkpt lat="47.26911" lon="11.21163">
        <ele>598.0</ele>
      </trkpt>
      <trkpt lat="47.26973" lon="11.21042">
        <ele>599.0</ele>
      </trkpt>
      <trkpt lat="47.26995" lon="11.20983">
        <ele>601.0</ele>
      </trkpt>
      <trkpt lat="47.27002" lon="11.20939">
        <ele>602.0</ele>
      </trkpt>
      <trkpt lat="47.2699" lon="11.20726">
        <ele>605.0</ele>
      </trkpt>
      <trkpt lat="47.26989" lon="11.2063">
        <ele>608.0</ele>
      </trkpt>
      <trkpt lat="47.27001" lon="11.20577">
        <ele>608.0</ele>
      </trkpt>
      <trkpt lat="47.27034" lon="11.20475">
        <ele>606.0</ele>
      </trkpt>
      <trkpt lat="47.27064" lon="11.20364">
        <ele>604.0</ele>
      </trkpt>
      <trkpt lat="47.27096" lon="11.20237">
        <ele>602.0</ele>
      </trkpt>
      <trkpt lat="47.27119" lon="11.20181">
        <ele>603.0</ele>
      </trkpt>
      <trkpt lat="47.27178" lon="11.20097">
        <ele>604.0</ele>
      </trkpt>
      <trkpt lat="47.27219" lon="11.20033">
        <ele>605.0</ele>
      </trkpt>
      <trkpt lat="47.27295" lon="11.19942">
        <ele>606.0</ele>
      </trkpt>
      <trkpt lat="47.27371" lon="11.19798">
        <ele>606.0</ele>
      </trkpt>
      <trkpt lat="47.27409" lon="11.19679">
        <ele>608.0</ele>
      </trkpt>
      <trkpt lat="47.27489" lon="11.19536">
        <ele>610.0</ele>
      </trkpt>
      <trkpt lat="47.27523" lon="11.19431">
        <ele>612.0</ele>
      </trkpt>
      <trkpt lat="47.27558" lon="11.19344">
        <ele>613.0</ele>
      </trkpt>
      <trkpt lat="47.27603" lon="11.19223">
        <ele>616.0</ele>
      </trkpt>
      <trkpt lat="47.27672" lon="11.18959">
        <ele>617.0</ele>
      </trkpt>
      <trkpt lat="47.27687" lon="11.1807">
        <ele>620.0</ele>
      </trkpt>
      <trkpt lat="47.27629" lon="11.17696">
        <ele>615.0</ele>
      </trkpt>
      <trkpt lat="47.27609" lon="11.17562">
        <ele>612.0</ele>
      </trkpt>
      <trkpt lat="47.27607" lon="11.17446">
        <ele>608.0</ele>
      </trkpt>
      <trkpt lat="47.27621" lon="11.17319">
        <ele>607.0</ele>
      </trkpt>
      <trkpt lat="47.27663" lon="11.1716">
        <ele>606.0</ele>
      </trkpt>
      <trkpt lat="47.2774" lon="11.16909">
        <ele>611.0</ele>
      </trkpt>
      <trkpt lat="47.2778" lon="11.16787">
        <ele>613.0</ele>
      </trkpt>
      <trkpt lat="47.2779" lon="11.16719">
        <ele>614.0</ele>
      </trkpt>
      <trkpt lat="47.27795" lon="11.16668">
        <ele>613.0</ele>
      </trkpt>
      <trkpt lat="47.2781" lon="11.16611">
        <ele>612.0</ele>
      </trkpt>
      <trkpt lat="47.27836" lon="11.16493">
        <ele>609.0</ele>
      </trkpt>
      <trkpt lat="47.27913" lon="11.16228">
        <ele>608.0</ele>
      </trkpt>
      <trkpt lat="47.28019" lon="11.15817">
        <ele>612.0</ele>
      </trkpt>
      <trkpt lat="47.28022" lon="11.15624">
        <ele>613.0</ele>
      </trkpt>
      <trkpt lat="47.28026" lon="11.15462">
        <ele>611.0</ele>
      </trkpt>
      <trkpt lat="47.28093" lon="11.15288">
        <ele>612.0</ele>
      </trkpt>
      <trkpt lat="47.28127" lon="11.1517">
        <ele>614.0</ele>
      </trkpt>
      <trkpt lat="47.2813" lon="11.15052">
        <ele>618.0</ele>
      </trkpt>
      <trkpt lat="47.28195" lon="11.1494">
        <ele>616.0</ele>
      </trkpt>
      <trkpt lat="47.28268" lon="11.14754">
        <ele>613.0</ele>
      </trkpt>
      <trkpt lat="47.28354" lon="11.14527">
        <ele>611.0</ele>
      </trkpt>
      <trkpt lat="47.28538" lon="11.14238">
        <ele>609.0</ele>
      </trkpt>
      <trkpt lat="47.28685" lon="11.13838">
        <ele>608.0</ele>
      </trkpt>
      <trkpt lat="47.28765" lon="11.13393">
        <ele>610.0</ele>
      </trkpt>
      <trkpt lat="47.28978" lon="11.12699">
        <ele>631.0</ele>
      </trkpt>
      <trkpt lat="47.29051" lon="11.12552">
        <ele>644.0</ele>
      </trkpt>
      <trkpt lat="47.29077" lon="11.12468">
        <ele>650.0</ele>
      </trkpt>
      <trkpt lat="47.29154" lon="11.12403">
        <ele>655.0</ele>
      </trkpt>
      <trkpt lat="47.29241" lon="11.12226">
        <ele>659.0</ele>
      </trkpt>
      <trkpt lat="47.29319" lon="11.12012">
        <ele>661.0</ele>
      </trkpt>
      <trkpt lat="47.29407" lon="11.11773">
        <ele>656.0</ele>
      </trkpt>
      <trkpt lat="47.29615" lon="11.11369">
        <ele>634.0</ele>
      </trkpt>
      <trkpt lat="47.29927" lon="11.10725">
        <ele>619.0</ele>
      </trkpt>
      <trkpt lat="47.29997" lon="11.1034">
        <ele>618.0</ele>
      </trkpt>
      <trkpt lat="47.29998" lon="11.10084">
        <ele>619.0</ele>
      </trkpt>
      <trkpt lat="47.3" lon="11.0977">
        <ele>620.0</ele>
      </trkpt>
      <trkpt lat="47.30001" lon="11.09569">
        <ele>622.0</ele>
      </trkpt>
      <trkpt lat="47.29996" lon="11.09486">
        <ele>623.0</ele>
      </trkpt>
      <trkpt lat="47.29995" lon="11.09403">
        <ele>622.0</ele>
      </trkpt>
      <trkpt lat="47.29973" lon="11.09072">
        <ele>625.0</ele>
      </trkpt>
      <trkpt lat="47.29946" lon="11.08742">
        <ele>632.0</ele>
      </trkpt>
      <trkpt lat="47.29934" lon="11.08602">
        <ele>642.0</ele>
      </trkpt>
      <trkpt lat="47.29925" lon="11.08384">
        <ele>644.0</ele>
      </trkpt>
      <trkpt lat="47.29897" lon="11.08321">
        <ele>645.0</ele>
      </trkpt>
      <trkpt lat="47.29895" lon="11.08227">
        <ele>646.0</ele>
      </trkpt>
      <trkpt lat="47.29903" lon="11.08143">
        <ele>641.0</ele>
      </trkpt>
      <trkpt lat="47.29915" lon="11.08056">
        <ele>638.0</ele>
      </trkpt>
      <trkpt lat="47.2995" lon="11.07869">
        <ele>630.0</ele>
      </trkpt>
      <trkpt lat="47.29968" lon="11.07556">
        <ele>624.0</ele>
      </trkpt>
      <trkpt lat="47.30029" lon="11.07357">
        <ele>622.0</ele>
      </trkpt>
      <trkpt lat="47.30024" lon="11.07127">
        <ele>624.0</ele>
      </trkpt>
      <trkpt lat="47.29944" lon="11.06688">
        <ele>623.0</ele>
      </trkpt>
      <trkpt lat="47.29886" lon="11.0651">
        <ele>624.0</ele>
      </trkpt>
      <trkpt lat="47.29859" lon="11.06504">
        <ele>624.0</ele>
      </trkpt>
      <trkpt lat="47.29863" lon="11.06546">
        <ele>624.0</ele>
      </trkpt>
      <trkpt lat="47.29856" lon="11.06762">
        <ele>625.0</ele>
      </trkpt>
      <trkpt lat="47.29917" lon="11.06977">
        <ele>626.0</ele>
      </trkpt>
      <trkpt lat="47.29981" lon="11.07032">
        <ele>626.0</ele>
      </trkpt>
      <trkpt lat="47.30205" lon="11.07034">
        <ele>625.0</ele>
      </trkpt>
      <trkpt lat="47.30284" lon="11.07042">
        <ele>628.0</ele>
      </trkpt>
      <trkpt lat="47.30304" lon="11.07035">
        <ele>628.0</ele>
      </trkpt>
      <trkpt lat="47.3029" lon="11.06996">
        <ele>628.0</ele>
      </trkpt>
      <trkpt lat="47.30273" lon="11.0689">
        <ele>627.0</ele>
      </trkpt>
      <trkpt lat="47.30283" lon="11.06839">
        <ele>626.0</ele>
      </trkpt>
      <trkpt lat="47.3041" lon="11.06756">
        <ele>624.0</ele>
      </trkpt>
      <trkpt lat="47.30595" lon="11.06673">
        <ele>626.0</ele>
      </trkpt>
      <trkpt lat="47.30775" lon="11.06727">
        <ele>635.0</ele>
      </trkpt>
      <trkpt lat="47.30788" lon="11.06748">
        <ele>638.0</ele>
      </trkpt>
      <trkpt lat="47.30804" lon="11.06735">
        <ele>639.0</ele>
      </trkpt>
      <trkpt lat="47.30866" lon="11.06676">
        <ele>642.0</ele>
      </trkpt>
      <trkpt lat="47.30945" lon="11.06607">
        <ele>646.0</ele>
      </trkpt>
      <trkpt lat="47.31013" lon="11.06523">
        <ele>650.0</ele>
      </trkpt>
      <trkpt lat="47.31034" lon="11.06481">
        <ele>651.0</ele>
      </trkpt>
      <trkpt lat="47.31018" lon="11.06409">
        <ele>653.0</ele>
      </trkpt>
      <trkpt lat="47.3101" lon="11.06257">
        <ele>655.0</ele>
      </trkpt>
      <trkpt lat="47.31003" lon="11.06121">
        <ele>657.0</ele>
      </trkpt>
      <trkpt lat="47.30965" lon="11.0584">
        <ele>659.0</ele>
      </trkpt>
      <trkpt lat="47.30918" lon="11.05711">
        <ele>667.0</ele>
      </trkpt>
      <trkpt lat="47.308" lon="11.05474">
        <ele>696.0</ele>
      </trkpt>
      <trkpt lat="47.30787" lon="11.05357">
        <ele>717.0</ele>
      </trkpt>
      <trkpt lat="47.30808" lon="11.05106">
        <ele>722.0</ele>
      </trkpt>
      <trkpt lat="47.30794" lon="11.0501">
        <ele>725.0</ele>
      </trkpt>
      <trkpt lat="47.30731" lon="11.04821">
        <ele>738.0</ele>
      </trkpt>
      <trkpt lat="47.30735" lon="11.04592">
        <ele>741.0</ele>
      </trkpt>
      <trkpt lat="47.30734" lon="11.04487">
        <ele>742.0</ele>
      </trkpt>
      <trkpt lat="47.30693" lon="11.04305">
        <ele>746.0</ele>
      </trkpt>
      <trkpt lat="47.30618" lon="11.03973">
        <ele>755.0</ele>
      </trkpt>
      <trkpt lat="47.30641" lon="11.03715">
        <ele>758.0</ele>
      </trkpt>
      <trkpt lat="47.30708" lon="11.03468">
        <ele>762.0</ele>
      </trkpt>
      <trkpt lat="47.30793" lon="11.03302">
        <ele>767.0</ele>
      </trkpt>
      <trkpt lat="47.30936" lon="11.0313">
        <ele>774.0</ele>
      </trkpt>
      <trkpt lat="47.31094" lon="11.02855">
        <ele>780.0</ele>
      </trkpt>
      <trkpt lat="47.31116" lon="11.02495">
        <ele>783.0</ele>
      </trkpt>
      <trkpt lat="47.31138" lon="11.02185">
        <ele>794.0</ele>
      </trkpt>
      <trkpt lat="47.31228" lon="11.01855">
        <ele>801.0</ele>
      </trkpt>
      <trkpt lat="47.31314" lon="11.01081">
        <ele>815.0</ele>
      </trkpt>
      <trkpt lat="47.31328" lon="11.00759">
        <ele>832.0</ele>
      </trkpt>
      <trkpt lat="47.31282" lon="11.00544">
        <ele>840.0</ele>
      </trkpt>
      <trkpt lat="47.3123" lon="11.00421">
        <ele>845.0</ele>
      </trkpt>
      <trkpt lat="47.31144" lon="11.00226">
        <ele>850.0</ele>
      </trkpt>
      <trkpt lat="47.3104" lon="10.99978">
        <ele>854.0</ele>
      </trkpt>
      <trkpt lat="47.30857" lon="10.9959">
        <ele>858.0</ele>
      </trkpt>
      <trkpt lat="47.3068" lon="10.99205">
        <ele>861.0</ele>
      </trkpt>
      <trkpt lat="47.30532" lon="10.98942">
        <ele>864.0</ele>
      </trkpt>
      <trkpt lat="47.30481" lon="10.98786">
        <ele>867.0</ele>
      </trkpt>
      <trkpt lat="47.30471" lon="10.98703">
        <ele>870.0</ele>
      </trkpt>
      <trkpt lat="47.30451" lon="10.98546">
        <ele>870.0</ele>
      </trkpt>
      <trkpt lat="47.30444" lon="10.98464">
        <ele>869.0</ele>
      </trkpt>
      <trkpt lat="47.3045" lon="10.98341">
        <ele>869.0</ele>
      </trkpt>
      <trkpt lat="47.30558" lon="10.98017">
        <ele>874.0</ele>
      </trkpt>
      <trkpt lat="47.30584" lon="10.97929">
        <ele>876.0</ele>
      </trkpt>
      <trkpt lat="47.30591" lon="10.97826">
        <ele>876.0</ele>
      </trkpt>
      <trkpt lat="47.30581" lon="10.97631">
        <ele>877.0</ele>
      </trkpt>
      <trkpt lat="47.30567" lon="10.97442">
        <ele>877.0</ele>
      </trkpt>
      <trkpt lat="47.30538" lon="10.97291">
        <ele>877.0</ele>
      </trkpt>
      <trkpt lat="47.30476" lon="10.9708">
        <ele>874.0</ele>
      </trkpt>
      <trkpt lat="47.30468" lon="10.96862">
        <ele>872.0</ele>
      </trkpt>
      <trkpt lat="47.30495" lon="10.96717">
        <ele>877.0</ele>
      </trkpt>
      <trkpt lat="47.30508" lon="10.96569">
        <ele>878.0</ele>
      </trkpt>
      <trkpt lat="47.30495" lon="10.96467">
        <ele>876.0</ele>
      </trkpt>
      <trkpt lat="47.3043" lon="10.96299">
        <ele>875.0</ele>
      </trkpt>
      <trkpt lat="47.30375" lon="10.96167">
        <ele>877.0</ele>
      </trkpt>
      <trkpt lat="47.30357" lon="10.96159">
        <ele>877.0</ele>
      </trkpt>
      <trkpt lat="47.30351" lon="10.96184">
        <ele>876.0</ele>
      </trkpt>
      <trkpt lat="47.30308" lon="10.96251">
        <ele>875.0</ele>
      </trkpt>
      <trkpt lat="47.30219" lon="10.9629">
        <ele>871.0</ele>
      </trkpt>
      <trkpt lat="47.30099" lon="10.96237">
        <ele>865.0</ele>
      </trkpt>
      <trkpt lat="47.30046" lon="10.96222">
        <ele>861.0</ele>
      </trkpt>
      <trkpt lat="47.29975" lon="10.96165">
        <ele>851.0</ele>
      </trkpt>
      <trkpt lat="47.29878" lon="10.96185">
        <ele>839.0</ele>
      </trkpt>
      <trkpt lat="47.29798" lon="10.96467">
        <ele>829.0</ele>
      </trkpt>
      <trkpt lat="47.29706" lon="10.96783">
        <ele>827.0</ele>
      </trkpt>
      <trkpt lat="47.2958" lon="10.96929">
        <ele>816.0</ele>
      </trkpt>
      <trkpt lat="47.29436" lon="10.96975">
        <ele>812.0</ele>
      </trkpt>
      <trkpt lat="47.29245" lon="10.96903">
        <ele>810.0</ele>
      </trkpt>
      <trkpt lat="47.28918" lon="10.96728">
        <ele>796.0</ele>
      </trkpt>
      <trkpt lat="47.28718" lon="10.96683">
        <ele>785.0</ele>
      </trkpt>
      <trkpt lat="47.28566" lon="10.96475">
        <ele>772.0</ele>
      </trkpt>
      <trkpt lat="47.28486" lon="10.9631">
        <ele>757.0</ele>
      </trkpt>
      <trkpt lat="47.28419" lon="10.96201">
        <ele>751.0</ele>
      </trkpt>
      <trkpt lat="47.28411" lon="10.96102">
        <ele>748.0</ele>
      </trkpt>
      <trkpt lat="47.28448" lon="10.96018">
        <ele>743.0</ele>
      </trkpt>
      <trkpt lat="47.28541" lon="10.95966">
        <ele>737.0</ele>
      </trkpt>
      <trkpt lat="47.28725" lon="10.95833">
        <ele>725.0</ele>
      </trkpt>
      <trkpt lat="47.28843" lon="10.95756">
        <ele>712.0</ele>
      </trkpt>
      <trkpt lat="47.28858" lon="10.95683">
        <ele>706.0</ele>
      </trkpt>
      <trkpt lat="47.28808" lon="10.9562">
        <ele>703.0</ele>
      </trkpt>
      <trkpt lat="47.2876" lon="10.95655">
        <ele>702.0</ele>
      </trkpt>
      <trkpt lat="47.28725" lon="10.95743">
        <ele>702.0</ele>
      </trkpt>
      <trkpt lat="47.28678" lon="10.95802">
        <ele>701.0</ele>
      </trkpt>
      <trkpt lat="47.28513" lon="10.95827">
        <ele>700.0</ele>
      </trkpt>
      <trkpt lat="47.28327" lon="10.95846">
        <ele>690.0</ele>
      </trkpt>
      <trkpt lat="47.28202" lon="10.95895">
        <ele>680.0</ele>
      </trkpt>
      <trkpt lat="47.28067" lon="10.95849">
        <ele>669.0</ele>
      </trkpt>
      <trkpt lat="47.27997" lon="10.95856">
        <ele>662.0</ele>
      </trkpt>
      <trkpt lat="47.27842" lon="10.96076">
        <ele>649.0</ele>
      </trkpt>
      <trkpt lat="47.27769" lon="10.96244">
        <ele>647.0</ele>
      </trkpt>
      <trkpt lat="47.27663" lon="10.96396">
        <ele>646.0</ele>
      </trkpt>
      <trkpt lat="47.27616" lon="10.96504">
        <ele>643.0</ele>
      </trkpt>
      <trkpt lat="47.27663" lon="10.96586">
        <ele>642.0</ele>
      </trkpt>
      <trkpt lat="47.27737" lon="10.96582">
        <ele>640.0</ele>
      </trkpt>
      <trkpt lat="47.278" lon="10.96758">
        <ele>639.0</ele>
      </trkpt>
      <trkpt lat="47.2795" lon="10.9727">
        <ele>638.0</ele>
      </trkpt>
      <trkpt lat="47.28014" lon="10.97653">
        <ele>638.0</ele>
      </trkpt>
      <trkpt lat="47.28065" lon="10.98154">
        <ele>638.0</ele>
      </trkpt>
      <trkpt lat="47.28086" lon="10.9829">
        <ele>638.0</ele>
      </trkpt>
      <trkpt lat="47.28084" lon="10.98314">
        <ele>638.0</ele>
      </trkpt>
      <trkpt lat="47.28111" lon="10.98339">
        <ele>638.0</ele>
      </trkpt>
      <trkpt lat="47.28157" lon="10.98466">
        <ele>637.0</ele>
      </trkpt>
      <trkpt lat="47.28269" lon="10.98964">
        <ele>633.0</ele>
      </trkpt>
      <trkpt lat="47.28335" lon="10.99347">
        <ele>634.0</ele>
      </trkpt>
      <trkpt lat="47.28599" lon="11.00383">
        <ele>633.0</ele>
      </trkpt>
      <trkpt lat="47.28715" lon="11.00865">
        <ele>633.0</ele>
      </trkpt>
      <trkpt lat="47.28816" lon="11.01285">
        <ele>634.0</ele>
      </trkpt>
      <trkpt lat="47.28901" lon="11.01452">
        <ele>633.0</ele>
      </trkpt>
      <trkpt lat="47.29012" lon="11.01623">
        <ele>633.0</ele>
      </trkpt>
      <trkpt lat="47.29071" lon="11.01828">
        <ele>634.0</ele>
      </trkpt>
      <trkpt lat="47.29179" lon="11.02437">
        <ele>633.0</ele>
      </trkpt>
      <trkpt lat="47.29197" lon="11.02568">
        <ele>634.0</ele>
      </trkpt>
      <trkpt lat="47.29214" lon="11.02734">
        <ele>634.0</ele>
      </trkpt>
      <trkpt lat="47.29208" lon="11.03193">
        <ele>631.0</ele>
      </trkpt>
      <trkpt lat="47.29194" lon="11.04029">
        <ele>628.0</ele>
      </trkpt>
      <trkpt lat="47.29225" lon="11.04215">
        <ele>627.0</ele>
      </trkpt>
      <trkpt lat="47.29298" lon="11.04563">
        <ele>626.0</ele>
      </trkpt>
      <trkpt lat="47.29324" lon="11.04878">
        <ele>626.0</ele>
      </trkpt>
      <trkpt lat="47.29419" lon="11.05288">
        <ele>624.0</ele>
      </trkpt>
      <trkpt lat="47.295" lon="11.05684">
        <ele>625.0</ele>
      </trkpt>
      <trkpt lat="47.29554" lon="11.0586">
        <ele>628.0</ele>
      </trkpt>
      <trkpt lat="47.29637" lon="11.05986">
        <ele>630.0</ele>
      </trkpt>
      <trkpt lat="47.29741" lon="11.06132">
        <ele>629.0</ele>
      </trkpt>
      <trkpt lat="47.29818" lon="11.06288">
        <ele>626.0</ele>
      </trkpt>
      <trkpt lat="47.29863" lon="11.06494">
        <ele>624.0</ele>
      </trkpt>
      <trkpt lat="47.29856" lon="11.06535">
        <ele>624.0</ele>
      </trkpt>
      <trkpt lat="47.29864" lon="11.0663">
        <ele>624.0</ele>
      </trkpt>
      <trkpt lat="47.29891" lon="11.06936">
        <ele>626.0</ele>
      </trkpt>
      <trkpt lat="47.29963" lon="11.07023">
        <ele>626.0</ele>
      </trkpt>
      <trkpt lat="47.30065" lon="11.07046">
        <ele>625.0</ele>
      </trkpt>
      <trkpt lat="47.30254" lon="11.07032">
        <ele>627.0</ele>
      </trkpt>
      <trkpt lat="47.30302" lon="11.0704">
        <ele>628.0</ele>
      </trkpt>
      <trkpt lat="47.30298" lon="11.07011">
        <ele>628.0</ele>
      </trkpt>
      <trkpt lat="47.30278" lon="11.06929">
        <ele>627.0</ele>
      </trkpt>
      <trkpt lat="47.30282" lon="11.06848">
        <ele>626.0</ele>
      </trkpt>
      <trkpt lat="47.30399" lon="11.0676">
        <ele>624.0</ele>
      </trkpt>
      <trkpt lat="47.30494" lon="11.06724">
        <ele>625.0</ele>
      </trkpt>
      <trkpt lat="47.30759" lon="11.06714">
        <ele>633.0</ele>
      </trkpt>
      <trkpt lat="47.30784" lon="11.06743">
        <ele>638.0</ele>
      </trkpt>
      <trkpt lat="47.30803" lon="11.0674">
        <ele>639.0</ele>
      </trkpt>
      <trkpt lat="47.30844" lon="11.06692">
        <ele>641.0</ele>
      </trkpt>
      <trkpt lat="47.30921" lon="11.06645">
        <ele>645.0</ele>
      </trkpt>
      <trkpt lat="47.30991" lon="11.06546">
        <ele>649.0</ele>
      </trkpt>
      <trkpt lat="47.31033" lon="11.06486">
        <ele>651.0</ele>
      </trkpt>
      <trkpt lat="47.31023" lon="11.06427">
        <ele>652.0</ele>
      </trkpt>
      <trkpt lat="47.31015" lon="11.06329">
        <ele>654.0</ele>
      </trkpt>
      <trkpt lat="47.31006" lon="11.06164">
        <ele>657.0</ele>
      </trkpt>
      <trkpt lat="47.30975" lon="11.05912">
        <ele>658.0</ele>
      </trkpt>
      <trkpt lat="47.30925" lon="11.05726">
        <ele>665.0</ele>
      </trkpt>
      <trkpt lat="47.30816" lon="11.05509">
        <ele>687.0</ele>
      </trkpt>
      <trkpt lat="47.30787" lon="11.05403">
        <ele>710.0</ele>
      </trkpt>
      <trkpt lat="47.30805" lon="11.05155">
        <ele>722.0</ele>
      </trkpt>
      <trkpt lat="47.30799" lon="11.05029">
        <ele>724.0</ele>
      </trkpt>
      <trkpt lat="47.30737" lon="11.04862">
        <ele>734.0</ele>
      </trkpt>
      <trkpt lat="47.3073" lon="11.0472">
        <ele>740.0</ele>
      </trkpt>
      <trkpt lat="47.30734" lon="11.04487">
        <ele>742.0</ele>
      </trkpt>
      <trkpt lat="47.30702" lon="11.04341">
        <ele>745.0</ele>
      </trkpt>
      <trkpt lat="47.30628" lon="11.04046">
        <ele>753.0</ele>
      </trkpt>
      <trkpt lat="47.30622" lon="11.03807">
        <ele>758.0</ele>
      </trkpt>
      <trkpt lat="47.30694" lon="11.0351">
        <ele>761.0</ele>
      </trkpt>
      <trkpt lat="47.30786" lon="11.03313">
        <ele>766.0</ele>
      </trkpt>
      <trkpt lat="47.3092" lon="11.03149">
        <ele>773.0</ele>
      </trkpt>
      <trkpt lat="47.31082" lon="11.02917">
        <ele>779.0</ele>
      </trkpt>
      <trkpt lat="47.3111" lon="11.02593">
        <ele>781.0</ele>
      </trkpt>
      <trkpt lat="47.31132" lon="11.02229">
        <ele>791.0</ele>
      </trkpt>
      <trkpt lat="47.31209" lon="11.01913">
        <ele>800.0</ele>
      </trkpt>
      <trkpt lat="47.31259" lon="11.01723">
        <ele>805.0</ele>
      </trkpt>
      <trkpt lat="47.31333" lon="11.00823">
        <ele>829.0</ele>
      </trkpt>
      <trkpt lat="47.31294" lon="11.00584">
        <ele>838.0</ele>
      </trkpt>
      <trkpt lat="47.31231" lon="11.00423">
        <ele>844.0</ele>
      </trkpt>
      <trkpt lat="47.312" lon="11.00354">
        <ele>848.0</ele>
      </trkpt>
      <trkpt lat="47.31066" lon="11.0004">
        <ele>853.0</ele>
      </trkpt>
      <trkpt lat="47.30923" lon="10.99704">
        <ele>856.0</ele>
      </trkpt>
      <trkpt lat="47.30703" lon="10.99277">
        <ele>861.0</ele>
      </trkpt>
      <trkpt lat="47.30559" lon="10.98988">
        <ele>864.0</ele>
      </trkpt>
      <trkpt lat="47.30492" lon="10.98842">
        <ele>866.0</ele>
      </trkpt>
      <trkpt lat="47.30474" lon="10.98724">
        <ele>869.0</ele>
      </trkpt>
      <trkpt lat="47.30456" lon="10.98587">
        <ele>870.0</ele>
      </trkpt>
      <trkpt lat="47.30444" lon="10.9847">
        <ele>869.0</ele>
      </trkpt>
      <trkpt lat="47.30445" lon="10.98391">
        <ele>869.0</ele>
      </trkpt>
      <trkpt lat="47.30489" lon="10.98203">
        <ele>872.0</ele>
      </trkpt>
      <trkpt lat="47.30577" lon="10.9796">
        <ele>876.0</ele>
      </trkpt>
      <trkpt lat="47.30592" lon="10.97861">
        <ele>876.0</ele>
      </trkpt>
      <trkpt lat="47.30584" lon="10.97684">
        <ele>877.0</ele>
      </trkpt>
      <trkpt lat="47.30574" lon="10.97522">
        <ele>877.0</ele>
      </trkpt>
      <trkpt lat="47.30547" lon="10.97328">
        <ele>877.0</ele>
      </trkpt>
      <trkpt lat="47.30483" lon="10.97106">
        <ele>875.0</ele>
      </trkpt>
      <trkpt lat="47.30463" lon="10.96919">
        <ele>871.0</ele>
      </trkpt>
      <trkpt lat="47.30489" lon="10.96759">
        <ele>875.0</ele>
      </trkpt>
      <trkpt lat="47.30506" lon="10.96611">
        <ele>878.0</ele>
      </trkpt>
      <trkpt lat="47.30499" lon="10.96482">
        <ele>877.0</ele>
      </trkpt>
      <trkpt lat="47.30448" lon="10.96341">
        <ele>875.0</ele>
      </trkpt>
      <trkpt lat="47.30377" lon="10.96177">
        <ele>877.0</ele>
      </trkpt>
      <trkpt lat="47.30364" lon="10.96157">
        <ele>877.0</ele>
      </trkpt>
      <trkpt lat="47.30351" lon="10.96174">
        <ele>876.0</ele>
      </trkpt>
      <trkpt lat="47.30323" lon="10.96236">
        <ele>875.0</ele>
      </trkpt>
      <trkpt lat="47.30244" lon="10.9629">
        <ele>872.0</ele>
      </trkpt>
      <trkpt lat="47.30133" lon="10.96246">
        <ele>867.0</ele>
      </trkpt>
      <trkpt lat="47.30046" lon="10.96222">
        <ele>861.0</ele>
      </trkpt>
      <trkpt lat="47.29959" lon="10.96157">
        <ele>849.0</ele>
      </trkpt>
      <trkpt lat="47.29878" lon="10.96185">
        <ele>839.0</ele>
      </trkpt>
      <trkpt lat="47.29798" lon="10.96467">
        <ele>829.0</ele>
      </trkpt>
      <trkpt lat="47.29706" lon="10.96783">
        <ele>827.0</ele>
      </trkpt>
      <trkpt lat="47.29563" lon="10.9694">
        <ele>815.0</ele>
      </trkpt>
      <trkpt lat="47.29436" lon="10.96975">
        <ele>812.0</ele>
      </trkpt>
      <trkpt lat="47.29245" lon="10.96903">
        <ele>810.0</ele>
      </trkpt>
      <trkpt lat="47.28918" lon="10.96728">
        <ele>796.0</ele>
      </trkpt>
      <trkpt lat="47.28703" lon="10.96675">
        <ele>784.0</ele>
      </trkpt>
      <trkpt lat="47.2854" lon="10.9641">
        <ele>768.0</ele>
      </trkpt>
      <trkpt lat="47.28486" lon="10.9631">
        <ele>757.0</ele>
      </trkpt>
      <trkpt lat="47.28419" lon="10.96201">
        <ele>751.0</ele>
      </trkpt>
      <trkpt lat="47.28411" lon="10.96102">
        <ele>748.0</ele>
      </trkpt>
      <trkpt lat="47.28463" lon="10.96002">
        <ele>742.0</ele>
      </trkpt>
      <trkpt lat="47.28541" lon="10.95966">
        <ele>737.0</ele>
      </trkpt>
      <trkpt lat="47.28725" lon="10.95833">
        <ele>725.0</ele>
      </trkpt>
      <trkpt lat="47.28843" lon="10.95756">
        <ele>712.0</ele>
      </trkpt>
      <trkpt lat="47.28856" lon="10.9567">
        <ele>705.0</ele>
      </trkpt>
      <trkpt lat="47.28808" lon="10.9562">
        <ele>703.0</ele>
      </trkpt>
      <trkpt lat="47.2876" lon="10.95655">
        <ele>702.0</ele>
      </trkpt>
      <trkpt lat="47.28725" lon="10.95743">
        <ele>702.0</ele>
      </trkpt>
      <trkpt lat="47.2867" lon="10.95806">
        <ele>701.0</ele>
      </trkpt>
      <trkpt lat="47.28394" lon="10.95836">
        <ele>698.0</ele>
      </trkpt>
      <trkpt lat="47.28327" lon="10.95846">
        <ele>690.0</ele>
      </trkpt>
      <trkpt lat="47.28202" lon="10.95895">
        <ele>680.0</ele>
      </trkpt>
      <trkpt lat="47.28067" lon="10.95849">
        <ele>669.0</ele>
      </trkpt>
      <trkpt lat="47.27976" lon="10.95877">
        <ele>660.0</ele>
      </trkpt>
      <trkpt lat="47.27842" lon="10.96076">
        <ele>649.0</ele>
      </trkpt>
      <trkpt lat="47.27769" lon="10.96244">
        <ele>647.0</ele>
      </trkpt>
      <trkpt lat="47.27663" lon="10.96396">
        <ele>646.0</ele>
      </trkpt>
      <trkpt lat="47.27617" lon="10.9652">
        <ele>643.0</ele>
      </trkpt>
      <trkpt lat="47.27663" lon="10.96586">
        <ele>642.0</ele>
      </trkpt>
      <trkpt lat="47.27737" lon="10.96582">
        <ele>640.0</ele>
      </trkpt>
      <trkpt lat="47.278" lon="10.96758">
        <ele>639.0</ele>
      </trkpt>
      <trkpt lat="47.27968" lon="10.97349">
        <ele>638.0</ele>
      </trkpt>
      <trkpt lat="47.28014" lon="10.97653">
        <ele>638.0</ele>
      </trkpt>
      <trkpt lat="47.28065" lon="10.98154">
        <ele>638.0</ele>
      </trkpt>
      <trkpt lat="47.28086" lon="10.9829">
        <ele>638.0</ele>
      </trkpt>
      <trkpt lat="47.28087" lon="10.98318">
        <ele>638.0</ele>
      </trkpt>
      <trkpt lat="47.28116" lon="10.9835">
        <ele>638.0</ele>
      </trkpt>
      <trkpt lat="47.28157" lon="10.98466">
        <ele>637.0</ele>
      </trkpt>
      <trkpt lat="47.28269" lon="10.98964">
        <ele>633.0</ele>
      </trkpt>
      <trkpt lat="47.28335" lon="10.99347">
        <ele>634.0</ele>
      </trkpt>
      <trkpt lat="47.28623" lon="11.00477">
        <ele>633.0</ele>
      </trkpt>
      <trkpt lat="47.28715" lon="11.00865">
        <ele>633.0</ele>
      </trkpt>
      <trkpt lat="47.28816" lon="11.01285">
        <ele>634.0</ele>
      </trkpt>
      <trkpt lat="47.28901" lon="11.01452">
        <ele>633.0</ele>
      </trkpt>
      <trkpt lat="47.29023" lon="11.01651">
        <ele>633.0</ele>
      </trkpt>
      <trkpt lat="47.29071" lon="11.01828">
        <ele>634.0</ele>
      </trkpt>
      <trkpt lat="47.29179" lon="11.02437">
        <ele>633.0</ele>
      </trkpt>
      <trkpt lat="47.29197" lon="11.02568">
        <ele>634.0</ele>
      </trkpt>
      <trkpt lat="47.29216" lon="11.02762">
        <ele>634.0</ele>
      </trkpt>
      <trkpt lat="47.29208" lon="11.03193">
        <ele>631.0</ele>
      </trkpt>
      <trkpt lat="47.29194" lon="11.04029">
        <ele>628.0</ele>
      </trkpt>
      <trkpt lat="47.29225" lon="11.04215">
        <ele>627.0</ele>
      </trkpt>
      <trkpt lat="47.29298" lon="11.0457">
        <ele>626.0</ele>
      </trkpt>
      <trkpt lat="47.29333" lon="11.04945">
        <ele>625.0</ele>
      </trkpt>
      <trkpt lat="47.29419" lon="11.05288">
        <ele>624.0</ele>
      </trkpt>
      <trkpt lat="47.295" lon="11.05684">
        <ele>625.0</ele>
      </trkpt>
      <trkpt lat="47.29586" lon="11.05918">
        <ele>628.0</ele>
      </trkpt>
      <trkpt lat="47.29673" lon="11.06035">
        <ele>630.0</ele>
      </trkpt>
      <trkpt lat="47.29771" lon="11.06184">
        <ele>628.0</ele>
      </trkpt>
      <trkpt lat="47.29845" lon="11.06374">
        <ele>625.0</ele>
      </trkpt>
      <trkpt lat="47.29859" lon="11.06504">
        <ele>624.0</ele>
      </trkpt>
      <trkpt lat="47.29868" lon="11.06549">
        <ele>624.0</ele>
      </trkpt>
      <trkpt lat="47.29908" lon="11.06548">
        <ele>624.0</ele>
      </trkpt>
      <trkpt lat="47.30003" lon="11.07005">
        <ele>623.0</ele>
      </trkpt>
      <trkpt lat="47.30035" lon="11.0731">
        <ele>622.0</ele>
      </trkpt>
      <trkpt lat="47.29976" lon="11.07522">
        <ele>623.0</ele>
      </trkpt>
      <trkpt lat="47.29951" lon="11.07824">
        <ele>624.0</ele>
      </trkpt>
      <trkpt lat="47.29926" lon="11.08024">
        <ele>630.0</ele>
      </trkpt>
      <trkpt lat="47.29899" lon="11.08118">
        <ele>638.0</ele>
      </trkpt>
      <trkpt lat="47.29905" lon="11.08184">
        <ele>641.0</ele>
      </trkpt>
      <trkpt lat="47.29885" lon="11.08272">
        <ele>646.0</ele>
      </trkpt>
      <trkpt lat="47.2992" lon="11.08373">
        <ele>645.0</ele>
      </trkpt>
      <trkpt lat="47.29934" lon="11.08481">
        <ele>644.0</ele>
      </trkpt>
      <trkpt lat="47.29941" lon="11.08692">
        <ele>642.0</ele>
      </trkpt>
      <trkpt lat="47.2997" lon="11.0904">
        <ele>629.0</ele>
      </trkpt>
      <trkpt lat="47.29989" lon="11.093">
        <ele>624.0</ele>
      </trkpt>
      <trkpt lat="47.29997" lon="11.09469">
        <ele>622.0</ele>
      </trkpt>
      <trkpt lat="47.3" lon="11.09546">
        <ele>623.0</ele>
      </trkpt>
      <trkpt lat="47.3" lon="11.09752">
        <ele>621.0</ele>
      </trkpt>
      <trkpt lat="47.29999" lon="11.09999">
        <ele>619.0</ele>
      </trkpt>
      <trkpt lat="47.29997" lon="11.1034">
        <ele>618.0</ele>
      </trkpt>
      <trkpt lat="47.29927" lon="11.10725">
        <ele>617.0</ele>
      </trkpt>
      <trkpt lat="47.29596" lon="11.11412">
        <ele>626.0</ele>
      </trkpt>
      <trkpt lat="47.29407" lon="11.11773">
        <ele>645.0</ele>
      </trkpt>
      <trkpt lat="47.29319" lon="11.12012">
        <ele>658.0</ele>
      </trkpt>
      <trkpt lat="47.29241" lon="11.12226">
        <ele>661.0</ele>
      </trkpt>
      <trkpt lat="47.29154" lon="11.12403">
        <ele>657.0</ele>
      </trkpt>
      <trkpt lat="47.29077" lon="11.12468">
        <ele>652.0</ele>
      </trkpt>
      <trkpt lat="47.29051" lon="11.12552">
        <ele>649.0</ele>
      </trkpt>
      <trkpt lat="47.28978" lon="11.12699">
        <ele>642.0</ele>
      </trkpt>
      <trkpt lat="47.28765" lon="11.13393">
        <ele>620.0</ele>
      </trkpt>
      <trkpt lat="47.28673" lon="11.13903">
        <ele>609.0</ele>
      </trkpt>
      <trkpt lat="47.28538" lon="11.14238">
        <ele>609.0</ele>
      </trkpt>
      <trkpt lat="47.28371" lon="11.14492">
        <ele>609.0</ele>
      </trkpt>
      <trkpt lat="47.28272" lon="11.14742">
        <ele>612.0</ele>
      </trkpt>
      <trkpt lat="47.28203" lon="11.14932">
        <ele>613.0</ele>
      </trkpt>
      <trkpt lat="47.28136" lon="11.1502">
        <ele>617.0</ele>
      </trkpt>
      <trkpt lat="47.28129" lon="11.15116">
        <ele>618.0</ele>
      </trkpt>
      <trkpt lat="47.28111" lon="11.15242">
        <ele>614.0</ele>
      </trkpt>
      <trkpt lat="47.28032" lon="11.15428">
        <ele>612.0</ele>
      </trkpt>
      <trkpt lat="47.28021" lon="11.15577">
        <ele>612.0</ele>
      </trkpt>
      <trkpt lat="47.28024" lon="11.15747">
        <ele>612.0</ele>
      </trkpt>
      <trkpt lat="47.27985" lon="11.15984">
        <ele>613.0</ele>
      </trkpt>
      <trkpt lat="47.27836" lon="11.16493">
        <ele>608.0</ele>
      </trkpt>
      <trkpt lat="47.27808" lon="11.16618">
        <ele>611.0</ele>
      </trkpt>
      <trkpt lat="47.27795" lon="11.16668">
        <ele>612.0</ele>
      </trkpt>
      <trkpt lat="47.2779" lon="11.16719">
        <ele>614.0</ele>
      </trkpt>
      <trkpt lat="47.2778" lon="11.16787">
        <ele>614.0</ele>
      </trkpt>
      <trkpt lat="47.27738" lon="11.16914">
        <ele>612.0</ele>
      </trkpt>
      <trkpt lat="47.27663" lon="11.1716">
        <ele>609.0</ele>
      </trkpt>
      <trkpt lat="47.27621" lon="11.17319">
        <ele>606.0</ele>
      </trkpt>
      <trkpt lat="47.27607" lon="11.17446">
        <ele>607.0</ele>
      </trkpt>
      <trkpt lat="47.27611" lon="11.17586">
        <ele>610.0</ele>
      </trkpt>
      <trkpt lat="47.27629" lon="11.17696">
        <ele>613.0</ele>
      </trkpt>
      <trkpt lat="47.27687" lon="11.1807">
        <ele>616.0</ele>
      </trkpt>
      <trkpt lat="47.27672" lon="11.18959">
        <ele>618.0</ele>
      </trkpt>
      <trkpt lat="47.27603" lon="11.19223">
        <ele>617.0</ele>
      </trkpt>
      <trkpt lat="47.27558" lon="11.19344">
        <ele>615.0</ele>
      </trkpt>
      <trkpt lat="47.27523" lon="11.19431">
        <ele>613.0</ele>
      </trkpt>
      <trkpt lat="47.27489" lon="11.19536">
        <ele>611.0</ele>
      </trkpt>
      <trkpt lat="47.27409" lon="11.19679">
        <ele>609.0</ele>
      </trkpt>
      <trkpt lat="47.27367" lon="11.19805">
        <ele>607.0</ele>
      </trkpt>
      <trkpt lat="47.27295" lon="11.19942">
        <ele>606.0</ele>
      </trkpt>
      <trkpt lat="47.27219" lon="11.20033">
        <ele>606.0</ele>
      </trkpt>
      <trkpt lat="47.27178" lon="11.20097">
        <ele>604.0</ele>
      </trkpt>
      <trkpt lat="47.27115" lon="11.20188">
        <ele>603.0</ele>
      </trkpt>
      <trkpt lat="47.27096" lon="11.20237">
        <ele>603.0</ele>
      </trkpt>
      <trkpt lat="47.27064" lon="11.20364">
        <ele>603.0</ele>
      </trkpt>
      <trkpt lat="47.27034" lon="11.20475">
        <ele>605.0</ele>
      </trkpt>
      <trkpt lat="47.27" lon="11.20581">
        <ele>607.0</ele>
      </trkpt>
      <trkpt lat="47.26989" lon="11.2063">
        <ele>608.0</ele>
      </trkpt>
      <trkpt lat="47.2699" lon="11.20726">
        <ele>609.0</ele>
      </trkpt>
      <trkpt lat="47.27002" lon="11.20939">
        <ele>603.0</ele>
      </trkpt>
      <trkpt lat="47.26995" lon="11.20983">
        <ele>602.0</ele>
      </trkpt>
      <trkpt lat="47.26973" lon="11.21042">
        <ele>600.0</ele>
      </trkpt>
      <trkpt lat="47.26911" lon="11.21163">
        <ele>599.0</ele>
      </trkpt>
      <trkpt lat="47.26868" lon="11.21379">
        <ele>598.0</ele>
      </trkpt>
      <trkpt lat="47.26846" lon="11.21497">
        <ele>596.0</ele>
      </trkpt>
      <trkpt lat="47.26822" lon="11.21578">
        <ele>596.0</ele>
      </trkpt>
      <trkpt lat="47.26758" lon="11.21775">
        <ele>596.0</ele>
      </trkpt>
      <trkpt lat="47.26675" lon="11.22118">
        <ele>596.0</ele>
      </trkpt>
      <trkpt lat="47.26611" lon="11.22427">
        <ele>596.0</ele>
      </trkpt>
      <trkpt lat="47.26511" lon="11.22538">
        <ele>595.0</ele>
      </trkpt>
      <trkpt lat="47.26302" lon="11.22866">
        <ele>597.0</ele>
      </trkpt>
      <trkpt lat="47.26225" lon="11.23272">
        <ele>593.0</ele>
      </trkpt>
      <trkpt lat="47.26233" lon="11.23854">
        <ele>598.0</ele>
      </trkpt>
      <trkpt lat="47.26109" lon="11.24541">
        <ele>605.0</ele>
      </trkpt>
      <trkpt lat="47.26084" lon="11.25303">
        <ele>592.0</ele>
      </trkpt>
      <trkpt lat="47.26073" lon="11.25663">
        <ele>593.0</ele>
      </trkpt>
      <trkpt lat="47.25994" lon="11.25844">
        <ele>594.0</ele>
      </trkpt>
      <trkpt lat="47.25932" lon="11.25974">
        <ele>598.0</ele>
      </trkpt>
      <trkpt lat="47.25792" lon="11.26076">
        <ele>602.0</ele>
      </trkpt>
      <trkpt lat="47.2544" lon="11.26368">
        <ele>606.0</ele>
      </trkpt>
      <trkpt lat="47.25319" lon="11.2649">
        <ele>614.0</ele>
      </trkpt>
      <trkpt lat="47.25304" lon="11.26569">
        <ele>618.0</ele>
      </trkpt>
      <trkpt lat="47.25054" lon="11.26729">
        <ele>622.0</ele>
      </trkpt>
      <trkpt lat="47.2503" lon="11.26897">
        <ele>625.0</ele>
      </trkpt>
      <trkpt lat="47.25131" lon="11.26988">
        <ele>620.0</ele>
      </trkpt>
      <trkpt lat="47.25205" lon="11.27106">
        <ele>617.0</ele>
      </trkpt>
      <trkpt lat="47.25314" lon="11.27183">
        <ele>611.0</ele>
      </trkpt>
      <trkpt lat="47.25356" lon="11.272">
        <ele>611.0</ele>
      </trkpt>
      <trkpt lat="47.25398" lon="11.272">
        <ele>611.0</ele>
      </trkpt>
      <trkpt lat="47.2541" lon="11.27205">
        <ele>610.0</ele>
      </trkpt>
      <trkpt lat="47.25428" lon="11.27221">
        <ele>609.0</ele>
      </trkpt>
      <trkpt lat="47.25444" lon="11.27267">
        <ele>608.0</ele>
      </trkpt>
      <trkpt lat="47.25456" lon="11.27287">
        <ele>607.0</ele>
      </trkpt>
      <trkpt lat="47.25479" lon="11.27298">
        <ele>607.0</ele>
      </trkpt>
      <trkpt lat="47.25516" lon="11.273">
        <ele>607.0</ele>
      </trkpt>
      <trkpt lat="47.2556" lon="11.27322">
        <ele>606.0</ele>
      </trkpt>
      <trkpt lat="47.25588" lon="11.27353">
        <ele>605.0</ele>
      </trkpt>
      <trkpt lat="47.25693" lon="11.27514">
        <ele>603.0</ele>
      </trkpt>
      <trkpt lat="47.25775" lon="11.27635">
        <ele>599.0</ele>
      </trkpt>
      <trkpt lat="47.25835" lon="11.27697">
        <ele>597.0</ele>
      </trkpt>
      <trkpt lat="47.25914" lon="11.27762">
        <ele>596.0</ele>
      </trkpt>
      <trkpt lat="47.25978" lon="11.27852">
        <ele>593.0</ele>
      </trkpt>
      <trkpt lat="47.25995" lon="11.27923">
        <ele>592.0</ele>
      </trkpt>
      <trkpt lat="47.25989" lon="11.27964">
        <ele>591.0</ele>
      </trkpt>
      <trkpt lat="47.26002" lon="11.28005">
        <ele>590.0</ele>
      </trkpt>
      <trkpt lat="47.25998" lon="11.28039">
        <ele>590.0</ele>
      </trkpt>
      <trkpt lat="47.25975" lon="11.28139">
        <ele>590.0</ele>
      </trkpt>
      <trkpt lat="47.2581" lon="11.28734">
        <ele>585.0</ele>
      </trkpt>
      <trkpt lat="47.25756" lon="11.29007">
        <ele>584.0</ele>
      </trkpt>
      <trkpt lat="47.25733" lon="11.29228">
        <ele>582.0</ele>
      </trkpt>
      <trkpt lat="47.25725" lon="11.29456">
        <ele>583.0</ele>
      </trkpt>
      <trkpt lat="47.25716" lon="11.29814">
        <ele>583.0</ele>
      </trkpt>
      <trkpt lat="47.257" lon="11.30292">
        <ele>580.0</ele>
      </trkpt>
      <trkpt lat="47.25689" lon="11.30952">
        <ele>583.0</ele>
      </trkpt>
      <trkpt lat="47.25688" lon="11.31017">
        <ele>582.0</ele>
      </trkpt>
      <trkpt lat="47.25682" lon="11.31161">
        <ele>582.0</ele>
      </trkpt>
      <trkpt lat="47.25666" lon="11.31239">
        <ele>581.0</ele>
      </trkpt>
      <trkpt lat="47.25632" lon="11.31337">
        <ele>581.0</ele>
      </trkpt>
      <trkpt lat="47.25614" lon="11.31397">
        <ele>580.0</ele>
      </trkpt>
      <trkpt lat="47.25611" lon="11.3145">
        <ele>580.0</ele>
      </trkpt>
      <trkpt lat="47.25617" lon="11.31504">
        <ele>580.0</ele>
      </trkpt>
      <trkpt lat="47.25643" lon="11.31644">
        <ele>581.0</ele>
      </trkpt>
      <trkpt lat="47.25684" lon="11.31826">
        <ele>581.0</ele>
      </trkpt>
      <trkpt lat="47.25682" lon="11.31875">
        <ele>580.0</ele>
      </trkpt>
      <trkpt lat="47.25671" lon="11.31917">
        <ele>580.0</ele>
      </trkpt>
      <trkpt lat="47.25641" lon="11.31993">
        <ele>580.0</ele>
      </trkpt>
      <trkpt lat="47.25618" lon="11.32076">
        <ele>580.0</ele>
      </trkpt>
      <trkpt lat="47.25602" lon="11.3213">
        <ele>580.0</ele>
      </trkpt>
      <trkpt lat="47.25539" lon="11.32383">
        <ele>581.0</ele>
      </trkpt>
      <trkpt lat="47.25511" lon="11.32556">
        <ele>579.0</ele>
      </trkpt>
      <trkpt lat="47.25538" lon="11.32748">
        <ele>580.0</ele>
      </trkpt>
      <trkpt lat="47.25522" lon="11.32932">
        <ele>583.0</ele>
      </trkpt>
      <trkpt lat="47.25426" lon="11.33221">
        <ele>582.0</ele>
      </trkpt>
      <trkpt lat="47.25289" lon="11.33602">
        <ele>584.0</ele>
      </trkpt>
      <trkpt lat="47.25179" lon="11.33808">
        <ele>589.0</ele>
      </trkpt>
      <trkpt lat="47.25133" lon="11.33901">
        <ele>598.0</ele>
      </trkpt>
      <trkpt lat="47.2512" lon="11.3399">
        <ele>605.0</ele>
      </trkpt>
      <trkpt lat="47.25118" lon="11.341">
        <ele>611.0</ele>
      </trkpt>
      <trkpt lat="47.25063" lon="11.34313">
        <ele>623.0</ele>
      </trkpt>
      <trkpt lat="47.25055" lon="11.34491">
        <ele>628.0</ele>
      </trkpt>
      <trkpt lat="47.25029" lon="11.34588">
        <ele>629.0</ele>
      </trkpt>
      <trkpt lat="47.25024" lon="11.34548">
        <ele>632.0</ele>
      </trkpt>
      <trkpt lat="47.25028" lon="11.34406">
        <ele>639.0</ele>
      </trkpt>
      <trkpt lat="47.24999" lon="11.34232">
        <ele>649.0</ele>
      </trkpt>
      <trkpt lat="47.24933" lon="11.33924">
        <ele>664.0</ele>
      </trkpt>
      <trkpt lat="47.24855" lon="11.33664">
        <ele>666.0</ele>
      </trkpt>
      <trkpt lat="47.2467" lon="11.33169">
        <ele>686.0</ele>
      </trkpt>
      <trkpt lat="47.24496" lon="11.32206">
        <ele>741.0</ele>
      </trkpt>
      <trkpt lat="47.24408" lon="11.32053">
        <ele>765.0</ele>
      </trkpt>
      <trkpt lat="47.24405" lon="11.31885">
        <ele>781.0</ele>
      </trkpt>
      <trkpt lat="47.24293" lon="11.31687">
        <ele>804.0</ele>
      </trkpt>
      <trkpt lat="47.243" lon="11.3153">
        <ele>813.0</ele>
      </trkpt>
      <trkpt lat="47.24197" lon="11.31484">
        <ele>821.0</ele>
      </trkpt>
      <trkpt lat="47.24114" lon="11.31435">
        <ele>829.0</ele>
      </trkpt>
      <trkpt lat="47.24038" lon="11.31379">
        <ele>839.0</ele>
      </trkpt>
      <trkpt lat="47.23923" lon="11.31183">
        <ele>855.0</ele>
      </trkpt>
      <trkpt lat="47.2379" lon="11.31126">
        <ele>861.0</ele>
      </trkpt>
      <trkpt lat="47.23698" lon="11.31114">
        <ele>864.0</ele>
      </trkpt>
      <trkpt lat="47.23645" lon="11.31121">
        <ele>865.0</ele>
      </trkpt>
      <trkpt lat="47.2363" lon="11.30974">
        <ele>867.0</ele>
      </trkpt>
      <trkpt lat="47.23685" lon="11.30776">
        <ele>866.0</ele>
      </trkpt>
      <trkpt lat="47.23697" lon="11.30646">
        <ele>863.0</ele>
      </trkpt>
      <trkpt lat="47.23692" lon="11.30524">
        <ele>863.0</ele>
      </trkpt>
      <trkpt lat="47.2366" lon="11.30278">
        <ele>861.0</ele>
      </trkpt>
      <trkpt lat="47.23588" lon="11.30082">
        <ele>859.0</ele>
      </trkpt>
      <trkpt lat="47.23537" lon="11.29905">
        <ele>859.0</ele>
      </trkpt>
      <trkpt lat="47.23487" lon="11.29754">
        <ele>855.0</ele>
      </trkpt>
      <trkpt lat="47.23443" lon="11.29623">
        <ele>852.0</ele>
      </trkpt>
      <trkpt lat="47.23341" lon="11.29343">
        <ele>850.0</ele>
      </trkpt>
      <trkpt lat="47.23291" lon="11.29157">
        <ele>850.0</ele>
      </trkpt>
      <trkpt lat="47.23253" lon="11.29018">
        <ele>853.0</ele>
      </trkpt>
      <trkpt lat="47.23188" lon="11.28838">
        <ele>855.0</ele>
      </trkpt>
      <trkpt lat="47.23106" lon="11.28661">
        <ele>859.0</ele>
      </trkpt>
      <trkpt lat="47.22953" lon="11.28586">
        <ele>862.0</ele>
      </trkpt>
      <trkpt lat="47.22829" lon="11.28563">
        <ele>871.0</ele>
      </trkpt>
      <trkpt lat="47.22775" lon="11.28424">
        <ele>878.0</ele>
      </trkpt>
      <trkpt lat="47.22686" lon="11.28104">
        <ele>894.0</ele>
      </trkpt>
      <trkpt lat="47.22647" lon="11.27925">
        <ele>909.0</ele>
      </trkpt>
      <trkpt lat="47.22629" lon="11.27813">
        <ele>916.0</ele>
      </trkpt>
      <trkpt lat="47.22603" lon="11.27688">
        <ele>918.0</ele>
      </trkpt>
      <trkpt lat="47.22667" lon="11.27625">
        <ele>920.0</ele>
      </trkpt>
      <trkpt lat="47.22795" lon="11.27329">
        <ele>916.0</ele>
      </trkpt>
      <trkpt lat="47.22819" lon="11.27084">
        <ele>911.0</ele>
      </trkpt>
      <trkpt lat="47.22876" lon="11.27031">
        <ele>907.0</ele>
      </trkpt>
      <trkpt lat="47.22964" lon="11.27134">
        <ele>902.0</ele>
      </trkpt>
      <trkpt lat="47.231" lon="11.27255">
        <ele>887.0</ele>
      </trkpt>
      <trkpt lat="47.23208" lon="11.27296">
        <ele>881.0</ele>
      </trkpt>
      <trkpt lat="47.23264" lon="11.27321">
        <ele>875.0</ele>
      </trkpt>
      <trkpt lat="47.23389" lon="11.27388">
        <ele>868.0</ele>
      </trkpt>
      <trkpt lat="47.23496" lon="11.27441">
        <ele>860.0</ele>
      </trkpt>
      <trkpt lat="47.23534" lon="11.27434">
        <ele>858.0</ele>
      </trkpt>
      <trkpt lat="47.23579" lon="11.27397">
        <ele>855.0</ele>
      </trkpt>
      <trkpt lat="47.23612" lon="11.27327">
        <ele>853.0</ele>
      </trkpt>
      <trkpt lat="47.23702" lon="11.27114">
        <ele>845.0</ele>
      </trkpt>
      <trkpt lat="47.23777" lon="11.27029">
        <ele>843.0</ele>
      </trkpt>
      <trkpt lat="47.23828" lon="11.26976">
        <ele>842.0</ele>
      </trkpt>
      <trkpt lat="47.23852" lon="11.26928">
        <ele>842.0</ele>
      </trkpt>
      <trkpt lat="47.23869" lon="11.26845">
        <ele>840.0</ele>
      </trkpt>
      <trkpt lat="47.23879" lon="11.26731">
        <ele>838.0</ele>
      </trkpt>
      <trkpt lat="47.23906" lon="11.26671">
        <ele>836.0</ele>
      </trkpt>
      <trkpt lat="47.23942" lon="11.2665">
        <ele>832.0</ele>
      </trkpt>
      <trkpt lat="47.23979" lon="11.26657">
        <ele>827.0</ele>
      </trkpt>
      <trkpt lat="47.24014" lon="11.26689">
        <ele>823.0</ele>
      </trkpt>
      <trkpt lat="47.24065" lon="11.26765">
        <ele>816.0</ele>
      </trkpt>
      <trkpt lat="47.24096" lon="11.26826">
        <ele>811.0</ele>
      </trkpt>
      <trkpt lat="47.24129" lon="11.26951">
        <ele>805.0</ele>
      </trkpt>
      <trkpt lat="47.24155" lon="11.27109">
        <ele>795.0</ele>
      </trkpt>
      <trkpt lat="47.24177" lon="11.27179">
        <ele>790.0</ele>
      </trkpt>
      <trkpt lat="47.24205" lon="11.2723">
        <ele>786.0</ele>
      </trkpt>
      <trkpt lat="47.24242" lon="11.27269">
        <ele>784.0</ele>
      </trkpt>
      <trkpt lat="47.24287" lon="11.27292">
        <ele>781.0</ele>
      </trkpt>
      <trkpt lat="47.24335" lon="11.27294">
        <ele>779.0</ele>
      </trkpt>
      <trkpt lat="47.2437" lon="11.27282">
        <ele>777.0</ele>
      </trkpt>
      <trkpt lat="47.24474" lon="11.27219">
        <ele>771.0</ele>
      </trkpt>
      <trkpt lat="47.24614" lon="11.27097">
        <ele>760.0</ele>
      </trkpt>
      <trkpt lat="47.24676" lon="11.27088">
        <ele>753.0</ele>
      </trkpt>
      <trkpt lat="47.24751" lon="11.27192">
        <ele>745.0</ele>
      </trkpt>
      <trkpt lat="47.24788" lon="11.27414">
        <ele>728.0</ele>
      </trkpt>
      <trkpt lat="47.24774" lon="11.27727">
        <ele>703.0</ele>
      </trkpt>
      <trkpt lat="47.24744" lon="11.27842">
        <ele>693.0</ele>
      </trkpt>
      <trkpt lat="47.24775" lon="11.27868">
        <ele>690.0</ele>
      </trkpt>
      <trkpt lat="47.24796" lon="11.27785">
        <ele>687.0</ele>
      </trkpt>
      <trkpt lat="47.24825" lon="11.27686">
        <ele>682.0</ele>
      </trkpt>
      <trkpt lat="47.24862" lon="11.27656">
        <ele>678.0</ele>
      </trkpt>
      <trkpt lat="47.24912" lon="11.27623">
        <ele>674.0</ele>
      </trkpt>
      <trkpt lat="47.24934" lon="11.27592">
        <ele>672.0</ele>
      </trkpt>
      <trkpt lat="47.24942" lon="11.27567">
        <ele>671.0</ele>
      </trkpt>
      <trkpt lat="47.24947" lon="11.27515">
        <ele>669.0</ele>
      </trkpt>
      <trkpt lat="47.2494" lon="11.27434">
        <ele>667.0</ele>
      </trkpt>
      <trkpt lat="47.24943" lon="11.27359">
        <ele>666.0</ele>
      </trkpt>
      <trkpt lat="47.2496" lon="11.2725">
        <ele>658.0</ele>
      </trkpt>
      <trkpt lat="47.24961" lon="11.27184">
        <ele>650.0</ele>
      </trkpt>
      <trkpt lat="47.24944" lon="11.27109">
        <ele>643.0</ele>
      </trkpt>
      <trkpt lat="47.24868" lon="11.26958">
        <ele>641.0</ele>
      </trkpt>
      <trkpt lat="47.24848" lon="11.26899">
        <ele>639.0</ele>
      </trkpt>
      <trkpt lat="47.24837" lon="11.2682">
        <ele>636.0</ele>
      </trkpt>
      <trkpt lat="47.24929" lon="11.26798">
        <ele>633.0</ele>
      </trkpt>
      <trkpt lat="47.24986" lon="11.26824">
        <ele>629.0</ele>
      </trkpt>
      <trkpt lat="47.25037" lon="11.26909">
        <ele>624.0</ele>
      </trkpt>
      <trkpt lat="47.25048" lon="11.26921">
        <ele>623.0</ele>
      </trkpt>
      <trkpt lat="47.25094" lon="11.26953">
        <ele>621.0</ele>
      </trkpt>
      <trkpt lat="47.25148" lon="11.27005">
        <ele>619.0</ele>
      </trkpt>
      <trkpt lat="47.25168" lon="11.27028">
        <ele>618.0</ele>
      </trkpt>
      <trkpt lat="47.25183" lon="11.27061">
        <ele>617.0</ele>
      </trkpt>
      <trkpt lat="47.25205" lon="11.27106">
        <ele>616.0</ele>
      </trkpt>
      <trkpt lat="47.2523" lon="11.27121">
        <ele>616.0</ele>
      </trkpt>
      <trkpt lat="47.2525" lon="11.27134">
        <ele>614.0</ele>
      </trkpt>
      <trkpt lat="47.25273" lon="11.2716">
        <ele>613.0</ele>
      </trkpt>
      <trkpt lat="47.25302" lon="11.27177">
        <ele>612.0</ele>
      </trkpt>
      <trkpt lat="47.25349" lon="11.27199">
        <ele>611.0</ele>
      </trkpt>
      <trkpt lat="47.25386" lon="11.272">
        <ele>611.0</ele>
      </trkpt>
      <trkpt lat="47.25404" lon="11.27201">
        <ele>610.0</ele>
      </trkpt>
      <trkpt lat="47.25426" lon="11.27218">
        <ele>609.0</ele>
      </trkpt>
      <trkpt lat="47.25441" lon="11.27261">
        <ele>608.0</ele>
      </trkpt>
      <trkpt lat="47.25452" lon="11.27283">
        <ele>607.0</ele>
      </trkpt>
      <trkpt lat="47.25472" lon="11.27297">
        <ele>607.0</ele>
      </trkpt>
      <trkpt lat="47.25504" lon="11.27298">
        <ele>607.0</ele>
      </trkpt>
      <trkpt lat="47.25539" lon="11.27309">
        <ele>607.0</ele>
      </trkpt>
      <trkpt lat="47.2558" lon="11.27342">
        <ele>605.0</ele>
      </trkpt>
      <trkpt lat="47.25662" lon="11.27465">
        <ele>604.0</ele>
      </trkpt>
      <trkpt lat="47.25758" lon="11.27613">
        <ele>601.0</ele>
      </trkpt>
      <trkpt lat="47.25819" lon="11.27683">
        <ele>597.0</ele>
      </trkpt>
      <trkpt lat="47.25883" lon="11.27735">
        <ele>596.0</ele>
      </trkpt>
      <trkpt lat="47.25961" lon="11.27818">
        <ele>594.0</ele>
      </trkpt>
      <trkpt lat="47.25993" lon="11.27903">
        <ele>592.0</ele>
      </trkpt>
      <trkpt lat="47.2599" lon="11.27949">
        <ele>591.0</ele>
      </trkpt>
      <trkpt lat="47.25998" lon="11.27981">
        <ele>591.0</ele>
      </trkpt>
      <trkpt lat="47.25999" lon="11.28031">
        <ele>590.0</ele>
      </trkpt>
      <trkpt lat="47.25987" lon="11.28095">
        <ele>590.0</ele>
      </trkpt>
      <trkpt lat="47.2587" lon="11.28517">
        <ele>588.0</ele>
      </trkpt>
      <trkpt lat="47.25765" lon="11.2895">
        <ele>585.0</ele>
      </trkpt>
      <trkpt lat="47.2574" lon="11.29142">
        <ele>582.0</ele>
      </trkpt>
      <trkpt lat="47.25726" lon="11.29388">
        <ele>583.0</ele>
      </trkpt>
      <trkpt lat="47.25719" lon="11.29711">
        <ele>584.0</ele>
      </trkpt>
      <trkpt lat="47.25706" lon="11.30134">
        <ele>581.0</ele>
      </trkpt>
      <trkpt lat="47.25691" lon="11.30859">
        <ele>583.0</ele>
      </trkpt>
      <trkpt lat="47.25688" lon="11.31003">
        <ele>583.0</ele>
      </trkpt>
      <trkpt lat="47.25685" lon="11.31135">
        <ele>582.0</ele>
      </trkpt>
      <trkpt lat="47.25674" lon="11.3121">
        <ele>581.0</ele>
      </trkpt>
      <trkpt lat="47.2565" lon="11.31288">
        <ele>581.0</ele>
      </trkpt>
      <trkpt lat="47.25617" lon="11.31381">
        <ele>580.0</ele>
      </trkpt>
      <trkpt lat="47.25611" lon="11.31432">
        <ele>580.0</ele>
      </trkpt>
      <trkpt lat="47.25614" lon="11.3148">
        <ele>580.0</ele>
      </trkpt>
      <trkpt lat="47.25629" lon="11.31566">
        <ele>581.0</ele>
      </trkpt>
      <trkpt lat="47.25682" lon="11.31812">
        <ele>581.0</ele>
      </trkpt>
      <trkpt lat="47.25683" lon="11.31863">
        <ele>580.0</ele>
      </trkpt>
      <trkpt lat="47.25677" lon="11.31901">
        <ele>580.0</ele>
      </trkpt>
      <trkpt lat="47.25647" lon="11.31977">
        <ele>580.0</ele>
      </trkpt>
      <trkpt lat="47.25624" lon="11.32056">
        <ele>580.0</ele>
      </trkpt>
      <trkpt lat="47.25608" lon="11.32093">
        <ele>580.0</ele>
      </trkpt>
      <trkpt lat="47.25559" lon="11.32302">
        <ele>581.0</ele>
      </trkpt>
      <trkpt lat="47.25511" lon="11.32535">
        <ele>580.0</ele>
      </trkpt>
      <trkpt lat="47.25519" lon="11.32633">
        <ele>579.0</ele>
      </trkpt>
      <trkpt lat="47.25537" lon="11.32851">
        <ele>582.0</ele>
      </trkpt>
      <trkpt lat="47.2546" lon="11.33121">
        <ele>582.0</ele>
      </trkpt>
      <trkpt lat="47.25345" lon="11.3345">
        <ele>583.0</ele>
      </trkpt>
      <trkpt lat="47.25239" lon="11.33726">
        <ele>586.0</ele>
      </trkpt>
      <trkpt lat="47.25142" lon="11.33874">
        <ele>595.0</ele>
      </trkpt>
      <trkpt lat="47.25121" lon="11.33965">
        <ele>603.0</ele>
      </trkpt>
      <trkpt lat="47.2512" lon="11.34064">
        <ele>609.0</ele>
      </trkpt>
      <trkpt lat="47.25088" lon="11.34234">
        <ele>619.0</ele>
      </trkpt>
      <trkpt lat="47.25054" lon="11.34431">
        <ele>627.0</ele>
      </trkpt>
      <trkpt lat="47.25041" lon="11.34583">
        <ele>628.0</ele>
      </trkpt>
      <trkpt lat="47.25021" lon="11.34572">
        <ele>631.0</ele>
      </trkpt>
      <trkpt lat="47.25032" lon="11.34443">
        <ele>637.0</ele>
      </trkpt>
      <trkpt lat="47.25009" lon="11.34272">
        <ele>646.0</ele>
      </trkpt>
      <trkpt lat="47.24985" lon="11.34178">
        <ele>653.0</ele>
      </trkpt>
      <trkpt lat="47.24907" lon="11.33828">
        <ele>667.0</ele>
      </trkpt>
      <trkpt lat="47.24835" lon="11.33597">
        <ele>667.0</ele>
      </trkpt>
      <trkpt lat="47.24743" lon="11.33344">
        <ele>676.0</ele>
      </trkpt>
      <trkpt lat="47.24676" lon="11.33192">
        <ele>687.0</ele>
      </trkpt>
      <trkpt lat="47.2459" lon="11.32802">
        <ele>708.0</ele>
      </trkpt>
      <trkpt lat="47.24539" lon="11.32466">
        <ele>736.0</ele>
      </trkpt>
      <trkpt lat="47.24493" lon="11.32185">
        <ele>751.0</ele>
      </trkpt>
      <trkpt lat="47.24467" lon="11.32127">
        <ele>759.0</ele>
      </trkpt>
      <trkpt lat="47.24412" lon="11.3207">
        <ele>768.0</ele>
      </trkpt>
      <trkpt lat="47.24412" lon="11.32017">
        <ele>773.0</ele>
      </trkpt>
      <trkpt lat="47.24416" lon="11.31921">
        <ele>782.0</ele>
      </trkpt>
      <trkpt lat="47.24363" lon="11.31783">
        <ele>795.0</ele>
      </trkpt>
      <trkpt lat="47.24318" lon="11.31742">
        <ele>803.0</ele>
      </trkpt>
      <trkpt lat="47.2429" lon="11.31675">
        <ele>807.0</ele>
      </trkpt>
      <trkpt lat="47.24301" lon="11.31578">
        <ele>811.0</ele>
      </trkpt>
      <trkpt lat="47.24296" lon="11.31519">
        <ele>814.0</ele>
      </trkpt>
      <trkpt lat="47.24264" lon="11.31485">
        <ele>817.0</ele>
      </trkpt>
      <trkpt lat="47.24197" lon="11.31484">
        <ele>823.0</ele>
      </trkpt>
      <trkpt lat="47.24154" lon="11.3144">
        <ele>827.0</ele>
      </trkpt>
      <trkpt lat="47.24097" lon="11.31434">
        <ele>832.0</ele>
      </trkpt>
      <trkpt lat="47.24045" lon="11.31391">
        <ele>839.0</ele>
      </trkpt>
      <trkpt lat="47.24011" lon="11.31297">
        <ele>847.0</ele>
      </trkpt>
      <trkpt lat="47.23993" lon="11.31218">
        <ele>855.0</ele>
      </trkpt>
      <trkpt lat="47.23974" lon="11.31198">
        <ele>857.0</ele>
      </trkpt>
      <trkpt lat="47.23949" lon="11.31189">
        <ele>858.0</ele>
      </trkpt>
      <trkpt lat="47.23882" lon="11.31164">
        <ele>860.0</ele>
      </trkpt>
      <trkpt lat="47.23854" lon="11.31156">
        <ele>861.0</ele>
      </trkpt>
      <trkpt lat="47.23805" lon="11.31134">
        <ele>862.0</ele>
      </trkpt>
      <trkpt lat="47.23779" lon="11.31123">
        <ele>862.0</ele>
      </trkpt>
      <trkpt lat="47.23708" lon="11.31116">
        <ele>863.0</ele>
      </trkpt>
      <trkpt lat="47.23667" lon="11.31114">
        <ele>864.0</ele>
      </trkpt>
      <trkpt lat="47.23625" lon="11.31129">
        <ele>866.0</ele>
      </trkpt>
      <trkpt lat="47.23615" lon="11.31129">
        <ele>866.0</ele>
      </trkpt>
      <trkpt lat="47.23611" lon="11.31118">
        <ele>866.0</ele>
      </trkpt>
      <trkpt lat="47.23613" lon="11.31101">
        <ele>866.0</ele>
      </trkpt>
      <trkpt lat="47.23625" lon="11.31046">
        <ele>867.0</ele>
      </trkpt>
      <trkpt lat="47.23632" lon="11.30946">
        <ele>868.0</ele>
      </trkpt>
      <trkpt lat="47.23641" lon="11.30902">
        <ele>868.0</ele>
      </trkpt>
      <trkpt lat="47.23685" lon="11.30776">
        <ele>865.0</ele>
      </trkpt>
      <trkpt lat="47.23696" lon="11.30683">
        <ele>862.0</ele>
      </trkpt>
      <trkpt lat="47.23693" lon="11.30567">
        <ele>862.0</ele>
      </trkpt>
      <trkpt lat="47.23696" lon="11.30467">
        <ele>862.0</ele>
      </trkpt>
      <trkpt lat="47.237" lon="11.30416">
        <ele>862.0</ele>
      </trkpt>
      <trkpt lat="47.23695" lon="11.30373">
        <ele>862.0</ele>
      </trkpt>
      <trkpt lat="47.23678" lon="11.30321">
        <ele>861.0</ele>
      </trkpt>
      <trkpt lat="47.23646" lon="11.30241">
        <ele>860.0</ele>
      </trkpt>
      <trkpt lat="47.2361" lon="11.3012">
        <ele>859.0</ele>
      </trkpt>
      <trkpt lat="47.23596" lon="11.301">
        <ele>859.0</ele>
      </trkpt>
      <trkpt lat="47.23564" lon="11.3002">
        <ele>859.0</ele>
      </trkpt>
      <trkpt lat="47.23544" lon="11.2995">
        <ele>859.0</ele>
      </trkpt>
      <trkpt lat="47.23532" lon="11.29888">
        <ele>858.0</ele>
      </trkpt>
      <trkpt lat="47.23501" lon="11.29795">
        <ele>856.0</ele>
      </trkpt>
      <trkpt lat="47.23474" lon="11.29718">
        <ele>854.0</ele>
      </trkpt>
      <trkpt lat="47.23441" lon="11.29615">
        <ele>852.0</ele>
      </trkpt>
      <trkpt lat="47.23425" lon="11.29559">
        <ele>851.0</ele>
      </trkpt>
      <trkpt lat="47.23399" lon="11.29464">
        <ele>850.0</ele>
      </trkpt>
      <trkpt lat="47.23341" lon="11.29343">
        <ele>850.0</ele>
      </trkpt>
      <trkpt lat="47.23291" lon="11.29157">
        <ele>850.0</ele>
      </trkpt>
      <trkpt lat="47.23263" lon="11.29049">
        <ele>852.0</ele>
      </trkpt>
      <trkpt lat="47.23219" lon="11.28918">
        <ele>854.0</ele>
      </trkpt>
      <trkpt lat="47.23163" lon="11.28778">
        <ele>857.0</ele>
      </trkpt>
      <trkpt lat="47.23057" lon="11.28581">
        <ele>860.0</ele>
      </trkpt>
      <trkpt lat="47.22895" lon="11.28581">
        <ele>867.0</ele>
      </trkpt>
      <trkpt lat="47.22796" lon="11.28513">
        <ele>875.0</ele>
      </trkpt>
      <trkpt lat="47.22757" lon="11.28356">
        <ele>882.0</ele>
      </trkpt>
      <trkpt lat="47.22679" lon="11.28075">
        <ele>900.0</ele>
      </trkpt>
      <trkpt lat="47.2264" lon="11.27886">
        <ele>913.0</ele>
      </trkpt>
      <trkpt lat="47.22625" lon="11.27787">
        <ele>917.0</ele>
      </trkpt>
      <trkpt lat="47.2266" lon="11.27633">
        <ele>920.0</ele>
      </trkpt>
      <trkpt lat="47.22709" lon="11.27562">
        <ele>919.0</ele>
      </trkpt>
      <trkpt lat="47.22807" lon="11.27276">
        <ele>914.0</ele>
      </trkpt>
      <trkpt lat="47.22819" lon="11.27084">
        <ele>911.0</ele>
      </trkpt>
      <trkpt lat="47.22876" lon="11.27031">
        <ele>907.0</ele>
      </trkpt>
      <trkpt lat="47.22936" lon="11.2709">
        <ele>903.0</ele>
      </trkpt>
      <trkpt lat="47.23071" lon="11.27238">
        <ele>892.0</ele>
      </trkpt>
      <trkpt lat="47.23101" lon="11.27259">
        <ele>885.0</ele>
      </trkpt>
      <trkpt lat="47.23114" lon="11.27267">
        <ele>883.0</ele>
      </trkpt>
      <trkpt lat="47.23167" lon="11.27281">
        <ele>881.0</ele>
      </trkpt>
      <trkpt lat="47.2326" lon="11.27319">
        <ele>876.0</ele>
      </trkpt>
      <trkpt lat="47.23375" lon="11.27379">
        <ele>869.0</ele>
      </trkpt>
      <trkpt lat="47.23481" lon="11.27439">
        <ele>861.0</ele>
      </trkpt>
      <trkpt lat="47.2352" lon="11.27439">
        <ele>858.0</ele>
      </trkpt>
      <trkpt lat="47.23569" lon="11.27408">
        <ele>856.0</ele>
      </trkpt>
      <trkpt lat="47.236" lon="11.27358">
        <ele>853.0</ele>
      </trkpt>
      <trkpt lat="47.23683" lon="11.27149">
        <ele>847.0</ele>
      </trkpt>
      <trkpt lat="47.23731" lon="11.27074">
        <ele>843.0</ele>
      </trkpt>
      <trkpt lat="47.23815" lon="11.26993">
        <ele>842.0</ele>
      </trkpt>
      <trkpt lat="47.23848" lon="11.26939">
        <ele>842.0</ele>
      </trkpt>
      <trkpt lat="47.23866" lon="11.26872">
        <ele>841.0</ele>
      </trkpt>
      <trkpt lat="47.23876" lon="11.26749">
        <ele>838.0</ele>
      </trkpt>
      <trkpt lat="47.23897" lon="11.26684">
        <ele>836.0</ele>
      </trkpt>
      <trkpt lat="47.23935" lon="11.26652">
        <ele>833.0</ele>
      </trkpt>
      <trkpt lat="47.23975" lon="11.26655">
        <ele>828.0</ele>
      </trkpt>
      <trkpt lat="47.24004" lon="11.26677">
        <ele>824.0</ele>
      </trkpt>
      <trkpt lat="47.24049" lon="11.26739">
        <ele>818.0</ele>
      </trkpt>
      <trkpt lat="47.24087" lon="11.26806">
        <ele>812.0</ele>
      </trkpt>
      <trkpt lat="47.24122" lon="11.26917">
        <ele>807.0</ele>
      </trkpt>
      <trkpt lat="47.24151" lon="11.27088">
        <ele>797.0</ele>
      </trkpt>
      <trkpt lat="47.24169" lon="11.27157">
        <ele>792.0</ele>
      </trkpt>
      <trkpt lat="47.24195" lon="11.27216">
        <ele>788.0</ele>
      </trkpt>
      <trkpt lat="47.24227" lon="11.27256">
        <ele>784.0</ele>
      </trkpt>
      <trkpt lat="47.24275" lon="11.27288">
        <ele>782.0</ele>
      </trkpt>
      <trkpt lat="47.24317" lon="11.27296">
        <ele>780.0</ele>
      </trkpt>
      <trkpt lat="47.2436" lon="11.27286">
        <ele>778.0</ele>
      </trkpt>
      <trkpt lat="47.24465" lon="11.27225">
        <ele>773.0</ele>
      </trkpt>
      <trkpt lat="47.24573" lon="11.27139">
        <ele>764.0</ele>
      </trkpt>
      <trkpt lat="47.24657" lon="11.27083">
        <ele>755.0</ele>
      </trkpt>
      <trkpt lat="47.24722" lon="11.2713">
        <ele>749.0</ele>
      </trkpt>
      <trkpt lat="47.24784" lon="11.27357">
        <ele>732.0</ele>
      </trkpt>
      <trkpt lat="47.2478" lon="11.27702">
        <ele>705.0</ele>
      </trkpt>
      <trkpt lat="47.24743" lon="11.27822">
        <ele>695.0</ele>
      </trkpt>
      <trkpt lat="47.24764" lon="11.27868">
        <ele>691.0</ele>
      </trkpt>
      <trkpt lat="47.24794" lon="11.27842">
        <ele>688.0</ele>
      </trkpt>
      <trkpt lat="47.24817" lon="11.27697">
        <ele>683.0</ele>
      </trkpt>
      <trkpt lat="47.24846" lon="11.27666">
        <ele>679.0</ele>
      </trkpt>
      <trkpt lat="47.24903" lon="11.27632">
        <ele>675.0</ele>
      </trkpt>
      <trkpt lat="47.24927" lon="11.27604">
        <ele>673.0</ele>
      </trkpt>
      <trkpt lat="47.24941" lon="11.27572">
        <ele>671.0</ele>
      </trkpt>
      <trkpt lat="47.24946" lon="11.27534">
        <ele>670.0</ele>
      </trkpt>
      <trkpt lat="47.24942" lon="11.27454">
        <ele>668.0</ele>
      </trkpt>
      <trkpt lat="47.24941" lon="11.27381">
        <ele>666.0</ele>
      </trkpt>
      <trkpt lat="47.24959" lon="11.2726">
        <ele>660.0</ele>
      </trkpt>
      <trkpt lat="47.24962" lon="11.2719">
        <ele>651.0</ele>
      </trkpt>
      <trkpt lat="47.24949" lon="11.27126">
        <ele>643.0</ele>
      </trkpt>
      <trkpt lat="47.24914" lon="11.27044">
        <ele>643.0</ele>
      </trkpt>
      <trkpt lat="47.24849" lon="11.26906">
        <ele>639.0</ele>
      </trkpt>
      <trkpt lat="47.24841" lon="11.26846">
        <ele>638.0</ele>
      </trkpt>
      <trkpt lat="47.24868" lon="11.26814">
        <ele>636.0</ele>
      </trkpt>
      <trkpt lat="47.24957" lon="11.26784">
        <ele>632.0</ele>
      </trkpt>
      <trkpt lat="47.25123" lon="11.26691">
        <ele>626.0</ele>
      </trkpt>
      <trkpt lat="47.25218" lon="11.26638">
        <ele>621.0</ele>
      </trkpt>
      <trkpt lat="47.253" lon="11.26595">
        <ele>619.0</ele>
      </trkpt>
      <trkpt lat="47.25324" lon="11.26597">
        <ele>619.0</ele>
      </trkpt>
      <trkpt lat="47.25348" lon="11.26567">
        <ele>618.0</ele>
      </trkpt>
      <trkpt lat="47.25596" lon="11.26511">
        <ele>613.0</ele>
      </trkpt>
      <trkpt lat="47.25935" lon="11.26566">
        <ele>603.0</ele>
      </trkpt>
      <trkpt lat="47.2607" lon="11.26482">
        <ele>600.0</ele>
      </trkpt>
      <trkpt lat="47.26303" lon="11.26333">
        <ele>595.0</ele>
      </trkpt>
      <trkpt lat="47.26413" lon="11.26286">
        <ele>595.0</ele>
      </trkpt>
      <trkpt lat="47.26431" lon="11.26298">
        <ele>595.0</ele>
      </trkpt>
      <trkpt lat="47.26446" lon="11.26273">
        <ele>595.0</ele>
      </trkpt>
      <trkpt lat="47.26541" lon="11.26233">
        <ele>594.0</ele>
      </trkpt>
      <trkpt lat="47.26622" lon="11.26317">
        <ele>592.0</ele>
      </trkpt>
      <trkpt lat="47.26609" lon="11.26515">
        <ele>591.0</ele>
      </trkpt>
      <trkpt lat="47.26548" lon="11.26582">
        <ele>589.0</ele>
      </trkpt>
      <trkpt lat="47.26573" lon="11.26465">
        <ele>589.0</ele>
      </trkpt>
      <trkpt lat="47.26732" lon="11.26383">
        <ele>590.0</ele>
      </trkpt>
      <trkpt lat="47.26847" lon="11.26299">
        <ele>591.0</ele>
      </trkpt>
      <trkpt lat="47.26898" lon="11.26303">
        <ele>593.0</ele>
      </trkpt>
      <trkpt lat="47.26887" lon="11.2649">
        <ele>595.0</ele>
      </trkpt>
      <trkpt lat="47.26867" lon="11.2661">
        <ele>605.0</ele>
      </trkpt>
      <trkpt lat="47.26809" lon="11.26886">
        <ele>632.0</ele>
      </trkpt>
      <trkpt lat="47.26781" lon="11.26967">
        <ele>624.0</ele>
      </trkpt>
      <trkpt lat="47.26737" lon="11.27161">
        <ele>610.0</ele>
      </trkpt>
      <trkpt lat="47.26711" lon="11.27401">
        <ele>607.0</ele>
      </trkpt>
      <trkpt lat="47.26702" lon="11.27715">
        <ele>609.0</ele>
      </trkpt>
      <trkpt lat="47.26683" lon="11.27914">
        <ele>601.0</ele>
      </trkpt>
      <trkpt lat="47.26658" lon="11.28123">
        <ele>598.0</ele>
      </trkpt>
      <trkpt lat="47.26639" lon="11.28299">
        <ele>600.0</ele>
      </trkpt>
      <trkpt lat="47.26594" lon="11.285">
        <ele>604.0</ele>
      </trkpt>
      <trkpt lat="47.26477" lon="11.28714">
        <ele>595.0</ele>
      </trkpt>
      <trkpt lat="47.2644" lon="11.28902">
        <ele>589.0</ele>
      </trkpt>
      <trkpt lat="47.26412" lon="11.29297">
        <ele>584.0</ele>
      </trkpt>
      <trkpt lat="47.26418" lon="11.2942">
        <ele>582.0</ele>
      </trkpt>
      <trkpt lat="47.26432" lon="11.29795">
        <ele>588.0</ele>
      </trkpt>
      <trkpt lat="47.26439" lon="11.29914">
        <ele>593.0</ele>
      </trkpt>
      <trkpt lat="47.2645" lon="11.2998">
        <ele>594.0</ele>
      </trkpt>
      <trkpt lat="47.26522" lon="11.30227">
        <ele>596.0</ele>
      </trkpt>
      <trkpt lat="47.26536" lon="11.30307">
        <ele>600.0</ele>
      </trkpt>
      <trkpt lat="47.26528" lon="11.30366">
        <ele>601.0</ele>
      </trkpt>
      <trkpt lat="47.26515" lon="11.30503">
        <ele>599.0</ele>
      </trkpt>
      <trkpt lat="47.26512" lon="11.30629">
        <ele>596.0</ele>
      </trkpt>
      <trkpt lat="47.26532" lon="11.30779">
        <ele>600.0</ele>
      </trkpt>
      <trkpt lat="47.26547" lon="11.30845">
        <ele>604.0</ele>
      </trkpt>
      <trkpt lat="47.26591" lon="11.30931">
        <ele>607.0</ele>
      </trkpt>
      <trkpt lat="47.26614" lon="11.30982">
        <ele>610.0</ele>
      </trkpt>
      <trkpt lat="47.26632" lon="11.31042">
        <ele>612.0</ele>
      </trkpt>
      <trkpt lat="47.26639" lon="11.31096">
        <ele>614.0</ele>
      </trkpt>
      <trkpt lat="47.2663" lon="11.31199">
        <ele>615.0</ele>
      </trkpt>
      <trkpt lat="47.26705" lon="11.3147">
        <ele>616.0</ele>
      </trkpt>
      <trkpt lat="47.2676" lon="11.3163">
        <ele>619.0</ele>
      </trkpt>
      <trkpt lat="47.26791" lon="11.32079">
        <ele>620.0</ele>
      </trkpt>
      <trkpt lat="47.26773" lon="11.32191">
        <ele>620.0</ele>
      </trkpt>
      <trkpt lat="47.26637" lon="11.32301">
        <ele>618.0</ele>
      </trkpt>
      <trkpt lat="47.26578" lon="11.32366">
        <ele>616.0</ele>
      </trkpt>
      <trkpt lat="47.26525" lon="11.32452">
        <ele>614.0</ele>
      </trkpt>
      <trkpt lat="47.2646" lon="11.32484">
        <ele>613.0</ele>
      </trkpt>
      <trkpt lat="47.26372" lon="11.32572">
        <ele>609.0</ele>
      </trkpt>
      <trkpt lat="47.26329" lon="11.32651">
        <ele>605.0</ele>
      </trkpt>
      <trkpt lat="47.2629" lon="11.32779">
        <ele>602.0</ele>
      </trkpt>
      <trkpt lat="47.26247" lon="11.32866">
        <ele>599.0</ele>
      </trkpt>
      <trkpt lat="47.26186" lon="11.33124">
        <ele>591.0</ele>
      </trkpt>
      <trkpt lat="47.26189" lon="11.33484">
        <ele>581.0</ele>
      </trkpt>
      <trkpt lat="47.2622" lon="11.33919">
        <ele>578.0</ele>
      </trkpt>
      <trkpt lat="47.26214" lon="11.33947">
        <ele>578.0</ele>
      </trkpt>
      <trkpt lat="47.26228" lon="11.33983">
        <ele>577.0</ele>
      </trkpt>
      <trkpt lat="47.263" lon="11.35016">
        <ele>578.0</ele>
      </trkpt>
      <trkpt lat="47.26301" lon="11.35217">
        <ele>577.0</ele>
      </trkpt>
      <trkpt lat="47.26328" lon="11.35588">
        <ele>576.0</ele>
      </trkpt>
      <trkpt lat="47.26365" lon="11.36128">
        <ele>577.0</ele>
      </trkpt>
      <trkpt lat="47.26382" lon="11.36316">
        <ele>577.0</ele>
      </trkpt>
      <trkpt lat="47.264" lon="11.36429">
        <ele>578.0</ele>
      </trkpt>
      <trkpt lat="47.26427" lon="11.36573">
        <ele>578.0</ele>
      </trkpt>
      <trkpt lat="47.26463" lon="11.36852">
        <ele>578.0</ele>
      </trkpt>
      <trkpt lat="47.2649" lon="11.37068">
        <ele>577.0</ele>
      </trkpt>
      <trkpt lat="47.26499" lon="11.37305">
        <ele>577.0</ele>
      </trkpt>
      <trkpt lat="47.26499" lon="11.37499">
        <ele>576.0</ele>
      </trkpt>
      <trkpt lat="47.26491" lon="11.37553">
        <ele>575.0</ele>
      </trkpt>
      <trkpt lat="47.26494" lon="11.37757">
        <ele>575.0</ele>
      </trkpt>
      <trkpt lat="47.26525" lon="11.37819">
        <ele>576.0</ele>
      </trkpt>
      <trkpt lat="47.26559" lon="11.37809">
        <ele>578.0</ele>
      </trkpt>
      <trkpt lat="47.26575" lon="11.37826">
        <ele>578.0</ele>
      </trkpt>
      <trkpt lat="47.2658" lon="11.37874">
        <ele>579.0</ele>
      </trkpt>
      <trkpt lat="47.26585" lon="11.37914">
        <ele>581.0</ele>
      </trkpt>
      <trkpt lat="47.26636" lon="11.38053">
        <ele>584.0</ele>
      </trkpt>
      <trkpt lat="47.26639" lon="11.38103">
        <ele>587.0</ele>
      </trkpt>
      <trkpt lat="47.26684" lon="11.3812">
        <ele>591.0</ele>
      </trkpt>
      <trkpt lat="47.26783" lon="11.38144">
        <ele>602.0</ele>
      </trkpt>
      <trkpt lat="47.26834" lon="11.38249">
        <ele>608.0</ele>
      </trkpt>
      <trkpt lat="47.26881" lon="11.38272">
        <ele>612.0</ele>
      </trkpt>
      <trkpt lat="47.26977" lon="11.38202">
        <ele>616.0</ele>
      </trkpt>
      <trkpt lat="47.27019" lon="11.38178">
        <ele>619.0</ele>
      </trkpt>
      <trkpt lat="47.27066" lon="11.38266">
        <ele>622.0</ele>
      </trkpt>
      <trkpt lat="47.27115" lon="11.38408">
        <ele>619.0</ele>
      </trkpt>
      <trkpt lat="47.27128" lon="11.38546">
        <ele>612.0</ele>
      </trkpt>
      <trkpt lat="47.27128" lon="11.38639">
        <ele>608.0</ele>
      </trkpt>
      <trkpt lat="47.27137" lon="11.38732">
        <ele>604.0</ele>
      </trkpt>
      <trkpt lat="47.27143" lon="11.38807">
        <ele>600.0</ele>
      </trkpt>
      <trkpt lat="47.27183" lon="11.38933">
        <ele>599.0</ele>
      </trkpt>
      <trkpt lat="47.2723" lon="11.38961">
        <ele>598.0</ele>
      </trkpt>
      <trkpt lat="47.27283" lon="11.38987">
        <ele>596.0</ele>
      </trkpt>
      <trkpt lat="47.27364" lon="11.39116">
        <ele>592.0</ele>
      </trkpt>
      <trkpt lat="47.27437" lon="11.39193">
        <ele>589.0</ele>
      </trkpt>
      <trkpt lat="47.27501" lon="11.39201">
        <ele>590.0</ele>
      </trkpt>
      <trkpt lat="47.27471" lon="11.39318">
        <ele>590.0</ele>
      </trkpt>
      <trkpt lat="47.27426" lon="11.39468">
        <ele>582.0</ele>
      </trkpt>
      <trkpt lat="47.27514" lon="11.39574">
        <ele>575.0</ele>
      </trkpt>
      <trkpt lat="47.27723" lon="11.39702">
        <ele>576.0</ele>
      </trkpt>
      <trkpt lat="47.27831" lon="11.39866">
        <ele>580.0</ele>
      </trkpt>
      <trkpt lat="47.27928" lon="11.40021">
        <ele>582.0</ele>
      </trkpt>
      <trkpt lat="47.28064" lon="11.40357">
        <ele>579.0</ele>
      </trkpt>
      <trkpt lat="47.2809" lon="11.40497">
        <ele>573.0</ele>
      </trkpt>
      <trkpt lat="47.27978" lon="11.40449">
        <ele>568.0</ele>
      </trkpt>
      <trkpt lat="47.27931" lon="11.40415">
        <ele>569.0</ele>
      </trkpt>
      <trkpt lat="47.2791" lon="11.4037">
        <ele>570.0</ele>
      </trkpt>
      <trkpt lat="47.27822" lon="11.40213">
        <ele>573.0</ele>
      </trkpt>
      <trkpt lat="47.27723" lon="11.4005">
        <ele>573.0</ele>
      </trkpt>
      <trkpt lat="47.27592" lon="11.3985">
        <ele>574.0</ele>
      </trkpt>
      <trkpt lat="47.2753" lon="11.39775">
        <ele>574.0</ele>
      </trkpt>
      <trkpt lat="47.27384" lon="11.39634">
        <ele>575.0</ele>
      </trkpt>
      <trkpt lat="47.27297" lon="11.39578">
        <ele>578.0</ele>
      </trkpt>
      <trkpt lat="47.27184" lon="11.39559">
        <ele>582.0</ele>
      </trkpt>
    </trkseg>
  </trk>
</gpx>