<?xml version="1.0" encoding="UTF-8"?>
<gpx xmlns="http://www.topografix.com/GPX/1/0" xmlns:xsi="http://www.w3.org/2001/XMLSchema-instance" xsi:schemaLocation="http://www.topografix.com/GPX/1/0 http://www.topografix.com/GPX/1/0/gpx.xsd" version="1.0" creator="GPSBabel - https://www.gpsbabel.org">
  <time>2026-03-23T07:59:24.227000Z</time>
  <bounds minlat="42.95913" maxlat="43.23691" minlon="-3.20673" maxlon="-2.79082" />
  <trk>
    <trkseg>
      <trkpt lat="43.20119" lon="-2.89866">
        <ele>55.0</ele>
      </trkpt>
      <trkpt lat="43.19932" lon="-2.90087">
        <ele>61.0</ele>
      </trkpt>
      <trkpt lat="43.19841" lon="-2.90134">
        <ele>64.0</ele>
      </trkpt>
      <trkpt lat="43.19742" lon="-2.90108">
        <ele>63.0</ele>
      </trkpt>
      <trkpt lat="43.19605" lon="-2.90027">
        <ele>61.0</ele>
      </trkpt>
      <trkpt lat="43.19476" lon="-2.89942">
        <ele>62.0</ele>
      </trkpt>
      <trkpt lat="43.19337" lon="-2.89918">
        <ele>65.0</ele>
      </trkpt>
      <trkpt lat="43.19252" lon="-2.89945">
        <ele>67.0</ele>
      </trkpt>
      <trkpt lat="43.19134" lon="-2.90011">
        <ele>70.0</ele>
      </trkpt>
      <trkpt lat="43.19049" lon="-2.90003">
        <ele>72.0</ele>
      </trkpt>
      <trkpt lat="43.18984" lon="-2.89957">
        <ele>70.0</ele>
      </trkpt>
      <trkpt lat="43.18739" lon="-2.89677">
        <ele>67.0</ele>
      </trkpt>
      <trkpt lat="43.18583" lon="-2.89627">
        <ele>69.0</ele>
      </trkpt>
      <trkpt lat="43.18487" lon="-2.8967">
        <ele>74.0</ele>
      </trkpt>
      <trkpt lat="43.1835" lon="-2.89841">
        <ele>71.0</ele>
      </trkpt>
      <trkpt lat="43.18347" lon="-2.89854">
        <ele>70.0</ele>
      </trkpt>
      <trkpt lat="43.1837" lon="-2.89951">
        <ele>69.0</ele>
      </trkpt>
      <trkpt lat="43.18429" lon="-2.90009">
        <ele>69.0</ele>
      </trkpt>
      <trkpt lat="43.185" lon="-2.90091">
        <ele>70.0</ele>
      </trkpt>
      <trkpt lat="43.18533" lon="-2.90193">
        <ele>74.0</ele>
      </trkpt>
      <trkpt lat="43.18498" lon="-2.90299">
        <ele>72.0</ele>
      </trkpt>
      <trkpt lat="43.18406" lon="-2.90352">
        <ele>69.0</ele>
      </trkpt>
      <trkpt lat="43.18276" lon="-2.90405">
        <ele>75.0</ele>
      </trkpt>
      <trkpt lat="43.18193" lon="-2.90436">
        <ele>79.0</ele>
      </trkpt>
      <trkpt lat="43.18137" lon="-2.90436">
        <ele>81.0</ele>
      </trkpt>
      <trkpt lat="43.17929" lon="-2.90502">
        <ele>88.0</ele>
      </trkpt>
      <trkpt lat="43.17784" lon="-2.90591">
        <ele>90.0</ele>
      </trkpt>
      <trkpt lat="43.17744" lon="-2.90679">
        <ele>90.0</ele>
      </trkpt>
      <trkpt lat="43.17775" lon="-2.90932">
        <ele>81.0</ele>
      </trkpt>
      <trkpt lat="43.17852" lon="-2.91046">
        <ele>83.0</ele>
      </trkpt>
      <trkpt lat="43.18001" lon="-2.91161">
        <ele>88.0</ele>
      </trkpt>
      <trkpt lat="43.17999" lon="-2.91331">
        <ele>89.0</ele>
      </trkpt>
      <trkpt lat="43.17877" lon="-2.91496">
        <ele>86.0</ele>
      </trkpt>
      <trkpt lat="43.17786" lon="-2.91521">
        <ele>84.0</ele>
      </trkpt>
      <trkpt lat="43.17688" lon="-2.91481">
        <ele>82.0</ele>
      </trkpt>
      <trkpt lat="43.17582" lon="-2.91478">
        <ele>91.0</ele>
      </trkpt>
      <trkpt lat="43.17504" lon="-2.91538">
        <ele>98.0</ele>
      </trkpt>
      <trkpt lat="43.17466" lon="-2.91628">
        <ele>99.0</ele>
      </trkpt>
      <trkpt lat="43.17362" lon="-2.91875">
        <ele>98.0</ele>
      </trkpt>
      <trkpt lat="43.1734" lon="-2.91939">
        <ele>97.0</ele>
      </trkpt>
      <trkpt lat="43.17347" lon="-2.91937">
        <ele>97.0</ele>
      </trkpt>
      <trkpt lat="43.17336" lon="-2.92106">
        <ele>102.0</ele>
      </trkpt>
      <trkpt lat="43.17309" lon="-2.91999">
        <ele>100.0</ele>
      </trkpt>
      <trkpt lat="43.17282" lon="-2.92009">
        <ele>99.0</ele>
      </trkpt>
      <trkpt lat="43.17201" lon="-2.92029">
        <ele>95.0</ele>
      </trkpt>
      <trkpt lat="43.17121" lon="-2.92048">
        <ele>94.0</ele>
      </trkpt>
      <trkpt lat="43.16975" lon="-2.92066">
        <ele>96.0</ele>
      </trkpt>
      <trkpt lat="43.16831" lon="-2.92147">
        <ele>109.0</ele>
      </trkpt>
      <trkpt lat="43.16744" lon="-2.92295">
        <ele>123.0</ele>
      </trkpt>
      <trkpt lat="43.16677" lon="-2.92492">
        <ele>129.0</ele>
      </trkpt>
      <trkpt lat="43.16545" lon="-2.92852">
        <ele>118.0</ele>
      </trkpt>
      <trkpt lat="43.16343" lon="-2.93047">
        <ele>113.0</ele>
      </trkpt>
      <trkpt lat="43.16093" lon="-2.93099">
        <ele>112.0</ele>
      </trkpt>
      <trkpt lat="43.15946" lon="-2.93075">
        <ele>122.0</ele>
      </trkpt>
      <trkpt lat="43.15889" lon="-2.9309">
        <ele>128.0</ele>
      </trkpt>
      <trkpt lat="43.15858" lon="-2.93171">
        <ele>131.0</ele>
      </trkpt>
      <trkpt lat="43.15883" lon="-2.93301">
        <ele>135.0</ele>
      </trkpt>
      <trkpt lat="43.15826" lon="-2.93515">
        <ele>132.0</ele>
      </trkpt>
      <trkpt lat="43.15715" lon="-2.93797">
        <ele>120.0</ele>
      </trkpt>
      <trkpt lat="43.1548" lon="-2.94062">
        <ele>121.0</ele>
      </trkpt>
      <trkpt lat="43.15254" lon="-2.94111">
        <ele>111.0</ele>
      </trkpt>
      <trkpt lat="43.15106" lon="-2.94094">
        <ele>110.0</ele>
      </trkpt>
      <trkpt lat="43.15062" lon="-2.94114">
        <ele>111.0</ele>
      </trkpt>
      <trkpt lat="43.15038" lon="-2.94146">
        <ele>112.0</ele>
      </trkpt>
      <trkpt lat="43.15002" lon="-2.94155">
        <ele>112.0</ele>
      </trkpt>
      <trkpt lat="43.14921" lon="-2.94118">
        <ele>112.0</ele>
      </trkpt>
      <trkpt lat="43.14846" lon="-2.94046">
        <ele>111.0</ele>
      </trkpt>
      <trkpt lat="43.14737" lon="-2.94041">
        <ele>114.0</ele>
      </trkpt>
      <trkpt lat="43.1469" lon="-2.94073">
        <ele>117.0</ele>
      </trkpt>
      <trkpt lat="43.14667" lon="-2.94126">
        <ele>118.0</ele>
      </trkpt>
      <trkpt lat="43.147" lon="-2.94305">
        <ele>118.0</ele>
      </trkpt>
      <trkpt lat="43.14722" lon="-2.94413">
        <ele>117.0</ele>
      </trkpt>
      <trkpt lat="43.14807" lon="-2.94819">
        <ele>119.0</ele>
      </trkpt>
      <trkpt lat="43.14873" lon="-2.95156">
        <ele>122.0</ele>
      </trkpt>
      <trkpt lat="43.1489" lon="-2.95347">
        <ele>121.0</ele>
      </trkpt>
      <trkpt lat="43.14807" lon="-2.95641">
        <ele>119.0</ele>
      </trkpt>
      <trkpt lat="43.14725" lon="-2.95724">
        <ele>118.0</ele>
      </trkpt>
      <trkpt lat="43.14702" lon="-2.95801">
        <ele>120.0</ele>
      </trkpt>
      <trkpt lat="43.14648" lon="-2.95903">
        <ele>121.0</ele>
      </trkpt>
      <trkpt lat="43.14489" lon="-2.96108">
        <ele>125.0</ele>
      </trkpt>
      <trkpt lat="43.14471" lon="-2.96254">
        <ele>126.0</ele>
      </trkpt>
      <trkpt lat="43.14413" lon="-2.96333">
        <ele>126.0</ele>
      </trkpt>
      <trkpt lat="43.14462" lon="-2.9641">
        <ele>127.0</ele>
      </trkpt>
      <trkpt lat="43.14604" lon="-2.96637">
        <ele>133.0</ele>
      </trkpt>
      <trkpt lat="43.14684" lon="-2.96778">
        <ele>136.0</ele>
      </trkpt>
      <trkpt lat="43.14766" lon="-2.9691">
        <ele>137.0</ele>
      </trkpt>
      <trkpt lat="43.14909" lon="-2.97109">
        <ele>137.0</ele>
      </trkpt>
      <trkpt lat="43.15219" lon="-2.97468">
        <ele>144.0</ele>
      </trkpt>
      <trkpt lat="43.15635" lon="-2.97921">
        <ele>166.0</ele>
      </trkpt>
      <trkpt lat="43.1597" lon="-2.98133">
        <ele>188.0</ele>
      </trkpt>
      <trkpt lat="43.16117" lon="-2.98245">
        <ele>212.0</ele>
      </trkpt>
      <trkpt lat="43.16221" lon="-2.98251">
        <ele>226.0</ele>
      </trkpt>
      <trkpt lat="43.16412" lon="-2.98146">
        <ele>236.0</ele>
      </trkpt>
      <trkpt lat="43.1637" lon="-2.98225">
        <ele>239.0</ele>
      </trkpt>
      <trkpt lat="43.16286" lon="-2.98345">
        <ele>242.0</ele>
      </trkpt>
      <trkpt lat="43.16217" lon="-2.98541">
        <ele>249.0</ele>
      </trkpt>
      <trkpt lat="43.16256" lon="-2.98634">
        <ele>252.0</ele>
      </trkpt>
      <trkpt lat="43.16333" lon="-2.98692">
        <ele>257.0</ele>
      </trkpt>
      <trkpt lat="43.16364" lon="-2.98829">
        <ele>265.0</ele>
      </trkpt>
      <trkpt lat="43.16441" lon="-2.98984">
        <ele>271.0</ele>
      </trkpt>
      <trkpt lat="43.16533" lon="-2.99081">
        <ele>268.0</ele>
      </trkpt>
      <trkpt lat="43.16609" lon="-2.9922">
        <ele>256.0</ele>
      </trkpt>
      <trkpt lat="43.16689" lon="-2.99305">
        <ele>248.0</ele>
      </trkpt>
      <trkpt lat="43.16717" lon="-2.99384">
        <ele>245.0</ele>
      </trkpt>
      <trkpt lat="43.16779" lon="-2.99511">
        <ele>241.0</ele>
      </trkpt>
      <trkpt lat="43.16845" lon="-2.99541">
        <ele>234.0</ele>
      </trkpt>
      <trkpt lat="43.16874" lon="-2.99655">
        <ele>227.0</ele>
      </trkpt>
      <trkpt lat="43.16949" lon="-2.99721">
        <ele>219.0</ele>
      </trkpt>
      <trkpt lat="43.17049" lon="-2.99756">
        <ele>212.0</ele>
      </trkpt>
      <trkpt lat="43.17143" lon="-2.99743">
        <ele>204.0</ele>
      </trkpt>
      <trkpt lat="43.17189" lon="-2.99774">
        <ele>197.0</ele>
      </trkpt>
      <trkpt lat="43.17155" lon="-2.99839">
        <ele>194.0</ele>
      </trkpt>
      <trkpt lat="43.17095" lon="-2.99903">
        <ele>194.0</ele>
      </trkpt>
      <trkpt lat="43.1704" lon="-2.99918">
        <ele>194.0</ele>
      </trkpt>
      <trkpt lat="43.16874" lon="-2.99883">
        <ele>185.0</ele>
      </trkpt>
      <trkpt lat="43.16747" lon="-2.99917">
        <ele>175.0</ele>
      </trkpt>
      <trkpt lat="43.16652" lon="-2.99965">
        <ele>170.0</ele>
      </trkpt>
      <trkpt lat="43.16534" lon="-3.0002">
        <ele>172.0</ele>
      </trkpt>
      <trkpt lat="43.16484" lon="-3.00108">
        <ele>170.0</ele>
      </trkpt>
      <trkpt lat="43.16395" lon="-3.00254">
        <ele>164.0</ele>
      </trkpt>
      <trkpt lat="43.1634" lon="-3.00398">
        <ele>160.0</ele>
      </trkpt>
      <trkpt lat="43.16358" lon="-3.00608">
        <ele>158.0</ele>
      </trkpt>
      <trkpt lat="43.16373" lon="-3.00777">
        <ele>157.0</ele>
      </trkpt>
      <trkpt lat="43.16347" lon="-3.0093">
        <ele>157.0</ele>
      </trkpt>
      <trkpt lat="43.16204" lon="-3.01278">
        <ele>156.0</ele>
      </trkpt>
      <trkpt lat="43.16141" lon="-3.01482">
        <ele>156.0</ele>
      </trkpt>
      <trkpt lat="43.16135" lon="-3.0175">
        <ele>147.0</ele>
      </trkpt>
      <trkpt lat="43.16122" lon="-3.01953">
        <ele>133.0</ele>
      </trkpt>
      <trkpt lat="43.16046" lon="-3.02216">
        <ele>124.0</ele>
      </trkpt>
      <trkpt lat="43.15999" lon="-3.02463">
        <ele>126.0</ele>
      </trkpt>
      <trkpt lat="43.16027" lon="-3.02563">
        <ele>129.0</ele>
      </trkpt>
      <trkpt lat="43.1605" lon="-3.02583">
        <ele>130.0</ele>
      </trkpt>
      <trkpt lat="43.16335" lon="-3.02569">
        <ele>130.0</ele>
      </trkpt>
      <trkpt lat="43.16502" lon="-3.02576">
        <ele>129.0</ele>
      </trkpt>
      <trkpt lat="43.1695" lon="-3.02838">
        <ele>121.0</ele>
      </trkpt>
      <trkpt lat="43.17005" lon="-3.02899">
        <ele>114.0</ele>
      </trkpt>
      <trkpt lat="43.17152" lon="-3.02897">
        <ele>112.0</ele>
      </trkpt>
      <trkpt lat="43.17222" lon="-3.02834">
        <ele>112.0</ele>
      </trkpt>
      <trkpt lat="43.1732" lon="-3.02855">
        <ele>112.0</ele>
      </trkpt>
      <trkpt lat="43.17386" lon="-3.02887">
        <ele>112.0</ele>
      </trkpt>
      <trkpt lat="43.17427" lon="-3.03027">
        <ele>118.0</ele>
      </trkpt>
      <trkpt lat="43.17468" lon="-3.03113">
        <ele>123.0</ele>
      </trkpt>
      <trkpt lat="43.17616" lon="-3.03183">
        <ele>118.0</ele>
      </trkpt>
      <trkpt lat="43.17709" lon="-3.0322">
        <ele>113.0</ele>
      </trkpt>
      <trkpt lat="43.17758" lon="-3.03351">
        <ele>112.0</ele>
      </trkpt>
      <trkpt lat="43.17806" lon="-3.03575">
        <ele>107.0</ele>
      </trkpt>
      <trkpt lat="43.17857" lon="-3.03735">
        <ele>102.0</ele>
      </trkpt>
      <trkpt lat="43.17923" lon="-3.03862">
        <ele>103.0</ele>
      </trkpt>
      <trkpt lat="43.18068" lon="-3.03791">
        <ele>105.0</ele>
      </trkpt>
      <trkpt lat="43.18199" lon="-3.03778">
        <ele>110.0</ele>
      </trkpt>
      <trkpt lat="43.1823" lon="-3.03886">
        <ele>113.0</ele>
      </trkpt>
      <trkpt lat="43.18225" lon="-3.03995">
        <ele>118.0</ele>
      </trkpt>
      <trkpt lat="43.18319" lon="-3.04081">
        <ele>125.0</ele>
      </trkpt>
      <trkpt lat="43.1842" lon="-3.04144">
        <ele>129.0</ele>
      </trkpt>
      <trkpt lat="43.18471" lon="-3.0425">
        <ele>129.0</ele>
      </trkpt>
      <trkpt lat="43.18432" lon="-3.04356">
        <ele>125.0</ele>
      </trkpt>
      <trkpt lat="43.18465" lon="-3.044">
        <ele>121.0</ele>
      </trkpt>
      <trkpt lat="43.18531" lon="-3.04443">
        <ele>117.0</ele>
      </trkpt>
      <trkpt lat="43.18587" lon="-3.04534">
        <ele>116.0</ele>
      </trkpt>
      <trkpt lat="43.18693" lon="-3.04554">
        <ele>112.0</ele>
      </trkpt>
      <trkpt lat="43.18843" lon="-3.04517">
        <ele>99.0</ele>
      </trkpt>
      <trkpt lat="43.18922" lon="-3.04537">
        <ele>91.0</ele>
      </trkpt>
      <trkpt lat="43.18978" lon="-3.04663">
        <ele>85.0</ele>
      </trkpt>
      <trkpt lat="43.19051" lon="-3.04682">
        <ele>81.0</ele>
      </trkpt>
      <trkpt lat="43.192" lon="-3.04567">
        <ele>74.0</ele>
      </trkpt>
      <trkpt lat="43.19278" lon="-3.04631">
        <ele>66.0</ele>
      </trkpt>
      <trkpt lat="43.19335" lon="-3.04682">
        <ele>63.0</ele>
      </trkpt>
      <trkpt lat="43.19371" lon="-3.04685">
        <ele>63.0</ele>
      </trkpt>
      <trkpt lat="43.194" lon="-3.04747">
        <ele>62.0</ele>
      </trkpt>
      <trkpt lat="43.19473" lon="-3.04763">
        <ele>61.0</ele>
      </trkpt>
      <trkpt lat="43.1962" lon="-3.04783">
        <ele>61.0</ele>
      </trkpt>
      <trkpt lat="43.19811" lon="-3.04809">
        <ele>64.0</ele>
      </trkpt>
      <trkpt lat="43.19957" lon="-3.04829">
        <ele>61.0</ele>
      </trkpt>
      <trkpt lat="43.20104" lon="-3.04848">
        <ele>57.0</ele>
      </trkpt>
      <trkpt lat="43.20138" lon="-3.04849">
        <ele>55.0</ele>
      </trkpt>
      <trkpt lat="43.20174" lon="-3.04862">
        <ele>53.0</ele>
      </trkpt>
      <trkpt lat="43.20216" lon="-3.0491">
        <ele>54.0</ele>
      </trkpt>
      <trkpt lat="43.20242" lon="-3.04968">
        <ele>55.0</ele>
      </trkpt>
      <trkpt lat="43.20263" lon="-3.04997">
        <ele>57.0</ele>
      </trkpt>
      <trkpt lat="43.2023" lon="-3.05052">
        <ele>59.0</ele>
      </trkpt>
      <trkpt lat="43.20177" lon="-3.05113">
        <ele>59.0</ele>
      </trkpt>
      <trkpt lat="43.20078" lon="-3.05236">
        <ele>57.0</ele>
      </trkpt>
      <trkpt lat="43.20014" lon="-3.05323">
        <ele>57.0</ele>
      </trkpt>
      <trkpt lat="43.19927" lon="-3.05487">
        <ele>59.0</ele>
      </trkpt>
      <trkpt lat="43.19851" lon="-3.05631">
        <ele>62.0</ele>
      </trkpt>
      <trkpt lat="43.19797" lon="-3.05781">
        <ele>64.0</ele>
      </trkpt>
      <trkpt lat="43.19761" lon="-3.05921">
        <ele>67.0</ele>
      </trkpt>
      <trkpt lat="43.19697" lon="-3.06084">
        <ele>77.0</ele>
      </trkpt>
      <trkpt lat="43.19655" lon="-3.06215">
        <ele>79.0</ele>
      </trkpt>
      <trkpt lat="43.19683" lon="-3.06387">
        <ele>77.0</ele>
      </trkpt>
      <trkpt lat="43.19734" lon="-3.06527">
        <ele>75.0</ele>
      </trkpt>
      <trkpt lat="43.19785" lon="-3.06603">
        <ele>74.0</ele>
      </trkpt>
      <trkpt lat="43.1983" lon="-3.06685">
        <ele>74.0</ele>
      </trkpt>
      <trkpt lat="43.19923" lon="-3.06819">
        <ele>74.0</ele>
      </trkpt>
      <trkpt lat="43.2" lon="-3.06981">
        <ele>72.0</ele>
      </trkpt>
      <trkpt lat="43.20041" lon="-3.07039">
        <ele>70.0</ele>
      </trkpt>
      <trkpt lat="43.20113" lon="-3.07153">
        <ele>67.0</ele>
      </trkpt>
      <trkpt lat="43.20238" lon="-3.07323">
        <ele>66.0</ele>
      </trkpt>
      <trkpt lat="43.20435" lon="-3.07561">
        <ele>67.0</ele>
      </trkpt>
      <trkpt lat="43.20547" lon="-3.07705">
        <ele>72.0</ele>
      </trkpt>
      <trkpt lat="43.20621" lon="-3.0783">
        <ele>73.0</ele>
      </trkpt>
      <trkpt lat="43.20634" lon="-3.07918">
        <ele>72.0</ele>
      </trkpt>
      <trkpt lat="43.20634" lon="-3.08093">
        <ele>70.0</ele>
      </trkpt>
      <trkpt lat="43.20638" lon="-3.08486">
        <ele>70.0</ele>
      </trkpt>
      <trkpt lat="43.2064" lon="-3.08676">
        <ele>73.0</ele>
      </trkpt>
      <trkpt lat="43.20647" lon="-3.08703">
        <ele>75.0</ele>
      </trkpt>
      <trkpt lat="43.20645" lon="-3.08717">
        <ele>75.0</ele>
      </trkpt>
      <trkpt lat="43.20641" lon="-3.08815">
        <ele>77.0</ele>
      </trkpt>
      <trkpt lat="43.20665" lon="-3.0891">
        <ele>78.0</ele>
      </trkpt>
      <trkpt lat="43.20848" lon="-3.09176">
        <ele>78.0</ele>
      </trkpt>
      <trkpt lat="43.20879" lon="-3.09223">
        <ele>74.0</ele>
      </trkpt>
      <trkpt lat="43.21009" lon="-3.09521">
        <ele>72.0</ele>
      </trkpt>
      <trkpt lat="43.2105" lon="-3.09639">
        <ele>78.0</ele>
      </trkpt>
      <trkpt lat="43.21024" lon="-3.09757">
        <ele>83.0</ele>
      </trkpt>
      <trkpt lat="43.2101" lon="-3.09964">
        <ele>83.0</ele>
      </trkpt>
      <trkpt lat="43.20953" lon="-3.10239">
        <ele>83.0</ele>
      </trkpt>
      <trkpt lat="43.20907" lon="-3.10501">
        <ele>83.0</ele>
      </trkpt>
      <trkpt lat="43.20881" lon="-3.10656">
        <ele>84.0</ele>
      </trkpt>
      <trkpt lat="43.20874" lon="-3.10902">
        <ele>86.0</ele>
      </trkpt>
      <trkpt lat="43.20865" lon="-3.10996">
        <ele>86.0</ele>
      </trkpt>
      <trkpt lat="43.20862" lon="-3.11034">
        <ele>87.0</ele>
      </trkpt>
      <trkpt lat="43.20838" lon="-3.1104">
        <ele>88.0</ele>
      </trkpt>
      <trkpt lat="43.20763" lon="-3.11076">
        <ele>91.0</ele>
      </trkpt>
      <trkpt lat="43.20722" lon="-3.11231">
        <ele>95.0</ele>
      </trkpt>
      <trkpt lat="43.2068" lon="-3.1142">
        <ele>101.0</ele>
      </trkpt>
      <trkpt lat="43.20644" lon="-3.11606">
        <ele>102.0</ele>
      </trkpt>
      <trkpt lat="43.20604" lon="-3.11895">
        <ele>102.0</ele>
      </trkpt>
      <trkpt lat="43.2056" lon="-3.12255">
        <ele>105.0</ele>
      </trkpt>
      <trkpt lat="43.20542" lon="-3.12391">
        <ele>109.0</ele>
      </trkpt>
      <trkpt lat="43.20517" lon="-3.12585">
        <ele>115.0</ele>
      </trkpt>
      <trkpt lat="43.20494" lon="-3.12799">
        <ele>115.0</ele>
      </trkpt>
      <trkpt lat="43.20474" lon="-3.12966">
        <ele>115.0</ele>
      </trkpt>
      <trkpt lat="43.20466" lon="-3.13114">
        <ele>116.0</ele>
      </trkpt>
      <trkpt lat="43.20474" lon="-3.13544">
        <ele>116.0</ele>
      </trkpt>
      <trkpt lat="43.2048" lon="-3.13789">
        <ele>119.0</ele>
      </trkpt>
      <trkpt lat="43.20469" lon="-3.13872">
        <ele>120.0</ele>
      </trkpt>
      <trkpt lat="43.20439" lon="-3.13969">
        <ele>121.0</ele>
      </trkpt>
      <trkpt lat="43.2038" lon="-3.1407">
        <ele>118.0</ele>
      </trkpt>
      <trkpt lat="43.20252" lon="-3.14172">
        <ele>115.0</ele>
      </trkpt>
      <trkpt lat="43.20135" lon="-3.14254">
        <ele>111.0</ele>
      </trkpt>
      <trkpt lat="43.20065" lon="-3.14335">
        <ele>109.0</ele>
      </trkpt>
      <trkpt lat="43.20004" lon="-3.14433">
        <ele>109.0</ele>
      </trkpt>
      <trkpt lat="43.19916" lon="-3.14578">
        <ele>109.0</ele>
      </trkpt>
      <trkpt lat="43.19854" lon="-3.14705">
        <ele>110.0</ele>
      </trkpt>
      <trkpt lat="43.19838" lon="-3.14833">
        <ele>113.0</ele>
      </trkpt>
      <trkpt lat="43.19845" lon="-3.14935">
        <ele>122.0</ele>
      </trkpt>
      <trkpt lat="43.19847" lon="-3.14989">
        <ele>132.0</ele>
      </trkpt>
      <trkpt lat="43.19836" lon="-3.15141">
        <ele>149.0</ele>
      </trkpt>
      <trkpt lat="43.19775" lon="-3.15357">
        <ele>134.0</ele>
      </trkpt>
      <trkpt lat="43.19743" lon="-3.15543">
        <ele>122.0</ele>
      </trkpt>
      <trkpt lat="43.19778" lon="-3.15774">
        <ele>124.0</ele>
      </trkpt>
      <trkpt lat="43.19872" lon="-3.15907">
        <ele>127.0</ele>
      </trkpt>
      <trkpt lat="43.20054" lon="-3.15949">
        <ele>131.0</ele>
      </trkpt>
      <trkpt lat="43.20182" lon="-3.16007">
        <ele>136.0</ele>
      </trkpt>
      <trkpt lat="43.20259" lon="-3.16132">
        <ele>139.0</ele>
      </trkpt>
      <trkpt lat="43.20279" lon="-3.16311">
        <ele>141.0</ele>
      </trkpt>
      <trkpt lat="43.20198" lon="-3.16519">
        <ele>142.0</ele>
      </trkpt>
      <trkpt lat="43.20099" lon="-3.16709">
        <ele>144.0</ele>
      </trkpt>
      <trkpt lat="43.20093" lon="-3.16854">
        <ele>146.0</ele>
      </trkpt>
      <trkpt lat="43.202" lon="-3.17073">
        <ele>145.0</ele>
      </trkpt>
      <trkpt lat="43.20304" lon="-3.17267">
        <ele>153.0</ele>
      </trkpt>
      <trkpt lat="43.20299" lon="-3.17446">
        <ele>149.0</ele>
      </trkpt>
      <trkpt lat="43.20204" lon="-3.17609">
        <ele>145.0</ele>
      </trkpt>
      <trkpt lat="43.19906" lon="-3.17917">
        <ele>147.0</ele>
      </trkpt>
      <trkpt lat="43.19815" lon="-3.18104">
        <ele>139.0</ele>
      </trkpt>
      <trkpt lat="43.19767" lon="-3.18405">
        <ele>143.0</ele>
      </trkpt>
      <trkpt lat="43.19698" lon="-3.18611">
        <ele>153.0</ele>
      </trkpt>
      <trkpt lat="43.19557" lon="-3.18787">
        <ele>172.0</ele>
      </trkpt>
      <trkpt lat="43.19201" lon="-3.18987">
        <ele>190.0</ele>
      </trkpt>
      <trkpt lat="43.19074" lon="-3.19147">
        <ele>200.0</ele>
      </trkpt>
      <trkpt lat="43.18904" lon="-3.19604">
        <ele>194.0</ele>
      </trkpt>
      <trkpt lat="43.18659" lon="-3.1999">
        <ele>176.0</ele>
      </trkpt>
      <trkpt lat="43.18594" lon="-3.20164">
        <ele>166.0</ele>
      </trkpt>
      <trkpt lat="43.18568" lon="-3.20328">
        <ele>157.0</ele>
      </trkpt>
      <trkpt lat="43.18548" lon="-3.20424">
        <ele>157.0</ele>
      </trkpt>
      <trkpt lat="43.18581" lon="-3.20386">
        <ele>158.0</ele>
      </trkpt>
      <trkpt lat="43.18583" lon="-3.20351">
        <ele>158.0</ele>
      </trkpt>
      <trkpt lat="43.18559" lon="-3.20262">
        <ele>159.0</ele>
      </trkpt>
      <trkpt lat="43.18341" lon="-3.20373">
        <ele>164.0</ele>
      </trkpt>
      <trkpt lat="43.18251" lon="-3.20435">
        <ele>171.0</ele>
      </trkpt>
      <trkpt lat="43.18137" lon="-3.20516">
        <ele>179.0</ele>
      </trkpt>
      <trkpt lat="43.17979" lon="-3.2067">
        <ele>194.0</ele>
      </trkpt>
      <trkpt lat="43.17873" lon="-3.20646">
        <ele>203.0</ele>
      </trkpt>
      <trkpt lat="43.17815" lon="-3.20581">
        <ele>208.0</ele>
      </trkpt>
      <trkpt lat="43.17717" lon="-3.205">
        <ele>215.0</ele>
      </trkpt>
      <trkpt lat="43.17625" lon="-3.20406">
        <ele>220.0</ele>
      </trkpt>
      <trkpt lat="43.17582" lon="-3.20388">
        <ele>223.0</ele>
      </trkpt>
      <trkpt lat="43.17473" lon="-3.20359">
        <ele>228.0</ele>
      </trkpt>
      <trkpt lat="43.17433" lon="-3.20239">
        <ele>233.0</ele>
      </trkpt>
      <trkpt lat="43.17343" lon="-3.20126">
        <ele>237.0</ele>
      </trkpt>
      <trkpt lat="43.17205" lon="-3.19995">
        <ele>238.0</ele>
      </trkpt>
      <trkpt lat="43.17118" lon="-3.19806">
        <ele>242.0</ele>
      </trkpt>
      <trkpt lat="43.17094" lon="-3.19633">
        <ele>250.0</ele>
      </trkpt>
      <trkpt lat="43.17034" lon="-3.19457">
        <ele>255.0</ele>
      </trkpt>
      <trkpt lat="43.16975" lon="-3.19423">
        <ele>259.0</ele>
      </trkpt>
      <trkpt lat="43.16926" lon="-3.19446">
        <ele>261.0</ele>
      </trkpt>
      <trkpt lat="43.16857" lon="-3.19434">
        <ele>263.0</ele>
      </trkpt>
      <trkpt lat="43.16748" lon="-3.19462">
        <ele>263.0</ele>
      </trkpt>
      <trkpt lat="43.16672" lon="-3.19463">
        <ele>263.0</ele>
      </trkpt>
      <trkpt lat="43.16613" lon="-3.19436">
        <ele>265.0</ele>
      </trkpt>
      <trkpt lat="43.16567" lon="-3.19367">
        <ele>266.0</ele>
      </trkpt>
      <trkpt lat="43.16524" lon="-3.19279">
        <ele>270.0</ele>
      </trkpt>
      <trkpt lat="43.16457" lon="-3.19259">
        <ele>274.0</ele>
      </trkpt>
      <trkpt lat="43.16352" lon="-3.19296">
        <ele>280.0</ele>
      </trkpt>
      <trkpt lat="43.16259" lon="-3.19278">
        <ele>282.0</ele>
      </trkpt>
      <trkpt lat="43.16201" lon="-3.1926">
        <ele>282.0</ele>
      </trkpt>
      <trkpt lat="43.16127" lon="-3.1916">
        <ele>281.0</ele>
      </trkpt>
      <trkpt lat="43.16032" lon="-3.19016">
        <ele>279.0</ele>
      </trkpt>
      <trkpt lat="43.1597" lon="-3.18897">
        <ele>281.0</ele>
      </trkpt>
      <trkpt lat="43.1591" lon="-3.18751">
        <ele>282.0</ele>
      </trkpt>
      <trkpt lat="43.15904" lon="-3.18649">
        <ele>282.0</ele>
      </trkpt>
      <trkpt lat="43.15918" lon="-3.18498">
        <ele>279.0</ele>
      </trkpt>
      <trkpt lat="43.15903" lon="-3.18419">
        <ele>276.0</ele>
      </trkpt>
      <trkpt lat="43.15854" lon="-3.18296">
        <ele>272.0</ele>
      </trkpt>
      <trkpt lat="43.15816" lon="-3.18212">
        <ele>268.0</ele>
      </trkpt>
      <trkpt lat="43.1578" lon="-3.18126">
        <ele>264.0</ele>
      </trkpt>
      <trkpt lat="43.15725" lon="-3.18028">
        <ele>257.0</ele>
      </trkpt>
      <trkpt lat="43.15674" lon="-3.17955">
        <ele>251.0</ele>
      </trkpt>
      <trkpt lat="43.1565" lon="-3.17899">
        <ele>246.0</ele>
      </trkpt>
      <trkpt lat="43.15594" lon="-3.1785">
        <ele>241.0</ele>
      </trkpt>
      <trkpt lat="43.1552" lon="-3.17743">
        <ele>235.0</ele>
      </trkpt>
      <trkpt lat="43.15458" lon="-3.17663">
        <ele>230.0</ele>
      </trkpt>
      <trkpt lat="43.15377" lon="-3.17556">
        <ele>223.0</ele>
      </trkpt>
      <trkpt lat="43.15293" lon="-3.17423">
        <ele>213.0</ele>
      </trkpt>
      <trkpt lat="43.15249" lon="-3.1731">
        <ele>209.0</ele>
      </trkpt>
      <trkpt lat="43.15187" lon="-3.17198">
        <ele>205.0</ele>
      </trkpt>
      <trkpt lat="43.15115" lon="-3.17063">
        <ele>198.0</ele>
      </trkpt>
      <trkpt lat="43.1509" lon="-3.16967">
        <ele>194.0</ele>
      </trkpt>
      <trkpt lat="43.15035" lon="-3.16822">
        <ele>192.0</ele>
      </trkpt>
      <trkpt lat="43.14978" lon="-3.16675">
        <ele>196.0</ele>
      </trkpt>
      <trkpt lat="43.14947" lon="-3.16646">
        <ele>200.0</ele>
      </trkpt>
      <trkpt lat="43.1489" lon="-3.1669">
        <ele>204.0</ele>
      </trkpt>
      <trkpt lat="43.14796" lon="-3.16797">
        <ele>211.0</ele>
      </trkpt>
      <trkpt lat="43.14738" lon="-3.1685">
        <ele>216.0</ele>
      </trkpt>
      <trkpt lat="43.14633" lon="-3.1686">
        <ele>226.0</ele>
      </trkpt>
      <trkpt lat="43.14593" lon="-3.16808">
        <ele>233.0</ele>
      </trkpt>
      <trkpt lat="43.14558" lon="-3.16771">
        <ele>237.0</ele>
      </trkpt>
      <trkpt lat="43.14498" lon="-3.16663">
        <ele>243.0</ele>
      </trkpt>
      <trkpt lat="43.14458" lon="-3.16624">
        <ele>247.0</ele>
      </trkpt>
      <trkpt lat="43.14397" lon="-3.16409">
        <ele>258.0</ele>
      </trkpt>
      <trkpt lat="43.14356" lon="-3.16303">
        <ele>265.0</ele>
      </trkpt>
      <trkpt lat="43.14339" lon="-3.16205">
        <ele>269.0</ele>
      </trkpt>
      <trkpt lat="43.14357" lon="-3.16077">
        <ele>276.0</ele>
      </trkpt>
      <trkpt lat="43.14289" lon="-3.16014">
        <ele>282.0</ele>
      </trkpt>
      <trkpt lat="43.14209" lon="-3.15994">
        <ele>290.0</ele>
      </trkpt>
      <trkpt lat="43.14094" lon="-3.15865">
        <ele>295.0</ele>
      </trkpt>
      <trkpt lat="43.14024" lon="-3.15733">
        <ele>302.0</ele>
      </trkpt>
      <trkpt lat="43.13955" lon="-3.15624">
        <ele>310.0</ele>
      </trkpt>
      <trkpt lat="43.13889" lon="-3.15604">
        <ele>315.0</ele>
      </trkpt>
      <trkpt lat="43.13851" lon="-3.15527">
        <ele>319.0</ele>
      </trkpt>
      <trkpt lat="43.13884" lon="-3.15383">
        <ele>325.0</ele>
      </trkpt>
      <trkpt lat="43.13868" lon="-3.15334">
        <ele>329.0</ele>
      </trkpt>
      <trkpt lat="43.13775" lon="-3.15259">
        <ele>335.0</ele>
      </trkpt>
      <trkpt lat="43.13716" lon="-3.15037">
        <ele>344.0</ele>
      </trkpt>
      <trkpt lat="43.13684" lon="-3.14979">
        <ele>349.0</ele>
      </trkpt>
      <trkpt lat="43.13591" lon="-3.14976">
        <ele>351.0</ele>
      </trkpt>
      <trkpt lat="43.1354" lon="-3.14918">
        <ele>352.0</ele>
      </trkpt>
      <trkpt lat="43.1348" lon="-3.14818">
        <ele>352.0</ele>
      </trkpt>
      <trkpt lat="43.13454" lon="-3.1461">
        <ele>359.0</ele>
      </trkpt>
      <trkpt lat="43.13481" lon="-3.14484">
        <ele>367.0</ele>
      </trkpt>
      <trkpt lat="43.13384" lon="-3.14321">
        <ele>365.0</ele>
      </trkpt>
      <trkpt lat="43.13249" lon="-3.14176">
        <ele>354.0</ele>
      </trkpt>
      <trkpt lat="43.13202" lon="-3.1416">
        <ele>348.0</ele>
      </trkpt>
      <trkpt lat="43.13242" lon="-3.1413">
        <ele>344.0</ele>
      </trkpt>
      <trkpt lat="43.13299" lon="-3.14159">
        <ele>341.0</ele>
      </trkpt>
      <trkpt lat="43.13273" lon="-3.14038">
        <ele>336.0</ele>
      </trkpt>
      <trkpt lat="43.13104" lon="-3.13874">
        <ele>316.0</ele>
      </trkpt>
      <trkpt lat="43.12962" lon="-3.13758">
        <ele>289.0</ele>
      </trkpt>
      <trkpt lat="43.12896" lon="-3.13715">
        <ele>279.0</ele>
      </trkpt>
      <trkpt lat="43.12811" lon="-3.13644">
        <ele>269.0</ele>
      </trkpt>
      <trkpt lat="43.12733" lon="-3.1353">
        <ele>257.0</ele>
      </trkpt>
      <trkpt lat="43.12662" lon="-3.13549">
        <ele>249.0</ele>
      </trkpt>
      <trkpt lat="43.12507" lon="-3.13449">
        <ele>233.0</ele>
      </trkpt>
      <trkpt lat="43.12349" lon="-3.13312">
        <ele>209.0</ele>
      </trkpt>
      <trkpt lat="43.12274" lon="-3.13224">
        <ele>203.0</ele>
      </trkpt>
      <trkpt lat="43.12186" lon="-3.13101">
        <ele>200.0</ele>
      </trkpt>
      <trkpt lat="43.12186" lon="-3.1309">
        <ele>199.0</ele>
      </trkpt>
      <trkpt lat="43.12195" lon="-3.13084">
        <ele>199.0</ele>
      </trkpt>
      <trkpt lat="43.12261" lon="-3.13">
        <ele>198.0</ele>
      </trkpt>
      <trkpt lat="43.1224" lon="-3.12865">
        <ele>197.0</ele>
      </trkpt>
      <trkpt lat="43.12207" lon="-3.12698">
        <ele>194.0</ele>
      </trkpt>
      <trkpt lat="43.12203" lon="-3.12605">
        <ele>191.0</ele>
      </trkpt>
      <trkpt lat="43.123" lon="-3.12319">
        <ele>184.0</ele>
      </trkpt>
      <trkpt lat="43.12355" lon="-3.12141">
        <ele>172.0</ele>
      </trkpt>
      <trkpt lat="43.12349" lon="-3.12125">
        <ele>170.0</ele>
      </trkpt>
      <trkpt lat="43.12356" lon="-3.12097">
        <ele>169.0</ele>
      </trkpt>
      <trkpt lat="43.12374" lon="-3.12055">
        <ele>167.0</ele>
      </trkpt>
      <trkpt lat="43.12394" lon="-3.11936">
        <ele>163.0</ele>
      </trkpt>
      <trkpt lat="43.12372" lon="-3.11776">
        <ele>162.0</ele>
      </trkpt>
      <trkpt lat="43.1229" lon="-3.11573">
        <ele>167.0</ele>
      </trkpt>
      <trkpt lat="43.12229" lon="-3.11353">
        <ele>181.0</ele>
      </trkpt>
      <trkpt lat="43.12053" lon="-3.10861">
        <ele>219.0</ele>
      </trkpt>
      <trkpt lat="43.11969" lon="-3.10774">
        <ele>227.0</ele>
      </trkpt>
      <trkpt lat="43.1186" lon="-3.10731">
        <ele>222.0</ele>
      </trkpt>
      <trkpt lat="43.11781" lon="-3.10606">
        <ele>222.0</ele>
      </trkpt>
      <trkpt lat="43.1167" lon="-3.10156">
        <ele>237.0</ele>
      </trkpt>
      <trkpt lat="43.11612" lon="-3.10071">
        <ele>236.0</ele>
      </trkpt>
      <trkpt lat="43.11446" lon="-3.09938">
        <ele>228.0</ele>
      </trkpt>
      <trkpt lat="43.11359" lon="-3.09809">
        <ele>217.0</ele>
      </trkpt>
      <trkpt lat="43.11207" lon="-3.0959">
        <ele>209.0</ele>
      </trkpt>
      <trkpt lat="43.11113" lon="-3.09474">
        <ele>195.0</ele>
      </trkpt>
      <trkpt lat="43.11028" lon="-3.09419">
        <ele>188.0</ele>
      </trkpt>
      <trkpt lat="43.10963" lon="-3.0941">
        <ele>184.0</ele>
      </trkpt>
      <trkpt lat="43.10904" lon="-3.09424">
        <ele>181.0</ele>
      </trkpt>
      <trkpt lat="43.10814" lon="-3.09454">
        <ele>181.0</ele>
      </trkpt>
      <trkpt lat="43.1073" lon="-3.09451">
        <ele>181.0</ele>
      </trkpt>
      <trkpt lat="43.10536" lon="-3.09413">
        <ele>184.0</ele>
      </trkpt>
      <trkpt lat="43.10469" lon="-3.09394">
        <ele>185.0</ele>
      </trkpt>
      <trkpt lat="43.10399" lon="-3.0934">
        <ele>185.0</ele>
      </trkpt>
      <trkpt lat="43.10336" lon="-3.09221">
        <ele>189.0</ele>
      </trkpt>
      <trkpt lat="43.10254" lon="-3.08856">
        <ele>201.0</ele>
      </trkpt>
      <trkpt lat="43.10162" lon="-3.08526">
        <ele>215.0</ele>
      </trkpt>
      <trkpt lat="43.1014" lon="-3.08324">
        <ele>225.0</ele>
      </trkpt>
      <trkpt lat="43.10046" lon="-3.0806">
        <ele>238.0</ele>
      </trkpt>
      <trkpt lat="43.09879" lon="-3.07687">
        <ele>263.0</ele>
      </trkpt>
      <trkpt lat="43.09807" lon="-3.07514">
        <ele>278.0</ele>
      </trkpt>
      <trkpt lat="43.0974" lon="-3.07446">
        <ele>285.0</ele>
      </trkpt>
      <trkpt lat="43.09587" lon="-3.07334">
        <ele>295.0</ele>
      </trkpt>
      <trkpt lat="43.09499" lon="-3.07179">
        <ele>301.0</ele>
      </trkpt>
      <trkpt lat="43.09453" lon="-3.07035">
        <ele>300.0</ele>
      </trkpt>
      <trkpt lat="43.0935" lon="-3.06846">
        <ele>298.0</ele>
      </trkpt>
      <trkpt lat="43.08941" lon="-3.0614">
        <ele>276.0</ele>
      </trkpt>
      <trkpt lat="43.08835" lon="-3.05932">
        <ele>267.0</ele>
      </trkpt>
      <trkpt lat="43.08733" lon="-3.05764">
        <ele>266.0</ele>
      </trkpt>
      <trkpt lat="43.08546" lon="-3.05506">
        <ele>282.0</ele>
      </trkpt>
      <trkpt lat="43.08413" lon="-3.05219">
        <ele>295.0</ele>
      </trkpt>
      <trkpt lat="43.08301" lon="-3.05011">
        <ele>308.0</ele>
      </trkpt>
      <trkpt lat="43.08118" lon="-3.04779">
        <ele>312.0</ele>
      </trkpt>
      <trkpt lat="43.07926" lon="-3.04597">
        <ele>314.0</ele>
      </trkpt>
      <trkpt lat="43.07718" lon="-3.04351">
        <ele>306.0</ele>
      </trkpt>
      <trkpt lat="43.07595" lon="-3.04164">
        <ele>298.0</ele>
      </trkpt>
      <trkpt lat="43.07462" lon="-3.04052">
        <ele>290.0</ele>
      </trkpt>
      <trkpt lat="43.07305" lon="-3.03928">
        <ele>277.0</ele>
      </trkpt>
      <trkpt lat="43.07212" lon="-3.03803">
        <ele>270.0</ele>
      </trkpt>
      <trkpt lat="43.07152" lon="-3.03656">
        <ele>267.0</ele>
      </trkpt>
      <trkpt lat="43.07069" lon="-3.03524">
        <ele>263.0</ele>
      </trkpt>
      <trkpt lat="43.06722" lon="-3.03085">
        <ele>245.0</ele>
      </trkpt>
      <trkpt lat="43.066" lon="-3.02963">
        <ele>231.0</ele>
      </trkpt>
      <trkpt lat="43.06328" lon="-3.02749">
        <ele>223.0</ele>
      </trkpt>
      <trkpt lat="43.0598" lon="-3.02524">
        <ele>241.0</ele>
      </trkpt>
      <trkpt lat="43.05749" lon="-3.02218">
        <ele>264.0</ele>
      </trkpt>
      <trkpt lat="43.05623" lon="-3.01954">
        <ele>274.0</ele>
      </trkpt>
      <trkpt lat="43.05429" lon="-3.01503">
        <ele>286.0</ele>
      </trkpt>
      <trkpt lat="43.05428" lon="-3.01302">
        <ele>275.0</ele>
      </trkpt>
      <trkpt lat="43.05511" lon="-3.01082">
        <ele>263.0</ele>
      </trkpt>
      <trkpt lat="43.05521" lon="-3.00923">
        <ele>254.0</ele>
      </trkpt>
      <trkpt lat="43.05467" lon="-3.00785">
        <ele>247.0</ele>
      </trkpt>
      <trkpt lat="43.054" lon="-3.00652">
        <ele>240.0</ele>
      </trkpt>
      <trkpt lat="43.05385" lon="-3.00525">
        <ele>235.0</ele>
      </trkpt>
      <trkpt lat="43.05404" lon="-3.00461">
        <ele>232.0</ele>
      </trkpt>
      <trkpt lat="43.05416" lon="-3.00332">
        <ele>228.0</ele>
      </trkpt>
      <trkpt lat="43.05435" lon="-3.00201">
        <ele>223.0</ele>
      </trkpt>
      <trkpt lat="43.05462" lon="-3.00072">
        <ele>220.0</ele>
      </trkpt>
      <trkpt lat="43.05488" lon="-3.00016">
        <ele>219.0</ele>
      </trkpt>
      <trkpt lat="43.05486" lon="-2.99998">
        <ele>218.0</ele>
      </trkpt>
      <trkpt lat="43.05423" lon="-2.99897">
        <ele>215.0</ele>
      </trkpt>
      <trkpt lat="43.05401" lon="-2.99892">
        <ele>213.0</ele>
      </trkpt>
      <trkpt lat="43.05402" lon="-2.99862">
        <ele>212.0</ele>
      </trkpt>
      <trkpt lat="43.05402" lon="-2.99822">
        <ele>211.0</ele>
      </trkpt>
      <trkpt lat="43.05361" lon="-2.99686">
        <ele>209.0</ele>
      </trkpt>
      <trkpt lat="43.05317" lon="-2.99584">
        <ele>209.0</ele>
      </trkpt>
      <trkpt lat="43.04942" lon="-2.99528">
        <ele>213.0</ele>
      </trkpt>
      <trkpt lat="43.0488" lon="-2.99503">
        <ele>216.0</ele>
      </trkpt>
      <trkpt lat="43.04849" lon="-2.99457">
        <ele>218.0</ele>
      </trkpt>
      <trkpt lat="43.04779" lon="-2.99257">
        <ele>223.0</ele>
      </trkpt>
      <trkpt lat="43.04745" lon="-2.99239">
        <ele>224.0</ele>
      </trkpt>
      <trkpt lat="43.04695" lon="-2.99259">
        <ele>225.0</ele>
      </trkpt>
      <trkpt lat="43.04645" lon="-2.99208">
        <ele>226.0</ele>
      </trkpt>
      <trkpt lat="43.04561" lon="-2.99037">
        <ele>229.0</ele>
      </trkpt>
      <trkpt lat="43.04413" lon="-2.98977">
        <ele>232.0</ele>
      </trkpt>
      <trkpt lat="43.04121" lon="-2.98971">
        <ele>240.0</ele>
      </trkpt>
      <trkpt lat="43.03931" lon="-2.99032">
        <ele>247.0</ele>
      </trkpt>
      <trkpt lat="43.03804" lon="-2.9912">
        <ele>250.0</ele>
      </trkpt>
      <trkpt lat="43.03601" lon="-2.99388">
        <ele>251.0</ele>
      </trkpt>
      <trkpt lat="43.035" lon="-2.99618">
        <ele>252.0</ele>
      </trkpt>
      <trkpt lat="43.03427" lon="-2.9975">
        <ele>248.0</ele>
      </trkpt>
      <trkpt lat="43.03286" lon="-2.99929">
        <ele>244.0</ele>
      </trkpt>
      <trkpt lat="43.03083" lon="-3.0032">
        <ele>238.0</ele>
      </trkpt>
      <trkpt lat="43.03007" lon="-3.00441">
        <ele>235.0</ele>
      </trkpt>
      <trkpt lat="43.02829" lon="-3.00653">
        <ele>237.0</ele>
      </trkpt>
      <trkpt lat="43.02576" lon="-3.01101">
        <ele>241.0</ele>
      </trkpt>
      <trkpt lat="43.02463" lon="-3.01218">
        <ele>245.0</ele>
      </trkpt>
      <trkpt lat="43.02343" lon="-3.0126">
        <ele>245.0</ele>
      </trkpt>
      <trkpt lat="43.02043" lon="-3.01299">
        <ele>260.0</ele>
      </trkpt>
      <trkpt lat="43.01908" lon="-3.0125">
        <ele>265.0</ele>
      </trkpt>
      <trkpt lat="43.01796" lon="-3.01133">
        <ele>267.0</ele>
      </trkpt>
      <trkpt lat="43.01659" lon="-3.00924">
        <ele>269.0</ele>
      </trkpt>
      <trkpt lat="43.01505" lon="-3.00732">
        <ele>266.0</ele>
      </trkpt>
      <trkpt lat="43.01432" lon="-3.00687">
        <ele>263.0</ele>
      </trkpt>
      <trkpt lat="43.01285" lon="-3.0067">
        <ele>264.0</ele>
      </trkpt>
      <trkpt lat="43.01052" lon="-3.00677">
        <ele>265.0</ele>
      </trkpt>
      <trkpt lat="43.0053" lon="-3.00713">
        <ele>265.0</ele>
      </trkpt>
      <trkpt lat="43.00501" lon="-3.00718">
        <ele>265.0</ele>
      </trkpt>
      <trkpt lat="42.99879" lon="-3.00736">
        <ele>267.0</ele>
      </trkpt>
      <trkpt lat="42.99831" lon="-3.00756">
        <ele>271.0</ele>
      </trkpt>
      <trkpt lat="42.99808" lon="-3.00767">
        <ele>271.0</ele>
      </trkpt>
      <trkpt lat="42.99773" lon="-3.00714">
        <ele>271.0</ele>
      </trkpt>
      <trkpt lat="42.99683" lon="-3.0062">
        <ele>270.0</ele>
      </trkpt>
      <trkpt lat="42.99548" lon="-3.00492">
        <ele>270.0</ele>
      </trkpt>
      <trkpt lat="42.99358" lon="-3.00491">
        <ele>271.0</ele>
      </trkpt>
      <trkpt lat="42.99324" lon="-3.00488">
        <ele>273.0</ele>
      </trkpt>
      <trkpt lat="42.99333" lon="-3.00457">
        <ele>274.0</ele>
      </trkpt>
      <trkpt lat="42.99304" lon="-3.00335">
        <ele>275.0</ele>
      </trkpt>
      <trkpt lat="42.99242" lon="-2.99926">
        <ele>280.0</ele>
      </trkpt>
      <trkpt lat="42.99186" lon="-2.99545">
        <ele>286.0</ele>
      </trkpt>
      <trkpt lat="42.99068" lon="-2.9874">
        <ele>305.0</ele>
      </trkpt>
      <trkpt lat="42.99065" lon="-2.98614">
        <ele>316.0</ele>
      </trkpt>
      <trkpt lat="42.99174" lon="-2.98414">
        <ele>324.0</ele>
      </trkpt>
      <trkpt lat="42.99278" lon="-2.98212">
        <ele>340.0</ele>
      </trkpt>
      <trkpt lat="42.99251" lon="-2.98099">
        <ele>347.0</ele>
      </trkpt>
      <trkpt lat="42.99231" lon="-2.97975">
        <ele>359.0</ele>
      </trkpt>
      <trkpt lat="42.99292" lon="-2.97763">
        <ele>375.0</ele>
      </trkpt>
      <trkpt lat="42.99312" lon="-2.97481">
        <ele>397.0</ele>
      </trkpt>
      <trkpt lat="42.99327" lon="-2.97315">
        <ele>407.0</ele>
      </trkpt>
      <trkpt lat="42.99359" lon="-2.97203">
        <ele>416.0</ele>
      </trkpt>
      <trkpt lat="42.99388" lon="-2.97134">
        <ele>423.0</ele>
      </trkpt>
      <trkpt lat="42.99366" lon="-2.97101">
        <ele>426.0</ele>
      </trkpt>
      <trkpt lat="42.99325" lon="-2.97172">
        <ele>428.0</ele>
      </trkpt>
      <trkpt lat="42.99298" lon="-2.972">
        <ele>430.0</ele>
      </trkpt>
      <trkpt lat="42.99264" lon="-2.97157">
        <ele>431.0</ele>
      </trkpt>
      <trkpt lat="42.99237" lon="-2.97187">
        <ele>432.0</ele>
      </trkpt>
      <trkpt lat="42.99182" lon="-2.97374">
        <ele>436.0</ele>
      </trkpt>
      <trkpt lat="42.99087" lon="-2.97447">
        <ele>447.0</ele>
      </trkpt>
      <trkpt lat="42.98999" lon="-2.97535">
        <ele>458.0</ele>
      </trkpt>
      <trkpt lat="42.98897" lon="-2.97576">
        <ele>466.0</ele>
      </trkpt>
      <trkpt lat="42.9892" lon="-2.97537">
        <ele>469.0</ele>
      </trkpt>
      <trkpt lat="42.98994" lon="-2.97464">
        <ele>473.0</ele>
      </trkpt>
      <trkpt lat="42.99107" lon="-2.97231">
        <ele>486.0</ele>
      </trkpt>
      <trkpt lat="42.99092" lon="-2.97214">
        <ele>488.0</ele>
      </trkpt>
      <trkpt lat="42.99062" lon="-2.9727">
        <ele>490.0</ele>
      </trkpt>
      <trkpt lat="42.98961" lon="-2.97409">
        <ele>497.0</ele>
      </trkpt>
      <trkpt lat="42.98909" lon="-2.97425">
        <ele>501.0</ele>
      </trkpt>
      <trkpt lat="42.98879" lon="-2.97409">
        <ele>503.0</ele>
      </trkpt>
      <trkpt lat="42.9886" lon="-2.97361">
        <ele>505.0</ele>
      </trkpt>
      <trkpt lat="42.9888" lon="-2.97306">
        <ele>508.0</ele>
      </trkpt>
      <trkpt lat="42.98895" lon="-2.97222">
        <ele>511.0</ele>
      </trkpt>
      <trkpt lat="42.98918" lon="-2.97151">
        <ele>518.0</ele>
      </trkpt>
      <trkpt lat="42.98915" lon="-2.97076">
        <ele>525.0</ele>
      </trkpt>
      <trkpt lat="42.98929" lon="-2.97035">
        <ele>529.0</ele>
      </trkpt>
      <trkpt lat="42.99012" lon="-2.96932">
        <ele>540.0</ele>
      </trkpt>
      <trkpt lat="42.99028" lon="-2.96855">
        <ele>545.0</ele>
      </trkpt>
      <trkpt lat="42.99094" lon="-2.96784">
        <ele>549.0</ele>
      </trkpt>
      <trkpt lat="42.99111" lon="-2.96742">
        <ele>552.0</ele>
      </trkpt>
      <trkpt lat="42.99118" lon="-2.96685">
        <ele>556.0</ele>
      </trkpt>
      <trkpt lat="42.99158" lon="-2.96634">
        <ele>560.0</ele>
      </trkpt>
      <trkpt lat="42.99172" lon="-2.96566">
        <ele>565.0</ele>
      </trkpt>
      <trkpt lat="42.9916" lon="-2.96516">
        <ele>568.0</ele>
      </trkpt>
      <trkpt lat="42.99165" lon="-2.96462">
        <ele>570.0</ele>
      </trkpt>
      <trkpt lat="42.99163" lon="-2.96415">
        <ele>573.0</ele>
      </trkpt>
      <trkpt lat="42.99186" lon="-2.96382">
        <ele>575.0</ele>
      </trkpt>
      <trkpt lat="42.99269" lon="-2.96255">
        <ele>581.0</ele>
      </trkpt>
      <trkpt lat="42.99278" lon="-2.96198">
        <ele>589.0</ele>
      </trkpt>
      <trkpt lat="42.99283" lon="-2.96084">
        <ele>597.0</ele>
      </trkpt>
      <trkpt lat="42.99235" lon="-2.96021">
        <ele>606.0</ele>
      </trkpt>
      <trkpt lat="42.99201" lon="-2.95965">
        <ele>614.0</ele>
      </trkpt>
      <trkpt lat="42.99141" lon="-2.95928">
        <ele>618.0</ele>
      </trkpt>
      <trkpt lat="42.9911" lon="-2.95899">
        <ele>614.0</ele>
      </trkpt>
      <trkpt lat="42.99079" lon="-2.95872">
        <ele>611.0</ele>
      </trkpt>
      <trkpt lat="42.99012" lon="-2.95854">
        <ele>610.0</ele>
      </trkpt>
      <trkpt lat="42.99022" lon="-2.95676">
        <ele>623.0</ele>
      </trkpt>
      <trkpt lat="42.98955" lon="-2.95624">
        <ele>631.0</ele>
      </trkpt>
      <trkpt lat="42.98946" lon="-2.95471">
        <ele>637.0</ele>
      </trkpt>
      <trkpt lat="42.98818" lon="-2.95086">
        <ele>636.0</ele>
      </trkpt>
      <trkpt lat="42.98463" lon="-2.9407">
        <ele>634.0</ele>
      </trkpt>
      <trkpt lat="42.98515" lon="-2.9348">
        <ele>638.0</ele>
      </trkpt>
      <trkpt lat="42.98488" lon="-2.93245">
        <ele>645.0</ele>
      </trkpt>
      <trkpt lat="42.984" lon="-2.92883">
        <ele>652.0</ele>
      </trkpt>
      <trkpt lat="42.98396" lon="-2.92774">
        <ele>652.0</ele>
      </trkpt>
      <trkpt lat="42.98356" lon="-2.92663">
        <ele>651.0</ele>
      </trkpt>
      <trkpt lat="42.98205" lon="-2.92434">
        <ele>645.0</ele>
      </trkpt>
      <trkpt lat="42.98099" lon="-2.92291">
        <ele>637.0</ele>
      </trkpt>
      <trkpt lat="42.98058" lon="-2.92165">
        <ele>629.0</ele>
      </trkpt>
      <trkpt lat="42.97809" lon="-2.91897">
        <ele>623.0</ele>
      </trkpt>
      <trkpt lat="42.9777" lon="-2.91888">
        <ele>624.0</ele>
      </trkpt>
      <trkpt lat="42.97674" lon="-2.91843">
        <ele>627.0</ele>
      </trkpt>
      <trkpt lat="42.97461" lon="-2.91697">
        <ele>636.0</ele>
      </trkpt>
      <trkpt lat="42.97246" lon="-2.91339">
        <ele>648.0</ele>
      </trkpt>
      <trkpt lat="42.97086" lon="-2.91258">
        <ele>658.0</ele>
      </trkpt>
      <trkpt lat="42.96786" lon="-2.90989">
        <ele>657.0</ele>
      </trkpt>
      <trkpt lat="42.96638" lon="-2.90741">
        <ele>645.0</ele>
      </trkpt>
      <trkpt lat="42.96635" lon="-2.9053">
        <ele>632.0</ele>
      </trkpt>
      <trkpt lat="42.96493" lon="-2.89817">
        <ele>620.0</ele>
      </trkpt>
      <trkpt lat="42.96378" lon="-2.8954">
        <ele>630.0</ele>
      </trkpt>
      <trkpt lat="42.96287" lon="-2.89241">
        <ele>652.0</ele>
      </trkpt>
      <trkpt lat="42.96204" lon="-2.89098">
        <ele>667.0</ele>
      </trkpt>
      <trkpt lat="42.96152" lon="-2.89006">
        <ele>670.0</ele>
      </trkpt>
      <trkpt lat="42.96127" lon="-2.88896">
        <ele>671.0</ele>
      </trkpt>
      <trkpt lat="42.96148" lon="-2.88735">
        <ele>665.0</ele>
      </trkpt>
      <trkpt lat="42.96138" lon="-2.88664">
        <ele>660.0</ele>
      </trkpt>
      <trkpt lat="42.96065" lon="-2.88621">
        <ele>655.0</ele>
      </trkpt>
      <trkpt lat="42.95995" lon="-2.88546">
        <ele>649.0</ele>
      </trkpt>
      <trkpt lat="42.95929" lon="-2.88265">
        <ele>647.0</ele>
      </trkpt>
      <trkpt lat="42.95913" lon="-2.87903">
        <ele>646.0</ele>
      </trkpt>
      <trkpt lat="42.96078" lon="-2.87455">
        <ele>636.0</ele>
      </trkpt>
      <trkpt lat="42.96191" lon="-2.87095">
        <ele>625.0</ele>
      </trkpt>
      <trkpt lat="42.96261" lon="-2.86773">
        <ele>620.0</ele>
      </trkpt>
      <trkpt lat="42.96292" lon="-2.86504">
        <ele>618.0</ele>
      </trkpt>
      <trkpt lat="42.96267" lon="-2.86117">
        <ele>619.0</ele>
      </trkpt>
      <trkpt lat="42.96279" lon="-2.85304">
        <ele>631.0</ele>
      </trkpt>
      <trkpt lat="42.96248" lon="-2.85204">
        <ele>639.0</ele>
      </trkpt>
      <trkpt lat="42.96328" lon="-2.85225">
        <ele>640.0</ele>
      </trkpt>
      <trkpt lat="42.96444" lon="-2.85368">
        <ele>639.0</ele>
      </trkpt>
      <trkpt lat="42.97427" lon="-2.86689">
        <ele>627.0</ele>
      </trkpt>
      <trkpt lat="42.97716" lon="-2.87103">
        <ele>622.0</ele>
      </trkpt>
      <trkpt lat="42.97758" lon="-2.87124">
        <ele>620.0</ele>
      </trkpt>
      <trkpt lat="42.97827" lon="-2.87086">
        <ele>616.0</ele>
      </trkpt>
      <trkpt lat="42.97892" lon="-2.87069">
        <ele>612.0</ele>
      </trkpt>
      <trkpt lat="42.98034" lon="-2.86923">
        <ele>604.0</ele>
      </trkpt>
      <trkpt lat="42.9808" lon="-2.86853">
        <ele>597.0</ele>
      </trkpt>
      <trkpt lat="42.98143" lon="-2.8686">
        <ele>593.0</ele>
      </trkpt>
      <trkpt lat="42.98212" lon="-2.8682">
        <ele>588.0</ele>
      </trkpt>
      <trkpt lat="42.98313" lon="-2.86803">
        <ele>582.0</ele>
      </trkpt>
      <trkpt lat="42.98529" lon="-2.86693">
        <ele>562.0</ele>
      </trkpt>
      <trkpt lat="42.98665" lon="-2.86737">
        <ele>543.0</ele>
      </trkpt>
      <trkpt lat="42.98766" lon="-2.86891">
        <ele>527.0</ele>
      </trkpt>
      <trkpt lat="42.98776" lon="-2.87211">
        <ele>509.0</ele>
      </trkpt>
      <trkpt lat="42.98822" lon="-2.87384">
        <ele>499.0</ele>
      </trkpt>
      <trkpt lat="42.98852" lon="-2.87599">
        <ele>486.0</ele>
      </trkpt>
      <trkpt lat="42.98906" lon="-2.87768">
        <ele>465.0</ele>
      </trkpt>
      <trkpt lat="42.99029" lon="-2.87852">
        <ele>452.0</ele>
      </trkpt>
      <trkpt lat="42.99232" lon="-2.87914">
        <ele>443.0</ele>
      </trkpt>
      <trkpt lat="42.99363" lon="-2.88073">
        <ele>439.0</ele>
      </trkpt>
      <trkpt lat="42.99475" lon="-2.8816">
        <ele>434.0</ele>
      </trkpt>
      <trkpt lat="42.99608" lon="-2.88353">
        <ele>427.0</ele>
      </trkpt>
      <trkpt lat="42.99789" lon="-2.88682">
        <ele>423.0</ele>
      </trkpt>
      <trkpt lat="42.99934" lon="-2.88958">
        <ele>414.0</ele>
      </trkpt>
      <trkpt lat="43.00068" lon="-2.89278">
        <ele>397.0</ele>
      </trkpt>
      <trkpt lat="43.00352" lon="-2.89808">
        <ele>372.0</ele>
      </trkpt>
      <trkpt lat="43.00475" lon="-2.89921">
        <ele>360.0</ele>
      </trkpt>
      <trkpt lat="43.00593" lon="-2.90119">
        <ele>352.0</ele>
      </trkpt>
      <trkpt lat="43.00681" lon="-2.90174">
        <ele>351.0</ele>
      </trkpt>
      <trkpt lat="43.00907" lon="-2.90218">
        <ele>350.0</ele>
      </trkpt>
      <trkpt lat="43.01019" lon="-2.90341">
        <ele>348.0</ele>
      </trkpt>
      <trkpt lat="43.01126" lon="-2.90428">
        <ele>344.0</ele>
      </trkpt>
      <trkpt lat="43.0131" lon="-2.90649">
        <ele>341.0</ele>
      </trkpt>
      <trkpt lat="43.01549" lon="-2.90988">
        <ele>337.0</ele>
      </trkpt>
      <trkpt lat="43.01641" lon="-2.9109">
        <ele>333.0</ele>
      </trkpt>
      <trkpt lat="43.01803" lon="-2.91284">
        <ele>327.0</ele>
      </trkpt>
      <trkpt lat="43.0196" lon="-2.91416">
        <ele>322.0</ele>
      </trkpt>
      <trkpt lat="43.02094" lon="-2.91501">
        <ele>323.0</ele>
      </trkpt>
      <trkpt lat="43.02189" lon="-2.91508">
        <ele>320.0</ele>
      </trkpt>
      <trkpt lat="43.02337" lon="-2.91514">
        <ele>314.0</ele>
      </trkpt>
      <trkpt lat="43.02529" lon="-2.91593">
        <ele>314.0</ele>
      </trkpt>
      <trkpt lat="43.02611" lon="-2.9156">
        <ele>313.0</ele>
      </trkpt>
      <trkpt lat="43.02721" lon="-2.91447">
        <ele>311.0</ele>
      </trkpt>
      <trkpt lat="43.03007" lon="-2.91428">
        <ele>306.0</ele>
      </trkpt>
      <trkpt lat="43.03101" lon="-2.91459">
        <ele>301.0</ele>
      </trkpt>
      <trkpt lat="43.03172" lon="-2.9148">
        <ele>298.0</ele>
      </trkpt>
      <trkpt lat="43.03248" lon="-2.91542">
        <ele>299.0</ele>
      </trkpt>
      <trkpt lat="43.03357" lon="-2.91579">
        <ele>300.0</ele>
      </trkpt>
      <trkpt lat="43.03437" lon="-2.91624">
        <ele>300.0</ele>
      </trkpt>
      <trkpt lat="43.03562" lon="-2.91749">
        <ele>296.0</ele>
      </trkpt>
      <trkpt lat="43.03636" lon="-2.91923">
        <ele>291.0</ele>
      </trkpt>
      <trkpt lat="43.03727" lon="-2.92021">
        <ele>292.0</ele>
      </trkpt>
      <trkpt lat="43.04059" lon="-2.92146">
        <ele>298.0</ele>
      </trkpt>
      <trkpt lat="43.04187" lon="-2.92259">
        <ele>296.0</ele>
      </trkpt>
      <trkpt lat="43.0428" lon="-2.92266">
        <ele>298.0</ele>
      </trkpt>
      <trkpt lat="43.04398" lon="-2.92193">
        <ele>300.0</ele>
      </trkpt>
      <trkpt lat="43.04474" lon="-2.92206">
        <ele>289.0</ele>
      </trkpt>
      <trkpt lat="43.04621" lon="-2.92071">
        <ele>275.0</ele>
      </trkpt>
      <trkpt lat="43.04687" lon="-2.92038">
        <ele>272.0</ele>
      </trkpt>
      <trkpt lat="43.04802" lon="-2.92063">
        <ele>270.0</ele>
      </trkpt>
      <trkpt lat="43.05032" lon="-2.92175">
        <ele>266.0</ele>
      </trkpt>
      <trkpt lat="43.0511" lon="-2.92251">
        <ele>263.0</ele>
      </trkpt>
      <trkpt lat="43.05183" lon="-2.92383">
        <ele>261.0</ele>
      </trkpt>
      <trkpt lat="43.05265" lon="-2.92462">
        <ele>262.0</ele>
      </trkpt>
      <trkpt lat="43.05355" lon="-2.92611">
        <ele>265.0</ele>
      </trkpt>
      <trkpt lat="43.05501" lon="-2.92971">
        <ele>264.0</ele>
      </trkpt>
      <trkpt lat="43.05531" lon="-2.93057">
        <ele>258.0</ele>
      </trkpt>
      <trkpt lat="43.0575" lon="-2.93098">
        <ele>259.0</ele>
      </trkpt>
      <trkpt lat="43.05945" lon="-2.93101">
        <ele>255.0</ele>
      </trkpt>
      <trkpt lat="43.06081" lon="-2.92991">
        <ele>254.0</ele>
      </trkpt>
      <trkpt lat="43.06203" lon="-2.92926">
        <ele>254.0</ele>
      </trkpt>
      <trkpt lat="43.06317" lon="-2.92964">
        <ele>255.0</ele>
      </trkpt>
      <trkpt lat="43.06438" lon="-2.92978">
        <ele>255.0</ele>
      </trkpt>
      <trkpt lat="43.06517" lon="-2.92891">
        <ele>254.0</ele>
      </trkpt>
      <trkpt lat="43.06591" lon="-2.92772">
        <ele>253.0</ele>
      </trkpt>
      <trkpt lat="43.06696" lon="-2.92761">
        <ele>252.0</ele>
      </trkpt>
      <trkpt lat="43.0673" lon="-2.92693">
        <ele>250.0</ele>
      </trkpt>
      <trkpt lat="43.06791" lon="-2.92571">
        <ele>247.0</ele>
      </trkpt>
      <trkpt lat="43.06863" lon="-2.92491">
        <ele>242.0</ele>
      </trkpt>
      <trkpt lat="43.06891" lon="-2.92402">
        <ele>239.0</ele>
      </trkpt>
      <trkpt lat="43.07039" lon="-2.92369">
        <ele>235.0</ele>
      </trkpt>
      <trkpt lat="43.07122" lon="-2.92359">
        <ele>235.0</ele>
      </trkpt>
      <trkpt lat="43.07198" lon="-2.92259">
        <ele>237.0</ele>
      </trkpt>
      <trkpt lat="43.07233" lon="-2.92157">
        <ele>234.0</ele>
      </trkpt>
      <trkpt lat="43.07314" lon="-2.92101">
        <ele>230.0</ele>
      </trkpt>
      <trkpt lat="43.07397" lon="-2.92136">
        <ele>228.0</ele>
      </trkpt>
      <trkpt lat="43.07518" lon="-2.9223">
        <ele>229.0</ele>
      </trkpt>
      <trkpt lat="43.07659" lon="-2.92277">
        <ele>224.0</ele>
      </trkpt>
      <trkpt lat="43.07713" lon="-2.92289">
        <ele>222.0</ele>
      </trkpt>
      <trkpt lat="43.07751" lon="-2.92233">
        <ele>222.0</ele>
      </trkpt>
      <trkpt lat="43.07741" lon="-2.92034">
        <ele>222.0</ele>
      </trkpt>
      <trkpt lat="43.07757" lon="-2.91891">
        <ele>215.0</ele>
      </trkpt>
      <trkpt lat="43.07823" lon="-2.91758">
        <ele>209.0</ele>
      </trkpt>
      <trkpt lat="43.07908" lon="-2.91734">
        <ele>207.0</ele>
      </trkpt>
      <trkpt lat="43.08095" lon="-2.91762">
        <ele>207.0</ele>
      </trkpt>
      <trkpt lat="43.08379" lon="-2.91598">
        <ele>207.0</ele>
      </trkpt>
      <trkpt lat="43.08438" lon="-2.91589">
        <ele>207.0</ele>
      </trkpt>
      <trkpt lat="43.08508" lon="-2.91636">
        <ele>208.0</ele>
      </trkpt>
      <trkpt lat="43.08677" lon="-2.91687">
        <ele>200.0</ele>
      </trkpt>
      <trkpt lat="43.08897" lon="-2.91832">
        <ele>196.0</ele>
      </trkpt>
      <trkpt lat="43.09018" lon="-2.91861">
        <ele>195.0</ele>
      </trkpt>
      <trkpt lat="43.09151" lon="-2.91784">
        <ele>193.0</ele>
      </trkpt>
      <trkpt lat="43.09232" lon="-2.91709">
        <ele>191.0</ele>
      </trkpt>
      <trkpt lat="43.09394" lon="-2.91758">
        <ele>186.0</ele>
      </trkpt>
      <trkpt lat="43.09496" lon="-2.91759">
        <ele>182.0</ele>
      </trkpt>
      <trkpt lat="43.09734" lon="-2.91768">
        <ele>174.0</ele>
      </trkpt>
      <trkpt lat="43.09937" lon="-2.91599">
        <ele>168.0</ele>
      </trkpt>
      <trkpt lat="43.10153" lon="-2.91531">
        <ele>166.0</ele>
      </trkpt>
      <trkpt lat="43.10421" lon="-2.91446">
        <ele>162.0</ele>
      </trkpt>
      <trkpt lat="43.10456" lon="-2.91414">
        <ele>160.0</ele>
      </trkpt>
      <trkpt lat="43.10484" lon="-2.91393">
        <ele>160.0</ele>
      </trkpt>
      <trkpt lat="43.10469" lon="-2.91034">
        <ele>159.0</ele>
      </trkpt>
      <trkpt lat="43.10505" lon="-2.90671">
        <ele>166.0</ele>
      </trkpt>
      <trkpt lat="43.10521" lon="-2.90634">
        <ele>164.0</ele>
      </trkpt>
      <trkpt lat="43.10513" lon="-2.9043">
        <ele>164.0</ele>
      </trkpt>
      <trkpt lat="43.10319" lon="-2.9007">
        <ele>167.0</ele>
      </trkpt>
      <trkpt lat="43.10276" lon="-2.89943">
        <ele>173.0</ele>
      </trkpt>
      <trkpt lat="43.10209" lon="-2.8962">
        <ele>175.0</ele>
      </trkpt>
      <trkpt lat="43.10189" lon="-2.89375">
        <ele>178.0</ele>
      </trkpt>
      <trkpt lat="43.10156" lon="-2.89157">
        <ele>183.0</ele>
      </trkpt>
      <trkpt lat="43.10157" lon="-2.89103">
        <ele>185.0</ele>
      </trkpt>
      <trkpt lat="43.10115" lon="-2.88968">
        <ele>187.0</ele>
      </trkpt>
      <trkpt lat="43.10098" lon="-2.88831">
        <ele>189.0</ele>
      </trkpt>
      <trkpt lat="43.10037" lon="-2.88772">
        <ele>192.0</ele>
      </trkpt>
      <trkpt lat="43.09958" lon="-2.88593">
        <ele>200.0</ele>
      </trkpt>
      <trkpt lat="43.09951" lon="-2.88418">
        <ele>207.0</ele>
      </trkpt>
      <trkpt lat="43.09935" lon="-2.88366">
        <ele>209.0</ele>
      </trkpt>
      <trkpt lat="43.09766" lon="-2.88122">
        <ele>204.0</ele>
      </trkpt>
      <trkpt lat="43.09726" lon="-2.87919">
        <ele>207.0</ele>
      </trkpt>
      <trkpt lat="43.0972" lon="-2.87775">
        <ele>209.0</ele>
      </trkpt>
      <trkpt lat="43.09705" lon="-2.8771">
        <ele>210.0</ele>
      </trkpt>
      <trkpt lat="43.0966" lon="-2.87545">
        <ele>211.0</ele>
      </trkpt>
      <trkpt lat="43.09668" lon="-2.87442">
        <ele>213.0</ele>
      </trkpt>
      <trkpt lat="43.09755" lon="-2.87276">
        <ele>216.0</ele>
      </trkpt>
      <trkpt lat="43.09762" lon="-2.87166">
        <ele>216.0</ele>
      </trkpt>
      <trkpt lat="43.09732" lon="-2.87073">
        <ele>216.0</ele>
      </trkpt>
      <trkpt lat="43.09686" lon="-2.87012">
        <ele>217.0</ele>
      </trkpt>
      <trkpt lat="43.09689" lon="-2.86863">
        <ele>223.0</ele>
      </trkpt>
      <trkpt lat="43.09672" lon="-2.86726">
        <ele>227.0</ele>
      </trkpt>
      <trkpt lat="43.09644" lon="-2.86604">
        <ele>229.0</ele>
      </trkpt>
      <trkpt lat="43.09608" lon="-2.86544">
        <ele>230.0</ele>
      </trkpt>
      <trkpt lat="43.09586" lon="-2.86505">
        <ele>231.0</ele>
      </trkpt>
      <trkpt lat="43.09585" lon="-2.86459">
        <ele>231.0</ele>
      </trkpt>
      <trkpt lat="43.09596" lon="-2.86419">
        <ele>232.0</ele>
      </trkpt>
      <trkpt lat="43.09582" lon="-2.86274">
        <ele>235.0</ele>
      </trkpt>
      <trkpt lat="43.09611" lon="-2.86209">
        <ele>240.0</ele>
      </trkpt>
      <trkpt lat="43.09616" lon="-2.86127">
        <ele>246.0</ele>
      </trkpt>
      <trkpt lat="43.09647" lon="-2.86072">
        <ele>248.0</ele>
      </trkpt>
      <trkpt lat="43.09671" lon="-2.86018">
        <ele>249.0</ele>
      </trkpt>
      <trkpt lat="43.09694" lon="-2.85956">
        <ele>250.0</ele>
      </trkpt>
      <trkpt lat="43.09767" lon="-2.85874">
        <ele>250.0</ele>
      </trkpt>
      <trkpt lat="43.09788" lon="-2.85839">
        <ele>250.0</ele>
      </trkpt>
      <trkpt lat="43.09791" lon="-2.85805">
        <ele>250.0</ele>
      </trkpt>
      <trkpt lat="43.0979" lon="-2.85685">
        <ele>251.0</ele>
      </trkpt>
      <trkpt lat="43.09763" lon="-2.85633">
        <ele>252.0</ele>
      </trkpt>
      <trkpt lat="43.09751" lon="-2.85581">
        <ele>253.0</ele>
      </trkpt>
      <trkpt lat="43.09778" lon="-2.85521">
        <ele>254.0</ele>
      </trkpt>
      <trkpt lat="43.09857" lon="-2.85456">
        <ele>257.0</ele>
      </trkpt>
      <trkpt lat="43.09898" lon="-2.85366">
        <ele>260.0</ele>
      </trkpt>
      <trkpt lat="43.0996" lon="-2.85191">
        <ele>263.0</ele>
      </trkpt>
      <trkpt lat="43.09995" lon="-2.84993">
        <ele>266.0</ele>
      </trkpt>
      <trkpt lat="43.1" lon="-2.84921">
        <ele>271.0</ele>
      </trkpt>
      <trkpt lat="43.09973" lon="-2.8481">
        <ele>276.0</ele>
      </trkpt>
      <trkpt lat="43.09997" lon="-2.84757">
        <ele>278.0</ele>
      </trkpt>
      <trkpt lat="43.10013" lon="-2.84705">
        <ele>279.0</ele>
      </trkpt>
      <trkpt lat="43.0998" lon="-2.84593">
        <ele>282.0</ele>
      </trkpt>
      <trkpt lat="43.09905" lon="-2.84402">
        <ele>309.0</ele>
      </trkpt>
      <trkpt lat="43.09959" lon="-2.84163">
        <ele>330.0</ele>
      </trkpt>
      <trkpt lat="43.09893" lon="-2.83764">
        <ele>367.0</ele>
      </trkpt>
      <trkpt lat="43.09827" lon="-2.83561">
        <ele>385.0</ele>
      </trkpt>
      <trkpt lat="43.09926" lon="-2.83376">
        <ele>387.0</ele>
      </trkpt>
      <trkpt lat="43.10012" lon="-2.83183">
        <ele>400.0</ele>
      </trkpt>
      <trkpt lat="43.09947" lon="-2.82835">
        <ele>421.0</ele>
      </trkpt>
      <trkpt lat="43.10039" lon="-2.82741">
        <ele>428.0</ele>
      </trkpt>
      <trkpt lat="43.10242" lon="-2.82468">
        <ele>464.0</ele>
      </trkpt>
      <trkpt lat="43.10624" lon="-2.82559">
        <ele>515.0</ele>
      </trkpt>
      <trkpt lat="43.10682" lon="-2.8273">
        <ele>532.0</ele>
      </trkpt>
      <trkpt lat="43.10929" lon="-2.82896">
        <ele>561.0</ele>
      </trkpt>
      <trkpt lat="43.11062" lon="-2.82884">
        <ele>562.0</ele>
      </trkpt>
      <trkpt lat="43.11119" lon="-2.82795">
        <ele>559.0</ele>
      </trkpt>
      <trkpt lat="43.11171" lon="-2.82633">
        <ele>551.0</ele>
      </trkpt>
      <trkpt lat="43.11022" lon="-2.82491">
        <ele>536.0</ele>
      </trkpt>
      <trkpt lat="43.10967" lon="-2.82357">
        <ele>522.0</ele>
      </trkpt>
      <trkpt lat="43.1097" lon="-2.82177">
        <ele>505.0</ele>
      </trkpt>
      <trkpt lat="43.10882" lon="-2.81975">
        <ele>478.0</ele>
      </trkpt>
      <trkpt lat="43.10893" lon="-2.81826">
        <ele>460.0</ele>
      </trkpt>
      <trkpt lat="43.10991" lon="-2.81707">
        <ele>438.0</ele>
      </trkpt>
      <trkpt lat="43.11056" lon="-2.81769">
        <ele>424.0</ele>
      </trkpt>
      <trkpt lat="43.11167" lon="-2.81792">
        <ele>406.0</ele>
      </trkpt>
      <trkpt lat="43.11219" lon="-2.81687">
        <ele>395.0</ele>
      </trkpt>
      <trkpt lat="43.11199" lon="-2.81578">
        <ele>385.0</ele>
      </trkpt>
      <trkpt lat="43.1125" lon="-2.81364">
        <ele>370.0</ele>
      </trkpt>
      <trkpt lat="43.11339" lon="-2.81266">
        <ele>357.0</ele>
      </trkpt>
      <trkpt lat="43.11394" lon="-2.81167">
        <ele>348.0</ele>
      </trkpt>
      <trkpt lat="43.11481" lon="-2.81089">
        <ele>341.0</ele>
      </trkpt>
      <trkpt lat="43.11642" lon="-2.80896">
        <ele>324.0</ele>
      </trkpt>
      <trkpt lat="43.11832" lon="-2.80834">
        <ele>313.0</ele>
      </trkpt>
      <trkpt lat="43.11994" lon="-2.8077">
        <ele>303.0</ele>
      </trkpt>
      <trkpt lat="43.12092" lon="-2.80655">
        <ele>287.0</ele>
      </trkpt>
      <trkpt lat="43.12314" lon="-2.80514">
        <ele>251.0</ele>
      </trkpt>
      <trkpt lat="43.12355" lon="-2.80369">
        <ele>233.0</ele>
      </trkpt>
      <trkpt lat="43.12534" lon="-2.80236">
        <ele>209.0</ele>
      </trkpt>
      <trkpt lat="43.12751" lon="-2.79845">
        <ele>185.0</ele>
      </trkpt>
      <trkpt lat="43.12857" lon="-2.79543">
        <ele>164.0</ele>
      </trkpt>
      <trkpt lat="43.1291" lon="-2.79403">
        <ele>156.0</ele>
      </trkpt>
      <trkpt lat="43.13061" lon="-2.79365">
        <ele>149.0</ele>
      </trkpt>
      <trkpt lat="43.13229" lon="-2.79193">
        <ele>144.0</ele>
      </trkpt>
      <trkpt lat="43.1338" lon="-2.79107">
        <ele>143.0</ele>
      </trkpt>
      <trkpt lat="43.13503" lon="-2.79435">
        <ele>158.0</ele>
      </trkpt>
      <trkpt lat="43.13635" lon="-2.79727">
        <ele>176.0</ele>
      </trkpt>
      <trkpt lat="43.13706" lon="-2.8004">
        <ele>191.0</ele>
      </trkpt>
      <trkpt lat="43.13721" lon="-2.80216">
        <ele>205.0</ele>
      </trkpt>
      <trkpt lat="43.13688" lon="-2.80308">
        <ele>213.0</ele>
      </trkpt>
      <trkpt lat="43.13619" lon="-2.80237">
        <ele>217.0</ele>
      </trkpt>
      <trkpt lat="43.13513" lon="-2.80188">
        <ele>223.0</ele>
      </trkpt>
      <trkpt lat="43.13494" lon="-2.80229">
        <ele>235.0</ele>
      </trkpt>
      <trkpt lat="43.13588" lon="-2.80338">
        <ele>246.0</ele>
      </trkpt>
      <trkpt lat="43.13654" lon="-2.80427">
        <ele>255.0</ele>
      </trkpt>
      <trkpt lat="43.1378" lon="-2.80519">
        <ele>256.0</ele>
      </trkpt>
      <trkpt lat="43.13841" lon="-2.80707">
        <ele>253.0</ele>
      </trkpt>
      <trkpt lat="43.1392" lon="-2.8089">
        <ele>249.0</ele>
      </trkpt>
      <trkpt lat="43.1392" lon="-2.81119">
        <ele>243.0</ele>
      </trkpt>
      <trkpt lat="43.13947" lon="-2.81308">
        <ele>240.0</ele>
      </trkpt>
      <trkpt lat="43.13886" lon="-2.814">
        <ele>236.0</ele>
      </trkpt>
      <trkpt lat="43.14069" lon="-2.8142">
        <ele>223.0</ele>
      </trkpt>
      <trkpt lat="43.14065" lon="-2.81484">
        <ele>217.0</ele>
      </trkpt>
      <trkpt lat="43.14105" lon="-2.81561">
        <ele>219.0</ele>
      </trkpt>
      <trkpt lat="43.14089" lon="-2.81636">
        <ele>222.0</ele>
      </trkpt>
      <trkpt lat="43.14192" lon="-2.81583">
        <ele>217.0</ele>
      </trkpt>
      <trkpt lat="43.14278" lon="-2.81558">
        <ele>208.0</ele>
      </trkpt>
      <trkpt lat="43.14392" lon="-2.81774">
        <ele>193.0</ele>
      </trkpt>
      <trkpt lat="43.14422" lon="-2.81895">
        <ele>187.0</ele>
      </trkpt>
      <trkpt lat="43.14512" lon="-2.8204">
        <ele>183.0</ele>
      </trkpt>
      <trkpt lat="43.14627" lon="-2.82269">
        <ele>175.0</ele>
      </trkpt>
      <trkpt lat="43.14594" lon="-2.82434">
        <ele>167.0</ele>
      </trkpt>
      <trkpt lat="43.14458" lon="-2.82511">
        <ele>163.0</ele>
      </trkpt>
      <trkpt lat="43.14395" lon="-2.82579">
        <ele>160.0</ele>
      </trkpt>
      <trkpt lat="43.14396" lon="-2.82774">
        <ele>159.0</ele>
      </trkpt>
      <trkpt lat="43.14473" lon="-2.82953">
        <ele>155.0</ele>
      </trkpt>
      <trkpt lat="43.14549" lon="-2.8315">
        <ele>151.0</ele>
      </trkpt>
      <trkpt lat="43.14644" lon="-2.83317">
        <ele>148.0</ele>
      </trkpt>
      <trkpt lat="43.14615" lon="-2.83564">
        <ele>145.0</ele>
      </trkpt>
      <trkpt lat="43.14601" lon="-2.83776">
        <ele>148.0</ele>
      </trkpt>
      <trkpt lat="43.14665" lon="-2.83978">
        <ele>149.0</ele>
      </trkpt>
      <trkpt lat="43.14737" lon="-2.84158">
        <ele>138.0</ele>
      </trkpt>
      <trkpt lat="43.14749" lon="-2.84192">
        <ele>133.0</ele>
      </trkpt>
      <trkpt lat="43.14692" lon="-2.84289">
        <ele>132.0</ele>
      </trkpt>
      <trkpt lat="43.14685" lon="-2.84375">
        <ele>130.0</ele>
      </trkpt>
      <trkpt lat="43.14745" lon="-2.84489">
        <ele>128.0</ele>
      </trkpt>
      <trkpt lat="43.14739" lon="-2.84647">
        <ele>127.0</ele>
      </trkpt>
      <trkpt lat="43.14746" lon="-2.8479">
        <ele>125.0</ele>
      </trkpt>
      <trkpt lat="43.14759" lon="-2.84916">
        <ele>124.0</ele>
      </trkpt>
      <trkpt lat="43.14804" lon="-2.84994">
        <ele>123.0</ele>
      </trkpt>
      <trkpt lat="43.14836" lon="-2.8511">
        <ele>121.0</ele>
      </trkpt>
      <trkpt lat="43.1476" lon="-2.85451">
        <ele>119.0</ele>
      </trkpt>
      <trkpt lat="43.14765" lon="-2.85921">
        <ele>119.0</ele>
      </trkpt>
      <trkpt lat="43.14818" lon="-2.86078">
        <ele>119.0</ele>
      </trkpt>
      <trkpt lat="43.1496" lon="-2.86287">
        <ele>116.0</ele>
      </trkpt>
      <trkpt lat="43.15085" lon="-2.86508">
        <ele>113.0</ele>
      </trkpt>
      <trkpt lat="43.15085" lon="-2.86672">
        <ele>111.0</ele>
      </trkpt>
      <trkpt lat="43.15146" lon="-2.86768">
        <ele>110.0</ele>
      </trkpt>
      <trkpt lat="43.15225" lon="-2.8687">
        <ele>107.0</ele>
      </trkpt>
      <trkpt lat="43.15238" lon="-2.87043">
        <ele>107.0</ele>
      </trkpt>
      <trkpt lat="43.15373" lon="-2.87186">
        <ele>111.0</ele>
      </trkpt>
      <trkpt lat="43.15397" lon="-2.87359">
        <ele>113.0</ele>
      </trkpt>
      <trkpt lat="43.1544" lon="-2.87521">
        <ele>110.0</ele>
      </trkpt>
      <trkpt lat="43.15554" lon="-2.87658">
        <ele>107.0</ele>
      </trkpt>
      <trkpt lat="43.15565" lon="-2.87748">
        <ele>111.0</ele>
      </trkpt>
      <trkpt lat="43.15576" lon="-2.87832">
        <ele>113.0</ele>
      </trkpt>
      <trkpt lat="43.15628" lon="-2.87941">
        <ele>112.0</ele>
      </trkpt>
      <trkpt lat="43.15733" lon="-2.88101">
        <ele>110.0</ele>
      </trkpt>
      <trkpt lat="43.15795" lon="-2.88129">
        <ele>109.0</ele>
      </trkpt>
      <trkpt lat="43.15914" lon="-2.88245">
        <ele>106.0</ele>
      </trkpt>
      <trkpt lat="43.16071" lon="-2.8825">
        <ele>101.0</ele>
      </trkpt>
      <trkpt lat="43.16123" lon="-2.88357">
        <ele>98.0</ele>
      </trkpt>
      <trkpt lat="43.16111" lon="-2.88482">
        <ele>95.0</ele>
      </trkpt>
      <trkpt lat="43.16132" lon="-2.8853">
        <ele>94.0</ele>
      </trkpt>
      <trkpt lat="43.16248" lon="-2.88524">
        <ele>92.0</ele>
      </trkpt>
      <trkpt lat="43.16318" lon="-2.8868">
        <ele>96.0</ele>
      </trkpt>
      <trkpt lat="43.16443" lon="-2.8905">
        <ele>96.0</ele>
      </trkpt>
      <trkpt lat="43.16513" lon="-2.89082">
        <ele>96.0</ele>
      </trkpt>
      <trkpt lat="43.16636" lon="-2.89041">
        <ele>95.0</ele>
      </trkpt>
      <trkpt lat="43.16679" lon="-2.89199">
        <ele>91.0</ele>
      </trkpt>
      <trkpt lat="43.16723" lon="-2.89282">
        <ele>87.0</ele>
      </trkpt>
      <trkpt lat="43.16813" lon="-2.89315">
        <ele>85.0</ele>
      </trkpt>
      <trkpt lat="43.16804" lon="-2.8945">
        <ele>83.0</ele>
      </trkpt>
      <trkpt lat="43.16888" lon="-2.89566">
        <ele>82.0</ele>
      </trkpt>
      <trkpt lat="43.17003" lon="-2.89612">
        <ele>82.0</ele>
      </trkpt>
      <trkpt lat="43.17044" lon="-2.89725">
        <ele>82.0</ele>
      </trkpt>
      <trkpt lat="43.17108" lon="-2.89878">
        <ele>81.0</ele>
      </trkpt>
      <trkpt lat="43.17307" lon="-2.90077">
        <ele>77.0</ele>
      </trkpt>
      <trkpt lat="43.17363" lon="-2.90141">
        <ele>76.0</ele>
      </trkpt>
      <trkpt lat="43.17523" lon="-2.90141">
        <ele>75.0</ele>
      </trkpt>
      <trkpt lat="43.17603" lon="-2.9022">
        <ele>70.0</ele>
      </trkpt>
      <trkpt lat="43.17689" lon="-2.90347">
        <ele>78.0</ele>
      </trkpt>
      <trkpt lat="43.17772" lon="-2.90485">
        <ele>87.0</ele>
      </trkpt>
      <trkpt lat="43.1783" lon="-2.90519">
        <ele>89.0</ele>
      </trkpt>
      <trkpt lat="43.17885" lon="-2.90518">
        <ele>90.0</ele>
      </trkpt>
      <trkpt lat="43.18108" lon="-2.90436">
        <ele>86.0</ele>
      </trkpt>
      <trkpt lat="43.1819" lon="-2.90429">
        <ele>80.0</ele>
      </trkpt>
      <trkpt lat="43.18291" lon="-2.90389">
        <ele>75.0</ele>
      </trkpt>
      <trkpt lat="43.18448" lon="-2.90331">
        <ele>70.0</ele>
      </trkpt>
      <trkpt lat="43.18507" lon="-2.90286">
        <ele>72.0</ele>
      </trkpt>
      <trkpt lat="43.18532" lon="-2.90177">
        <ele>74.0</ele>
      </trkpt>
      <trkpt lat="43.18481" lon="-2.90068">
        <ele>71.0</ele>
      </trkpt>
      <trkpt lat="43.18423" lon="-2.90003">
        <ele>70.0</ele>
      </trkpt>
      <trkpt lat="43.18363" lon="-2.8994">
        <ele>69.0</ele>
      </trkpt>
      <trkpt lat="43.18348" lon="-2.89852">
        <ele>70.0</ele>
      </trkpt>
      <trkpt lat="43.18435" lon="-2.89721">
        <ele>72.0</ele>
      </trkpt>
      <trkpt lat="43.18557" lon="-2.89626">
        <ele>73.0</ele>
      </trkpt>
      <trkpt lat="43.18692" lon="-2.89646">
        <ele>69.0</ele>
      </trkpt>
      <trkpt lat="43.1882" lon="-2.89771">
        <ele>66.0</ele>
      </trkpt>
      <trkpt lat="43.19007" lon="-2.89979">
        <ele>69.0</ele>
      </trkpt>
      <trkpt lat="43.19094" lon="-2.90013">
        <ele>72.0</ele>
      </trkpt>
      <trkpt lat="43.19179" lon="-2.89994">
        <ele>70.0</ele>
      </trkpt>
      <trkpt lat="43.19295" lon="-2.89926">
        <ele>68.0</ele>
      </trkpt>
      <trkpt lat="43.19405" lon="-2.89921">
        <ele>65.0</ele>
      </trkpt>
      <trkpt lat="43.19568" lon="-2.89994">
        <ele>61.0</ele>
      </trkpt>
      <trkpt lat="43.19677" lon="-2.90061">
        <ele>60.0</ele>
      </trkpt>
      <trkpt lat="43.1979" lon="-2.90128">
        <ele>62.0</ele>
      </trkpt>
      <trkpt lat="43.19881" lon="-2.90123">
        <ele>65.0</ele>
      </trkpt>
      <trkpt lat="43.20076" lon="-2.89947">
        <ele>62.0</ele>
      </trkpt>
      <trkpt lat="43.20207" lon="-2.8977">
        <ele>55.0</ele>
      </trkpt>
      <trkpt lat="43.20264" lon="-2.89692">
        <ele>54.0</ele>
      </trkpt>
      <trkpt lat="43.20276" lon="-2.89661">
        <ele>54.0</ele>
      </trkpt>
      <trkpt lat="43.20296" lon="-2.89616">
        <ele>55.0</ele>
      </trkpt>
      <trkpt lat="43.203" lon="-2.89403">
        <ele>58.0</ele>
      </trkpt>
      <trkpt lat="43.20267" lon="-2.89411">
        <ele>59.0</ele>
      </trkpt>
      <trkpt lat="43.20237" lon="-2.89389">
        <ele>60.0</ele>
      </trkpt>
      <trkpt lat="43.20255" lon="-2.8934">
        <ele>62.0</ele>
      </trkpt>
      <trkpt lat="43.20313" lon="-2.89243">
        <ele>62.0</ele>
      </trkpt>
      <trkpt lat="43.20341" lon="-2.891">
        <ele>59.0</ele>
      </trkpt>
      <trkpt lat="43.20353" lon="-2.88899">
        <ele>56.0</ele>
      </trkpt>
      <trkpt lat="43.2038" lon="-2.88788">
        <ele>55.0</ele>
      </trkpt>
      <trkpt lat="43.20436" lon="-2.88678">
        <ele>59.0</ele>
      </trkpt>
      <trkpt lat="43.20621" lon="-2.88483">
        <ele>60.0</ele>
      </trkpt>
      <trkpt lat="43.20786" lon="-2.88463">
        <ele>57.0</ele>
      </trkpt>
      <trkpt lat="43.20802" lon="-2.88421">
        <ele>57.0</ele>
      </trkpt>
      <trkpt lat="43.20891" lon="-2.88434">
        <ele>58.0</ele>
      </trkpt>
      <trkpt lat="43.2105" lon="-2.88457">
        <ele>68.0</ele>
      </trkpt>
      <trkpt lat="43.21148" lon="-2.88446">
        <ele>73.0</ele>
      </trkpt>
      <trkpt lat="43.21175" lon="-2.88377">
        <ele>76.0</ele>
      </trkpt>
      <trkpt lat="43.21197" lon="-2.88273">
        <ele>82.0</ele>
      </trkpt>
      <trkpt lat="43.21145" lon="-2.88114">
        <ele>95.0</ele>
      </trkpt>
      <trkpt lat="43.21236" lon="-2.88078">
        <ele>105.0</ele>
      </trkpt>
      <trkpt lat="43.2126" lon="-2.87873">
        <ele>116.0</ele>
      </trkpt>
      <trkpt lat="43.21144" lon="-2.8781">
        <ele>127.0</ele>
      </trkpt>
      <trkpt lat="43.21132" lon="-2.87694">
        <ele>137.0</ele>
      </trkpt>
      <trkpt lat="43.21066" lon="-2.87556">
        <ele>145.0</ele>
      </trkpt>
      <trkpt lat="43.21053" lon="-2.87397">
        <ele>157.0</ele>
      </trkpt>
      <trkpt lat="43.21143" lon="-2.87363">
        <ele>163.0</ele>
      </trkpt>
      <trkpt lat="43.21277" lon="-2.87406">
        <ele>166.0</ele>
      </trkpt>
      <trkpt lat="43.21372" lon="-2.87357">
        <ele>169.0</ele>
      </trkpt>
      <trkpt lat="43.21467" lon="-2.87292">
        <ele>168.0</ele>
      </trkpt>
      <trkpt lat="43.21638" lon="-2.87301">
        <ele>153.0</ele>
      </trkpt>
      <trkpt lat="43.21692" lon="-2.87234">
        <ele>146.0</ele>
      </trkpt>
      <trkpt lat="43.217" lon="-2.87149">
        <ele>143.0</ele>
      </trkpt>
      <trkpt lat="43.21803" lon="-2.86918">
        <ele>125.0</ele>
      </trkpt>
      <trkpt lat="43.21745" lon="-2.86818">
        <ele>114.0</ele>
      </trkpt>
      <trkpt lat="43.21806" lon="-2.86781">
        <ele>108.0</ele>
      </trkpt>
      <trkpt lat="43.21805" lon="-2.86649">
        <ele>106.0</ele>
      </trkpt>
      <trkpt lat="43.21903" lon="-2.86802">
        <ele>107.0</ele>
      </trkpt>
      <trkpt lat="43.21986" lon="-2.8689">
        <ele>111.0</ele>
      </trkpt>
      <trkpt lat="43.22052" lon="-2.86815">
        <ele>114.0</ele>
      </trkpt>
      <trkpt lat="43.22224" lon="-2.86907">
        <ele>123.0</ele>
      </trkpt>
      <trkpt lat="43.22351" lon="-2.86813">
        <ele>136.0</ele>
      </trkpt>
      <trkpt lat="43.22296" lon="-2.86654">
        <ele>136.0</ele>
      </trkpt>
      <trkpt lat="43.22291" lon="-2.86555">
        <ele>132.0</ele>
      </trkpt>
      <trkpt lat="43.22349" lon="-2.86393">
        <ele>124.0</ele>
      </trkpt>
      <trkpt lat="43.2237" lon="-2.86427">
        <ele>121.0</ele>
      </trkpt>
      <trkpt lat="43.22358" lon="-2.86591">
        <ele>116.0</ele>
      </trkpt>
      <trkpt lat="43.22441" lon="-2.86505">
        <ele>107.0</ele>
      </trkpt>
      <trkpt lat="43.22551" lon="-2.86437">
        <ele>96.0</ele>
      </trkpt>
      <trkpt lat="43.22603" lon="-2.86527">
        <ele>87.0</ele>
      </trkpt>
      <trkpt lat="43.22665" lon="-2.86424">
        <ele>79.0</ele>
      </trkpt>
      <trkpt lat="43.22866" lon="-2.86415">
        <ele>67.0</ele>
      </trkpt>
      <trkpt lat="43.229" lon="-2.86481">
        <ele>58.0</ele>
      </trkpt>
      <trkpt lat="43.22962" lon="-2.86789">
        <ele>50.0</ele>
      </trkpt>
      <trkpt lat="43.2303" lon="-2.86801">
        <ele>47.0</ele>
      </trkpt>
      <trkpt lat="43.2307" lon="-2.86735">
        <ele>45.0</ele>
      </trkpt>
      <trkpt lat="43.23046" lon="-2.86664">
        <ele>44.0</ele>
      </trkpt>
      <trkpt lat="43.2311" lon="-2.86775">
        <ele>44.0</ele>
      </trkpt>
      <trkpt lat="43.23295" lon="-2.87127">
        <ele>41.0</ele>
      </trkpt>
      <trkpt lat="43.23376" lon="-2.87295">
        <ele>43.0</ele>
      </trkpt>
      <trkpt lat="43.2343" lon="-2.87441">
        <ele>52.0</ele>
      </trkpt>
      <trkpt lat="43.23497" lon="-2.87704">
        <ele>58.0</ele>
      </trkpt>
      <trkpt lat="43.23522" lon="-2.87797">
        <ele>55.0</ele>
      </trkpt>
      <trkpt lat="43.23557" lon="-2.8794">
        <ele>44.0</ele>
      </trkpt>
      <trkpt lat="43.23599" lon="-2.8811">
        <ele>44.0</ele>
      </trkpt>
      <trkpt lat="43.23638" lon="-2.88271">
        <ele>52.0</ele>
      </trkpt>
      <trkpt lat="43.23691" lon="-2.88477">
        <ele>68.0</ele>
      </trkpt>
      <trkpt lat="43.23608" lon="-2.88641">
        <ele>67.0</ele>
      </trkpt>
      <trkpt lat="43.23553" lon="-2.88807">
        <ele>66.0</ele>
      </trkpt>
      <trkpt lat="43.23531" lon="-2.88981">
        <ele>70.0</ele>
      </trkpt>
      <trkpt lat="43.23526" lon="-2.89115">
        <ele>80.0</ele>
      </trkpt>
      <trkpt lat="43.23502" lon="-2.89169">
        <ele>88.0</ele>
      </trkpt>
      <trkpt lat="43.23442" lon="-2.89369">
        <ele>105.0</ele>
      </trkpt>
      <trkpt lat="43.23466" lon="-2.89566">
        <ele>119.0</ele>
      </trkpt>
      <trkpt lat="43.23475" lon="-2.89647">
        <ele>125.0</ele>
      </trkpt>
    </trkseg>
  </trk>
</gpx>