<?xml version="1.0" encoding="UTF-8"?>
<gpx xmlns="http://www.topografix.com/GPX/1/0" xmlns:xsi="http://www.w3.org/2001/XMLSchema-instance" xsi:schemaLocation="http://www.topografix.com/GPX/1/0 http://www.topografix.com/GPX/1/0/gpx.xsd" version="1.0" creator="GPSBabel - https://www.gpsbabel.org">
  <time>2026-01-20T04:15:03.567000Z</time>
  <bounds minlat="39.76675" maxlat="40.22063" minlon="-0.4633" maxlon="0.2236" />
  <trk>
    <trkseg>
      <trkpt lat="39.82996" lon="-0.4633">
        <ele>296.0</ele>
      </trkpt>
      <trkpt lat="39.82913" lon="-0.46214">
        <ele>298.0</ele>
      </trkpt>
      <trkpt lat="39.82785" lon="-0.46076">
        <ele>302.0</ele>
      </trkpt>
      <trkpt lat="39.82629" lon="-0.45812">
        <ele>308.0</ele>
      </trkpt>
      <trkpt lat="39.82402" lon="-0.45465">
        <ele>307.0</ele>
      </trkpt>
      <trkpt lat="39.82346" lon="-0.45361">
        <ele>304.0</ele>
      </trkpt>
      <trkpt lat="39.8233" lon="-0.45292">
        <ele>302.0</ele>
      </trkpt>
      <trkpt lat="39.82301" lon="-0.45288">
        <ele>301.0</ele>
      </trkpt>
      <trkpt lat="39.82262" lon="-0.45309">
        <ele>300.0</ele>
      </trkpt>
      <trkpt lat="39.8224" lon="-0.45251">
        <ele>299.0</ele>
      </trkpt>
      <trkpt lat="39.82035" lon="-0.44811">
        <ele>295.0</ele>
      </trkpt>
      <trkpt lat="39.81815" lon="-0.44476">
        <ele>287.0</ele>
      </trkpt>
      <trkpt lat="39.81655" lon="-0.44239">
        <ele>288.0</ele>
      </trkpt>
      <trkpt lat="39.81569" lon="-0.44117">
        <ele>288.0</ele>
      </trkpt>
      <trkpt lat="39.81491" lon="-0.44056">
        <ele>291.0</ele>
      </trkpt>
      <trkpt lat="39.81473" lon="-0.44025">
        <ele>293.0</ele>
      </trkpt>
      <trkpt lat="39.81437" lon="-0.43954">
        <ele>295.0</ele>
      </trkpt>
      <trkpt lat="39.81376" lon="-0.43783">
        <ele>294.0</ele>
      </trkpt>
      <trkpt lat="39.81316" lon="-0.4338">
        <ele>292.0</ele>
      </trkpt>
      <trkpt lat="39.8131" lon="-0.43202">
        <ele>288.0</ele>
      </trkpt>
      <trkpt lat="39.81255" lon="-0.42981">
        <ele>284.0</ele>
      </trkpt>
      <trkpt lat="39.81213" lon="-0.42873">
        <ele>283.0</ele>
      </trkpt>
      <trkpt lat="39.81149" lon="-0.42789">
        <ele>283.0</ele>
      </trkpt>
      <trkpt lat="39.81115" lon="-0.42767">
        <ele>283.0</ele>
      </trkpt>
      <trkpt lat="39.8107" lon="-0.42731">
        <ele>282.0</ele>
      </trkpt>
      <trkpt lat="39.80941" lon="-0.42667">
        <ele>278.0</ele>
      </trkpt>
      <trkpt lat="39.80743" lon="-0.42569">
        <ele>273.0</ele>
      </trkpt>
      <trkpt lat="39.80417" lon="-0.42439">
        <ele>263.0</ele>
      </trkpt>
      <trkpt lat="39.8013" lon="-0.42253">
        <ele>258.0</ele>
      </trkpt>
      <trkpt lat="39.80054" lon="-0.42175">
        <ele>256.0</ele>
      </trkpt>
      <trkpt lat="39.80036" lon="-0.42166">
        <ele>256.0</ele>
      </trkpt>
      <trkpt lat="39.80004" lon="-0.42097">
        <ele>256.0</ele>
      </trkpt>
      <trkpt lat="39.79965" lon="-0.41959">
        <ele>256.0</ele>
      </trkpt>
      <trkpt lat="39.79915" lon="-0.41864">
        <ele>254.0</ele>
      </trkpt>
      <trkpt lat="39.79791" lon="-0.41746">
        <ele>250.0</ele>
      </trkpt>
      <trkpt lat="39.79772" lon="-0.4169">
        <ele>249.0</ele>
      </trkpt>
      <trkpt lat="39.79689" lon="-0.41591">
        <ele>249.0</ele>
      </trkpt>
      <trkpt lat="39.79593" lon="-0.41497">
        <ele>249.0</ele>
      </trkpt>
      <trkpt lat="39.79258" lon="-0.41025">
        <ele>249.0</ele>
      </trkpt>
      <trkpt lat="39.79156" lon="-0.40841">
        <ele>247.0</ele>
      </trkpt>
      <trkpt lat="39.79067" lon="-0.40767">
        <ele>241.0</ele>
      </trkpt>
      <trkpt lat="39.79008" lon="-0.40622">
        <ele>239.0</ele>
      </trkpt>
      <trkpt lat="39.78901" lon="-0.40534">
        <ele>237.0</ele>
      </trkpt>
      <trkpt lat="39.78874" lon="-0.40488">
        <ele>234.0</ele>
      </trkpt>
      <trkpt lat="39.78855" lon="-0.40392">
        <ele>230.0</ele>
      </trkpt>
      <trkpt lat="39.78961" lon="-0.40258">
        <ele>226.0</ele>
      </trkpt>
      <trkpt lat="39.78952" lon="-0.40212">
        <ele>224.0</ele>
      </trkpt>
      <trkpt lat="39.78923" lon="-0.40122">
        <ele>225.0</ele>
      </trkpt>
      <trkpt lat="39.78878" lon="-0.40052">
        <ele>228.0</ele>
      </trkpt>
      <trkpt lat="39.78831" lon="-0.3988">
        <ele>235.0</ele>
      </trkpt>
      <trkpt lat="39.78781" lon="-0.39777">
        <ele>240.0</ele>
      </trkpt>
      <trkpt lat="39.78777" lon="-0.39636">
        <ele>245.0</ele>
      </trkpt>
      <trkpt lat="39.78803" lon="-0.39572">
        <ele>247.0</ele>
      </trkpt>
      <trkpt lat="39.78803" lon="-0.39524">
        <ele>248.0</ele>
      </trkpt>
      <trkpt lat="39.78786" lon="-0.39487">
        <ele>249.0</ele>
      </trkpt>
      <trkpt lat="39.78752" lon="-0.39458">
        <ele>249.0</ele>
      </trkpt>
      <trkpt lat="39.78687" lon="-0.3945">
        <ele>251.0</ele>
      </trkpt>
      <trkpt lat="39.78552" lon="-0.39526">
        <ele>256.0</ele>
      </trkpt>
      <trkpt lat="39.78505" lon="-0.39525">
        <ele>262.0</ele>
      </trkpt>
      <trkpt lat="39.78368" lon="-0.39456">
        <ele>269.0</ele>
      </trkpt>
      <trkpt lat="39.78226" lon="-0.39411">
        <ele>274.0</ele>
      </trkpt>
      <trkpt lat="39.78184" lon="-0.39374">
        <ele>275.0</ele>
      </trkpt>
      <trkpt lat="39.78161" lon="-0.39341">
        <ele>274.0</ele>
      </trkpt>
      <trkpt lat="39.7811" lon="-0.39286">
        <ele>272.0</ele>
      </trkpt>
      <trkpt lat="39.78091" lon="-0.39291">
        <ele>271.0</ele>
      </trkpt>
      <trkpt lat="39.78076" lon="-0.39274">
        <ele>271.0</ele>
      </trkpt>
      <trkpt lat="39.78077" lon="-0.3925">
        <ele>270.0</ele>
      </trkpt>
      <trkpt lat="39.78087" lon="-0.39228">
        <ele>270.0</ele>
      </trkpt>
      <trkpt lat="39.78087" lon="-0.39203">
        <ele>270.0</ele>
      </trkpt>
      <trkpt lat="39.78075" lon="-0.39181">
        <ele>269.0</ele>
      </trkpt>
      <trkpt lat="39.78076" lon="-0.39152">
        <ele>269.0</ele>
      </trkpt>
      <trkpt lat="39.78089" lon="-0.39096">
        <ele>268.0</ele>
      </trkpt>
      <trkpt lat="39.78099" lon="-0.39001">
        <ele>266.0</ele>
      </trkpt>
      <trkpt lat="39.781" lon="-0.38962">
        <ele>264.0</ele>
      </trkpt>
      <trkpt lat="39.78099" lon="-0.3882">
        <ele>260.0</ele>
      </trkpt>
      <trkpt lat="39.78124" lon="-0.3841">
        <ele>250.0</ele>
      </trkpt>
      <trkpt lat="39.78176" lon="-0.38093">
        <ele>244.0</ele>
      </trkpt>
      <trkpt lat="39.78174" lon="-0.37958">
        <ele>242.0</ele>
      </trkpt>
      <trkpt lat="39.78141" lon="-0.37814">
        <ele>239.0</ele>
      </trkpt>
      <trkpt lat="39.78074" lon="-0.37683">
        <ele>233.0</ele>
      </trkpt>
      <trkpt lat="39.77885" lon="-0.37466">
        <ele>225.0</ele>
      </trkpt>
      <trkpt lat="39.77658" lon="-0.37268">
        <ele>219.0</ele>
      </trkpt>
      <trkpt lat="39.77469" lon="-0.37047">
        <ele>216.0</ele>
      </trkpt>
      <trkpt lat="39.77409" lon="-0.36788">
        <ele>208.0</ele>
      </trkpt>
      <trkpt lat="39.77389" lon="-0.36401">
        <ele>200.0</ele>
      </trkpt>
      <trkpt lat="39.77399" lon="-0.3592">
        <ele>185.0</ele>
      </trkpt>
      <trkpt lat="39.77342" lon="-0.35691">
        <ele>175.0</ele>
      </trkpt>
      <trkpt lat="39.77223" lon="-0.35538">
        <ele>170.0</ele>
      </trkpt>
      <trkpt lat="39.76835" lon="-0.35259">
        <ele>178.0</ele>
      </trkpt>
      <trkpt lat="39.76738" lon="-0.35121">
        <ele>183.0</ele>
      </trkpt>
      <trkpt lat="39.7668" lon="-0.3493">
        <ele>184.0</ele>
      </trkpt>
      <trkpt lat="39.76686" lon="-0.34716">
        <ele>187.0</ele>
      </trkpt>
      <trkpt lat="39.76772" lon="-0.34475">
        <ele>188.0</ele>
      </trkpt>
      <trkpt lat="39.77064" lon="-0.33816">
        <ele>193.0</ele>
      </trkpt>
      <trkpt lat="39.77434" lon="-0.32981">
        <ele>199.0</ele>
      </trkpt>
      <trkpt lat="39.77808" lon="-0.32105">
        <ele>216.0</ele>
      </trkpt>
      <trkpt lat="39.77949" lon="-0.31767">
        <ele>219.0</ele>
      </trkpt>
      <trkpt lat="39.78072" lon="-0.31478">
        <ele>212.0</ele>
      </trkpt>
      <trkpt lat="39.78311" lon="-0.30777">
        <ele>199.0</ele>
      </trkpt>
      <trkpt lat="39.78377" lon="-0.30358">
        <ele>195.0</ele>
      </trkpt>
      <trkpt lat="39.78372" lon="-0.29957">
        <ele>190.0</ele>
      </trkpt>
      <trkpt lat="39.7842" lon="-0.29638">
        <ele>189.0</ele>
      </trkpt>
      <trkpt lat="39.78372" lon="-0.29386">
        <ele>193.0</ele>
      </trkpt>
      <trkpt lat="39.78298" lon="-0.29257">
        <ele>194.0</ele>
      </trkpt>
      <trkpt lat="39.78126" lon="-0.29026">
        <ele>193.0</ele>
      </trkpt>
      <trkpt lat="39.78069" lon="-0.28863">
        <ele>189.0</ele>
      </trkpt>
      <trkpt lat="39.78061" lon="-0.28634">
        <ele>183.0</ele>
      </trkpt>
      <trkpt lat="39.78145" lon="-0.28282">
        <ele>177.0</ele>
      </trkpt>
      <trkpt lat="39.78497" lon="-0.26868">
        <ele>153.0</ele>
      </trkpt>
      <trkpt lat="39.78614" lon="-0.26442">
        <ele>142.0</ele>
      </trkpt>
      <trkpt lat="39.78681" lon="-0.26344">
        <ele>136.0</ele>
      </trkpt>
      <trkpt lat="39.79013" lon="-0.25556">
        <ele>128.0</ele>
      </trkpt>
      <trkpt lat="39.7919" lon="-0.25222">
        <ele>122.0</ele>
      </trkpt>
      <trkpt lat="39.79285" lon="-0.24949">
        <ele>116.0</ele>
      </trkpt>
      <trkpt lat="39.79306" lon="-0.24854">
        <ele>114.0</ele>
      </trkpt>
      <trkpt lat="39.79338" lon="-0.24813">
        <ele>113.0</ele>
      </trkpt>
      <trkpt lat="39.79381" lon="-0.2484">
        <ele>112.0</ele>
      </trkpt>
      <trkpt lat="39.79392" lon="-0.24879">
        <ele>112.0</ele>
      </trkpt>
      <trkpt lat="39.79469" lon="-0.24882">
        <ele>111.0</ele>
      </trkpt>
      <trkpt lat="39.79531" lon="-0.24874">
        <ele>110.0</ele>
      </trkpt>
      <trkpt lat="39.79632" lon="-0.24769">
        <ele>109.0</ele>
      </trkpt>
      <trkpt lat="39.80056" lon="-0.24271">
        <ele>106.0</ele>
      </trkpt>
      <trkpt lat="39.80269" lon="-0.24005">
        <ele>98.0</ele>
      </trkpt>
      <trkpt lat="39.80517" lon="-0.23746">
        <ele>92.0</ele>
      </trkpt>
      <trkpt lat="39.8062" lon="-0.23651">
        <ele>91.0</ele>
      </trkpt>
      <trkpt lat="39.80657" lon="-0.23606">
        <ele>91.0</ele>
      </trkpt>
      <trkpt lat="39.80727" lon="-0.23475">
        <ele>91.0</ele>
      </trkpt>
      <trkpt lat="39.80934" lon="-0.2305">
        <ele>87.0</ele>
      </trkpt>
      <trkpt lat="39.80935" lon="-0.23016">
        <ele>87.0</ele>
      </trkpt>
      <trkpt lat="39.80956" lon="-0.23006">
        <ele>87.0</ele>
      </trkpt>
      <trkpt lat="39.81083" lon="-0.22774">
        <ele>87.0</ele>
      </trkpt>
      <trkpt lat="39.8109" lon="-0.22718">
        <ele>86.0</ele>
      </trkpt>
      <trkpt lat="39.81108" lon="-0.22693">
        <ele>86.0</ele>
      </trkpt>
      <trkpt lat="39.81137" lon="-0.22667">
        <ele>85.0</ele>
      </trkpt>
      <trkpt lat="39.81322" lon="-0.22304">
        <ele>84.0</ele>
      </trkpt>
      <trkpt lat="39.81727" lon="-0.21507">
        <ele>83.0</ele>
      </trkpt>
      <trkpt lat="39.81801" lon="-0.21365">
        <ele>81.0</ele>
      </trkpt>
      <trkpt lat="39.81818" lon="-0.21311">
        <ele>79.0</ele>
      </trkpt>
      <trkpt lat="39.81817" lon="-0.21273">
        <ele>79.0</ele>
      </trkpt>
      <trkpt lat="39.81844" lon="-0.21255">
        <ele>78.0</ele>
      </trkpt>
      <trkpt lat="39.8191" lon="-0.21224">
        <ele>78.0</ele>
      </trkpt>
      <trkpt lat="39.82106" lon="-0.21094">
        <ele>78.0</ele>
      </trkpt>
      <trkpt lat="39.82413" lon="-0.21049">
        <ele>79.0</ele>
      </trkpt>
      <trkpt lat="39.82552" lon="-0.21022">
        <ele>78.0</ele>
      </trkpt>
      <trkpt lat="39.82589" lon="-0.21009">
        <ele>78.0</ele>
      </trkpt>
      <trkpt lat="39.829" lon="-0.20742">
        <ele>73.0</ele>
      </trkpt>
      <trkpt lat="39.8294" lon="-0.20731">
        <ele>70.0</ele>
      </trkpt>
      <trkpt lat="39.83016" lon="-0.20712">
        <ele>68.0</ele>
      </trkpt>
      <trkpt lat="39.83014" lon="-0.20638">
        <ele>67.0</ele>
      </trkpt>
      <trkpt lat="39.82983" lon="-0.20555">
        <ele>66.0</ele>
      </trkpt>
      <trkpt lat="39.83019" lon="-0.20486">
        <ele>65.0</ele>
      </trkpt>
      <trkpt lat="39.83084" lon="-0.20486">
        <ele>65.0</ele>
      </trkpt>
      <trkpt lat="39.83119" lon="-0.2058">
        <ele>68.0</ele>
      </trkpt>
      <trkpt lat="39.83121" lon="-0.20633">
        <ele>71.0</ele>
      </trkpt>
      <trkpt lat="39.83165" lon="-0.20633">
        <ele>72.0</ele>
      </trkpt>
      <trkpt lat="39.83236" lon="-0.20523">
        <ele>67.0</ele>
      </trkpt>
      <trkpt lat="39.83335" lon="-0.20409">
        <ele>61.0</ele>
      </trkpt>
      <trkpt lat="39.83654" lon="-0.20193">
        <ele>62.0</ele>
      </trkpt>
      <trkpt lat="39.83762" lon="-0.20118">
        <ele>60.0</ele>
      </trkpt>
      <trkpt lat="39.84312" lon="-0.19733">
        <ele>62.0</ele>
      </trkpt>
      <trkpt lat="39.84449" lon="-0.19464">
        <ele>61.0</ele>
      </trkpt>
      <trkpt lat="39.84514" lon="-0.19367">
        <ele>59.0</ele>
      </trkpt>
      <trkpt lat="39.84737" lon="-0.19137">
        <ele>54.0</ele>
      </trkpt>
      <trkpt lat="39.84828" lon="-0.19058">
        <ele>51.0</ele>
      </trkpt>
      <trkpt lat="39.84972" lon="-0.18933">
        <ele>49.0</ele>
      </trkpt>
      <trkpt lat="39.85082" lon="-0.18868">
        <ele>46.0</ele>
      </trkpt>
      <trkpt lat="39.85472" lon="-0.18651">
        <ele>41.0</ele>
      </trkpt>
      <trkpt lat="39.85531" lon="-0.18613">
        <ele>38.0</ele>
      </trkpt>
      <trkpt lat="39.85539" lon="-0.18548">
        <ele>37.0</ele>
      </trkpt>
      <trkpt lat="39.85571" lon="-0.18531">
        <ele>35.0</ele>
      </trkpt>
      <trkpt lat="39.85684" lon="-0.18357">
        <ele>34.0</ele>
      </trkpt>
      <trkpt lat="39.85728" lon="-0.18276">
        <ele>33.0</ele>
      </trkpt>
      <trkpt lat="39.85781" lon="-0.18177">
        <ele>33.0</ele>
      </trkpt>
      <trkpt lat="39.85888" lon="-0.17975">
        <ele>32.0</ele>
      </trkpt>
      <trkpt lat="39.85909" lon="-0.17935">
        <ele>31.0</ele>
      </trkpt>
      <trkpt lat="39.85924" lon="-0.17949">
        <ele>31.0</ele>
      </trkpt>
      <trkpt lat="39.86113" lon="-0.18193">
        <ele>34.0</ele>
      </trkpt>
      <trkpt lat="39.8633" lon="-0.18463">
        <ele>39.0</ele>
      </trkpt>
      <trkpt lat="39.86658" lon="-0.18636">
        <ele>44.0</ele>
      </trkpt>
      <trkpt lat="39.86935" lon="-0.18768">
        <ele>49.0</ele>
      </trkpt>
      <trkpt lat="39.87321" lon="-0.18953">
        <ele>55.0</ele>
      </trkpt>
      <trkpt lat="39.87396" lon="-0.18995">
        <ele>60.0</ele>
      </trkpt>
      <trkpt lat="39.87433" lon="-0.1909">
        <ele>61.0</ele>
      </trkpt>
      <trkpt lat="39.87453" lon="-0.19162">
        <ele>62.0</ele>
      </trkpt>
      <trkpt lat="39.87495" lon="-0.19175">
        <ele>63.0</ele>
      </trkpt>
      <trkpt lat="39.87523" lon="-0.19134">
        <ele>64.0</ele>
      </trkpt>
      <trkpt lat="39.87547" lon="-0.19117">
        <ele>64.0</ele>
      </trkpt>
      <trkpt lat="39.87566" lon="-0.19138">
        <ele>64.0</ele>
      </trkpt>
      <trkpt lat="39.87565" lon="-0.19189">
        <ele>65.0</ele>
      </trkpt>
      <trkpt lat="39.87582" lon="-0.19192">
        <ele>66.0</ele>
      </trkpt>
      <trkpt lat="39.87724" lon="-0.19176">
        <ele>68.0</ele>
      </trkpt>
      <trkpt lat="39.879" lon="-0.19251">
        <ele>71.0</ele>
      </trkpt>
      <trkpt lat="39.8818" lon="-0.19395">
        <ele>78.0</ele>
      </trkpt>
      <trkpt lat="39.88687" lon="-0.19632">
        <ele>84.0</ele>
      </trkpt>
      <trkpt lat="39.8874" lon="-0.19692">
        <ele>87.0</ele>
      </trkpt>
      <trkpt lat="39.88726" lon="-0.19776">
        <ele>87.0</ele>
      </trkpt>
      <trkpt lat="39.88761" lon="-0.19742">
        <ele>87.0</ele>
      </trkpt>
      <trkpt lat="39.88811" lon="-0.19688">
        <ele>87.0</ele>
      </trkpt>
      <trkpt lat="39.89018" lon="-0.19778">
        <ele>89.0</ele>
      </trkpt>
      <trkpt lat="39.89308" lon="-0.199">
        <ele>98.0</ele>
      </trkpt>
      <trkpt lat="39.89373" lon="-0.19919">
        <ele>102.0</ele>
      </trkpt>
      <trkpt lat="39.89399" lon="-0.19867">
        <ele>102.0</ele>
      </trkpt>
      <trkpt lat="39.89426" lon="-0.19868">
        <ele>101.0</ele>
      </trkpt>
      <trkpt lat="39.89468" lon="-0.19858">
        <ele>101.0</ele>
      </trkpt>
      <trkpt lat="39.89471" lon="-0.19913">
        <ele>101.0</ele>
      </trkpt>
      <trkpt lat="39.89485" lon="-0.19938">
        <ele>102.0</ele>
      </trkpt>
      <trkpt lat="39.89585" lon="-0.19874">
        <ele>104.0</ele>
      </trkpt>
      <trkpt lat="39.89644" lon="-0.19758">
        <ele>102.0</ele>
      </trkpt>
      <trkpt lat="39.90172" lon="-0.19665">
        <ele>99.0</ele>
      </trkpt>
      <trkpt lat="39.90194" lon="-0.19704">
        <ele>99.0</ele>
      </trkpt>
      <trkpt lat="39.90221" lon="-0.19693">
        <ele>99.0</ele>
      </trkpt>
      <trkpt lat="39.90244" lon="-0.19654">
        <ele>99.0</ele>
      </trkpt>
      <trkpt lat="39.90676" lon="-0.19591">
        <ele>101.0</ele>
      </trkpt>
      <trkpt lat="39.90815" lon="-0.19583">
        <ele>101.0</ele>
      </trkpt>
      <trkpt lat="39.91322" lon="-0.19605">
        <ele>94.0</ele>
      </trkpt>
      <trkpt lat="39.91813" lon="-0.19642">
        <ele>95.0</ele>
      </trkpt>
      <trkpt lat="39.91937" lon="-0.19621">
        <ele>94.0</ele>
      </trkpt>
      <trkpt lat="39.92037" lon="-0.19636">
        <ele>93.0</ele>
      </trkpt>
      <trkpt lat="39.92256" lon="-0.19665">
        <ele>93.0</ele>
      </trkpt>
      <trkpt lat="39.92249" lon="-0.19625">
        <ele>93.0</ele>
      </trkpt>
      <trkpt lat="39.92267" lon="-0.19599">
        <ele>93.0</ele>
      </trkpt>
      <trkpt lat="39.92289" lon="-0.19606">
        <ele>93.0</ele>
      </trkpt>
      <trkpt lat="39.92296" lon="-0.19631">
        <ele>93.0</ele>
      </trkpt>
      <trkpt lat="39.9233" lon="-0.1967">
        <ele>93.0</ele>
      </trkpt>
      <trkpt lat="39.92434" lon="-0.19668">
        <ele>95.0</ele>
      </trkpt>
      <trkpt lat="39.92621" lon="-0.19657">
        <ele>97.0</ele>
      </trkpt>
      <trkpt lat="39.92784" lon="-0.19639">
        <ele>97.0</ele>
      </trkpt>
      <trkpt lat="39.92845" lon="-0.1963">
        <ele>96.0</ele>
      </trkpt>
      <trkpt lat="39.92855" lon="-0.19625">
        <ele>96.0</ele>
      </trkpt>
      <trkpt lat="39.92864" lon="-0.19632">
        <ele>96.0</ele>
      </trkpt>
      <trkpt lat="39.92941" lon="-0.19659">
        <ele>95.0</ele>
      </trkpt>
      <trkpt lat="39.93016" lon="-0.19681">
        <ele>94.0</ele>
      </trkpt>
      <trkpt lat="39.9304" lon="-0.19686">
        <ele>94.0</ele>
      </trkpt>
      <trkpt lat="39.93087" lon="-0.1968">
        <ele>94.0</ele>
      </trkpt>
      <trkpt lat="39.93097" lon="-0.1967">
        <ele>94.0</ele>
      </trkpt>
      <trkpt lat="39.93105" lon="-0.19675">
        <ele>94.0</ele>
      </trkpt>
      <trkpt lat="39.93105" lon="-0.19688">
        <ele>94.0</ele>
      </trkpt>
      <trkpt lat="39.93111" lon="-0.19726">
        <ele>95.0</ele>
      </trkpt>
      <trkpt lat="39.93105" lon="-0.19776">
        <ele>95.0</ele>
      </trkpt>
      <trkpt lat="39.93031" lon="-0.1985">
        <ele>97.0</ele>
      </trkpt>
      <trkpt lat="39.93082" lon="-0.19941">
        <ele>98.0</ele>
      </trkpt>
      <trkpt lat="39.93131" lon="-0.20038">
        <ele>99.0</ele>
      </trkpt>
      <trkpt lat="39.9325" lon="-0.20252">
        <ele>101.0</ele>
      </trkpt>
      <trkpt lat="39.93424" lon="-0.20453">
        <ele>102.0</ele>
      </trkpt>
      <trkpt lat="39.93588" lon="-0.20702">
        <ele>103.0</ele>
      </trkpt>
      <trkpt lat="39.94106" lon="-0.21183">
        <ele>106.0</ele>
      </trkpt>
      <trkpt lat="39.94308" lon="-0.21431">
        <ele>110.0</ele>
      </trkpt>
      <trkpt lat="39.94368" lon="-0.21554">
        <ele>113.0</ele>
      </trkpt>
      <trkpt lat="39.94447" lon="-0.21738">
        <ele>116.0</ele>
      </trkpt>
      <trkpt lat="39.9463" lon="-0.22044">
        <ele>116.0</ele>
      </trkpt>
      <trkpt lat="39.94668" lon="-0.22288">
        <ele>116.0</ele>
      </trkpt>
      <trkpt lat="39.949" lon="-0.22516">
        <ele>119.0</ele>
      </trkpt>
      <trkpt lat="39.95298" lon="-0.23245">
        <ele>124.0</ele>
      </trkpt>
      <trkpt lat="39.95273" lon="-0.23444">
        <ele>132.0</ele>
      </trkpt>
      <trkpt lat="39.95409" lon="-0.23779">
        <ele>139.0</ele>
      </trkpt>
      <trkpt lat="39.95628" lon="-0.24529">
        <ele>150.0</ele>
      </trkpt>
      <trkpt lat="39.95738" lon="-0.24871">
        <ele>152.0</ele>
      </trkpt>
      <trkpt lat="39.95786" lon="-0.24998">
        <ele>151.0</ele>
      </trkpt>
      <trkpt lat="39.95924" lon="-0.25126">
        <ele>153.0</ele>
      </trkpt>
      <trkpt lat="39.9598" lon="-0.25283">
        <ele>159.0</ele>
      </trkpt>
      <trkpt lat="39.96032" lon="-0.2547">
        <ele>162.0</ele>
      </trkpt>
      <trkpt lat="39.96069" lon="-0.25491">
        <ele>164.0</ele>
      </trkpt>
      <trkpt lat="39.96149" lon="-0.25481">
        <ele>168.0</ele>
      </trkpt>
      <trkpt lat="39.96213" lon="-0.25453">
        <ele>174.0</ele>
      </trkpt>
      <trkpt lat="39.9626" lon="-0.25494">
        <ele>176.0</ele>
      </trkpt>
      <trkpt lat="39.96336" lon="-0.2556">
        <ele>178.0</ele>
      </trkpt>
      <trkpt lat="39.96473" lon="-0.25731">
        <ele>182.0</ele>
      </trkpt>
      <trkpt lat="39.96509" lon="-0.25685">
        <ele>183.0</ele>
      </trkpt>
      <trkpt lat="39.96529" lon="-0.25686">
        <ele>184.0</ele>
      </trkpt>
      <trkpt lat="39.96534" lon="-0.25718">
        <ele>184.0</ele>
      </trkpt>
      <trkpt lat="39.96531" lon="-0.25851">
        <ele>186.0</ele>
      </trkpt>
      <trkpt lat="39.96525" lon="-0.25941">
        <ele>188.0</ele>
      </trkpt>
      <trkpt lat="39.96522" lon="-0.26041">
        <ele>191.0</ele>
      </trkpt>
      <trkpt lat="39.96518" lon="-0.26151">
        <ele>192.0</ele>
      </trkpt>
      <trkpt lat="39.96527" lon="-0.26268">
        <ele>192.0</ele>
      </trkpt>
      <trkpt lat="39.96593" lon="-0.26298">
        <ele>192.0</ele>
      </trkpt>
      <trkpt lat="39.96645" lon="-0.26306">
        <ele>192.0</ele>
      </trkpt>
      <trkpt lat="39.96654" lon="-0.26307">
        <ele>191.0</ele>
      </trkpt>
      <trkpt lat="39.96675" lon="-0.26329">
        <ele>191.0</ele>
      </trkpt>
      <trkpt lat="39.9681" lon="-0.26427">
        <ele>190.0</ele>
      </trkpt>
      <trkpt lat="39.96825" lon="-0.26428">
        <ele>189.0</ele>
      </trkpt>
      <trkpt lat="39.9683" lon="-0.26449">
        <ele>189.0</ele>
      </trkpt>
      <trkpt lat="39.96913" lon="-0.26487">
        <ele>188.0</ele>
      </trkpt>
      <trkpt lat="39.97071" lon="-0.26512">
        <ele>188.0</ele>
      </trkpt>
      <trkpt lat="39.97105" lon="-0.26507">
        <ele>188.0</ele>
      </trkpt>
      <trkpt lat="39.97194" lon="-0.2649">
        <ele>188.0</ele>
      </trkpt>
      <trkpt lat="39.97371" lon="-0.26536">
        <ele>188.0</ele>
      </trkpt>
      <trkpt lat="39.97487" lon="-0.26559">
        <ele>191.0</ele>
      </trkpt>
      <trkpt lat="39.97589" lon="-0.26567">
        <ele>192.0</ele>
      </trkpt>
      <trkpt lat="39.9767" lon="-0.26595">
        <ele>191.0</ele>
      </trkpt>
      <trkpt lat="39.97818" lon="-0.26654">
        <ele>192.0</ele>
      </trkpt>
      <trkpt lat="39.97895" lon="-0.26673">
        <ele>195.0</ele>
      </trkpt>
      <trkpt lat="39.97974" lon="-0.26679">
        <ele>196.0</ele>
      </trkpt>
      <trkpt lat="39.98034" lon="-0.26682">
        <ele>197.0</ele>
      </trkpt>
      <trkpt lat="39.98048" lon="-0.2667">
        <ele>197.0</ele>
      </trkpt>
      <trkpt lat="39.98101" lon="-0.26649">
        <ele>198.0</ele>
      </trkpt>
      <trkpt lat="39.98191" lon="-0.26658">
        <ele>199.0</ele>
      </trkpt>
      <trkpt lat="39.98271" lon="-0.26671">
        <ele>200.0</ele>
      </trkpt>
      <trkpt lat="39.98463" lon="-0.26694">
        <ele>199.0</ele>
      </trkpt>
      <trkpt lat="39.98669" lon="-0.26759">
        <ele>201.0</ele>
      </trkpt>
      <trkpt lat="39.98846" lon="-0.2689">
        <ele>207.0</ele>
      </trkpt>
      <trkpt lat="39.9898" lon="-0.26952">
        <ele>209.0</ele>
      </trkpt>
      <trkpt lat="39.99099" lon="-0.2698">
        <ele>211.0</ele>
      </trkpt>
      <trkpt lat="39.99057" lon="-0.26707">
        <ele>213.0</ele>
      </trkpt>
      <trkpt lat="39.98995" lon="-0.26499">
        <ele>217.0</ele>
      </trkpt>
      <trkpt lat="39.99164" lon="-0.26176">
        <ele>222.0</ele>
      </trkpt>
      <trkpt lat="39.99511" lon="-0.25961">
        <ele>221.0</ele>
      </trkpt>
      <trkpt lat="39.99879" lon="-0.25796">
        <ele>215.0</ele>
      </trkpt>
      <trkpt lat="40.00044" lon="-0.25783">
        <ele>203.0</ele>
      </trkpt>
      <trkpt lat="40.00315" lon="-0.25555">
        <ele>191.0</ele>
      </trkpt>
      <trkpt lat="40.00289" lon="-0.25356">
        <ele>185.0</ele>
      </trkpt>
      <trkpt lat="40.00181" lon="-0.25246">
        <ele>181.0</ele>
      </trkpt>
      <trkpt lat="40.00393" lon="-0.24984">
        <ele>178.0</ele>
      </trkpt>
      <trkpt lat="40.00489" lon="-0.24861">
        <ele>176.0</ele>
      </trkpt>
      <trkpt lat="40.00549" lon="-0.24682">
        <ele>175.0</ele>
      </trkpt>
      <trkpt lat="40.00679" lon="-0.24511">
        <ele>172.0</ele>
      </trkpt>
      <trkpt lat="40.00728" lon="-0.24318">
        <ele>172.0</ele>
      </trkpt>
      <trkpt lat="40.00724" lon="-0.23936">
        <ele>178.0</ele>
      </trkpt>
      <trkpt lat="40.00929" lon="-0.23849">
        <ele>176.0</ele>
      </trkpt>
      <trkpt lat="40.00981" lon="-0.2367">
        <ele>176.0</ele>
      </trkpt>
      <trkpt lat="40.01066" lon="-0.23315">
        <ele>171.0</ele>
      </trkpt>
      <trkpt lat="40.01068" lon="-0.23268">
        <ele>168.0</ele>
      </trkpt>
      <trkpt lat="40.00968" lon="-0.23014">
        <ele>168.0</ele>
      </trkpt>
      <trkpt lat="40.00975" lon="-0.22978">
        <ele>169.0</ele>
      </trkpt>
      <trkpt lat="40.00994" lon="-0.22937">
        <ele>172.0</ele>
      </trkpt>
      <trkpt lat="40.01002" lon="-0.22839">
        <ele>175.0</ele>
      </trkpt>
      <trkpt lat="40.00993" lon="-0.22731">
        <ele>180.0</ele>
      </trkpt>
      <trkpt lat="40.00967" lon="-0.22544">
        <ele>186.0</ele>
      </trkpt>
      <trkpt lat="40.00926" lon="-0.22417">
        <ele>189.0</ele>
      </trkpt>
      <trkpt lat="40.0093" lon="-0.22383">
        <ele>190.0</ele>
      </trkpt>
      <trkpt lat="40.0095" lon="-0.22312">
        <ele>191.0</ele>
      </trkpt>
      <trkpt lat="40.00908" lon="-0.22274">
        <ele>193.0</ele>
      </trkpt>
      <trkpt lat="40.00894" lon="-0.22251">
        <ele>195.0</ele>
      </trkpt>
      <trkpt lat="40.00935" lon="-0.22072">
        <ele>198.0</ele>
      </trkpt>
      <trkpt lat="40.0114" lon="-0.21934">
        <ele>194.0</ele>
      </trkpt>
      <trkpt lat="40.01257" lon="-0.21654">
        <ele>191.0</ele>
      </trkpt>
      <trkpt lat="40.01349" lon="-0.21428">
        <ele>194.0</ele>
      </trkpt>
      <trkpt lat="40.01363" lon="-0.21212">
        <ele>201.0</ele>
      </trkpt>
      <trkpt lat="40.01397" lon="-0.20875">
        <ele>213.0</ele>
      </trkpt>
      <trkpt lat="40.01403" lon="-0.20854">
        <ele>217.0</ele>
      </trkpt>
      <trkpt lat="40.01412" lon="-0.20862">
        <ele>218.0</ele>
      </trkpt>
      <trkpt lat="40.02056" lon="-0.21035">
        <ele>227.0</ele>
      </trkpt>
      <trkpt lat="40.02149" lon="-0.21183">
        <ele>230.0</ele>
      </trkpt>
      <trkpt lat="40.0218" lon="-0.21296">
        <ele>230.0</ele>
      </trkpt>
      <trkpt lat="40.0203" lon="-0.21721">
        <ele>227.0</ele>
      </trkpt>
      <trkpt lat="40.01938" lon="-0.21899">
        <ele>222.0</ele>
      </trkpt>
      <trkpt lat="40.01971" lon="-0.21987">
        <ele>220.0</ele>
      </trkpt>
      <trkpt lat="40.01978" lon="-0.22049">
        <ele>217.0</ele>
      </trkpt>
      <trkpt lat="40.01854" lon="-0.22092">
        <ele>212.0</ele>
      </trkpt>
      <trkpt lat="40.01844" lon="-0.22162">
        <ele>207.0</ele>
      </trkpt>
      <trkpt lat="40.01863" lon="-0.22233">
        <ele>203.0</ele>
      </trkpt>
      <trkpt lat="40.01763" lon="-0.22371">
        <ele>197.0</ele>
      </trkpt>
      <trkpt lat="40.01683" lon="-0.22595">
        <ele>187.0</ele>
      </trkpt>
      <trkpt lat="40.01643" lon="-0.22682">
        <ele>180.0</ele>
      </trkpt>
      <trkpt lat="40.01679" lon="-0.22738">
        <ele>176.0</ele>
      </trkpt>
      <trkpt lat="40.01934" lon="-0.22592">
        <ele>174.0</ele>
      </trkpt>
      <trkpt lat="40.02023" lon="-0.22567">
        <ele>176.0</ele>
      </trkpt>
      <trkpt lat="40.02048" lon="-0.22605">
        <ele>178.0</ele>
      </trkpt>
      <trkpt lat="40.02038" lon="-0.22686">
        <ele>180.0</ele>
      </trkpt>
      <trkpt lat="40.02073" lon="-0.22783">
        <ele>185.0</ele>
      </trkpt>
      <trkpt lat="40.01942" lon="-0.23008">
        <ele>192.0</ele>
      </trkpt>
      <trkpt lat="40.01935" lon="-0.23067">
        <ele>196.0</ele>
      </trkpt>
      <trkpt lat="40.01977" lon="-0.23129">
        <ele>197.0</ele>
      </trkpt>
      <trkpt lat="40.02186" lon="-0.23022">
        <ele>199.0</ele>
      </trkpt>
      <trkpt lat="40.02282" lon="-0.22993">
        <ele>196.0</ele>
      </trkpt>
      <trkpt lat="40.02373" lon="-0.22993">
        <ele>192.0</ele>
      </trkpt>
      <trkpt lat="40.02444" lon="-0.23047">
        <ele>189.0</ele>
      </trkpt>
      <trkpt lat="40.02551" lon="-0.23019">
        <ele>187.0</ele>
      </trkpt>
      <trkpt lat="40.02817" lon="-0.22935">
        <ele>180.0</ele>
      </trkpt>
      <trkpt lat="40.02841" lon="-0.22953">
        <ele>177.0</ele>
      </trkpt>
      <trkpt lat="40.02853" lon="-0.23008">
        <ele>177.0</ele>
      </trkpt>
      <trkpt lat="40.02769" lon="-0.23146">
        <ele>178.0</ele>
      </trkpt>
      <trkpt lat="40.02762" lon="-0.23232">
        <ele>178.0</ele>
      </trkpt>
      <trkpt lat="40.02743" lon="-0.23485">
        <ele>178.0</ele>
      </trkpt>
      <trkpt lat="40.02574" lon="-0.23517">
        <ele>179.0</ele>
      </trkpt>
      <trkpt lat="40.02541" lon="-0.23542">
        <ele>179.0</ele>
      </trkpt>
      <trkpt lat="40.02583" lon="-0.23776">
        <ele>176.0</ele>
      </trkpt>
      <trkpt lat="40.02573" lon="-0.23844">
        <ele>173.0</ele>
      </trkpt>
      <trkpt lat="40.02507" lon="-0.23844">
        <ele>173.0</ele>
      </trkpt>
      <trkpt lat="40.02414" lon="-0.23737">
        <ele>174.0</ele>
      </trkpt>
      <trkpt lat="40.02379" lon="-0.2371">
        <ele>174.0</ele>
      </trkpt>
      <trkpt lat="40.0234" lon="-0.23717">
        <ele>174.0</ele>
      </trkpt>
      <trkpt lat="40.02226" lon="-0.23894">
        <ele>172.0</ele>
      </trkpt>
      <trkpt lat="40.02195" lon="-0.23967">
        <ele>170.0</ele>
      </trkpt>
      <trkpt lat="40.02195" lon="-0.24152">
        <ele>169.0</ele>
      </trkpt>
      <trkpt lat="40.02223" lon="-0.24185">
        <ele>168.0</ele>
      </trkpt>
      <trkpt lat="40.02312" lon="-0.242">
        <ele>171.0</ele>
      </trkpt>
      <trkpt lat="40.02378" lon="-0.24266">
        <ele>173.0</ele>
      </trkpt>
      <trkpt lat="40.02468" lon="-0.24261">
        <ele>175.0</ele>
      </trkpt>
      <trkpt lat="40.02591" lon="-0.24514">
        <ele>175.0</ele>
      </trkpt>
      <trkpt lat="40.02578" lon="-0.24572">
        <ele>174.0</ele>
      </trkpt>
      <trkpt lat="40.02552" lon="-0.24572">
        <ele>174.0</ele>
      </trkpt>
      <trkpt lat="40.02507" lon="-0.24533">
        <ele>174.0</ele>
      </trkpt>
      <trkpt lat="40.02443" lon="-0.24499">
        <ele>174.0</ele>
      </trkpt>
      <trkpt lat="40.02403" lon="-0.24469">
        <ele>174.0</ele>
      </trkpt>
      <trkpt lat="40.0207" lon="-0.24568">
        <ele>177.0</ele>
      </trkpt>
      <trkpt lat="40.01951" lon="-0.24688">
        <ele>176.0</ele>
      </trkpt>
      <trkpt lat="40.01896" lon="-0.24856">
        <ele>172.0</ele>
      </trkpt>
      <trkpt lat="40.01915" lon="-0.25105">
        <ele>172.0</ele>
      </trkpt>
      <trkpt lat="40.02001" lon="-0.25406">
        <ele>186.0</ele>
      </trkpt>
      <trkpt lat="40.01962" lon="-0.25584">
        <ele>197.0</ele>
      </trkpt>
      <trkpt lat="40.0192" lon="-0.25795">
        <ele>210.0</ele>
      </trkpt>
      <trkpt lat="40.01871" lon="-0.25862">
        <ele>218.0</ele>
      </trkpt>
      <trkpt lat="40.01913" lon="-0.25912">
        <ele>219.0</ele>
      </trkpt>
      <trkpt lat="40.01946" lon="-0.25995">
        <ele>219.0</ele>
      </trkpt>
      <trkpt lat="40.02044" lon="-0.26128">
        <ele>219.0</ele>
      </trkpt>
      <trkpt lat="40.02025" lon="-0.26173">
        <ele>221.0</ele>
      </trkpt>
      <trkpt lat="40.01992" lon="-0.26186">
        <ele>222.0</ele>
      </trkpt>
      <trkpt lat="40.01825" lon="-0.26326">
        <ele>228.0</ele>
      </trkpt>
      <trkpt lat="40.01858" lon="-0.26486">
        <ele>225.0</ele>
      </trkpt>
      <trkpt lat="40.0192" lon="-0.26587">
        <ele>221.0</ele>
      </trkpt>
      <trkpt lat="40.02069" lon="-0.26789">
        <ele>216.0</ele>
      </trkpt>
      <trkpt lat="40.0206" lon="-0.2691">
        <ele>214.0</ele>
      </trkpt>
      <trkpt lat="40.02048" lon="-0.27007">
        <ele>212.0</ele>
      </trkpt>
      <trkpt lat="40.02056" lon="-0.27072">
        <ele>213.0</ele>
      </trkpt>
      <trkpt lat="40.021" lon="-0.27051">
        <ele>215.0</ele>
      </trkpt>
      <trkpt lat="40.02184" lon="-0.27061">
        <ele>218.0</ele>
      </trkpt>
      <trkpt lat="40.02233" lon="-0.27008">
        <ele>224.0</ele>
      </trkpt>
      <trkpt lat="40.0228" lon="-0.26904">
        <ele>234.0</ele>
      </trkpt>
      <trkpt lat="40.0257" lon="-0.26769">
        <ele>246.0</ele>
      </trkpt>
      <trkpt lat="40.02553" lon="-0.26645">
        <ele>244.0</ele>
      </trkpt>
      <trkpt lat="40.02637" lon="-0.26392">
        <ele>237.0</ele>
      </trkpt>
      <trkpt lat="40.02748" lon="-0.26277">
        <ele>232.0</ele>
      </trkpt>
      <trkpt lat="40.02994" lon="-0.26045">
        <ele>231.0</ele>
      </trkpt>
      <trkpt lat="40.03244" lon="-0.2573">
        <ele>232.0</ele>
      </trkpt>
      <trkpt lat="40.03345" lon="-0.25673">
        <ele>230.0</ele>
      </trkpt>
      <trkpt lat="40.03446" lon="-0.25632">
        <ele>229.0</ele>
      </trkpt>
      <trkpt lat="40.03433" lon="-0.25559">
        <ele>228.0</ele>
      </trkpt>
      <trkpt lat="40.03384" lon="-0.25504">
        <ele>228.0</ele>
      </trkpt>
      <trkpt lat="40.03346" lon="-0.25359">
        <ele>222.0</ele>
      </trkpt>
      <trkpt lat="40.03377" lon="-0.2535">
        <ele>219.0</ele>
      </trkpt>
      <trkpt lat="40.0341" lon="-0.25452">
        <ele>215.0</ele>
      </trkpt>
      <trkpt lat="40.03553" lon="-0.25594">
        <ele>207.0</ele>
      </trkpt>
      <trkpt lat="40.0361" lon="-0.25585">
        <ele>203.0</ele>
      </trkpt>
      <trkpt lat="40.03638" lon="-0.25482">
        <ele>200.0</ele>
      </trkpt>
      <trkpt lat="40.0385" lon="-0.25469">
        <ele>206.0</ele>
      </trkpt>
      <trkpt lat="40.04056" lon="-0.25446">
        <ele>228.0</ele>
      </trkpt>
      <trkpt lat="40.04202" lon="-0.25475">
        <ele>238.0</ele>
      </trkpt>
      <trkpt lat="40.04315" lon="-0.25385">
        <ele>239.0</ele>
      </trkpt>
      <trkpt lat="40.04337" lon="-0.25283">
        <ele>236.0</ele>
      </trkpt>
      <trkpt lat="40.044" lon="-0.25231">
        <ele>236.0</ele>
      </trkpt>
      <trkpt lat="40.04566" lon="-0.253">
        <ele>236.0</ele>
      </trkpt>
      <trkpt lat="40.04679" lon="-0.25331">
        <ele>238.0</ele>
      </trkpt>
      <trkpt lat="40.04777" lon="-0.2527">
        <ele>241.0</ele>
      </trkpt>
      <trkpt lat="40.04914" lon="-0.25201">
        <ele>245.0</ele>
      </trkpt>
      <trkpt lat="40.04992" lon="-0.25017">
        <ele>249.0</ele>
      </trkpt>
      <trkpt lat="40.05201" lon="-0.24753">
        <ele>254.0</ele>
      </trkpt>
      <trkpt lat="40.05294" lon="-0.24701">
        <ele>263.0</ele>
      </trkpt>
      <trkpt lat="40.05364" lon="-0.24568">
        <ele>271.0</ele>
      </trkpt>
      <trkpt lat="40.05366" lon="-0.24458">
        <ele>280.0</ele>
      </trkpt>
      <trkpt lat="40.05445" lon="-0.24318">
        <ele>290.0</ele>
      </trkpt>
      <trkpt lat="40.05857" lon="-0.23941">
        <ele>303.0</ele>
      </trkpt>
      <trkpt lat="40.06006" lon="-0.23765">
        <ele>313.0</ele>
      </trkpt>
      <trkpt lat="40.06117" lon="-0.23733">
        <ele>315.0</ele>
      </trkpt>
      <trkpt lat="40.06178" lon="-0.23653">
        <ele>315.0</ele>
      </trkpt>
      <trkpt lat="40.06203" lon="-0.23522">
        <ele>314.0</ele>
      </trkpt>
      <trkpt lat="40.0631" lon="-0.23284">
        <ele>308.0</ele>
      </trkpt>
      <trkpt lat="40.06327" lon="-0.23004">
        <ele>298.0</ele>
      </trkpt>
      <trkpt lat="40.06375" lon="-0.22919">
        <ele>290.0</ele>
      </trkpt>
      <trkpt lat="40.06483" lon="-0.22813">
        <ele>284.0</ele>
      </trkpt>
      <trkpt lat="40.06585" lon="-0.22649">
        <ele>288.0</ele>
      </trkpt>
      <trkpt lat="40.06637" lon="-0.22537">
        <ele>289.0</ele>
      </trkpt>
      <trkpt lat="40.06629" lon="-0.22462">
        <ele>288.0</ele>
      </trkpt>
      <trkpt lat="40.06545" lon="-0.22319">
        <ele>283.0</ele>
      </trkpt>
      <trkpt lat="40.06572" lon="-0.2228">
        <ele>280.0</ele>
      </trkpt>
      <trkpt lat="40.06885" lon="-0.22137">
        <ele>271.0</ele>
      </trkpt>
      <trkpt lat="40.06917" lon="-0.22049">
        <ele>272.0</ele>
      </trkpt>
      <trkpt lat="40.07052" lon="-0.22021">
        <ele>278.0</ele>
      </trkpt>
      <trkpt lat="40.07067" lon="-0.21991">
        <ele>281.0</ele>
      </trkpt>
      <trkpt lat="40.07121" lon="-0.21937">
        <ele>283.0</ele>
      </trkpt>
      <trkpt lat="40.07132" lon="-0.21913">
        <ele>285.0</ele>
      </trkpt>
      <trkpt lat="40.07106" lon="-0.21854">
        <ele>286.0</ele>
      </trkpt>
      <trkpt lat="40.06976" lon="-0.21622">
        <ele>281.0</ele>
      </trkpt>
      <trkpt lat="40.06924" lon="-0.21505">
        <ele>274.0</ele>
      </trkpt>
      <trkpt lat="40.06932" lon="-0.21375">
        <ele>268.0</ele>
      </trkpt>
      <trkpt lat="40.07005" lon="-0.21383">
        <ele>266.0</ele>
      </trkpt>
      <trkpt lat="40.07104" lon="-0.21384">
        <ele>267.0</ele>
      </trkpt>
      <trkpt lat="40.07229" lon="-0.21332">
        <ele>273.0</ele>
      </trkpt>
      <trkpt lat="40.07235" lon="-0.2132">
        <ele>275.0</ele>
      </trkpt>
      <trkpt lat="40.07278" lon="-0.21297">
        <ele>273.0</ele>
      </trkpt>
      <trkpt lat="40.07279" lon="-0.2129">
        <ele>272.0</ele>
      </trkpt>
      <trkpt lat="40.07256" lon="-0.21204">
        <ele>270.0</ele>
      </trkpt>
      <trkpt lat="40.07246" lon="-0.2117">
        <ele>268.0</ele>
      </trkpt>
      <trkpt lat="40.07206" lon="-0.21084">
        <ele>265.0</ele>
      </trkpt>
      <trkpt lat="40.07246" lon="-0.21033">
        <ele>261.0</ele>
      </trkpt>
      <trkpt lat="40.073" lon="-0.20991">
        <ele>257.0</ele>
      </trkpt>
      <trkpt lat="40.07306" lon="-0.20969">
        <ele>255.0</ele>
      </trkpt>
      <trkpt lat="40.07301" lon="-0.20946">
        <ele>253.0</ele>
      </trkpt>
      <trkpt lat="40.07308" lon="-0.20928">
        <ele>252.0</ele>
      </trkpt>
      <trkpt lat="40.07317" lon="-0.20899">
        <ele>250.0</ele>
      </trkpt>
      <trkpt lat="40.07346" lon="-0.20636">
        <ele>244.0</ele>
      </trkpt>
      <trkpt lat="40.0735" lon="-0.20342">
        <ele>242.0</ele>
      </trkpt>
      <trkpt lat="40.07213" lon="-0.20075">
        <ele>235.0</ele>
      </trkpt>
      <trkpt lat="40.07187" lon="-0.19924">
        <ele>224.0</ele>
      </trkpt>
      <trkpt lat="40.07232" lon="-0.19593">
        <ele>228.0</ele>
      </trkpt>
      <trkpt lat="40.07193" lon="-0.19077">
        <ele>225.0</ele>
      </trkpt>
      <trkpt lat="40.07004" lon="-0.18467">
        <ele>207.0</ele>
      </trkpt>
      <trkpt lat="40.06963" lon="-0.18412">
        <ele>197.0</ele>
      </trkpt>
      <trkpt lat="40.06953" lon="-0.18385">
        <ele>195.0</ele>
      </trkpt>
      <trkpt lat="40.06951" lon="-0.18338">
        <ele>195.0</ele>
      </trkpt>
      <trkpt lat="40.0682" lon="-0.18046">
        <ele>194.0</ele>
      </trkpt>
      <trkpt lat="40.06184" lon="-0.16894">
        <ele>180.0</ele>
      </trkpt>
      <trkpt lat="40.06081" lon="-0.16625">
        <ele>171.0</ele>
      </trkpt>
      <trkpt lat="40.05806" lon="-0.16121">
        <ele>166.0</ele>
      </trkpt>
      <trkpt lat="40.05595" lon="-0.15675">
        <ele>148.0</ele>
      </trkpt>
      <trkpt lat="40.05386" lon="-0.15331">
        <ele>137.0</ele>
      </trkpt>
      <trkpt lat="40.05174" lon="-0.15023">
        <ele>141.0</ele>
      </trkpt>
      <trkpt lat="40.04987" lon="-0.14875">
        <ele>146.0</ele>
      </trkpt>
      <trkpt lat="40.04956" lon="-0.14882">
        <ele>151.0</ele>
      </trkpt>
      <trkpt lat="40.0493" lon="-0.14872">
        <ele>154.0</ele>
      </trkpt>
      <trkpt lat="40.04928" lon="-0.14846">
        <ele>155.0</ele>
      </trkpt>
      <trkpt lat="40.04943" lon="-0.14828">
        <ele>156.0</ele>
      </trkpt>
      <trkpt lat="40.05021" lon="-0.14672">
        <ele>159.0</ele>
      </trkpt>
      <trkpt lat="40.05095" lon="-0.14553">
        <ele>161.0</ele>
      </trkpt>
      <trkpt lat="40.05195" lon="-0.14437">
        <ele>162.0</ele>
      </trkpt>
      <trkpt lat="40.05269" lon="-0.14346">
        <ele>164.0</ele>
      </trkpt>
      <trkpt lat="40.05343" lon="-0.14259">
        <ele>167.0</ele>
      </trkpt>
      <trkpt lat="40.05431" lon="-0.14217">
        <ele>171.0</ele>
      </trkpt>
      <trkpt lat="40.05466" lon="-0.14178">
        <ele>174.0</ele>
      </trkpt>
      <trkpt lat="40.05479" lon="-0.14149">
        <ele>176.0</ele>
      </trkpt>
      <trkpt lat="40.05521" lon="-0.1405">
        <ele>177.0</ele>
      </trkpt>
      <trkpt lat="40.0555" lon="-0.13755">
        <ele>180.0</ele>
      </trkpt>
      <trkpt lat="40.05501" lon="-0.13538">
        <ele>185.0</ele>
      </trkpt>
      <trkpt lat="40.05516" lon="-0.13462">
        <ele>188.0</ele>
      </trkpt>
      <trkpt lat="40.05544" lon="-0.13143">
        <ele>194.0</ele>
      </trkpt>
      <trkpt lat="40.05619" lon="-0.12861">
        <ele>203.0</ele>
      </trkpt>
      <trkpt lat="40.05701" lon="-0.12717">
        <ele>209.0</ele>
      </trkpt>
      <trkpt lat="40.05813" lon="-0.12543">
        <ele>215.0</ele>
      </trkpt>
      <trkpt lat="40.05996" lon="-0.12377">
        <ele>215.0</ele>
      </trkpt>
      <trkpt lat="40.06174" lon="-0.12283">
        <ele>220.0</ele>
      </trkpt>
      <trkpt lat="40.06517" lon="-0.12237">
        <ele>221.0</ele>
      </trkpt>
      <trkpt lat="40.06875" lon="-0.12292">
        <ele>211.0</ele>
      </trkpt>
      <trkpt lat="40.07028" lon="-0.1228">
        <ele>210.0</ele>
      </trkpt>
      <trkpt lat="40.07206" lon="-0.12158">
        <ele>217.0</ele>
      </trkpt>
      <trkpt lat="40.07244" lon="-0.12117">
        <ele>220.0</ele>
      </trkpt>
      <trkpt lat="40.07291" lon="-0.12114">
        <ele>219.0</ele>
      </trkpt>
      <trkpt lat="40.07469" lon="-0.11915">
        <ele>217.0</ele>
      </trkpt>
      <trkpt lat="40.07589" lon="-0.11861">
        <ele>217.0</ele>
      </trkpt>
      <trkpt lat="40.07627" lon="-0.11672">
        <ele>217.0</ele>
      </trkpt>
      <trkpt lat="40.07683" lon="-0.11645">
        <ele>219.0</ele>
      </trkpt>
      <trkpt lat="40.07753" lon="-0.11664">
        <ele>221.0</ele>
      </trkpt>
      <trkpt lat="40.07879" lon="-0.11543">
        <ele>225.0</ele>
      </trkpt>
      <trkpt lat="40.07957" lon="-0.11367">
        <ele>232.0</ele>
      </trkpt>
      <trkpt lat="40.07948" lon="-0.11258">
        <ele>236.0</ele>
      </trkpt>
      <trkpt lat="40.07968" lon="-0.11209">
        <ele>238.0</ele>
      </trkpt>
      <trkpt lat="40.08122" lon="-0.11017">
        <ele>246.0</ele>
      </trkpt>
      <trkpt lat="40.08253" lon="-0.1086">
        <ele>257.0</ele>
      </trkpt>
      <trkpt lat="40.08291" lon="-0.107">
        <ele>259.0</ele>
      </trkpt>
      <trkpt lat="40.08438" lon="-0.10641">
        <ele>259.0</ele>
      </trkpt>
      <trkpt lat="40.0849" lon="-0.10509">
        <ele>259.0</ele>
      </trkpt>
      <trkpt lat="40.08446" lon="-0.10336">
        <ele>268.0</ele>
      </trkpt>
      <trkpt lat="40.08479" lon="-0.10276">
        <ele>276.0</ele>
      </trkpt>
      <trkpt lat="40.08518" lon="-0.10226">
        <ele>279.0</ele>
      </trkpt>
      <trkpt lat="40.08482" lon="-0.10151">
        <ele>281.0</ele>
      </trkpt>
      <trkpt lat="40.08515" lon="-0.10091">
        <ele>285.0</ele>
      </trkpt>
      <trkpt lat="40.08536" lon="-0.10031">
        <ele>288.0</ele>
      </trkpt>
      <trkpt lat="40.08628" lon="-0.09983">
        <ele>291.0</ele>
      </trkpt>
      <trkpt lat="40.0868" lon="-0.09884">
        <ele>297.0</ele>
      </trkpt>
      <trkpt lat="40.08744" lon="-0.09839">
        <ele>302.0</ele>
      </trkpt>
      <trkpt lat="40.08758" lon="-0.09737">
        <ele>306.0</ele>
      </trkpt>
      <trkpt lat="40.08847" lon="-0.09659">
        <ele>308.0</ele>
      </trkpt>
      <trkpt lat="40.08907" lon="-0.09569">
        <ele>308.0</ele>
      </trkpt>
      <trkpt lat="40.08997" lon="-0.09493">
        <ele>307.0</ele>
      </trkpt>
      <trkpt lat="40.09125" lon="-0.0921">
        <ele>300.0</ele>
      </trkpt>
      <trkpt lat="40.09199" lon="-0.09149">
        <ele>292.0</ele>
      </trkpt>
      <trkpt lat="40.09328" lon="-0.09054">
        <ele>289.0</ele>
      </trkpt>
      <trkpt lat="40.09409" lon="-0.08966">
        <ele>290.0</ele>
      </trkpt>
      <trkpt lat="40.09605" lon="-0.08708">
        <ele>295.0</ele>
      </trkpt>
      <trkpt lat="40.09789" lon="-0.08461">
        <ele>301.0</ele>
      </trkpt>
      <trkpt lat="40.09825" lon="-0.08297">
        <ele>305.0</ele>
      </trkpt>
      <trkpt lat="40.09964" lon="-0.08042">
        <ele>310.0</ele>
      </trkpt>
      <trkpt lat="40.10132" lon="-0.07902">
        <ele>311.0</ele>
      </trkpt>
      <trkpt lat="40.10214" lon="-0.07805">
        <ele>306.0</ele>
      </trkpt>
      <trkpt lat="40.10373" lon="-0.07665">
        <ele>298.0</ele>
      </trkpt>
      <trkpt lat="40.1055" lon="-0.07385">
        <ele>292.0</ele>
      </trkpt>
      <trkpt lat="40.10722" lon="-0.07158">
        <ele>286.0</ele>
      </trkpt>
      <trkpt lat="40.10893" lon="-0.0703">
        <ele>279.0</ele>
      </trkpt>
      <trkpt lat="40.10918" lon="-0.06969">
        <ele>276.0</ele>
      </trkpt>
      <trkpt lat="40.11061" lon="-0.0661">
        <ele>273.0</ele>
      </trkpt>
      <trkpt lat="40.11265" lon="-0.06298">
        <ele>269.0</ele>
      </trkpt>
      <trkpt lat="40.11286" lon="-0.06245">
        <ele>267.0</ele>
      </trkpt>
      <trkpt lat="40.11288" lon="-0.06208">
        <ele>266.0</ele>
      </trkpt>
      <trkpt lat="40.11306" lon="-0.06182">
        <ele>266.0</ele>
      </trkpt>
      <trkpt lat="40.11334" lon="-0.06186">
        <ele>265.0</ele>
      </trkpt>
      <trkpt lat="40.11361" lon="-0.06172">
        <ele>265.0</ele>
      </trkpt>
      <trkpt lat="40.11778" lon="-0.05649">
        <ele>261.0</ele>
      </trkpt>
      <trkpt lat="40.11879" lon="-0.05397">
        <ele>260.0</ele>
      </trkpt>
      <trkpt lat="40.11883" lon="-0.05339">
        <ele>260.0</ele>
      </trkpt>
      <trkpt lat="40.11869" lon="-0.05292">
        <ele>260.0</ele>
      </trkpt>
      <trkpt lat="40.11894" lon="-0.05257">
        <ele>259.0</ele>
      </trkpt>
      <trkpt lat="40.11931" lon="-0.0527">
        <ele>259.0</ele>
      </trkpt>
      <trkpt lat="40.1194" lon="-0.05314">
        <ele>258.0</ele>
      </trkpt>
      <trkpt lat="40.11969" lon="-0.05394">
        <ele>257.0</ele>
      </trkpt>
      <trkpt lat="40.12259" lon="-0.0554">
        <ele>251.0</ele>
      </trkpt>
      <trkpt lat="40.1239" lon="-0.05594">
        <ele>244.0</ele>
      </trkpt>
      <trkpt lat="40.13012" lon="-0.05801">
        <ele>236.0</ele>
      </trkpt>
      <trkpt lat="40.13611" lon="-0.05999">
        <ele>232.0</ele>
      </trkpt>
      <trkpt lat="40.13749" lon="-0.05986">
        <ele>231.0</ele>
      </trkpt>
      <trkpt lat="40.13937" lon="-0.06038">
        <ele>233.0</ele>
      </trkpt>
      <trkpt lat="40.14486" lon="-0.06216">
        <ele>243.0</ele>
      </trkpt>
      <trkpt lat="40.14817" lon="-0.06215">
        <ele>258.0</ele>
      </trkpt>
      <trkpt lat="40.15027" lon="-0.06204">
        <ele>269.0</ele>
      </trkpt>
      <trkpt lat="40.15237" lon="-0.06238">
        <ele>281.0</ele>
      </trkpt>
      <trkpt lat="40.15326" lon="-0.0622">
        <ele>289.0</ele>
      </trkpt>
      <trkpt lat="40.15372" lon="-0.06173">
        <ele>291.0</ele>
      </trkpt>
      <trkpt lat="40.15498" lon="-0.06082">
        <ele>290.0</ele>
      </trkpt>
      <trkpt lat="40.15797" lon="-0.06099">
        <ele>279.0</ele>
      </trkpt>
      <trkpt lat="40.15865" lon="-0.06127">
        <ele>270.0</ele>
      </trkpt>
      <trkpt lat="40.16047" lon="-0.0625">
        <ele>257.0</ele>
      </trkpt>
      <trkpt lat="40.16481" lon="-0.06378">
        <ele>247.0</ele>
      </trkpt>
      <trkpt lat="40.16487" lon="-0.06251">
        <ele>247.0</ele>
      </trkpt>
      <trkpt lat="40.1646" lon="-0.06151">
        <ele>248.0</ele>
      </trkpt>
      <trkpt lat="40.16499" lon="-0.06089">
        <ele>249.0</ele>
      </trkpt>
      <trkpt lat="40.1651" lon="-0.06">
        <ele>250.0</ele>
      </trkpt>
      <trkpt lat="40.16412" lon="-0.05352">
        <ele>251.0</ele>
      </trkpt>
      <trkpt lat="40.16403" lon="-0.05052">
        <ele>253.0</ele>
      </trkpt>
      <trkpt lat="40.16572" lon="-0.04705">
        <ele>254.0</ele>
      </trkpt>
      <trkpt lat="40.16588" lon="-0.04553">
        <ele>256.0</ele>
      </trkpt>
      <trkpt lat="40.16646" lon="-0.04391">
        <ele>259.0</ele>
      </trkpt>
      <trkpt lat="40.16645" lon="-0.04103">
        <ele>262.0</ele>
      </trkpt>
      <trkpt lat="40.16779" lon="-0.03754">
        <ele>266.0</ele>
      </trkpt>
      <trkpt lat="40.16793" lon="-0.03614">
        <ele>268.0</ele>
      </trkpt>
      <trkpt lat="40.16863" lon="-0.03435">
        <ele>270.0</ele>
      </trkpt>
      <trkpt lat="40.16915" lon="-0.03371">
        <ele>271.0</ele>
      </trkpt>
      <trkpt lat="40.16922" lon="-0.03279">
        <ele>270.0</ele>
      </trkpt>
      <trkpt lat="40.1687" lon="-0.02962">
        <ele>272.0</ele>
      </trkpt>
      <trkpt lat="40.16859" lon="-0.02803">
        <ele>275.0</ele>
      </trkpt>
      <trkpt lat="40.16865" lon="-0.02728">
        <ele>278.0</ele>
      </trkpt>
      <trkpt lat="40.16892" lon="-0.02699">
        <ele>279.0</ele>
      </trkpt>
      <trkpt lat="40.16907" lon="-0.02563">
        <ele>282.0</ele>
      </trkpt>
      <trkpt lat="40.16889" lon="-0.02478">
        <ele>283.0</ele>
      </trkpt>
      <trkpt lat="40.16861" lon="-0.02448">
        <ele>283.0</ele>
      </trkpt>
      <trkpt lat="40.16875" lon="-0.02383">
        <ele>283.0</ele>
      </trkpt>
      <trkpt lat="40.16711" lon="-0.01848">
        <ele>283.0</ele>
      </trkpt>
      <trkpt lat="40.16607" lon="-0.0133">
        <ele>281.0</ele>
      </trkpt>
      <trkpt lat="40.1661" lon="-0.01275">
        <ele>280.0</ele>
      </trkpt>
      <trkpt lat="40.16265" lon="-0.00567">
        <ele>273.0</ele>
      </trkpt>
      <trkpt lat="40.16258" lon="0.00481">
        <ele>270.0</ele>
      </trkpt>
      <trkpt lat="40.16227" lon="0.00665">
        <ele>269.0</ele>
      </trkpt>
      <trkpt lat="40.16207" lon="0.00706">
        <ele>268.0</ele>
      </trkpt>
      <trkpt lat="40.16224" lon="0.0075">
        <ele>268.0</ele>
      </trkpt>
      <trkpt lat="40.16107" lon="0.01209">
        <ele>266.0</ele>
      </trkpt>
      <trkpt lat="40.15807" lon="0.0158">
        <ele>261.0</ele>
      </trkpt>
      <trkpt lat="40.15609" lon="0.02049">
        <ele>257.0</ele>
      </trkpt>
      <trkpt lat="40.15585" lon="0.021">
        <ele>255.0</ele>
      </trkpt>
      <trkpt lat="40.15416" lon="0.02553">
        <ele>254.0</ele>
      </trkpt>
      <trkpt lat="40.15118" lon="0.03095">
        <ele>256.0</ele>
      </trkpt>
      <trkpt lat="40.14915" lon="0.03362">
        <ele>255.0</ele>
      </trkpt>
      <trkpt lat="40.14891" lon="0.03367">
        <ele>254.0</ele>
      </trkpt>
      <trkpt lat="40.14869" lon="0.03377">
        <ele>254.0</ele>
      </trkpt>
      <trkpt lat="40.14862" lon="0.03405">
        <ele>254.0</ele>
      </trkpt>
      <trkpt lat="40.14823" lon="0.03463">
        <ele>255.0</ele>
      </trkpt>
      <trkpt lat="40.14754" lon="0.03538">
        <ele>256.0</ele>
      </trkpt>
      <trkpt lat="40.14686" lon="0.03661">
        <ele>254.0</ele>
      </trkpt>
      <trkpt lat="40.14652" lon="0.03696">
        <ele>253.0</ele>
      </trkpt>
      <trkpt lat="40.14631" lon="0.037">
        <ele>253.0</ele>
      </trkpt>
      <trkpt lat="40.14607" lon="0.03694">
        <ele>253.0</ele>
      </trkpt>
      <trkpt lat="40.14586" lon="0.03715">
        <ele>253.0</ele>
      </trkpt>
      <trkpt lat="40.14582" lon="0.03738">
        <ele>253.0</ele>
      </trkpt>
      <trkpt lat="40.14565" lon="0.03755">
        <ele>254.0</ele>
      </trkpt>
      <trkpt lat="40.1454" lon="0.03753">
        <ele>254.0</ele>
      </trkpt>
      <trkpt lat="40.14495" lon="0.03755">
        <ele>254.0</ele>
      </trkpt>
      <trkpt lat="40.14271" lon="0.03786">
        <ele>257.0</ele>
      </trkpt>
      <trkpt lat="40.13961" lon="0.03846">
        <ele>258.0</ele>
      </trkpt>
      <trkpt lat="40.13494" lon="0.04009">
        <ele>255.0</ele>
      </trkpt>
      <trkpt lat="40.13388" lon="0.04075">
        <ele>254.0</ele>
      </trkpt>
      <trkpt lat="40.13233" lon="0.04214">
        <ele>254.0</ele>
      </trkpt>
      <trkpt lat="40.1307" lon="0.04315">
        <ele>254.0</ele>
      </trkpt>
      <trkpt lat="40.12846" lon="0.04439">
        <ele>253.0</ele>
      </trkpt>
      <trkpt lat="40.12726" lon="0.04463">
        <ele>251.0</ele>
      </trkpt>
      <trkpt lat="40.12448" lon="0.04432">
        <ele>256.0</ele>
      </trkpt>
      <trkpt lat="40.12421" lon="0.04421">
        <ele>257.0</ele>
      </trkpt>
      <trkpt lat="40.12385" lon="0.04456">
        <ele>258.0</ele>
      </trkpt>
      <trkpt lat="40.12273" lon="0.04507">
        <ele>257.0</ele>
      </trkpt>
      <trkpt lat="40.1217" lon="0.04529">
        <ele>254.0</ele>
      </trkpt>
      <trkpt lat="40.12082" lon="0.04612">
        <ele>246.0</ele>
      </trkpt>
      <trkpt lat="40.11871" lon="0.04736">
        <ele>225.0</ele>
      </trkpt>
      <trkpt lat="40.11678" lon="0.04771">
        <ele>208.0</ele>
      </trkpt>
      <trkpt lat="40.11438" lon="0.04909">
        <ele>193.0</ele>
      </trkpt>
      <trkpt lat="40.11416" lon="0.05003">
        <ele>186.0</ele>
      </trkpt>
      <trkpt lat="40.11344" lon="0.05111">
        <ele>182.0</ele>
      </trkpt>
      <trkpt lat="40.11331" lon="0.05206">
        <ele>180.0</ele>
      </trkpt>
      <trkpt lat="40.11357" lon="0.05355">
        <ele>178.0</ele>
      </trkpt>
      <trkpt lat="40.11433" lon="0.05543">
        <ele>174.0</ele>
      </trkpt>
      <trkpt lat="40.11471" lon="0.05743">
        <ele>168.0</ele>
      </trkpt>
      <trkpt lat="40.11446" lon="0.05834">
        <ele>164.0</ele>
      </trkpt>
      <trkpt lat="40.11385" lon="0.05868">
        <ele>161.0</ele>
      </trkpt>
      <trkpt lat="40.113" lon="0.05882">
        <ele>158.0</ele>
      </trkpt>
      <trkpt lat="40.11212" lon="0.05953">
        <ele>155.0</ele>
      </trkpt>
      <trkpt lat="40.11162" lon="0.06044">
        <ele>153.0</ele>
      </trkpt>
      <trkpt lat="40.11095" lon="0.06192">
        <ele>148.0</ele>
      </trkpt>
      <trkpt lat="40.10967" lon="0.06388">
        <ele>144.0</ele>
      </trkpt>
      <trkpt lat="40.10883" lon="0.0638">
        <ele>144.0</ele>
      </trkpt>
      <trkpt lat="40.1081" lon="0.06423">
        <ele>148.0</ele>
      </trkpt>
      <trkpt lat="40.10741" lon="0.06463">
        <ele>151.0</ele>
      </trkpt>
      <trkpt lat="40.10624" lon="0.06413">
        <ele>156.0</ele>
      </trkpt>
      <trkpt lat="40.106" lon="0.0643">
        <ele>158.0</ele>
      </trkpt>
      <trkpt lat="40.10394" lon="0.06485">
        <ele>159.0</ele>
      </trkpt>
      <trkpt lat="40.1025" lon="0.06457">
        <ele>158.0</ele>
      </trkpt>
      <trkpt lat="40.10055" lon="0.06469">
        <ele>160.0</ele>
      </trkpt>
      <trkpt lat="40.09992" lon="0.06414">
        <ele>161.0</ele>
      </trkpt>
      <trkpt lat="40.09889" lon="0.06369">
        <ele>160.0</ele>
      </trkpt>
      <trkpt lat="40.09848" lon="0.06344">
        <ele>159.0</ele>
      </trkpt>
      <trkpt lat="40.09709" lon="0.06307">
        <ele>161.0</ele>
      </trkpt>
      <trkpt lat="40.09651" lon="0.06262">
        <ele>164.0</ele>
      </trkpt>
      <trkpt lat="40.09577" lon="0.06236">
        <ele>167.0</ele>
      </trkpt>
      <trkpt lat="40.09315" lon="0.06187">
        <ele>174.0</ele>
      </trkpt>
      <trkpt lat="40.09273" lon="0.06145">
        <ele>177.0</ele>
      </trkpt>
      <trkpt lat="40.09168" lon="0.0606">
        <ele>180.0</ele>
      </trkpt>
      <trkpt lat="40.09076" lon="0.05968">
        <ele>184.0</ele>
      </trkpt>
      <trkpt lat="40.09002" lon="0.05899">
        <ele>190.0</ele>
      </trkpt>
      <trkpt lat="40.08959" lon="0.05829">
        <ele>198.0</ele>
      </trkpt>
      <trkpt lat="40.08865" lon="0.05698">
        <ele>213.0</ele>
      </trkpt>
      <trkpt lat="40.08814" lon="0.05582">
        <ele>223.0</ele>
      </trkpt>
      <trkpt lat="40.08772" lon="0.05581">
        <ele>228.0</ele>
      </trkpt>
      <trkpt lat="40.08753" lon="0.05518">
        <ele>233.0</ele>
      </trkpt>
      <trkpt lat="40.08719" lon="0.05454">
        <ele>241.0</ele>
      </trkpt>
      <trkpt lat="40.08589" lon="0.05441">
        <ele>255.0</ele>
      </trkpt>
      <trkpt lat="40.08545" lon="0.05434">
        <ele>262.0</ele>
      </trkpt>
      <trkpt lat="40.08477" lon="0.05425">
        <ele>268.0</ele>
      </trkpt>
      <trkpt lat="40.08431" lon="0.0539">
        <ele>273.0</ele>
      </trkpt>
      <trkpt lat="40.08408" lon="0.05352">
        <ele>278.0</ele>
      </trkpt>
      <trkpt lat="40.08337" lon="0.05284">
        <ele>283.0</ele>
      </trkpt>
      <trkpt lat="40.08249" lon="0.05301">
        <ele>290.0</ele>
      </trkpt>
      <trkpt lat="40.0817" lon="0.05266">
        <ele>295.0</ele>
      </trkpt>
      <trkpt lat="40.08124" lon="0.05248">
        <ele>298.0</ele>
      </trkpt>
      <trkpt lat="40.07924" lon="0.05181">
        <ele>308.0</ele>
      </trkpt>
      <trkpt lat="40.07862" lon="0.05063">
        <ele>315.0</ele>
      </trkpt>
      <trkpt lat="40.07576" lon="0.04537">
        <ele>329.0</ele>
      </trkpt>
      <trkpt lat="40.07431" lon="0.04496">
        <ele>329.0</ele>
      </trkpt>
      <trkpt lat="40.07327" lon="0.0443">
        <ele>322.0</ele>
      </trkpt>
      <trkpt lat="40.07231" lon="0.0443">
        <ele>314.0</ele>
      </trkpt>
      <trkpt lat="40.07161" lon="0.04473">
        <ele>303.0</ele>
      </trkpt>
      <trkpt lat="40.0714" lon="0.04453">
        <ele>298.0</ele>
      </trkpt>
      <trkpt lat="40.07159" lon="0.04419">
        <ele>297.0</ele>
      </trkpt>
      <trkpt lat="40.07265" lon="0.04391">
        <ele>296.0</ele>
      </trkpt>
      <trkpt lat="40.07341" lon="0.04337">
        <ele>292.0</ele>
      </trkpt>
      <trkpt lat="40.07366" lon="0.04346">
        <ele>290.0</ele>
      </trkpt>
      <trkpt lat="40.07411" lon="0.04363">
        <ele>288.0</ele>
      </trkpt>
      <trkpt lat="40.07447" lon="0.04303">
        <ele>285.0</ele>
      </trkpt>
      <trkpt lat="40.07553" lon="0.04291">
        <ele>278.0</ele>
      </trkpt>
      <trkpt lat="40.07568" lon="0.04242">
        <ele>272.0</ele>
      </trkpt>
      <trkpt lat="40.07386" lon="0.04239">
        <ele>267.0</ele>
      </trkpt>
      <trkpt lat="40.07345" lon="0.04192">
        <ele>263.0</ele>
      </trkpt>
      <trkpt lat="40.07287" lon="0.04185">
        <ele>257.0</ele>
      </trkpt>
      <trkpt lat="40.07225" lon="0.04153">
        <ele>249.0</ele>
      </trkpt>
      <trkpt lat="40.07183" lon="0.0415">
        <ele>242.0</ele>
      </trkpt>
      <trkpt lat="40.0719" lon="0.04209">
        <ele>239.0</ele>
      </trkpt>
      <trkpt lat="40.07178" lon="0.04262">
        <ele>236.0</ele>
      </trkpt>
      <trkpt lat="40.07139" lon="0.04254">
        <ele>234.0</ele>
      </trkpt>
      <trkpt lat="40.07131" lon="0.04195">
        <ele>232.0</ele>
      </trkpt>
      <trkpt lat="40.0713" lon="0.04124">
        <ele>231.0</ele>
      </trkpt>
      <trkpt lat="40.07248" lon="0.04106">
        <ele>231.0</ele>
      </trkpt>
      <trkpt lat="40.07278" lon="0.04079">
        <ele>227.0</ele>
      </trkpt>
      <trkpt lat="40.07258" lon="0.04047">
        <ele>223.0</ele>
      </trkpt>
      <trkpt lat="40.07207" lon="0.04068">
        <ele>216.0</ele>
      </trkpt>
      <trkpt lat="40.07191" lon="0.04037">
        <ele>211.0</ele>
      </trkpt>
      <trkpt lat="40.07215" lon="0.04017">
        <ele>207.0</ele>
      </trkpt>
      <trkpt lat="40.07259" lon="0.04007">
        <ele>203.0</ele>
      </trkpt>
      <trkpt lat="40.07252" lon="0.03966">
        <ele>201.0</ele>
      </trkpt>
      <trkpt lat="40.07174" lon="0.03993">
        <ele>197.0</ele>
      </trkpt>
      <trkpt lat="40.07117" lon="0.04043">
        <ele>191.0</ele>
      </trkpt>
      <trkpt lat="40.07034" lon="0.04035">
        <ele>184.0</ele>
      </trkpt>
      <trkpt lat="40.06939" lon="0.04048">
        <ele>175.0</ele>
      </trkpt>
      <trkpt lat="40.0685" lon="0.04029">
        <ele>165.0</ele>
      </trkpt>
      <trkpt lat="40.06675" lon="0.04076">
        <ele>147.0</ele>
      </trkpt>
      <trkpt lat="40.06622" lon="0.04124">
        <ele>139.0</ele>
      </trkpt>
      <trkpt lat="40.06529" lon="0.04152">
        <ele>133.0</ele>
      </trkpt>
      <trkpt lat="40.06411" lon="0.04214">
        <ele>124.0</ele>
      </trkpt>
      <trkpt lat="40.06296" lon="0.04298">
        <ele>115.0</ele>
      </trkpt>
      <trkpt lat="40.06249" lon="0.04396">
        <ele>108.0</ele>
      </trkpt>
      <trkpt lat="40.06184" lon="0.04442">
        <ele>103.0</ele>
      </trkpt>
      <trkpt lat="40.06025" lon="0.04521">
        <ele>93.0</ele>
      </trkpt>
      <trkpt lat="40.05884" lon="0.04606">
        <ele>86.0</ele>
      </trkpt>
      <trkpt lat="40.05755" lon="0.04538">
        <ele>81.0</ele>
      </trkpt>
      <trkpt lat="40.05663" lon="0.04523">
        <ele>76.0</ele>
      </trkpt>
      <trkpt lat="40.05555" lon="0.04583">
        <ele>71.0</ele>
      </trkpt>
      <trkpt lat="40.05481" lon="0.04737">
        <ele>63.0</ele>
      </trkpt>
      <trkpt lat="40.05471" lon="0.0494">
        <ele>55.0</ele>
      </trkpt>
      <trkpt lat="40.05457" lon="0.05078">
        <ele>47.0</ele>
      </trkpt>
      <trkpt lat="40.0546" lon="0.05112">
        <ele>44.0</ele>
      </trkpt>
      <trkpt lat="40.05452" lon="0.05384">
        <ele>37.0</ele>
      </trkpt>
      <trkpt lat="40.05441" lon="0.05688">
        <ele>33.0</ele>
      </trkpt>
      <trkpt lat="40.05434" lon="0.05786">
        <ele>31.0</ele>
      </trkpt>
      <trkpt lat="40.05394" lon="0.05875">
        <ele>30.0</ele>
      </trkpt>
      <trkpt lat="40.05301" lon="0.05983">
        <ele>30.0</ele>
      </trkpt>
      <trkpt lat="40.05324" lon="0.06056">
        <ele>28.0</ele>
      </trkpt>
      <trkpt lat="40.0537" lon="0.06134">
        <ele>25.0</ele>
      </trkpt>
      <trkpt lat="40.05418" lon="0.06217">
        <ele>23.0</ele>
      </trkpt>
      <trkpt lat="40.05452" lon="0.06276">
        <ele>22.0</ele>
      </trkpt>
      <trkpt lat="40.05532" lon="0.06415">
        <ele>20.0</ele>
      </trkpt>
      <trkpt lat="40.05546" lon="0.06442">
        <ele>19.0</ele>
      </trkpt>
      <trkpt lat="40.05587" lon="0.06512">
        <ele>18.0</ele>
      </trkpt>
      <trkpt lat="40.05628" lon="0.06567">
        <ele>18.0</ele>
      </trkpt>
      <trkpt lat="40.05637" lon="0.06651">
        <ele>18.0</ele>
      </trkpt>
      <trkpt lat="40.05633" lon="0.06739">
        <ele>16.0</ele>
      </trkpt>
      <trkpt lat="40.05621" lon="0.06767">
        <ele>15.0</ele>
      </trkpt>
      <trkpt lat="40.05639" lon="0.06798">
        <ele>13.0</ele>
      </trkpt>
      <trkpt lat="40.05651" lon="0.06848">
        <ele>12.0</ele>
      </trkpt>
      <trkpt lat="40.05658" lon="0.06946">
        <ele>10.0</ele>
      </trkpt>
      <trkpt lat="40.05664" lon="0.07027">
        <ele>10.0</ele>
      </trkpt>
      <trkpt lat="40.05672" lon="0.07131">
        <ele>9.0</ele>
      </trkpt>
      <trkpt lat="40.05683" lon="0.07287">
        <ele>9.0</ele>
      </trkpt>
      <trkpt lat="40.05694" lon="0.07448">
        <ele>9.0</ele>
      </trkpt>
      <trkpt lat="40.05691" lon="0.07482">
        <ele>9.0</ele>
      </trkpt>
      <trkpt lat="40.05665" lon="0.07512">
        <ele>9.0</ele>
      </trkpt>
      <trkpt lat="40.0569" lon="0.07564">
        <ele>8.0</ele>
      </trkpt>
      <trkpt lat="40.05707" lon="0.07635">
        <ele>8.0</ele>
      </trkpt>
      <trkpt lat="40.05717" lon="0.07785">
        <ele>11.0</ele>
      </trkpt>
      <trkpt lat="40.05727" lon="0.07934">
        <ele>13.0</ele>
      </trkpt>
      <trkpt lat="40.0574" lon="0.08116">
        <ele>9.0</ele>
      </trkpt>
      <trkpt lat="40.05775" lon="0.08483">
        <ele>8.0</ele>
      </trkpt>
      <trkpt lat="40.05703" lon="0.08692">
        <ele>7.0</ele>
      </trkpt>
      <trkpt lat="40.05621" lon="0.08917">
        <ele>11.0</ele>
      </trkpt>
      <trkpt lat="40.05618" lon="0.09045">
        <ele>17.0</ele>
      </trkpt>
      <trkpt lat="40.05682" lon="0.09076">
        <ele>20.0</ele>
      </trkpt>
      <trkpt lat="40.05713" lon="0.09117">
        <ele>23.0</ele>
      </trkpt>
      <trkpt lat="40.05717" lon="0.09219">
        <ele>22.0</ele>
      </trkpt>
      <trkpt lat="40.05788" lon="0.09278">
        <ele>21.0</ele>
      </trkpt>
      <trkpt lat="40.05834" lon="0.09333">
        <ele>19.0</ele>
      </trkpt>
      <trkpt lat="40.05844" lon="0.09454">
        <ele>16.0</ele>
      </trkpt>
      <trkpt lat="40.05846" lon="0.09492">
        <ele>14.0</ele>
      </trkpt>
      <trkpt lat="40.0586" lon="0.09644">
        <ele>15.0</ele>
      </trkpt>
      <trkpt lat="40.05927" lon="0.09717">
        <ele>15.0</ele>
      </trkpt>
      <trkpt lat="40.06021" lon="0.09742">
        <ele>16.0</ele>
      </trkpt>
      <trkpt lat="40.06166" lon="0.09804">
        <ele>18.0</ele>
      </trkpt>
      <trkpt lat="40.06212" lon="0.09874">
        <ele>24.0</ele>
      </trkpt>
      <trkpt lat="40.06156" lon="0.09931">
        <ele>28.0</ele>
      </trkpt>
      <trkpt lat="40.06022" lon="0.09993">
        <ele>28.0</ele>
      </trkpt>
      <trkpt lat="40.0591" lon="0.1006">
        <ele>26.0</ele>
      </trkpt>
      <trkpt lat="40.05885" lon="0.10118">
        <ele>25.0</ele>
      </trkpt>
      <trkpt lat="40.05897" lon="0.10231">
        <ele>25.0</ele>
      </trkpt>
      <trkpt lat="40.05977" lon="0.10347">
        <ele>27.0</ele>
      </trkpt>
      <trkpt lat="40.06007" lon="0.10393">
        <ele>30.0</ele>
      </trkpt>
      <trkpt lat="40.06063" lon="0.10367">
        <ele>32.0</ele>
      </trkpt>
      <trkpt lat="40.06083" lon="0.10393">
        <ele>34.0</ele>
      </trkpt>
      <trkpt lat="40.06061" lon="0.10467">
        <ele>36.0</ele>
      </trkpt>
      <trkpt lat="40.06098" lon="0.10521">
        <ele>39.0</ele>
      </trkpt>
      <trkpt lat="40.06106" lon="0.10567">
        <ele>43.0</ele>
      </trkpt>
      <trkpt lat="40.06077" lon="0.10591">
        <ele>45.0</ele>
      </trkpt>
      <trkpt lat="40.06066" lon="0.10636">
        <ele>48.0</ele>
      </trkpt>
      <trkpt lat="40.06027" lon="0.10669">
        <ele>51.0</ele>
      </trkpt>
      <trkpt lat="40.05983" lon="0.1073">
        <ele>54.0</ele>
      </trkpt>
      <trkpt lat="40.05948" lon="0.10727">
        <ele>55.0</ele>
      </trkpt>
      <trkpt lat="40.05928" lon="0.10765">
        <ele>57.0</ele>
      </trkpt>
      <trkpt lat="40.05959" lon="0.10799">
        <ele>57.0</ele>
      </trkpt>
      <trkpt lat="40.0603" lon="0.10973">
        <ele>43.0</ele>
      </trkpt>
      <trkpt lat="40.06087" lon="0.1103">
        <ele>37.0</ele>
      </trkpt>
      <trkpt lat="40.06125" lon="0.10998">
        <ele>34.0</ele>
      </trkpt>
      <trkpt lat="40.06152" lon="0.11047">
        <ele>31.0</ele>
      </trkpt>
      <trkpt lat="40.06211" lon="0.1112">
        <ele>28.0</ele>
      </trkpt>
      <trkpt lat="40.0611" lon="0.11096">
        <ele>22.0</ele>
      </trkpt>
      <trkpt lat="40.06105" lon="0.11167">
        <ele>19.0</ele>
      </trkpt>
      <trkpt lat="40.06224" lon="0.11384">
        <ele>15.0</ele>
      </trkpt>
      <trkpt lat="40.06347" lon="0.11699">
        <ele>13.0</ele>
      </trkpt>
      <trkpt lat="40.06439" lon="0.11784">
        <ele>13.0</ele>
      </trkpt>
      <trkpt lat="40.06537" lon="0.11787">
        <ele>17.0</ele>
      </trkpt>
      <trkpt lat="40.06606" lon="0.1175">
        <ele>22.0</ele>
      </trkpt>
      <trkpt lat="40.06762" lon="0.11761">
        <ele>26.0</ele>
      </trkpt>
      <trkpt lat="40.06918" lon="0.11893">
        <ele>33.0</ele>
      </trkpt>
      <trkpt lat="40.06886" lon="0.12009">
        <ele>42.0</ele>
      </trkpt>
      <trkpt lat="40.06871" lon="0.12102">
        <ele>50.0</ele>
      </trkpt>
      <trkpt lat="40.06832" lon="0.12007">
        <ele>56.0</ele>
      </trkpt>
      <trkpt lat="40.06794" lon="0.11939">
        <ele>58.0</ele>
      </trkpt>
      <trkpt lat="40.06746" lon="0.11905">
        <ele>58.0</ele>
      </trkpt>
      <trkpt lat="40.06705" lon="0.11932">
        <ele>57.0</ele>
      </trkpt>
      <trkpt lat="40.06616" lon="0.11994">
        <ele>52.0</ele>
      </trkpt>
      <trkpt lat="40.06601" lon="0.12144">
        <ele>43.0</ele>
      </trkpt>
      <trkpt lat="40.06638" lon="0.12258">
        <ele>39.0</ele>
      </trkpt>
      <trkpt lat="40.06675" lon="0.12344">
        <ele>37.0</ele>
      </trkpt>
      <trkpt lat="40.06797" lon="0.12399">
        <ele>48.0</ele>
      </trkpt>
      <trkpt lat="40.06835" lon="0.12411">
        <ele>55.0</ele>
      </trkpt>
      <trkpt lat="40.06824" lon="0.12492">
        <ele>60.0</ele>
      </trkpt>
      <trkpt lat="40.06862" lon="0.12542">
        <ele>65.0</ele>
      </trkpt>
      <trkpt lat="40.06938" lon="0.12553">
        <ele>70.0</ele>
      </trkpt>
      <trkpt lat="40.07011" lon="0.12508">
        <ele>76.0</ele>
      </trkpt>
      <trkpt lat="40.07104" lon="0.12462">
        <ele>83.0</ele>
      </trkpt>
      <trkpt lat="40.07201" lon="0.12471">
        <ele>87.0</ele>
      </trkpt>
      <trkpt lat="40.07254" lon="0.12532">
        <ele>88.0</ele>
      </trkpt>
      <trkpt lat="40.07293" lon="0.12577">
        <ele>90.0</ele>
      </trkpt>
      <trkpt lat="40.07357" lon="0.12645">
        <ele>93.0</ele>
      </trkpt>
      <trkpt lat="40.07338" lon="0.12703">
        <ele>95.0</ele>
      </trkpt>
      <trkpt lat="40.07365" lon="0.12823">
        <ele>100.0</ele>
      </trkpt>
      <trkpt lat="40.07348" lon="0.1289">
        <ele>107.0</ele>
      </trkpt>
      <trkpt lat="40.07393" lon="0.12963">
        <ele>113.0</ele>
      </trkpt>
      <trkpt lat="40.07453" lon="0.12959">
        <ele>112.0</ele>
      </trkpt>
      <trkpt lat="40.07517" lon="0.12945">
        <ele>108.0</ele>
      </trkpt>
      <trkpt lat="40.07535" lon="0.12876">
        <ele>104.0</ele>
      </trkpt>
      <trkpt lat="40.07532" lon="0.12794">
        <ele>98.0</ele>
      </trkpt>
      <trkpt lat="40.0758" lon="0.12757">
        <ele>92.0</ele>
      </trkpt>
      <trkpt lat="40.07614" lon="0.12733">
        <ele>87.0</ele>
      </trkpt>
      <trkpt lat="40.07666" lon="0.12759">
        <ele>84.0</ele>
      </trkpt>
      <trkpt lat="40.07722" lon="0.12764">
        <ele>82.0</ele>
      </trkpt>
      <trkpt lat="40.07772" lon="0.12786">
        <ele>80.0</ele>
      </trkpt>
      <trkpt lat="40.0786" lon="0.12865">
        <ele>72.0</ele>
      </trkpt>
      <trkpt lat="40.07887" lon="0.1294">
        <ele>61.0</ele>
      </trkpt>
      <trkpt lat="40.07894" lon="0.13043">
        <ele>52.0</ele>
      </trkpt>
      <trkpt lat="40.07912" lon="0.1314">
        <ele>44.0</ele>
      </trkpt>
      <trkpt lat="40.07891" lon="0.13219">
        <ele>37.0</ele>
      </trkpt>
      <trkpt lat="40.07856" lon="0.1327">
        <ele>28.0</ele>
      </trkpt>
      <trkpt lat="40.07784" lon="0.13247">
        <ele>18.0</ele>
      </trkpt>
      <trkpt lat="40.07758" lon="0.13283">
        <ele>11.0</ele>
      </trkpt>
      <trkpt lat="40.07818" lon="0.13382">
        <ele>8.0</ele>
      </trkpt>
      <trkpt lat="40.07925" lon="0.1345">
        <ele>11.0</ele>
      </trkpt>
      <trkpt lat="40.08014" lon="0.13511">
        <ele>12.0</ele>
      </trkpt>
      <trkpt lat="40.08029" lon="0.13573">
        <ele>13.0</ele>
      </trkpt>
      <trkpt lat="40.0808" lon="0.136">
        <ele>13.0</ele>
      </trkpt>
      <trkpt lat="40.08147" lon="0.13663">
        <ele>13.0</ele>
      </trkpt>
      <trkpt lat="40.08227" lon="0.13759">
        <ele>11.0</ele>
      </trkpt>
      <trkpt lat="40.08326" lon="0.13896">
        <ele>7.0</ele>
      </trkpt>
      <trkpt lat="40.08397" lon="0.1403">
        <ele>4.0</ele>
      </trkpt>
      <trkpt lat="40.08418" lon="0.14124">
        <ele>3.0</ele>
      </trkpt>
      <trkpt lat="40.08413" lon="0.14223">
        <ele>4.0</ele>
      </trkpt>
      <trkpt lat="40.08318" lon="0.14289">
        <ele>10.0</ele>
      </trkpt>
      <trkpt lat="40.08245" lon="0.14293">
        <ele>13.0</ele>
      </trkpt>
      <trkpt lat="40.08156" lon="0.14361">
        <ele>11.0</ele>
      </trkpt>
      <trkpt lat="40.08156" lon="0.1442">
        <ele>10.0</ele>
      </trkpt>
      <trkpt lat="40.08239" lon="0.14536">
        <ele>15.0</ele>
      </trkpt>
      <trkpt lat="40.08286" lon="0.14633">
        <ele>17.0</ele>
      </trkpt>
      <trkpt lat="40.08318" lon="0.14638">
        <ele>16.0</ele>
      </trkpt>
      <trkpt lat="40.08361" lon="0.14696">
        <ele>15.0</ele>
      </trkpt>
      <trkpt lat="40.08458" lon="0.14664">
        <ele>13.0</ele>
      </trkpt>
      <trkpt lat="40.08543" lon="0.14705">
        <ele>14.0</ele>
      </trkpt>
      <trkpt lat="40.08576" lon="0.14646">
        <ele>16.0</ele>
      </trkpt>
      <trkpt lat="40.08617" lon="0.14555">
        <ele>16.0</ele>
      </trkpt>
      <trkpt lat="40.08691" lon="0.1441">
        <ele>9.0</ele>
      </trkpt>
      <trkpt lat="40.08737" lon="0.14266">
        <ele>3.0</ele>
      </trkpt>
      <trkpt lat="40.08743" lon="0.14248">
        <ele>1.0</ele>
      </trkpt>
      <trkpt lat="40.08797" lon="0.1428">
      </trkpt>
      <trkpt lat="40.08882" lon="0.14305">
      </trkpt>
      <trkpt lat="40.08966" lon="0.14329">
        <ele>1.0</ele>
      </trkpt>
      <trkpt lat="40.09067" lon="0.14358">
        <ele>2.0</ele>
      </trkpt>
      <trkpt lat="40.09161" lon="0.14385">
        <ele>2.0</ele>
      </trkpt>
      <trkpt lat="40.09322" lon="0.14431">
        <ele>3.0</ele>
      </trkpt>
      <trkpt lat="40.09411" lon="0.14457">
        <ele>3.0</ele>
      </trkpt>
      <trkpt lat="40.0947" lon="0.14488">
        <ele>3.0</ele>
      </trkpt>
      <trkpt lat="40.09504" lon="0.14498">
        <ele>2.0</ele>
      </trkpt>
      <trkpt lat="40.09489" lon="0.14448">
        <ele>2.0</ele>
      </trkpt>
      <trkpt lat="40.09462" lon="0.14308">
        <ele>2.0</ele>
      </trkpt>
      <trkpt lat="40.09442" lon="0.14098">
      </trkpt>
      <trkpt lat="40.09424" lon="0.13839">
        <ele>3.0</ele>
      </trkpt>
      <trkpt lat="40.09443" lon="0.13657">
        <ele>6.0</ele>
      </trkpt>
      <trkpt lat="40.09454" lon="0.1361">
        <ele>8.0</ele>
      </trkpt>
      <trkpt lat="40.09457" lon="0.13596">
        <ele>8.0</ele>
      </trkpt>
      <trkpt lat="40.09448" lon="0.13584">
        <ele>8.0</ele>
      </trkpt>
      <trkpt lat="40.0946" lon="0.13505">
        <ele>8.0</ele>
      </trkpt>
      <trkpt lat="40.09512" lon="0.13328">
        <ele>8.0</ele>
      </trkpt>
      <trkpt lat="40.09697" lon="0.13379">
        <ele>6.0</ele>
      </trkpt>
      <trkpt lat="40.09835" lon="0.13421">
        <ele>5.0</ele>
      </trkpt>
      <trkpt lat="40.09909" lon="0.1344">
        <ele>5.0</ele>
      </trkpt>
      <trkpt lat="40.10306" lon="0.13568">
        <ele>5.0</ele>
      </trkpt>
      <trkpt lat="40.10588" lon="0.13672">
        <ele>7.0</ele>
      </trkpt>
      <trkpt lat="40.11375" lon="0.13987">
        <ele>10.0</ele>
      </trkpt>
      <trkpt lat="40.11583" lon="0.14072">
        <ele>12.0</ele>
      </trkpt>
      <trkpt lat="40.12119" lon="0.14299">
        <ele>15.0</ele>
      </trkpt>
      <trkpt lat="40.12696" lon="0.14558">
        <ele>15.0</ele>
      </trkpt>
      <trkpt lat="40.13327" lon="0.14862">
        <ele>12.0</ele>
      </trkpt>
      <trkpt lat="40.13549" lon="0.14973">
        <ele>11.0</ele>
      </trkpt>
      <trkpt lat="40.13841" lon="0.15122">
        <ele>10.0</ele>
      </trkpt>
      <trkpt lat="40.13985" lon="0.1519">
        <ele>9.0</ele>
      </trkpt>
      <trkpt lat="40.1415" lon="0.1527">
        <ele>7.0</ele>
      </trkpt>
      <trkpt lat="40.14869" lon="0.15619">
        <ele>5.0</ele>
      </trkpt>
      <trkpt lat="40.15141" lon="0.15757">
        <ele>5.0</ele>
      </trkpt>
      <trkpt lat="40.15378" lon="0.15897">
        <ele>9.0</ele>
      </trkpt>
      <trkpt lat="40.15513" lon="0.1598">
        <ele>11.0</ele>
      </trkpt>
      <trkpt lat="40.1572" lon="0.16108">
        <ele>12.0</ele>
      </trkpt>
      <trkpt lat="40.16037" lon="0.16273">
        <ele>11.0</ele>
      </trkpt>
      <trkpt lat="40.162" lon="0.16347">
        <ele>12.0</ele>
      </trkpt>
      <trkpt lat="40.16457" lon="0.1646">
        <ele>14.0</ele>
      </trkpt>
      <trkpt lat="40.17213" lon="0.16703">
        <ele>11.0</ele>
      </trkpt>
      <trkpt lat="40.17786" lon="0.16887">
        <ele>9.0</ele>
      </trkpt>
      <trkpt lat="40.18148" lon="0.16988">
        <ele>7.0</ele>
      </trkpt>
      <trkpt lat="40.19173" lon="0.1743">
        <ele>16.0</ele>
      </trkpt>
      <trkpt lat="40.19514" lon="0.17572">
        <ele>25.0</ele>
      </trkpt>
      <trkpt lat="40.20567" lon="0.18009">
        <ele>27.0</ele>
      </trkpt>
      <trkpt lat="40.21134" lon="0.18274">
        <ele>35.0</ele>
      </trkpt>
      <trkpt lat="40.21237" lon="0.18343">
        <ele>36.0</ele>
      </trkpt>
      <trkpt lat="40.21317" lon="0.1843">
        <ele>36.0</ele>
      </trkpt>
      <trkpt lat="40.21448" lon="0.18601">
        <ele>36.0</ele>
      </trkpt>
      <trkpt lat="40.21561" lon="0.18764">
        <ele>35.0</ele>
      </trkpt>
      <trkpt lat="40.21622" lon="0.18846">
        <ele>34.0</ele>
      </trkpt>
      <trkpt lat="40.21736" lon="0.19007">
        <ele>34.0</ele>
      </trkpt>
      <trkpt lat="40.21812" lon="0.19119">
        <ele>35.0</ele>
      </trkpt>
      <trkpt lat="40.21925" lon="0.19289">
        <ele>35.0</ele>
      </trkpt>
      <trkpt lat="40.22003" lon="0.19406">
        <ele>35.0</ele>
      </trkpt>
      <trkpt lat="40.22059" lon="0.1952">
        <ele>36.0</ele>
      </trkpt>
      <trkpt lat="40.22028" lon="0.19559">
        <ele>35.0</ele>
      </trkpt>
      <trkpt lat="40.2197" lon="0.19583">
        <ele>34.0</ele>
      </trkpt>
      <trkpt lat="40.21917" lon="0.19629">
        <ele>33.0</ele>
      </trkpt>
      <trkpt lat="40.21852" lon="0.19673">
        <ele>30.0</ele>
      </trkpt>
      <trkpt lat="40.21757" lon="0.19774">
        <ele>26.0</ele>
      </trkpt>
      <trkpt lat="40.2171" lon="0.19826">
        <ele>23.0</ele>
      </trkpt>
      <trkpt lat="40.21583" lon="0.19977">
        <ele>20.0</ele>
      </trkpt>
      <trkpt lat="40.21417" lon="0.20182">
        <ele>15.0</ele>
      </trkpt>
      <trkpt lat="40.21037" lon="0.20646">
        <ele>13.0</ele>
      </trkpt>
      <trkpt lat="40.20914" lon="0.2082">
        <ele>10.0</ele>
      </trkpt>
      <trkpt lat="40.20905" lon="0.20846">
        <ele>9.0</ele>
      </trkpt>
      <trkpt lat="40.20883" lon="0.20848">
        <ele>9.0</ele>
      </trkpt>
      <trkpt lat="40.20497" lon="0.21311">
        <ele>6.0</ele>
      </trkpt>
      <trkpt lat="40.1979" lon="0.22143">
        <ele>1.0</ele>
      </trkpt>
      <trkpt lat="40.19603" lon="0.2236">
        <ele>1.0</ele>
      </trkpt>
    </trkseg>
  </trk>
</gpx>