<?xml version="1.0" encoding="UTF-8"?>
<gpx xmlns="http://www.topografix.com/GPX/1/0" xmlns:xsi="http://www.w3.org/2001/XMLSchema-instance" xsi:schemaLocation="http://www.topografix.com/GPX/1/0 http://www.topografix.com/GPX/1/0/gpx.xsd" version="1.0" creator="GPSBabel - https://www.gpsbabel.org">
  <time>2025-11-11T13:21:12.403000Z</time>
  <bounds minlat="-34.932091" maxlat="-34.927876" minlon="138.603663" maxlon="138.623348" />
  <trk>
    <trkseg>
      <trkpt lat="-34.928518" lon="138.603663">
        <ele>56.0</ele>
      </trkpt>
      <trkpt lat="-34.927876" lon="138.615224">
        <ele>52.0</ele>
      </trkpt>
      <trkpt lat="-34.929352" lon="138.615298">
        <ele>57.0</ele>
      </trkpt>
      <trkpt lat="-34.929304" lon="138.616732">
        <ele>55.0</ele>
      </trkpt>
      <trkpt lat="-34.932075" lon="138.616895">
        <ele>58.0</ele>
      </trkpt>
      <trkpt lat="-34.931986" lon="138.621942">
        <ele>55.0</ele>
      </trkpt>
      <trkpt lat="-34.928547" lon="138.61882">
        <ele>52.0</ele>
      </trkpt>
      <trkpt lat="-34.928252" lon="138.618804">
        <ele>53.0</ele>
      </trkpt>
      <trkpt lat="-34.928146" lon="138.618922">
        <ele>53.0</ele>
      </trkpt>
      <trkpt lat="-34.928076" lon="138.619502">
        <ele>54.0</ele>
      </trkpt>
      <trkpt lat="-34.928152" lon="138.620098">
        <ele>55.0</ele>
      </trkpt>
      <trkpt lat="-34.929162" lon="138.620532">
        <ele>51.0</ele>
      </trkpt>
      <trkpt lat="-34.930512" lon="138.622125">
        <ele>54.0</ele>
      </trkpt>
      <trkpt lat="-34.931766" lon="138.622291">
        <ele>56.0</ele>
      </trkpt>
      <trkpt lat="-34.931959" lon="138.622447">
        <ele>56.0</ele>
      </trkpt>
      <trkpt lat="-34.931902" lon="138.622999">
        <ele>57.0</ele>
      </trkpt>
      <trkpt lat="-34.931717" lon="138.623289">
        <ele>58.0</ele>
      </trkpt>
      <trkpt lat="-34.931542" lon="138.623326">
        <ele>58.0</ele>
      </trkpt>
      <trkpt lat="-34.929875" lon="138.623251">
        <ele>57.0</ele>
      </trkpt>
      <trkpt lat="-34.9294" lon="138.62287">
        <ele>56.0</ele>
      </trkpt>
    </trkseg>
  </trk>
</gpx>