<?xml version="1.0" encoding="UTF-8"?>
<gpx xmlns="http://www.topografix.com/GPX/1/0" xmlns:xsi="http://www.w3.org/2001/XMLSchema-instance" xsi:schemaLocation="http://www.topografix.com/GPX/1/0 http://www.topografix.com/GPX/1/0/gpx.xsd" version="1.0" creator="GPSBabel - https://www.gpsbabel.org">
  <time>2026-05-27T10:13:57.779000Z</time>
  <bounds minlat="45.68053" maxlat="46.0697" minlon="6.37186" maxlon="6.63421" />
  <trk>
    <trkseg>
      <trkpt lat="45.71062" lon="6.56996">
        <ele>865.0</ele>
      </trkpt>
      <trkpt lat="45.70974" lon="6.56852">
        <ele>874.0</ele>
      </trkpt>
      <trkpt lat="45.70988" lon="6.56941">
        <ele>878.0</ele>
      </trkpt>
      <trkpt lat="45.70997" lon="6.57092">
        <ele>886.0</ele>
      </trkpt>
      <trkpt lat="45.71035" lon="6.57161">
        <ele>893.0</ele>
      </trkpt>
      <trkpt lat="45.70918" lon="6.57062">
        <ele>902.0</ele>
      </trkpt>
      <trkpt lat="45.7076" lon="6.56851">
        <ele>917.0</ele>
      </trkpt>
      <trkpt lat="45.70601" lon="6.5684">
        <ele>932.0</ele>
      </trkpt>
      <trkpt lat="45.70392" lon="6.56775">
        <ele>949.0</ele>
      </trkpt>
      <trkpt lat="45.70199" lon="6.56715">
        <ele>965.0</ele>
      </trkpt>
      <trkpt lat="45.69925" lon="6.56654">
        <ele>983.0</ele>
      </trkpt>
      <trkpt lat="45.69792" lon="6.56639">
        <ele>997.0</ele>
      </trkpt>
      <trkpt lat="45.69599" lon="6.56704">
        <ele>1010.0</ele>
      </trkpt>
      <trkpt lat="45.69467" lon="6.56754">
        <ele>1020.0</ele>
      </trkpt>
      <trkpt lat="45.69267" lon="6.56742">
        <ele>1026.0</ele>
      </trkpt>
      <trkpt lat="45.69093" lon="6.56807">
        <ele>1031.0</ele>
      </trkpt>
      <trkpt lat="45.68851" lon="6.56866">
        <ele>1032.0</ele>
      </trkpt>
      <trkpt lat="45.68719" lon="6.56894">
        <ele>1034.0</ele>
      </trkpt>
      <trkpt lat="45.6864" lon="6.56881">
        <ele>1036.0</ele>
      </trkpt>
      <trkpt lat="45.68557" lon="6.56881">
        <ele>1041.0</ele>
      </trkpt>
      <trkpt lat="45.68539" lon="6.56916">
        <ele>1045.0</ele>
      </trkpt>
      <trkpt lat="45.68574" lon="6.56973">
        <ele>1049.0</ele>
      </trkpt>
      <trkpt lat="45.68635" lon="6.57016">
        <ele>1057.0</ele>
      </trkpt>
      <trkpt lat="45.68574" lon="6.57032">
        <ele>1062.0</ele>
      </trkpt>
      <trkpt lat="45.68422" lon="6.57175">
        <ele>1076.0</ele>
      </trkpt>
      <trkpt lat="45.68297" lon="6.57273">
        <ele>1090.0</ele>
      </trkpt>
      <trkpt lat="45.68426" lon="6.5726">
        <ele>1100.0</ele>
      </trkpt>
      <trkpt lat="45.68513" lon="6.57238">
        <ele>1108.0</ele>
      </trkpt>
      <trkpt lat="45.68473" lon="6.57281">
        <ele>1111.0</ele>
      </trkpt>
      <trkpt lat="45.68359" lon="6.57347">
        <ele>1124.0</ele>
      </trkpt>
      <trkpt lat="45.68312" lon="6.57426">
        <ele>1133.0</ele>
      </trkpt>
      <trkpt lat="45.68317" lon="6.57549">
        <ele>1143.0</ele>
      </trkpt>
      <trkpt lat="45.68332" lon="6.57482">
        <ele>1148.0</ele>
      </trkpt>
      <trkpt lat="45.68377" lon="6.57426">
        <ele>1154.0</ele>
      </trkpt>
      <trkpt lat="45.68421" lon="6.57465">
        <ele>1165.0</ele>
      </trkpt>
      <trkpt lat="45.68371" lon="6.57571">
        <ele>1175.0</ele>
      </trkpt>
      <trkpt lat="45.68332" lon="6.57716">
        <ele>1189.0</ele>
      </trkpt>
      <trkpt lat="45.68423" lon="6.57613">
        <ele>1199.0</ele>
      </trkpt>
      <trkpt lat="45.68483" lon="6.57572">
        <ele>1211.0</ele>
      </trkpt>
      <trkpt lat="45.68459" lon="6.57625">
        <ele>1217.0</ele>
      </trkpt>
      <trkpt lat="45.68418" lon="6.5778">
        <ele>1223.0</ele>
      </trkpt>
      <trkpt lat="45.6843" lon="6.57729">
        <ele>1225.0</ele>
      </trkpt>
      <trkpt lat="45.68535" lon="6.57627">
        <ele>1241.0</ele>
      </trkpt>
      <trkpt lat="45.68601" lon="6.57545">
        <ele>1260.0</ele>
      </trkpt>
      <trkpt lat="45.68576" lon="6.57619">
        <ele>1265.0</ele>
      </trkpt>
      <trkpt lat="45.68512" lon="6.57805">
        <ele>1278.0</ele>
      </trkpt>
      <trkpt lat="45.68595" lon="6.58002">
        <ele>1300.0</ele>
      </trkpt>
      <trkpt lat="45.68624" lon="6.5804">
        <ele>1308.0</ele>
      </trkpt>
      <trkpt lat="45.68583" lon="6.57884">
        <ele>1314.0</ele>
      </trkpt>
      <trkpt lat="45.68623" lon="6.57749">
        <ele>1325.0</ele>
      </trkpt>
      <trkpt lat="45.68706" lon="6.5764">
        <ele>1341.0</ele>
      </trkpt>
      <trkpt lat="45.6869" lon="6.57667">
        <ele>1345.0</ele>
      </trkpt>
      <trkpt lat="45.68659" lon="6.57819">
        <ele>1353.0</ele>
      </trkpt>
      <trkpt lat="45.68727" lon="6.57981">
        <ele>1363.0</ele>
      </trkpt>
      <trkpt lat="45.68758" lon="6.58142">
        <ele>1379.0</ele>
      </trkpt>
      <trkpt lat="45.68775" lon="6.58087">
        <ele>1385.0</ele>
      </trkpt>
      <trkpt lat="45.68795" lon="6.57936">
        <ele>1398.0</ele>
      </trkpt>
      <trkpt lat="45.68795" lon="6.57822">
        <ele>1407.0</ele>
      </trkpt>
      <trkpt lat="45.68864" lon="6.57803">
        <ele>1416.0</ele>
      </trkpt>
      <trkpt lat="45.68829" lon="6.57821">
        <ele>1420.0</ele>
      </trkpt>
      <trkpt lat="45.68848" lon="6.57956">
        <ele>1428.0</ele>
      </trkpt>
      <trkpt lat="45.68872" lon="6.58201">
        <ele>1448.0</ele>
      </trkpt>
      <trkpt lat="45.68806" lon="6.58312">
        <ele>1462.0</ele>
      </trkpt>
      <trkpt lat="45.68795" lon="6.58549">
        <ele>1477.0</ele>
      </trkpt>
      <trkpt lat="45.688" lon="6.5868">
        <ele>1494.0</ele>
      </trkpt>
      <trkpt lat="45.68819" lon="6.58605">
        <ele>1499.0</ele>
      </trkpt>
      <trkpt lat="45.689" lon="6.58327">
        <ele>1519.0</ele>
      </trkpt>
      <trkpt lat="45.6899" lon="6.5825">
        <ele>1541.0</ele>
      </trkpt>
      <trkpt lat="45.69103" lon="6.58048">
        <ele>1561.0</ele>
      </trkpt>
      <trkpt lat="45.69103" lon="6.58067">
        <ele>1569.0</ele>
      </trkpt>
      <trkpt lat="45.69053" lon="6.58245">
        <ele>1582.0</ele>
      </trkpt>
      <trkpt lat="45.68999" lon="6.5839">
        <ele>1602.0</ele>
      </trkpt>
      <trkpt lat="45.68961" lon="6.58573">
        <ele>1616.0</ele>
      </trkpt>
      <trkpt lat="45.6897" lon="6.58724">
        <ele>1626.0</ele>
      </trkpt>
      <trkpt lat="45.68912" lon="6.5907">
        <ele>1649.0</ele>
      </trkpt>
      <trkpt lat="45.68915" lon="6.59304">
        <ele>1667.0</ele>
      </trkpt>
      <trkpt lat="45.68928" lon="6.59471">
        <ele>1673.0</ele>
      </trkpt>
      <trkpt lat="45.68941" lon="6.59559">
        <ele>1680.0</ele>
      </trkpt>
      <trkpt lat="45.69023" lon="6.59732">
        <ele>1692.0</ele>
      </trkpt>
      <trkpt lat="45.69008" lon="6.59825">
        <ele>1703.0</ele>
      </trkpt>
      <trkpt lat="45.68998" lon="6.59928">
        <ele>1709.0</ele>
      </trkpt>
      <trkpt lat="45.68897" lon="6.60094">
        <ele>1725.0</ele>
      </trkpt>
      <trkpt lat="45.68832" lon="6.60302">
        <ele>1734.0</ele>
      </trkpt>
      <trkpt lat="45.6878" lon="6.60387">
        <ele>1735.0</ele>
      </trkpt>
      <trkpt lat="45.68716" lon="6.60575">
        <ele>1733.0</ele>
      </trkpt>
      <trkpt lat="45.68655" lon="6.60692">
        <ele>1730.0</ele>
      </trkpt>
      <trkpt lat="45.6853" lon="6.60849">
        <ele>1723.0</ele>
      </trkpt>
      <trkpt lat="45.68455" lon="6.60869">
        <ele>1718.0</ele>
      </trkpt>
      <trkpt lat="45.6842" lon="6.60985">
        <ele>1712.0</ele>
      </trkpt>
      <trkpt lat="45.68347" lon="6.61011">
        <ele>1705.0</ele>
      </trkpt>
      <trkpt lat="45.68236" lon="6.61123">
        <ele>1695.0</ele>
      </trkpt>
      <trkpt lat="45.68288" lon="6.61149">
        <ele>1688.0</ele>
      </trkpt>
      <trkpt lat="45.68357" lon="6.61155">
        <ele>1681.0</ele>
      </trkpt>
      <trkpt lat="45.68398" lon="6.61185">
        <ele>1677.0</ele>
      </trkpt>
      <trkpt lat="45.68387" lon="6.61204">
        <ele>1674.0</ele>
      </trkpt>
      <trkpt lat="45.68328" lon="6.61216">
        <ele>1666.0</ele>
      </trkpt>
      <trkpt lat="45.68216" lon="6.61276">
        <ele>1650.0</ele>
      </trkpt>
      <trkpt lat="45.68221" lon="6.61296">
        <ele>1642.0</ele>
      </trkpt>
      <trkpt lat="45.68352" lon="6.6133">
        <ele>1630.0</ele>
      </trkpt>
      <trkpt lat="45.68406" lon="6.61524">
        <ele>1618.0</ele>
      </trkpt>
      <trkpt lat="45.68315" lon="6.61584">
        <ele>1610.0</ele>
      </trkpt>
      <trkpt lat="45.68342" lon="6.61661">
        <ele>1605.0</ele>
      </trkpt>
      <trkpt lat="45.68275" lon="6.61572">
        <ele>1599.0</ele>
      </trkpt>
      <trkpt lat="45.68056" lon="6.61506">
        <ele>1582.0</ele>
      </trkpt>
      <trkpt lat="45.68188" lon="6.6161">
        <ele>1572.0</ele>
      </trkpt>
      <trkpt lat="45.68515" lon="6.62191">
        <ele>1525.0</ele>
      </trkpt>
      <trkpt lat="45.68756" lon="6.62448">
        <ele>1534.0</ele>
      </trkpt>
      <trkpt lat="45.68867" lon="6.62619">
        <ele>1566.0</ele>
      </trkpt>
      <trkpt lat="45.69015" lon="6.6284">
        <ele>1580.0</ele>
      </trkpt>
      <trkpt lat="45.69152" lon="6.62979">
        <ele>1588.0</ele>
      </trkpt>
      <trkpt lat="45.69316" lon="6.63075">
        <ele>1593.0</ele>
      </trkpt>
      <trkpt lat="45.69411" lon="6.63161">
        <ele>1601.0</ele>
      </trkpt>
      <trkpt lat="45.69442" lon="6.63294">
        <ele>1607.0</ele>
      </trkpt>
      <trkpt lat="45.69497" lon="6.63333">
        <ele>1612.0</ele>
      </trkpt>
      <trkpt lat="45.69557" lon="6.63307">
        <ele>1612.0</ele>
      </trkpt>
      <trkpt lat="45.69668" lon="6.63367">
        <ele>1607.0</ele>
      </trkpt>
      <trkpt lat="45.6977" lon="6.63384">
        <ele>1600.0</ele>
      </trkpt>
      <trkpt lat="45.69822" lon="6.63412">
        <ele>1595.0</ele>
      </trkpt>
      <trkpt lat="45.6992" lon="6.63411">
        <ele>1587.0</ele>
      </trkpt>
      <trkpt lat="45.69991" lon="6.63389">
        <ele>1579.0</ele>
      </trkpt>
      <trkpt lat="45.70267" lon="6.63359">
        <ele>1551.0</ele>
      </trkpt>
      <trkpt lat="45.70369" lon="6.63361">
        <ele>1541.0</ele>
      </trkpt>
      <trkpt lat="45.7041" lon="6.63347">
        <ele>1537.0</ele>
      </trkpt>
      <trkpt lat="45.70505" lon="6.63359">
        <ele>1531.0</ele>
      </trkpt>
      <trkpt lat="45.70607" lon="6.63341">
        <ele>1517.0</ele>
      </trkpt>
      <trkpt lat="45.70676" lon="6.63317">
        <ele>1510.0</ele>
      </trkpt>
      <trkpt lat="45.70699" lon="6.63304">
        <ele>1507.0</ele>
      </trkpt>
      <trkpt lat="45.70687" lon="6.63289">
        <ele>1506.0</ele>
      </trkpt>
      <trkpt lat="45.70591" lon="6.6331">
        <ele>1501.0</ele>
      </trkpt>
      <trkpt lat="45.70487" lon="6.63277">
        <ele>1492.0</ele>
      </trkpt>
      <trkpt lat="45.70411" lon="6.63241">
        <ele>1485.0</ele>
      </trkpt>
      <trkpt lat="45.70364" lon="6.63212">
        <ele>1481.0</ele>
      </trkpt>
      <trkpt lat="45.70288" lon="6.63225">
        <ele>1476.0</ele>
      </trkpt>
      <trkpt lat="45.70104" lon="6.63171">
        <ele>1463.0</ele>
      </trkpt>
      <trkpt lat="45.70026" lon="6.631">
        <ele>1454.0</ele>
      </trkpt>
      <trkpt lat="45.7002" lon="6.63068">
        <ele>1450.0</ele>
      </trkpt>
      <trkpt lat="45.70063" lon="6.63095">
        <ele>1447.0</ele>
      </trkpt>
      <trkpt lat="45.70179" lon="6.63144">
        <ele>1438.0</ele>
      </trkpt>
      <trkpt lat="45.70235" lon="6.63128">
        <ele>1430.0</ele>
      </trkpt>
      <trkpt lat="45.70336" lon="6.6311">
        <ele>1420.0</ele>
      </trkpt>
      <trkpt lat="45.70471" lon="6.63083">
        <ele>1398.0</ele>
      </trkpt>
      <trkpt lat="45.70513" lon="6.63071">
        <ele>1392.0</ele>
      </trkpt>
      <trkpt lat="45.70551" lon="6.63096">
        <ele>1391.0</ele>
      </trkpt>
      <trkpt lat="45.70602" lon="6.63086">
        <ele>1390.0</ele>
      </trkpt>
      <trkpt lat="45.70744" lon="6.63116">
        <ele>1386.0</ele>
      </trkpt>
      <trkpt lat="45.70749" lon="6.63089">
        <ele>1383.0</ele>
      </trkpt>
      <trkpt lat="45.7071" lon="6.6308">
        <ele>1379.0</ele>
      </trkpt>
      <trkpt lat="45.70519" lon="6.62962">
        <ele>1360.0</ele>
      </trkpt>
      <trkpt lat="45.70414" lon="6.6294">
        <ele>1350.0</ele>
      </trkpt>
      <trkpt lat="45.70301" lon="6.6295">
        <ele>1342.0</ele>
      </trkpt>
      <trkpt lat="45.70164" lon="6.6285">
        <ele>1330.0</ele>
      </trkpt>
      <trkpt lat="45.70106" lon="6.62822">
        <ele>1323.0</ele>
      </trkpt>
      <trkpt lat="45.70056" lon="6.62741">
        <ele>1317.0</ele>
      </trkpt>
      <trkpt lat="45.69938" lon="6.6258">
        <ele>1313.0</ele>
      </trkpt>
      <trkpt lat="45.69895" lon="6.6234">
        <ele>1304.0</ele>
      </trkpt>
      <trkpt lat="45.69842" lon="6.6217">
        <ele>1285.0</ele>
      </trkpt>
      <trkpt lat="45.69842" lon="6.62098">
        <ele>1278.0</ele>
      </trkpt>
      <trkpt lat="45.69809" lon="6.62064">
        <ele>1273.0</ele>
      </trkpt>
      <trkpt lat="45.69736" lon="6.61914">
        <ele>1262.0</ele>
      </trkpt>
      <trkpt lat="45.69684" lon="6.61695">
        <ele>1253.0</ele>
      </trkpt>
      <trkpt lat="45.69691" lon="6.61668">
        <ele>1250.0</ele>
      </trkpt>
      <trkpt lat="45.69727" lon="6.61741">
        <ele>1247.0</ele>
      </trkpt>
      <trkpt lat="45.69823" lon="6.6196">
        <ele>1233.0</ele>
      </trkpt>
      <trkpt lat="45.69859" lon="6.6201">
        <ele>1221.0</ele>
      </trkpt>
      <trkpt lat="45.6986" lon="6.61988">
        <ele>1218.0</ele>
      </trkpt>
      <trkpt lat="45.69808" lon="6.6188">
        <ele>1215.0</ele>
      </trkpt>
      <trkpt lat="45.69803" lon="6.61679">
        <ele>1212.0</ele>
      </trkpt>
      <trkpt lat="45.69803" lon="6.616">
        <ele>1203.0</ele>
      </trkpt>
      <trkpt lat="45.69702" lon="6.61454">
        <ele>1188.0</ele>
      </trkpt>
      <trkpt lat="45.69693" lon="6.61421">
        <ele>1180.0</ele>
      </trkpt>
      <trkpt lat="45.69723" lon="6.61437">
        <ele>1177.0</ele>
      </trkpt>
      <trkpt lat="45.69828" lon="6.61475">
        <ele>1167.0</ele>
      </trkpt>
      <trkpt lat="45.69856" lon="6.61533">
        <ele>1163.0</ele>
      </trkpt>
      <trkpt lat="45.69965" lon="6.61833">
        <ele>1153.0</ele>
      </trkpt>
      <trkpt lat="45.70085" lon="6.61928">
        <ele>1139.0</ele>
      </trkpt>
      <trkpt lat="45.70104" lon="6.62049">
        <ele>1134.0</ele>
      </trkpt>
      <trkpt lat="45.70229" lon="6.62335">
        <ele>1114.0</ele>
      </trkpt>
      <trkpt lat="45.70424" lon="6.62447">
        <ele>1090.0</ele>
      </trkpt>
      <trkpt lat="45.70526" lon="6.62456">
        <ele>1078.0</ele>
      </trkpt>
      <trkpt lat="45.70489" lon="6.62435">
        <ele>1075.0</ele>
      </trkpt>
      <trkpt lat="45.70373" lon="6.6232">
        <ele>1061.0</ele>
      </trkpt>
      <trkpt lat="45.70375" lon="6.62162">
        <ele>1048.0</ele>
      </trkpt>
      <trkpt lat="45.70346" lon="6.62102">
        <ele>1047.0</ele>
      </trkpt>
      <trkpt lat="45.70549" lon="6.61969">
        <ele>1044.0</ele>
      </trkpt>
      <trkpt lat="45.70629" lon="6.61782">
        <ele>1032.0</ele>
      </trkpt>
      <trkpt lat="45.70654" lon="6.61435">
        <ele>1022.0</ele>
      </trkpt>
      <trkpt lat="45.70711" lon="6.61286">
        <ele>1023.0</ele>
      </trkpt>
      <trkpt lat="45.70715" lon="6.61213">
        <ele>1024.0</ele>
      </trkpt>
      <trkpt lat="45.7068" lon="6.61133">
        <ele>1024.0</ele>
      </trkpt>
      <trkpt lat="45.7071" lon="6.60933">
        <ele>1009.0</ele>
      </trkpt>
      <trkpt lat="45.70711" lon="6.60779">
        <ele>993.0</ele>
      </trkpt>
      <trkpt lat="45.7073" lon="6.60597">
        <ele>975.0</ele>
      </trkpt>
      <trkpt lat="45.70749" lon="6.6051">
        <ele>966.0</ele>
      </trkpt>
      <trkpt lat="45.70725" lon="6.60327">
        <ele>956.0</ele>
      </trkpt>
      <trkpt lat="45.70699" lon="6.59798">
        <ele>924.0</ele>
      </trkpt>
      <trkpt lat="45.70709" lon="6.59506">
        <ele>899.0</ele>
      </trkpt>
      <trkpt lat="45.70788" lon="6.59195">
        <ele>881.0</ele>
      </trkpt>
      <trkpt lat="45.70897" lon="6.59097">
        <ele>876.0</ele>
      </trkpt>
      <trkpt lat="45.71016" lon="6.58931">
        <ele>863.0</ele>
      </trkpt>
      <trkpt lat="45.71023" lon="6.58967">
        <ele>857.0</ele>
      </trkpt>
      <trkpt lat="45.70988" lon="6.5901">
        <ele>853.0</ele>
      </trkpt>
      <trkpt lat="45.71055" lon="6.58982">
        <ele>852.0</ele>
      </trkpt>
      <trkpt lat="45.71143" lon="6.58749">
        <ele>845.14</ele>
      </trkpt>
      <trkpt lat="45.71197" lon="6.58423">
        <ele>823.12</ele>
      </trkpt>
      <trkpt lat="45.71261" lon="6.58306">
        <ele>813.51</ele>
      </trkpt>
      <trkpt lat="45.713" lon="6.58163">
        <ele>803.26</ele>
      </trkpt>
      <trkpt lat="45.71323" lon="6.58032">
        <ele>794.47</ele>
      </trkpt>
      <trkpt lat="45.71342" lon="6.57937">
        <ele>787.77</ele>
      </trkpt>
      <trkpt lat="45.71406" lon="6.57854">
        <ele>779.75</ele>
      </trkpt>
      <trkpt lat="45.71443" lon="6.57686">
        <ele>768.0</ele>
      </trkpt>
      <trkpt lat="45.71498" lon="6.57629">
        <ele>763.0</ele>
      </trkpt>
      <trkpt lat="45.71602" lon="6.57623">
        <ele>759.0</ele>
      </trkpt>
      <trkpt lat="45.71683" lon="6.57599">
        <ele>754.0</ele>
      </trkpt>
      <trkpt lat="45.71775" lon="6.57538">
        <ele>745.0</ele>
      </trkpt>
      <trkpt lat="45.71854" lon="6.57437">
        <ele>738.0</ele>
      </trkpt>
      <trkpt lat="45.71886" lon="6.57406">
        <ele>735.0</ele>
      </trkpt>
      <trkpt lat="45.71893" lon="6.57392">
        <ele>734.0</ele>
      </trkpt>
      <trkpt lat="45.71916" lon="6.57336">
        <ele>733.0</ele>
      </trkpt>
      <trkpt lat="45.71966" lon="6.57283">
        <ele>731.0</ele>
      </trkpt>
      <trkpt lat="45.72006" lon="6.57212">
        <ele>729.0</ele>
      </trkpt>
      <trkpt lat="45.71991" lon="6.56973">
        <ele>726.0</ele>
      </trkpt>
      <trkpt lat="45.71969" lon="6.56658">
        <ele>723.0</ele>
      </trkpt>
      <trkpt lat="45.71972" lon="6.56534">
        <ele>723.0</ele>
      </trkpt>
      <trkpt lat="45.71959" lon="6.56319">
        <ele>722.0</ele>
      </trkpt>
      <trkpt lat="45.72035" lon="6.56084">
        <ele>714.0</ele>
      </trkpt>
      <trkpt lat="45.72152" lon="6.55786">
        <ele>705.0</ele>
      </trkpt>
      <trkpt lat="45.72393" lon="6.55397">
        <ele>700.0</ele>
      </trkpt>
      <trkpt lat="45.72516" lon="6.5519">
        <ele>698.0</ele>
      </trkpt>
      <trkpt lat="45.72573" lon="6.54971">
        <ele>699.0</ele>
      </trkpt>
      <trkpt lat="45.72605" lon="6.54733">
        <ele>705.0</ele>
      </trkpt>
      <trkpt lat="45.72666" lon="6.54623">
        <ele>709.0</ele>
      </trkpt>
      <trkpt lat="45.72675" lon="6.54421">
        <ele>710.0</ele>
      </trkpt>
      <trkpt lat="45.72626" lon="6.54255">
        <ele>707.0</ele>
      </trkpt>
      <trkpt lat="45.72545" lon="6.54121">
        <ele>705.0</ele>
      </trkpt>
      <trkpt lat="45.7252" lon="6.54019">
        <ele>704.0</ele>
      </trkpt>
      <trkpt lat="45.7252" lon="6.53811">
        <ele>709.0</ele>
      </trkpt>
      <trkpt lat="45.72584" lon="6.53624">
        <ele>713.0</ele>
      </trkpt>
      <trkpt lat="45.72632" lon="6.53554">
        <ele>714.0</ele>
      </trkpt>
      <trkpt lat="45.72669" lon="6.53482">
        <ele>714.0</ele>
      </trkpt>
      <trkpt lat="45.72693" lon="6.53327">
        <ele>713.0</ele>
      </trkpt>
      <trkpt lat="45.72667" lon="6.53197">
        <ele>709.0</ele>
      </trkpt>
      <trkpt lat="45.72616" lon="6.53092">
        <ele>706.0</ele>
      </trkpt>
      <trkpt lat="45.72625" lon="6.52947">
        <ele>711.0</ele>
      </trkpt>
      <trkpt lat="45.72604" lon="6.52771">
        <ele>716.0</ele>
      </trkpt>
      <trkpt lat="45.72639" lon="6.52636">
        <ele>719.0</ele>
      </trkpt>
      <trkpt lat="45.72702" lon="6.52543">
        <ele>732.0</ele>
      </trkpt>
      <trkpt lat="45.72682" lon="6.52442">
        <ele>748.0</ele>
      </trkpt>
      <trkpt lat="45.72703" lon="6.52486">
        <ele>753.0</ele>
      </trkpt>
      <trkpt lat="45.72759" lon="6.52701">
        <ele>753.0</ele>
      </trkpt>
      <trkpt lat="45.72793" lon="6.52794">
        <ele>757.0</ele>
      </trkpt>
      <trkpt lat="45.72831" lon="6.52862">
        <ele>763.0</ele>
      </trkpt>
      <trkpt lat="45.729" lon="6.52998">
        <ele>773.0</ele>
      </trkpt>
      <trkpt lat="45.72937" lon="6.53215">
        <ele>786.0</ele>
      </trkpt>
      <trkpt lat="45.72992" lon="6.53457">
        <ele>807.0</ele>
      </trkpt>
      <trkpt lat="45.73068" lon="6.53568">
        <ele>817.0</ele>
      </trkpt>
      <trkpt lat="45.73027" lon="6.53665">
        <ele>825.0</ele>
      </trkpt>
      <trkpt lat="45.73058" lon="6.53709">
        <ele>836.0</ele>
      </trkpt>
      <trkpt lat="45.7305" lon="6.53647">
        <ele>843.0</ele>
      </trkpt>
      <trkpt lat="45.73103" lon="6.53533">
        <ele>854.0</ele>
      </trkpt>
      <trkpt lat="45.73043" lon="6.53465">
        <ele>855.0</ele>
      </trkpt>
      <trkpt lat="45.73044" lon="6.53277">
        <ele>858.0</ele>
      </trkpt>
      <trkpt lat="45.73075" lon="6.53091">
        <ele>864.0</ele>
      </trkpt>
      <trkpt lat="45.73077" lon="6.52989">
        <ele>878.0</ele>
      </trkpt>
      <trkpt lat="45.73109" lon="6.52929">
        <ele>891.0</ele>
      </trkpt>
      <trkpt lat="45.73094" lon="6.52836">
        <ele>900.0</ele>
      </trkpt>
      <trkpt lat="45.73061" lon="6.52772">
        <ele>906.0</ele>
      </trkpt>
      <trkpt lat="45.73103" lon="6.52637">
        <ele>915.0</ele>
      </trkpt>
      <trkpt lat="45.73077" lon="6.52571">
        <ele>920.0</ele>
      </trkpt>
      <trkpt lat="45.73047" lon="6.52477">
        <ele>925.0</ele>
      </trkpt>
      <trkpt lat="45.72974" lon="6.52417">
        <ele>931.0</ele>
      </trkpt>
      <trkpt lat="45.72957" lon="6.52297">
        <ele>934.0</ele>
      </trkpt>
      <trkpt lat="45.72945" lon="6.52082">
        <ele>944.0</ele>
      </trkpt>
      <trkpt lat="45.72936" lon="6.51993">
        <ele>952.0</ele>
      </trkpt>
      <trkpt lat="45.72924" lon="6.51822">
        <ele>964.0</ele>
      </trkpt>
      <trkpt lat="45.72941" lon="6.51771">
        <ele>973.0</ele>
      </trkpt>
      <trkpt lat="45.72949" lon="6.51899">
        <ele>977.0</ele>
      </trkpt>
      <trkpt lat="45.72985" lon="6.51999">
        <ele>979.0</ele>
      </trkpt>
      <trkpt lat="45.73031" lon="6.52162">
        <ele>983.0</ele>
      </trkpt>
      <trkpt lat="45.73063" lon="6.52255">
        <ele>997.0</ele>
      </trkpt>
      <trkpt lat="45.73041" lon="6.5209">
        <ele>1005.0</ele>
      </trkpt>
      <trkpt lat="45.73066" lon="6.52019">
        <ele>1012.0</ele>
      </trkpt>
      <trkpt lat="45.73083" lon="6.52175">
        <ele>1018.0</ele>
      </trkpt>
      <trkpt lat="45.73096" lon="6.52156">
        <ele>1022.0</ele>
      </trkpt>
      <trkpt lat="45.731" lon="6.52044">
        <ele>1028.0</ele>
      </trkpt>
      <trkpt lat="45.73098" lon="6.51939">
        <ele>1036.0</ele>
      </trkpt>
      <trkpt lat="45.73096" lon="6.51887">
        <ele>1042.0</ele>
      </trkpt>
      <trkpt lat="45.73122" lon="6.51979">
        <ele>1048.0</ele>
      </trkpt>
      <trkpt lat="45.73151" lon="6.52067">
        <ele>1055.0</ele>
      </trkpt>
      <trkpt lat="45.73175" lon="6.52191">
        <ele>1066.0</ele>
      </trkpt>
      <trkpt lat="45.73187" lon="6.52177">
        <ele>1073.0</ele>
      </trkpt>
      <trkpt lat="45.73192" lon="6.52035">
        <ele>1091.0</ele>
      </trkpt>
      <trkpt lat="45.73206" lon="6.52134">
        <ele>1096.0</ele>
      </trkpt>
      <trkpt lat="45.73284" lon="6.5237">
        <ele>1103.0</ele>
      </trkpt>
      <trkpt lat="45.73354" lon="6.52386">
        <ele>1110.0</ele>
      </trkpt>
      <trkpt lat="45.73399" lon="6.5247">
        <ele>1116.0</ele>
      </trkpt>
      <trkpt lat="45.73464" lon="6.52621">
        <ele>1115.0</ele>
      </trkpt>
      <trkpt lat="45.7353" lon="6.52774">
        <ele>1117.0</ele>
      </trkpt>
      <trkpt lat="45.73612" lon="6.52894">
        <ele>1127.0</ele>
      </trkpt>
      <trkpt lat="45.73623" lon="6.52977">
        <ele>1132.0</ele>
      </trkpt>
      <trkpt lat="45.73553" lon="6.53061">
        <ele>1134.0</ele>
      </trkpt>
      <trkpt lat="45.73567" lon="6.53138">
        <ele>1139.0</ele>
      </trkpt>
      <trkpt lat="45.73564" lon="6.5308">
        <ele>1141.0</ele>
      </trkpt>
      <trkpt lat="45.73654" lon="6.53033">
        <ele>1148.0</ele>
      </trkpt>
      <trkpt lat="45.73689" lon="6.52965">
        <ele>1164.0</ele>
      </trkpt>
      <trkpt lat="45.73719" lon="6.52864">
        <ele>1182.0</ele>
      </trkpt>
      <trkpt lat="45.73643" lon="6.52714">
        <ele>1193.0</ele>
      </trkpt>
      <trkpt lat="45.73639" lon="6.52606">
        <ele>1196.0</ele>
      </trkpt>
      <trkpt lat="45.73617" lon="6.52417">
        <ele>1208.0</ele>
      </trkpt>
      <trkpt lat="45.73539" lon="6.52237">
        <ele>1226.0</ele>
      </trkpt>
      <trkpt lat="45.73504" lon="6.52152">
        <ele>1232.0</ele>
      </trkpt>
      <trkpt lat="45.73435" lon="6.52084">
        <ele>1238.0</ele>
      </trkpt>
      <trkpt lat="45.73429" lon="6.51991">
        <ele>1243.0</ele>
      </trkpt>
      <trkpt lat="45.73449" lon="6.52051">
        <ele>1248.0</ele>
      </trkpt>
      <trkpt lat="45.73582" lon="6.52096">
        <ele>1261.0</ele>
      </trkpt>
      <trkpt lat="45.73714" lon="6.52166">
        <ele>1276.0</ele>
      </trkpt>
      <trkpt lat="45.73807" lon="6.52333">
        <ele>1295.0</ele>
      </trkpt>
      <trkpt lat="45.73889" lon="6.5247">
        <ele>1311.0</ele>
      </trkpt>
      <trkpt lat="45.73923" lon="6.52668">
        <ele>1330.0</ele>
      </trkpt>
      <trkpt lat="45.73961" lon="6.52778">
        <ele>1340.0</ele>
      </trkpt>
      <trkpt lat="45.73989" lon="6.52843">
        <ele>1346.0</ele>
      </trkpt>
      <trkpt lat="45.73983" lon="6.52679">
        <ele>1353.0</ele>
      </trkpt>
      <trkpt lat="45.73968" lon="6.52532">
        <ele>1362.0</ele>
      </trkpt>
      <trkpt lat="45.74016" lon="6.52291">
        <ele>1380.0</ele>
      </trkpt>
      <trkpt lat="45.73984" lon="6.52054">
        <ele>1400.0</ele>
      </trkpt>
      <trkpt lat="45.73878" lon="6.51746">
        <ele>1421.0</ele>
      </trkpt>
      <trkpt lat="45.73775" lon="6.51556">
        <ele>1440.0</ele>
      </trkpt>
      <trkpt lat="45.73743" lon="6.51484">
        <ele>1445.0</ele>
      </trkpt>
      <trkpt lat="45.73732" lon="6.51125">
        <ele>1459.0</ele>
      </trkpt>
      <trkpt lat="45.73828" lon="6.50915">
        <ele>1483.0</ele>
      </trkpt>
      <trkpt lat="45.73834" lon="6.50867">
        <ele>1491.0</ele>
      </trkpt>
      <trkpt lat="45.73803" lon="6.50704">
        <ele>1502.0</ele>
      </trkpt>
      <trkpt lat="45.73781" lon="6.50606">
        <ele>1509.0</ele>
      </trkpt>
      <trkpt lat="45.73834" lon="6.50646">
        <ele>1516.0</ele>
      </trkpt>
      <trkpt lat="45.73901" lon="6.507">
        <ele>1524.0</ele>
      </trkpt>
      <trkpt lat="45.7396" lon="6.50777">
        <ele>1531.0</ele>
      </trkpt>
      <trkpt lat="45.73989" lon="6.5091">
        <ele>1540.0</ele>
      </trkpt>
      <trkpt lat="45.74" lon="6.51082">
        <ele>1551.0</ele>
      </trkpt>
      <trkpt lat="45.74072" lon="6.51255">
        <ele>1566.0</ele>
      </trkpt>
      <trkpt lat="45.74146" lon="6.51389">
        <ele>1581.0</ele>
      </trkpt>
      <trkpt lat="45.74267" lon="6.51492">
        <ele>1597.0</ele>
      </trkpt>
      <trkpt lat="45.74336" lon="6.51582">
        <ele>1612.0</ele>
      </trkpt>
      <trkpt lat="45.74432" lon="6.51694">
        <ele>1631.0</ele>
      </trkpt>
      <trkpt lat="45.74525" lon="6.51888">
        <ele>1637.0</ele>
      </trkpt>
      <trkpt lat="45.74589" lon="6.51961">
        <ele>1650.0</ele>
      </trkpt>
      <trkpt lat="45.74629" lon="6.52101">
        <ele>1669.0</ele>
      </trkpt>
      <trkpt lat="45.74652" lon="6.52237">
        <ele>1682.0</ele>
      </trkpt>
      <trkpt lat="45.74635" lon="6.52402">
        <ele>1696.0</ele>
      </trkpt>
      <trkpt lat="45.74631" lon="6.52503">
        <ele>1703.0</ele>
      </trkpt>
      <trkpt lat="45.74589" lon="6.52676">
        <ele>1714.0</ele>
      </trkpt>
      <trkpt lat="45.74634" lon="6.52796">
        <ele>1725.0</ele>
      </trkpt>
      <trkpt lat="45.74663" lon="6.5299">
        <ele>1718.0</ele>
      </trkpt>
      <trkpt lat="45.7463" lon="6.53176">
        <ele>1699.0</ele>
      </trkpt>
      <trkpt lat="45.74618" lon="6.5333">
        <ele>1689.0</ele>
      </trkpt>
      <trkpt lat="45.74627" lon="6.53456">
        <ele>1682.0</ele>
      </trkpt>
      <trkpt lat="45.74698" lon="6.5349">
        <ele>1678.0</ele>
      </trkpt>
      <trkpt lat="45.74706" lon="6.53542">
        <ele>1676.0</ele>
      </trkpt>
      <trkpt lat="45.74629" lon="6.53646">
        <ele>1673.0</ele>
      </trkpt>
      <trkpt lat="45.74539" lon="6.53841">
        <ele>1663.0</ele>
      </trkpt>
      <trkpt lat="45.74539" lon="6.5404">
        <ele>1647.0</ele>
      </trkpt>
      <trkpt lat="45.74651" lon="6.54164">
        <ele>1634.0</ele>
      </trkpt>
      <trkpt lat="45.74708" lon="6.54255">
        <ele>1625.0</ele>
      </trkpt>
      <trkpt lat="45.74837" lon="6.54204">
        <ele>1616.0</ele>
      </trkpt>
      <trkpt lat="45.74943" lon="6.54117">
        <ele>1600.0</ele>
      </trkpt>
      <trkpt lat="45.75027" lon="6.54148">
        <ele>1590.0</ele>
      </trkpt>
      <trkpt lat="45.75249" lon="6.54354">
        <ele>1575.0</ele>
      </trkpt>
      <trkpt lat="45.7531" lon="6.54451">
        <ele>1574.0</ele>
      </trkpt>
      <trkpt lat="45.75321" lon="6.54552">
        <ele>1578.0</ele>
      </trkpt>
      <trkpt lat="45.75346" lon="6.54612">
        <ele>1586.0</ele>
      </trkpt>
      <trkpt lat="45.75434" lon="6.5459">
        <ele>1595.0</ele>
      </trkpt>
      <trkpt lat="45.75528" lon="6.54476">
        <ele>1603.0</ele>
      </trkpt>
      <trkpt lat="45.75612" lon="6.54236">
        <ele>1615.0</ele>
      </trkpt>
      <trkpt lat="45.75643" lon="6.54097">
        <ele>1622.0</ele>
      </trkpt>
      <trkpt lat="45.75654" lon="6.54082">
        <ele>1624.0</ele>
      </trkpt>
      <trkpt lat="45.75713" lon="6.53949">
        <ele>1630.0</ele>
      </trkpt>
      <trkpt lat="45.75725" lon="6.53934">
        <ele>1634.0</ele>
      </trkpt>
      <trkpt lat="45.75749" lon="6.53858">
        <ele>1639.0</ele>
      </trkpt>
      <trkpt lat="45.75795" lon="6.53732">
        <ele>1647.0</ele>
      </trkpt>
      <trkpt lat="45.75852" lon="6.53586">
        <ele>1653.0</ele>
      </trkpt>
      <trkpt lat="45.75938" lon="6.53442">
        <ele>1657.0</ele>
      </trkpt>
      <trkpt lat="45.75956" lon="6.5343">
        <ele>1658.0</ele>
      </trkpt>
      <trkpt lat="45.76032" lon="6.53359">
        <ele>1660.0</ele>
      </trkpt>
      <trkpt lat="45.76114" lon="6.53339">
        <ele>1659.0</ele>
      </trkpt>
      <trkpt lat="45.76266" lon="6.53344">
        <ele>1657.0</ele>
      </trkpt>
      <trkpt lat="45.76316" lon="6.53385">
        <ele>1657.0</ele>
      </trkpt>
      <trkpt lat="45.76335" lon="6.53383">
        <ele>1657.0</ele>
      </trkpt>
      <trkpt lat="45.76507" lon="6.53342">
        <ele>1652.0</ele>
      </trkpt>
      <trkpt lat="45.76608" lon="6.53264">
        <ele>1642.0</ele>
      </trkpt>
      <trkpt lat="45.76857" lon="6.53183">
        <ele>1628.0</ele>
      </trkpt>
      <trkpt lat="45.7696" lon="6.53252">
        <ele>1622.0</ele>
      </trkpt>
      <trkpt lat="45.77087" lon="6.53432">
        <ele>1611.0</ele>
      </trkpt>
      <trkpt lat="45.77202" lon="6.53611">
        <ele>1601.0</ele>
      </trkpt>
      <trkpt lat="45.77267" lon="6.53638">
        <ele>1604.0</ele>
      </trkpt>
      <trkpt lat="45.77336" lon="6.5362">
        <ele>1606.0</ele>
      </trkpt>
      <trkpt lat="45.77424" lon="6.5355">
        <ele>1608.0</ele>
      </trkpt>
      <trkpt lat="45.77594" lon="6.53602">
        <ele>1605.0</ele>
      </trkpt>
      <trkpt lat="45.77761" lon="6.53686">
        <ele>1593.0</ele>
      </trkpt>
      <trkpt lat="45.7792" lon="6.53802">
        <ele>1568.0</ele>
      </trkpt>
      <trkpt lat="45.78057" lon="6.54169">
        <ele>1542.0</ele>
      </trkpt>
      <trkpt lat="45.78054" lon="6.54266">
        <ele>1534.0</ele>
      </trkpt>
      <trkpt lat="45.78054" lon="6.54337">
        <ele>1530.0</ele>
      </trkpt>
      <trkpt lat="45.78142" lon="6.54394">
        <ele>1525.0</ele>
      </trkpt>
      <trkpt lat="45.78178" lon="6.54608">
        <ele>1518.0</ele>
      </trkpt>
      <trkpt lat="45.78126" lon="6.54828">
        <ele>1509.0</ele>
      </trkpt>
      <trkpt lat="45.78017" lon="6.54972">
        <ele>1498.0</ele>
      </trkpt>
      <trkpt lat="45.78021" lon="6.55081">
        <ele>1492.0</ele>
      </trkpt>
      <trkpt lat="45.78005" lon="6.55205">
        <ele>1489.0</ele>
      </trkpt>
      <trkpt lat="45.7799" lon="6.55384">
        <ele>1481.0</ele>
      </trkpt>
      <trkpt lat="45.77963" lon="6.55559">
        <ele>1464.0</ele>
      </trkpt>
      <trkpt lat="45.77851" lon="6.55804">
        <ele>1451.0</ele>
      </trkpt>
      <trkpt lat="45.77813" lon="6.55928">
        <ele>1443.0</ele>
      </trkpt>
      <trkpt lat="45.7785" lon="6.55987">
        <ele>1439.0</ele>
      </trkpt>
      <trkpt lat="45.77935" lon="6.55967">
        <ele>1437.0</ele>
      </trkpt>
      <trkpt lat="45.78024" lon="6.55856">
        <ele>1438.0</ele>
      </trkpt>
      <trkpt lat="45.78113" lon="6.55771">
        <ele>1439.0</ele>
      </trkpt>
      <trkpt lat="45.78192" lon="6.55611">
        <ele>1441.0</ele>
      </trkpt>
      <trkpt lat="45.78325" lon="6.55334">
        <ele>1449.0</ele>
      </trkpt>
      <trkpt lat="45.78452" lon="6.55141">
        <ele>1456.0</ele>
      </trkpt>
      <trkpt lat="45.78527" lon="6.55037">
        <ele>1463.0</ele>
      </trkpt>
      <trkpt lat="45.78656" lon="6.54744">
        <ele>1462.0</ele>
      </trkpt>
      <trkpt lat="45.78729" lon="6.54699">
        <ele>1463.0</ele>
      </trkpt>
      <trkpt lat="45.78919" lon="6.54663">
        <ele>1459.0</ele>
      </trkpt>
      <trkpt lat="45.79027" lon="6.545">
        <ele>1452.0</ele>
      </trkpt>
      <trkpt lat="45.79202" lon="6.54412">
        <ele>1441.0</ele>
      </trkpt>
      <trkpt lat="45.79332" lon="6.54308">
        <ele>1428.0</ele>
      </trkpt>
      <trkpt lat="45.79434" lon="6.54228">
        <ele>1417.0</ele>
      </trkpt>
      <trkpt lat="45.79584" lon="6.54097">
        <ele>1404.0</ele>
      </trkpt>
      <trkpt lat="45.79678" lon="6.54101">
        <ele>1395.0</ele>
      </trkpt>
      <trkpt lat="45.79779" lon="6.54237">
        <ele>1383.0</ele>
      </trkpt>
      <trkpt lat="45.80076" lon="6.54598">
        <ele>1352.0</ele>
      </trkpt>
      <trkpt lat="45.80195" lon="6.54749">
        <ele>1334.0</ele>
      </trkpt>
      <trkpt lat="45.8035" lon="6.54926">
        <ele>1320.0</ele>
      </trkpt>
      <trkpt lat="45.80375" lon="6.54985">
        <ele>1317.0</ele>
      </trkpt>
      <trkpt lat="45.80397" lon="6.55045">
        <ele>1314.0</ele>
      </trkpt>
      <trkpt lat="45.80432" lon="6.5503">
        <ele>1312.0</ele>
      </trkpt>
      <trkpt lat="45.80434" lon="6.5495">
        <ele>1308.0</ele>
      </trkpt>
      <trkpt lat="45.80457" lon="6.54875">
        <ele>1305.0</ele>
      </trkpt>
      <trkpt lat="45.80471" lon="6.54808">
        <ele>1303.0</ele>
      </trkpt>
      <trkpt lat="45.80494" lon="6.54754">
        <ele>1301.0</ele>
      </trkpt>
      <trkpt lat="45.8053" lon="6.54719">
        <ele>1300.0</ele>
      </trkpt>
      <trkpt lat="45.80533" lon="6.54612">
        <ele>1299.0</ele>
      </trkpt>
      <trkpt lat="45.80505" lon="6.54527">
        <ele>1299.0</ele>
      </trkpt>
      <trkpt lat="45.80476" lon="6.54282">
        <ele>1300.0</ele>
      </trkpt>
      <trkpt lat="45.80434" lon="6.5406">
        <ele>1298.0</ele>
      </trkpt>
      <trkpt lat="45.80469" lon="6.53892">
        <ele>1289.0</ele>
      </trkpt>
      <trkpt lat="45.80505" lon="6.53813">
        <ele>1282.0</ele>
      </trkpt>
      <trkpt lat="45.80502" lon="6.5374">
        <ele>1279.0</ele>
      </trkpt>
      <trkpt lat="45.80492" lon="6.53682">
        <ele>1275.0</ele>
      </trkpt>
      <trkpt lat="45.80472" lon="6.53602">
        <ele>1271.0</ele>
      </trkpt>
      <trkpt lat="45.80442" lon="6.53535">
        <ele>1269.0</ele>
      </trkpt>
      <trkpt lat="45.80439" lon="6.53442">
        <ele>1266.0</ele>
      </trkpt>
      <trkpt lat="45.80463" lon="6.53216">
        <ele>1258.0</ele>
      </trkpt>
      <trkpt lat="45.80454" lon="6.53091">
        <ele>1250.0</ele>
      </trkpt>
      <trkpt lat="45.8049" lon="6.53039">
        <ele>1246.0</ele>
      </trkpt>
      <trkpt lat="45.8056" lon="6.52931">
        <ele>1239.0</ele>
      </trkpt>
      <trkpt lat="45.80611" lon="6.52814">
        <ele>1232.0</ele>
      </trkpt>
      <trkpt lat="45.80664" lon="6.52682">
        <ele>1221.0</ele>
      </trkpt>
      <trkpt lat="45.80697" lon="6.52575">
        <ele>1214.0</ele>
      </trkpt>
      <trkpt lat="45.80741" lon="6.52497">
        <ele>1206.0</ele>
      </trkpt>
      <trkpt lat="45.80803" lon="6.52444">
        <ele>1199.0</ele>
      </trkpt>
      <trkpt lat="45.80869" lon="6.52348">
        <ele>1190.0</ele>
      </trkpt>
      <trkpt lat="45.80904" lon="6.52209">
        <ele>1181.0</ele>
      </trkpt>
      <trkpt lat="45.80924" lon="6.5217">
        <ele>1174.0</ele>
      </trkpt>
      <trkpt lat="45.80952" lon="6.52152">
        <ele>1171.0</ele>
      </trkpt>
      <trkpt lat="45.80926" lon="6.52111">
        <ele>1167.0</ele>
      </trkpt>
      <trkpt lat="45.80861" lon="6.52062">
        <ele>1160.0</ele>
      </trkpt>
      <trkpt lat="45.80821" lon="6.52066">
        <ele>1156.0</ele>
      </trkpt>
      <trkpt lat="45.80827" lon="6.5204">
        <ele>1154.0</ele>
      </trkpt>
      <trkpt lat="45.80879" lon="6.51998">
        <ele>1150.0</ele>
      </trkpt>
      <trkpt lat="45.80953" lon="6.5201">
        <ele>1145.0</ele>
      </trkpt>
      <trkpt lat="45.80967" lon="6.51966">
        <ele>1141.0</ele>
      </trkpt>
      <trkpt lat="45.80852" lon="6.51806">
        <ele>1132.0</ele>
      </trkpt>
      <trkpt lat="45.80794" lon="6.51726">
        <ele>1127.0</ele>
      </trkpt>
      <trkpt lat="45.80821" lon="6.51663">
        <ele>1124.0</ele>
      </trkpt>
      <trkpt lat="45.8092" lon="6.51586">
        <ele>1117.0</ele>
      </trkpt>
      <trkpt lat="45.8099" lon="6.51599">
        <ele>1113.0</ele>
      </trkpt>
      <trkpt lat="45.81058" lon="6.51543">
        <ele>1109.0</ele>
      </trkpt>
      <trkpt lat="45.8128" lon="6.51675">
        <ele>1103.0</ele>
      </trkpt>
      <trkpt lat="45.81462" lon="6.51936">
        <ele>1087.0</ele>
      </trkpt>
      <trkpt lat="45.81601" lon="6.52183">
        <ele>1075.0</ele>
      </trkpt>
      <trkpt lat="45.81673" lon="6.5232">
        <ele>1060.0</ele>
      </trkpt>
      <trkpt lat="45.81624" lon="6.52134">
        <ele>1053.0</ele>
      </trkpt>
      <trkpt lat="45.81572" lon="6.5197">
        <ele>1052.0</ele>
      </trkpt>
      <trkpt lat="45.81466" lon="6.51701">
        <ele>1031.0</ele>
      </trkpt>
      <trkpt lat="45.81363" lon="6.51452">
        <ele>1011.0</ele>
      </trkpt>
      <trkpt lat="45.81286" lon="6.51341">
        <ele>1002.0</ele>
      </trkpt>
      <trkpt lat="45.8149" lon="6.51537">
        <ele>993.0</ele>
      </trkpt>
      <trkpt lat="45.81542" lon="6.5158">
        <ele>981.0</ele>
      </trkpt>
      <trkpt lat="45.81691" lon="6.51729">
        <ele>956.0</ele>
      </trkpt>
      <trkpt lat="45.81727" lon="6.51704">
        <ele>949.0</ele>
      </trkpt>
      <trkpt lat="45.81689" lon="6.51629">
        <ele>946.0</ele>
      </trkpt>
      <trkpt lat="45.81663" lon="6.51615">
        <ele>943.0</ele>
      </trkpt>
      <trkpt lat="45.81725" lon="6.51612">
        <ele>937.0</ele>
      </trkpt>
      <trkpt lat="45.81766" lon="6.5167">
        <ele>930.0</ele>
      </trkpt>
      <trkpt lat="45.81754" lon="6.51619">
        <ele>925.0</ele>
      </trkpt>
      <trkpt lat="45.81775" lon="6.51637">
        <ele>922.0</ele>
      </trkpt>
      <trkpt lat="45.81791" lon="6.51634">
        <ele>919.0</ele>
      </trkpt>
      <trkpt lat="45.81785" lon="6.51591">
        <ele>916.0</ele>
      </trkpt>
      <trkpt lat="45.8181" lon="6.51646">
        <ele>911.0</ele>
      </trkpt>
      <trkpt lat="45.81898" lon="6.51616">
        <ele>911.0</ele>
      </trkpt>
      <trkpt lat="45.81963" lon="6.51633">
        <ele>916.0</ele>
      </trkpt>
      <trkpt lat="45.82023" lon="6.51555">
        <ele>924.0</ele>
      </trkpt>
      <trkpt lat="45.82094" lon="6.51471">
        <ele>933.0</ele>
      </trkpt>
      <trkpt lat="45.82218" lon="6.5134">
        <ele>943.0</ele>
      </trkpt>
      <trkpt lat="45.82275" lon="6.51195">
        <ele>947.0</ele>
      </trkpt>
      <trkpt lat="45.82319" lon="6.51196">
        <ele>954.0</ele>
      </trkpt>
      <trkpt lat="45.82381" lon="6.51283">
        <ele>968.0</ele>
      </trkpt>
      <trkpt lat="45.82433" lon="6.51198">
        <ele>976.74</ele>
      </trkpt>
      <trkpt lat="45.82522" lon="6.51097">
        <ele>985.76</ele>
      </trkpt>
      <trkpt lat="45.82598" lon="6.51041">
        <ele>992.32</ele>
      </trkpt>
      <trkpt lat="45.82664" lon="6.50997">
        <ele>998.07</ele>
      </trkpt>
      <trkpt lat="45.82777" lon="6.5102">
        <ele>1007.12</ele>
      </trkpt>
      <trkpt lat="45.82856" lon="6.51017">
        <ele>1013.39</ele>
      </trkpt>
      <trkpt lat="45.82927" lon="6.50998">
        <ele>1018.97</ele>
      </trkpt>
      <trkpt lat="45.83007" lon="6.50944">
        <ele>1026.02</ele>
      </trkpt>
      <trkpt lat="45.83042" lon="6.50917">
        <ele>1029.13</ele>
      </trkpt>
      <trkpt lat="45.83098" lon="6.50882">
        <ele>1024.0</ele>
      </trkpt>
      <trkpt lat="45.83151" lon="6.50856">
        <ele>1025.0</ele>
      </trkpt>
      <trkpt lat="45.83206" lon="6.50854">
        <ele>1025.0</ele>
      </trkpt>
      <trkpt lat="45.83274" lon="6.50886">
        <ele>1018.0</ele>
      </trkpt>
      <trkpt lat="45.83337" lon="6.50855">
        <ele>1008.0</ele>
      </trkpt>
      <trkpt lat="45.83401" lon="6.50866">
        <ele>1002.0</ele>
      </trkpt>
      <trkpt lat="45.83437" lon="6.50888">
        <ele>1001.0</ele>
      </trkpt>
      <trkpt lat="45.83487" lon="6.50841">
        <ele>1002.0</ele>
      </trkpt>
      <trkpt lat="45.83568" lon="6.5087">
        <ele>1001.0</ele>
      </trkpt>
      <trkpt lat="45.83631" lon="6.50865">
        <ele>997.0</ele>
      </trkpt>
      <trkpt lat="45.8366" lon="6.50883">
        <ele>995.0</ele>
      </trkpt>
      <trkpt lat="45.83679" lon="6.50822">
        <ele>992.0</ele>
      </trkpt>
      <trkpt lat="45.83783" lon="6.5081">
        <ele>993.0</ele>
      </trkpt>
      <trkpt lat="45.83886" lon="6.50784">
        <ele>994.0</ele>
      </trkpt>
      <trkpt lat="45.83928" lon="6.50822">
        <ele>991.0</ele>
      </trkpt>
      <trkpt lat="45.83976" lon="6.50763">
        <ele>988.0</ele>
      </trkpt>
      <trkpt lat="45.84029" lon="6.50664">
        <ele>989.0</ele>
      </trkpt>
      <trkpt lat="45.84179" lon="6.50649">
        <ele>1003.0</ele>
      </trkpt>
      <trkpt lat="45.8427" lon="6.50628">
        <ele>999.0</ele>
      </trkpt>
      <trkpt lat="45.84395" lon="6.50576">
        <ele>990.0</ele>
      </trkpt>
      <trkpt lat="45.84486" lon="6.50542">
        <ele>990.0</ele>
      </trkpt>
      <trkpt lat="45.84649" lon="6.50472">
        <ele>989.0</ele>
      </trkpt>
      <trkpt lat="45.84747" lon="6.50365">
        <ele>987.0</ele>
      </trkpt>
      <trkpt lat="45.84838" lon="6.50324">
        <ele>998.0</ele>
      </trkpt>
      <trkpt lat="45.84926" lon="6.50298">
        <ele>1005.0</ele>
      </trkpt>
      <trkpt lat="45.85263" lon="6.50037">
        <ele>1004.0</ele>
      </trkpt>
      <trkpt lat="45.85415" lon="6.50023">
        <ele>1013.0</ele>
      </trkpt>
      <trkpt lat="45.85471" lon="6.50045">
        <ele>1018.04</ele>
      </trkpt>
      <trkpt lat="45.85524" lon="6.49978">
        <ele>1023.91</ele>
      </trkpt>
      <trkpt lat="45.85746" lon="6.49824">
        <ele>1043.99</ele>
      </trkpt>
      <trkpt lat="45.8588" lon="6.49742">
        <ele>1055.77</ele>
      </trkpt>
      <trkpt lat="45.85966" lon="6.49647">
        <ele>1064.85</ele>
      </trkpt>
      <trkpt lat="45.86084" lon="6.49653">
        <ele>1074.44</ele>
      </trkpt>
      <trkpt lat="45.86131" lon="6.49668">
        <ele>1078.76</ele>
      </trkpt>
      <trkpt lat="45.8612" lon="6.49617">
        <ele>1082.29</ele>
      </trkpt>
      <trkpt lat="45.86067" lon="6.4957">
        <ele>1073.0</ele>
      </trkpt>
      <trkpt lat="45.86143" lon="6.49552">
        <ele>1076.0</ele>
      </trkpt>
      <trkpt lat="45.86186" lon="6.49503">
        <ele>1082.0</ele>
      </trkpt>
      <trkpt lat="45.8623" lon="6.49438">
        <ele>1087.0</ele>
      </trkpt>
      <trkpt lat="45.86261" lon="6.49498">
        <ele>1090.0</ele>
      </trkpt>
      <trkpt lat="45.8627" lon="6.49627">
        <ele>1096.0</ele>
      </trkpt>
      <trkpt lat="45.863" lon="6.4961">
        <ele>1099.0</ele>
      </trkpt>
      <trkpt lat="45.86312" lon="6.49489">
        <ele>1107.0</ele>
      </trkpt>
      <trkpt lat="45.86284" lon="6.49362">
        <ele>1118.0</ele>
      </trkpt>
      <trkpt lat="45.86327" lon="6.49304">
        <ele>1124.0</ele>
      </trkpt>
      <trkpt lat="45.86412" lon="6.49257">
        <ele>1132.0</ele>
      </trkpt>
      <trkpt lat="45.86432" lon="6.49301">
        <ele>1138.0</ele>
      </trkpt>
      <trkpt lat="45.86399" lon="6.49401">
        <ele>1147.0</ele>
      </trkpt>
      <trkpt lat="45.86424" lon="6.49524">
        <ele>1156.0</ele>
      </trkpt>
      <trkpt lat="45.86459" lon="6.49538">
        <ele>1160.0</ele>
      </trkpt>
      <trkpt lat="45.86493" lon="6.49459">
        <ele>1164.0</ele>
      </trkpt>
      <trkpt lat="45.86581" lon="6.49359">
        <ele>1170.0</ele>
      </trkpt>
      <trkpt lat="45.86675" lon="6.49274">
        <ele>1182.0</ele>
      </trkpt>
      <trkpt lat="45.86675" lon="6.49178">
        <ele>1187.0</ele>
      </trkpt>
      <trkpt lat="45.86735" lon="6.49103">
        <ele>1190.0</ele>
      </trkpt>
      <trkpt lat="45.86725" lon="6.49071">
        <ele>1191.0</ele>
      </trkpt>
      <trkpt lat="45.86661" lon="6.49009">
        <ele>1195.0</ele>
      </trkpt>
      <trkpt lat="45.86627" lon="6.48932">
        <ele>1199.0</ele>
      </trkpt>
      <trkpt lat="45.86633" lon="6.48854">
        <ele>1204.0</ele>
      </trkpt>
      <trkpt lat="45.86665" lon="6.48787">
        <ele>1208.0</ele>
      </trkpt>
      <trkpt lat="45.86689" lon="6.48754">
        <ele>1211.0</ele>
      </trkpt>
      <trkpt lat="45.86683" lon="6.48688">
        <ele>1214.0</ele>
      </trkpt>
      <trkpt lat="45.86702" lon="6.48671">
        <ele>1217.0</ele>
      </trkpt>
      <trkpt lat="45.86731" lon="6.48757">
        <ele>1222.0</ele>
      </trkpt>
      <trkpt lat="45.86776" lon="6.48896">
        <ele>1231.0</ele>
      </trkpt>
      <trkpt lat="45.86836" lon="6.48957">
        <ele>1239.0</ele>
      </trkpt>
      <trkpt lat="45.86848" lon="6.48934">
        <ele>1242.0</ele>
      </trkpt>
      <trkpt lat="45.86805" lon="6.48805">
        <ele>1247.0</ele>
      </trkpt>
      <trkpt lat="45.86847" lon="6.48728">
        <ele>1255.0</ele>
      </trkpt>
      <trkpt lat="45.86891" lon="6.48505">
        <ele>1269.0</ele>
      </trkpt>
      <trkpt lat="45.86846" lon="6.48415">
        <ele>1275.0</ele>
      </trkpt>
      <trkpt lat="45.8686" lon="6.48345">
        <ele>1279.0</ele>
      </trkpt>
      <trkpt lat="45.86908" lon="6.48292">
        <ele>1283.0</ele>
      </trkpt>
      <trkpt lat="45.86908" lon="6.48185">
        <ele>1290.0</ele>
      </trkpt>
      <trkpt lat="45.86928" lon="6.48194">
        <ele>1292.0</ele>
      </trkpt>
      <trkpt lat="45.86945" lon="6.48293">
        <ele>1297.0</ele>
      </trkpt>
      <trkpt lat="45.87008" lon="6.4837">
        <ele>1303.0</ele>
      </trkpt>
      <trkpt lat="45.87047" lon="6.4854">
        <ele>1310.0</ele>
      </trkpt>
      <trkpt lat="45.87112" lon="6.48632">
        <ele>1316.0</ele>
      </trkpt>
      <trkpt lat="45.87065" lon="6.48674">
        <ele>1317.0</ele>
      </trkpt>
      <trkpt lat="45.87052" lon="6.48746">
        <ele>1317.0</ele>
      </trkpt>
      <trkpt lat="45.87094" lon="6.48712">
        <ele>1317.0</ele>
      </trkpt>
      <trkpt lat="45.87163" lon="6.48661">
        <ele>1326.0</ele>
      </trkpt>
      <trkpt lat="45.87168" lon="6.48614">
        <ele>1334.0</ele>
      </trkpt>
      <trkpt lat="45.87183" lon="6.4855">
        <ele>1343.0</ele>
      </trkpt>
      <trkpt lat="45.87169" lon="6.48496">
        <ele>1351.0</ele>
      </trkpt>
      <trkpt lat="45.87126" lon="6.48367">
        <ele>1354.0</ele>
      </trkpt>
      <trkpt lat="45.87078" lon="6.48225">
        <ele>1357.0</ele>
      </trkpt>
      <trkpt lat="45.87114" lon="6.48062">
        <ele>1373.0</ele>
      </trkpt>
      <trkpt lat="45.87143" lon="6.48064">
        <ele>1382.0</ele>
      </trkpt>
      <trkpt lat="45.8715" lon="6.48124">
        <ele>1386.0</ele>
      </trkpt>
      <trkpt lat="45.87167" lon="6.4806">
        <ele>1390.0</ele>
      </trkpt>
      <trkpt lat="45.87167" lon="6.47864">
        <ele>1396.0</ele>
      </trkpt>
      <trkpt lat="45.87184" lon="6.47662">
        <ele>1398.0</ele>
      </trkpt>
      <trkpt lat="45.87209" lon="6.47587">
        <ele>1404.0</ele>
      </trkpt>
      <trkpt lat="45.87192" lon="6.47507">
        <ele>1409.0</ele>
      </trkpt>
      <trkpt lat="45.87146" lon="6.47485">
        <ele>1415.0</ele>
      </trkpt>
      <trkpt lat="45.87194" lon="6.47466">
        <ele>1419.0</ele>
      </trkpt>
      <trkpt lat="45.87183" lon="6.47434">
        <ele>1422.0</ele>
      </trkpt>
      <trkpt lat="45.87164" lon="6.47396">
        <ele>1426.0</ele>
      </trkpt>
      <trkpt lat="45.87229" lon="6.47422">
        <ele>1432.0</ele>
      </trkpt>
      <trkpt lat="45.87197" lon="6.47339">
        <ele>1437.0</ele>
      </trkpt>
      <trkpt lat="45.87137" lon="6.47187">
        <ele>1449.0</ele>
      </trkpt>
      <trkpt lat="45.8709" lon="6.46959">
        <ele>1462.0</ele>
      </trkpt>
      <trkpt lat="45.87146" lon="6.4686">
        <ele>1472.0</ele>
      </trkpt>
      <trkpt lat="45.87159" lon="6.46721">
        <ele>1479.0</ele>
      </trkpt>
      <trkpt lat="45.87188" lon="6.46598">
        <ele>1483.0</ele>
      </trkpt>
      <trkpt lat="45.87227" lon="6.46489">
        <ele>1485.0</ele>
      </trkpt>
      <trkpt lat="45.87399" lon="6.461">
        <ele>1477.0</ele>
      </trkpt>
      <trkpt lat="45.87428" lon="6.45713">
        <ele>1463.0</ele>
      </trkpt>
      <trkpt lat="45.8753" lon="6.45566">
        <ele>1449.0</ele>
      </trkpt>
      <trkpt lat="45.8761" lon="6.45483">
        <ele>1441.0</ele>
      </trkpt>
      <trkpt lat="45.87477" lon="6.4551">
        <ele>1439.0</ele>
      </trkpt>
      <trkpt lat="45.87364" lon="6.4551">
        <ele>1434.0</ele>
      </trkpt>
      <trkpt lat="45.87553" lon="6.45395">
        <ele>1423.0</ele>
      </trkpt>
      <trkpt lat="45.87767" lon="6.45225">
        <ele>1403.0</ele>
      </trkpt>
      <trkpt lat="45.87898" lon="6.45113">
        <ele>1389.0</ele>
      </trkpt>
      <trkpt lat="45.87879" lon="6.45074">
        <ele>1385.0</ele>
      </trkpt>
      <trkpt lat="45.87766" lon="6.45087">
        <ele>1378.0</ele>
      </trkpt>
      <trkpt lat="45.87687" lon="6.45113">
        <ele>1369.0</ele>
      </trkpt>
      <trkpt lat="45.87787" lon="6.44946">
        <ele>1356.0</ele>
      </trkpt>
      <trkpt lat="45.87979" lon="6.44787">
        <ele>1338.0</ele>
      </trkpt>
      <trkpt lat="45.88046" lon="6.44646">
        <ele>1332.0</ele>
      </trkpt>
      <trkpt lat="45.88129" lon="6.44502">
        <ele>1327.0</ele>
      </trkpt>
      <trkpt lat="45.88179" lon="6.44383">
        <ele>1321.0</ele>
      </trkpt>
      <trkpt lat="45.88101" lon="6.44419">
        <ele>1314.0</ele>
      </trkpt>
      <trkpt lat="45.88023" lon="6.44436">
        <ele>1299.0</ele>
      </trkpt>
      <trkpt lat="45.88098" lon="6.44322">
        <ele>1291.0</ele>
      </trkpt>
      <trkpt lat="45.88169" lon="6.44242">
        <ele>1283.0</ele>
      </trkpt>
      <trkpt lat="45.88257" lon="6.44104">
        <ele>1275.0</ele>
      </trkpt>
      <trkpt lat="45.88282" lon="6.43973">
        <ele>1270.0</ele>
      </trkpt>
      <trkpt lat="45.8835" lon="6.43806">
        <ele>1267.0</ele>
      </trkpt>
      <trkpt lat="45.88416" lon="6.43573">
        <ele>1245.0</ele>
      </trkpt>
      <trkpt lat="45.88527" lon="6.43418">
        <ele>1239.0</ele>
      </trkpt>
      <trkpt lat="45.88634" lon="6.43334">
        <ele>1230.0</ele>
      </trkpt>
      <trkpt lat="45.88703" lon="6.43333">
        <ele>1223.0</ele>
      </trkpt>
      <trkpt lat="45.88981" lon="6.43146">
        <ele>1210.0</ele>
      </trkpt>
      <trkpt lat="45.89185" lon="6.43027">
        <ele>1192.0</ele>
      </trkpt>
      <trkpt lat="45.89375" lon="6.42962">
        <ele>1180.0</ele>
      </trkpt>
      <trkpt lat="45.8954" lon="6.42945">
        <ele>1168.0</ele>
      </trkpt>
      <trkpt lat="45.89623" lon="6.42931">
        <ele>1160.0</ele>
      </trkpt>
      <trkpt lat="45.8979" lon="6.42851">
        <ele>1148.0</ele>
      </trkpt>
      <trkpt lat="45.89943" lon="6.4275">
        <ele>1137.0</ele>
      </trkpt>
      <trkpt lat="45.89989" lon="6.42685">
        <ele>1134.0</ele>
      </trkpt>
      <trkpt lat="45.89986" lon="6.42547">
        <ele>1129.0</ele>
      </trkpt>
      <trkpt lat="45.9002" lon="6.42517">
        <ele>1126.0</ele>
      </trkpt>
      <trkpt lat="45.90126" lon="6.42536">
        <ele>1117.0</ele>
      </trkpt>
      <trkpt lat="45.90261" lon="6.42567">
        <ele>1100.0</ele>
      </trkpt>
      <trkpt lat="45.90392" lon="6.42695">
        <ele>1091.0</ele>
      </trkpt>
      <trkpt lat="45.90498" lon="6.42957">
        <ele>1081.0</ele>
      </trkpt>
      <trkpt lat="45.9057" lon="6.43044">
        <ele>1075.0</ele>
      </trkpt>
      <trkpt lat="45.90605" lon="6.43067">
        <ele>1073.0</ele>
      </trkpt>
      <trkpt lat="45.90622" lon="6.43033">
        <ele>1072.0</ele>
      </trkpt>
      <trkpt lat="45.90656" lon="6.42919">
        <ele>1067.0</ele>
      </trkpt>
      <trkpt lat="45.9062" lon="6.42722">
        <ele>1058.0</ele>
      </trkpt>
      <trkpt lat="45.90612" lon="6.42694">
        <ele>1056.0</ele>
      </trkpt>
      <trkpt lat="45.9059" lon="6.426">
        <ele>1052.0</ele>
      </trkpt>
      <trkpt lat="45.90593" lon="6.42376">
        <ele>1044.0</ele>
      </trkpt>
      <trkpt lat="45.90609" lon="6.42192">
        <ele>1043.0</ele>
      </trkpt>
      <trkpt lat="45.90636" lon="6.42114">
        <ele>1042.0</ele>
      </trkpt>
      <trkpt lat="45.90697" lon="6.4202">
        <ele>1042.0</ele>
      </trkpt>
      <trkpt lat="45.90778" lon="6.41918">
        <ele>1046.0</ele>
      </trkpt>
      <trkpt lat="45.90912" lon="6.41893">
        <ele>1048.0</ele>
      </trkpt>
      <trkpt lat="45.91076" lon="6.41963">
        <ele>1029.0</ele>
      </trkpt>
      <trkpt lat="45.91158" lon="6.41936">
        <ele>1026.0</ele>
      </trkpt>
      <trkpt lat="45.91224" lon="6.41909">
        <ele>1027.0</ele>
      </trkpt>
      <trkpt lat="45.91284" lon="6.41836">
        <ele>1024.0</ele>
      </trkpt>
      <trkpt lat="45.91407" lon="6.41829">
        <ele>1018.0</ele>
      </trkpt>
      <trkpt lat="45.91512" lon="6.41849">
        <ele>1014.0</ele>
      </trkpt>
      <trkpt lat="45.91646" lon="6.41977">
        <ele>1007.0</ele>
      </trkpt>
      <trkpt lat="45.91726" lon="6.41901">
        <ele>1001.0</ele>
      </trkpt>
      <trkpt lat="45.91875" lon="6.41662">
        <ele>1002.0</ele>
      </trkpt>
      <trkpt lat="45.9199" lon="6.41523">
        <ele>993.0</ele>
      </trkpt>
      <trkpt lat="45.92084" lon="6.41489">
        <ele>984.0</ele>
      </trkpt>
      <trkpt lat="45.92171" lon="6.41534">
        <ele>981.0</ele>
      </trkpt>
      <trkpt lat="45.92285" lon="6.41407">
        <ele>977.0</ele>
      </trkpt>
      <trkpt lat="45.92336" lon="6.41295">
        <ele>973.0</ele>
      </trkpt>
      <trkpt lat="45.92322" lon="6.41209">
        <ele>970.0</ele>
      </trkpt>
      <trkpt lat="45.92273" lon="6.41134">
        <ele>967.0</ele>
      </trkpt>
      <trkpt lat="45.92284" lon="6.4104">
        <ele>964.0</ele>
      </trkpt>
      <trkpt lat="45.92369" lon="6.40998">
        <ele>961.0</ele>
      </trkpt>
      <trkpt lat="45.92466" lon="6.40937">
        <ele>956.0</ele>
      </trkpt>
      <trkpt lat="45.92561" lon="6.41038">
        <ele>951.0</ele>
      </trkpt>
      <trkpt lat="45.92832" lon="6.41216">
        <ele>941.0</ele>
      </trkpt>
      <trkpt lat="45.92932" lon="6.41152">
        <ele>924.0</ele>
      </trkpt>
      <trkpt lat="45.92833" lon="6.41157">
        <ele>917.0</ele>
      </trkpt>
      <trkpt lat="45.92729" lon="6.41006">
        <ele>909.0</ele>
      </trkpt>
      <trkpt lat="45.92753" lon="6.40858">
        <ele>904.0</ele>
      </trkpt>
      <trkpt lat="45.92871" lon="6.40571">
        <ele>889.0</ele>
      </trkpt>
      <trkpt lat="45.9295" lon="6.40519">
        <ele>879.0</ele>
      </trkpt>
      <trkpt lat="45.9313" lon="6.40493">
        <ele>874.0</ele>
      </trkpt>
      <trkpt lat="45.93246" lon="6.40255">
        <ele>874.0</ele>
      </trkpt>
      <trkpt lat="45.93404" lon="6.40077">
        <ele>868.0</ele>
      </trkpt>
      <trkpt lat="45.93606" lon="6.40045">
        <ele>861.0</ele>
      </trkpt>
      <trkpt lat="45.93717" lon="6.40076">
        <ele>861.0</ele>
      </trkpt>
      <trkpt lat="45.93776" lon="6.40099">
        <ele>869.0</ele>
      </trkpt>
      <trkpt lat="45.93798" lon="6.4013">
        <ele>873.0</ele>
      </trkpt>
      <trkpt lat="45.93827" lon="6.40181">
        <ele>878.0</ele>
      </trkpt>
      <trkpt lat="45.93944" lon="6.40213">
        <ele>867.0</ele>
      </trkpt>
      <trkpt lat="45.93985" lon="6.40201">
        <ele>857.0</ele>
      </trkpt>
      <trkpt lat="45.94018" lon="6.40203">
        <ele>853.0</ele>
      </trkpt>
      <trkpt lat="45.94094" lon="6.40251">
        <ele>852.0</ele>
      </trkpt>
      <trkpt lat="45.9413" lon="6.40278">
        <ele>852.0</ele>
      </trkpt>
      <trkpt lat="45.9427" lon="6.40306">
        <ele>849.0</ele>
      </trkpt>
      <trkpt lat="45.94319" lon="6.40306">
        <ele>848.0</ele>
      </trkpt>
      <trkpt lat="45.94636" lon="6.40082">
        <ele>823.0</ele>
      </trkpt>
      <trkpt lat="45.94984" lon="6.39679">
        <ele>815.0</ele>
      </trkpt>
      <trkpt lat="45.95028" lon="6.39572">
        <ele>815.0</ele>
      </trkpt>
      <trkpt lat="45.9532" lon="6.39027">
        <ele>791.0</ele>
      </trkpt>
      <trkpt lat="45.95495" lon="6.38973">
        <ele>784.0</ele>
      </trkpt>
      <trkpt lat="45.95825" lon="6.38788">
        <ele>779.0</ele>
      </trkpt>
      <trkpt lat="45.95977" lon="6.3875">
        <ele>774.0</ele>
      </trkpt>
      <trkpt lat="45.96031" lon="6.38706">
        <ele>773.0</ele>
      </trkpt>
      <trkpt lat="45.96294" lon="6.38589">
        <ele>769.0</ele>
      </trkpt>
      <trkpt lat="45.96419" lon="6.38621">
        <ele>767.0</ele>
      </trkpt>
      <trkpt lat="45.96595" lon="6.38537">
        <ele>763.0</ele>
      </trkpt>
      <trkpt lat="45.96709" lon="6.38537">
        <ele>763.0</ele>
      </trkpt>
      <trkpt lat="45.96919" lon="6.38454">
        <ele>757.0</ele>
      </trkpt>
      <trkpt lat="45.9704" lon="6.3848">
        <ele>755.0</ele>
      </trkpt>
      <trkpt lat="45.97295" lon="6.38429">
        <ele>756.0</ele>
      </trkpt>
      <trkpt lat="45.97467" lon="6.38646">
        <ele>749.0</ele>
      </trkpt>
      <trkpt lat="45.97828" lon="6.38707">
        <ele>744.0</ele>
      </trkpt>
      <trkpt lat="45.98172" lon="6.38738">
        <ele>737.0</ele>
      </trkpt>
      <trkpt lat="45.98402" lon="6.38766">
        <ele>734.0</ele>
      </trkpt>
      <trkpt lat="45.98513" lon="6.389">
        <ele>734.0</ele>
      </trkpt>
      <trkpt lat="45.987" lon="6.39111">
        <ele>733.0</ele>
      </trkpt>
      <trkpt lat="45.98795" lon="6.39225">
        <ele>734.0</ele>
      </trkpt>
      <trkpt lat="45.98925" lon="6.39348">
        <ele>739.0</ele>
      </trkpt>
      <trkpt lat="45.98976" lon="6.39335">
        <ele>742.0</ele>
      </trkpt>
      <trkpt lat="45.99027" lon="6.3938">
        <ele>744.0</ele>
      </trkpt>
      <trkpt lat="45.99078" lon="6.39369">
        <ele>746.0</ele>
      </trkpt>
      <trkpt lat="45.99146" lon="6.39378">
        <ele>747.0</ele>
      </trkpt>
      <trkpt lat="45.99183" lon="6.39321">
        <ele>747.0</ele>
      </trkpt>
      <trkpt lat="45.99269" lon="6.39353">
        <ele>749.0</ele>
      </trkpt>
      <trkpt lat="45.99452" lon="6.39445">
        <ele>753.0</ele>
      </trkpt>
      <trkpt lat="45.99604" lon="6.39431">
        <ele>745.0</ele>
      </trkpt>
      <trkpt lat="45.99825" lon="6.39451">
        <ele>739.0</ele>
      </trkpt>
      <trkpt lat="45.99949" lon="6.39462">
        <ele>736.0</ele>
      </trkpt>
      <trkpt lat="46.00015" lon="6.39548">
        <ele>735.0</ele>
      </trkpt>
      <trkpt lat="46.00065" lon="6.39604">
        <ele>734.0</ele>
      </trkpt>
      <trkpt lat="46.00191" lon="6.3962">
        <ele>731.0</ele>
      </trkpt>
      <trkpt lat="46.00309" lon="6.39675">
        <ele>725.0</ele>
      </trkpt>
      <trkpt lat="46.00386" lon="6.39718">
        <ele>722.0</ele>
      </trkpt>
      <trkpt lat="46.00484" lon="6.39756">
        <ele>721.0</ele>
      </trkpt>
      <trkpt lat="46.00522" lon="6.39724">
        <ele>721.0</ele>
      </trkpt>
      <trkpt lat="46.00606" lon="6.39693">
        <ele>721.0</ele>
      </trkpt>
      <trkpt lat="46.01028" lon="6.39684">
        <ele>720.0</ele>
      </trkpt>
      <trkpt lat="46.01124" lon="6.39605">
        <ele>720.0</ele>
      </trkpt>
      <trkpt lat="46.01183" lon="6.39583">
        <ele>719.0</ele>
      </trkpt>
      <trkpt lat="46.01342" lon="6.39651">
        <ele>715.0</ele>
      </trkpt>
      <trkpt lat="46.01545" lon="6.39604">
        <ele>716.0</ele>
      </trkpt>
      <trkpt lat="46.01688" lon="6.39628">
        <ele>715.0</ele>
      </trkpt>
      <trkpt lat="46.01804" lon="6.39657">
        <ele>714.0</ele>
      </trkpt>
      <trkpt lat="46.01896" lon="6.39703">
        <ele>714.0</ele>
      </trkpt>
      <trkpt lat="46.01919" lon="6.39686">
        <ele>714.0</ele>
      </trkpt>
      <trkpt lat="46.01945" lon="6.39633">
        <ele>713.0</ele>
      </trkpt>
      <trkpt lat="46.01996" lon="6.39622">
        <ele>712.0</ele>
      </trkpt>
      <trkpt lat="46.0209" lon="6.39687">
        <ele>710.0</ele>
      </trkpt>
      <trkpt lat="46.02137" lon="6.39711">
        <ele>707.0</ele>
      </trkpt>
      <trkpt lat="46.02176" lon="6.39682">
        <ele>705.0</ele>
      </trkpt>
      <trkpt lat="46.02259" lon="6.39551">
        <ele>699.0</ele>
      </trkpt>
      <trkpt lat="46.02306" lon="6.39529">
        <ele>695.0</ele>
      </trkpt>
      <trkpt lat="46.02344" lon="6.39527">
        <ele>692.0</ele>
      </trkpt>
      <trkpt lat="46.02395" lon="6.39489">
        <ele>687.0</ele>
      </trkpt>
      <trkpt lat="46.02438" lon="6.3949">
        <ele>681.0</ele>
      </trkpt>
      <trkpt lat="46.02461" lon="6.39432">
        <ele>677.0</ele>
      </trkpt>
      <trkpt lat="46.0252" lon="6.39348">
        <ele>668.0</ele>
      </trkpt>
      <trkpt lat="46.02643" lon="6.39213">
        <ele>665.0</ele>
      </trkpt>
      <trkpt lat="46.02731" lon="6.3917">
        <ele>667.0</ele>
      </trkpt>
      <trkpt lat="46.0277" lon="6.39226">
        <ele>670.0</ele>
      </trkpt>
      <trkpt lat="46.0282" lon="6.39313">
        <ele>671.0</ele>
      </trkpt>
      <trkpt lat="46.02861" lon="6.39306">
        <ele>669.0</ele>
      </trkpt>
      <trkpt lat="46.02875" lon="6.39145">
        <ele>664.0</ele>
      </trkpt>
      <trkpt lat="46.02892" lon="6.39098">
        <ele>660.0</ele>
      </trkpt>
      <trkpt lat="46.02943" lon="6.39108">
        <ele>657.0</ele>
      </trkpt>
      <trkpt lat="46.03063" lon="6.39062">
        <ele>650.0</ele>
      </trkpt>
      <trkpt lat="46.03238" lon="6.38908">
        <ele>648.0</ele>
      </trkpt>
      <trkpt lat="46.03346" lon="6.38755">
        <ele>635.0</ele>
      </trkpt>
      <trkpt lat="46.03398" lon="6.38656">
        <ele>623.0</ele>
      </trkpt>
      <trkpt lat="46.0342" lon="6.38602">
        <ele>621.0</ele>
      </trkpt>
      <trkpt lat="46.03431" lon="6.38507">
        <ele>619.0</ele>
      </trkpt>
      <trkpt lat="46.03542" lon="6.38378">
        <ele>616.0</ele>
      </trkpt>
      <trkpt lat="46.03605" lon="6.38373">
        <ele>615.0</ele>
      </trkpt>
      <trkpt lat="46.03659" lon="6.38346">
        <ele>614.0</ele>
      </trkpt>
      <trkpt lat="46.03727" lon="6.38298">
        <ele>613.0</ele>
      </trkpt>
      <trkpt lat="46.03858" lon="6.38238">
        <ele>605.0</ele>
      </trkpt>
      <trkpt lat="46.03919" lon="6.38183">
        <ele>590.0</ele>
      </trkpt>
      <trkpt lat="46.0396" lon="6.38097">
        <ele>580.0</ele>
      </trkpt>
      <trkpt lat="46.04075" lon="6.3802">
        <ele>581.0</ele>
      </trkpt>
      <trkpt lat="46.04173" lon="6.38">
        <ele>580.0</ele>
      </trkpt>
      <trkpt lat="46.04225" lon="6.37959">
        <ele>578.0</ele>
      </trkpt>
      <trkpt lat="46.04302" lon="6.37946">
        <ele>576.0</ele>
      </trkpt>
      <trkpt lat="46.04362" lon="6.37929">
        <ele>574.0</ele>
      </trkpt>
      <trkpt lat="46.04411" lon="6.37859">
        <ele>572.0</ele>
      </trkpt>
      <trkpt lat="46.04453" lon="6.37831">
        <ele>570.0</ele>
      </trkpt>
      <trkpt lat="46.045" lon="6.37822">
        <ele>567.0</ele>
      </trkpt>
      <trkpt lat="46.04536" lon="6.37812">
        <ele>564.0</ele>
      </trkpt>
      <trkpt lat="46.04549" lon="6.37749">
        <ele>560.0</ele>
      </trkpt>
      <trkpt lat="46.04562" lon="6.37678">
        <ele>556.0</ele>
      </trkpt>
      <trkpt lat="46.04604" lon="6.37656">
        <ele>555.0</ele>
      </trkpt>
      <trkpt lat="46.04642" lon="6.37641">
        <ele>554.0</ele>
      </trkpt>
      <trkpt lat="46.04655" lon="6.3758">
        <ele>554.0</ele>
      </trkpt>
      <trkpt lat="46.04687" lon="6.37577">
        <ele>553.0</ele>
      </trkpt>
      <trkpt lat="46.04748" lon="6.37567">
        <ele>551.0</ele>
      </trkpt>
      <trkpt lat="46.04795" lon="6.37602">
        <ele>549.0</ele>
      </trkpt>
      <trkpt lat="46.04826" lon="6.37611">
        <ele>547.0</ele>
      </trkpt>
      <trkpt lat="46.04852" lon="6.37575">
        <ele>545.0</ele>
      </trkpt>
      <trkpt lat="46.04947" lon="6.37619">
        <ele>543.0</ele>
      </trkpt>
      <trkpt lat="46.04982" lon="6.37638">
        <ele>543.0</ele>
      </trkpt>
      <trkpt lat="46.05017" lon="6.3762">
        <ele>542.0</ele>
      </trkpt>
      <trkpt lat="46.05062" lon="6.37666">
        <ele>541.0</ele>
      </trkpt>
      <trkpt lat="46.05104" lon="6.37668">
        <ele>539.0</ele>
      </trkpt>
      <trkpt lat="46.05153" lon="6.37603">
        <ele>537.0</ele>
      </trkpt>
      <trkpt lat="46.05188" lon="6.37553">
        <ele>535.0</ele>
      </trkpt>
      <trkpt lat="46.05215" lon="6.3748">
        <ele>533.0</ele>
      </trkpt>
      <trkpt lat="46.05266" lon="6.37407">
        <ele>530.0</ele>
      </trkpt>
      <trkpt lat="46.05375" lon="6.37406">
        <ele>522.0</ele>
      </trkpt>
      <trkpt lat="46.05389" lon="6.37364">
        <ele>517.0</ele>
      </trkpt>
      <trkpt lat="46.05356" lon="6.37319">
        <ele>512.0</ele>
      </trkpt>
      <trkpt lat="46.05384" lon="6.37259">
        <ele>507.0</ele>
      </trkpt>
      <trkpt lat="46.05516" lon="6.37195">
        <ele>494.0</ele>
      </trkpt>
      <trkpt lat="46.05663" lon="6.37359">
        <ele>485.0</ele>
      </trkpt>
      <trkpt lat="46.0569" lon="6.37421">
        <ele>485.0</ele>
      </trkpt>
      <trkpt lat="46.05718" lon="6.37518">
        <ele>485.0</ele>
      </trkpt>
      <trkpt lat="46.05733" lon="6.37566">
        <ele>484.0</ele>
      </trkpt>
      <trkpt lat="46.05781" lon="6.37701">
        <ele>482.0</ele>
      </trkpt>
      <trkpt lat="46.05797" lon="6.37824">
        <ele>480.0</ele>
      </trkpt>
      <trkpt lat="46.0582" lon="6.37908">
        <ele>477.0</ele>
      </trkpt>
      <trkpt lat="46.05941" lon="6.38133">
        <ele>474.0</ele>
      </trkpt>
      <trkpt lat="46.05865" lon="6.38277">
        <ele>473.0</ele>
      </trkpt>
      <trkpt lat="46.0583" lon="6.38368">
        <ele>472.0</ele>
      </trkpt>
      <trkpt lat="46.0583" lon="6.38574">
        <ele>470.0</ele>
      </trkpt>
      <trkpt lat="46.05888" lon="6.38785">
        <ele>469.0</ele>
      </trkpt>
      <trkpt lat="46.05977" lon="6.38937">
        <ele>468.0</ele>
      </trkpt>
      <trkpt lat="46.06054" lon="6.39063">
        <ele>466.0</ele>
      </trkpt>
      <trkpt lat="46.06128" lon="6.39134">
        <ele>464.0</ele>
      </trkpt>
      <trkpt lat="46.06217" lon="6.39327">
        <ele>463.0</ele>
      </trkpt>
      <trkpt lat="46.06288" lon="6.39494">
        <ele>462.0</ele>
      </trkpt>
      <trkpt lat="46.06426" lon="6.39771">
        <ele>459.0</ele>
      </trkpt>
      <trkpt lat="46.06469" lon="6.39847">
        <ele>457.0</ele>
      </trkpt>
      <trkpt lat="46.06474" lon="6.39973">
        <ele>457.0</ele>
      </trkpt>
      <trkpt lat="46.06504" lon="6.40042">
        <ele>456.0</ele>
      </trkpt>
      <trkpt lat="46.06587" lon="6.4013">
        <ele>454.0</ele>
      </trkpt>
      <trkpt lat="46.0672" lon="6.40473">
        <ele>452.0</ele>
      </trkpt>
      <trkpt lat="46.06773" lon="6.40566">
        <ele>452.0</ele>
      </trkpt>
      <trkpt lat="46.0683" lon="6.40646">
        <ele>452.0</ele>
      </trkpt>
      <trkpt lat="46.06807" lon="6.40834">
        <ele>451.0</ele>
      </trkpt>
      <trkpt lat="46.06805" lon="6.40869">
        <ele>451.0</ele>
      </trkpt>
      <trkpt lat="46.06809" lon="6.41173">
        <ele>448.0</ele>
      </trkpt>
      <trkpt lat="46.06799" lon="6.41221">
        <ele>448.0</ele>
      </trkpt>
      <trkpt lat="46.06785" lon="6.41458">
        <ele>448.0</ele>
      </trkpt>
      <trkpt lat="46.06803" lon="6.41624">
        <ele>448.0</ele>
      </trkpt>
      <trkpt lat="46.06963" lon="6.41654">
        <ele>448.0</ele>
      </trkpt>
      <trkpt lat="46.06946" lon="6.4193">
        <ele>448.0</ele>
      </trkpt>
      <trkpt lat="46.06939" lon="6.4202">
        <ele>448.0</ele>
      </trkpt>
      <trkpt lat="46.0691" lon="6.42183">
        <ele>448.0</ele>
      </trkpt>
      <trkpt lat="46.06665" lon="6.42352">
        <ele>449.0</ele>
      </trkpt>
      <trkpt lat="46.06624" lon="6.42494">
        <ele>449.0</ele>
      </trkpt>
      <trkpt lat="46.06645" lon="6.42865">
        <ele>449.0</ele>
      </trkpt>
      <trkpt lat="46.06639" lon="6.4317">
        <ele>449.0</ele>
      </trkpt>
      <trkpt lat="46.06544" lon="6.43513">
        <ele>450.0</ele>
      </trkpt>
      <trkpt lat="46.06533" lon="6.43678">
        <ele>452.0</ele>
      </trkpt>
      <trkpt lat="46.06455" lon="6.43738">
        <ele>454.0</ele>
      </trkpt>
      <trkpt lat="46.06393" lon="6.43949">
        <ele>458.0</ele>
      </trkpt>
      <trkpt lat="46.06387" lon="6.44154">
        <ele>463.0</ele>
      </trkpt>
      <trkpt lat="46.06319" lon="6.44181">
        <ele>465.0</ele>
      </trkpt>
      <trkpt lat="46.06258" lon="6.44199">
        <ele>468.0</ele>
      </trkpt>
      <trkpt lat="46.06171" lon="6.44228">
        <ele>473.0</ele>
      </trkpt>
      <trkpt lat="46.06045" lon="6.44156">
        <ele>485.0</ele>
      </trkpt>
      <trkpt lat="46.06054" lon="6.43973">
        <ele>504.0</ele>
      </trkpt>
      <trkpt lat="46.06017" lon="6.43801">
        <ele>520.0</ele>
      </trkpt>
      <trkpt lat="46.06011" lon="6.43678">
        <ele>533.0</ele>
      </trkpt>
      <trkpt lat="46.06041" lon="6.4363">
        <ele>538.0</ele>
      </trkpt>
      <trkpt lat="46.06032" lon="6.43606">
        <ele>541.0</ele>
      </trkpt>
      <trkpt lat="46.05993" lon="6.43641">
        <ele>544.0</ele>
      </trkpt>
      <trkpt lat="46.05927" lon="6.43788">
        <ele>554.0</ele>
      </trkpt>
      <trkpt lat="46.05859" lon="6.43943">
        <ele>570.0</ele>
      </trkpt>
      <trkpt lat="46.05808" lon="6.43997">
        <ele>583.0</ele>
      </trkpt>
      <trkpt lat="46.05793" lon="6.44116">
        <ele>595.0</ele>
      </trkpt>
      <trkpt lat="46.05803" lon="6.44256">
        <ele>608.0</ele>
      </trkpt>
      <trkpt lat="46.05848" lon="6.4446">
        <ele>623.0</ele>
      </trkpt>
      <trkpt lat="46.05837" lon="6.44585">
        <ele>634.0</ele>
      </trkpt>
      <trkpt lat="46.05873" lon="6.44718">
        <ele>644.0</ele>
      </trkpt>
      <trkpt lat="46.0581" lon="6.44609">
        <ele>652.0</ele>
      </trkpt>
      <trkpt lat="46.05804" lon="6.44512">
        <ele>662.0</ele>
      </trkpt>
      <trkpt lat="46.05767" lon="6.44415">
        <ele>672.0</ele>
      </trkpt>
      <trkpt lat="46.05701" lon="6.44326">
        <ele>681.0</ele>
      </trkpt>
      <trkpt lat="46.05654" lon="6.44177">
        <ele>689.0</ele>
      </trkpt>
      <trkpt lat="46.05649" lon="6.44057">
        <ele>697.0</ele>
      </trkpt>
      <trkpt lat="46.05651" lon="6.43977">
        <ele>705.0</ele>
      </trkpt>
      <trkpt lat="46.05654" lon="6.43886">
        <ele>713.0</ele>
      </trkpt>
      <trkpt lat="46.0564" lon="6.43786">
        <ele>722.0</ele>
      </trkpt>
      <trkpt lat="46.05644" lon="6.43702">
        <ele>730.0</ele>
      </trkpt>
      <trkpt lat="46.05643" lon="6.43611">
        <ele>737.0</ele>
      </trkpt>
      <trkpt lat="46.05645" lon="6.43562">
        <ele>739.0</ele>
      </trkpt>
      <trkpt lat="46.05668" lon="6.43521">
        <ele>741.0</ele>
      </trkpt>
      <trkpt lat="46.05684" lon="6.43469">
        <ele>744.0</ele>
      </trkpt>
      <trkpt lat="46.0569" lon="6.43394">
        <ele>748.0</ele>
      </trkpt>
      <trkpt lat="46.05689" lon="6.43369">
        <ele>754.0</ele>
      </trkpt>
      <trkpt lat="46.05675" lon="6.43373">
        <ele>758.0</ele>
      </trkpt>
      <trkpt lat="46.05668" lon="6.4342">
        <ele>764.0</ele>
      </trkpt>
      <trkpt lat="46.05649" lon="6.43481">
        <ele>773.0</ele>
      </trkpt>
      <trkpt lat="46.05608" lon="6.43505">
        <ele>782.0</ele>
      </trkpt>
      <trkpt lat="46.05598" lon="6.43551">
        <ele>785.0</ele>
      </trkpt>
      <trkpt lat="46.05585" lon="6.43651">
        <ele>792.0</ele>
      </trkpt>
      <trkpt lat="46.05547" lon="6.43754">
        <ele>799.0</ele>
      </trkpt>
      <trkpt lat="46.05509" lon="6.4382">
        <ele>799.0</ele>
      </trkpt>
      <trkpt lat="46.05541" lon="6.43912">
        <ele>798.0</ele>
      </trkpt>
      <trkpt lat="46.05559" lon="6.44107">
        <ele>811.0</ele>
      </trkpt>
      <trkpt lat="46.05568" lon="6.44252">
        <ele>840.0</ele>
      </trkpt>
      <trkpt lat="46.0558" lon="6.4434">
        <ele>848.0</ele>
      </trkpt>
      <trkpt lat="46.05591" lon="6.44448">
        <ele>855.0</ele>
      </trkpt>
      <trkpt lat="46.056" lon="6.44703">
        <ele>858.0</ele>
      </trkpt>
      <trkpt lat="46.05572" lon="6.44796">
        <ele>857.0</ele>
      </trkpt>
      <trkpt lat="46.0555" lon="6.44879">
        <ele>854.0</ele>
      </trkpt>
      <trkpt lat="46.05546" lon="6.4497">
        <ele>850.0</ele>
      </trkpt>
      <trkpt lat="46.05505" lon="6.45099">
        <ele>863.0</ele>
      </trkpt>
      <trkpt lat="46.05474" lon="6.45162">
        <ele>890.0</ele>
      </trkpt>
      <trkpt lat="46.05453" lon="6.45152">
        <ele>902.0</ele>
      </trkpt>
      <trkpt lat="46.05393" lon="6.45181">
        <ele>924.0</ele>
      </trkpt>
      <trkpt lat="46.0535" lon="6.45171">
        <ele>934.0</ele>
      </trkpt>
      <trkpt lat="46.05289" lon="6.4504">
        <ele>943.0</ele>
      </trkpt>
      <trkpt lat="46.05217" lon="6.44963">
        <ele>952.0</ele>
      </trkpt>
      <trkpt lat="46.052" lon="6.44898">
        <ele>954.0</ele>
      </trkpt>
      <trkpt lat="46.05105" lon="6.44768">
        <ele>959.0</ele>
      </trkpt>
      <trkpt lat="46.04993" lon="6.44604">
        <ele>977.0</ele>
      </trkpt>
      <trkpt lat="46.04871" lon="6.44548">
        <ele>991.0</ele>
      </trkpt>
      <trkpt lat="46.04918" lon="6.44456">
        <ele>1000.0</ele>
      </trkpt>
      <trkpt lat="46.04752" lon="6.44493">
        <ele>1013.0</ele>
      </trkpt>
      <trkpt lat="46.04747" lon="6.444">
        <ele>1026.0</ele>
      </trkpt>
      <trkpt lat="46.04887" lon="6.443">
        <ele>1036.0</ele>
      </trkpt>
      <trkpt lat="46.05049" lon="6.44205">
        <ele>1057.0</ele>
      </trkpt>
      <trkpt lat="46.05164" lon="6.44261">
        <ele>1069.0</ele>
      </trkpt>
      <trkpt lat="46.05235" lon="6.44382">
        <ele>1078.0</ele>
      </trkpt>
      <trkpt lat="46.05269" lon="6.44328">
        <ele>1085.0</ele>
      </trkpt>
      <trkpt lat="46.05235" lon="6.44181">
        <ele>1094.0</ele>
      </trkpt>
      <trkpt lat="46.05021" lon="6.44004">
        <ele>1114.0</ele>
      </trkpt>
      <trkpt lat="46.04901" lon="6.4398">
        <ele>1139.0</ele>
      </trkpt>
      <trkpt lat="46.04809" lon="6.4392">
        <ele>1146.0</ele>
      </trkpt>
      <trkpt lat="46.04621" lon="6.43934">
        <ele>1161.0</ele>
      </trkpt>
      <trkpt lat="46.04485" lon="6.43892">
        <ele>1179.0</ele>
      </trkpt>
      <trkpt lat="46.0442" lon="6.43838">
        <ele>1184.0</ele>
      </trkpt>
      <trkpt lat="46.04335" lon="6.43769">
        <ele>1194.0</ele>
      </trkpt>
      <trkpt lat="46.04151" lon="6.43676">
        <ele>1219.0</ele>
      </trkpt>
      <trkpt lat="46.04112" lon="6.43748">
        <ele>1227.0</ele>
      </trkpt>
      <trkpt lat="46.04124" lon="6.43682">
        <ele>1236.0</ele>
      </trkpt>
      <trkpt lat="46.04171" lon="6.43606">
        <ele>1244.0</ele>
      </trkpt>
      <trkpt lat="46.041" lon="6.43599">
        <ele>1253.0</ele>
      </trkpt>
      <trkpt lat="46.04058" lon="6.43735">
        <ele>1268.0</ele>
      </trkpt>
      <trkpt lat="46.04031" lon="6.43881">
        <ele>1288.0</ele>
      </trkpt>
      <trkpt lat="46.0402" lon="6.44202">
        <ele>1296.0</ele>
      </trkpt>
      <trkpt lat="46.03963" lon="6.44334">
        <ele>1305.0</ele>
      </trkpt>
      <trkpt lat="46.03912" lon="6.44296">
        <ele>1310.0</ele>
      </trkpt>
      <trkpt lat="46.03814" lon="6.4422">
        <ele>1317.0</ele>
      </trkpt>
      <trkpt lat="46.0377" lon="6.44168">
        <ele>1321.0</ele>
      </trkpt>
      <trkpt lat="46.03703" lon="6.44079">
        <ele>1327.0</ele>
      </trkpt>
      <trkpt lat="46.03641" lon="6.43986">
        <ele>1336.0</ele>
      </trkpt>
      <trkpt lat="46.0357" lon="6.4389">
        <ele>1347.0</ele>
      </trkpt>
      <trkpt lat="46.0355" lon="6.43842">
        <ele>1353.0</ele>
      </trkpt>
      <trkpt lat="46.03532" lon="6.43783">
        <ele>1359.0</ele>
      </trkpt>
      <trkpt lat="46.03464" lon="6.43713">
        <ele>1363.0</ele>
      </trkpt>
      <trkpt lat="46.03381" lon="6.4366">
        <ele>1369.0</ele>
      </trkpt>
      <trkpt lat="46.03375" lon="6.43632">
        <ele>1372.0</ele>
      </trkpt>
      <trkpt lat="46.03437" lon="6.43615">
        <ele>1377.0</ele>
      </trkpt>
      <trkpt lat="46.03502" lon="6.43649">
        <ele>1383.0</ele>
      </trkpt>
      <trkpt lat="46.0358" lon="6.43679">
        <ele>1391.0</ele>
      </trkpt>
      <trkpt lat="46.03578" lon="6.43652">
        <ele>1394.0</ele>
      </trkpt>
      <trkpt lat="46.0353" lon="6.43603">
        <ele>1398.0</ele>
      </trkpt>
      <trkpt lat="46.03493" lon="6.43532">
        <ele>1404.0</ele>
      </trkpt>
      <trkpt lat="46.0347" lon="6.43479">
        <ele>1409.0</ele>
      </trkpt>
      <trkpt lat="46.03395" lon="6.4341">
        <ele>1417.0</ele>
      </trkpt>
      <trkpt lat="46.03323" lon="6.43314">
        <ele>1428.0</ele>
      </trkpt>
      <trkpt lat="46.03254" lon="6.43203">
        <ele>1440.0</ele>
      </trkpt>
      <trkpt lat="46.03193" lon="6.43089">
        <ele>1450.0</ele>
      </trkpt>
      <trkpt lat="46.03155" lon="6.43">
        <ele>1459.0</ele>
      </trkpt>
      <trkpt lat="46.03125" lon="6.42856">
        <ele>1468.0</ele>
      </trkpt>
      <trkpt lat="46.03092" lon="6.42803">
        <ele>1473.0</ele>
      </trkpt>
      <trkpt lat="46.03059" lon="6.42712">
        <ele>1479.0</ele>
      </trkpt>
      <trkpt lat="46.03008" lon="6.42668">
        <ele>1481.0</ele>
      </trkpt>
      <trkpt lat="46.02997" lon="6.42635">
        <ele>1482.0</ele>
      </trkpt>
      <trkpt lat="46.03016" lon="6.42622">
        <ele>1483.0</ele>
      </trkpt>
      <trkpt lat="46.03093" lon="6.4266">
        <ele>1485.0</ele>
      </trkpt>
      <trkpt lat="46.03139" lon="6.42654">
        <ele>1489.0</ele>
      </trkpt>
      <trkpt lat="46.03207" lon="6.42674">
        <ele>1494.0</ele>
      </trkpt>
      <trkpt lat="46.03271" lon="6.42702">
        <ele>1500.0</ele>
      </trkpt>
      <trkpt lat="46.03309" lon="6.42745">
        <ele>1502.0</ele>
      </trkpt>
    </trkseg>
  </trk>
</gpx>