<?xml version="1.0" encoding="UTF-8"?>
<gpx xmlns="http://www.topografix.com/GPX/1/0" xmlns:xsi="http://www.w3.org/2001/XMLSchema-instance" xsi:schemaLocation="http://www.topografix.com/GPX/1/0 http://www.topografix.com/GPX/1/0/gpx.xsd" version="1.0" creator="GPSBabel - https://www.gpsbabel.org">
  <time>2026-01-20T04:15:06.299000Z</time>
  <bounds minlat="39.23303" maxlat="39.28933" minlon="-0.52216" maxlon="-0.46548" />
  <trk>
    <trkseg>
      <trkpt lat="39.23303" lon="-0.52216">
        <ele>54.0</ele>
      </trkpt>
      <trkpt lat="39.2335" lon="-0.51853">
        <ele>52.0</ele>
      </trkpt>
      <trkpt lat="39.23514" lon="-0.51478">
        <ele>52.0</ele>
      </trkpt>
      <trkpt lat="39.23551" lon="-0.51424">
        <ele>51.0</ele>
      </trkpt>
      <trkpt lat="39.23664" lon="-0.51346">
        <ele>51.0</ele>
      </trkpt>
      <trkpt lat="39.23686" lon="-0.51337">
        <ele>51.0</ele>
      </trkpt>
      <trkpt lat="39.23773" lon="-0.5136">
        <ele>50.0</ele>
      </trkpt>
      <trkpt lat="39.23828" lon="-0.51287">
        <ele>50.0</ele>
      </trkpt>
      <trkpt lat="39.23882" lon="-0.51241">
        <ele>50.0</ele>
      </trkpt>
      <trkpt lat="39.23947" lon="-0.51221">
        <ele>50.0</ele>
      </trkpt>
      <trkpt lat="39.24059" lon="-0.50891">
        <ele>50.0</ele>
      </trkpt>
      <trkpt lat="39.24062" lon="-0.50827">
        <ele>50.0</ele>
      </trkpt>
      <trkpt lat="39.24086" lon="-0.50734">
        <ele>50.0</ele>
      </trkpt>
      <trkpt lat="39.2421" lon="-0.50582">
        <ele>49.0</ele>
      </trkpt>
      <trkpt lat="39.24322" lon="-0.50482">
        <ele>48.0</ele>
      </trkpt>
      <trkpt lat="39.24336" lon="-0.50431">
        <ele>47.0</ele>
      </trkpt>
      <trkpt lat="39.2441" lon="-0.50354">
        <ele>47.0</ele>
      </trkpt>
      <trkpt lat="39.24364" lon="-0.50211">
        <ele>47.0</ele>
      </trkpt>
      <trkpt lat="39.2448" lon="-0.50096">
        <ele>47.0</ele>
      </trkpt>
      <trkpt lat="39.24513" lon="-0.50121">
        <ele>47.0</ele>
      </trkpt>
      <trkpt lat="39.24641" lon="-0.50007">
        <ele>47.0</ele>
      </trkpt>
      <trkpt lat="39.24855" lon="-0.49853">
        <ele>47.0</ele>
      </trkpt>
      <trkpt lat="39.24921" lon="-0.49952">
        <ele>48.0</ele>
      </trkpt>
      <trkpt lat="39.25079" lon="-0.49886">
        <ele>49.0</ele>
      </trkpt>
      <trkpt lat="39.25202" lon="-0.49852">
        <ele>52.0</ele>
      </trkpt>
      <trkpt lat="39.25164" lon="-0.49769">
        <ele>53.0</ele>
      </trkpt>
      <trkpt lat="39.25101" lon="-0.49689">
        <ele>56.0</ele>
      </trkpt>
      <trkpt lat="39.25177" lon="-0.49612">
        <ele>56.0</ele>
      </trkpt>
      <trkpt lat="39.2547" lon="-0.49745">
        <ele>66.0</ele>
      </trkpt>
      <trkpt lat="39.2539" lon="-0.5003">
        <ele>55.0</ele>
      </trkpt>
      <trkpt lat="39.25418" lon="-0.50031">
        <ele>52.0</ele>
      </trkpt>
      <trkpt lat="39.25457" lon="-0.4998">
        <ele>52.0</ele>
      </trkpt>
      <trkpt lat="39.25472" lon="-0.49978">
        <ele>52.0</ele>
      </trkpt>
      <trkpt lat="39.255" lon="-0.50035">
        <ele>53.0</ele>
      </trkpt>
      <trkpt lat="39.25509" lon="-0.50165">
        <ele>53.0</ele>
      </trkpt>
      <trkpt lat="39.25634" lon="-0.50273">
        <ele>54.0</ele>
      </trkpt>
      <trkpt lat="39.25728" lon="-0.50256">
        <ele>56.0</ele>
      </trkpt>
      <trkpt lat="39.25811" lon="-0.50265">
        <ele>58.0</ele>
      </trkpt>
      <trkpt lat="39.25871" lon="-0.50229">
        <ele>59.0</ele>
      </trkpt>
      <trkpt lat="39.2598" lon="-0.50043">
        <ele>63.0</ele>
      </trkpt>
      <trkpt lat="39.26018" lon="-0.49946">
        <ele>65.0</ele>
      </trkpt>
      <trkpt lat="39.26069" lon="-0.4987">
        <ele>66.0</ele>
      </trkpt>
      <trkpt lat="39.26084" lon="-0.49477">
        <ele>68.0</ele>
      </trkpt>
      <trkpt lat="39.26095" lon="-0.49417">
        <ele>68.0</ele>
      </trkpt>
      <trkpt lat="39.26152" lon="-0.49407">
        <ele>72.0</ele>
      </trkpt>
      <trkpt lat="39.26274" lon="-0.49453">
        <ele>80.0</ele>
      </trkpt>
      <trkpt lat="39.26344" lon="-0.49498">
        <ele>87.0</ele>
      </trkpt>
      <trkpt lat="39.26445" lon="-0.49909">
        <ele>103.0</ele>
      </trkpt>
      <trkpt lat="39.26811" lon="-0.49994">
        <ele>126.0</ele>
      </trkpt>
      <trkpt lat="39.26951" lon="-0.50268">
        <ele>131.0</ele>
      </trkpt>
      <trkpt lat="39.26967" lon="-0.50283">
        <ele>132.0</ele>
      </trkpt>
      <trkpt lat="39.27046" lon="-0.50295">
        <ele>135.0</ele>
      </trkpt>
      <trkpt lat="39.27082" lon="-0.5041">
        <ele>139.0</ele>
      </trkpt>
      <trkpt lat="39.27134" lon="-0.50495">
        <ele>143.0</ele>
      </trkpt>
      <trkpt lat="39.27233" lon="-0.50546">
        <ele>148.0</ele>
      </trkpt>
      <trkpt lat="39.27242" lon="-0.50534">
        <ele>149.0</ele>
      </trkpt>
      <trkpt lat="39.27244" lon="-0.50453">
        <ele>152.0</ele>
      </trkpt>
      <trkpt lat="39.27281" lon="-0.50397">
        <ele>154.0</ele>
      </trkpt>
      <trkpt lat="39.27302" lon="-0.50392">
        <ele>156.0</ele>
      </trkpt>
      <trkpt lat="39.27375" lon="-0.50554">
        <ele>163.0</ele>
      </trkpt>
      <trkpt lat="39.27496" lon="-0.50621">
        <ele>166.0</ele>
      </trkpt>
      <trkpt lat="39.27525" lon="-0.50624">
        <ele>166.0</ele>
      </trkpt>
      <trkpt lat="39.27806" lon="-0.50595">
        <ele>164.0</ele>
      </trkpt>
      <trkpt lat="39.27835" lon="-0.50579">
        <ele>166.0</ele>
      </trkpt>
      <trkpt lat="39.27863" lon="-0.50535">
        <ele>168.0</ele>
      </trkpt>
      <trkpt lat="39.27963" lon="-0.50518">
        <ele>173.0</ele>
      </trkpt>
      <trkpt lat="39.27982" lon="-0.50453">
        <ele>177.0</ele>
      </trkpt>
      <trkpt lat="39.2802" lon="-0.50409">
        <ele>179.0</ele>
      </trkpt>
      <trkpt lat="39.28002" lon="-0.50226">
        <ele>181.0</ele>
      </trkpt>
      <trkpt lat="39.28011" lon="-0.50195">
        <ele>182.0</ele>
      </trkpt>
      <trkpt lat="39.28046" lon="-0.50179">
        <ele>183.0</ele>
      </trkpt>
      <trkpt lat="39.28082" lon="-0.50223">
        <ele>185.0</ele>
      </trkpt>
      <trkpt lat="39.28136" lon="-0.50241">
        <ele>187.0</ele>
      </trkpt>
      <trkpt lat="39.2819" lon="-0.50228">
        <ele>185.0</ele>
      </trkpt>
      <trkpt lat="39.28225" lon="-0.50194">
        <ele>183.0</ele>
      </trkpt>
      <trkpt lat="39.28228" lon="-0.50063">
        <ele>177.0</ele>
      </trkpt>
      <trkpt lat="39.28279" lon="-0.49915">
        <ele>177.0</ele>
      </trkpt>
      <trkpt lat="39.28237" lon="-0.49541">
        <ele>168.0</ele>
      </trkpt>
      <trkpt lat="39.28284" lon="-0.49455">
        <ele>160.0</ele>
      </trkpt>
      <trkpt lat="39.28311" lon="-0.49456">
        <ele>156.0</ele>
      </trkpt>
      <trkpt lat="39.28593" lon="-0.49597">
        <ele>129.0</ele>
      </trkpt>
      <trkpt lat="39.28666" lon="-0.4955">
        <ele>118.0</ele>
      </trkpt>
      <trkpt lat="39.28728" lon="-0.49572">
        <ele>115.0</ele>
      </trkpt>
      <trkpt lat="39.28763" lon="-0.49553">
        <ele>113.0</ele>
      </trkpt>
      <trkpt lat="39.28843" lon="-0.49546">
        <ele>111.0</ele>
      </trkpt>
      <trkpt lat="39.28877" lon="-0.49343">
        <ele>109.0</ele>
      </trkpt>
      <trkpt lat="39.2891" lon="-0.4923">
        <ele>106.0</ele>
      </trkpt>
      <trkpt lat="39.28915" lon="-0.49119">
        <ele>103.0</ele>
      </trkpt>
      <trkpt lat="39.28933" lon="-0.49031">
        <ele>101.0</ele>
      </trkpt>
      <trkpt lat="39.28912" lon="-0.48871">
        <ele>100.0</ele>
      </trkpt>
      <trkpt lat="39.28928" lon="-0.48638">
        <ele>97.0</ele>
      </trkpt>
      <trkpt lat="39.28921" lon="-0.48574">
        <ele>93.0</ele>
      </trkpt>
      <trkpt lat="39.28842" lon="-0.48392">
        <ele>86.0</ele>
      </trkpt>
      <trkpt lat="39.2881" lon="-0.48376">
        <ele>84.0</ele>
      </trkpt>
      <trkpt lat="39.28839" lon="-0.48363">
        <ele>84.0</ele>
      </trkpt>
      <trkpt lat="39.28858" lon="-0.48331">
        <ele>83.0</ele>
      </trkpt>
      <trkpt lat="39.28908" lon="-0.4812">
        <ele>80.0</ele>
      </trkpt>
      <trkpt lat="39.28872" lon="-0.4785">
        <ele>76.0</ele>
      </trkpt>
      <trkpt lat="39.28899" lon="-0.47631">
        <ele>72.0</ele>
      </trkpt>
      <trkpt lat="39.28852" lon="-0.47315">
        <ele>71.0</ele>
      </trkpt>
      <trkpt lat="39.2885" lon="-0.47107">
        <ele>69.0</ele>
      </trkpt>
      <trkpt lat="39.28686" lon="-0.47172">
        <ele>69.0</ele>
      </trkpt>
      <trkpt lat="39.28256" lon="-0.47509">
        <ele>69.0</ele>
      </trkpt>
      <trkpt lat="39.2812" lon="-0.4773">
        <ele>69.0</ele>
      </trkpt>
      <trkpt lat="39.27779" lon="-0.47907">
        <ele>69.0</ele>
      </trkpt>
      <trkpt lat="39.27741" lon="-0.47881">
        <ele>68.0</ele>
      </trkpt>
      <trkpt lat="39.27716" lon="-0.47811">
        <ele>65.0</ele>
      </trkpt>
      <trkpt lat="39.27549" lon="-0.4781">
        <ele>61.0</ele>
      </trkpt>
      <trkpt lat="39.2751" lon="-0.47826">
        <ele>59.0</ele>
      </trkpt>
      <trkpt lat="39.27464" lon="-0.47791">
        <ele>58.0</ele>
      </trkpt>
      <trkpt lat="39.27442" lon="-0.47742">
        <ele>57.0</ele>
      </trkpt>
      <trkpt lat="39.27384" lon="-0.47728">
        <ele>57.0</ele>
      </trkpt>
      <trkpt lat="39.27278" lon="-0.47733">
        <ele>55.0</ele>
      </trkpt>
      <trkpt lat="39.27157" lon="-0.47671">
        <ele>53.0</ele>
      </trkpt>
      <trkpt lat="39.27084" lon="-0.47653">
        <ele>51.0</ele>
      </trkpt>
      <trkpt lat="39.26948" lon="-0.47562">
        <ele>49.0</ele>
      </trkpt>
      <trkpt lat="39.26898" lon="-0.4756">
        <ele>47.0</ele>
      </trkpt>
      <trkpt lat="39.26891" lon="-0.47528">
        <ele>47.0</ele>
      </trkpt>
      <trkpt lat="39.26932" lon="-0.47468">
        <ele>46.0</ele>
      </trkpt>
      <trkpt lat="39.27045" lon="-0.46897">
        <ele>39.0</ele>
      </trkpt>
      <trkpt lat="39.27038" lon="-0.46843">
        <ele>37.0</ele>
      </trkpt>
      <trkpt lat="39.26943" lon="-0.46548">
        <ele>36.0</ele>
      </trkpt>
      <trkpt lat="39.26805" lon="-0.46613">
        <ele>35.0</ele>
      </trkpt>
      <trkpt lat="39.26313" lon="-0.46906">
        <ele>35.0</ele>
      </trkpt>
      <trkpt lat="39.26238" lon="-0.46972">
        <ele>36.0</ele>
      </trkpt>
      <trkpt lat="39.26163" lon="-0.46999">
        <ele>36.0</ele>
      </trkpt>
    </trkseg>
  </trk>
</gpx>