<?xml version="1.0" encoding="UTF-8"?>
<gpx xmlns="http://www.topografix.com/GPX/1/0" xmlns:xsi="http://www.w3.org/2001/XMLSchema-instance" xsi:schemaLocation="http://www.topografix.com/GPX/1/0 http://www.topografix.com/GPX/1/0/gpx.xsd" version="1.0" creator="GPSBabel - https://www.gpsbabel.org">
  <time>2026-01-28T10:47:46.077000Z</time>
  <bounds minlat="22.96483" maxlat="23.62295" minlon="53.71693" maxlon="53.79699" />
  <trk>
    <trkseg>
      <trkpt lat="23.62295" lon="53.71693">
        <ele>118.8</ele>
      </trkpt>
      <trkpt lat="23.6182" lon="53.7184">
        <ele>116.6</ele>
      </trkpt>
      <trkpt lat="23.61517" lon="53.71938">
        <ele>121.1</ele>
      </trkpt>
      <trkpt lat="23.61297" lon="53.72007">
        <ele>125.4</ele>
      </trkpt>
      <trkpt lat="23.61091" lon="53.72068">
        <ele>124.1</ele>
      </trkpt>
      <trkpt lat="23.60879" lon="53.72116">
        <ele>122.0</ele>
      </trkpt>
      <trkpt lat="23.60554" lon="53.72177">
        <ele>120.7</ele>
      </trkpt>
      <trkpt lat="23.60137" lon="53.72259">
        <ele>117.5</ele>
      </trkpt>
      <trkpt lat="23.59408" lon="53.72399">
        <ele>120.4</ele>
      </trkpt>
      <trkpt lat="23.58682" lon="53.72539">
        <ele>126.6</ele>
      </trkpt>
      <trkpt lat="23.58593" lon="53.72556">
        <ele>126.1</ele>
      </trkpt>
      <trkpt lat="23.58486" lon="53.72577">
        <ele>127.3</ele>
      </trkpt>
      <trkpt lat="23.58027" lon="53.72665">
        <ele>126.7</ele>
      </trkpt>
      <trkpt lat="23.57734" lon="53.72724">
        <ele>124.4</ele>
      </trkpt>
      <trkpt lat="23.57562" lon="53.72756">
        <ele>126.9</ele>
      </trkpt>
      <trkpt lat="23.57441" lon="53.72779">
        <ele>126.8</ele>
      </trkpt>
      <trkpt lat="23.5714" lon="53.72844">
        <ele>125.4</ele>
      </trkpt>
      <trkpt lat="23.56865" lon="53.72895">
        <ele>124.5</ele>
      </trkpt>
      <trkpt lat="23.56486" lon="53.72967">
        <ele>125.3</ele>
      </trkpt>
      <trkpt lat="23.55875" lon="53.73087">
        <ele>132.4</ele>
      </trkpt>
      <trkpt lat="23.55615" lon="53.73136">
        <ele>130.7</ele>
      </trkpt>
      <trkpt lat="23.55499" lon="53.73158">
        <ele>131.5</ele>
      </trkpt>
      <trkpt lat="23.55049" lon="53.73246">
        <ele>130.6</ele>
      </trkpt>
      <trkpt lat="23.54808" lon="53.73292">
        <ele>134.4</ele>
      </trkpt>
      <trkpt lat="23.54594" lon="53.73333">
        <ele>136.5</ele>
      </trkpt>
      <trkpt lat="23.54256" lon="53.73399">
        <ele>135.6</ele>
      </trkpt>
      <trkpt lat="23.54071" lon="53.73435">
        <ele>137.4</ele>
      </trkpt>
      <trkpt lat="23.53598" lon="53.73528">
        <ele>129.0</ele>
      </trkpt>
      <trkpt lat="23.53244" lon="53.73597">
        <ele>133.1</ele>
      </trkpt>
      <trkpt lat="23.53012" lon="53.73643">
        <ele>129.7</ele>
      </trkpt>
      <trkpt lat="23.5271" lon="53.737">
        <ele>133.7</ele>
      </trkpt>
      <trkpt lat="23.52162" lon="53.73808">
        <ele>136.3</ele>
      </trkpt>
      <trkpt lat="23.51359" lon="53.73964">
        <ele>145.6</ele>
      </trkpt>
      <trkpt lat="23.50768" lon="53.74078">
        <ele>152.3</ele>
      </trkpt>
      <trkpt lat="23.50436" lon="53.74144">
        <ele>150.1</ele>
      </trkpt>
      <trkpt lat="23.50266" lon="53.74177">
        <ele>150.3</ele>
      </trkpt>
      <trkpt lat="23.50032" lon="53.74224">
        <ele>152.4</ele>
      </trkpt>
      <trkpt lat="23.49872" lon="53.74256">
        <ele>154.0</ele>
      </trkpt>
      <trkpt lat="23.49484" lon="53.74332">
        <ele>151.8</ele>
      </trkpt>
      <trkpt lat="23.4908" lon="53.74412">
        <ele>150.9</ele>
      </trkpt>
      <trkpt lat="23.48894" lon="53.74448">
        <ele>150.1</ele>
      </trkpt>
      <trkpt lat="23.48815" lon="53.74465">
        <ele>150.3</ele>
      </trkpt>
      <trkpt lat="23.48401" lon="53.74547">
        <ele>139.2</ele>
      </trkpt>
      <trkpt lat="23.47746" lon="53.74674">
        <ele>143.6</ele>
      </trkpt>
      <trkpt lat="23.4707" lon="53.74804">
        <ele>149.7</ele>
      </trkpt>
      <trkpt lat="23.46715" lon="53.74873">
        <ele>156.1</ele>
      </trkpt>
      <trkpt lat="23.46514" lon="53.74912">
        <ele>152.6</ele>
      </trkpt>
      <trkpt lat="23.46117" lon="53.74988">
        <ele>146.7</ele>
      </trkpt>
      <trkpt lat="23.4585" lon="53.7504">
        <ele>149.0</ele>
      </trkpt>
      <trkpt lat="23.45403" lon="53.75127">
        <ele>151.7</ele>
      </trkpt>
      <trkpt lat="23.45036" lon="53.75196">
        <ele>154.8</ele>
      </trkpt>
      <trkpt lat="23.4479" lon="53.75244">
        <ele>154.9</ele>
      </trkpt>
      <trkpt lat="23.44655" lon="53.75269">
        <ele>154.6</ele>
      </trkpt>
      <trkpt lat="23.44457" lon="53.75307">
        <ele>154.3</ele>
      </trkpt>
      <trkpt lat="23.44228" lon="53.75352">
        <ele>154.4</ele>
      </trkpt>
      <trkpt lat="23.4385" lon="53.75424">
        <ele>148.8</ele>
      </trkpt>
      <trkpt lat="23.43635" lon="53.75466">
        <ele>142.5</ele>
      </trkpt>
      <trkpt lat="23.43411" lon="53.7551">
        <ele>140.3</ele>
      </trkpt>
      <trkpt lat="23.43252" lon="53.75541">
        <ele>138.0</ele>
      </trkpt>
      <trkpt lat="23.42885" lon="53.75612">
        <ele>139.4</ele>
      </trkpt>
      <trkpt lat="23.4271" lon="53.75646">
        <ele>142.4</ele>
      </trkpt>
      <trkpt lat="23.42236" lon="53.75739">
        <ele>151.6</ele>
      </trkpt>
      <trkpt lat="23.42152" lon="53.75756">
        <ele>153.9</ele>
      </trkpt>
      <trkpt lat="23.41913" lon="53.75803">
        <ele>156.7</ele>
      </trkpt>
      <trkpt lat="23.41751" lon="53.75835">
        <ele>155.9</ele>
      </trkpt>
      <trkpt lat="23.41416" lon="53.75902">
        <ele>142.1</ele>
      </trkpt>
      <trkpt lat="23.41324" lon="53.75921">
        <ele>141.5</ele>
      </trkpt>
      <trkpt lat="23.41175" lon="53.7595">
        <ele>141.2</ele>
      </trkpt>
      <trkpt lat="23.4098" lon="53.75988">
        <ele>140.9</ele>
      </trkpt>
      <trkpt lat="23.40789" lon="53.76026">
        <ele>145.2</ele>
      </trkpt>
      <trkpt lat="23.40536" lon="53.76077">
        <ele>147.2</ele>
      </trkpt>
      <trkpt lat="23.4031" lon="53.76122">
        <ele>148.6</ele>
      </trkpt>
      <trkpt lat="23.40104" lon="53.76163">
        <ele>148.6</ele>
      </trkpt>
      <trkpt lat="23.39779" lon="53.76228">
        <ele>147.9</ele>
      </trkpt>
      <trkpt lat="23.39345" lon="53.76315">
        <ele>147.9</ele>
      </trkpt>
      <trkpt lat="23.38984" lon="53.76388">
        <ele>149.2</ele>
      </trkpt>
      <trkpt lat="23.38722" lon="53.7644">
        <ele>148.9</ele>
      </trkpt>
      <trkpt lat="23.38353" lon="53.76514">
        <ele>155.1</ele>
      </trkpt>
      <trkpt lat="23.38052" lon="53.76572">
        <ele>160.2</ele>
      </trkpt>
      <trkpt lat="23.37677" lon="53.76646">
        <ele>158.9</ele>
      </trkpt>
      <trkpt lat="23.37281" lon="53.76725">
        <ele>153.0</ele>
      </trkpt>
      <trkpt lat="23.36935" lon="53.76792">
        <ele>155.4</ele>
      </trkpt>
      <trkpt lat="23.36529" lon="53.76873">
        <ele>150.9</ele>
      </trkpt>
      <trkpt lat="23.36345" lon="53.76909">
        <ele>149.4</ele>
      </trkpt>
      <trkpt lat="23.35915" lon="53.76993">
        <ele>154.9</ele>
      </trkpt>
      <trkpt lat="23.35744" lon="53.77027">
        <ele>158.5</ele>
      </trkpt>
      <trkpt lat="23.35518" lon="53.77072">
        <ele>156.8</ele>
      </trkpt>
      <trkpt lat="23.35154" lon="53.77143">
        <ele>151.8</ele>
      </trkpt>
      <trkpt lat="23.34831" lon="53.77206">
        <ele>150.4</ele>
      </trkpt>
      <trkpt lat="23.34359" lon="53.77298">
        <ele>153.3</ele>
      </trkpt>
      <trkpt lat="23.33925" lon="53.77384">
        <ele>151.5</ele>
      </trkpt>
      <trkpt lat="23.33781" lon="53.77413">
        <ele>149.9</ele>
      </trkpt>
      <trkpt lat="23.33188" lon="53.77527">
        <ele>154.3</ele>
      </trkpt>
      <trkpt lat="23.32964" lon="53.77571">
        <ele>154.6</ele>
      </trkpt>
      <trkpt lat="23.32731" lon="53.77614">
        <ele>159.0</ele>
      </trkpt>
      <trkpt lat="23.32475" lon="53.77665">
        <ele>155.3</ele>
      </trkpt>
      <trkpt lat="23.32353" lon="53.77689">
        <ele>156.9</ele>
      </trkpt>
      <trkpt lat="23.3213" lon="53.77732">
        <ele>160.9</ele>
      </trkpt>
      <trkpt lat="23.31925" lon="53.77773">
        <ele>161.9</ele>
      </trkpt>
      <trkpt lat="23.31743" lon="53.77809">
        <ele>162.0</ele>
      </trkpt>
      <trkpt lat="23.31094" lon="53.77936">
        <ele>157.8</ele>
      </trkpt>
      <trkpt lat="23.30576" lon="53.78038">
        <ele>148.6</ele>
      </trkpt>
      <trkpt lat="23.3035" lon="53.78082">
        <ele>148.2</ele>
      </trkpt>
      <trkpt lat="23.29917" lon="53.78167">
        <ele>148.0</ele>
      </trkpt>
      <trkpt lat="23.29677" lon="53.78213">
        <ele>150.3</ele>
      </trkpt>
      <trkpt lat="23.29531" lon="53.78233">
        <ele>150.1</ele>
      </trkpt>
      <trkpt lat="23.29416" lon="53.78242">
        <ele>151.4</ele>
      </trkpt>
      <trkpt lat="23.29249" lon="53.78246">
        <ele>148.1</ele>
      </trkpt>
      <trkpt lat="23.29137" lon="53.78242">
        <ele>144.3</ele>
      </trkpt>
      <trkpt lat="23.28889" lon="53.78215">
        <ele>141.0</ele>
      </trkpt>
      <trkpt lat="23.28646" lon="53.78171">
        <ele>144.1</ele>
      </trkpt>
      <trkpt lat="23.28291" lon="53.78128">
        <ele>149.2</ele>
      </trkpt>
      <trkpt lat="23.28118" lon="53.78117">
        <ele>149.4</ele>
      </trkpt>
      <trkpt lat="23.27959" lon="53.78113">
        <ele>146.6</ele>
      </trkpt>
      <trkpt lat="23.2756" lon="53.78121">
        <ele>159.3</ele>
      </trkpt>
      <trkpt lat="23.27396" lon="53.78133">
        <ele>164.8</ele>
      </trkpt>
      <trkpt lat="23.27176" lon="53.78157">
        <ele>157.8</ele>
      </trkpt>
      <trkpt lat="23.269" lon="53.78187">
        <ele>154.2</ele>
      </trkpt>
      <trkpt lat="23.26612" lon="53.78219">
        <ele>150.9</ele>
      </trkpt>
      <trkpt lat="23.26473" lon="53.78235">
        <ele>148.6</ele>
      </trkpt>
      <trkpt lat="23.26006" lon="53.78284">
        <ele>153.4</ele>
      </trkpt>
      <trkpt lat="23.25446" lon="53.78346">
        <ele>139.8</ele>
      </trkpt>
      <trkpt lat="23.25167" lon="53.78375">
        <ele>146.5</ele>
      </trkpt>
      <trkpt lat="23.24575" lon="53.7844">
        <ele>142.9</ele>
      </trkpt>
      <trkpt lat="23.2402" lon="53.785">
        <ele>146.2</ele>
      </trkpt>
      <trkpt lat="23.23607" lon="53.78545">
        <ele>150.5</ele>
      </trkpt>
      <trkpt lat="23.22946" lon="53.78617">
        <ele>150.2</ele>
      </trkpt>
      <trkpt lat="23.22881" lon="53.78624">
        <ele>149.4</ele>
      </trkpt>
      <trkpt lat="23.22797" lon="53.78633">
        <ele>147.59</ele>
      </trkpt>
      <trkpt lat="23.22688" lon="53.78646">
        <ele>140.4</ele>
      </trkpt>
      <trkpt lat="23.22594" lon="53.78656">
        <ele>138.7</ele>
      </trkpt>
      <trkpt lat="23.22519" lon="53.78664">
        <ele>139.8</ele>
      </trkpt>
      <trkpt lat="23.22422" lon="53.78675">
        <ele>140.8</ele>
      </trkpt>
      <trkpt lat="23.22374" lon="53.7868">
        <ele>141.9</ele>
      </trkpt>
      <trkpt lat="23.22278" lon="53.78691">
        <ele>143.4</ele>
      </trkpt>
      <trkpt lat="23.22181" lon="53.78701">
        <ele>144.3</ele>
      </trkpt>
      <trkpt lat="23.22109" lon="53.78709">
        <ele>144.5</ele>
      </trkpt>
      <trkpt lat="23.22012" lon="53.78719">
        <ele>145.8</ele>
      </trkpt>
      <trkpt lat="23.21916" lon="53.7873">
        <ele>143.0</ele>
      </trkpt>
      <trkpt lat="23.21843" lon="53.78738">
        <ele>143.5</ele>
      </trkpt>
      <trkpt lat="23.21747" lon="53.78749">
        <ele>144.0</ele>
      </trkpt>
      <trkpt lat="23.21626" lon="53.78762">
        <ele>147.0</ele>
      </trkpt>
      <trkpt lat="23.2153" lon="53.78772">
        <ele>151.0</ele>
      </trkpt>
      <trkpt lat="23.21433" lon="53.78782">
        <ele>155.1</ele>
      </trkpt>
      <trkpt lat="23.21361" lon="53.7879">
        <ele>155.9</ele>
      </trkpt>
      <trkpt lat="23.21264" lon="53.788">
        <ele>158.0</ele>
      </trkpt>
      <trkpt lat="23.21168" lon="53.7881">
        <ele>156.9</ele>
      </trkpt>
      <trkpt lat="23.21049" lon="53.78824">
        <ele>150.6</ele>
      </trkpt>
      <trkpt lat="23.20977" lon="53.78833">
        <ele>145.9</ele>
      </trkpt>
      <trkpt lat="23.2088" lon="53.78843">
        <ele>141.5</ele>
      </trkpt>
      <trkpt lat="23.20808" lon="53.78851">
        <ele>139.9</ele>
      </trkpt>
      <trkpt lat="23.20711" lon="53.78861">
        <ele>141.0</ele>
      </trkpt>
      <trkpt lat="23.20615" lon="53.78871">
        <ele>141.8</ele>
      </trkpt>
      <trkpt lat="23.20494" lon="53.78885">
        <ele>140.8</ele>
      </trkpt>
      <trkpt lat="23.20218" lon="53.78914">
        <ele>140.0</ele>
      </trkpt>
      <trkpt lat="23.19825" lon="53.78957">
        <ele>133.6</ele>
      </trkpt>
      <trkpt lat="23.19452" lon="53.78998">
        <ele>141.2</ele>
      </trkpt>
      <trkpt lat="23.19149" lon="53.7903">
        <ele>146.2</ele>
      </trkpt>
      <trkpt lat="23.18775" lon="53.7907">
        <ele>139.7</ele>
      </trkpt>
      <trkpt lat="23.18491" lon="53.79101">
        <ele>139.2</ele>
      </trkpt>
      <trkpt lat="23.18287" lon="53.79123">
        <ele>136.6</ele>
      </trkpt>
      <trkpt lat="23.18168" lon="53.79135">
        <ele>137.6</ele>
      </trkpt>
      <trkpt lat="23.1809" lon="53.79144">
        <ele>141.1</ele>
      </trkpt>
      <trkpt lat="23.17936" lon="53.79158">
        <ele>149.2</ele>
      </trkpt>
      <trkpt lat="23.17883" lon="53.79164">
        <ele>149.4</ele>
      </trkpt>
      <trkpt lat="23.17817" lon="53.79171">
        <ele>149.8</ele>
      </trkpt>
      <trkpt lat="23.17764" lon="53.79177">
        <ele>149.3</ele>
      </trkpt>
      <trkpt lat="23.1771" lon="53.79183">
        <ele>147.3</ele>
      </trkpt>
      <trkpt lat="23.17657" lon="53.79189">
        <ele>145.0</ele>
      </trkpt>
      <trkpt lat="23.17604" lon="53.79194">
        <ele>143.6</ele>
      </trkpt>
      <trkpt lat="23.17551" lon="53.792">
        <ele>143.2</ele>
      </trkpt>
      <trkpt lat="23.17511" lon="53.79205">
        <ele>143.4</ele>
      </trkpt>
      <trkpt lat="23.17458" lon="53.79211">
        <ele>144.1</ele>
      </trkpt>
      <trkpt lat="23.17405" lon="53.79217">
        <ele>144.9</ele>
      </trkpt>
      <trkpt lat="23.17351" lon="53.79223">
        <ele>145.3</ele>
      </trkpt>
      <trkpt lat="23.17298" lon="53.79228">
        <ele>145.4</ele>
      </trkpt>
      <trkpt lat="23.17265" lon="53.79232">
        <ele>145.3</ele>
      </trkpt>
      <trkpt lat="23.17232" lon="53.79236">
        <ele>145.1</ele>
      </trkpt>
      <trkpt lat="23.17179" lon="53.79241">
        <ele>145.0</ele>
      </trkpt>
      <trkpt lat="23.17125" lon="53.79247">
        <ele>144.0</ele>
      </trkpt>
      <trkpt lat="23.17072" lon="53.79253">
        <ele>142.6</ele>
      </trkpt>
      <trkpt lat="23.17019" lon="53.79259">
        <ele>141.2</ele>
      </trkpt>
      <trkpt lat="23.16966" lon="53.79265">
        <ele>139.6</ele>
      </trkpt>
      <trkpt lat="23.16913" lon="53.79271">
        <ele>137.5</ele>
      </trkpt>
      <trkpt lat="23.1686" lon="53.79277">
        <ele>134.4</ele>
      </trkpt>
      <trkpt lat="23.16786" lon="53.79284">
        <ele>130.8</ele>
      </trkpt>
      <trkpt lat="23.16446" lon="53.79321">
        <ele>129.9</ele>
      </trkpt>
      <trkpt lat="23.16201" lon="53.79347">
        <ele>133.3</ele>
      </trkpt>
      <trkpt lat="23.15731" lon="53.79398">
        <ele>129.5</ele>
      </trkpt>
      <trkpt lat="23.15408" lon="53.79432">
        <ele>132.7</ele>
      </trkpt>
      <trkpt lat="23.15095" lon="53.79466">
        <ele>136.9</ele>
      </trkpt>
      <trkpt lat="23.15" lon="53.79476">
        <ele>135.3</ele>
      </trkpt>
      <trkpt lat="23.1498" lon="53.79474">
        <ele>135.0</ele>
      </trkpt>
      <trkpt lat="23.14953" lon="53.79467">
        <ele>134.6</ele>
      </trkpt>
      <trkpt lat="23.14931" lon="53.79456">
        <ele>134.3</ele>
      </trkpt>
      <trkpt lat="23.14927" lon="53.79452">
        <ele>134.2</ele>
      </trkpt>
      <trkpt lat="23.1491" lon="53.79444">
        <ele>133.9</ele>
      </trkpt>
      <trkpt lat="23.14879" lon="53.79446">
        <ele>133.7</ele>
      </trkpt>
      <trkpt lat="23.14859" lon="53.79464">
        <ele>133.7</ele>
      </trkpt>
      <trkpt lat="23.14815" lon="53.79495">
        <ele>133.1</ele>
      </trkpt>
      <trkpt lat="23.14633" lon="53.79515">
        <ele>126.2</ele>
      </trkpt>
      <trkpt lat="23.14378" lon="53.79543">
        <ele>129.6</ele>
      </trkpt>
      <trkpt lat="23.14172" lon="53.79564">
        <ele>128.5</ele>
      </trkpt>
      <trkpt lat="23.13931" lon="53.7959">
        <ele>125.0</ele>
      </trkpt>
      <trkpt lat="23.1349" lon="53.79637">
        <ele>126.6</ele>
      </trkpt>
      <trkpt lat="23.13408" lon="53.79645">
        <ele>129.7</ele>
      </trkpt>
      <trkpt lat="23.13292" lon="53.79659">
        <ele>132.3</ele>
      </trkpt>
      <trkpt lat="23.13278" lon="53.79657">
        <ele>132.4</ele>
      </trkpt>
      <trkpt lat="23.13259" lon="53.79649">
        <ele>132.5</ele>
      </trkpt>
      <trkpt lat="23.13254" lon="53.79633">
        <ele>132.1</ele>
      </trkpt>
      <trkpt lat="23.13251" lon="53.79615">
        <ele>131.7</ele>
      </trkpt>
      <trkpt lat="23.1326" lon="53.79585">
        <ele>130.9</ele>
      </trkpt>
      <trkpt lat="23.13306" lon="53.79474">
        <ele>127.1</ele>
      </trkpt>
      <trkpt lat="23.13357" lon="53.79377">
        <ele>120.6</ele>
      </trkpt>
      <trkpt lat="23.13512" lon="53.79089">
        <ele>116.9</ele>
      </trkpt>
      <trkpt lat="23.13593" lon="53.7894">
        <ele>116.8</ele>
      </trkpt>
      <trkpt lat="23.13641" lon="53.78847">
        <ele>114.7</ele>
      </trkpt>
      <trkpt lat="23.13658" lon="53.78794">
        <ele>113.8</ele>
      </trkpt>
      <trkpt lat="23.13677" lon="53.78755">
        <ele>113.1</ele>
      </trkpt>
      <trkpt lat="23.13682" lon="53.78748">
        <ele>112.9</ele>
      </trkpt>
      <trkpt lat="23.13687" lon="53.7873">
        <ele>111.8</ele>
      </trkpt>
      <trkpt lat="23.13682" lon="53.78708">
        <ele>110.5</ele>
      </trkpt>
      <trkpt lat="23.13668" lon="53.78692">
        <ele>109.5</ele>
      </trkpt>
      <trkpt lat="23.1363" lon="53.78607">
        <ele>106.8</ele>
      </trkpt>
      <trkpt lat="23.13558" lon="53.784">
        <ele>105.1</ele>
      </trkpt>
      <trkpt lat="23.13484" lon="53.78192">
        <ele>102.6</ele>
      </trkpt>
      <trkpt lat="23.13414" lon="53.77995">
        <ele>102.0</ele>
      </trkpt>
      <trkpt lat="23.13365" lon="53.77844">
        <ele>104.0</ele>
      </trkpt>
      <trkpt lat="23.13335" lon="53.77748">
        <ele>106.0</ele>
      </trkpt>
      <trkpt lat="23.13281" lon="53.77545">
        <ele>106.2</ele>
      </trkpt>
      <trkpt lat="23.13239" lon="53.77368">
        <ele>109.3</ele>
      </trkpt>
      <trkpt lat="23.13228" lon="53.77296">
        <ele>111.3</ele>
      </trkpt>
      <trkpt lat="23.13223" lon="53.77202">
        <ele>114.8</ele>
      </trkpt>
      <trkpt lat="23.13226" lon="53.77123">
        <ele>116.5</ele>
      </trkpt>
      <trkpt lat="23.13244" lon="53.76955">
        <ele>116.9</ele>
      </trkpt>
      <trkpt lat="23.13262" lon="53.76783">
        <ele>120.0</ele>
      </trkpt>
      <trkpt lat="23.13265" lon="53.76689">
        <ele>119.4</ele>
      </trkpt>
      <trkpt lat="23.13262" lon="53.76613">
        <ele>118.0</ele>
      </trkpt>
      <trkpt lat="23.13239" lon="53.76434">
        <ele>115.4</ele>
      </trkpt>
      <trkpt lat="23.13212" lon="53.76257">
        <ele>115.5</ele>
      </trkpt>
      <trkpt lat="23.13198" lon="53.76195">
        <ele>115.8</ele>
      </trkpt>
      <trkpt lat="23.13173" lon="53.76109">
        <ele>117.6</ele>
      </trkpt>
      <trkpt lat="23.13085" lon="53.75861">
        <ele>119.8</ele>
      </trkpt>
      <trkpt lat="23.13054" lon="53.75786">
        <ele>120.1</ele>
      </trkpt>
      <trkpt lat="23.13012" lon="53.75711">
        <ele>117.8</ele>
      </trkpt>
      <trkpt lat="23.12996" lon="53.75687">
        <ele>116.9</ele>
      </trkpt>
      <trkpt lat="23.12953" lon="53.75638">
        <ele>113.0</ele>
      </trkpt>
      <trkpt lat="23.12904" lon="53.75594">
        <ele>107.2</ele>
      </trkpt>
      <trkpt lat="23.1283" lon="53.75548">
        <ele>102.3</ele>
      </trkpt>
      <trkpt lat="23.12724" lon="53.75506">
        <ele>99.9</ele>
      </trkpt>
      <trkpt lat="23.12439" lon="53.75413">
        <ele>99.3</ele>
      </trkpt>
      <trkpt lat="23.12168" lon="53.75326">
        <ele>98.0</ele>
      </trkpt>
      <trkpt lat="23.12035" lon="53.75283">
        <ele>98.5</ele>
      </trkpt>
      <trkpt lat="23.11981" lon="53.75262">
        <ele>98.8</ele>
      </trkpt>
      <trkpt lat="23.11964" lon="53.75249">
        <ele>99.0</ele>
      </trkpt>
      <trkpt lat="23.11961" lon="53.75237">
        <ele>99.4</ele>
      </trkpt>
      <trkpt lat="23.11956" lon="53.75229">
        <ele>99.7</ele>
      </trkpt>
      <trkpt lat="23.11941" lon="53.75217">
        <ele>100.2</ele>
      </trkpt>
      <trkpt lat="23.11925" lon="53.75216">
        <ele>100.5</ele>
      </trkpt>
      <trkpt lat="23.11915" lon="53.75218">
        <ele>100.5</ele>
      </trkpt>
      <trkpt lat="23.11902" lon="53.75228">
        <ele>100.1</ele>
      </trkpt>
      <trkpt lat="23.11897" lon="53.75237">
        <ele>99.7</ele>
      </trkpt>
      <trkpt lat="23.11894" lon="53.75254">
        <ele>99.0</ele>
      </trkpt>
      <trkpt lat="23.11897" lon="53.75269">
        <ele>98.9</ele>
      </trkpt>
      <trkpt lat="23.11878" lon="53.75318">
        <ele>98.2</ele>
      </trkpt>
      <trkpt lat="23.11576" lon="53.75838">
        <ele>101.0</ele>
      </trkpt>
      <trkpt lat="23.11567" lon="53.75847">
        <ele>101.2</ele>
      </trkpt>
      <trkpt lat="23.1155" lon="53.75851">
        <ele>101.1</ele>
      </trkpt>
      <trkpt lat="23.11541" lon="53.75851">
        <ele>101.0</ele>
      </trkpt>
      <trkpt lat="23.11533" lon="53.75856">
        <ele>101.1</ele>
      </trkpt>
      <trkpt lat="23.11527" lon="53.75863">
        <ele>101.3</ele>
      </trkpt>
      <trkpt lat="23.11462" lon="53.75901">
        <ele>100.5</ele>
      </trkpt>
      <trkpt lat="23.11334" lon="53.75946">
        <ele>104.4</ele>
      </trkpt>
      <trkpt lat="23.11247" lon="53.75999">
        <ele>106.0</ele>
      </trkpt>
      <trkpt lat="23.11057" lon="53.76188">
        <ele>115.6</ele>
      </trkpt>
      <trkpt lat="23.10911" lon="53.76332">
        <ele>127.3</ele>
      </trkpt>
      <trkpt lat="23.10745" lon="53.76414">
        <ele>128.8</ele>
      </trkpt>
      <trkpt lat="23.10525" lon="53.76507">
        <ele>145.7</ele>
      </trkpt>
      <trkpt lat="23.10446" lon="53.76548">
        <ele>143.9</ele>
      </trkpt>
      <trkpt lat="23.1031" lon="53.76664">
        <ele>145.8</ele>
      </trkpt>
      <trkpt lat="23.1022" lon="53.76718">
        <ele>143.0</ele>
      </trkpt>
      <trkpt lat="23.10145" lon="53.76735">
        <ele>144.2</ele>
      </trkpt>
      <trkpt lat="23.10043" lon="53.76722">
        <ele>143.9</ele>
      </trkpt>
      <trkpt lat="23.0992" lon="53.7665">
        <ele>140.8</ele>
      </trkpt>
      <trkpt lat="23.09795" lon="53.76563">
        <ele>134.0</ele>
      </trkpt>
      <trkpt lat="23.0971" lon="53.7652">
        <ele>125.0</ele>
      </trkpt>
      <trkpt lat="23.09673" lon="53.7651">
        <ele>122.4</ele>
      </trkpt>
      <trkpt lat="23.09566" lon="53.76502">
        <ele>112.3</ele>
      </trkpt>
      <trkpt lat="23.09515" lon="53.7651">
        <ele>107.3</ele>
      </trkpt>
      <trkpt lat="23.09412" lon="53.76553">
        <ele>99.0</ele>
      </trkpt>
      <trkpt lat="23.0938" lon="53.76566">
        <ele>98.8</ele>
      </trkpt>
      <trkpt lat="23.09356" lon="53.7656">
        <ele>98.6</ele>
      </trkpt>
      <trkpt lat="23.0935" lon="53.76555">
        <ele>98.5</ele>
      </trkpt>
      <trkpt lat="23.09343" lon="53.76551">
        <ele>98.3</ele>
      </trkpt>
      <trkpt lat="23.09339" lon="53.7655">
        <ele>98.3</ele>
      </trkpt>
      <trkpt lat="23.09334" lon="53.76551">
        <ele>98.2</ele>
      </trkpt>
      <trkpt lat="23.09325" lon="53.76555">
        <ele>98.1</ele>
      </trkpt>
      <trkpt lat="23.09318" lon="53.76562">
        <ele>98.1</ele>
      </trkpt>
      <trkpt lat="23.09315" lon="53.76571">
        <ele>98.1</ele>
      </trkpt>
      <trkpt lat="23.09316" lon="53.76584">
        <ele>98.4</ele>
      </trkpt>
      <trkpt lat="23.09321" lon="53.76593">
        <ele>98.5</ele>
      </trkpt>
      <trkpt lat="23.09321" lon="53.76619">
        <ele>98.2</ele>
      </trkpt>
      <trkpt lat="23.09303" lon="53.76692">
        <ele>97.3</ele>
      </trkpt>
      <trkpt lat="23.09239" lon="53.76898">
        <ele>99.0</ele>
      </trkpt>
      <trkpt lat="23.09217" lon="53.76998">
        <ele>96.7</ele>
      </trkpt>
      <trkpt lat="23.09191" lon="53.77129">
        <ele>97.8</ele>
      </trkpt>
      <trkpt lat="23.09119" lon="53.77308">
        <ele>96.7</ele>
      </trkpt>
      <trkpt lat="23.09099" lon="53.77326">
        <ele>96.8</ele>
      </trkpt>
      <trkpt lat="23.0909" lon="53.77328">
        <ele>96.9</ele>
      </trkpt>
      <trkpt lat="23.09082" lon="53.77334">
        <ele>97.0</ele>
      </trkpt>
      <trkpt lat="23.09072" lon="53.7735">
        <ele>96.7</ele>
      </trkpt>
      <trkpt lat="23.09073" lon="53.77374">
        <ele>96.9</ele>
      </trkpt>
      <trkpt lat="23.09077" lon="53.77406">
        <ele>97.0</ele>
      </trkpt>
      <trkpt lat="23.09013" lon="53.77563">
        <ele>104.8</ele>
      </trkpt>
      <trkpt lat="23.08927" lon="53.77745">
        <ele>111.1</ele>
      </trkpt>
      <trkpt lat="23.08796" lon="53.77961">
        <ele>109.1</ele>
      </trkpt>
      <trkpt lat="23.08627" lon="53.78232">
        <ele>103.1</ele>
      </trkpt>
      <trkpt lat="23.08531" lon="53.78349">
        <ele>104.4</ele>
      </trkpt>
      <trkpt lat="23.08493" lon="53.78382">
        <ele>103.7</ele>
      </trkpt>
      <trkpt lat="23.08409" lon="53.78438">
        <ele>101.5</ele>
      </trkpt>
      <trkpt lat="23.08271" lon="53.7849">
        <ele>112.1</ele>
      </trkpt>
      <trkpt lat="23.08175" lon="53.78502">
        <ele>120.0</ele>
      </trkpt>
      <trkpt lat="23.08081" lon="53.78497">
        <ele>126.9</ele>
      </trkpt>
      <trkpt lat="23.07993" lon="53.78477">
        <ele>122.6</ele>
      </trkpt>
      <trkpt lat="23.07873" lon="53.78437">
        <ele>130.6</ele>
      </trkpt>
      <trkpt lat="23.07632" lon="53.78355">
        <ele>136.5</ele>
      </trkpt>
      <trkpt lat="23.07466" lon="53.78297">
        <ele>121.2</ele>
      </trkpt>
      <trkpt lat="23.07397" lon="53.78261">
        <ele>121.0</ele>
      </trkpt>
      <trkpt lat="23.07292" lon="53.7818">
        <ele>117.3</ele>
      </trkpt>
      <trkpt lat="23.07195" lon="53.78069">
        <ele>103.2</ele>
      </trkpt>
      <trkpt lat="23.07" lon="53.77841">
        <ele>94.0</ele>
      </trkpt>
      <trkpt lat="23.06869" lon="53.77689">
        <ele>95.4</ele>
      </trkpt>
      <trkpt lat="23.0676" lon="53.77593">
        <ele>110.6</ele>
      </trkpt>
      <trkpt lat="23.06634" lon="53.77529">
        <ele>130.3</ele>
      </trkpt>
      <trkpt lat="23.06525" lon="53.77503">
        <ele>141.6</ele>
      </trkpt>
      <trkpt lat="23.06399" lon="53.77501">
        <ele>150.7</ele>
      </trkpt>
      <trkpt lat="23.06166" lon="53.77527">
        <ele>153.7</ele>
      </trkpt>
      <trkpt lat="23.05862" lon="53.77562">
        <ele>129.2</ele>
      </trkpt>
      <trkpt lat="23.05705" lon="53.77578">
        <ele>106.4</ele>
      </trkpt>
      <trkpt lat="23.05604" lon="53.77571">
        <ele>96.6</ele>
      </trkpt>
      <trkpt lat="23.05459" lon="53.77524">
        <ele>94.7</ele>
      </trkpt>
      <trkpt lat="23.05334" lon="53.77441">
        <ele>94.0</ele>
      </trkpt>
      <trkpt lat="23.05229" lon="53.7732">
        <ele>90.6</ele>
      </trkpt>
      <trkpt lat="23.05098" lon="53.77008">
        <ele>89.0</ele>
      </trkpt>
      <trkpt lat="23.05095" lon="53.7698">
        <ele>89.5</ele>
      </trkpt>
      <trkpt lat="23.05104" lon="53.76959">
        <ele>90.1</ele>
      </trkpt>
      <trkpt lat="23.05103" lon="53.7694">
        <ele>90.6</ele>
      </trkpt>
      <trkpt lat="23.05093" lon="53.76923">
        <ele>91.0</ele>
      </trkpt>
      <trkpt lat="23.05072" lon="53.76912">
        <ele>91.6</ele>
      </trkpt>
      <trkpt lat="23.0506" lon="53.76896">
        <ele>93.1</ele>
      </trkpt>
      <trkpt lat="23.05049" lon="53.76867">
        <ele>95.4</ele>
      </trkpt>
      <trkpt lat="23.04993" lon="53.76702">
        <ele>99.2</ele>
      </trkpt>
      <trkpt lat="23.04888" lon="53.76427">
        <ele>100.7</ele>
      </trkpt>
      <trkpt lat="23.04793" lon="53.76297">
        <ele>105.7</ele>
      </trkpt>
      <trkpt lat="23.04714" lon="53.76226">
        <ele>116.2</ele>
      </trkpt>
      <trkpt lat="23.04644" lon="53.76181">
        <ele>124.0</ele>
      </trkpt>
      <trkpt lat="23.04376" lon="53.76019">
        <ele>138.1</ele>
      </trkpt>
      <trkpt lat="23.04124" lon="53.75867">
        <ele>139.9</ele>
      </trkpt>
      <trkpt lat="23.04" lon="53.75789">
        <ele>134.6</ele>
      </trkpt>
      <trkpt lat="23.03852" lon="53.75678">
        <ele>136.4</ele>
      </trkpt>
      <trkpt lat="23.03617" lon="53.75438">
        <ele>96.4</ele>
      </trkpt>
      <trkpt lat="23.03294" lon="53.74953">
        <ele>96.1</ele>
      </trkpt>
      <trkpt lat="23.03177" lon="53.74776">
        <ele>109.3</ele>
      </trkpt>
      <trkpt lat="23.03072" lon="53.74662">
        <ele>117.8</ele>
      </trkpt>
      <trkpt lat="23.02939" lon="53.74564">
        <ele>134.3</ele>
      </trkpt>
      <trkpt lat="23.0279" lon="53.74496">
        <ele>141.2</ele>
      </trkpt>
      <trkpt lat="23.02632" lon="53.7446">
        <ele>140.7</ele>
      </trkpt>
      <trkpt lat="23.02524" lon="53.74453">
        <ele>137.7</ele>
      </trkpt>
      <trkpt lat="23.02346" lon="53.74478">
        <ele>128.5</ele>
      </trkpt>
      <trkpt lat="23.02169" lon="53.74546">
        <ele>107.4</ele>
      </trkpt>
      <trkpt lat="23.02042" lon="53.7463">
        <ele>96.8</ele>
      </trkpt>
      <trkpt lat="23.01957" lon="53.74709">
        <ele>94.7</ele>
      </trkpt>
      <trkpt lat="23.01735" lon="53.75">
        <ele>91.4</ele>
      </trkpt>
      <trkpt lat="23.01716" lon="53.75013">
        <ele>92.0</ele>
      </trkpt>
      <trkpt lat="23.01705" lon="53.75015">
        <ele>92.2</ele>
      </trkpt>
      <trkpt lat="23.01699" lon="53.75016">
        <ele>92.4</ele>
      </trkpt>
      <trkpt lat="23.01687" lon="53.75021">
        <ele>92.6</ele>
      </trkpt>
      <trkpt lat="23.01676" lon="53.75036">
        <ele>92.9</ele>
      </trkpt>
      <trkpt lat="23.01674" lon="53.75049">
        <ele>92.9</ele>
      </trkpt>
      <trkpt lat="23.01675" lon="53.75056">
        <ele>92.9</ele>
      </trkpt>
      <trkpt lat="23.01675" lon="53.75071">
        <ele>93.0</ele>
      </trkpt>
      <trkpt lat="23.01669" lon="53.7509">
        <ele>93.0</ele>
      </trkpt>
      <trkpt lat="23.01613" lon="53.75168">
        <ele>95.7</ele>
      </trkpt>
      <trkpt lat="23.01511" lon="53.7533">
        <ele>101.4</ele>
      </trkpt>
      <trkpt lat="23.01397" lon="53.75569">
        <ele>110.5</ele>
      </trkpt>
      <trkpt lat="23.01314" lon="53.75743">
        <ele>112.1</ele>
      </trkpt>
      <trkpt lat="23.01253" lon="53.75834">
        <ele>109.8</ele>
      </trkpt>
      <trkpt lat="23.01141" lon="53.75938">
        <ele>118.9</ele>
      </trkpt>
      <trkpt lat="23.01049" lon="53.75991">
        <ele>133.7</ele>
      </trkpt>
      <trkpt lat="23.00953" lon="53.76025">
        <ele>140.1</ele>
      </trkpt>
      <trkpt lat="23.00835" lon="53.7604">
        <ele>140.1</ele>
      </trkpt>
      <trkpt lat="23.00656" lon="53.76022">
        <ele>151.5</ele>
      </trkpt>
      <trkpt lat="23.00481" lon="53.76">
        <ele>141.4</ele>
      </trkpt>
      <trkpt lat="23.0037" lon="53.76008">
        <ele>134.5</ele>
      </trkpt>
      <trkpt lat="23.00265" lon="53.76035">
        <ele>126.6</ele>
      </trkpt>
      <trkpt lat="23.00181" lon="53.76075">
        <ele>117.2</ele>
      </trkpt>
      <trkpt lat="23.00079" lon="53.76151">
        <ele>102.9</ele>
      </trkpt>
      <trkpt lat="22.99925" lon="53.76365">
        <ele>101.7</ele>
      </trkpt>
      <trkpt lat="22.99805" lon="53.76576">
        <ele>89.9</ele>
      </trkpt>
      <trkpt lat="22.99514" lon="53.77082">
        <ele>95.5</ele>
      </trkpt>
      <trkpt lat="22.995" lon="53.77092">
        <ele>95.8</ele>
      </trkpt>
      <trkpt lat="22.99484" lon="53.77096">
        <ele>97.3</ele>
      </trkpt>
      <trkpt lat="22.99454" lon="53.77091">
        <ele>99.0</ele>
      </trkpt>
      <trkpt lat="22.99404" lon="53.7707">
        <ele>107.0</ele>
      </trkpt>
      <trkpt lat="22.99403" lon="53.77074">
        <ele>107.0</ele>
      </trkpt>
      <trkpt lat="22.99402" lon="53.7708">
        <ele>107.0</ele>
      </trkpt>
      <trkpt lat="22.99403" lon="53.77081">
        <ele>107.0</ele>
      </trkpt>
      <trkpt lat="22.99401" lon="53.77087">
        <ele>108.0</ele>
      </trkpt>
      <trkpt lat="22.9939" lon="53.77123">
        <ele>109.0</ele>
      </trkpt>
      <trkpt lat="22.99373" lon="53.77174">
        <ele>111.0</ele>
      </trkpt>
      <trkpt lat="22.99314" lon="53.77316">
        <ele>113.0</ele>
      </trkpt>
      <trkpt lat="22.99248" lon="53.77443">
        <ele>119.0</ele>
      </trkpt>
      <trkpt lat="22.99167" lon="53.77566">
        <ele>115.0</ele>
      </trkpt>
      <trkpt lat="22.99129" lon="53.77615">
        <ele>115.0</ele>
      </trkpt>
      <trkpt lat="22.9913" lon="53.77613">
        <ele>115.0</ele>
      </trkpt>
      <trkpt lat="22.9913" lon="53.77611">
        <ele>115.0</ele>
      </trkpt>
      <trkpt lat="22.99127" lon="53.77616">
        <ele>115.0</ele>
      </trkpt>
      <trkpt lat="22.99044" lon="53.77704">
        <ele>110.0</ele>
      </trkpt>
      <trkpt lat="22.98991" lon="53.77746">
        <ele>107.0</ele>
      </trkpt>
      <trkpt lat="22.98896" lon="53.77801">
        <ele>104.0</ele>
      </trkpt>
      <trkpt lat="22.98836" lon="53.77824">
        <ele>110.0</ele>
      </trkpt>
      <trkpt lat="22.98732" lon="53.77844">
        <ele>123.0</ele>
      </trkpt>
      <trkpt lat="22.98645" lon="53.77845">
        <ele>134.0</ele>
      </trkpt>
      <trkpt lat="22.98572" lon="53.77835">
        <ele>140.0</ele>
      </trkpt>
      <trkpt lat="22.98479" lon="53.77805">
        <ele>146.0</ele>
      </trkpt>
      <trkpt lat="22.98386" lon="53.77757">
        <ele>148.0</ele>
      </trkpt>
      <trkpt lat="22.98163" lon="53.77632">
        <ele>140.0</ele>
      </trkpt>
      <trkpt lat="22.97909" lon="53.77491">
        <ele>93.0</ele>
      </trkpt>
      <trkpt lat="22.97817" lon="53.77442">
        <ele>93.0</ele>
      </trkpt>
      <trkpt lat="22.97728" lon="53.7741">
        <ele>90.0</ele>
      </trkpt>
      <trkpt lat="22.97645" lon="53.77395">
        <ele>90.0</ele>
      </trkpt>
      <trkpt lat="22.97542" lon="53.77393">
        <ele>88.0</ele>
      </trkpt>
      <trkpt lat="22.9748" lon="53.77403">
        <ele>88.0</ele>
      </trkpt>
      <trkpt lat="22.97379" lon="53.77425">
        <ele>89.0</ele>
      </trkpt>
      <trkpt lat="22.97225" lon="53.7747">
        <ele>88.0</ele>
      </trkpt>
      <trkpt lat="22.97162" lon="53.77489">
        <ele>88.0</ele>
      </trkpt>
      <trkpt lat="22.97088" lon="53.77497">
        <ele>87.0</ele>
      </trkpt>
      <trkpt lat="22.97028" lon="53.77523">
        <ele>87.0</ele>
      </trkpt>
      <trkpt lat="22.96881" lon="53.77598">
        <ele>90.0</ele>
      </trkpt>
      <trkpt lat="22.96815" lon="53.77625">
        <ele>89.0</ele>
      </trkpt>
      <trkpt lat="22.96794" lon="53.77639">
        <ele>88.0</ele>
      </trkpt>
      <trkpt lat="22.96782" lon="53.77666">
        <ele>88.0</ele>
      </trkpt>
      <trkpt lat="22.96779" lon="53.77703">
        <ele>90.0</ele>
      </trkpt>
      <trkpt lat="22.96798" lon="53.77752">
        <ele>93.0</ele>
      </trkpt>
      <trkpt lat="22.96858" lon="53.77845">
        <ele>91.0</ele>
      </trkpt>
      <trkpt lat="22.96899" lon="53.77874">
        <ele>90.0</ele>
      </trkpt>
      <trkpt lat="22.96935" lon="53.7792">
        <ele>90.0</ele>
      </trkpt>
      <trkpt lat="22.97024" lon="53.78123">
        <ele>88.0</ele>
      </trkpt>
      <trkpt lat="22.97086" lon="53.78302">
        <ele>87.0</ele>
      </trkpt>
      <trkpt lat="22.97131" lon="53.78477">
        <ele>88.0</ele>
      </trkpt>
      <trkpt lat="22.97157" lon="53.78625">
        <ele>87.0</ele>
      </trkpt>
      <trkpt lat="22.97172" lon="53.78778">
        <ele>89.0</ele>
      </trkpt>
      <trkpt lat="22.97191" lon="53.78929">
        <ele>89.0</ele>
      </trkpt>
      <trkpt lat="22.97204" lon="53.79072">
        <ele>90.0</ele>
      </trkpt>
      <trkpt lat="22.97188" lon="53.79113">
        <ele>89.0</ele>
      </trkpt>
      <trkpt lat="22.97156" lon="53.79138">
        <ele>87.0</ele>
      </trkpt>
      <trkpt lat="22.97131" lon="53.79143">
        <ele>87.0</ele>
      </trkpt>
      <trkpt lat="22.9707" lon="53.79132">
        <ele>86.0</ele>
      </trkpt>
      <trkpt lat="22.96992" lon="53.79129">
        <ele>87.0</ele>
      </trkpt>
      <trkpt lat="22.96927" lon="53.79137">
        <ele>88.0</ele>
      </trkpt>
      <trkpt lat="22.96871" lon="53.79157">
        <ele>89.0</ele>
      </trkpt>
      <trkpt lat="22.96816" lon="53.79194">
        <ele>89.0</ele>
      </trkpt>
      <trkpt lat="22.96783" lon="53.79232">
        <ele>88.0</ele>
      </trkpt>
      <trkpt lat="22.96744" lon="53.793">
        <ele>88.0</ele>
      </trkpt>
      <trkpt lat="22.96704" lon="53.79363">
        <ele>92.0</ele>
      </trkpt>
      <trkpt lat="22.9667" lon="53.79389">
        <ele>95.0</ele>
      </trkpt>
      <trkpt lat="22.96633" lon="53.79392">
        <ele>100.0</ele>
      </trkpt>
      <trkpt lat="22.96602" lon="53.79376">
        <ele>103.0</ele>
      </trkpt>
      <trkpt lat="22.9658" lon="53.79345">
        <ele>104.0</ele>
      </trkpt>
      <trkpt lat="22.96561" lon="53.79292">
        <ele>102.0</ele>
      </trkpt>
      <trkpt lat="22.96548" lon="53.79218">
        <ele>101.0</ele>
      </trkpt>
      <trkpt lat="22.96548" lon="53.79164">
        <ele>101.0</ele>
      </trkpt>
      <trkpt lat="22.96571" lon="53.78947">
        <ele>95.0</ele>
      </trkpt>
      <trkpt lat="22.96606" lon="53.78646">
        <ele>106.0</ele>
      </trkpt>
      <trkpt lat="22.9662" lon="53.7859">
        <ele>110.0</ele>
      </trkpt>
      <trkpt lat="22.96655" lon="53.78514">
        <ele>108.0</ele>
      </trkpt>
      <trkpt lat="22.96693" lon="53.78459">
        <ele>105.0</ele>
      </trkpt>
      <trkpt lat="22.9674" lon="53.78401">
        <ele>95.0</ele>
      </trkpt>
      <trkpt lat="22.96781" lon="53.78326">
        <ele>91.0</ele>
      </trkpt>
      <trkpt lat="22.96816" lon="53.78226">
        <ele>91.0</ele>
      </trkpt>
      <trkpt lat="22.96828" lon="53.78147">
        <ele>90.0</ele>
      </trkpt>
      <trkpt lat="22.96828" lon="53.78076">
        <ele>89.0</ele>
      </trkpt>
      <trkpt lat="22.96802" lon="53.77941">
        <ele>94.0</ele>
      </trkpt>
      <trkpt lat="22.96778" lon="53.77883">
        <ele>96.0</ele>
      </trkpt>
      <trkpt lat="22.96747" lon="53.77828">
        <ele>97.0</ele>
      </trkpt>
      <trkpt lat="22.96697" lon="53.77765">
        <ele>100.0</ele>
      </trkpt>
      <trkpt lat="22.9663" lon="53.77702">
        <ele>97.0</ele>
      </trkpt>
      <trkpt lat="22.96554" lon="53.77611">
        <ele>100.0</ele>
      </trkpt>
      <trkpt lat="22.96508" lon="53.77534">
        <ele>112.0</ele>
      </trkpt>
      <trkpt lat="22.9649" lon="53.7749">
        <ele>114.0</ele>
      </trkpt>
      <trkpt lat="22.96483" lon="53.7745">
        <ele>113.0</ele>
      </trkpt>
      <trkpt lat="22.96485" lon="53.7741">
        <ele>110.0</ele>
      </trkpt>
      <trkpt lat="22.96504" lon="53.77344">
        <ele>103.0</ele>
      </trkpt>
      <trkpt lat="22.96537" lon="53.77296">
        <ele>98.0</ele>
      </trkpt>
      <trkpt lat="22.96576" lon="53.77264">
        <ele>91.0</ele>
      </trkpt>
      <trkpt lat="22.96601" lon="53.77253">
        <ele>89.0</ele>
      </trkpt>
      <trkpt lat="22.96654" lon="53.77241">
        <ele>90.0</ele>
      </trkpt>
      <trkpt lat="22.96691" lon="53.77228">
        <ele>89.0</ele>
      </trkpt>
      <trkpt lat="22.96721" lon="53.77211">
        <ele>88.0</ele>
      </trkpt>
      <trkpt lat="22.96758" lon="53.77179">
        <ele>87.0</ele>
      </trkpt>
      <trkpt lat="22.96788" lon="53.77134">
        <ele>87.0</ele>
      </trkpt>
      <trkpt lat="22.96806" lon="53.77088">
        <ele>88.0</ele>
      </trkpt>
      <trkpt lat="22.96813" lon="53.77038">
        <ele>88.0</ele>
      </trkpt>
      <trkpt lat="22.9681" lon="53.76988">
        <ele>88.0</ele>
      </trkpt>
      <trkpt lat="22.96796" lon="53.76941">
        <ele>88.0</ele>
      </trkpt>
      <trkpt lat="22.96744" lon="53.76849">
        <ele>94.0</ele>
      </trkpt>
      <trkpt lat="22.9669" lon="53.76718">
        <ele>104.0</ele>
      </trkpt>
      <trkpt lat="22.96647" lon="53.76558">
        <ele>115.0</ele>
      </trkpt>
      <trkpt lat="22.96631" lon="53.76408">
        <ele>118.0</ele>
      </trkpt>
      <trkpt lat="22.96636" lon="53.76247">
        <ele>128.0</ele>
      </trkpt>
      <trkpt lat="22.96645" lon="53.76174">
        <ele>120.0</ele>
      </trkpt>
      <trkpt lat="22.96676" lon="53.76043">
        <ele>120.0</ele>
      </trkpt>
      <trkpt lat="22.96717" lon="53.75929">
        <ele>116.0</ele>
      </trkpt>
      <trkpt lat="22.9674" lon="53.75844">
        <ele>101.0</ele>
      </trkpt>
      <trkpt lat="22.96746" lon="53.75772">
        <ele>100.0</ele>
      </trkpt>
      <trkpt lat="22.96742" lon="53.75636">
        <ele>102.0</ele>
      </trkpt>
      <trkpt lat="22.96749" lon="53.755">
        <ele>104.0</ele>
      </trkpt>
      <trkpt lat="22.9677" lon="53.75365">
        <ele>105.0</ele>
      </trkpt>
      <trkpt lat="22.96805" lon="53.75227">
        <ele>119.0</ele>
      </trkpt>
      <trkpt lat="22.96872" lon="53.75056">
        <ele>130.0</ele>
      </trkpt>
      <trkpt lat="22.96951" lon="53.74911">
        <ele>137.0</ele>
      </trkpt>
      <trkpt lat="22.97046" lon="53.74781">
        <ele>149.0</ele>
      </trkpt>
      <trkpt lat="22.97113" lon="53.74695">
        <ele>156.0</ele>
      </trkpt>
      <trkpt lat="22.97137" lon="53.74645">
        <ele>157.0</ele>
      </trkpt>
      <trkpt lat="22.97152" lon="53.74591">
        <ele>155.0</ele>
      </trkpt>
      <trkpt lat="22.97161" lon="53.74521">
        <ele>144.0</ele>
      </trkpt>
      <trkpt lat="22.97158" lon="53.74465">
        <ele>135.0</ele>
      </trkpt>
      <trkpt lat="22.97145" lon="53.74408">
        <ele>128.0</ele>
      </trkpt>
      <trkpt lat="22.97122" lon="53.74323">
        <ele>121.0</ele>
      </trkpt>
      <trkpt lat="22.97118" lon="53.7426">
        <ele>111.0</ele>
      </trkpt>
      <trkpt lat="22.97124" lon="53.74201">
        <ele>103.0</ele>
      </trkpt>
      <trkpt lat="22.97144" lon="53.74129">
        <ele>96.0</ele>
      </trkpt>
      <trkpt lat="22.97171" lon="53.74074">
        <ele>94.0</ele>
      </trkpt>
      <trkpt lat="22.97208" lon="53.74025">
        <ele>91.0</ele>
      </trkpt>
      <trkpt lat="22.97253" lon="53.73985">
        <ele>89.0</ele>
      </trkpt>
      <trkpt lat="22.97303" lon="53.73954">
        <ele>90.0</ele>
      </trkpt>
      <trkpt lat="22.97371" lon="53.7393">
        <ele>89.0</ele>
      </trkpt>
      <trkpt lat="22.97428" lon="53.73923">
        <ele>89.0</ele>
      </trkpt>
      <trkpt lat="22.97486" lon="53.73928">
        <ele>89.0</ele>
      </trkpt>
      <trkpt lat="22.97546" lon="53.73945">
        <ele>89.0</ele>
      </trkpt>
      <trkpt lat="22.97649" lon="53.73996">
        <ele>89.0</ele>
      </trkpt>
      <trkpt lat="22.97756" lon="53.74059">
        <ele>93.0</ele>
      </trkpt>
      <trkpt lat="22.97897" lon="53.74158">
        <ele>97.0</ele>
      </trkpt>
      <trkpt lat="22.98094" lon="53.74332">
        <ele>98.0</ele>
      </trkpt>
      <trkpt lat="22.98206" lon="53.74458">
        <ele>102.0</ele>
      </trkpt>
      <trkpt lat="22.98304" lon="53.74588">
        <ele>98.0</ele>
      </trkpt>
      <trkpt lat="22.98398" lon="53.74738">
        <ele>89.0</ele>
      </trkpt>
      <trkpt lat="22.98468" lon="53.74872">
        <ele>96.0</ele>
      </trkpt>
      <trkpt lat="22.98514" lon="53.74977">
        <ele>98.0</ele>
      </trkpt>
      <trkpt lat="22.98525" lon="53.75033">
        <ele>102.0</ele>
      </trkpt>
      <trkpt lat="22.98527" lon="53.75085">
        <ele>104.0</ele>
      </trkpt>
      <trkpt lat="22.98519" lon="53.75145">
        <ele>107.0</ele>
      </trkpt>
      <trkpt lat="22.98503" lon="53.75194">
        <ele>111.0</ele>
      </trkpt>
      <trkpt lat="22.98477" lon="53.7524">
        <ele>114.0</ele>
      </trkpt>
      <trkpt lat="22.98436" lon="53.75288">
        <ele>117.0</ele>
      </trkpt>
      <trkpt lat="22.98357" lon="53.75346">
        <ele>125.0</ele>
      </trkpt>
      <trkpt lat="22.98309" lon="53.75385">
        <ele>132.0</ele>
      </trkpt>
      <trkpt lat="22.98277" lon="53.75423">
        <ele>138.0</ele>
      </trkpt>
      <trkpt lat="22.98258" lon="53.75457">
        <ele>140.88</ele>
      </trkpt>
      <trkpt lat="22.98229" lon="53.75532">
        <ele>142.0</ele>
      </trkpt>
      <trkpt lat="22.98221" lon="53.75579">
        <ele>142.0</ele>
      </trkpt>
      <trkpt lat="22.98221" lon="53.75644">
        <ele>139.0</ele>
      </trkpt>
      <trkpt lat="22.98233" lon="53.75707">
        <ele>139.0</ele>
      </trkpt>
      <trkpt lat="22.98263" lon="53.75782">
        <ele>143.0</ele>
      </trkpt>
      <trkpt lat="22.98312" lon="53.75845">
        <ele>147.0</ele>
      </trkpt>
      <trkpt lat="22.98367" lon="53.75889">
        <ele>155.0</ele>
      </trkpt>
      <trkpt lat="22.9843" lon="53.75918">
        <ele>165.0</ele>
      </trkpt>
      <trkpt lat="22.9849" lon="53.7593">
        <ele>182.0</ele>
      </trkpt>
      <trkpt lat="22.98567" lon="53.75925">
        <ele>198.0</ele>
      </trkpt>
      <trkpt lat="22.98625" lon="53.75906">
        <ele>202.0</ele>
      </trkpt>
      <trkpt lat="22.98676" lon="53.75877">
        <ele>200.0</ele>
      </trkpt>
      <trkpt lat="22.98711" lon="53.75847">
        <ele>197.0</ele>
      </trkpt>
      <trkpt lat="22.9875" lon="53.75799">
        <ele>194.0</ele>
      </trkpt>
      <trkpt lat="22.98773" lon="53.7576">
        <ele>193.0</ele>
      </trkpt>
      <trkpt lat="22.98791" lon="53.75712">
        <ele>189.0</ele>
      </trkpt>
      <trkpt lat="22.98817" lon="53.75609">
        <ele>174.0</ele>
      </trkpt>
      <trkpt lat="22.98857" lon="53.75532">
        <ele>165.0</ele>
      </trkpt>
      <trkpt lat="22.98888" lon="53.75492">
        <ele>161.0</ele>
      </trkpt>
      <trkpt lat="22.98934" lon="53.7545">
        <ele>149.0</ele>
      </trkpt>
      <trkpt lat="22.98978" lon="53.75423">
        <ele>144.0</ele>
      </trkpt>
      <trkpt lat="22.99055" lon="53.75396">
        <ele>142.0</ele>
      </trkpt>
      <trkpt lat="22.99125" lon="53.75392">
        <ele>138.0</ele>
      </trkpt>
      <trkpt lat="22.99191" lon="53.75402">
        <ele>132.0</ele>
      </trkpt>
      <trkpt lat="22.9925" lon="53.75427">
        <ele>129.0</ele>
      </trkpt>
      <trkpt lat="22.993" lon="53.75459">
        <ele>128.0</ele>
      </trkpt>
      <trkpt lat="22.99343" lon="53.755">
        <ele>130.0</ele>
      </trkpt>
      <trkpt lat="22.994" lon="53.75577">
        <ele>125.0</ele>
      </trkpt>
      <trkpt lat="22.99439" lon="53.75647">
        <ele>124.0</ele>
      </trkpt>
      <trkpt lat="22.99475" lon="53.75732">
        <ele>128.0</ele>
      </trkpt>
      <trkpt lat="22.99508" lon="53.7586">
        <ele>130.0</ele>
      </trkpt>
      <trkpt lat="22.99519" lon="53.75951">
        <ele>134.0</ele>
      </trkpt>
      <trkpt lat="22.99513" lon="53.76197">
        <ele>133.0</ele>
      </trkpt>
      <trkpt lat="22.99487" lon="53.76535">
        <ele>116.0</ele>
      </trkpt>
      <trkpt lat="22.99454" lon="53.7679">
        <ele>107.0</ele>
      </trkpt>
      <trkpt lat="22.99421" lon="53.7699">
        <ele>106.0</ele>
      </trkpt>
      <trkpt lat="22.99407" lon="53.77052">
        <ele>107.0</ele>
      </trkpt>
      <trkpt lat="22.99404" lon="53.7707">
        <ele>107.0</ele>
      </trkpt>
      <trkpt lat="22.99403" lon="53.77074">
        <ele>107.0</ele>
      </trkpt>
      <trkpt lat="22.99402" lon="53.7708">
        <ele>107.0</ele>
      </trkpt>
      <trkpt lat="22.99403" lon="53.77081">
        <ele>107.0</ele>
      </trkpt>
      <trkpt lat="22.99401" lon="53.77087">
        <ele>108.0</ele>
      </trkpt>
      <trkpt lat="22.9939" lon="53.77123">
        <ele>109.0</ele>
      </trkpt>
      <trkpt lat="22.99378" lon="53.77159">
        <ele>110.0</ele>
      </trkpt>
      <trkpt lat="22.99329" lon="53.77285">
        <ele>113.0</ele>
      </trkpt>
      <trkpt lat="22.99248" lon="53.77443">
        <ele>119.0</ele>
      </trkpt>
      <trkpt lat="22.99167" lon="53.77566">
        <ele>115.0</ele>
      </trkpt>
      <trkpt lat="22.99129" lon="53.77615">
        <ele>115.0</ele>
      </trkpt>
      <trkpt lat="22.9913" lon="53.77613">
        <ele>115.0</ele>
      </trkpt>
      <trkpt lat="22.9913" lon="53.77611">
        <ele>115.0</ele>
      </trkpt>
      <trkpt lat="22.99127" lon="53.77616">
        <ele>115.0</ele>
      </trkpt>
      <trkpt lat="22.99044" lon="53.77704">
        <ele>110.0</ele>
      </trkpt>
      <trkpt lat="22.98991" lon="53.77746">
        <ele>107.0</ele>
      </trkpt>
      <trkpt lat="22.98896" lon="53.77801">
        <ele>104.0</ele>
      </trkpt>
      <trkpt lat="22.98836" lon="53.77824">
        <ele>110.0</ele>
      </trkpt>
      <trkpt lat="22.98745" lon="53.77843">
        <ele>122.0</ele>
      </trkpt>
      <trkpt lat="22.98669" lon="53.77846">
        <ele>131.0</ele>
      </trkpt>
      <trkpt lat="22.98572" lon="53.77835">
        <ele>140.0</ele>
      </trkpt>
      <trkpt lat="22.9849" lon="53.7781">
        <ele>146.0</ele>
      </trkpt>
      <trkpt lat="22.98433" lon="53.77783">
        <ele>148.0</ele>
      </trkpt>
      <trkpt lat="22.98221" lon="53.77665">
        <ele>143.0</ele>
      </trkpt>
      <trkpt lat="22.97949" lon="53.77513">
        <ele>97.0</ele>
      </trkpt>
      <trkpt lat="22.9783" lon="53.77448">
        <ele>93.0</ele>
      </trkpt>
      <trkpt lat="22.97754" lon="53.77417">
        <ele>90.0</ele>
      </trkpt>
      <trkpt lat="22.9766" lon="53.77397">
        <ele>90.0</ele>
      </trkpt>
      <trkpt lat="22.97573" lon="53.77391">
        <ele>89.0</ele>
      </trkpt>
      <trkpt lat="22.97502" lon="53.77399">
        <ele>87.0</ele>
      </trkpt>
      <trkpt lat="22.97387" lon="53.77423">
        <ele>89.0</ele>
      </trkpt>
      <trkpt lat="22.97306" lon="53.77444">
        <ele>88.0</ele>
      </trkpt>
      <trkpt lat="22.97183" lon="53.77484">
        <ele>88.0</ele>
      </trkpt>
      <trkpt lat="22.97096" lon="53.77495">
        <ele>87.0</ele>
      </trkpt>
      <trkpt lat="22.97041" lon="53.77517">
        <ele>87.0</ele>
      </trkpt>
      <trkpt lat="22.96898" lon="53.7759">
        <ele>89.0</ele>
      </trkpt>
      <trkpt lat="22.96829" lon="53.77619">
        <ele>90.0</ele>
      </trkpt>
      <trkpt lat="22.96798" lon="53.77634">
        <ele>89.0</ele>
      </trkpt>
      <trkpt lat="22.96785" lon="53.77658">
        <ele>88.0</ele>
      </trkpt>
      <trkpt lat="22.96779" lon="53.77694">
        <ele>90.0</ele>
      </trkpt>
      <trkpt lat="22.96785" lon="53.77728">
        <ele>92.0</ele>
      </trkpt>
      <trkpt lat="22.96851" lon="53.77837">
        <ele>92.0</ele>
      </trkpt>
      <trkpt lat="22.9689" lon="53.77868">
        <ele>90.0</ele>
      </trkpt>
      <trkpt lat="22.96923" lon="53.779">
        <ele>90.0</ele>
      </trkpt>
      <trkpt lat="22.96986" lon="53.7803">
        <ele>90.0</ele>
      </trkpt>
      <trkpt lat="22.97078" lon="53.78275">
        <ele>87.0</ele>
      </trkpt>
      <trkpt lat="22.97128" lon="53.78462">
        <ele>88.0</ele>
      </trkpt>
      <trkpt lat="22.97157" lon="53.78625">
        <ele>87.0</ele>
      </trkpt>
      <trkpt lat="22.97172" lon="53.78778">
        <ele>89.0</ele>
      </trkpt>
      <trkpt lat="22.97195" lon="53.78959">
        <ele>90.0</ele>
      </trkpt>
      <trkpt lat="22.97202" lon="53.79082">
        <ele>89.0</ele>
      </trkpt>
      <trkpt lat="22.9718" lon="53.79121">
        <ele>88.0</ele>
      </trkpt>
      <trkpt lat="22.97149" lon="53.79141">
        <ele>87.0</ele>
      </trkpt>
      <trkpt lat="22.97126" lon="53.79142">
        <ele>87.0</ele>
      </trkpt>
      <trkpt lat="22.97045" lon="53.79129">
        <ele>86.0</ele>
      </trkpt>
      <trkpt lat="22.96992" lon="53.79129">
        <ele>87.0</ele>
      </trkpt>
      <trkpt lat="22.96927" lon="53.79137">
        <ele>88.0</ele>
      </trkpt>
      <trkpt lat="22.96851" lon="53.79168">
        <ele>89.0</ele>
      </trkpt>
      <trkpt lat="22.96809" lon="53.79201">
        <ele>88.0</ele>
      </trkpt>
      <trkpt lat="22.96777" lon="53.79241">
        <ele>88.0</ele>
      </trkpt>
      <trkpt lat="22.96731" lon="53.79321">
        <ele>89.0</ele>
      </trkpt>
      <trkpt lat="22.96696" lon="53.79372">
        <ele>93.0</ele>
      </trkpt>
      <trkpt lat="22.9666" lon="53.79392">
        <ele>96.0</ele>
      </trkpt>
      <trkpt lat="22.96624" lon="53.7939">
        <ele>101.0</ele>
      </trkpt>
      <trkpt lat="22.96596" lon="53.7937">
        <ele>104.0</ele>
      </trkpt>
      <trkpt lat="22.96572" lon="53.79325">
        <ele>104.0</ele>
      </trkpt>
      <trkpt lat="22.96558" lon="53.7928">
        <ele>102.0</ele>
      </trkpt>
      <trkpt lat="22.96548" lon="53.79218">
        <ele>101.0</ele>
      </trkpt>
      <trkpt lat="22.96548" lon="53.79164">
        <ele>101.0</ele>
      </trkpt>
      <trkpt lat="22.96579" lon="53.78874">
        <ele>96.44</ele>
      </trkpt>
      <trkpt lat="22.96606" lon="53.78646">
        <ele>106.0</ele>
      </trkpt>
      <trkpt lat="22.9662" lon="53.7859">
        <ele>110.0</ele>
      </trkpt>
      <trkpt lat="22.96655" lon="53.78514">
        <ele>108.0</ele>
      </trkpt>
      <trkpt lat="22.96693" lon="53.78459">
        <ele>105.0</ele>
      </trkpt>
      <trkpt lat="22.9674" lon="53.78401">
        <ele>95.0</ele>
      </trkpt>
      <trkpt lat="22.96781" lon="53.78326">
        <ele>91.0</ele>
      </trkpt>
      <trkpt lat="22.96816" lon="53.78226">
        <ele>91.0</ele>
      </trkpt>
      <trkpt lat="22.96828" lon="53.78147">
        <ele>90.0</ele>
      </trkpt>
      <trkpt lat="22.96828" lon="53.78076">
        <ele>89.0</ele>
      </trkpt>
      <trkpt lat="22.96813" lon="53.77979">
        <ele>94.0</ele>
      </trkpt>
      <trkpt lat="22.96783" lon="53.77895">
        <ele>95.0</ele>
      </trkpt>
      <trkpt lat="22.96747" lon="53.77828">
        <ele>97.0</ele>
      </trkpt>
      <trkpt lat="22.96697" lon="53.77765">
        <ele>100.0</ele>
      </trkpt>
      <trkpt lat="22.9663" lon="53.77702">
        <ele>97.0</ele>
      </trkpt>
      <trkpt lat="22.96554" lon="53.77611">
        <ele>100.0</ele>
      </trkpt>
      <trkpt lat="22.96508" lon="53.77534">
        <ele>112.0</ele>
      </trkpt>
      <trkpt lat="22.9649" lon="53.7749">
        <ele>114.0</ele>
      </trkpt>
      <trkpt lat="22.96483" lon="53.7745">
        <ele>113.0</ele>
      </trkpt>
      <trkpt lat="22.96485" lon="53.7741">
        <ele>110.0</ele>
      </trkpt>
      <trkpt lat="22.96504" lon="53.77344">
        <ele>103.0</ele>
      </trkpt>
      <trkpt lat="22.96537" lon="53.77296">
        <ele>98.0</ele>
      </trkpt>
      <trkpt lat="22.96562" lon="53.77273">
        <ele>93.0</ele>
      </trkpt>
      <trkpt lat="22.96601" lon="53.77253">
        <ele>89.0</ele>
      </trkpt>
      <trkpt lat="22.9664" lon="53.77243">
        <ele>90.0</ele>
      </trkpt>
      <trkpt lat="22.96691" lon="53.77228">
        <ele>89.0</ele>
      </trkpt>
      <trkpt lat="22.96721" lon="53.77211">
        <ele>88.0</ele>
      </trkpt>
      <trkpt lat="22.96758" lon="53.77179">
        <ele>87.0</ele>
      </trkpt>
      <trkpt lat="22.96788" lon="53.77134">
        <ele>87.0</ele>
      </trkpt>
      <trkpt lat="22.96806" lon="53.77088">
        <ele>88.0</ele>
      </trkpt>
      <trkpt lat="22.96813" lon="53.77038">
        <ele>88.0</ele>
      </trkpt>
      <trkpt lat="22.9681" lon="53.76988">
        <ele>88.0</ele>
      </trkpt>
      <trkpt lat="22.96796" lon="53.76941">
        <ele>88.0</ele>
      </trkpt>
      <trkpt lat="22.96744" lon="53.76849">
        <ele>94.0</ele>
      </trkpt>
      <trkpt lat="22.9669" lon="53.76718">
        <ele>104.0</ele>
      </trkpt>
      <trkpt lat="22.96659" lon="53.76613">
        <ele>112.0</ele>
      </trkpt>
      <trkpt lat="22.96634" lon="53.76447">
        <ele>117.0</ele>
      </trkpt>
      <trkpt lat="22.96636" lon="53.76247">
        <ele>128.0</ele>
      </trkpt>
      <trkpt lat="22.9665" lon="53.76146">
        <ele>118.0</ele>
      </trkpt>
      <trkpt lat="22.9669" lon="53.75999">
        <ele>128.0</ele>
      </trkpt>
      <trkpt lat="22.96726" lon="53.75901">
        <ele>111.0</ele>
      </trkpt>
      <trkpt lat="22.96742" lon="53.7583">
        <ele>99.0</ele>
      </trkpt>
      <trkpt lat="22.96745" lon="53.75742">
        <ele>101.0</ele>
      </trkpt>
      <trkpt lat="22.96742" lon="53.75605">
        <ele>100.0</ele>
      </trkpt>
      <trkpt lat="22.96752" lon="53.7547">
        <ele>105.0</ele>
      </trkpt>
      <trkpt lat="22.96776" lon="53.75335">
        <ele>105.0</ele>
      </trkpt>
      <trkpt lat="22.96812" lon="53.75203">
        <ele>123.0</ele>
      </trkpt>
      <trkpt lat="22.96872" lon="53.75056">
        <ele>130.0</ele>
      </trkpt>
      <trkpt lat="22.96951" lon="53.74911">
        <ele>137.0</ele>
      </trkpt>
      <trkpt lat="22.9709" lon="53.7473">
        <ele>152.0</ele>
      </trkpt>
      <trkpt lat="22.9712" lon="53.74683">
        <ele>157.0</ele>
      </trkpt>
      <trkpt lat="22.97142" lon="53.74631">
        <ele>157.0</ele>
      </trkpt>
      <trkpt lat="22.97157" lon="53.74563">
        <ele>151.0</ele>
      </trkpt>
      <trkpt lat="22.97161" lon="53.74521">
        <ele>144.0</ele>
      </trkpt>
      <trkpt lat="22.97158" lon="53.74465">
        <ele>135.0</ele>
      </trkpt>
      <trkpt lat="22.97145" lon="53.74408">
        <ele>128.0</ele>
      </trkpt>
      <trkpt lat="22.97122" lon="53.74323">
        <ele>121.0</ele>
      </trkpt>
      <trkpt lat="22.97118" lon="53.7426">
        <ele>111.0</ele>
      </trkpt>
      <trkpt lat="22.97124" lon="53.74201">
        <ele>103.0</ele>
      </trkpt>
      <trkpt lat="22.97139" lon="53.74143">
        <ele>97.0</ele>
      </trkpt>
      <trkpt lat="22.97164" lon="53.74088">
        <ele>95.0</ele>
      </trkpt>
      <trkpt lat="22.97208" lon="53.74025">
        <ele>91.0</ele>
      </trkpt>
      <trkpt lat="22.97253" lon="53.73985">
        <ele>89.0</ele>
      </trkpt>
      <trkpt lat="22.97303" lon="53.73954">
        <ele>90.0</ele>
      </trkpt>
      <trkpt lat="22.97371" lon="53.7393">
        <ele>89.0</ele>
      </trkpt>
      <trkpt lat="22.97428" lon="53.73923">
        <ele>89.0</ele>
      </trkpt>
      <trkpt lat="22.97486" lon="53.73928">
        <ele>89.0</ele>
      </trkpt>
      <trkpt lat="22.97546" lon="53.73945">
        <ele>89.0</ele>
      </trkpt>
      <trkpt lat="22.97649" lon="53.73996">
        <ele>89.0</ele>
      </trkpt>
      <trkpt lat="22.97756" lon="53.74059">
        <ele>93.0</ele>
      </trkpt>
      <trkpt lat="22.97897" lon="53.74158">
        <ele>97.0</ele>
      </trkpt>
      <trkpt lat="22.98022" lon="53.74263">
        <ele>95.0</ele>
      </trkpt>
      <trkpt lat="22.98146" lon="53.74386">
        <ele>101.0</ele>
      </trkpt>
      <trkpt lat="22.98304" lon="53.74588">
        <ele>98.0</ele>
      </trkpt>
      <trkpt lat="22.98398" lon="53.74738">
        <ele>89.0</ele>
      </trkpt>
      <trkpt lat="22.98468" lon="53.74872">
        <ele>96.0</ele>
      </trkpt>
      <trkpt lat="22.98514" lon="53.74977">
        <ele>98.0</ele>
      </trkpt>
      <trkpt lat="22.98525" lon="53.75033">
        <ele>102.0</ele>
      </trkpt>
      <trkpt lat="22.98527" lon="53.75085">
        <ele>104.0</ele>
      </trkpt>
      <trkpt lat="22.98519" lon="53.75145">
        <ele>107.0</ele>
      </trkpt>
      <trkpt lat="22.98503" lon="53.75194">
        <ele>111.0</ele>
      </trkpt>
      <trkpt lat="22.98477" lon="53.7524">
        <ele>114.0</ele>
      </trkpt>
      <trkpt lat="22.98436" lon="53.75288">
        <ele>117.0</ele>
      </trkpt>
      <trkpt lat="22.98388" lon="53.75326">
        <ele>121.0</ele>
      </trkpt>
      <trkpt lat="22.98317" lon="53.75376">
        <ele>131.0</ele>
      </trkpt>
      <trkpt lat="22.98277" lon="53.75423">
        <ele>138.0</ele>
      </trkpt>
      <trkpt lat="22.98247" lon="53.75483">
        <ele>142.0</ele>
      </trkpt>
      <trkpt lat="22.98226" lon="53.75543">
        <ele>142.0</ele>
      </trkpt>
      <trkpt lat="22.9822" lon="53.75592">
        <ele>141.0</ele>
      </trkpt>
      <trkpt lat="22.98222" lon="53.75657">
        <ele>138.0</ele>
      </trkpt>
      <trkpt lat="22.98236" lon="53.75719">
        <ele>139.0</ele>
      </trkpt>
      <trkpt lat="22.98271" lon="53.75797">
        <ele>144.0</ele>
      </trkpt>
      <trkpt lat="22.9833" lon="53.75861">
        <ele>149.0</ele>
      </trkpt>
      <trkpt lat="22.98383" lon="53.75898">
        <ele>157.0</ele>
      </trkpt>
      <trkpt lat="22.9844" lon="53.75921">
        <ele>168.0</ele>
      </trkpt>
      <trkpt lat="22.98509" lon="53.75931">
        <ele>187.0</ele>
      </trkpt>
      <trkpt lat="22.98567" lon="53.75925">
        <ele>198.0</ele>
      </trkpt>
      <trkpt lat="22.98625" lon="53.75906">
        <ele>202.0</ele>
      </trkpt>
      <trkpt lat="22.98689" lon="53.75867">
        <ele>199.0</ele>
      </trkpt>
      <trkpt lat="22.98727" lon="53.75829">
        <ele>196.0</ele>
      </trkpt>
      <trkpt lat="22.98757" lon="53.75789">
        <ele>194.0</ele>
      </trkpt>
      <trkpt lat="22.98778" lon="53.7575">
        <ele>193.0</ele>
      </trkpt>
      <trkpt lat="22.98796" lon="53.75692">
        <ele>186.0</ele>
      </trkpt>
      <trkpt lat="22.98827" lon="53.75585">
        <ele>169.0</ele>
      </trkpt>
      <trkpt lat="22.98864" lon="53.75521">
        <ele>165.0</ele>
      </trkpt>
      <trkpt lat="22.98897" lon="53.75483">
        <ele>159.0</ele>
      </trkpt>
      <trkpt lat="22.98944" lon="53.75443">
        <ele>147.0</ele>
      </trkpt>
      <trkpt lat="22.9899" lon="53.75417">
        <ele>143.0</ele>
      </trkpt>
      <trkpt lat="22.99055" lon="53.75396">
        <ele>142.0</ele>
      </trkpt>
      <trkpt lat="22.99125" lon="53.75392">
        <ele>138.0</ele>
      </trkpt>
      <trkpt lat="22.99207" lon="53.75407">
        <ele>131.0</ele>
      </trkpt>
      <trkpt lat="22.99263" lon="53.75434">
        <ele>128.0</ele>
      </trkpt>
      <trkpt lat="22.99311" lon="53.75469">
        <ele>128.0</ele>
      </trkpt>
      <trkpt lat="22.99343" lon="53.755">
        <ele>130.0</ele>
      </trkpt>
      <trkpt lat="22.994" lon="53.75577">
        <ele>125.0</ele>
      </trkpt>
      <trkpt lat="22.99439" lon="53.75647">
        <ele>124.0</ele>
      </trkpt>
      <trkpt lat="22.99475" lon="53.75732">
        <ele>128.0</ele>
      </trkpt>
      <trkpt lat="22.99508" lon="53.7586">
        <ele>130.0</ele>
      </trkpt>
      <trkpt lat="22.99519" lon="53.75951">
        <ele>134.0</ele>
      </trkpt>
      <trkpt lat="22.99513" lon="53.76197">
        <ele>133.0</ele>
      </trkpt>
      <trkpt lat="22.99491" lon="53.76492">
        <ele>119.0</ele>
      </trkpt>
      <trkpt lat="22.99465" lon="53.76715">
        <ele>108.0</ele>
      </trkpt>
      <trkpt lat="22.99421" lon="53.7699">
        <ele>106.0</ele>
      </trkpt>
      <trkpt lat="22.99407" lon="53.77052">
        <ele>107.0</ele>
      </trkpt>
      <trkpt lat="22.99435" lon="53.7708">
        <ele>102.4</ele>
      </trkpt>
      <trkpt lat="22.99449" lon="53.77092">
        <ele>100.7</ele>
      </trkpt>
      <trkpt lat="22.99466" lon="53.77114">
        <ele>98.7</ele>
      </trkpt>
      <trkpt lat="22.99464" lon="53.77132">
        <ele>98.5</ele>
      </trkpt>
      <trkpt lat="22.9947" lon="53.77149">
        <ele>97.6</ele>
      </trkpt>
      <trkpt lat="22.99481" lon="53.77159">
        <ele>96.2</ele>
      </trkpt>
      <trkpt lat="22.99496" lon="53.77163">
        <ele>94.5</ele>
      </trkpt>
      <trkpt lat="22.99513" lon="53.77158">
        <ele>93.9</ele>
      </trkpt>
      <trkpt lat="22.99525" lon="53.77143">
        <ele>93.9</ele>
      </trkpt>
      <trkpt lat="22.99528" lon="53.77129">
        <ele>94.1</ele>
      </trkpt>
      <trkpt lat="22.99525" lon="53.77114">
        <ele>94.5</ele>
      </trkpt>
      <trkpt lat="22.99524" lon="53.77095">
        <ele>94.9</ele>
      </trkpt>
      <trkpt lat="22.99607" lon="53.76944">
        <ele>92.6</ele>
      </trkpt>
      <trkpt lat="22.9992" lon="53.76397">
        <ele>101.3</ele>
      </trkpt>
      <trkpt lat="23.0003" lon="53.76219">
        <ele>102.1</ele>
      </trkpt>
      <trkpt lat="23.00102" lon="53.76145">
        <ele>106.7</ele>
      </trkpt>
      <trkpt lat="23.00186" lon="53.76085">
        <ele>117.3</ele>
      </trkpt>
      <trkpt lat="23.00281" lon="53.76041">
        <ele>127.1</ele>
      </trkpt>
      <trkpt lat="23.00431" lon="53.76012">
        <ele>137.0</ele>
      </trkpt>
      <trkpt lat="23.00619" lon="53.76029">
        <ele>148.9</ele>
      </trkpt>
      <trkpt lat="23.00752" lon="53.76047">
        <ele>146.7</ele>
      </trkpt>
      <trkpt lat="23.00905" lon="53.76046">
        <ele>139.9</ele>
      </trkpt>
      <trkpt lat="23.01053" lon="53.76002">
        <ele>134.3</ele>
      </trkpt>
      <trkpt lat="23.01169" lon="53.7593">
        <ele>115.7</ele>
      </trkpt>
      <trkpt lat="23.01261" lon="53.75841">
        <ele>109.0</ele>
      </trkpt>
      <trkpt lat="23.01347" lon="53.75703">
        <ele>107.6</ele>
      </trkpt>
      <trkpt lat="23.01477" lon="53.75422">
        <ele>106.9</ele>
      </trkpt>
      <trkpt lat="23.01568" lon="53.75254">
        <ele>101.1</ele>
      </trkpt>
      <trkpt lat="23.01673" lon="53.75104">
        <ele>93.0</ele>
      </trkpt>
      <trkpt lat="23.0169" lon="53.75088">
        <ele>93.0</ele>
      </trkpt>
      <trkpt lat="23.01706" lon="53.75084">
        <ele>93.0</ele>
      </trkpt>
      <trkpt lat="23.01717" lon="53.75082">
        <ele>93.0</ele>
      </trkpt>
      <trkpt lat="23.01728" lon="53.75075">
        <ele>92.9</ele>
      </trkpt>
      <trkpt lat="23.01735" lon="53.75064">
        <ele>92.6</ele>
      </trkpt>
      <trkpt lat="23.01738" lon="53.7505">
        <ele>92.3</ele>
      </trkpt>
      <trkpt lat="23.01737" lon="53.75042">
        <ele>92.2</ele>
      </trkpt>
      <trkpt lat="23.01738" lon="53.75025">
        <ele>91.8</ele>
      </trkpt>
      <trkpt lat="23.01746" lon="53.75003">
        <ele>91.2</ele>
      </trkpt>
      <trkpt lat="23.01965" lon="53.74716">
        <ele>95.1</ele>
      </trkpt>
      <trkpt lat="23.02049" lon="53.74638">
        <ele>97.4</ele>
      </trkpt>
      <trkpt lat="23.02173" lon="53.74556">
        <ele>108.2</ele>
      </trkpt>
      <trkpt lat="23.02356" lon="53.74487">
        <ele>129.1</ele>
      </trkpt>
      <trkpt lat="23.02526" lon="53.74465">
        <ele>137.5</ele>
      </trkpt>
      <trkpt lat="23.02672" lon="53.74476">
        <ele>141.2</ele>
      </trkpt>
      <trkpt lat="23.02881" lon="53.74545">
        <ele>137.3</ele>
      </trkpt>
      <trkpt lat="23.03008" lon="53.74623">
        <ele>127.4</ele>
      </trkpt>
      <trkpt lat="23.0312" lon="53.74725">
        <ele>114.7</ele>
      </trkpt>
      <trkpt lat="23.03232" lon="53.74876">
        <ele>106.6</ele>
      </trkpt>
      <trkpt lat="23.03478" lon="53.75261">
        <ele>91.9</ele>
      </trkpt>
      <trkpt lat="23.03671" lon="53.75518">
        <ele>103.2</ele>
      </trkpt>
      <trkpt lat="23.03803" lon="53.75653">
        <ele>127.0</ele>
      </trkpt>
      <trkpt lat="23.03922" lon="53.7575">
        <ele>135.1</ele>
      </trkpt>
      <trkpt lat="23.04102" lon="53.75867">
        <ele>139.9</ele>
      </trkpt>
      <trkpt lat="23.04369" lon="53.76028">
        <ele>138.1</ele>
      </trkpt>
      <trkpt lat="23.04526" lon="53.76123">
        <ele>131.4</ele>
      </trkpt>
      <trkpt lat="23.04708" lon="53.76235">
        <ele>115.9</ele>
      </trkpt>
      <trkpt lat="23.0482" lon="53.76345">
        <ele>101.9</ele>
      </trkpt>
      <trkpt lat="23.04879" lon="53.76434">
        <ele>100.1</ele>
      </trkpt>
      <trkpt lat="23.04984" lon="53.76711">
        <ele>98.6</ele>
      </trkpt>
      <trkpt lat="23.0505" lon="53.76902">
        <ele>92.6</ele>
      </trkpt>
      <trkpt lat="23.05049" lon="53.76927">
        <ele>91.2</ele>
      </trkpt>
      <trkpt lat="23.05041" lon="53.76944">
        <ele>90.9</ele>
      </trkpt>
      <trkpt lat="23.05043" lon="53.76964">
        <ele>90.3</ele>
      </trkpt>
      <trkpt lat="23.05051" lon="53.76976">
        <ele>90.0</ele>
      </trkpt>
      <trkpt lat="23.05059" lon="53.76982">
        <ele>90.0</ele>
      </trkpt>
      <trkpt lat="23.05077" lon="53.76991">
        <ele>89.0</ele>
      </trkpt>
      <trkpt lat="23.05147" lon="53.77181">
        <ele>90.0</ele>
      </trkpt>
      <trkpt lat="23.05252" lon="53.77371">
        <ele>92.0</ele>
      </trkpt>
      <trkpt lat="23.05367" lon="53.77481">
        <ele>94.0</ele>
      </trkpt>
      <trkpt lat="23.05553" lon="53.77571">
        <ele>96.0</ele>
      </trkpt>
      <trkpt lat="23.05707" lon="53.7759">
        <ele>108.0</ele>
      </trkpt>
      <trkpt lat="23.05975" lon="53.77561">
        <ele>145.0</ele>
      </trkpt>
      <trkpt lat="23.06439" lon="53.77509">
        <ele>148.0</ele>
      </trkpt>
      <trkpt lat="23.06584" lon="53.77526">
        <ele>138.0</ele>
      </trkpt>
      <trkpt lat="23.0672" lon="53.77581">
        <ele>115.0</ele>
      </trkpt>
      <trkpt lat="23.0684" lon="53.77673">
        <ele>97.0</ele>
      </trkpt>
      <trkpt lat="23.06923" lon="53.77767">
        <ele>95.0</ele>
      </trkpt>
      <trkpt lat="23.07145" lon="53.78028">
        <ele>98.0</ele>
      </trkpt>
      <trkpt lat="23.07316" lon="53.78216">
        <ele>119.0</ele>
      </trkpt>
      <trkpt lat="23.0741" lon="53.78282">
        <ele>121.0</ele>
      </trkpt>
      <trkpt lat="23.07554" lon="53.78341">
        <ele>127.0</ele>
      </trkpt>
      <trkpt lat="23.07979" lon="53.78485">
        <ele>123.0</ele>
      </trkpt>
      <trkpt lat="23.08048" lon="53.78503">
        <ele>124.0</ele>
      </trkpt>
      <trkpt lat="23.08227" lon="53.78509">
        <ele>115.0</ele>
      </trkpt>
      <trkpt lat="23.08384" lon="53.78463">
        <ele>106.3</ele>
      </trkpt>
      <trkpt lat="23.08462" lon="53.78418">
        <ele>102.0</ele>
      </trkpt>
      <trkpt lat="23.08574" lon="53.7832">
        <ele>104.0</ele>
      </trkpt>
      <trkpt lat="23.08642" lon="53.78229">
        <ele>103.0</ele>
      </trkpt>
      <trkpt lat="23.08853" lon="53.77889">
        <ele>112.0</ele>
      </trkpt>
      <trkpt lat="23.08974" lon="53.77679">
        <ele>110.0</ele>
      </trkpt>
      <trkpt lat="23.09096" lon="53.77402">
        <ele>97.0</ele>
      </trkpt>
      <trkpt lat="23.09109" lon="53.77394">
        <ele>97.0</ele>
      </trkpt>
      <trkpt lat="23.09131" lon="53.77377">
        <ele>96.0</ele>
      </trkpt>
      <trkpt lat="23.09133" lon="53.77349">
        <ele>96.0</ele>
      </trkpt>
      <trkpt lat="23.09129" lon="53.77309">
        <ele>97.0</ele>
      </trkpt>
      <trkpt lat="23.09215" lon="53.77067">
        <ele>98.0</ele>
      </trkpt>
      <trkpt lat="23.0925" lon="53.76889">
        <ele>99.0</ele>
      </trkpt>
      <trkpt lat="23.09315" lon="53.7668">
        <ele>98.0</ele>
      </trkpt>
      <trkpt lat="23.09337" lon="53.76606">
        <ele>99.0</ele>
      </trkpt>
      <trkpt lat="23.09356" lon="53.76591">
        <ele>99.0</ele>
      </trkpt>
      <trkpt lat="23.09457" lon="53.7654">
        <ele>102.2</ele>
      </trkpt>
      <trkpt lat="23.09552" lon="53.76513">
        <ele>110.7</ele>
      </trkpt>
      <trkpt lat="23.09644" lon="53.76514">
        <ele>119.7</ele>
      </trkpt>
      <trkpt lat="23.09729" lon="53.76537">
        <ele>126.7</ele>
      </trkpt>
      <trkpt lat="23.09796" lon="53.76574">
        <ele>134.3</ele>
      </trkpt>
      <trkpt lat="23.0998" lon="53.76702">
        <ele>142.4</ele>
      </trkpt>
      <trkpt lat="23.10039" lon="53.76729">
        <ele>143.6</ele>
      </trkpt>
      <trkpt lat="23.10118" lon="53.76744">
        <ele>143.6</ele>
      </trkpt>
      <trkpt lat="23.10199" lon="53.76734">
        <ele>142.9</ele>
      </trkpt>
      <trkpt lat="23.10296" lon="53.76686">
        <ele>144.8</ele>
      </trkpt>
      <trkpt lat="23.10389" lon="53.76603">
        <ele>144.8</ele>
      </trkpt>
      <trkpt lat="23.10455" lon="53.76553">
        <ele>143.8</ele>
      </trkpt>
      <trkpt lat="23.1055" lon="53.76506">
        <ele>144.7</ele>
      </trkpt>
      <trkpt lat="23.10738" lon="53.76427">
        <ele>129.5</ele>
      </trkpt>
      <trkpt lat="23.10846" lon="53.76382">
        <ele>126.9</ele>
      </trkpt>
      <trkpt lat="23.10916" lon="53.7634">
        <ele>126.7</ele>
      </trkpt>
      <trkpt lat="23.11219" lon="53.76039">
        <ele>108.5</ele>
      </trkpt>
      <trkpt lat="23.11294" lon="53.75976">
        <ele>106.1</ele>
      </trkpt>
      <trkpt lat="23.11425" lon="53.75921">
        <ele>99.8</ele>
      </trkpt>
      <trkpt lat="23.11498" lon="53.75889">
        <ele>101.9</ele>
      </trkpt>
      <trkpt lat="23.11526" lon="53.75886">
        <ele>102.0</ele>
      </trkpt>
      <trkpt lat="23.11529" lon="53.75891">
        <ele>102.2</ele>
      </trkpt>
      <trkpt lat="23.11534" lon="53.75896">
        <ele>102.4</ele>
      </trkpt>
      <trkpt lat="23.11543" lon="53.75899">
        <ele>102.5</ele>
      </trkpt>
      <trkpt lat="23.11552" lon="53.75899">
        <ele>102.5</ele>
      </trkpt>
      <trkpt lat="23.1156" lon="53.75895">
        <ele>102.4</ele>
      </trkpt>
      <trkpt lat="23.11566" lon="53.75888">
        <ele>102.2</ele>
      </trkpt>
      <trkpt lat="23.11569" lon="53.75878">
        <ele>102.0</ele>
      </trkpt>
      <trkpt lat="23.11888" lon="53.75324">
        <ele>98.4</ele>
      </trkpt>
      <trkpt lat="23.11902" lon="53.75308">
        <ele>98.8</ele>
      </trkpt>
      <trkpt lat="23.1192" lon="53.75295">
        <ele>99.0</ele>
      </trkpt>
      <trkpt lat="23.11936" lon="53.75289">
        <ele>98.8</ele>
      </trkpt>
      <trkpt lat="23.11946" lon="53.75284">
        <ele>98.7</ele>
      </trkpt>
      <trkpt lat="23.11981" lon="53.75283">
        <ele>98.4</ele>
      </trkpt>
      <trkpt lat="23.12032" lon="53.75296">
        <ele>98.4</ele>
      </trkpt>
      <trkpt lat="23.12132" lon="53.7533">
        <ele>98.8</ele>
      </trkpt>
      <trkpt lat="23.12383" lon="53.75409">
        <ele>99.1</ele>
      </trkpt>
      <trkpt lat="23.12683" lon="53.75506">
        <ele>101.3</ele>
      </trkpt>
      <trkpt lat="23.12841" lon="53.75569">
        <ele>102.7</ele>
      </trkpt>
      <trkpt lat="23.12915" lon="53.7562">
        <ele>108.3</ele>
      </trkpt>
      <trkpt lat="23.12968" lon="53.75671">
        <ele>114.4</ele>
      </trkpt>
      <trkpt lat="23.13033" lon="53.75769">
        <ele>118.3</ele>
      </trkpt>
      <trkpt lat="23.13075" lon="53.75865">
        <ele>118.9</ele>
      </trkpt>
      <trkpt lat="23.13125" lon="53.76004">
        <ele>117.4</ele>
      </trkpt>
      <trkpt lat="23.13188" lon="53.76205">
        <ele>115.7</ele>
      </trkpt>
      <trkpt lat="23.13206" lon="53.76287">
        <ele>115.1</ele>
      </trkpt>
      <trkpt lat="23.13239" lon="53.7651">
        <ele>116.6</ele>
      </trkpt>
      <trkpt lat="23.13249" lon="53.76598">
        <ele>118.4</ele>
      </trkpt>
      <trkpt lat="23.13253" lon="53.76685">
        <ele>120.2</ele>
      </trkpt>
      <trkpt lat="23.13252" lon="53.76767">
        <ele>121.2</ele>
      </trkpt>
      <trkpt lat="23.13236" lon="53.76921">
        <ele>117.8</ele>
      </trkpt>
      <trkpt lat="23.13217" lon="53.77085">
        <ele>117.6</ele>
      </trkpt>
      <trkpt lat="23.13212" lon="53.7721">
        <ele>114.9</ele>
      </trkpt>
      <trkpt lat="23.13218" lon="53.77306">
        <ele>111.2</ele>
      </trkpt>
      <trkpt lat="23.13229" lon="53.77378">
        <ele>109.6</ele>
      </trkpt>
      <trkpt lat="23.13255" lon="53.77492">
        <ele>109.39</ele>
      </trkpt>
      <trkpt lat="23.13291" lon="53.7763">
        <ele>105.8</ele>
      </trkpt>
      <trkpt lat="23.13363" lon="53.77881">
        <ele>103.3</ele>
      </trkpt>
      <trkpt lat="23.13423" lon="53.78059">
        <ele>101.4</ele>
      </trkpt>
      <trkpt lat="23.13546" lon="53.78406">
        <ele>105.2</ele>
      </trkpt>
      <trkpt lat="23.13616" lon="53.78598">
        <ele>106.6</ele>
      </trkpt>
      <trkpt lat="23.13633" lon="53.7865">
        <ele>107.4</ele>
      </trkpt>
      <trkpt lat="23.13635" lon="53.78665">
        <ele>107.6</ele>
      </trkpt>
      <trkpt lat="23.13632" lon="53.78693">
        <ele>109.0</ele>
      </trkpt>
      <trkpt lat="23.13626" lon="53.78713">
        <ele>110.0</ele>
      </trkpt>
      <trkpt lat="23.13622" lon="53.78728">
        <ele>110.8</ele>
      </trkpt>
      <trkpt lat="23.13623" lon="53.78739">
        <ele>111.4</ele>
      </trkpt>
      <trkpt lat="23.13628" lon="53.7875">
        <ele>112.1</ele>
      </trkpt>
      <trkpt lat="23.13633" lon="53.78756">
        <ele>112.3</ele>
      </trkpt>
      <trkpt lat="23.1364" lon="53.78801">
        <ele>113.4</ele>
      </trkpt>
      <trkpt lat="23.13637" lon="53.78823">
        <ele>113.7</ele>
      </trkpt>
      <trkpt lat="23.13603" lon="53.78899">
        <ele>115.3</ele>
      </trkpt>
      <trkpt lat="23.13537" lon="53.7902">
        <ele>116.3</ele>
      </trkpt>
      <trkpt lat="23.13411" lon="53.79251">
        <ele>115.8</ele>
      </trkpt>
      <trkpt lat="23.13359" lon="53.79348">
        <ele>118.6</ele>
      </trkpt>
      <trkpt lat="23.13274" lon="53.79516">
        <ele>129.1</ele>
      </trkpt>
      <trkpt lat="23.1324" lon="53.79609">
        <ele>131.7</ele>
      </trkpt>
      <trkpt lat="23.13225" lon="53.79631">
        <ele>132.4</ele>
      </trkpt>
      <trkpt lat="23.13217" lon="53.79634">
        <ele>132.6</ele>
      </trkpt>
      <trkpt lat="23.13207" lon="53.79643">
        <ele>132.9</ele>
      </trkpt>
      <trkpt lat="23.132" lon="53.79661">
        <ele>133.5</ele>
      </trkpt>
      <trkpt lat="23.13202" lon="53.79678">
        <ele>134.0</ele>
      </trkpt>
      <trkpt lat="23.13212" lon="53.79693">
        <ele>134.4</ele>
      </trkpt>
      <trkpt lat="23.13227" lon="53.79699">
        <ele>134.3</ele>
      </trkpt>
      <trkpt lat="23.13246" lon="53.79695">
        <ele>133.8</ele>
      </trkpt>
      <trkpt lat="23.13252" lon="53.79689">
        <ele>133.5</ele>
      </trkpt>
      <trkpt lat="23.13277" lon="53.79675">
        <ele>132.9</ele>
      </trkpt>
      <trkpt lat="23.13318" lon="53.79667">
        <ele>132.2</ele>
      </trkpt>
      <trkpt lat="23.13471" lon="53.79651">
        <ele>127.7</ele>
      </trkpt>
      <trkpt lat="23.13673" lon="53.7963">
        <ele>125.31</ele>
      </trkpt>
      <trkpt lat="23.13876" lon="53.7961">
        <ele>124.5</ele>
      </trkpt>
      <trkpt lat="23.14136" lon="53.7958">
        <ele>127.3</ele>
      </trkpt>
      <trkpt lat="23.14519" lon="53.79539">
        <ele>126.5</ele>
      </trkpt>
      <trkpt lat="23.1481" lon="53.79509">
        <ele>132.5</ele>
      </trkpt>
      <trkpt lat="23.14835" lon="53.79514">
        <ele>133.7</ele>
      </trkpt>
      <trkpt lat="23.14856" lon="53.79527">
        <ele>133.6</ele>
      </trkpt>
      <trkpt lat="23.14866" lon="53.79535">
        <ele>133.7</ele>
      </trkpt>
      <trkpt lat="23.14876" lon="53.79542">
        <ele>133.8</ele>
      </trkpt>
      <trkpt lat="23.149" lon="53.7955">
        <ele>134.2</ele>
      </trkpt>
      <trkpt lat="23.14921" lon="53.79545">
        <ele>134.4</ele>
      </trkpt>
      <trkpt lat="23.14936" lon="53.79533">
        <ele>134.1</ele>
      </trkpt>
      <trkpt lat="23.1494" lon="53.79527">
        <ele>134.1</ele>
      </trkpt>
      <trkpt lat="23.14949" lon="53.79507">
        <ele>134.3</ele>
      </trkpt>
      <trkpt lat="23.14944" lon="53.79472">
        <ele>134.4</ele>
      </trkpt>
      <trkpt lat="23.14931" lon="53.79456">
        <ele>134.3</ele>
      </trkpt>
      <trkpt lat="23.14926" lon="53.79451">
        <ele>134.2</ele>
      </trkpt>
      <trkpt lat="23.14897" lon="53.79421">
        <ele>133.8</ele>
      </trkpt>
      <trkpt lat="23.14875" lon="53.79377">
        <ele>135.2</ele>
      </trkpt>
      <trkpt lat="23.14847" lon="53.79273">
        <ele>139.8</ele>
      </trkpt>
      <trkpt lat="23.14772" lon="53.79028">
        <ele>136.6</ele>
      </trkpt>
      <trkpt lat="23.14662" lon="53.78602">
        <ele>161.4</ele>
      </trkpt>
      <trkpt lat="23.14528" lon="53.78088">
        <ele>195.5</ele>
      </trkpt>
    </trkseg>
  </trk>
</gpx>