<?xml version="1.0" encoding="UTF-8"?>
<gpx xmlns="http://www.topografix.com/GPX/1/0" xmlns:xsi="http://www.w3.org/2001/XMLSchema-instance" xsi:schemaLocation="http://www.topografix.com/GPX/1/0 http://www.topografix.com/GPX/1/0/gpx.xsd" version="1.0" creator="GPSBabel - https://www.gpsbabel.org">
  <time>2026-01-28T10:47:48.119000Z</time>
  <bounds minlat="24.41767" maxlat="24.44239" minlon="54.32406" maxlon="54.35583" />
  <trk>
    <trkseg>
      <trkpt lat="24.41804" lon="54.34626">
        <ele>1.0</ele>
      </trkpt>
      <trkpt lat="24.41818" lon="54.34619">
        <ele>1.0</ele>
      </trkpt>
      <trkpt lat="24.41856" lon="54.3461">
        <ele>1.0</ele>
      </trkpt>
      <trkpt lat="24.41944" lon="54.34569">
        <ele>1.0</ele>
      </trkpt>
      <trkpt lat="24.41943" lon="54.34567">
        <ele>1.0</ele>
      </trkpt>
      <trkpt lat="24.42" lon="54.34536">
        <ele>-0.1</ele>
      </trkpt>
      <trkpt lat="24.42058" lon="54.34505">
        <ele>1.3</ele>
      </trkpt>
      <trkpt lat="24.42122" lon="54.34482">
        <ele>2.1</ele>
      </trkpt>
      <trkpt lat="24.42145" lon="54.34478">
        <ele>2.7</ele>
      </trkpt>
      <trkpt lat="24.42167" lon="54.34478">
        <ele>3.5</ele>
      </trkpt>
      <trkpt lat="24.4219" lon="54.34482">
        <ele>2.6</ele>
      </trkpt>
      <trkpt lat="24.42222" lon="54.34494">
        <ele>1.3</ele>
      </trkpt>
      <trkpt lat="24.42242" lon="54.34507">
        <ele>0.7</ele>
      </trkpt>
      <trkpt lat="24.42248" lon="54.34512">
        <ele>0.9</ele>
      </trkpt>
      <trkpt lat="24.4226" lon="54.34523">
        <ele>1.4</ele>
      </trkpt>
      <trkpt lat="24.42276" lon="54.34542">
        <ele>2.1</ele>
      </trkpt>
      <trkpt lat="24.42285" lon="54.34556">
        <ele>2.7</ele>
      </trkpt>
      <trkpt lat="24.42345" lon="54.34655">
        <ele>3.0</ele>
      </trkpt>
      <trkpt lat="24.42347" lon="54.34661">
        <ele>3.0</ele>
      </trkpt>
      <trkpt lat="24.42349" lon="54.34669">
        <ele>3.0</ele>
      </trkpt>
      <trkpt lat="24.42348" lon="54.34678">
        <ele>3.2</ele>
      </trkpt>
      <trkpt lat="24.42345" lon="54.34685">
        <ele>3.4</ele>
      </trkpt>
      <trkpt lat="24.42342" lon="54.34688">
        <ele>3.5</ele>
      </trkpt>
      <trkpt lat="24.42291" lon="54.3475">
        <ele>5.0</ele>
      </trkpt>
      <trkpt lat="24.42251" lon="54.34799">
        <ele>3.8</ele>
      </trkpt>
      <trkpt lat="24.42198" lon="54.34876">
        <ele>3.8</ele>
      </trkpt>
      <trkpt lat="24.42166" lon="54.3493">
        <ele>3.7</ele>
      </trkpt>
      <trkpt lat="24.42141" lon="54.34979">
        <ele>2.9</ele>
      </trkpt>
      <trkpt lat="24.42109" lon="54.35077">
        <ele>3.7</ele>
      </trkpt>
      <trkpt lat="24.42085" lon="54.35153">
        <ele>5.6</ele>
      </trkpt>
      <trkpt lat="24.42076" lon="54.35188">
        <ele>5.2</ele>
      </trkpt>
      <trkpt lat="24.42069" lon="54.35224">
        <ele>4.0</ele>
      </trkpt>
      <trkpt lat="24.42066" lon="54.35252">
        <ele>3.2</ele>
      </trkpt>
      <trkpt lat="24.42065" lon="54.3528">
        <ele>3.0</ele>
      </trkpt>
      <trkpt lat="24.42068" lon="54.35301">
        <ele>2.8</ele>
      </trkpt>
      <trkpt lat="24.42077" lon="54.3533">
        <ele>2.3</ele>
      </trkpt>
      <trkpt lat="24.42087" lon="54.35351">
        <ele>2.1</ele>
      </trkpt>
      <trkpt lat="24.42106" lon="54.35373">
        <ele>2.4</ele>
      </trkpt>
      <trkpt lat="24.42123" lon="54.35393">
        <ele>2.6</ele>
      </trkpt>
      <trkpt lat="24.42148" lon="54.35415">
        <ele>2.8</ele>
      </trkpt>
      <trkpt lat="24.42195" lon="54.3545">
        <ele>2.7</ele>
      </trkpt>
      <trkpt lat="24.42234" lon="54.3548">
        <ele>2.9</ele>
      </trkpt>
      <trkpt lat="24.4226" lon="54.35496">
        <ele>2.7</ele>
      </trkpt>
      <trkpt lat="24.42272" lon="54.35504">
        <ele>2.3</ele>
      </trkpt>
      <trkpt lat="24.423" lon="54.35506">
        <ele>1.3</ele>
      </trkpt>
      <trkpt lat="24.42345" lon="54.35501">
        <ele>0.6</ele>
      </trkpt>
      <trkpt lat="24.42377" lon="54.35502">
        <ele>2.1</ele>
      </trkpt>
      <trkpt lat="24.42406" lon="54.35514">
        <ele>3.2</ele>
      </trkpt>
      <trkpt lat="24.4255" lon="54.3558">
        <ele>4.6</ele>
      </trkpt>
      <trkpt lat="24.42573" lon="54.35583">
        <ele>4.9</ele>
      </trkpt>
      <trkpt lat="24.42584" lon="54.35583">
        <ele>5.0</ele>
      </trkpt>
      <trkpt lat="24.4262" lon="54.3558">
        <ele>4.1</ele>
      </trkpt>
      <trkpt lat="24.42657" lon="54.35574">
        <ele>3.2</ele>
      </trkpt>
      <trkpt lat="24.4269" lon="54.35567">
        <ele>2.74</ele>
      </trkpt>
      <trkpt lat="24.42693" lon="54.35566">
        <ele>3.7</ele>
      </trkpt>
      <trkpt lat="24.42731" lon="54.35555">
        <ele>4.3</ele>
      </trkpt>
      <trkpt lat="24.42769" lon="54.35541">
        <ele>4.2</ele>
      </trkpt>
      <trkpt lat="24.42806" lon="54.35525">
        <ele>4.4</ele>
      </trkpt>
      <trkpt lat="24.42838" lon="54.35509">
        <ele>4.8</ele>
      </trkpt>
      <trkpt lat="24.42838" lon="54.35511">
        <ele>4.8</ele>
      </trkpt>
      <trkpt lat="24.42843" lon="54.35508">
        <ele>4.9</ele>
      </trkpt>
      <trkpt lat="24.42845" lon="54.35505">
        <ele>4.5</ele>
      </trkpt>
      <trkpt lat="24.4285" lon="54.35502">
        <ele>4.0</ele>
      </trkpt>
      <trkpt lat="24.42856" lon="54.35495">
        <ele>4.0</ele>
      </trkpt>
      <trkpt lat="24.42863" lon="54.35488">
        <ele>4.0</ele>
      </trkpt>
      <trkpt lat="24.42869" lon="54.3548">
        <ele>3.0</ele>
      </trkpt>
      <trkpt lat="24.42899" lon="54.35441">
        <ele>3.0</ele>
      </trkpt>
      <trkpt lat="24.42922" lon="54.3541">
        <ele>3.0</ele>
      </trkpt>
      <trkpt lat="24.42945" lon="54.3538">
        <ele>2.0</ele>
      </trkpt>
      <trkpt lat="24.42986" lon="54.35326">
        <ele>2.0</ele>
      </trkpt>
      <trkpt lat="24.42998" lon="54.3531">
        <ele>2.0</ele>
      </trkpt>
      <trkpt lat="24.43034" lon="54.35264">
        <ele>2.0</ele>
      </trkpt>
      <trkpt lat="24.43082" lon="54.35203">
        <ele>2.0</ele>
      </trkpt>
      <trkpt lat="24.43111" lon="54.35164">
        <ele>2.0</ele>
      </trkpt>
      <trkpt lat="24.43172" lon="54.35087">
        <ele>2.0</ele>
      </trkpt>
      <trkpt lat="24.43248" lon="54.34987">
        <ele>1.0</ele>
      </trkpt>
      <trkpt lat="24.43266" lon="54.34964">
        <ele>2.0</ele>
      </trkpt>
      <trkpt lat="24.43285" lon="54.34941">
        <ele>2.0</ele>
      </trkpt>
      <trkpt lat="24.43315" lon="54.34903">
        <ele>1.0</ele>
      </trkpt>
      <trkpt lat="24.43321" lon="54.34895">
        <ele>0.83</ele>
      </trkpt>
      <trkpt lat="24.4335" lon="54.34856">
        <ele>2.0</ele>
      </trkpt>
      <trkpt lat="24.43356" lon="54.34849">
        <ele>2.0</ele>
      </trkpt>
      <trkpt lat="24.43391" lon="54.34803">
        <ele>3.0</ele>
      </trkpt>
      <trkpt lat="24.43403" lon="54.34788">
        <ele>3.0</ele>
      </trkpt>
      <trkpt lat="24.43433" lon="54.34749">
        <ele>4.0</ele>
      </trkpt>
      <trkpt lat="24.43451" lon="54.34726">
        <ele>3.0</ele>
      </trkpt>
      <trkpt lat="24.4351" lon="54.34648">
        <ele>4.0</ele>
      </trkpt>
      <trkpt lat="24.43533" lon="54.34618">
        <ele>3.0</ele>
      </trkpt>
      <trkpt lat="24.43551" lon="54.34594">
        <ele>3.0</ele>
      </trkpt>
      <trkpt lat="24.43576" lon="54.34564">
        <ele>2.0</ele>
      </trkpt>
      <trkpt lat="24.43623" lon="54.34504">
        <ele>4.0</ele>
      </trkpt>
      <trkpt lat="24.43647" lon="54.34474">
        <ele>4.0</ele>
      </trkpt>
      <trkpt lat="24.43714" lon="54.34389">
        <ele>2.0</ele>
      </trkpt>
      <trkpt lat="24.43767" lon="54.34319">
        <ele>3.0</ele>
      </trkpt>
      <trkpt lat="24.43855" lon="54.34202">
        <ele>4.9</ele>
      </trkpt>
      <trkpt lat="24.43891" lon="54.34156">
        <ele>6.0</ele>
      </trkpt>
      <trkpt lat="24.43902" lon="54.34143">
        <ele>6.33</ele>
      </trkpt>
      <trkpt lat="24.43927" lon="54.34111">
        <ele>4.9</ele>
      </trkpt>
      <trkpt lat="24.44022" lon="54.33985">
        <ele>2.0</ele>
      </trkpt>
      <trkpt lat="24.44027" lon="54.33977">
        <ele>2.0</ele>
      </trkpt>
      <trkpt lat="24.44037" lon="54.3396">
        <ele>2.0</ele>
      </trkpt>
      <trkpt lat="24.44046" lon="54.33943">
        <ele>3.0</ele>
      </trkpt>
      <trkpt lat="24.44054" lon="54.33925">
        <ele>4.0</ele>
      </trkpt>
      <trkpt lat="24.44065" lon="54.33897">
        <ele>4.0</ele>
      </trkpt>
      <trkpt lat="24.44072" lon="54.33878">
        <ele>4.0</ele>
      </trkpt>
      <trkpt lat="24.44074" lon="54.33868">
        <ele>4.0</ele>
      </trkpt>
      <trkpt lat="24.44079" lon="54.33848">
        <ele>3.0</ele>
      </trkpt>
      <trkpt lat="24.44087" lon="54.33808">
        <ele>3.0</ele>
      </trkpt>
      <trkpt lat="24.44093" lon="54.33758">
        <ele>3.0</ele>
      </trkpt>
      <trkpt lat="24.44095" lon="54.33738">
        <ele>3.0</ele>
      </trkpt>
      <trkpt lat="24.44105" lon="54.33658">
        <ele>4.0</ele>
      </trkpt>
      <trkpt lat="24.4411" lon="54.33608">
        <ele>3.0</ele>
      </trkpt>
      <trkpt lat="24.44114" lon="54.33578">
        <ele>2.0</ele>
      </trkpt>
      <trkpt lat="24.44121" lon="54.33518">
        <ele>2.0</ele>
      </trkpt>
      <trkpt lat="24.44125" lon="54.33487">
        <ele>3.0</ele>
      </trkpt>
      <trkpt lat="24.44127" lon="54.33478">
        <ele>3.0</ele>
      </trkpt>
      <trkpt lat="24.44135" lon="54.33438">
        <ele>3.0</ele>
      </trkpt>
      <trkpt lat="24.44136" lon="54.3343">
        <ele>3.0</ele>
      </trkpt>
      <trkpt lat="24.44135" lon="54.33432">
        <ele>3.0</ele>
      </trkpt>
      <trkpt lat="24.44135" lon="54.33433">
        <ele>3.0</ele>
      </trkpt>
      <trkpt lat="24.44137" lon="54.33426">
        <ele>3.0</ele>
      </trkpt>
      <trkpt lat="24.44137" lon="54.3342">
        <ele>3.0</ele>
      </trkpt>
      <trkpt lat="24.44138" lon="54.33411">
        <ele>3.0</ele>
      </trkpt>
      <trkpt lat="24.44138" lon="54.33412">
        <ele>3.0</ele>
      </trkpt>
      <trkpt lat="24.44138" lon="54.3341">
        <ele>3.0</ele>
      </trkpt>
      <trkpt lat="24.44138" lon="54.33402">
        <ele>3.0</ele>
      </trkpt>
      <trkpt lat="24.44138" lon="54.334">
        <ele>3.0</ele>
      </trkpt>
      <trkpt lat="24.44138" lon="54.33398">
        <ele>3.0</ele>
      </trkpt>
      <trkpt lat="24.44139" lon="54.33384">
        <ele>2.0</ele>
      </trkpt>
      <trkpt lat="24.44141" lon="54.33366">
        <ele>2.0</ele>
      </trkpt>
      <trkpt lat="24.44145" lon="54.33347">
        <ele>1.0</ele>
      </trkpt>
      <trkpt lat="24.44146" lon="54.33339">
        <ele>1.0</ele>
      </trkpt>
      <trkpt lat="24.44153" lon="54.33278">
        <ele>3.0</ele>
      </trkpt>
      <trkpt lat="24.44159" lon="54.33233">
        <ele>2.17</ele>
      </trkpt>
      <trkpt lat="24.4416" lon="54.33223">
        <ele>4.0</ele>
      </trkpt>
      <trkpt lat="24.44161" lon="54.33215">
        <ele>3.0</ele>
      </trkpt>
      <trkpt lat="24.44168" lon="54.33156">
        <ele>1.0</ele>
      </trkpt>
      <trkpt lat="24.44172" lon="54.33117">
        <ele>2.0</ele>
      </trkpt>
      <trkpt lat="24.44174" lon="54.33089">
        <ele>3.0</ele>
      </trkpt>
      <trkpt lat="24.44177" lon="54.33061">
        <ele>3.0</ele>
      </trkpt>
      <trkpt lat="24.44183" lon="54.33012">
        <ele>3.0</ele>
      </trkpt>
      <trkpt lat="24.44189" lon="54.32972">
        <ele>3.0</ele>
      </trkpt>
      <trkpt lat="24.44194" lon="54.32931">
        <ele>4.0</ele>
      </trkpt>
      <trkpt lat="24.44201" lon="54.32872">
        <ele>3.0</ele>
      </trkpt>
      <trkpt lat="24.44207" lon="54.32823">
        <ele>2.0</ele>
      </trkpt>
      <trkpt lat="24.44218" lon="54.32716">
        <ele>2.0</ele>
      </trkpt>
      <trkpt lat="24.4422" lon="54.327">
        <ele>2.4</ele>
      </trkpt>
      <trkpt lat="24.4422" lon="54.32699">
        <ele>2.0</ele>
      </trkpt>
      <trkpt lat="24.44222" lon="54.32682">
        <ele>3.0</ele>
      </trkpt>
      <trkpt lat="24.44223" lon="54.32673">
        <ele>3.0</ele>
      </trkpt>
      <trkpt lat="24.44229" lon="54.32631">
        <ele>4.0</ele>
      </trkpt>
      <trkpt lat="24.44232" lon="54.32605">
        <ele>4.9</ele>
      </trkpt>
      <trkpt lat="24.44235" lon="54.32579">
        <ele>4.9</ele>
      </trkpt>
      <trkpt lat="24.44238" lon="54.32554">
        <ele>4.9</ele>
      </trkpt>
      <trkpt lat="24.44238" lon="54.32545">
        <ele>4.9</ele>
      </trkpt>
      <trkpt lat="24.44239" lon="54.32537">
        <ele>4.9</ele>
      </trkpt>
      <trkpt lat="24.44238" lon="54.32528">
        <ele>4.9</ele>
      </trkpt>
      <trkpt lat="24.44238" lon="54.3252">
        <ele>4.9</ele>
      </trkpt>
      <trkpt lat="24.44235" lon="54.32503">
        <ele>4.9</ele>
      </trkpt>
      <trkpt lat="24.44233" lon="54.32495">
        <ele>4.9</ele>
      </trkpt>
      <trkpt lat="24.4423" lon="54.32487">
        <ele>6.0</ele>
      </trkpt>
      <trkpt lat="24.44227" lon="54.32478">
        <ele>6.0</ele>
      </trkpt>
      <trkpt lat="24.44224" lon="54.32471">
        <ele>6.0</ele>
      </trkpt>
      <trkpt lat="24.4422" lon="54.32464">
        <ele>7.0</ele>
      </trkpt>
      <trkpt lat="24.44215" lon="54.32456">
        <ele>7.0</ele>
      </trkpt>
      <trkpt lat="24.44211" lon="54.3245">
        <ele>7.0</ele>
      </trkpt>
      <trkpt lat="24.44207" lon="54.32445">
        <ele>7.6</ele>
      </trkpt>
      <trkpt lat="24.44205" lon="54.32443">
        <ele>8.0</ele>
      </trkpt>
      <trkpt lat="24.44199" lon="54.32437">
        <ele>8.0</ele>
      </trkpt>
      <trkpt lat="24.44193" lon="54.32432">
        <ele>8.0</ele>
      </trkpt>
      <trkpt lat="24.44181" lon="54.32422">
        <ele>9.0</ele>
      </trkpt>
      <trkpt lat="24.44174" lon="54.32418">
        <ele>9.9</ele>
      </trkpt>
      <trkpt lat="24.44166" lon="54.32415">
        <ele>9.9</ele>
      </trkpt>
      <trkpt lat="24.44165" lon="54.32414">
        <ele>10.07</ele>
      </trkpt>
      <trkpt lat="24.44159" lon="54.32412">
        <ele>9.0</ele>
      </trkpt>
      <trkpt lat="24.44151" lon="54.32409">
        <ele>8.0</ele>
      </trkpt>
      <trkpt lat="24.44144" lon="54.32408">
        <ele>7.0</ele>
      </trkpt>
      <trkpt lat="24.44136" lon="54.32407">
        <ele>7.0</ele>
      </trkpt>
      <trkpt lat="24.44129" lon="54.32406">
        <ele>6.0</ele>
      </trkpt>
      <trkpt lat="24.44121" lon="54.32406">
        <ele>6.0</ele>
      </trkpt>
      <trkpt lat="24.44113" lon="54.32408">
        <ele>4.9</ele>
      </trkpt>
      <trkpt lat="24.44081" lon="54.32413">
        <ele>4.0</ele>
      </trkpt>
      <trkpt lat="24.44057" lon="54.32418">
        <ele>3.0</ele>
      </trkpt>
      <trkpt lat="24.4405" lon="54.3242">
        <ele>3.0</ele>
      </trkpt>
      <trkpt lat="24.44034" lon="54.32423">
        <ele>3.0</ele>
      </trkpt>
      <trkpt lat="24.44001" lon="54.32428">
        <ele>2.0</ele>
      </trkpt>
      <trkpt lat="24.43943" lon="54.32439">
        <ele>1.0</ele>
      </trkpt>
      <trkpt lat="24.43893" lon="54.32447">
        <ele>1.0</ele>
      </trkpt>
      <trkpt lat="24.43843" lon="54.32457">
        <ele>1.0</ele>
      </trkpt>
      <trkpt lat="24.43826" lon="54.3246">
        <ele>1.0</ele>
      </trkpt>
      <trkpt lat="24.43768" lon="54.3247">
        <ele>2.0</ele>
      </trkpt>
      <trkpt lat="24.43718" lon="54.32477">
        <ele>2.0</ele>
      </trkpt>
      <trkpt lat="24.43693" lon="54.32482">
        <ele>2.0</ele>
      </trkpt>
      <trkpt lat="24.4368" lon="54.32484">
        <ele>2.0</ele>
      </trkpt>
      <trkpt lat="24.43674" lon="54.32485">
        <ele>2.0</ele>
      </trkpt>
      <trkpt lat="24.43636" lon="54.32492">
        <ele>3.0</ele>
      </trkpt>
      <trkpt lat="24.4361" lon="54.32498">
        <ele>4.0</ele>
      </trkpt>
      <trkpt lat="24.43572" lon="54.32506">
        <ele>4.0</ele>
      </trkpt>
      <trkpt lat="24.43565" lon="54.32508">
        <ele>4.0</ele>
      </trkpt>
      <trkpt lat="24.43558" lon="54.32511">
        <ele>4.0</ele>
      </trkpt>
      <trkpt lat="24.43551" lon="54.32514">
        <ele>4.0</ele>
      </trkpt>
      <trkpt lat="24.43544" lon="54.32517">
        <ele>3.0</ele>
      </trkpt>
      <trkpt lat="24.43538" lon="54.32521">
        <ele>3.0</ele>
      </trkpt>
      <trkpt lat="24.43524" lon="54.32529">
        <ele>3.0</ele>
      </trkpt>
      <trkpt lat="24.43506" lon="54.32543">
        <ele>2.0</ele>
      </trkpt>
      <trkpt lat="24.43499" lon="54.32549">
        <ele>1.0</ele>
      </trkpt>
      <trkpt lat="24.43488" lon="54.3256">
        <ele>1.0</ele>
      </trkpt>
      <trkpt lat="24.43483" lon="54.32566">
        <ele>1.0</ele>
      </trkpt>
      <trkpt lat="24.43473" lon="54.3258">
      </trkpt>
      <trkpt lat="24.43464" lon="54.32594">
        <ele>1.0</ele>
      </trkpt>
      <trkpt lat="24.43459" lon="54.32601">
        <ele>1.0</ele>
      </trkpt>
      <trkpt lat="24.43452" lon="54.32616">
        <ele>1.0</ele>
      </trkpt>
      <trkpt lat="24.43445" lon="54.32632">
        <ele>2.0</ele>
      </trkpt>
      <trkpt lat="24.43439" lon="54.32657">
        <ele>2.0</ele>
      </trkpt>
      <trkpt lat="24.43435" lon="54.32674">
        <ele>2.0</ele>
      </trkpt>
      <trkpt lat="24.43432" lon="54.32691">
        <ele>3.0</ele>
      </trkpt>
      <trkpt lat="24.43411" lon="54.32776">
        <ele>3.0</ele>
      </trkpt>
      <trkpt lat="24.43408" lon="54.32794">
        <ele>4.0</ele>
      </trkpt>
      <trkpt lat="24.434" lon="54.32828">
        <ele>4.0</ele>
      </trkpt>
      <trkpt lat="24.43398" lon="54.32837">
        <ele>4.0</ele>
      </trkpt>
      <trkpt lat="24.43391" lon="54.32862">
        <ele>3.0</ele>
      </trkpt>
      <trkpt lat="24.43388" lon="54.32871">
        <ele>3.0</ele>
      </trkpt>
      <trkpt lat="24.43385" lon="54.32879">
        <ele>3.0</ele>
      </trkpt>
      <trkpt lat="24.43383" lon="54.32883">
        <ele>3.0</ele>
      </trkpt>
      <trkpt lat="24.43376" lon="54.32897">
        <ele>3.0</ele>
      </trkpt>
      <trkpt lat="24.43372" lon="54.32906">
        <ele>3.0</ele>
      </trkpt>
      <trkpt lat="24.43367" lon="54.32914">
        <ele>3.0</ele>
      </trkpt>
      <trkpt lat="24.43356" lon="54.3293">
        <ele>3.0</ele>
      </trkpt>
      <trkpt lat="24.43351" lon="54.32937">
        <ele>3.0</ele>
      </trkpt>
      <trkpt lat="24.43344" lon="54.32944">
        <ele>4.0</ele>
      </trkpt>
      <trkpt lat="24.43337" lon="54.32951">
        <ele>4.0</ele>
      </trkpt>
      <trkpt lat="24.4333" lon="54.32957">
        <ele>4.0</ele>
      </trkpt>
      <trkpt lat="24.43315" lon="54.32968">
        <ele>4.9</ele>
      </trkpt>
      <trkpt lat="24.43291" lon="54.32982">
        <ele>6.0</ele>
      </trkpt>
      <trkpt lat="24.43283" lon="54.32987">
        <ele>6.0</ele>
      </trkpt>
      <trkpt lat="24.43266" lon="54.32993">
        <ele>6.0</ele>
      </trkpt>
      <trkpt lat="24.43248" lon="54.32999">
        <ele>6.0</ele>
      </trkpt>
      <trkpt lat="24.43238" lon="54.33">
        <ele>6.0</ele>
      </trkpt>
      <trkpt lat="24.43229" lon="54.33001">
        <ele>6.0</ele>
      </trkpt>
      <trkpt lat="24.4322" lon="54.33002">
        <ele>6.0</ele>
      </trkpt>
      <trkpt lat="24.43212" lon="54.33002">
        <ele>4.9</ele>
      </trkpt>
      <trkpt lat="24.43204" lon="54.33001">
        <ele>4.9</ele>
      </trkpt>
      <trkpt lat="24.43197" lon="54.33">
        <ele>4.9</ele>
      </trkpt>
      <trkpt lat="24.4319" lon="54.32999">
        <ele>4.9</ele>
      </trkpt>
      <trkpt lat="24.43184" lon="54.32998">
        <ele>4.9</ele>
      </trkpt>
      <trkpt lat="24.43157" lon="54.3299">
        <ele>4.9</ele>
      </trkpt>
      <trkpt lat="24.43144" lon="54.32985">
        <ele>6.0</ele>
      </trkpt>
      <trkpt lat="24.43138" lon="54.32982">
        <ele>6.0</ele>
      </trkpt>
      <trkpt lat="24.43132" lon="54.32978">
        <ele>6.0</ele>
      </trkpt>
      <trkpt lat="24.43115" lon="54.32966">
        <ele>6.0</ele>
      </trkpt>
      <trkpt lat="24.43108" lon="54.3296">
        <ele>6.0</ele>
      </trkpt>
      <trkpt lat="24.43102" lon="54.32955">
        <ele>4.9</ele>
      </trkpt>
      <trkpt lat="24.43099" lon="54.32953">
        <ele>4.9</ele>
      </trkpt>
      <trkpt lat="24.43096" lon="54.32952">
        <ele>4.9</ele>
      </trkpt>
      <trkpt lat="24.43092" lon="54.32953">
        <ele>4.9</ele>
      </trkpt>
      <trkpt lat="24.4309" lon="54.32955">
        <ele>5.4</ele>
      </trkpt>
      <trkpt lat="24.43089" lon="54.32956">
        <ele>4.9</ele>
      </trkpt>
      <trkpt lat="24.43088" lon="54.3296">
        <ele>6.0</ele>
      </trkpt>
      <trkpt lat="24.4309" lon="54.32964">
        <ele>6.0</ele>
      </trkpt>
      <trkpt lat="24.43097" lon="54.32973">
        <ele>6.0</ele>
      </trkpt>
      <trkpt lat="24.431" lon="54.32977">
        <ele>6.0</ele>
      </trkpt>
      <trkpt lat="24.43103" lon="54.32984">
        <ele>6.0</ele>
      </trkpt>
      <trkpt lat="24.43105" lon="54.3299">
        <ele>6.0</ele>
      </trkpt>
      <trkpt lat="24.43114" lon="54.33019">
        <ele>6.0</ele>
      </trkpt>
      <trkpt lat="24.43117" lon="54.33035">
        <ele>4.9</ele>
      </trkpt>
      <trkpt lat="24.43119" lon="54.33051">
        <ele>4.9</ele>
      </trkpt>
      <trkpt lat="24.4312" lon="54.33059">
        <ele>4.0</ele>
      </trkpt>
      <trkpt lat="24.43119" lon="54.33075">
        <ele>4.0</ele>
      </trkpt>
      <trkpt lat="24.43116" lon="54.331">
        <ele>4.0</ele>
      </trkpt>
      <trkpt lat="24.43115" lon="54.33108">
        <ele>4.0</ele>
      </trkpt>
      <trkpt lat="24.43111" lon="54.33124">
        <ele>4.0</ele>
      </trkpt>
      <trkpt lat="24.43108" lon="54.33132">
        <ele>4.0</ele>
      </trkpt>
      <trkpt lat="24.43106" lon="54.3314">
        <ele>4.0</ele>
      </trkpt>
      <trkpt lat="24.43098" lon="54.33157">
        <ele>4.0</ele>
      </trkpt>
      <trkpt lat="24.4309" lon="54.33172">
        <ele>4.0</ele>
      </trkpt>
      <trkpt lat="24.43085" lon="54.3318">
        <ele>4.0</ele>
      </trkpt>
      <trkpt lat="24.43076" lon="54.33194">
        <ele>4.0</ele>
      </trkpt>
      <trkpt lat="24.43071" lon="54.332">
        <ele>4.0</ele>
      </trkpt>
      <trkpt lat="24.43059" lon="54.33213">
        <ele>4.0</ele>
      </trkpt>
      <trkpt lat="24.43047" lon="54.33224">
        <ele>4.9</ele>
      </trkpt>
      <trkpt lat="24.43041" lon="54.33229">
        <ele>4.9</ele>
      </trkpt>
      <trkpt lat="24.43028" lon="54.33238">
        <ele>4.9</ele>
      </trkpt>
      <trkpt lat="24.43021" lon="54.33243">
        <ele>4.9</ele>
      </trkpt>
      <trkpt lat="24.43006" lon="54.3325">
        <ele>6.0</ele>
      </trkpt>
      <trkpt lat="24.42998" lon="54.33253">
        <ele>6.0</ele>
      </trkpt>
      <trkpt lat="24.42982" lon="54.33258">
        <ele>4.9</ele>
      </trkpt>
      <trkpt lat="24.42974" lon="54.3326">
        <ele>4.9</ele>
      </trkpt>
      <trkpt lat="24.42956" lon="54.33264">
        <ele>4.0</ele>
      </trkpt>
      <trkpt lat="24.4293" lon="54.33268">
        <ele>4.0</ele>
      </trkpt>
      <trkpt lat="24.42896" lon="54.33275">
        <ele>4.0</ele>
      </trkpt>
      <trkpt lat="24.42844" lon="54.33284">
        <ele>4.9</ele>
      </trkpt>
      <trkpt lat="24.42819" lon="54.33288">
        <ele>4.0</ele>
      </trkpt>
      <trkpt lat="24.4281" lon="54.33289">
        <ele>4.0</ele>
      </trkpt>
      <trkpt lat="24.42795" lon="54.3329">
        <ele>3.0</ele>
      </trkpt>
      <trkpt lat="24.42787" lon="54.33288">
        <ele>3.0</ele>
      </trkpt>
      <trkpt lat="24.42782" lon="54.33287">
        <ele>3.0</ele>
      </trkpt>
      <trkpt lat="24.42779" lon="54.33287">
        <ele>3.0</ele>
      </trkpt>
      <trkpt lat="24.42771" lon="54.33284">
        <ele>2.0</ele>
      </trkpt>
      <trkpt lat="24.42764" lon="54.33281">
        <ele>2.0</ele>
      </trkpt>
      <trkpt lat="24.42757" lon="54.33278">
        <ele>2.0</ele>
      </trkpt>
      <trkpt lat="24.42751" lon="54.33273">
        <ele>1.0</ele>
      </trkpt>
      <trkpt lat="24.42738" lon="54.33262">
        <ele>2.0</ele>
      </trkpt>
      <trkpt lat="24.42733" lon="54.33257">
        <ele>2.0</ele>
      </trkpt>
      <trkpt lat="24.42728" lon="54.33251">
        <ele>2.0</ele>
      </trkpt>
      <trkpt lat="24.4272" lon="54.33241">
        <ele>2.0</ele>
      </trkpt>
      <trkpt lat="24.42717" lon="54.33236">
        <ele>3.0</ele>
      </trkpt>
      <trkpt lat="24.42712" lon="54.33224">
        <ele>3.0</ele>
      </trkpt>
      <trkpt lat="24.4271" lon="54.33217">
        <ele>3.0</ele>
      </trkpt>
      <trkpt lat="24.42707" lon="54.33202">
        <ele>3.0</ele>
      </trkpt>
      <trkpt lat="24.42706" lon="54.33195">
        <ele>3.0</ele>
      </trkpt>
      <trkpt lat="24.42705" lon="54.33187">
        <ele>3.0</ele>
      </trkpt>
      <trkpt lat="24.42704" lon="54.33179">
        <ele>3.0</ele>
      </trkpt>
      <trkpt lat="24.42705" lon="54.33171">
        <ele>3.0</ele>
      </trkpt>
      <trkpt lat="24.42706" lon="54.33163">
        <ele>3.0</ele>
      </trkpt>
      <trkpt lat="24.42707" lon="54.33154">
        <ele>3.0</ele>
      </trkpt>
      <trkpt lat="24.42713" lon="54.33138">
        <ele>3.0</ele>
      </trkpt>
      <trkpt lat="24.42716" lon="54.3313">
        <ele>3.0</ele>
      </trkpt>
      <trkpt lat="24.42721" lon="54.33123">
        <ele>3.0</ele>
      </trkpt>
      <trkpt lat="24.42729" lon="54.33109">
        <ele>3.0</ele>
      </trkpt>
      <trkpt lat="24.42734" lon="54.33102">
        <ele>3.0</ele>
      </trkpt>
      <trkpt lat="24.4274" lon="54.33096">
        <ele>3.0</ele>
      </trkpt>
      <trkpt lat="24.42746" lon="54.33091">
        <ele>4.0</ele>
      </trkpt>
      <trkpt lat="24.42753" lon="54.33086">
        <ele>4.0</ele>
      </trkpt>
      <trkpt lat="24.4276" lon="54.33082">
        <ele>4.0</ele>
      </trkpt>
      <trkpt lat="24.42767" lon="54.33078">
        <ele>4.0</ele>
      </trkpt>
      <trkpt lat="24.42775" lon="54.33076">
        <ele>4.0</ele>
      </trkpt>
      <trkpt lat="24.42782" lon="54.33074">
        <ele>4.0</ele>
      </trkpt>
      <trkpt lat="24.4279" lon="54.33072">
        <ele>4.0</ele>
      </trkpt>
      <trkpt lat="24.42798" lon="54.33071">
        <ele>4.0</ele>
      </trkpt>
      <trkpt lat="24.42806" lon="54.33071">
        <ele>4.0</ele>
      </trkpt>
      <trkpt lat="24.42814" lon="54.33071">
        <ele>4.0</ele>
      </trkpt>
      <trkpt lat="24.42822" lon="54.33073">
        <ele>4.0</ele>
      </trkpt>
      <trkpt lat="24.42829" lon="54.33075">
        <ele>4.0</ele>
      </trkpt>
      <trkpt lat="24.42838" lon="54.33078">
        <ele>4.0</ele>
      </trkpt>
      <trkpt lat="24.42846" lon="54.33081">
        <ele>4.0</ele>
      </trkpt>
      <trkpt lat="24.42875" lon="54.33098">
        <ele>6.0</ele>
      </trkpt>
      <trkpt lat="24.42889" lon="54.33108">
        <ele>6.0</ele>
      </trkpt>
      <trkpt lat="24.42902" lon="54.33118">
        <ele>7.0</ele>
      </trkpt>
      <trkpt lat="24.42924" lon="54.33131">
        <ele>7.0</ele>
      </trkpt>
      <trkpt lat="24.42939" lon="54.3314">
        <ele>6.0</ele>
      </trkpt>
      <trkpt lat="24.42946" lon="54.33143">
        <ele>6.0</ele>
      </trkpt>
      <trkpt lat="24.42954" lon="54.33146">
        <ele>6.0</ele>
      </trkpt>
      <trkpt lat="24.42962" lon="54.33147">
        <ele>6.0</ele>
      </trkpt>
      <trkpt lat="24.4297" lon="54.33148">
        <ele>6.0</ele>
      </trkpt>
      <trkpt lat="24.42978" lon="54.33148">
        <ele>6.0</ele>
      </trkpt>
      <trkpt lat="24.42986" lon="54.33148">
        <ele>6.0</ele>
      </trkpt>
      <trkpt lat="24.42995" lon="54.33146">
        <ele>6.0</ele>
      </trkpt>
      <trkpt lat="24.43003" lon="54.33144">
        <ele>4.9</ele>
      </trkpt>
      <trkpt lat="24.4301" lon="54.33141">
        <ele>4.9</ele>
      </trkpt>
      <trkpt lat="24.43018" lon="54.33137">
        <ele>4.9</ele>
      </trkpt>
      <trkpt lat="24.43025" lon="54.33133">
        <ele>4.0</ele>
      </trkpt>
      <trkpt lat="24.43032" lon="54.33128">
        <ele>4.0</ele>
      </trkpt>
      <trkpt lat="24.43038" lon="54.33122">
        <ele>4.0</ele>
      </trkpt>
      <trkpt lat="24.43044" lon="54.33115">
        <ele>4.0</ele>
      </trkpt>
      <trkpt lat="24.43049" lon="54.33108">
        <ele>3.0</ele>
      </trkpt>
      <trkpt lat="24.43053" lon="54.331">
        <ele>3.0</ele>
      </trkpt>
      <trkpt lat="24.43057" lon="54.33093">
        <ele>3.0</ele>
      </trkpt>
      <trkpt lat="24.4306" lon="54.33084">
        <ele>3.0</ele>
      </trkpt>
      <trkpt lat="24.43063" lon="54.33076">
        <ele>4.0</ele>
      </trkpt>
      <trkpt lat="24.43065" lon="54.33067">
        <ele>4.0</ele>
      </trkpt>
      <trkpt lat="24.43066" lon="54.33059">
        <ele>4.0</ele>
      </trkpt>
      <trkpt lat="24.43066" lon="54.3305">
        <ele>4.9</ele>
      </trkpt>
      <trkpt lat="24.43067" lon="54.33041">
        <ele>4.9</ele>
      </trkpt>
      <trkpt lat="24.43066" lon="54.33033">
        <ele>4.9</ele>
      </trkpt>
      <trkpt lat="24.43065" lon="54.33024">
        <ele>4.9</ele>
      </trkpt>
      <trkpt lat="24.43063" lon="54.33015">
        <ele>6.0</ele>
      </trkpt>
      <trkpt lat="24.4306" lon="54.33007">
        <ele>6.0</ele>
      </trkpt>
      <trkpt lat="24.43056" lon="54.32999">
        <ele>6.0</ele>
      </trkpt>
      <trkpt lat="24.43048" lon="54.32984">
        <ele>4.9</ele>
      </trkpt>
      <trkpt lat="24.43042" lon="54.32977">
        <ele>4.9</ele>
      </trkpt>
      <trkpt lat="24.43037" lon="54.3297">
        <ele>4.9</ele>
      </trkpt>
      <trkpt lat="24.43025" lon="54.32958">
        <ele>4.0</ele>
      </trkpt>
      <trkpt lat="24.43019" lon="54.32952">
        <ele>4.0</ele>
      </trkpt>
      <trkpt lat="24.43012" lon="54.32947">
        <ele>4.0</ele>
      </trkpt>
      <trkpt lat="24.43005" lon="54.32942">
        <ele>4.0</ele>
      </trkpt>
      <trkpt lat="24.4299" lon="54.32934">
        <ele>4.0</ele>
      </trkpt>
      <trkpt lat="24.42982" lon="54.32931">
        <ele>4.9</ele>
      </trkpt>
      <trkpt lat="24.42966" lon="54.32926">
        <ele>4.9</ele>
      </trkpt>
      <trkpt lat="24.42958" lon="54.32924">
        <ele>4.9</ele>
      </trkpt>
      <trkpt lat="24.42949" lon="54.32923">
        <ele>6.0</ele>
      </trkpt>
      <trkpt lat="24.42941" lon="54.32923">
        <ele>6.0</ele>
      </trkpt>
      <trkpt lat="24.42933" lon="54.32923">
        <ele>6.0</ele>
      </trkpt>
      <trkpt lat="24.42917" lon="54.32926">
        <ele>7.0</ele>
      </trkpt>
      <trkpt lat="24.429" lon="54.32931">
        <ele>6.0</ele>
      </trkpt>
      <trkpt lat="24.42885" lon="54.32937">
        <ele>6.0</ele>
      </trkpt>
      <trkpt lat="24.42877" lon="54.32941">
        <ele>6.0</ele>
      </trkpt>
      <trkpt lat="24.42857" lon="54.32951">
        <ele>6.75</ele>
      </trkpt>
      <trkpt lat="24.42847" lon="54.32956">
        <ele>4.9</ele>
      </trkpt>
      <trkpt lat="24.42809" lon="54.32979">
        <ele>4.0</ele>
      </trkpt>
      <trkpt lat="24.42781" lon="54.32994">
        <ele>4.0</ele>
      </trkpt>
      <trkpt lat="24.42778" lon="54.32995">
        <ele>4.0</ele>
      </trkpt>
      <trkpt lat="24.42775" lon="54.32995">
        <ele>4.0</ele>
      </trkpt>
      <trkpt lat="24.42772" lon="54.32994">
        <ele>3.9</ele>
      </trkpt>
      <trkpt lat="24.4277" lon="54.32991">
        <ele>4.0</ele>
      </trkpt>
      <trkpt lat="24.4277" lon="54.32988">
        <ele>4.0</ele>
      </trkpt>
      <trkpt lat="24.42772" lon="54.32984">
        <ele>4.0</ele>
      </trkpt>
      <trkpt lat="24.42775" lon="54.32981">
        <ele>4.0</ele>
      </trkpt>
      <trkpt lat="24.42779" lon="54.32977">
        <ele>4.0</ele>
      </trkpt>
      <trkpt lat="24.42781" lon="54.32972">
        <ele>3.0</ele>
      </trkpt>
      <trkpt lat="24.42783" lon="54.32965">
        <ele>3.0</ele>
      </trkpt>
      <trkpt lat="24.42784" lon="54.32958">
        <ele>3.0</ele>
      </trkpt>
      <trkpt lat="24.42783" lon="54.32952">
        <ele>3.0</ele>
      </trkpt>
      <trkpt lat="24.42781" lon="54.32946">
        <ele>3.0</ele>
      </trkpt>
      <trkpt lat="24.42777" lon="54.3294">
        <ele>3.0</ele>
      </trkpt>
      <trkpt lat="24.42772" lon="54.32935">
        <ele>3.0</ele>
      </trkpt>
      <trkpt lat="24.42767" lon="54.32932">
        <ele>2.0</ele>
      </trkpt>
      <trkpt lat="24.42761" lon="54.3293">
        <ele>2.0</ele>
      </trkpt>
      <trkpt lat="24.42754" lon="54.32929">
        <ele>2.0</ele>
      </trkpt>
      <trkpt lat="24.42748" lon="54.32928">
        <ele>2.0</ele>
      </trkpt>
      <trkpt lat="24.42726" lon="54.3293">
        <ele>2.0</ele>
      </trkpt>
      <trkpt lat="24.42712" lon="54.32929">
        <ele>3.0</ele>
      </trkpt>
      <trkpt lat="24.42697" lon="54.32929">
        <ele>3.0</ele>
      </trkpt>
      <trkpt lat="24.42661" lon="54.32924">
        <ele>4.0</ele>
      </trkpt>
      <trkpt lat="24.4264" lon="54.32921">
        <ele>3.0</ele>
      </trkpt>
      <trkpt lat="24.42618" lon="54.32916">
        <ele>2.0</ele>
      </trkpt>
      <trkpt lat="24.42588" lon="54.32907">
        <ele>1.0</ele>
      </trkpt>
      <trkpt lat="24.42574" lon="54.32902">
        <ele>2.0</ele>
      </trkpt>
      <trkpt lat="24.42553" lon="54.32893">
        <ele>2.0</ele>
      </trkpt>
      <trkpt lat="24.42525" lon="54.32881">
        <ele>3.0</ele>
      </trkpt>
      <trkpt lat="24.42503" lon="54.32869">
        <ele>3.0</ele>
      </trkpt>
      <trkpt lat="24.42496" lon="54.32865">
        <ele>3.0</ele>
      </trkpt>
      <trkpt lat="24.42469" lon="54.32846">
        <ele>3.0</ele>
      </trkpt>
      <trkpt lat="24.42455" lon="54.32836">
        <ele>3.0</ele>
      </trkpt>
      <trkpt lat="24.42442" lon="54.32825">
        <ele>3.0</ele>
      </trkpt>
      <trkpt lat="24.42431" lon="54.32814">
        <ele>3.0</ele>
      </trkpt>
      <trkpt lat="24.42405" lon="54.32792">
        <ele>3.0</ele>
      </trkpt>
      <trkpt lat="24.42392" lon="54.32783">
        <ele>2.0</ele>
      </trkpt>
      <trkpt lat="24.42385" lon="54.32778">
        <ele>2.0</ele>
      </trkpt>
      <trkpt lat="24.42378" lon="54.32774">
        <ele>2.0</ele>
      </trkpt>
      <trkpt lat="24.42364" lon="54.32767">
        <ele>1.0</ele>
      </trkpt>
      <trkpt lat="24.4235" lon="54.3276">
      </trkpt>
      <trkpt lat="24.42343" lon="54.32758">
      </trkpt>
      <trkpt lat="24.42335" lon="54.32756">
        <ele>-1.0</ele>
      </trkpt>
      <trkpt lat="24.42327" lon="54.32754">
        <ele>-1.0</ele>
      </trkpt>
      <trkpt lat="24.42302" lon="54.32751">
      </trkpt>
      <trkpt lat="24.42287" lon="54.32749">
        <ele>1.0</ele>
      </trkpt>
      <trkpt lat="24.42279" lon="54.32749">
        <ele>1.0</ele>
      </trkpt>
      <trkpt lat="24.42264" lon="54.3275">
        <ele>1.0</ele>
      </trkpt>
      <trkpt lat="24.42256" lon="54.32752">
        <ele>2.0</ele>
      </trkpt>
      <trkpt lat="24.42248" lon="54.32753">
        <ele>2.0</ele>
      </trkpt>
      <trkpt lat="24.42224" lon="54.32759">
        <ele>2.0</ele>
      </trkpt>
      <trkpt lat="24.4221" lon="54.32764">
        <ele>3.0</ele>
      </trkpt>
      <trkpt lat="24.42208" lon="54.32765">
        <ele>2.6</ele>
      </trkpt>
      <trkpt lat="24.42203" lon="54.32767">
        <ele>3.0</ele>
      </trkpt>
      <trkpt lat="24.42195" lon="54.32771">
        <ele>3.0</ele>
      </trkpt>
      <trkpt lat="24.42188" lon="54.32774">
        <ele>3.0</ele>
      </trkpt>
      <trkpt lat="24.42175" lon="54.32782">
        <ele>3.0</ele>
      </trkpt>
      <trkpt lat="24.4216" lon="54.3279">
        <ele>4.0</ele>
      </trkpt>
      <trkpt lat="24.42153" lon="54.32795">
        <ele>4.0</ele>
      </trkpt>
      <trkpt lat="24.42139" lon="54.32805">
        <ele>4.0</ele>
      </trkpt>
      <trkpt lat="24.42126" lon="54.32815">
        <ele>4.0</ele>
      </trkpt>
      <trkpt lat="24.42094" lon="54.3284">
        <ele>3.13</ele>
      </trkpt>
      <trkpt lat="24.42093" lon="54.32841">
        <ele>4.9</ele>
      </trkpt>
      <trkpt lat="24.42067" lon="54.32864">
        <ele>6.0</ele>
      </trkpt>
      <trkpt lat="24.42055" lon="54.32876">
        <ele>6.0</ele>
      </trkpt>
      <trkpt lat="24.42044" lon="54.32889">
        <ele>6.0</ele>
      </trkpt>
      <trkpt lat="24.42015" lon="54.32923">
        <ele>6.0</ele>
      </trkpt>
      <trkpt lat="24.42003" lon="54.32939">
        <ele>4.9</ele>
      </trkpt>
      <trkpt lat="24.41993" lon="54.32955">
        <ele>4.0</ele>
      </trkpt>
      <trkpt lat="24.41972" lon="54.32986">
        <ele>3.0</ele>
      </trkpt>
      <trkpt lat="24.41934" lon="54.3305">
        <ele>3.0</ele>
      </trkpt>
      <trkpt lat="24.41924" lon="54.33066">
        <ele>3.0</ele>
      </trkpt>
      <trkpt lat="24.41907" lon="54.33095">
        <ele>2.0</ele>
      </trkpt>
      <trkpt lat="24.41904" lon="54.33101">
        <ele>2.0</ele>
      </trkpt>
      <trkpt lat="24.41898" lon="54.33115">
        <ele>3.0</ele>
      </trkpt>
      <trkpt lat="24.4189" lon="54.33137">
        <ele>3.0</ele>
      </trkpt>
      <trkpt lat="24.41887" lon="54.33144">
        <ele>4.0</ele>
      </trkpt>
      <trkpt lat="24.41885" lon="54.33152">
        <ele>4.0</ele>
      </trkpt>
      <trkpt lat="24.41881" lon="54.33167">
        <ele>4.0</ele>
      </trkpt>
      <trkpt lat="24.41879" lon="54.33182">
        <ele>4.0</ele>
      </trkpt>
      <trkpt lat="24.41877" lon="54.33197">
        <ele>4.0</ele>
      </trkpt>
      <trkpt lat="24.41876" lon="54.33221">
        <ele>4.0</ele>
      </trkpt>
      <trkpt lat="24.41877" lon="54.33236">
        <ele>4.9</ele>
      </trkpt>
      <trkpt lat="24.41877" lon="54.33244">
        <ele>4.9</ele>
      </trkpt>
      <trkpt lat="24.41878" lon="54.33252">
        <ele>4.9</ele>
      </trkpt>
      <trkpt lat="24.41883" lon="54.33278">
        <ele>4.0</ele>
      </trkpt>
      <trkpt lat="24.41887" lon="54.33294">
        <ele>4.0</ele>
      </trkpt>
      <trkpt lat="24.41893" lon="54.33311">
        <ele>4.0</ele>
      </trkpt>
      <trkpt lat="24.41899" lon="54.33327">
        <ele>3.0</ele>
      </trkpt>
      <trkpt lat="24.41903" lon="54.33335">
        <ele>3.0</ele>
      </trkpt>
      <trkpt lat="24.41911" lon="54.3335">
        <ele>3.0</ele>
      </trkpt>
      <trkpt lat="24.4192" lon="54.33365">
        <ele>3.0</ele>
      </trkpt>
      <trkpt lat="24.41925" lon="54.33372">
        <ele>3.0</ele>
      </trkpt>
      <trkpt lat="24.41936" lon="54.33385">
        <ele>3.0</ele>
      </trkpt>
      <trkpt lat="24.41947" lon="54.33398">
        <ele>4.0</ele>
      </trkpt>
      <trkpt lat="24.41953" lon="54.33403">
        <ele>4.0</ele>
      </trkpt>
      <trkpt lat="24.41978" lon="54.33426">
        <ele>4.9</ele>
      </trkpt>
      <trkpt lat="24.41984" lon="54.33431">
        <ele>4.9</ele>
      </trkpt>
      <trkpt lat="24.41991" lon="54.33437">
        <ele>4.9</ele>
      </trkpt>
      <trkpt lat="24.41997" lon="54.33442">
        <ele>6.0</ele>
      </trkpt>
      <trkpt lat="24.42004" lon="54.33446">
        <ele>6.0</ele>
      </trkpt>
      <trkpt lat="24.42016" lon="54.33456">
        <ele>4.9</ele>
      </trkpt>
      <trkpt lat="24.42029" lon="54.33466">
        <ele>4.9</ele>
      </trkpt>
      <trkpt lat="24.42035" lon="54.33472">
        <ele>4.9</ele>
      </trkpt>
      <trkpt lat="24.42047" lon="54.33484">
        <ele>4.9</ele>
      </trkpt>
      <trkpt lat="24.4207" lon="54.33509">
        <ele>4.9</ele>
      </trkpt>
      <trkpt lat="24.42086" lon="54.33529">
        <ele>4.9</ele>
      </trkpt>
      <trkpt lat="24.42091" lon="54.33536">
        <ele>4.9</ele>
      </trkpt>
      <trkpt lat="24.421" lon="54.33551">
        <ele>4.9</ele>
      </trkpt>
      <trkpt lat="24.42105" lon="54.33559">
        <ele>4.9</ele>
      </trkpt>
      <trkpt lat="24.42109" lon="54.33566">
        <ele>4.9</ele>
      </trkpt>
      <trkpt lat="24.42121" lon="54.33599">
        <ele>4.0</ele>
      </trkpt>
      <trkpt lat="24.4213" lon="54.33622">
        <ele>4.0</ele>
      </trkpt>
      <trkpt lat="24.42136" lon="54.33638">
        <ele>4.0</ele>
      </trkpt>
      <trkpt lat="24.42136" lon="54.33641">
        <ele>4.3</ele>
      </trkpt>
      <trkpt lat="24.42138" lon="54.33646">
        <ele>3.0</ele>
      </trkpt>
      <trkpt lat="24.42143" lon="54.33669">
        <ele>3.0</ele>
      </trkpt>
      <trkpt lat="24.42147" lon="54.33691">
        <ele>3.0</ele>
      </trkpt>
      <trkpt lat="24.42149" lon="54.33709">
        <ele>3.0</ele>
      </trkpt>
      <trkpt lat="24.42149" lon="54.3371">
        <ele>3.0</ele>
      </trkpt>
      <trkpt lat="24.42149" lon="54.33712">
        <ele>3.0</ele>
      </trkpt>
      <trkpt lat="24.4215" lon="54.33718">
        <ele>3.0</ele>
      </trkpt>
      <trkpt lat="24.4215" lon="54.33724">
        <ele>3.0</ele>
      </trkpt>
      <trkpt lat="24.4215" lon="54.33737">
        <ele>3.0</ele>
      </trkpt>
      <trkpt lat="24.4215" lon="54.33751">
        <ele>3.0</ele>
      </trkpt>
      <trkpt lat="24.42148" lon="54.33774">
        <ele>3.0</ele>
      </trkpt>
      <trkpt lat="24.42146" lon="54.33795">
        <ele>2.0</ele>
      </trkpt>
      <trkpt lat="24.42143" lon="54.3381">
        <ele>2.0</ele>
      </trkpt>
      <trkpt lat="24.4214" lon="54.33825">
        <ele>2.0</ele>
      </trkpt>
      <trkpt lat="24.42136" lon="54.33841">
        <ele>1.0</ele>
      </trkpt>
      <trkpt lat="24.42129" lon="54.33864">
        <ele>1.0</ele>
      </trkpt>
      <trkpt lat="24.42123" lon="54.33879">
        <ele>1.0</ele>
      </trkpt>
      <trkpt lat="24.42113" lon="54.33902">
      </trkpt>
      <trkpt lat="24.42109" lon="54.3391">
      </trkpt>
      <trkpt lat="24.42095" lon="54.33935">
      </trkpt>
      <trkpt lat="24.4209" lon="54.33943">
      </trkpt>
      <trkpt lat="24.42085" lon="54.33951">
      </trkpt>
      <trkpt lat="24.42073" lon="54.33966">
        <ele>1.0</ele>
      </trkpt>
      <trkpt lat="24.42061" lon="54.3398">
        <ele>1.0</ele>
      </trkpt>
      <trkpt lat="24.42055" lon="54.33987">
        <ele>2.0</ele>
      </trkpt>
      <trkpt lat="24.42035" lon="54.34007">
        <ele>2.0</ele>
      </trkpt>
      <trkpt lat="24.42014" lon="54.34026">
        <ele>3.0</ele>
      </trkpt>
      <trkpt lat="24.41978" lon="54.34059">
        <ele>3.0</ele>
      </trkpt>
      <trkpt lat="24.41964" lon="54.34073">
        <ele>3.0</ele>
      </trkpt>
      <trkpt lat="24.41957" lon="54.3408">
        <ele>3.0</ele>
      </trkpt>
      <trkpt lat="24.41938" lon="54.34102">
        <ele>3.0</ele>
      </trkpt>
      <trkpt lat="24.4192" lon="54.34124">
        <ele>3.0</ele>
      </trkpt>
      <trkpt lat="24.41896" lon="54.34156">
        <ele>3.0</ele>
      </trkpt>
      <trkpt lat="24.4189" lon="54.34164">
        <ele>4.0</ele>
      </trkpt>
      <trkpt lat="24.41875" lon="54.34189">
        <ele>4.0</ele>
      </trkpt>
      <trkpt lat="24.41859" lon="54.34214">
        <ele>3.0</ele>
      </trkpt>
      <trkpt lat="24.41855" lon="54.34223">
        <ele>3.0</ele>
      </trkpt>
      <trkpt lat="24.41845" lon="54.3424">
        <ele>3.0</ele>
      </trkpt>
      <trkpt lat="24.41836" lon="54.34258">
        <ele>3.0</ele>
      </trkpt>
      <trkpt lat="24.4182" lon="54.34295">
        <ele>3.0</ele>
      </trkpt>
      <trkpt lat="24.41806" lon="54.34332">
        <ele>2.0</ele>
      </trkpt>
      <trkpt lat="24.4179" lon="54.3438">
        <ele>3.0</ele>
      </trkpt>
      <trkpt lat="24.41784" lon="54.34399">
        <ele>3.0</ele>
      </trkpt>
      <trkpt lat="24.41779" lon="54.34419">
        <ele>3.0</ele>
      </trkpt>
      <trkpt lat="24.41776" lon="54.34438">
        <ele>3.0</ele>
      </trkpt>
      <trkpt lat="24.41767" lon="54.3449">
        <ele>2.0</ele>
      </trkpt>
    </trkseg>
  </trk>
</gpx>