<?xml version="1.0" encoding="UTF-8"?>
<gpx xmlns="http://www.topografix.com/GPX/1/0" xmlns:xsi="http://www.w3.org/2001/XMLSchema-instance" xsi:schemaLocation="http://www.topografix.com/GPX/1/0 http://www.topografix.com/GPX/1/0/gpx.xsd" version="1.0" creator="GPSBabel - https://www.gpsbabel.org">
  <time>2026-02-07T14:31:03.837000Z</time>
  <bounds minlat="37.09087" maxlat="37.31678" minlon="-8.81316" maxlon="-8.15803" />
  <trk>
    <trkseg>
      <trkpt lat="37.12675" lon="-8.24178">
        <ele>74.0</ele>
      </trkpt>
      <trkpt lat="37.12626" lon="-8.23868">
        <ele>75.0</ele>
      </trkpt>
      <trkpt lat="37.12603" lon="-8.23735">
        <ele>77.0</ele>
      </trkpt>
      <trkpt lat="37.12597" lon="-8.23727">
        <ele>77.0</ele>
      </trkpt>
      <trkpt lat="37.12602" lon="-8.23719">
        <ele>77.0</ele>
      </trkpt>
      <trkpt lat="37.12582" lon="-8.23591">
        <ele>77.0</ele>
      </trkpt>
      <trkpt lat="37.1257" lon="-8.23512">
        <ele>77.0</ele>
      </trkpt>
      <trkpt lat="37.12534" lon="-8.23279">
        <ele>78.0</ele>
      </trkpt>
      <trkpt lat="37.12526" lon="-8.23225">
        <ele>78.0</ele>
      </trkpt>
      <trkpt lat="37.12494" lon="-8.23008">
        <ele>78.0</ele>
      </trkpt>
      <trkpt lat="37.12463" lon="-8.22702">
        <ele>78.0</ele>
      </trkpt>
      <trkpt lat="37.12435" lon="-8.22402">
        <ele>79.0</ele>
      </trkpt>
      <trkpt lat="37.12422" lon="-8.22388">
        <ele>80.0</ele>
      </trkpt>
      <trkpt lat="37.12331" lon="-8.22395">
        <ele>81.0</ele>
      </trkpt>
      <trkpt lat="37.1231" lon="-8.22409">
        <ele>82.0</ele>
      </trkpt>
      <trkpt lat="37.12294" lon="-8.22381">
        <ele>82.0</ele>
      </trkpt>
      <trkpt lat="37.12313" lon="-8.22361">
        <ele>82.0</ele>
      </trkpt>
      <trkpt lat="37.12372" lon="-8.22194">
        <ele>82.0</ele>
      </trkpt>
      <trkpt lat="37.12399" lon="-8.22067">
        <ele>81.0</ele>
      </trkpt>
      <trkpt lat="37.124" lon="-8.21886">
        <ele>79.0</ele>
      </trkpt>
      <trkpt lat="37.12377" lon="-8.2172">
        <ele>77.0</ele>
      </trkpt>
      <trkpt lat="37.12327" lon="-8.2159">
        <ele>75.0</ele>
      </trkpt>
      <trkpt lat="37.12239" lon="-8.21376">
        <ele>73.0</ele>
      </trkpt>
      <trkpt lat="37.12206" lon="-8.21225">
        <ele>69.0</ele>
      </trkpt>
      <trkpt lat="37.12155" lon="-8.20728">
        <ele>61.0</ele>
      </trkpt>
      <trkpt lat="37.12159" lon="-8.20601">
        <ele>59.0</ele>
      </trkpt>
      <trkpt lat="37.12251" lon="-8.20337">
        <ele>62.0</ele>
      </trkpt>
      <trkpt lat="37.12351" lon="-8.20022">
        <ele>69.0</ele>
      </trkpt>
      <trkpt lat="37.12358" lon="-8.19814">
        <ele>70.0</ele>
      </trkpt>
      <trkpt lat="37.12349" lon="-8.19787">
        <ele>70.0</ele>
      </trkpt>
      <trkpt lat="37.12363" lon="-8.19754">
        <ele>70.0</ele>
      </trkpt>
      <trkpt lat="37.1238" lon="-8.1951">
        <ele>68.0</ele>
      </trkpt>
      <trkpt lat="37.12358" lon="-8.19291">
        <ele>62.0</ele>
      </trkpt>
      <trkpt lat="37.12268" lon="-8.18925">
        <ele>53.0</ele>
      </trkpt>
      <trkpt lat="37.12201" lon="-8.18669">
        <ele>52.0</ele>
      </trkpt>
      <trkpt lat="37.12131" lon="-8.18303">
        <ele>52.0</ele>
      </trkpt>
      <trkpt lat="37.12122" lon="-8.18279">
        <ele>50.0</ele>
      </trkpt>
      <trkpt lat="37.12129" lon="-8.18189">
        <ele>48.0</ele>
      </trkpt>
      <trkpt lat="37.12206" lon="-8.17887">
        <ele>40.0</ele>
      </trkpt>
      <trkpt lat="37.12399" lon="-8.1728">
        <ele>26.0</ele>
      </trkpt>
      <trkpt lat="37.12505" lon="-8.1686">
        <ele>27.0</ele>
      </trkpt>
      <trkpt lat="37.12658" lon="-8.16545">
        <ele>36.0</ele>
      </trkpt>
      <trkpt lat="37.12669" lon="-8.16319">
        <ele>43.0</ele>
      </trkpt>
      <trkpt lat="37.12674" lon="-8.16084">
        <ele>47.0</ele>
      </trkpt>
      <trkpt lat="37.12684" lon="-8.15988">
        <ele>51.0</ele>
      </trkpt>
      <trkpt lat="37.12678" lon="-8.15964">
        <ele>52.0</ele>
      </trkpt>
      <trkpt lat="37.12696" lon="-8.15948">
        <ele>53.0</ele>
      </trkpt>
      <trkpt lat="37.12718" lon="-8.15963">
        <ele>54.0</ele>
      </trkpt>
      <trkpt lat="37.13038" lon="-8.15913">
        <ele>63.0</ele>
      </trkpt>
      <trkpt lat="37.13241" lon="-8.15912">
        <ele>77.0</ele>
      </trkpt>
      <trkpt lat="37.13357" lon="-8.15946">
        <ele>87.0</ele>
      </trkpt>
      <trkpt lat="37.13475" lon="-8.15835">
        <ele>94.0</ele>
      </trkpt>
      <trkpt lat="37.13503" lon="-8.15803">
        <ele>99.0</ele>
      </trkpt>
      <trkpt lat="37.13533" lon="-8.1583">
        <ele>101.0</ele>
      </trkpt>
      <trkpt lat="37.13503" lon="-8.15903">
        <ele>104.0</ele>
      </trkpt>
      <trkpt lat="37.13527" lon="-8.16027">
        <ele>109.0</ele>
      </trkpt>
      <trkpt lat="37.13684" lon="-8.16172">
        <ele>120.0</ele>
      </trkpt>
      <trkpt lat="37.13816" lon="-8.16169">
        <ele>129.0</ele>
      </trkpt>
      <trkpt lat="37.13929" lon="-8.16138">
        <ele>134.0</ele>
      </trkpt>
      <trkpt lat="37.13985" lon="-8.16206">
        <ele>133.0</ele>
      </trkpt>
      <trkpt lat="37.14066" lon="-8.16274">
        <ele>131.0</ele>
      </trkpt>
      <trkpt lat="37.14111" lon="-8.16259">
        <ele>131.0</ele>
      </trkpt>
      <trkpt lat="37.14159" lon="-8.16266">
        <ele>130.0</ele>
      </trkpt>
      <trkpt lat="37.14213" lon="-8.16381">
        <ele>131.0</ele>
      </trkpt>
      <trkpt lat="37.14234" lon="-8.1653">
        <ele>133.0</ele>
      </trkpt>
      <trkpt lat="37.14305" lon="-8.16577">
        <ele>134.0</ele>
      </trkpt>
      <trkpt lat="37.14439" lon="-8.16811">
        <ele>134.0</ele>
      </trkpt>
      <trkpt lat="37.1452" lon="-8.16932">
        <ele>135.0</ele>
      </trkpt>
      <trkpt lat="37.14616" lon="-8.17305">
        <ele>136.0</ele>
      </trkpt>
      <trkpt lat="37.14655" lon="-8.17464">
        <ele>137.0</ele>
      </trkpt>
      <trkpt lat="37.14766" lon="-8.17516">
        <ele>139.0</ele>
      </trkpt>
      <trkpt lat="37.1481" lon="-8.17615">
        <ele>143.0</ele>
      </trkpt>
      <trkpt lat="37.14837" lon="-8.17713">
        <ele>147.0</ele>
      </trkpt>
      <trkpt lat="37.14899" lon="-8.17792">
        <ele>149.0</ele>
      </trkpt>
      <trkpt lat="37.15057" lon="-8.18008">
        <ele>152.0</ele>
      </trkpt>
      <trkpt lat="37.15192" lon="-8.18143">
        <ele>152.0</ele>
      </trkpt>
      <trkpt lat="37.15324" lon="-8.1811">
        <ele>145.0</ele>
      </trkpt>
      <trkpt lat="37.15452" lon="-8.18187">
        <ele>133.0</ele>
      </trkpt>
      <trkpt lat="37.15658" lon="-8.18249">
        <ele>119.0</ele>
      </trkpt>
      <trkpt lat="37.15763" lon="-8.18235">
        <ele>111.0</ele>
      </trkpt>
      <trkpt lat="37.15875" lon="-8.18189">
        <ele>105.0</ele>
      </trkpt>
      <trkpt lat="37.16052" lon="-8.18284">
        <ele>96.0</ele>
      </trkpt>
      <trkpt lat="37.16332" lon="-8.18275">
        <ele>90.0</ele>
      </trkpt>
      <trkpt lat="37.164" lon="-8.18333">
        <ele>94.0</ele>
      </trkpt>
      <trkpt lat="37.16429" lon="-8.18545">
        <ele>101.0</ele>
      </trkpt>
      <trkpt lat="37.16506" lon="-8.18614">
        <ele>107.0</ele>
      </trkpt>
      <trkpt lat="37.1652" lon="-8.18693">
        <ele>111.0</ele>
      </trkpt>
      <trkpt lat="37.16557" lon="-8.18737">
        <ele>114.0</ele>
      </trkpt>
      <trkpt lat="37.16561" lon="-8.18812">
        <ele>118.0</ele>
      </trkpt>
      <trkpt lat="37.16606" lon="-8.18907">
        <ele>122.0</ele>
      </trkpt>
      <trkpt lat="37.16756" lon="-8.1902">
        <ele>128.0</ele>
      </trkpt>
      <trkpt lat="37.16886" lon="-8.1905">
        <ele>133.0</ele>
      </trkpt>
      <trkpt lat="37.17203" lon="-8.19155">
        <ele>129.0</ele>
      </trkpt>
      <trkpt lat="37.17356" lon="-8.19231">
        <ele>122.0</ele>
      </trkpt>
      <trkpt lat="37.17444" lon="-8.19253">
        <ele>118.0</ele>
      </trkpt>
      <trkpt lat="37.17574" lon="-8.19393">
        <ele>116.0</ele>
      </trkpt>
      <trkpt lat="37.17619" lon="-8.19544">
        <ele>111.0</ele>
      </trkpt>
      <trkpt lat="37.17602" lon="-8.19912">
        <ele>98.0</ele>
      </trkpt>
      <trkpt lat="37.17613" lon="-8.20077">
        <ele>88.0</ele>
      </trkpt>
      <trkpt lat="37.17614" lon="-8.2013">
        <ele>84.0</ele>
      </trkpt>
      <trkpt lat="37.17622" lon="-8.2028">
        <ele>76.0</ele>
      </trkpt>
      <trkpt lat="37.17602" lon="-8.2039">
        <ele>66.0</ele>
      </trkpt>
      <trkpt lat="37.17591" lon="-8.20481">
        <ele>59.0</ele>
      </trkpt>
      <trkpt lat="37.17551" lon="-8.20653">
        <ele>56.0</ele>
      </trkpt>
      <trkpt lat="37.17568" lon="-8.20702">
        <ele>56.0</ele>
      </trkpt>
      <trkpt lat="37.17606" lon="-8.20784">
        <ele>55.0</ele>
      </trkpt>
      <trkpt lat="37.17648" lon="-8.20973">
        <ele>55.0</ele>
      </trkpt>
      <trkpt lat="37.17701" lon="-8.21042">
        <ele>55.0</ele>
      </trkpt>
      <trkpt lat="37.17771" lon="-8.21083">
        <ele>55.0</ele>
      </trkpt>
      <trkpt lat="37.17916" lon="-8.21084">
        <ele>57.0</ele>
      </trkpt>
      <trkpt lat="37.17994" lon="-8.21106">
        <ele>58.0</ele>
      </trkpt>
      <trkpt lat="37.18125" lon="-8.2115">
        <ele>58.0</ele>
      </trkpt>
      <trkpt lat="37.18293" lon="-8.21133">
        <ele>59.0</ele>
      </trkpt>
      <trkpt lat="37.1843" lon="-8.21103">
        <ele>59.0</ele>
      </trkpt>
      <trkpt lat="37.18513" lon="-8.21105">
        <ele>59.0</ele>
      </trkpt>
      <trkpt lat="37.18703" lon="-8.21196">
        <ele>59.0</ele>
      </trkpt>
      <trkpt lat="37.18781" lon="-8.21214">
        <ele>60.0</ele>
      </trkpt>
      <trkpt lat="37.18872" lon="-8.21262">
        <ele>60.0</ele>
      </trkpt>
      <trkpt lat="37.18941" lon="-8.21288">
        <ele>60.0</ele>
      </trkpt>
      <trkpt lat="37.19064" lon="-8.21268">
        <ele>60.0</ele>
      </trkpt>
      <trkpt lat="37.19196" lon="-8.21298">
        <ele>61.0</ele>
      </trkpt>
      <trkpt lat="37.1936" lon="-8.21362">
        <ele>64.0</ele>
      </trkpt>
      <trkpt lat="37.19472" lon="-8.2141">
        <ele>65.0</ele>
      </trkpt>
      <trkpt lat="37.19681" lon="-8.21555">
        <ele>66.0</ele>
      </trkpt>
      <trkpt lat="37.19806" lon="-8.21736">
        <ele>68.0</ele>
      </trkpt>
      <trkpt lat="37.20155" lon="-8.22003">
        <ele>72.0</ele>
      </trkpt>
      <trkpt lat="37.20586" lon="-8.22414">
        <ele>75.0</ele>
      </trkpt>
      <trkpt lat="37.21208" lon="-8.23166">
        <ele>89.0</ele>
      </trkpt>
      <trkpt lat="37.21362" lon="-8.23299">
        <ele>97.0</ele>
      </trkpt>
      <trkpt lat="37.21741" lon="-8.23423">
        <ele>105.0</ele>
      </trkpt>
      <trkpt lat="37.22119" lon="-8.23606">
        <ele>98.0</ele>
      </trkpt>
      <trkpt lat="37.22383" lon="-8.23724">
        <ele>101.0</ele>
      </trkpt>
      <trkpt lat="37.22597" lon="-8.23922">
        <ele>108.0</ele>
      </trkpt>
      <trkpt lat="37.22725" lon="-8.24058">
        <ele>114.0</ele>
      </trkpt>
      <trkpt lat="37.22911" lon="-8.24109">
        <ele>120.0</ele>
      </trkpt>
      <trkpt lat="37.23294" lon="-8.24306">
        <ele>127.0</ele>
      </trkpt>
      <trkpt lat="37.23817" lon="-8.24694">
        <ele>135.0</ele>
      </trkpt>
      <trkpt lat="37.23991" lon="-8.24815">
        <ele>147.0</ele>
      </trkpt>
      <trkpt lat="37.24191" lon="-8.24992">
        <ele>159.0</ele>
      </trkpt>
      <trkpt lat="37.24377" lon="-8.24966">
        <ele>163.0</ele>
      </trkpt>
      <trkpt lat="37.24439" lon="-8.24951">
        <ele>161.0</ele>
      </trkpt>
      <trkpt lat="37.2445" lon="-8.24971">
        <ele>160.0</ele>
      </trkpt>
      <trkpt lat="37.24552" lon="-8.25175">
        <ele>154.0</ele>
      </trkpt>
      <trkpt lat="37.2484" lon="-8.25717">
        <ele>135.0</ele>
      </trkpt>
      <trkpt lat="37.25014" lon="-8.2597">
        <ele>123.0</ele>
      </trkpt>
      <trkpt lat="37.25089" lon="-8.26119">
        <ele>117.0</ele>
      </trkpt>
      <trkpt lat="37.25241" lon="-8.26298">
        <ele>110.0</ele>
      </trkpt>
      <trkpt lat="37.25263" lon="-8.26336">
        <ele>108.0</ele>
      </trkpt>
      <trkpt lat="37.25218" lon="-8.2636">
        <ele>106.0</ele>
      </trkpt>
      <trkpt lat="37.25144" lon="-8.26497">
        <ele>106.0</ele>
      </trkpt>
      <trkpt lat="37.25059" lon="-8.27063">
        <ele>110.0</ele>
      </trkpt>
      <trkpt lat="37.25061" lon="-8.27131">
        <ele>110.0</ele>
      </trkpt>
      <trkpt lat="37.25109" lon="-8.27306">
        <ele>108.0</ele>
      </trkpt>
      <trkpt lat="37.25139" lon="-8.27343">
        <ele>108.0</ele>
      </trkpt>
      <trkpt lat="37.25141" lon="-8.27416">
        <ele>108.0</ele>
      </trkpt>
      <trkpt lat="37.25229" lon="-8.27693">
        <ele>109.0</ele>
      </trkpt>
      <trkpt lat="37.25193" lon="-8.27866">
        <ele>121.0</ele>
      </trkpt>
      <trkpt lat="37.25142" lon="-8.28062">
        <ele>134.0</ele>
      </trkpt>
      <trkpt lat="37.25066" lon="-8.283">
        <ele>142.0</ele>
      </trkpt>
      <trkpt lat="37.25038" lon="-8.28497">
        <ele>148.0</ele>
      </trkpt>
      <trkpt lat="37.25118" lon="-8.2866">
        <ele>150.0</ele>
      </trkpt>
      <trkpt lat="37.25149" lon="-8.28679">
        <ele>150.0</ele>
      </trkpt>
      <trkpt lat="37.25243" lon="-8.28793">
        <ele>152.0</ele>
      </trkpt>
      <trkpt lat="37.25382" lon="-8.28952">
        <ele>164.0</ele>
      </trkpt>
      <trkpt lat="37.25417" lon="-8.29177">
        <ele>171.0</ele>
      </trkpt>
      <trkpt lat="37.25679" lon="-8.29564">
        <ele>171.0</ele>
      </trkpt>
      <trkpt lat="37.25754" lon="-8.29843">
        <ele>166.0</ele>
      </trkpt>
      <trkpt lat="37.25823" lon="-8.30439">
        <ele>151.0</ele>
      </trkpt>
      <trkpt lat="37.25743" lon="-8.30729">
        <ele>148.0</ele>
      </trkpt>
      <trkpt lat="37.256" lon="-8.30903">
        <ele>153.0</ele>
      </trkpt>
      <trkpt lat="37.25235" lon="-8.30985">
        <ele>170.0</ele>
      </trkpt>
      <trkpt lat="37.25119" lon="-8.3115">
        <ele>175.0</ele>
      </trkpt>
      <trkpt lat="37.25094" lon="-8.31319">
        <ele>175.0</ele>
      </trkpt>
      <trkpt lat="37.24987" lon="-8.31413">
        <ele>173.0</ele>
      </trkpt>
      <trkpt lat="37.24869" lon="-8.31448">
        <ele>171.0</ele>
      </trkpt>
      <trkpt lat="37.24641" lon="-8.31565">
        <ele>169.0</ele>
      </trkpt>
      <trkpt lat="37.24418" lon="-8.32058">
        <ele>169.0</ele>
      </trkpt>
      <trkpt lat="37.2435" lon="-8.322">
        <ele>169.0</ele>
      </trkpt>
      <trkpt lat="37.24159" lon="-8.32361">
        <ele>166.0</ele>
      </trkpt>
      <trkpt lat="37.2381" lon="-8.32765">
        <ele>157.0</ele>
      </trkpt>
      <trkpt lat="37.2339" lon="-8.33553">
        <ele>145.0</ele>
      </trkpt>
      <trkpt lat="37.23067" lon="-8.34172">
        <ele>138.0</ele>
      </trkpt>
      <trkpt lat="37.23015" lon="-8.34577">
        <ele>130.0</ele>
      </trkpt>
      <trkpt lat="37.2228" lon="-8.36048">
        <ele>112.0</ele>
      </trkpt>
      <trkpt lat="37.21852" lon="-8.36804">
        <ele>89.0</ele>
      </trkpt>
      <trkpt lat="37.21816" lon="-8.37086">
        <ele>73.0</ele>
      </trkpt>
      <trkpt lat="37.2171" lon="-8.37291">
        <ele>64.0</ele>
      </trkpt>
      <trkpt lat="37.21678" lon="-8.37462">
        <ele>55.0</ele>
      </trkpt>
      <trkpt lat="37.21585" lon="-8.37611">
        <ele>45.0</ele>
      </trkpt>
      <trkpt lat="37.21488" lon="-8.37778">
        <ele>38.0</ele>
      </trkpt>
      <trkpt lat="37.21417" lon="-8.37825">
        <ele>37.0</ele>
      </trkpt>
      <trkpt lat="37.21261" lon="-8.38052">
        <ele>39.0</ele>
      </trkpt>
      <trkpt lat="37.21169" lon="-8.38409">
        <ele>38.0</ele>
      </trkpt>
      <trkpt lat="37.20982" lon="-8.38705">
        <ele>29.0</ele>
      </trkpt>
      <trkpt lat="37.20907" lon="-8.38906">
        <ele>21.0</ele>
      </trkpt>
      <trkpt lat="37.21059" lon="-8.39081">
        <ele>17.0</ele>
      </trkpt>
      <trkpt lat="37.21056" lon="-8.39314">
        <ele>20.0</ele>
      </trkpt>
      <trkpt lat="37.20895" lon="-8.39732">
        <ele>20.0</ele>
      </trkpt>
      <trkpt lat="37.20852" lon="-8.39935">
        <ele>18.0</ele>
      </trkpt>
      <trkpt lat="37.20872" lon="-8.40424">
        <ele>19.0</ele>
      </trkpt>
      <trkpt lat="37.20801" lon="-8.40597">
        <ele>23.0</ele>
      </trkpt>
      <trkpt lat="37.20641" lon="-8.40812">
        <ele>26.0</ele>
      </trkpt>
      <trkpt lat="37.20444" lon="-8.41467">
        <ele>28.0</ele>
      </trkpt>
      <trkpt lat="37.20304" lon="-8.41948">
        <ele>25.0</ele>
      </trkpt>
      <trkpt lat="37.20252" lon="-8.42067">
        <ele>23.0</ele>
      </trkpt>
      <trkpt lat="37.20223" lon="-8.42143">
        <ele>23.0</ele>
      </trkpt>
      <trkpt lat="37.20178" lon="-8.42319">
        <ele>23.0</ele>
      </trkpt>
      <trkpt lat="37.20091" lon="-8.42537">
        <ele>20.0</ele>
      </trkpt>
      <trkpt lat="37.2004" lon="-8.42695">
        <ele>15.0</ele>
      </trkpt>
      <trkpt lat="37.20009" lon="-8.42732">
        <ele>14.0</ele>
      </trkpt>
      <trkpt lat="37.199" lon="-8.42799">
        <ele>16.0</ele>
      </trkpt>
      <trkpt lat="37.19799" lon="-8.42862">
        <ele>16.0</ele>
      </trkpt>
      <trkpt lat="37.19762" lon="-8.42888">
        <ele>16.0</ele>
      </trkpt>
      <trkpt lat="37.1972" lon="-8.42928">
        <ele>16.0</ele>
      </trkpt>
      <trkpt lat="37.19676" lon="-8.42974">
        <ele>15.0</ele>
      </trkpt>
      <trkpt lat="37.19646" lon="-8.43004">
        <ele>15.0</ele>
      </trkpt>
      <trkpt lat="37.19482" lon="-8.43168">
        <ele>14.0</ele>
      </trkpt>
      <trkpt lat="37.19422" lon="-8.43239">
        <ele>11.0</ele>
      </trkpt>
      <trkpt lat="37.19416" lon="-8.43272">
        <ele>11.0</ele>
      </trkpt>
      <trkpt lat="37.19402" lon="-8.43289">
        <ele>10.0</ele>
      </trkpt>
      <trkpt lat="37.19386" lon="-8.43281">
        <ele>10.0</ele>
      </trkpt>
      <trkpt lat="37.19327" lon="-8.4329">
        <ele>9.0</ele>
      </trkpt>
      <trkpt lat="37.19144" lon="-8.43374">
        <ele>8.0</ele>
      </trkpt>
      <trkpt lat="37.19057" lon="-8.43412">
        <ele>8.0</ele>
      </trkpt>
      <trkpt lat="37.19013" lon="-8.43432">
        <ele>7.0</ele>
      </trkpt>
      <trkpt lat="37.18902" lon="-8.43516">
        <ele>7.0</ele>
      </trkpt>
      <trkpt lat="37.18813" lon="-8.43662">
        <ele>6.0</ele>
      </trkpt>
      <trkpt lat="37.18794" lon="-8.43662">
        <ele>6.0</ele>
      </trkpt>
      <trkpt lat="37.18678" lon="-8.43594">
        <ele>5.0</ele>
      </trkpt>
      <trkpt lat="37.18624" lon="-8.43586">
        <ele>7.0</ele>
      </trkpt>
      <trkpt lat="37.18574" lon="-8.43638">
        <ele>10.0</ele>
      </trkpt>
      <trkpt lat="37.1852" lon="-8.43699">
        <ele>15.0</ele>
      </trkpt>
      <trkpt lat="37.18418" lon="-8.43836">
        <ele>19.0</ele>
      </trkpt>
      <trkpt lat="37.18187" lon="-8.44056">
        <ele>35.0</ele>
      </trkpt>
      <trkpt lat="37.17939" lon="-8.4427">
        <ele>58.0</ele>
      </trkpt>
      <trkpt lat="37.17844" lon="-8.44337">
        <ele>60.0</ele>
      </trkpt>
      <trkpt lat="37.17748" lon="-8.44378">
        <ele>58.0</ele>
      </trkpt>
      <trkpt lat="37.1762" lon="-8.44391">
        <ele>56.0</ele>
      </trkpt>
      <trkpt lat="37.17447" lon="-8.4436">
        <ele>57.0</ele>
      </trkpt>
      <trkpt lat="37.16864" lon="-8.44244">
        <ele>54.0</ele>
      </trkpt>
      <trkpt lat="37.16767" lon="-8.44251">
        <ele>58.0</ele>
      </trkpt>
      <trkpt lat="37.16676" lon="-8.44284">
        <ele>63.0</ele>
      </trkpt>
      <trkpt lat="37.16227" lon="-8.44537">
        <ele>68.0</ele>
      </trkpt>
      <trkpt lat="37.16011" lon="-8.4468">
        <ele>69.0</ele>
      </trkpt>
      <trkpt lat="37.1561" lon="-8.44956">
        <ele>75.0</ele>
      </trkpt>
      <trkpt lat="37.15384" lon="-8.45078">
        <ele>79.0</ele>
      </trkpt>
      <trkpt lat="37.15211" lon="-8.45139">
        <ele>78.0</ele>
      </trkpt>
      <trkpt lat="37.15176" lon="-8.45153">
        <ele>78.0</ele>
      </trkpt>
      <trkpt lat="37.15122" lon="-8.45147">
        <ele>77.0</ele>
      </trkpt>
      <trkpt lat="37.1502" lon="-8.45193">
        <ele>75.0</ele>
      </trkpt>
      <trkpt lat="37.14988" lon="-8.45196">
        <ele>74.0</ele>
      </trkpt>
      <trkpt lat="37.14936" lon="-8.4519">
        <ele>72.0</ele>
      </trkpt>
      <trkpt lat="37.14709" lon="-8.45266">
        <ele>70.0</ele>
      </trkpt>
      <trkpt lat="37.14544" lon="-8.45406">
        <ele>68.0</ele>
      </trkpt>
      <trkpt lat="37.14465" lon="-8.45523">
        <ele>66.0</ele>
      </trkpt>
      <trkpt lat="37.14334" lon="-8.45888">
        <ele>68.0</ele>
      </trkpt>
      <trkpt lat="37.1414" lon="-8.46511">
        <ele>64.0</ele>
      </trkpt>
      <trkpt lat="37.1404" lon="-8.46704">
        <ele>60.0</ele>
      </trkpt>
      <trkpt lat="37.13883" lon="-8.46956">
        <ele>53.0</ele>
      </trkpt>
      <trkpt lat="37.13925" lon="-8.47035">
        <ele>53.0</ele>
      </trkpt>
      <trkpt lat="37.13958" lon="-8.46951">
        <ele>54.0</ele>
      </trkpt>
      <trkpt lat="37.13808" lon="-8.46569">
        <ele>54.0</ele>
      </trkpt>
      <trkpt lat="37.13581" lon="-8.46092">
        <ele>47.0</ele>
      </trkpt>
      <trkpt lat="37.13496" lon="-8.4596">
        <ele>46.0</ele>
      </trkpt>
      <trkpt lat="37.13467" lon="-8.45959">
        <ele>46.0</ele>
      </trkpt>
      <trkpt lat="37.13515" lon="-8.46053">
        <ele>46.0</ele>
      </trkpt>
      <trkpt lat="37.13616" lon="-8.46253">
        <ele>44.0</ele>
      </trkpt>
      <trkpt lat="37.13641" lon="-8.46306">
        <ele>42.0</ele>
      </trkpt>
      <trkpt lat="37.13641" lon="-8.46331">
        <ele>42.0</ele>
      </trkpt>
      <trkpt lat="37.13621" lon="-8.46405">
        <ele>42.0</ele>
      </trkpt>
      <trkpt lat="37.13628" lon="-8.46704">
        <ele>41.0</ele>
      </trkpt>
      <trkpt lat="37.13633" lon="-8.46842">
        <ele>41.0</ele>
      </trkpt>
      <trkpt lat="37.13662" lon="-8.46986">
        <ele>42.0</ele>
      </trkpt>
      <trkpt lat="37.13685" lon="-8.47023">
        <ele>43.0</ele>
      </trkpt>
      <trkpt lat="37.1378" lon="-8.47168">
        <ele>43.0</ele>
      </trkpt>
      <trkpt lat="37.13891" lon="-8.47272">
        <ele>44.0</ele>
      </trkpt>
      <trkpt lat="37.14048" lon="-8.47403">
        <ele>48.0</ele>
      </trkpt>
      <trkpt lat="37.1416" lon="-8.47666">
        <ele>46.0</ele>
      </trkpt>
      <trkpt lat="37.14201" lon="-8.47771">
        <ele>44.0</ele>
      </trkpt>
      <trkpt lat="37.14267" lon="-8.48037">
        <ele>34.0</ele>
      </trkpt>
      <trkpt lat="37.14308" lon="-8.48139">
        <ele>27.0</ele>
      </trkpt>
      <trkpt lat="37.14374" lon="-8.482">
        <ele>23.0</ele>
      </trkpt>
      <trkpt lat="37.14388" lon="-8.48222">
        <ele>21.0</ele>
      </trkpt>
      <trkpt lat="37.14389" lon="-8.48241">
        <ele>20.0</ele>
      </trkpt>
      <trkpt lat="37.14368" lon="-8.48394">
        <ele>16.0</ele>
      </trkpt>
      <trkpt lat="37.14373" lon="-8.48441">
        <ele>15.0</ele>
      </trkpt>
      <trkpt lat="37.14408" lon="-8.48661">
        <ele>14.0</ele>
      </trkpt>
      <trkpt lat="37.14454" lon="-8.48793">
        <ele>12.0</ele>
      </trkpt>
      <trkpt lat="37.14467" lon="-8.48821">
        <ele>11.0</ele>
      </trkpt>
      <trkpt lat="37.14493" lon="-8.48892">
        <ele>11.0</ele>
      </trkpt>
      <trkpt lat="37.14532" lon="-8.49011">
        <ele>11.0</ele>
      </trkpt>
      <trkpt lat="37.14535" lon="-8.49022">
        <ele>11.0</ele>
      </trkpt>
      <trkpt lat="37.145" lon="-8.49296">
        <ele>14.0</ele>
      </trkpt>
      <trkpt lat="37.14462" lon="-8.49527">
        <ele>14.0</ele>
      </trkpt>
      <trkpt lat="37.14463" lon="-8.49611">
        <ele>12.0</ele>
      </trkpt>
      <trkpt lat="37.14469" lon="-8.49637">
        <ele>12.0</ele>
      </trkpt>
      <trkpt lat="37.14459" lon="-8.49714">
        <ele>12.0</ele>
      </trkpt>
      <trkpt lat="37.14473" lon="-8.50019">
        <ele>11.0</ele>
      </trkpt>
      <trkpt lat="37.14474" lon="-8.50131">
        <ele>10.0</ele>
      </trkpt>
      <trkpt lat="37.14491" lon="-8.50147">
        <ele>10.0</ele>
      </trkpt>
      <trkpt lat="37.14536" lon="-8.50111">
        <ele>10.0</ele>
      </trkpt>
      <trkpt lat="37.14696" lon="-8.49969">
        <ele>15.0</ele>
      </trkpt>
      <trkpt lat="37.14812" lon="-8.49874">
        <ele>16.0</ele>
      </trkpt>
      <trkpt lat="37.14889" lon="-8.49802">
        <ele>11.0</ele>
      </trkpt>
      <trkpt lat="37.14991" lon="-8.49689">
        <ele>8.0</ele>
      </trkpt>
      <trkpt lat="37.15077" lon="-8.49577">
        <ele>7.0</ele>
      </trkpt>
      <trkpt lat="37.15122" lon="-8.49536">
        <ele>8.0</ele>
      </trkpt>
      <trkpt lat="37.1522" lon="-8.49556">
        <ele>10.0</ele>
      </trkpt>
      <trkpt lat="37.15284" lon="-8.4956">
        <ele>10.0</ele>
      </trkpt>
      <trkpt lat="37.15298" lon="-8.49507">
        <ele>10.0</ele>
      </trkpt>
      <trkpt lat="37.15269" lon="-8.49475">
        <ele>10.0</ele>
      </trkpt>
      <trkpt lat="37.15233" lon="-8.49492">
        <ele>10.0</ele>
      </trkpt>
      <trkpt lat="37.1518" lon="-8.49605">
        <ele>9.0</ele>
      </trkpt>
      <trkpt lat="37.15111" lon="-8.4977">
        <ele>7.0</ele>
      </trkpt>
      <trkpt lat="37.15089" lon="-8.49928">
        <ele>5.0</ele>
      </trkpt>
      <trkpt lat="37.15182" lon="-8.51152">
        <ele>2.0</ele>
      </trkpt>
      <trkpt lat="37.15208" lon="-8.51482">
      </trkpt>
      <trkpt lat="37.15256" lon="-8.51981">
        <ele>1.0</ele>
      </trkpt>
      <trkpt lat="37.15315" lon="-8.52376">
        <ele>5.0</ele>
      </trkpt>
      <trkpt lat="37.15404" lon="-8.52815">
        <ele>12.0</ele>
      </trkpt>
      <trkpt lat="37.15531" lon="-8.53344">
        <ele>22.0</ele>
      </trkpt>
      <trkpt lat="37.1559" lon="-8.53566">
        <ele>26.0</ele>
      </trkpt>
      <trkpt lat="37.15632" lon="-8.53599">
        <ele>27.0</ele>
      </trkpt>
      <trkpt lat="37.15704" lon="-8.5363">
        <ele>26.0</ele>
      </trkpt>
      <trkpt lat="37.15759" lon="-8.53667">
        <ele>26.0</ele>
      </trkpt>
      <trkpt lat="37.1597" lon="-8.53544">
        <ele>27.0</ele>
      </trkpt>
      <trkpt lat="37.16086" lon="-8.53479">
        <ele>25.0</ele>
      </trkpt>
      <trkpt lat="37.16107" lon="-8.53452">
        <ele>24.0</ele>
      </trkpt>
      <trkpt lat="37.16119" lon="-8.53402">
        <ele>24.0</ele>
      </trkpt>
      <trkpt lat="37.16162" lon="-8.53408">
        <ele>26.0</ele>
      </trkpt>
      <trkpt lat="37.16235" lon="-8.53386">
        <ele>28.0</ele>
      </trkpt>
      <trkpt lat="37.1636" lon="-8.5331">
        <ele>32.0</ele>
      </trkpt>
      <trkpt lat="37.16584" lon="-8.53149">
        <ele>35.0</ele>
      </trkpt>
      <trkpt lat="37.16659" lon="-8.5312">
        <ele>34.0</ele>
      </trkpt>
      <trkpt lat="37.16686" lon="-8.53096">
        <ele>32.0</ele>
      </trkpt>
      <trkpt lat="37.16721" lon="-8.53102">
        <ele>29.0</ele>
      </trkpt>
      <trkpt lat="37.16822" lon="-8.53078">
        <ele>24.0</ele>
      </trkpt>
      <trkpt lat="37.16953" lon="-8.53107">
        <ele>15.0</ele>
      </trkpt>
      <trkpt lat="37.17081" lon="-8.53196">
        <ele>7.0</ele>
      </trkpt>
      <trkpt lat="37.17195" lon="-8.53248">
        <ele>2.0</ele>
      </trkpt>
      <trkpt lat="37.17344" lon="-8.53264">
      </trkpt>
      <trkpt lat="37.17462" lon="-8.53253">
      </trkpt>
      <trkpt lat="37.17486" lon="-8.53214">
        <ele>1.0</ele>
      </trkpt>
      <trkpt lat="37.17518" lon="-8.53211">
        <ele>2.0</ele>
      </trkpt>
      <trkpt lat="37.17545" lon="-8.53261">
        <ele>3.0</ele>
      </trkpt>
      <trkpt lat="37.17614" lon="-8.53274">
        <ele>4.0</ele>
      </trkpt>
      <trkpt lat="37.17741" lon="-8.53275">
        <ele>4.0</ele>
      </trkpt>
      <trkpt lat="37.17865" lon="-8.53311">
        <ele>7.0</ele>
      </trkpt>
      <trkpt lat="37.17968" lon="-8.53333">
        <ele>9.0</ele>
      </trkpt>
      <trkpt lat="37.18202" lon="-8.53345">
        <ele>6.0</ele>
      </trkpt>
      <trkpt lat="37.18265" lon="-8.53369">
        <ele>6.0</ele>
      </trkpt>
      <trkpt lat="37.18342" lon="-8.53369">
        <ele>7.0</ele>
      </trkpt>
      <trkpt lat="37.18448" lon="-8.53342">
        <ele>11.0</ele>
      </trkpt>
      <trkpt lat="37.18509" lon="-8.53306">
        <ele>14.0</ele>
      </trkpt>
      <trkpt lat="37.18804" lon="-8.53116">
        <ele>8.0</ele>
      </trkpt>
      <trkpt lat="37.19027" lon="-8.52984">
        <ele>9.0</ele>
      </trkpt>
      <trkpt lat="37.19221" lon="-8.52952">
        <ele>7.0</ele>
      </trkpt>
      <trkpt lat="37.1954" lon="-8.52899">
        <ele>9.0</ele>
      </trkpt>
      <trkpt lat="37.1977" lon="-8.52861">
        <ele>10.0</ele>
      </trkpt>
      <trkpt lat="37.19836" lon="-8.5286">
        <ele>11.0</ele>
      </trkpt>
      <trkpt lat="37.19967" lon="-8.5288">
        <ele>14.0</ele>
      </trkpt>
      <trkpt lat="37.20025" lon="-8.52904">
        <ele>14.0</ele>
      </trkpt>
      <trkpt lat="37.20058" lon="-8.52916">
        <ele>13.0</ele>
      </trkpt>
      <trkpt lat="37.2006" lon="-8.52963">
        <ele>12.0</ele>
      </trkpt>
      <trkpt lat="37.20122" lon="-8.53087">
        <ele>12.0</ele>
      </trkpt>
      <trkpt lat="37.20479" lon="-8.53582">
        <ele>16.0</ele>
      </trkpt>
      <trkpt lat="37.20598" lon="-8.537">
        <ele>17.0</ele>
      </trkpt>
      <trkpt lat="37.20661" lon="-8.53776">
        <ele>16.0</ele>
      </trkpt>
      <trkpt lat="37.20843" lon="-8.53965">
        <ele>17.0</ele>
      </trkpt>
      <trkpt lat="37.21223" lon="-8.54222">
        <ele>22.0</ele>
      </trkpt>
      <trkpt lat="37.21381" lon="-8.54324">
        <ele>24.0</ele>
      </trkpt>
      <trkpt lat="37.21439" lon="-8.54335">
        <ele>25.0</ele>
      </trkpt>
      <trkpt lat="37.21771" lon="-8.54351">
        <ele>26.0</ele>
      </trkpt>
      <trkpt lat="37.21988" lon="-8.54362">
        <ele>30.0</ele>
      </trkpt>
      <trkpt lat="37.22114" lon="-8.54366">
        <ele>30.0</ele>
      </trkpt>
      <trkpt lat="37.2227" lon="-8.54374">
        <ele>31.0</ele>
      </trkpt>
      <trkpt lat="37.2252" lon="-8.54385">
        <ele>35.0</ele>
      </trkpt>
      <trkpt lat="37.22724" lon="-8.54391">
        <ele>36.0</ele>
      </trkpt>
      <trkpt lat="37.22917" lon="-8.54401">
        <ele>36.0</ele>
      </trkpt>
      <trkpt lat="37.22986" lon="-8.54387">
        <ele>36.0</ele>
      </trkpt>
      <trkpt lat="37.2313" lon="-8.54336">
        <ele>37.0</ele>
      </trkpt>
      <trkpt lat="37.23184" lon="-8.54345">
        <ele>37.0</ele>
      </trkpt>
      <trkpt lat="37.23291" lon="-8.54373">
        <ele>37.0</ele>
      </trkpt>
      <trkpt lat="37.23377" lon="-8.54377">
        <ele>37.0</ele>
      </trkpt>
      <trkpt lat="37.23505" lon="-8.5431">
        <ele>38.0</ele>
      </trkpt>
      <trkpt lat="37.23553" lon="-8.54314">
        <ele>38.0</ele>
      </trkpt>
      <trkpt lat="37.2367" lon="-8.54412">
        <ele>38.0</ele>
      </trkpt>
      <trkpt lat="37.23873" lon="-8.54584">
        <ele>40.0</ele>
      </trkpt>
      <trkpt lat="37.23942" lon="-8.54612">
        <ele>45.0</ele>
      </trkpt>
      <trkpt lat="37.24623" lon="-8.54633">
        <ele>51.0</ele>
      </trkpt>
      <trkpt lat="37.24733" lon="-8.54593">
        <ele>56.0</ele>
      </trkpt>
      <trkpt lat="37.24817" lon="-8.54567">
        <ele>59.0</ele>
      </trkpt>
      <trkpt lat="37.24961" lon="-8.54323">
        <ele>60.0</ele>
      </trkpt>
      <trkpt lat="37.24982" lon="-8.54233">
        <ele>61.0</ele>
      </trkpt>
      <trkpt lat="37.25032" lon="-8.54152">
        <ele>61.0</ele>
      </trkpt>
      <trkpt lat="37.2515" lon="-8.5404">
        <ele>64.0</ele>
      </trkpt>
      <trkpt lat="37.25353" lon="-8.53907">
        <ele>72.0</ele>
      </trkpt>
      <trkpt lat="37.25397" lon="-8.53931">
        <ele>73.0</ele>
      </trkpt>
      <trkpt lat="37.255" lon="-8.54012">
        <ele>74.0</ele>
      </trkpt>
      <trkpt lat="37.2572" lon="-8.54156">
        <ele>75.0</ele>
      </trkpt>
      <trkpt lat="37.25964" lon="-8.54339">
        <ele>79.0</ele>
      </trkpt>
      <trkpt lat="37.26296" lon="-8.54521">
        <ele>85.0</ele>
      </trkpt>
      <trkpt lat="37.26408" lon="-8.54558">
        <ele>87.0</ele>
      </trkpt>
      <trkpt lat="37.26592" lon="-8.54575">
        <ele>92.0</ele>
      </trkpt>
      <trkpt lat="37.2669" lon="-8.5455">
        <ele>95.0</ele>
      </trkpt>
      <trkpt lat="37.26735" lon="-8.54558">
        <ele>97.0</ele>
      </trkpt>
      <trkpt lat="37.26811" lon="-8.54646">
        <ele>100.0</ele>
      </trkpt>
      <trkpt lat="37.26951" lon="-8.54744">
        <ele>105.0</ele>
      </trkpt>
      <trkpt lat="37.27224" lon="-8.54937">
        <ele>123.0</ele>
      </trkpt>
      <trkpt lat="37.27376" lon="-8.55069">
        <ele>136.0</ele>
      </trkpt>
      <trkpt lat="37.27499" lon="-8.55033">
        <ele>141.0</ele>
      </trkpt>
      <trkpt lat="37.27567" lon="-8.55005">
        <ele>147.0</ele>
      </trkpt>
      <trkpt lat="37.27658" lon="-8.54952">
        <ele>155.0</ele>
      </trkpt>
      <trkpt lat="37.27783" lon="-8.54968">
        <ele>162.0</ele>
      </trkpt>
      <trkpt lat="37.2791" lon="-8.54967">
        <ele>170.0</ele>
      </trkpt>
      <trkpt lat="37.27964" lon="-8.54986">
        <ele>175.0</ele>
      </trkpt>
      <trkpt lat="37.27979" lon="-8.55031">
        <ele>178.0</ele>
      </trkpt>
      <trkpt lat="37.27918" lon="-8.55066">
        <ele>180.0</ele>
      </trkpt>
      <trkpt lat="37.27884" lon="-8.55096">
        <ele>182.0</ele>
      </trkpt>
      <trkpt lat="37.2789" lon="-8.55164">
        <ele>183.0</ele>
      </trkpt>
      <trkpt lat="37.27917" lon="-8.55244">
        <ele>185.0</ele>
      </trkpt>
      <trkpt lat="37.27917" lon="-8.55332">
        <ele>188.0</ele>
      </trkpt>
      <trkpt lat="37.27933" lon="-8.5538">
        <ele>190.0</ele>
      </trkpt>
      <trkpt lat="37.27973" lon="-8.55405">
        <ele>191.0</ele>
      </trkpt>
      <trkpt lat="37.27985" lon="-8.55412">
        <ele>193.0</ele>
      </trkpt>
      <trkpt lat="37.28014" lon="-8.55447">
        <ele>195.0</ele>
      </trkpt>
      <trkpt lat="37.28095" lon="-8.55444">
        <ele>200.0</ele>
      </trkpt>
      <trkpt lat="37.28144" lon="-8.55396">
        <ele>205.0</ele>
      </trkpt>
      <trkpt lat="37.28275" lon="-8.55365">
        <ele>209.0</ele>
      </trkpt>
      <trkpt lat="37.28435" lon="-8.55343">
        <ele>214.0</ele>
      </trkpt>
      <trkpt lat="37.28518" lon="-8.55344">
        <ele>217.0</ele>
      </trkpt>
      <trkpt lat="37.28549" lon="-8.55318">
        <ele>220.0</ele>
      </trkpt>
      <trkpt lat="37.28582" lon="-8.55212">
        <ele>227.0</ele>
      </trkpt>
      <trkpt lat="37.28662" lon="-8.5522">
        <ele>233.0</ele>
      </trkpt>
      <trkpt lat="37.28688" lon="-8.55253">
        <ele>237.0</ele>
      </trkpt>
      <trkpt lat="37.28661" lon="-8.5533">
        <ele>239.0</ele>
      </trkpt>
      <trkpt lat="37.28681" lon="-8.55374">
        <ele>240.0</ele>
      </trkpt>
      <trkpt lat="37.2876" lon="-8.55414">
        <ele>243.0</ele>
      </trkpt>
      <trkpt lat="37.28899" lon="-8.55415">
        <ele>253.0</ele>
      </trkpt>
      <trkpt lat="37.2891" lon="-8.55457">
        <ele>258.0</ele>
      </trkpt>
      <trkpt lat="37.2881" lon="-8.55525">
        <ele>262.0</ele>
      </trkpt>
      <trkpt lat="37.28723" lon="-8.55593">
        <ele>267.0</ele>
      </trkpt>
      <trkpt lat="37.28636" lon="-8.5559">
        <ele>268.0</ele>
      </trkpt>
      <trkpt lat="37.28582" lon="-8.55601">
        <ele>270.0</ele>
      </trkpt>
      <trkpt lat="37.28543" lon="-8.55668">
        <ele>272.0</ele>
      </trkpt>
      <trkpt lat="37.28482" lon="-8.55727">
        <ele>277.0</ele>
      </trkpt>
      <trkpt lat="37.28401" lon="-8.55769">
        <ele>282.0</ele>
      </trkpt>
      <trkpt lat="37.28395" lon="-8.55821">
        <ele>285.0</ele>
      </trkpt>
      <trkpt lat="37.28513" lon="-8.55958">
        <ele>291.0</ele>
      </trkpt>
      <trkpt lat="37.28569" lon="-8.56097">
        <ele>298.0</ele>
      </trkpt>
      <trkpt lat="37.28631" lon="-8.56276">
        <ele>310.0</ele>
      </trkpt>
      <trkpt lat="37.28689" lon="-8.56309">
        <ele>314.0</ele>
      </trkpt>
      <trkpt lat="37.28786" lon="-8.56353">
        <ele>318.0</ele>
      </trkpt>
      <trkpt lat="37.28807" lon="-8.56401">
        <ele>318.0</ele>
      </trkpt>
      <trkpt lat="37.28788" lon="-8.56547">
        <ele>316.0</ele>
      </trkpt>
      <trkpt lat="37.28852" lon="-8.56635">
        <ele>315.0</ele>
      </trkpt>
      <trkpt lat="37.29006" lon="-8.56701">
        <ele>317.0</ele>
      </trkpt>
      <trkpt lat="37.29074" lon="-8.56696">
        <ele>321.0</ele>
      </trkpt>
      <trkpt lat="37.29478" lon="-8.56619">
        <ele>335.0</ele>
      </trkpt>
      <trkpt lat="37.29622" lon="-8.56586">
        <ele>344.0</ele>
      </trkpt>
      <trkpt lat="37.29684" lon="-8.56554">
        <ele>347.0</ele>
      </trkpt>
      <trkpt lat="37.29751" lon="-8.5654">
        <ele>345.0</ele>
      </trkpt>
      <trkpt lat="37.29769" lon="-8.56724">
        <ele>343.0</ele>
      </trkpt>
      <trkpt lat="37.29785" lon="-8.56975">
        <ele>342.0</ele>
      </trkpt>
      <trkpt lat="37.29704" lon="-8.57186">
        <ele>338.0</ele>
      </trkpt>
      <trkpt lat="37.29593" lon="-8.57441">
        <ele>334.0</ele>
      </trkpt>
      <trkpt lat="37.29529" lon="-8.57525">
        <ele>336.0</ele>
      </trkpt>
      <trkpt lat="37.29406" lon="-8.57695">
        <ele>338.0</ele>
      </trkpt>
      <trkpt lat="37.29446" lon="-8.57842">
        <ele>336.0</ele>
      </trkpt>
      <trkpt lat="37.29407" lon="-8.57958">
        <ele>331.0</ele>
      </trkpt>
      <trkpt lat="37.29354" lon="-8.58202">
        <ele>322.0</ele>
      </trkpt>
      <trkpt lat="37.29325" lon="-8.58304">
        <ele>319.0</ele>
      </trkpt>
      <trkpt lat="37.29295" lon="-8.5845">
        <ele>318.0</ele>
      </trkpt>
      <trkpt lat="37.29268" lon="-8.58564">
        <ele>318.0</ele>
      </trkpt>
      <trkpt lat="37.29297" lon="-8.58673">
        <ele>322.0</ele>
      </trkpt>
      <trkpt lat="37.29247" lon="-8.58687">
        <ele>325.0</ele>
      </trkpt>
      <trkpt lat="37.2915" lon="-8.58777">
        <ele>319.0</ele>
      </trkpt>
      <trkpt lat="37.29116" lon="-8.58933">
        <ele>312.0</ele>
      </trkpt>
      <trkpt lat="37.2902" lon="-8.59162">
        <ele>311.0</ele>
      </trkpt>
      <trkpt lat="37.29091" lon="-8.59328">
        <ele>306.0</ele>
      </trkpt>
      <trkpt lat="37.29293" lon="-8.59418">
        <ele>310.0</ele>
      </trkpt>
      <trkpt lat="37.29186" lon="-8.59484">
        <ele>311.0</ele>
      </trkpt>
      <trkpt lat="37.2909" lon="-8.59514">
        <ele>310.0</ele>
      </trkpt>
      <trkpt lat="37.29076" lon="-8.59709">
        <ele>313.0</ele>
      </trkpt>
      <trkpt lat="37.29155" lon="-8.59788">
        <ele>316.0</ele>
      </trkpt>
      <trkpt lat="37.2905" lon="-8.59803">
        <ele>319.0</ele>
      </trkpt>
      <trkpt lat="37.28916" lon="-8.59936">
        <ele>322.0</ele>
      </trkpt>
      <trkpt lat="37.28822" lon="-8.60159">
        <ele>328.0</ele>
      </trkpt>
      <trkpt lat="37.28796" lon="-8.60286">
        <ele>322.0</ele>
      </trkpt>
      <trkpt lat="37.28842" lon="-8.60381">
        <ele>313.0</ele>
      </trkpt>
      <trkpt lat="37.28923" lon="-8.6037">
        <ele>311.0</ele>
      </trkpt>
      <trkpt lat="37.28932" lon="-8.60472">
        <ele>310.0</ele>
      </trkpt>
      <trkpt lat="37.28916" lon="-8.60537">
        <ele>311.0</ele>
      </trkpt>
      <trkpt lat="37.28744" lon="-8.60507">
        <ele>313.0</ele>
      </trkpt>
      <trkpt lat="37.28647" lon="-8.60559">
        <ele>317.0</ele>
      </trkpt>
      <trkpt lat="37.28556" lon="-8.60695">
        <ele>322.0</ele>
      </trkpt>
      <trkpt lat="37.28619" lon="-8.60935">
        <ele>328.0</ele>
      </trkpt>
      <trkpt lat="37.28746" lon="-8.61627">
        <ele>345.0</ele>
      </trkpt>
      <trkpt lat="37.28792" lon="-8.62263">
        <ele>381.0</ele>
      </trkpt>
      <trkpt lat="37.28824" lon="-8.62885">
        <ele>410.0</ele>
      </trkpt>
      <trkpt lat="37.28935" lon="-8.62924">
        <ele>425.0</ele>
      </trkpt>
      <trkpt lat="37.2907" lon="-8.62481">
        <ele>443.0</ele>
      </trkpt>
      <trkpt lat="37.29082" lon="-8.62339">
        <ele>454.0</ele>
      </trkpt>
      <trkpt lat="37.29136" lon="-8.62363">
        <ele>458.0</ele>
      </trkpt>
      <trkpt lat="37.29273" lon="-8.62622">
        <ele>467.0</ele>
      </trkpt>
      <trkpt lat="37.29438" lon="-8.62942">
        <ele>483.0</ele>
      </trkpt>
      <trkpt lat="37.29524" lon="-8.62989">
        <ele>488.0</ele>
      </trkpt>
      <trkpt lat="37.29616" lon="-8.62924">
        <ele>488.0</ele>
      </trkpt>
      <trkpt lat="37.29743" lon="-8.62988">
        <ele>487.0</ele>
      </trkpt>
      <trkpt lat="37.29802" lon="-8.62996">
        <ele>484.0</ele>
      </trkpt>
      <trkpt lat="37.29889" lon="-8.62946">
        <ele>480.0</ele>
      </trkpt>
      <trkpt lat="37.29951" lon="-8.62959">
        <ele>475.0</ele>
      </trkpt>
      <trkpt lat="37.3" lon="-8.63036">
        <ele>471.0</ele>
      </trkpt>
      <trkpt lat="37.29984" lon="-8.635">
        <ele>464.0</ele>
      </trkpt>
      <trkpt lat="37.30025" lon="-8.63676">
        <ele>461.0</ele>
      </trkpt>
      <trkpt lat="37.30009" lon="-8.63757">
        <ele>460.0</ele>
      </trkpt>
      <trkpt lat="37.29937" lon="-8.63961">
        <ele>456.0</ele>
      </trkpt>
      <trkpt lat="37.29959" lon="-8.64093">
        <ele>453.0</ele>
      </trkpt>
      <trkpt lat="37.29904" lon="-8.64311">
        <ele>451.0</ele>
      </trkpt>
      <trkpt lat="37.29907" lon="-8.64426">
        <ele>448.0</ele>
      </trkpt>
      <trkpt lat="37.29988" lon="-8.64586">
        <ele>446.0</ele>
      </trkpt>
      <trkpt lat="37.30075" lon="-8.64734">
        <ele>443.0</ele>
      </trkpt>
      <trkpt lat="37.30078" lon="-8.64818">
        <ele>443.0</ele>
      </trkpt>
      <trkpt lat="37.30028" lon="-8.64892">
        <ele>444.0</ele>
      </trkpt>
      <trkpt lat="37.29952" lon="-8.65092">
        <ele>441.0</ele>
      </trkpt>
      <trkpt lat="37.29937" lon="-8.65437">
        <ele>436.0</ele>
      </trkpt>
      <trkpt lat="37.29894" lon="-8.65589">
        <ele>433.0</ele>
      </trkpt>
      <trkpt lat="37.29883" lon="-8.65694">
        <ele>430.0</ele>
      </trkpt>
      <trkpt lat="37.29915" lon="-8.6592">
        <ele>424.0</ele>
      </trkpt>
      <trkpt lat="37.29988" lon="-8.66012">
        <ele>424.0</ele>
      </trkpt>
      <trkpt lat="37.30086" lon="-8.66028">
        <ele>425.0</ele>
      </trkpt>
      <trkpt lat="37.30182" lon="-8.65996">
        <ele>425.0</ele>
      </trkpt>
      <trkpt lat="37.3022" lon="-8.66023">
        <ele>424.0</ele>
      </trkpt>
      <trkpt lat="37.3022" lon="-8.66215">
        <ele>423.0</ele>
      </trkpt>
      <trkpt lat="37.30237" lon="-8.66296">
        <ele>423.0</ele>
      </trkpt>
      <trkpt lat="37.30297" lon="-8.66317">
        <ele>424.0</ele>
      </trkpt>
      <trkpt lat="37.30414" lon="-8.66237">
        <ele>424.0</ele>
      </trkpt>
      <trkpt lat="37.30455" lon="-8.66182">
        <ele>421.0</ele>
      </trkpt>
      <trkpt lat="37.30476" lon="-8.66081">
        <ele>417.0</ele>
      </trkpt>
      <trkpt lat="37.30512" lon="-8.6607">
        <ele>413.0</ele>
      </trkpt>
      <trkpt lat="37.30537" lon="-8.66107">
        <ele>409.0</ele>
      </trkpt>
      <trkpt lat="37.30592" lon="-8.66262">
        <ele>400.0</ele>
      </trkpt>
      <trkpt lat="37.30596" lon="-8.66391">
        <ele>396.0</ele>
      </trkpt>
      <trkpt lat="37.30635" lon="-8.66431">
        <ele>395.0</ele>
      </trkpt>
      <trkpt lat="37.3069" lon="-8.66441">
        <ele>395.0</ele>
      </trkpt>
      <trkpt lat="37.30732" lon="-8.66496">
        <ele>395.0</ele>
      </trkpt>
      <trkpt lat="37.30832" lon="-8.66562">
        <ele>395.0</ele>
      </trkpt>
      <trkpt lat="37.30945" lon="-8.66597">
        <ele>392.0</ele>
      </trkpt>
      <trkpt lat="37.31047" lon="-8.66556">
        <ele>392.0</ele>
      </trkpt>
      <trkpt lat="37.31098" lon="-8.66575">
        <ele>392.0</ele>
      </trkpt>
      <trkpt lat="37.31169" lon="-8.66674">
        <ele>393.0</ele>
      </trkpt>
      <trkpt lat="37.31347" lon="-8.66945">
        <ele>394.0</ele>
      </trkpt>
      <trkpt lat="37.3138" lon="-8.67056">
        <ele>390.0</ele>
      </trkpt>
      <trkpt lat="37.31394" lon="-8.67504">
        <ele>380.0</ele>
      </trkpt>
      <trkpt lat="37.31385" lon="-8.67694">
        <ele>382.0</ele>
      </trkpt>
      <trkpt lat="37.31334" lon="-8.67787">
        <ele>385.0</ele>
      </trkpt>
      <trkpt lat="37.31221" lon="-8.67864">
        <ele>386.0</ele>
      </trkpt>
      <trkpt lat="37.31021" lon="-8.67911">
        <ele>386.0</ele>
      </trkpt>
      <trkpt lat="37.30952" lon="-8.67994">
        <ele>388.0</ele>
      </trkpt>
      <trkpt lat="37.30939" lon="-8.68118">
        <ele>390.0</ele>
      </trkpt>
      <trkpt lat="37.30949" lon="-8.68438">
        <ele>390.0</ele>
      </trkpt>
      <trkpt lat="37.30848" lon="-8.68821">
        <ele>375.0</ele>
      </trkpt>
      <trkpt lat="37.30748" lon="-8.6915">
        <ele>354.0</ele>
      </trkpt>
      <trkpt lat="37.30696" lon="-8.69263">
        <ele>343.0</ele>
      </trkpt>
      <trkpt lat="37.30562" lon="-8.69405">
        <ele>333.0</ele>
      </trkpt>
      <trkpt lat="37.30516" lon="-8.69509">
        <ele>328.0</ele>
      </trkpt>
      <trkpt lat="37.30501" lon="-8.69751">
        <ele>327.0</ele>
      </trkpt>
      <trkpt lat="37.30469" lon="-8.69872">
        <ele>331.0</ele>
      </trkpt>
      <trkpt lat="37.30311" lon="-8.70192">
        <ele>344.0</ele>
      </trkpt>
      <trkpt lat="37.30077" lon="-8.70461">
        <ele>350.0</ele>
      </trkpt>
      <trkpt lat="37.29941" lon="-8.70532">
        <ele>345.0</ele>
      </trkpt>
      <trkpt lat="37.29643" lon="-8.70534">
        <ele>345.0</ele>
      </trkpt>
      <trkpt lat="37.2954" lon="-8.70579">
        <ele>348.0</ele>
      </trkpt>
      <trkpt lat="37.29439" lon="-8.70724">
        <ele>350.0</ele>
      </trkpt>
      <trkpt lat="37.29304" lon="-8.71293">
        <ele>354.0</ele>
      </trkpt>
      <trkpt lat="37.2923" lon="-8.71571">
        <ele>345.0</ele>
      </trkpt>
      <trkpt lat="37.29057" lon="-8.7183">
        <ele>340.0</ele>
      </trkpt>
      <trkpt lat="37.29031" lon="-8.71946">
        <ele>335.0</ele>
      </trkpt>
      <trkpt lat="37.29032" lon="-8.72167">
        <ele>329.0</ele>
      </trkpt>
      <trkpt lat="37.28988" lon="-8.72396">
        <ele>326.0</ele>
      </trkpt>
      <trkpt lat="37.28985" lon="-8.72532">
        <ele>322.0</ele>
      </trkpt>
      <trkpt lat="37.29042" lon="-8.72687">
        <ele>320.0</ele>
      </trkpt>
      <trkpt lat="37.2915" lon="-8.72927">
        <ele>321.0</ele>
      </trkpt>
      <trkpt lat="37.29137" lon="-8.73106">
        <ele>317.0</ele>
      </trkpt>
      <trkpt lat="37.29114" lon="-8.73395">
        <ele>325.0</ele>
      </trkpt>
      <trkpt lat="37.29178" lon="-8.73582">
        <ele>331.0</ele>
      </trkpt>
      <trkpt lat="37.29399" lon="-8.73803">
        <ele>322.0</ele>
      </trkpt>
      <trkpt lat="37.29612" lon="-8.73974">
        <ele>314.0</ele>
      </trkpt>
      <trkpt lat="37.29821" lon="-8.74008">
        <ele>311.0</ele>
      </trkpt>
      <trkpt lat="37.29935" lon="-8.74063">
        <ele>301.0</ele>
      </trkpt>
      <trkpt lat="37.30132" lon="-8.74165">
        <ele>279.0</ele>
      </trkpt>
      <trkpt lat="37.30236" lon="-8.7424">
        <ele>268.0</ele>
      </trkpt>
      <trkpt lat="37.30556" lon="-8.74653">
        <ele>240.0</ele>
      </trkpt>
      <trkpt lat="37.30696" lon="-8.74924">
        <ele>211.0</ele>
      </trkpt>
      <trkpt lat="37.30845" lon="-8.75141">
        <ele>178.0</ele>
      </trkpt>
      <trkpt lat="37.31141" lon="-8.75548">
        <ele>143.0</ele>
      </trkpt>
      <trkpt lat="37.31208" lon="-8.75757">
        <ele>126.0</ele>
      </trkpt>
      <trkpt lat="37.31166" lon="-8.75939">
        <ele>108.0</ele>
      </trkpt>
      <trkpt lat="37.31184" lon="-8.7602">
        <ele>97.0</ele>
      </trkpt>
      <trkpt lat="37.31285" lon="-8.76092">
        <ele>90.0</ele>
      </trkpt>
      <trkpt lat="37.31346" lon="-8.76165">
        <ele>85.0</ele>
      </trkpt>
      <trkpt lat="37.31382" lon="-8.7628">
        <ele>84.0</ele>
      </trkpt>
      <trkpt lat="37.31244" lon="-8.76638">
        <ele>78.0</ele>
      </trkpt>
      <trkpt lat="37.3093" lon="-8.77368">
        <ele>46.0</ele>
      </trkpt>
      <trkpt lat="37.3093" lon="-8.77467">
        <ele>38.0</ele>
      </trkpt>
      <trkpt lat="37.31011" lon="-8.77615">
        <ele>36.0</ele>
      </trkpt>
      <trkpt lat="37.31027" lon="-8.77694">
        <ele>34.0</ele>
      </trkpt>
      <trkpt lat="37.30992" lon="-8.77884">
        <ele>33.0</ele>
      </trkpt>
      <trkpt lat="37.31015" lon="-8.78084">
        <ele>31.0</ele>
      </trkpt>
      <trkpt lat="37.311" lon="-8.78476">
        <ele>25.0</ele>
      </trkpt>
      <trkpt lat="37.31154" lon="-8.78631">
        <ele>35.0</ele>
      </trkpt>
      <trkpt lat="37.31256" lon="-8.79038">
        <ele>39.0</ele>
      </trkpt>
      <trkpt lat="37.31362" lon="-8.79286">
        <ele>26.0</ele>
      </trkpt>
      <trkpt lat="37.31383" lon="-8.79334">
        <ele>22.0</ele>
      </trkpt>
      <trkpt lat="37.31471" lon="-8.79567">
        <ele>17.0</ele>
      </trkpt>
      <trkpt lat="37.31511" lon="-8.7977">
        <ele>13.0</ele>
      </trkpt>
      <trkpt lat="37.31619" lon="-8.79887">
        <ele>12.0</ele>
      </trkpt>
      <trkpt lat="37.31666" lon="-8.79908">
        <ele>11.0</ele>
      </trkpt>
      <trkpt lat="37.3167" lon="-8.7993">
        <ele>11.0</ele>
      </trkpt>
      <trkpt lat="37.31665" lon="-8.80025">
        <ele>11.0</ele>
      </trkpt>
      <trkpt lat="37.31673" lon="-8.8028">
        <ele>12.0</ele>
      </trkpt>
      <trkpt lat="37.31658" lon="-8.80355">
        <ele>15.0</ele>
      </trkpt>
      <trkpt lat="37.31596" lon="-8.80376">
        <ele>16.0</ele>
      </trkpt>
      <trkpt lat="37.31441" lon="-8.80376">
        <ele>17.0</ele>
      </trkpt>
      <trkpt lat="37.31354" lon="-8.80383">
        <ele>17.0</ele>
      </trkpt>
      <trkpt lat="37.31282" lon="-8.80368">
        <ele>17.0</ele>
      </trkpt>
      <trkpt lat="37.31226" lon="-8.80335">
        <ele>16.0</ele>
      </trkpt>
      <trkpt lat="37.31001" lon="-8.80215">
        <ele>12.0</ele>
      </trkpt>
      <trkpt lat="37.30728" lon="-8.80185">
        <ele>15.0</ele>
      </trkpt>
      <trkpt lat="37.30615" lon="-8.80173">
        <ele>14.0</ele>
      </trkpt>
      <trkpt lat="37.30395" lon="-8.80075">
        <ele>18.0</ele>
      </trkpt>
      <trkpt lat="37.30203" lon="-8.79923">
        <ele>19.0</ele>
      </trkpt>
      <trkpt lat="37.29912" lon="-8.80003">
        <ele>19.0</ele>
      </trkpt>
      <trkpt lat="37.29806" lon="-8.79987">
        <ele>19.0</ele>
      </trkpt>
      <trkpt lat="37.29548" lon="-8.79725">
        <ele>26.0</ele>
      </trkpt>
      <trkpt lat="37.29459" lon="-8.79753">
        <ele>29.0</ele>
      </trkpt>
      <trkpt lat="37.29365" lon="-8.79864">
        <ele>29.0</ele>
      </trkpt>
      <trkpt lat="37.29116" lon="-8.79855">
        <ele>29.0</ele>
      </trkpt>
      <trkpt lat="37.28975" lon="-8.79856">
        <ele>28.0</ele>
      </trkpt>
      <trkpt lat="37.28601" lon="-8.79978">
        <ele>32.0</ele>
      </trkpt>
      <trkpt lat="37.2846" lon="-8.80117">
        <ele>40.0</ele>
      </trkpt>
      <trkpt lat="37.28402" lon="-8.80163">
        <ele>45.0</ele>
      </trkpt>
      <trkpt lat="37.2827" lon="-8.80236">
        <ele>50.0</ele>
      </trkpt>
      <trkpt lat="37.28124" lon="-8.80216">
        <ele>56.0</ele>
      </trkpt>
      <trkpt lat="37.27908" lon="-8.80264">
        <ele>59.0</ele>
      </trkpt>
      <trkpt lat="37.27712" lon="-8.80342">
        <ele>63.0</ele>
      </trkpt>
      <trkpt lat="37.27392" lon="-8.80587">
        <ele>66.0</ele>
      </trkpt>
      <trkpt lat="37.26966" lon="-8.80905">
        <ele>68.0</ele>
      </trkpt>
      <trkpt lat="37.26886" lon="-8.80948">
        <ele>69.0</ele>
      </trkpt>
      <trkpt lat="37.26626" lon="-8.80918">
        <ele>74.0</ele>
      </trkpt>
      <trkpt lat="37.26462" lon="-8.80946">
        <ele>76.0</ele>
      </trkpt>
      <trkpt lat="37.26033" lon="-8.8128">
        <ele>79.0</ele>
      </trkpt>
      <trkpt lat="37.25897" lon="-8.81316">
        <ele>81.0</ele>
      </trkpt>
      <trkpt lat="37.25771" lon="-8.81316">
        <ele>81.0</ele>
      </trkpt>
      <trkpt lat="37.25555" lon="-8.81308">
        <ele>86.0</ele>
      </trkpt>
      <trkpt lat="37.25366" lon="-8.81146">
        <ele>98.0</ele>
      </trkpt>
      <trkpt lat="37.252" lon="-8.81064">
        <ele>111.0</ele>
      </trkpt>
      <trkpt lat="37.24745" lon="-8.8085">
        <ele>135.0</ele>
      </trkpt>
      <trkpt lat="37.24524" lon="-8.80759">
        <ele>144.0</ele>
      </trkpt>
      <trkpt lat="37.24385" lon="-8.8054">
        <ele>151.0</ele>
      </trkpt>
      <trkpt lat="37.24176" lon="-8.80422">
        <ele>157.0</ele>
      </trkpt>
      <trkpt lat="37.24123" lon="-8.80246">
        <ele>164.0</ele>
      </trkpt>
      <trkpt lat="37.23984" lon="-8.8014">
        <ele>168.0</ele>
      </trkpt>
      <trkpt lat="37.23386" lon="-8.79752">
        <ele>171.0</ele>
      </trkpt>
      <trkpt lat="37.23221" lon="-8.79653">
        <ele>166.0</ele>
      </trkpt>
      <trkpt lat="37.22675" lon="-8.78992">
        <ele>180.0</ele>
      </trkpt>
      <trkpt lat="37.22466" lon="-8.78626">
        <ele>199.0</ele>
      </trkpt>
      <trkpt lat="37.22395" lon="-8.78393">
        <ele>203.0</ele>
      </trkpt>
      <trkpt lat="37.22299" lon="-8.78212">
        <ele>210.0</ele>
      </trkpt>
      <trkpt lat="37.22092" lon="-8.78008">
        <ele>224.0</ele>
      </trkpt>
      <trkpt lat="37.21808" lon="-8.77841">
        <ele>235.0</ele>
      </trkpt>
      <trkpt lat="37.21641" lon="-8.77824">
        <ele>231.0</ele>
      </trkpt>
      <trkpt lat="37.21516" lon="-8.77757">
        <ele>228.0</ele>
      </trkpt>
      <trkpt lat="37.21343" lon="-8.77634">
        <ele>217.0</ele>
      </trkpt>
      <trkpt lat="37.21281" lon="-8.77614">
        <ele>211.0</ele>
      </trkpt>
      <trkpt lat="37.21225" lon="-8.77578">
        <ele>206.0</ele>
      </trkpt>
      <trkpt lat="37.21167" lon="-8.77444">
        <ele>199.0</ele>
      </trkpt>
      <trkpt lat="37.21159" lon="-8.77285">
        <ele>190.0</ele>
      </trkpt>
      <trkpt lat="37.21129" lon="-8.77183">
        <ele>183.0</ele>
      </trkpt>
      <trkpt lat="37.21034" lon="-8.77077">
        <ele>178.0</ele>
      </trkpt>
      <trkpt lat="37.20968" lon="-8.76944">
        <ele>170.0</ele>
      </trkpt>
      <trkpt lat="37.20914" lon="-8.76887">
        <ele>163.0</ele>
      </trkpt>
      <trkpt lat="37.20831" lon="-8.76896">
        <ele>156.0</ele>
      </trkpt>
      <trkpt lat="37.20753" lon="-8.76857">
        <ele>149.0</ele>
      </trkpt>
      <trkpt lat="37.20709" lon="-8.76777">
        <ele>144.0</ele>
      </trkpt>
      <trkpt lat="37.20637" lon="-8.76589">
        <ele>137.0</ele>
      </trkpt>
      <trkpt lat="37.20528" lon="-8.76567">
        <ele>132.0</ele>
      </trkpt>
      <trkpt lat="37.20454" lon="-8.76532">
        <ele>127.0</ele>
      </trkpt>
      <trkpt lat="37.2028" lon="-8.76299">
        <ele>119.0</ele>
      </trkpt>
      <trkpt lat="37.20206" lon="-8.7613">
        <ele>111.0</ele>
      </trkpt>
      <trkpt lat="37.20137" lon="-8.7608">
        <ele>107.0</ele>
      </trkpt>
      <trkpt lat="37.20044" lon="-8.76088">
        <ele>103.0</ele>
      </trkpt>
      <trkpt lat="37.19955" lon="-8.76051">
        <ele>98.0</ele>
      </trkpt>
      <trkpt lat="37.19666" lon="-8.76064">
        <ele>84.0</ele>
      </trkpt>
      <trkpt lat="37.19427" lon="-8.7594">
        <ele>81.0</ele>
      </trkpt>
      <trkpt lat="37.19333" lon="-8.75909">
        <ele>78.0</ele>
      </trkpt>
      <trkpt lat="37.193" lon="-8.75891">
        <ele>77.0</ele>
      </trkpt>
      <trkpt lat="37.19237" lon="-8.75872">
        <ele>75.0</ele>
      </trkpt>
      <trkpt lat="37.19174" lon="-8.75851">
        <ele>75.0</ele>
      </trkpt>
      <trkpt lat="37.191" lon="-8.75804">
        <ele>76.0</ele>
      </trkpt>
      <trkpt lat="37.19046" lon="-8.75813">
        <ele>78.0</ele>
      </trkpt>
      <trkpt lat="37.1895" lon="-8.75888">
        <ele>85.0</ele>
      </trkpt>
      <trkpt lat="37.18867" lon="-8.76013">
        <ele>93.0</ele>
      </trkpt>
      <trkpt lat="37.18807" lon="-8.76061">
        <ele>96.0</ele>
      </trkpt>
      <trkpt lat="37.18743" lon="-8.76065">
        <ele>98.0</ele>
      </trkpt>
      <trkpt lat="37.18644" lon="-8.75983">
        <ele>96.0</ele>
      </trkpt>
      <trkpt lat="37.18573" lon="-8.75949">
        <ele>93.0</ele>
      </trkpt>
      <trkpt lat="37.18398" lon="-8.75896">
        <ele>89.0</ele>
      </trkpt>
      <trkpt lat="37.18332" lon="-8.759">
        <ele>87.0</ele>
      </trkpt>
      <trkpt lat="37.18244" lon="-8.75911">
        <ele>84.0</ele>
      </trkpt>
      <trkpt lat="37.18002" lon="-8.75754">
        <ele>81.0</ele>
      </trkpt>
      <trkpt lat="37.17855" lon="-8.75537">
        <ele>77.0</ele>
      </trkpt>
      <trkpt lat="37.17822" lon="-8.754">
        <ele>73.0</ele>
      </trkpt>
      <trkpt lat="37.17873" lon="-8.75196">
        <ele>69.0</ele>
      </trkpt>
      <trkpt lat="37.17879" lon="-8.75098">
        <ele>68.0</ele>
      </trkpt>
      <trkpt lat="37.17839" lon="-8.74995">
        <ele>67.0</ele>
      </trkpt>
      <trkpt lat="37.17716" lon="-8.74949">
        <ele>65.0</ele>
      </trkpt>
      <trkpt lat="37.17531" lon="-8.74822">
        <ele>58.0</ele>
      </trkpt>
      <trkpt lat="37.17101" lon="-8.74688">
        <ele>51.0</ele>
      </trkpt>
      <trkpt lat="37.16888" lon="-8.74708">
        <ele>52.0</ele>
      </trkpt>
      <trkpt lat="37.16647" lon="-8.74663">
        <ele>46.0</ele>
      </trkpt>
      <trkpt lat="37.16589" lon="-8.74611">
        <ele>43.0</ele>
      </trkpt>
      <trkpt lat="37.16465" lon="-8.74444">
        <ele>41.0</ele>
      </trkpt>
      <trkpt lat="37.16284" lon="-8.74301">
        <ele>40.0</ele>
      </trkpt>
      <trkpt lat="37.1614" lon="-8.74276">
        <ele>36.0</ele>
      </trkpt>
      <trkpt lat="37.15876" lon="-8.74283">
        <ele>37.0</ele>
      </trkpt>
      <trkpt lat="37.15813" lon="-8.74282">
        <ele>36.0</ele>
      </trkpt>
      <trkpt lat="37.15786" lon="-8.74287">
        <ele>36.0</ele>
      </trkpt>
      <trkpt lat="37.1577" lon="-8.743">
        <ele>36.0</ele>
      </trkpt>
      <trkpt lat="37.15758" lon="-8.74323">
        <ele>36.0</ele>
      </trkpt>
      <trkpt lat="37.15739" lon="-8.74323">
        <ele>36.0</ele>
      </trkpt>
      <trkpt lat="37.15731" lon="-8.74301">
        <ele>37.0</ele>
      </trkpt>
      <trkpt lat="37.15726" lon="-8.74278">
        <ele>37.0</ele>
      </trkpt>
      <trkpt lat="37.15526" lon="-8.73982">
        <ele>39.0</ele>
      </trkpt>
      <trkpt lat="37.1552" lon="-8.73925">
        <ele>39.0</ele>
      </trkpt>
      <trkpt lat="37.15528" lon="-8.73699">
        <ele>36.0</ele>
      </trkpt>
      <trkpt lat="37.15532" lon="-8.73559">
        <ele>34.0</ele>
      </trkpt>
      <trkpt lat="37.15535" lon="-8.73386">
        <ele>31.0</ele>
      </trkpt>
      <trkpt lat="37.1548" lon="-8.73309">
        <ele>29.0</ele>
      </trkpt>
      <trkpt lat="37.15403" lon="-8.73229">
        <ele>27.0</ele>
      </trkpt>
      <trkpt lat="37.15448" lon="-8.7306">
        <ele>25.0</ele>
      </trkpt>
      <trkpt lat="37.15581" lon="-8.72679">
        <ele>23.0</ele>
      </trkpt>
      <trkpt lat="37.15593" lon="-8.72555">
        <ele>23.0</ele>
      </trkpt>
      <trkpt lat="37.15571" lon="-8.7243">
        <ele>22.0</ele>
      </trkpt>
      <trkpt lat="37.15429" lon="-8.72114">
        <ele>19.0</ele>
      </trkpt>
      <trkpt lat="37.15337" lon="-8.7206">
        <ele>19.0</ele>
      </trkpt>
      <trkpt lat="37.15171" lon="-8.72018">
        <ele>17.0</ele>
      </trkpt>
      <trkpt lat="37.14983" lon="-8.71811">
        <ele>15.0</ele>
      </trkpt>
      <trkpt lat="37.1488" lon="-8.71663">
        <ele>15.0</ele>
      </trkpt>
      <trkpt lat="37.1458" lon="-8.71297">
        <ele>15.0</ele>
      </trkpt>
      <trkpt lat="37.14419" lon="-8.71119">
        <ele>14.0</ele>
      </trkpt>
      <trkpt lat="37.14298" lon="-8.70938">
        <ele>13.0</ele>
      </trkpt>
      <trkpt lat="37.14193" lon="-8.70876">
        <ele>12.0</ele>
      </trkpt>
      <trkpt lat="37.14048" lon="-8.70667">
        <ele>11.0</ele>
      </trkpt>
      <trkpt lat="37.13799" lon="-8.70337">
        <ele>11.0</ele>
      </trkpt>
      <trkpt lat="37.13491" lon="-8.69887">
        <ele>11.0</ele>
      </trkpt>
      <trkpt lat="37.13226" lon="-8.6974">
        <ele>10.0</ele>
      </trkpt>
      <trkpt lat="37.13132" lon="-8.69709">
        <ele>10.0</ele>
      </trkpt>
      <trkpt lat="37.12978" lon="-8.69711">
        <ele>9.0</ele>
      </trkpt>
      <trkpt lat="37.12914" lon="-8.69655">
        <ele>7.0</ele>
      </trkpt>
      <trkpt lat="37.12781" lon="-8.69501">
        <ele>4.0</ele>
      </trkpt>
      <trkpt lat="37.12707" lon="-8.69493">
        <ele>5.0</ele>
      </trkpt>
      <trkpt lat="37.12614" lon="-8.6952">
        <ele>7.0</ele>
      </trkpt>
      <trkpt lat="37.12528" lon="-8.69527">
        <ele>8.0</ele>
      </trkpt>
      <trkpt lat="37.12319" lon="-8.69437">
        <ele>12.0</ele>
      </trkpt>
      <trkpt lat="37.12139" lon="-8.69353">
        <ele>16.0</ele>
      </trkpt>
      <trkpt lat="37.11921" lon="-8.69226">
        <ele>18.0</ele>
      </trkpt>
      <trkpt lat="37.11809" lon="-8.69149">
        <ele>24.0</ele>
      </trkpt>
      <trkpt lat="37.11751" lon="-8.69033">
        <ele>30.0</ele>
      </trkpt>
      <trkpt lat="37.11622" lon="-8.68783">
        <ele>41.0</ele>
      </trkpt>
      <trkpt lat="37.1159" lon="-8.68689">
        <ele>36.0</ele>
      </trkpt>
      <trkpt lat="37.11554" lon="-8.68651">
        <ele>30.0</ele>
      </trkpt>
      <trkpt lat="37.11494" lon="-8.68644">
        <ele>23.0</ele>
      </trkpt>
      <trkpt lat="37.11438" lon="-8.68612">
        <ele>21.0</ele>
      </trkpt>
      <trkpt lat="37.11365" lon="-8.68436">
        <ele>17.0</ele>
      </trkpt>
      <trkpt lat="37.11336" lon="-8.68329">
        <ele>13.0</ele>
      </trkpt>
      <trkpt lat="37.11291" lon="-8.68202">
        <ele>7.0</ele>
      </trkpt>
      <trkpt lat="37.11262" lon="-8.68174">
        <ele>6.0</ele>
      </trkpt>
      <trkpt lat="37.11216" lon="-8.68159">
        <ele>4.0</ele>
      </trkpt>
      <trkpt lat="37.1115" lon="-8.68134">
        <ele>2.0</ele>
      </trkpt>
      <trkpt lat="37.11113" lon="-8.68125">
        <ele>2.0</ele>
      </trkpt>
      <trkpt lat="37.11106" lon="-8.681">
        <ele>1.0</ele>
      </trkpt>
      <trkpt lat="37.11127" lon="-8.68075">
        <ele>1.0</ele>
      </trkpt>
      <trkpt lat="37.1111" lon="-8.68005">
        <ele>1.0</ele>
      </trkpt>
      <trkpt lat="37.11078" lon="-8.67904">
        <ele>1.0</ele>
      </trkpt>
      <trkpt lat="37.11048" lon="-8.67761">
        <ele>2.0</ele>
      </trkpt>
      <trkpt lat="37.1105" lon="-8.67741">
        <ele>2.0</ele>
      </trkpt>
      <trkpt lat="37.11039" lon="-8.67727">
        <ele>2.0</ele>
      </trkpt>
      <trkpt lat="37.10963" lon="-8.67654">
        <ele>1.0</ele>
      </trkpt>
      <trkpt lat="37.10782" lon="-8.67528">
      </trkpt>
      <trkpt lat="37.10615" lon="-8.67412">
      </trkpt>
      <trkpt lat="37.10433" lon="-8.67285">
        <ele>2.0</ele>
      </trkpt>
      <trkpt lat="37.10355" lon="-8.67229">
        <ele>3.0</ele>
      </trkpt>
      <trkpt lat="37.10265" lon="-8.6716">
        <ele>2.0</ele>
      </trkpt>
      <trkpt lat="37.1018" lon="-8.67092">
        <ele>2.0</ele>
      </trkpt>
      <trkpt lat="37.10079" lon="-8.66995">
        <ele>2.0</ele>
      </trkpt>
      <trkpt lat="37.10025" lon="-8.66941">
        <ele>2.0</ele>
      </trkpt>
      <trkpt lat="37.09974" lon="-8.66906">
        <ele>2.0</ele>
      </trkpt>
      <trkpt lat="37.09903" lon="-8.66879">
        <ele>4.0</ele>
      </trkpt>
      <trkpt lat="37.09829" lon="-8.66868">
        <ele>8.0</ele>
      </trkpt>
      <trkpt lat="37.09692" lon="-8.66862">
        <ele>16.0</ele>
      </trkpt>
      <trkpt lat="37.09625" lon="-8.66891">
        <ele>22.0</ele>
      </trkpt>
      <trkpt lat="37.09579" lon="-8.66944">
        <ele>27.0</ele>
      </trkpt>
      <trkpt lat="37.09554" lon="-8.6701">
        <ele>29.0</ele>
      </trkpt>
      <trkpt lat="37.0955" lon="-8.67069">
        <ele>30.0</ele>
      </trkpt>
      <trkpt lat="37.09546" lon="-8.67215">
        <ele>31.0</ele>
      </trkpt>
      <trkpt lat="37.09544" lon="-8.67335">
        <ele>35.0</ele>
      </trkpt>
      <trkpt lat="37.09552" lon="-8.67463">
        <ele>40.0</ele>
      </trkpt>
      <trkpt lat="37.09557" lon="-8.67486">
        <ele>41.0</ele>
      </trkpt>
      <trkpt lat="37.09548" lon="-8.67515">
        <ele>41.0</ele>
      </trkpt>
      <trkpt lat="37.09544" lon="-8.67569">
        <ele>41.0</ele>
      </trkpt>
      <trkpt lat="37.09558" lon="-8.67664">
        <ele>42.0</ele>
      </trkpt>
      <trkpt lat="37.09589" lon="-8.67729">
        <ele>43.0</ele>
      </trkpt>
      <trkpt lat="37.09651" lon="-8.67796">
        <ele>43.0</ele>
      </trkpt>
      <trkpt lat="37.09728" lon="-8.67843">
        <ele>44.0</ele>
      </trkpt>
      <trkpt lat="37.09793" lon="-8.6788">
        <ele>45.0</ele>
      </trkpt>
      <trkpt lat="37.09837" lon="-8.6791">
        <ele>47.0</ele>
      </trkpt>
      <trkpt lat="37.09877" lon="-8.67935">
        <ele>47.0</ele>
      </trkpt>
      <trkpt lat="37.09922" lon="-8.67964">
        <ele>46.0</ele>
      </trkpt>
      <trkpt lat="37.0996" lon="-8.68001">
        <ele>45.0</ele>
      </trkpt>
      <trkpt lat="37.0999" lon="-8.68053">
        <ele>44.0</ele>
      </trkpt>
      <trkpt lat="37.10006" lon="-8.68103">
        <ele>43.0</ele>
      </trkpt>
      <trkpt lat="37.10023" lon="-8.68157">
        <ele>39.0</ele>
      </trkpt>
      <trkpt lat="37.10038" lon="-8.68174">
        <ele>38.0</ele>
      </trkpt>
      <trkpt lat="37.1003" lon="-8.68201">
        <ele>36.0</ele>
      </trkpt>
      <trkpt lat="37.10034" lon="-8.68272">
        <ele>33.0</ele>
      </trkpt>
      <trkpt lat="37.10058" lon="-8.68429">
        <ele>35.0</ele>
      </trkpt>
      <trkpt lat="37.10088" lon="-8.68606">
        <ele>37.0</ele>
      </trkpt>
      <trkpt lat="37.10113" lon="-8.68723">
        <ele>37.0</ele>
      </trkpt>
      <trkpt lat="37.10133" lon="-8.68757">
        <ele>38.0</ele>
      </trkpt>
      <trkpt lat="37.10136" lon="-8.68783">
        <ele>39.0</ele>
      </trkpt>
      <trkpt lat="37.1013" lon="-8.68826">
        <ele>40.0</ele>
      </trkpt>
      <trkpt lat="37.10142" lon="-8.6893">
        <ele>42.0</ele>
      </trkpt>
      <trkpt lat="37.1015" lon="-8.69055">
        <ele>43.0</ele>
      </trkpt>
      <trkpt lat="37.1016" lon="-8.69274">
        <ele>42.0</ele>
      </trkpt>
      <trkpt lat="37.10171" lon="-8.69399">
        <ele>41.0</ele>
      </trkpt>
      <trkpt lat="37.1018" lon="-8.69416">
        <ele>41.0</ele>
      </trkpt>
      <trkpt lat="37.10194" lon="-8.69427">
        <ele>41.0</ele>
      </trkpt>
      <trkpt lat="37.10202" lon="-8.6944">
        <ele>42.0</ele>
      </trkpt>
      <trkpt lat="37.10206" lon="-8.69456">
        <ele>43.0</ele>
      </trkpt>
      <trkpt lat="37.10205" lon="-8.69473">
        <ele>44.0</ele>
      </trkpt>
      <trkpt lat="37.10199" lon="-8.69488">
        <ele>45.0</ele>
      </trkpt>
      <trkpt lat="37.10185" lon="-8.69508">
        <ele>46.0</ele>
      </trkpt>
      <trkpt lat="37.10179" lon="-8.69535">
        <ele>48.0</ele>
      </trkpt>
      <trkpt lat="37.10194" lon="-8.69765">
        <ele>55.0</ele>
      </trkpt>
      <trkpt lat="37.10203" lon="-8.69863">
        <ele>58.0</ele>
      </trkpt>
      <trkpt lat="37.10213" lon="-8.69923">
        <ele>59.0</ele>
      </trkpt>
      <trkpt lat="37.10229" lon="-8.69986">
        <ele>59.0</ele>
      </trkpt>
      <trkpt lat="37.10248" lon="-8.70044">
        <ele>59.0</ele>
      </trkpt>
      <trkpt lat="37.10271" lon="-8.70097">
        <ele>59.0</ele>
      </trkpt>
      <trkpt lat="37.10286" lon="-8.70128">
        <ele>59.0</ele>
      </trkpt>
      <trkpt lat="37.10327" lon="-8.70192">
        <ele>58.0</ele>
      </trkpt>
      <trkpt lat="37.10406" lon="-8.70288">
        <ele>58.0</ele>
      </trkpt>
      <trkpt lat="37.10516" lon="-8.70419">
        <ele>58.0</ele>
      </trkpt>
      <trkpt lat="37.10619" lon="-8.70541">
        <ele>57.0</ele>
      </trkpt>
      <trkpt lat="37.10695" lon="-8.70632">
        <ele>56.0</ele>
      </trkpt>
      <trkpt lat="37.10739" lon="-8.70669">
        <ele>56.0</ele>
      </trkpt>
      <trkpt lat="37.10755" lon="-8.70715">
        <ele>56.0</ele>
      </trkpt>
      <trkpt lat="37.10765" lon="-8.70771">
        <ele>56.0</ele>
      </trkpt>
      <trkpt lat="37.10784" lon="-8.70848">
        <ele>57.0</ele>
      </trkpt>
      <trkpt lat="37.10795" lon="-8.70952">
        <ele>59.0</ele>
      </trkpt>
      <trkpt lat="37.10789" lon="-8.71072">
        <ele>61.0</ele>
      </trkpt>
      <trkpt lat="37.10764" lon="-8.71166">
        <ele>62.0</ele>
      </trkpt>
      <trkpt lat="37.10605" lon="-8.7153">
        <ele>64.0</ele>
      </trkpt>
      <trkpt lat="37.10475" lon="-8.71826">
        <ele>75.0</ele>
      </trkpt>
      <trkpt lat="37.10423" lon="-8.72002">
        <ele>85.0</ele>
      </trkpt>
      <trkpt lat="37.10296" lon="-8.72428">
        <ele>82.0</ele>
      </trkpt>
      <trkpt lat="37.10157" lon="-8.72891">
        <ele>75.0</ele>
      </trkpt>
      <trkpt lat="37.10119" lon="-8.73081">
        <ele>70.0</ele>
      </trkpt>
      <trkpt lat="37.1009" lon="-8.73207">
        <ele>66.0</ele>
      </trkpt>
      <trkpt lat="37.10064" lon="-8.73329">
        <ele>63.0</ele>
      </trkpt>
      <trkpt lat="37.10028" lon="-8.73485">
        <ele>64.0</ele>
      </trkpt>
      <trkpt lat="37.09996" lon="-8.73583">
        <ele>64.0</ele>
      </trkpt>
      <trkpt lat="37.09966" lon="-8.73655">
        <ele>62.0</ele>
      </trkpt>
      <trkpt lat="37.0997" lon="-8.73681">
        <ele>61.0</ele>
      </trkpt>
      <trkpt lat="37.09952" lon="-8.7369">
        <ele>61.0</ele>
      </trkpt>
      <trkpt lat="37.0992" lon="-8.73724">
        <ele>60.0</ele>
      </trkpt>
      <trkpt lat="37.09848" lon="-8.73835">
        <ele>60.0</ele>
      </trkpt>
      <trkpt lat="37.09797" lon="-8.73925">
        <ele>61.0</ele>
      </trkpt>
      <trkpt lat="37.09766" lon="-8.74019">
        <ele>63.0</ele>
      </trkpt>
      <trkpt lat="37.0975" lon="-8.74134">
        <ele>66.0</ele>
      </trkpt>
      <trkpt lat="37.0976" lon="-8.74283">
        <ele>68.0</ele>
      </trkpt>
      <trkpt lat="37.09798" lon="-8.74406">
        <ele>64.0</ele>
      </trkpt>
      <trkpt lat="37.09878" lon="-8.7455">
        <ele>55.0</ele>
      </trkpt>
      <trkpt lat="37.09947" lon="-8.74688">
        <ele>44.0</ele>
      </trkpt>
      <trkpt lat="37.09972" lon="-8.7478">
        <ele>39.0</ele>
      </trkpt>
      <trkpt lat="37.09988" lon="-8.74797">
        <ele>37.0</ele>
      </trkpt>
      <trkpt lat="37.09987" lon="-8.74824">
        <ele>36.0</ele>
      </trkpt>
      <trkpt lat="37.09981" lon="-8.74903">
        <ele>34.0</ele>
      </trkpt>
      <trkpt lat="37.09926" lon="-8.75498">
        <ele>29.0</ele>
      </trkpt>
      <trkpt lat="37.09892" lon="-8.75659">
        <ele>24.0</ele>
      </trkpt>
      <trkpt lat="37.0983" lon="-8.75788">
        <ele>19.0</ele>
      </trkpt>
      <trkpt lat="37.09687" lon="-8.76035">
        <ele>17.0</ele>
      </trkpt>
      <trkpt lat="37.09623" lon="-8.76194">
        <ele>14.0</ele>
      </trkpt>
      <trkpt lat="37.09538" lon="-8.76488">
        <ele>9.0</ele>
      </trkpt>
      <trkpt lat="37.09455" lon="-8.76776">
        <ele>10.0</ele>
      </trkpt>
      <trkpt lat="37.09451" lon="-8.76813">
        <ele>10.0</ele>
      </trkpt>
      <trkpt lat="37.09435" lon="-8.76841">
        <ele>10.0</ele>
      </trkpt>
      <trkpt lat="37.09267" lon="-8.77479">
        <ele>9.0</ele>
      </trkpt>
      <trkpt lat="37.0915" lon="-8.7794">
        <ele>8.0</ele>
      </trkpt>
      <trkpt lat="37.09089" lon="-8.78265">
        <ele>11.0</ele>
      </trkpt>
      <trkpt lat="37.09087" lon="-8.78311">
        <ele>13.0</ele>
      </trkpt>
      <trkpt lat="37.09104" lon="-8.78507">
        <ele>15.0</ele>
      </trkpt>
      <trkpt lat="37.09179" lon="-8.78889">
        <ele>23.0</ele>
      </trkpt>
      <trkpt lat="37.09217" lon="-8.79454">
        <ele>39.0</ele>
      </trkpt>
      <trkpt lat="37.09235" lon="-8.79597">
        <ele>43.0</ele>
      </trkpt>
      <trkpt lat="37.09244" lon="-8.79623">
        <ele>44.0</ele>
      </trkpt>
      <trkpt lat="37.09231" lon="-8.79691">
        <ele>44.0</ele>
      </trkpt>
      <trkpt lat="37.09264" lon="-8.80186">
        <ele>48.0</ele>
      </trkpt>
      <trkpt lat="37.09353" lon="-8.80506">
        <ele>47.0</ele>
      </trkpt>
      <trkpt lat="37.09369" lon="-8.80687">
        <ele>35.0</ele>
      </trkpt>
      <trkpt lat="37.09539" lon="-8.80676">
        <ele>31.0</ele>
      </trkpt>
      <trkpt lat="37.09775" lon="-8.8022">
        <ele>44.0</ele>
      </trkpt>
      <trkpt lat="37.09987" lon="-8.80241">
        <ele>49.0</ele>
      </trkpt>
      <trkpt lat="37.1015" lon="-8.802">
        <ele>44.0</ele>
      </trkpt>
      <trkpt lat="37.10314" lon="-8.79973">
        <ele>32.0</ele>
      </trkpt>
      <trkpt lat="37.10397" lon="-8.79825">
        <ele>24.0</ele>
      </trkpt>
      <trkpt lat="37.10518" lon="-8.79607">
        <ele>24.0</ele>
      </trkpt>
      <trkpt lat="37.10587" lon="-8.79553">
        <ele>27.0</ele>
      </trkpt>
      <trkpt lat="37.1064" lon="-8.79515">
        <ele>25.0</ele>
      </trkpt>
      <trkpt lat="37.10675" lon="-8.79467">
        <ele>23.0</ele>
      </trkpt>
      <trkpt lat="37.10718" lon="-8.79416">
        <ele>22.0</ele>
      </trkpt>
      <trkpt lat="37.11004" lon="-8.79458">
        <ele>27.0</ele>
      </trkpt>
      <trkpt lat="37.11309" lon="-8.79525">
        <ele>36.0</ele>
      </trkpt>
      <trkpt lat="37.11507" lon="-8.79396">
        <ele>43.0</ele>
      </trkpt>
      <trkpt lat="37.11794" lon="-8.79142">
        <ele>58.0</ele>
      </trkpt>
      <trkpt lat="37.12" lon="-8.79024">
        <ele>66.0</ele>
      </trkpt>
      <trkpt lat="37.12734" lon="-8.78771">
        <ele>65.0</ele>
      </trkpt>
      <trkpt lat="37.13399" lon="-8.78083">
        <ele>70.0</ele>
      </trkpt>
      <trkpt lat="37.1352" lon="-8.77872">
        <ele>70.0</ele>
      </trkpt>
      <trkpt lat="37.13657" lon="-8.77808">
        <ele>70.0</ele>
      </trkpt>
      <trkpt lat="37.13801" lon="-8.77711">
        <ele>68.0</ele>
      </trkpt>
      <trkpt lat="37.13851" lon="-8.77655">
        <ele>67.0</ele>
      </trkpt>
      <trkpt lat="37.13934" lon="-8.77528">
        <ele>61.0</ele>
      </trkpt>
      <trkpt lat="37.1392" lon="-8.77313">
        <ele>57.0</ele>
      </trkpt>
      <trkpt lat="37.1391" lon="-8.77161">
        <ele>53.0</ele>
      </trkpt>
      <trkpt lat="37.13905" lon="-8.76989">
        <ele>56.0</ele>
      </trkpt>
      <trkpt lat="37.13891" lon="-8.76878">
        <ele>59.0</ele>
      </trkpt>
      <trkpt lat="37.13885" lon="-8.76547">
        <ele>63.0</ele>
      </trkpt>
      <trkpt lat="37.13876" lon="-8.76322">
        <ele>68.0</ele>
      </trkpt>
      <trkpt lat="37.13886" lon="-8.76155">
        <ele>67.0</ele>
      </trkpt>
      <trkpt lat="37.13889" lon="-8.76031">
        <ele>65.0</ele>
      </trkpt>
      <trkpt lat="37.13719" lon="-8.75504">
        <ele>66.0</ele>
      </trkpt>
      <trkpt lat="37.13643" lon="-8.7536">
        <ele>66.0</ele>
      </trkpt>
      <trkpt lat="37.13364" lon="-8.75077">
        <ele>55.0</ele>
      </trkpt>
      <trkpt lat="37.13325" lon="-8.74781">
        <ele>51.0</ele>
      </trkpt>
      <trkpt lat="37.13371" lon="-8.74586">
        <ele>52.0</ele>
      </trkpt>
      <trkpt lat="37.13277" lon="-8.74163">
        <ele>57.0</ele>
      </trkpt>
      <trkpt lat="37.1316" lon="-8.73934">
        <ele>65.0</ele>
      </trkpt>
      <trkpt lat="37.12837" lon="-8.73583">
        <ele>69.0</ele>
      </trkpt>
      <trkpt lat="37.12781" lon="-8.73187">
        <ele>71.0</ele>
      </trkpt>
      <trkpt lat="37.12761" lon="-8.72863">
        <ele>70.0</ele>
      </trkpt>
      <trkpt lat="37.12679" lon="-8.72758">
        <ele>67.0</ele>
      </trkpt>
      <trkpt lat="37.12609" lon="-8.72514">
        <ele>61.0</ele>
      </trkpt>
      <trkpt lat="37.12589" lon="-8.72381">
        <ele>55.0</ele>
      </trkpt>
      <trkpt lat="37.12625" lon="-8.72311">
        <ele>53.0</ele>
      </trkpt>
      <trkpt lat="37.12659" lon="-8.7225">
        <ele>51.0</ele>
      </trkpt>
      <trkpt lat="37.1263" lon="-8.71605">
        <ele>41.0</ele>
      </trkpt>
      <trkpt lat="37.12606" lon="-8.7149">
        <ele>37.0</ele>
      </trkpt>
      <trkpt lat="37.12602" lon="-8.71405">
        <ele>37.0</ele>
      </trkpt>
      <trkpt lat="37.12608" lon="-8.71177">
        <ele>39.0</ele>
      </trkpt>
      <trkpt lat="37.12572" lon="-8.71048">
        <ele>42.0</ele>
      </trkpt>
      <trkpt lat="37.12471" lon="-8.70948">
        <ele>45.0</ele>
      </trkpt>
      <trkpt lat="37.12335" lon="-8.70879">
        <ele>46.0</ele>
      </trkpt>
      <trkpt lat="37.12302" lon="-8.70757">
        <ele>47.0</ele>
      </trkpt>
      <trkpt lat="37.12273" lon="-8.70685">
        <ele>48.0</ele>
      </trkpt>
      <trkpt lat="37.12262" lon="-8.70599">
        <ele>47.0</ele>
      </trkpt>
      <trkpt lat="37.12352" lon="-8.70337">
        <ele>44.0</ele>
      </trkpt>
      <trkpt lat="37.12505" lon="-8.69973">
        <ele>35.0</ele>
      </trkpt>
      <trkpt lat="37.12601" lon="-8.69629">
        <ele>22.0</ele>
      </trkpt>
      <trkpt lat="37.12614" lon="-8.69539">
        <ele>12.0</ele>
      </trkpt>
      <trkpt lat="37.12571" lon="-8.69529">
        <ele>9.0</ele>
      </trkpt>
      <trkpt lat="37.12488" lon="-8.6951">
        <ele>9.0</ele>
      </trkpt>
      <trkpt lat="37.12319" lon="-8.69437">
        <ele>13.0</ele>
      </trkpt>
      <trkpt lat="37.12139" lon="-8.69353">
        <ele>16.0</ele>
      </trkpt>
      <trkpt lat="37.11921" lon="-8.69226">
        <ele>18.0</ele>
      </trkpt>
      <trkpt lat="37.11809" lon="-8.69149">
        <ele>24.0</ele>
      </trkpt>
      <trkpt lat="37.11751" lon="-8.69033">
        <ele>30.0</ele>
      </trkpt>
      <trkpt lat="37.11622" lon="-8.68783">
        <ele>41.0</ele>
      </trkpt>
      <trkpt lat="37.11595" lon="-8.68701">
        <ele>38.0</ele>
      </trkpt>
      <trkpt lat="37.11562" lon="-8.68655">
        <ele>31.0</ele>
      </trkpt>
      <trkpt lat="37.11498" lon="-8.68645">
        <ele>24.0</ele>
      </trkpt>
      <trkpt lat="37.11448" lon="-8.68625">
        <ele>22.0</ele>
      </trkpt>
      <trkpt lat="37.11368" lon="-8.68452">
        <ele>18.0</ele>
      </trkpt>
      <trkpt lat="37.11345" lon="-8.68359">
        <ele>13.0</ele>
      </trkpt>
      <trkpt lat="37.11292" lon="-8.68203">
        <ele>8.0</ele>
      </trkpt>
      <trkpt lat="37.11267" lon="-8.68177">
        <ele>6.0</ele>
      </trkpt>
      <trkpt lat="37.11225" lon="-8.68162">
        <ele>5.0</ele>
      </trkpt>
      <trkpt lat="37.11158" lon="-8.68133">
        <ele>3.0</ele>
      </trkpt>
      <trkpt lat="37.11122" lon="-8.68129">
        <ele>2.0</ele>
      </trkpt>
      <trkpt lat="37.11106" lon="-8.68102">
        <ele>2.0</ele>
      </trkpt>
      <trkpt lat="37.11125" lon="-8.68079">
        <ele>2.0</ele>
      </trkpt>
      <trkpt lat="37.11112" lon="-8.68013">
        <ele>2.0</ele>
      </trkpt>
      <trkpt lat="37.11055" lon="-8.67832">
        <ele>2.0</ele>
      </trkpt>
      <trkpt lat="37.11049" lon="-8.67757">
        <ele>2.0</ele>
      </trkpt>
      <trkpt lat="37.11049" lon="-8.67737">
        <ele>2.0</ele>
      </trkpt>
      <trkpt lat="37.11035" lon="-8.67725">
        <ele>2.0</ele>
      </trkpt>
      <trkpt lat="37.1096" lon="-8.67652">
        <ele>1.0</ele>
      </trkpt>
      <trkpt lat="37.10768" lon="-8.67518">
        <ele>1.0</ele>
      </trkpt>
      <trkpt lat="37.10534" lon="-8.67355">
      </trkpt>
      <trkpt lat="37.10433" lon="-8.67284">
        <ele>2.0</ele>
      </trkpt>
    </trkseg>
  </trk>
</gpx>