<?xml version="1.0" encoding="UTF-8"?>
<gpx xmlns="http://www.topografix.com/GPX/1/0" xmlns:xsi="http://www.w3.org/2001/XMLSchema-instance" xsi:schemaLocation="http://www.topografix.com/GPX/1/0 http://www.topografix.com/GPX/1/0/gpx.xsd" version="1.0" creator="GPSBabel - https://www.gpsbabel.org">
  <time>2026-02-07T14:31:02.795000Z</time>
  <bounds minlat="37.07025" maxlat="37.11007" minlon="-8.1272" maxlon="-8.0847" />
  <trk>
    <trkseg>
      <trkpt lat="37.07472" lon="-8.12014">
        <ele>9.0</ele>
      </trkpt>
      <trkpt lat="37.07468" lon="-8.11966">
        <ele>8.0</ele>
      </trkpt>
      <trkpt lat="37.07467" lon="-8.11961">
        <ele>8.0</ele>
      </trkpt>
      <trkpt lat="37.07466" lon="-8.11951">
        <ele>8.0</ele>
      </trkpt>
      <trkpt lat="37.07467" lon="-8.11942">
        <ele>8.0</ele>
      </trkpt>
      <trkpt lat="37.07473" lon="-8.11939">
        <ele>8.0</ele>
      </trkpt>
      <trkpt lat="37.07499" lon="-8.11937">
        <ele>8.0</ele>
      </trkpt>
      <trkpt lat="37.07494" lon="-8.1187">
        <ele>8.0</ele>
      </trkpt>
      <trkpt lat="37.07494" lon="-8.11867">
        <ele>8.0</ele>
      </trkpt>
      <trkpt lat="37.07493" lon="-8.11858">
        <ele>8.0</ele>
      </trkpt>
      <trkpt lat="37.0748" lon="-8.1186">
        <ele>8.0</ele>
      </trkpt>
      <trkpt lat="37.07471" lon="-8.1186">
        <ele>8.0</ele>
      </trkpt>
      <trkpt lat="37.07465" lon="-8.11858">
        <ele>8.0</ele>
      </trkpt>
      <trkpt lat="37.0746" lon="-8.11856">
        <ele>8.0</ele>
      </trkpt>
      <trkpt lat="37.07454" lon="-8.11852">
        <ele>8.0</ele>
      </trkpt>
      <trkpt lat="37.07446" lon="-8.11845">
        <ele>8.0</ele>
      </trkpt>
      <trkpt lat="37.0744" lon="-8.11834">
        <ele>8.0</ele>
      </trkpt>
      <trkpt lat="37.07434" lon="-8.11817">
        <ele>8.0</ele>
      </trkpt>
      <trkpt lat="37.07434" lon="-8.11817">
        <ele>8.0</ele>
      </trkpt>
      <trkpt lat="37.07432" lon="-8.11813">
        <ele>9.0</ele>
      </trkpt>
      <trkpt lat="37.07431" lon="-8.11797">
        <ele>9.0</ele>
      </trkpt>
      <trkpt lat="37.07431" lon="-8.11786">
        <ele>9.0</ele>
      </trkpt>
      <trkpt lat="37.07431" lon="-8.11774">
        <ele>9.0</ele>
      </trkpt>
      <trkpt lat="37.07431" lon="-8.11767">
        <ele>9.0</ele>
      </trkpt>
      <trkpt lat="37.07431" lon="-8.1174">
        <ele>10.0</ele>
      </trkpt>
      <trkpt lat="37.07431" lon="-8.11702">
        <ele>10.0</ele>
      </trkpt>
      <trkpt lat="37.07433" lon="-8.11675">
        <ele>11.0</ele>
      </trkpt>
      <trkpt lat="37.07438" lon="-8.11646">
        <ele>11.0</ele>
      </trkpt>
      <trkpt lat="37.07441" lon="-8.11634">
        <ele>12.0</ele>
      </trkpt>
      <trkpt lat="37.07446" lon="-8.11617">
        <ele>12.0</ele>
      </trkpt>
      <trkpt lat="37.07456" lon="-8.11595">
        <ele>12.0</ele>
      </trkpt>
      <trkpt lat="37.07466" lon="-8.11575">
        <ele>12.0</ele>
      </trkpt>
      <trkpt lat="37.07475" lon="-8.11561">
        <ele>12.0</ele>
      </trkpt>
      <trkpt lat="37.07485" lon="-8.11548">
        <ele>12.0</ele>
      </trkpt>
      <trkpt lat="37.07491" lon="-8.11539">
        <ele>12.0</ele>
      </trkpt>
      <trkpt lat="37.07502" lon="-8.11529">
        <ele>12.0</ele>
      </trkpt>
      <trkpt lat="37.07535" lon="-8.11501">
        <ele>12.0</ele>
      </trkpt>
      <trkpt lat="37.07544" lon="-8.11496">
        <ele>12.0</ele>
      </trkpt>
      <trkpt lat="37.07564" lon="-8.11484">
        <ele>12.0</ele>
      </trkpt>
      <trkpt lat="37.07586" lon="-8.11475">
        <ele>12.0</ele>
      </trkpt>
      <trkpt lat="37.0761" lon="-8.1147">
        <ele>12.0</ele>
      </trkpt>
      <trkpt lat="37.07634" lon="-8.11469">
        <ele>12.0</ele>
      </trkpt>
      <trkpt lat="37.07643" lon="-8.1147">
        <ele>11.0</ele>
      </trkpt>
      <trkpt lat="37.07668" lon="-8.11471">
        <ele>11.0</ele>
      </trkpt>
      <trkpt lat="37.07716" lon="-8.11491">
        <ele>10.0</ele>
      </trkpt>
      <trkpt lat="37.07741" lon="-8.11503">
        <ele>10.0</ele>
      </trkpt>
      <trkpt lat="37.07764" lon="-8.11514">
        <ele>9.0</ele>
      </trkpt>
      <trkpt lat="37.07787" lon="-8.11526">
        <ele>9.0</ele>
      </trkpt>
      <trkpt lat="37.07794" lon="-8.11529">
        <ele>9.0</ele>
      </trkpt>
      <trkpt lat="37.07816" lon="-8.11542">
        <ele>8.0</ele>
      </trkpt>
      <trkpt lat="37.07821" lon="-8.11545">
        <ele>8.0</ele>
      </trkpt>
      <trkpt lat="37.07825" lon="-8.11545">
        <ele>8.0</ele>
      </trkpt>
      <trkpt lat="37.07827" lon="-8.11543">
        <ele>8.0</ele>
      </trkpt>
      <trkpt lat="37.07837" lon="-8.11523">
        <ele>8.0</ele>
      </trkpt>
      <trkpt lat="37.0784" lon="-8.11519">
        <ele>8.0</ele>
      </trkpt>
      <trkpt lat="37.07842" lon="-8.11514">
        <ele>8.0</ele>
      </trkpt>
      <trkpt lat="37.07854" lon="-8.11484">
        <ele>8.0</ele>
      </trkpt>
      <trkpt lat="37.07864" lon="-8.11458">
        <ele>8.0</ele>
      </trkpt>
      <trkpt lat="37.07866" lon="-8.11452">
        <ele>8.0</ele>
      </trkpt>
      <trkpt lat="37.07868" lon="-8.11443">
        <ele>8.0</ele>
      </trkpt>
      <trkpt lat="37.0787" lon="-8.11429">
        <ele>8.0</ele>
      </trkpt>
      <trkpt lat="37.0787" lon="-8.11422">
        <ele>8.0</ele>
      </trkpt>
      <trkpt lat="37.0787" lon="-8.11413">
        <ele>8.0</ele>
      </trkpt>
      <trkpt lat="37.07868" lon="-8.11406">
        <ele>8.0</ele>
      </trkpt>
      <trkpt lat="37.07867" lon="-8.11402">
        <ele>8.0</ele>
      </trkpt>
      <trkpt lat="37.07855" lon="-8.11372">
        <ele>8.0</ele>
      </trkpt>
      <trkpt lat="37.07855" lon="-8.11372">
        <ele>8.0</ele>
      </trkpt>
      <trkpt lat="37.07855" lon="-8.11371">
        <ele>8.0</ele>
      </trkpt>
      <trkpt lat="37.07845" lon="-8.11346">
        <ele>8.0</ele>
      </trkpt>
      <trkpt lat="37.0784" lon="-8.1133">
        <ele>9.0</ele>
      </trkpt>
      <trkpt lat="37.07839" lon="-8.11323">
        <ele>9.0</ele>
      </trkpt>
      <trkpt lat="37.07839" lon="-8.11318">
        <ele>9.0</ele>
      </trkpt>
      <trkpt lat="37.07838" lon="-8.11306">
        <ele>9.0</ele>
      </trkpt>
      <trkpt lat="37.07839" lon="-8.11289">
        <ele>9.0</ele>
      </trkpt>
      <trkpt lat="37.07844" lon="-8.11218">
        <ele>10.0</ele>
      </trkpt>
      <trkpt lat="37.07845" lon="-8.11211">
        <ele>10.0</ele>
      </trkpt>
      <trkpt lat="37.07847" lon="-8.11174">
        <ele>10.0</ele>
      </trkpt>
      <trkpt lat="37.07849" lon="-8.11163">
        <ele>10.0</ele>
      </trkpt>
      <trkpt lat="37.07851" lon="-8.11153">
        <ele>10.0</ele>
      </trkpt>
      <trkpt lat="37.07854" lon="-8.11142">
        <ele>10.0</ele>
      </trkpt>
      <trkpt lat="37.07856" lon="-8.11138">
        <ele>10.0</ele>
      </trkpt>
      <trkpt lat="37.07864" lon="-8.11124">
        <ele>10.0</ele>
      </trkpt>
      <trkpt lat="37.07871" lon="-8.11114">
        <ele>10.0</ele>
      </trkpt>
      <trkpt lat="37.07886" lon="-8.11099">
        <ele>10.0</ele>
      </trkpt>
      <trkpt lat="37.07897" lon="-8.11091">
        <ele>10.0</ele>
      </trkpt>
      <trkpt lat="37.07899" lon="-8.11089">
        <ele>10.0</ele>
      </trkpt>
      <trkpt lat="37.07906" lon="-8.11079">
        <ele>10.0</ele>
      </trkpt>
      <trkpt lat="37.07909" lon="-8.11072">
        <ele>10.0</ele>
      </trkpt>
      <trkpt lat="37.07911" lon="-8.11067">
        <ele>10.0</ele>
      </trkpt>
      <trkpt lat="37.07911" lon="-8.11062">
        <ele>10.0</ele>
      </trkpt>
      <trkpt lat="37.07913" lon="-8.11058">
        <ele>10.0</ele>
      </trkpt>
      <trkpt lat="37.07912" lon="-8.1105">
        <ele>10.0</ele>
      </trkpt>
      <trkpt lat="37.07909" lon="-8.11037">
        <ele>10.0</ele>
      </trkpt>
      <trkpt lat="37.07904" lon="-8.11018">
        <ele>10.0</ele>
      </trkpt>
      <trkpt lat="37.07894" lon="-8.10986">
        <ele>10.0</ele>
      </trkpt>
      <trkpt lat="37.07883" lon="-8.10963">
        <ele>10.0</ele>
      </trkpt>
      <trkpt lat="37.07869" lon="-8.10946">
        <ele>10.0</ele>
      </trkpt>
      <trkpt lat="37.07847" lon="-8.1093">
        <ele>10.0</ele>
      </trkpt>
      <trkpt lat="37.0781" lon="-8.10913">
        <ele>10.0</ele>
      </trkpt>
      <trkpt lat="37.07777" lon="-8.10897">
        <ele>11.0</ele>
      </trkpt>
      <trkpt lat="37.07772" lon="-8.10895">
        <ele>11.0</ele>
      </trkpt>
      <trkpt lat="37.07763" lon="-8.1089">
        <ele>11.0</ele>
      </trkpt>
      <trkpt lat="37.07757" lon="-8.10888">
        <ele>11.0</ele>
      </trkpt>
      <trkpt lat="37.07725" lon="-8.10866">
        <ele>11.0</ele>
      </trkpt>
      <trkpt lat="37.07692" lon="-8.10844">
        <ele>11.0</ele>
      </trkpt>
      <trkpt lat="37.07654" lon="-8.10816">
        <ele>11.0</ele>
      </trkpt>
      <trkpt lat="37.07629" lon="-8.108">
        <ele>11.0</ele>
      </trkpt>
      <trkpt lat="37.07611" lon="-8.1079">
        <ele>11.0</ele>
      </trkpt>
      <trkpt lat="37.076" lon="-8.10784">
        <ele>11.0</ele>
      </trkpt>
      <trkpt lat="37.07589" lon="-8.10774">
        <ele>12.0</ele>
      </trkpt>
      <trkpt lat="37.07582" lon="-8.10764">
        <ele>12.0</ele>
      </trkpt>
      <trkpt lat="37.0757" lon="-8.10745">
        <ele>12.0</ele>
      </trkpt>
      <trkpt lat="37.07561" lon="-8.10721">
        <ele>12.0</ele>
      </trkpt>
      <trkpt lat="37.07556" lon="-8.10688">
        <ele>12.0</ele>
      </trkpt>
      <trkpt lat="37.07558" lon="-8.10662">
        <ele>12.0</ele>
      </trkpt>
      <trkpt lat="37.07565" lon="-8.10633">
        <ele>13.0</ele>
      </trkpt>
      <trkpt lat="37.07579" lon="-8.10606">
        <ele>13.0</ele>
      </trkpt>
      <trkpt lat="37.07593" lon="-8.10587">
        <ele>13.0</ele>
      </trkpt>
      <trkpt lat="37.07617" lon="-8.10573">
        <ele>14.0</ele>
      </trkpt>
      <trkpt lat="37.07666" lon="-8.10555">
        <ele>15.0</ele>
      </trkpt>
      <trkpt lat="37.07744" lon="-8.10526">
        <ele>17.0</ele>
      </trkpt>
      <trkpt lat="37.07776" lon="-8.10509">
        <ele>19.0</ele>
      </trkpt>
      <trkpt lat="37.07794" lon="-8.10495">
        <ele>21.0</ele>
      </trkpt>
      <trkpt lat="37.07814" lon="-8.10464">
        <ele>22.0</ele>
      </trkpt>
      <trkpt lat="37.07824" lon="-8.10416">
        <ele>24.0</ele>
      </trkpt>
      <trkpt lat="37.07822" lon="-8.10365">
        <ele>25.0</ele>
      </trkpt>
      <trkpt lat="37.07805" lon="-8.10301">
        <ele>27.0</ele>
      </trkpt>
      <trkpt lat="37.07802" lon="-8.10289">
        <ele>28.0</ele>
      </trkpt>
      <trkpt lat="37.07802" lon="-8.10289">
        <ele>29.0</ele>
      </trkpt>
      <trkpt lat="37.07801" lon="-8.1028">
        <ele>30.0</ele>
      </trkpt>
      <trkpt lat="37.07799" lon="-8.1027">
        <ele>30.0</ele>
      </trkpt>
      <trkpt lat="37.07798" lon="-8.10263">
        <ele>30.0</ele>
      </trkpt>
      <trkpt lat="37.07798" lon="-8.1026">
        <ele>31.0</ele>
      </trkpt>
      <trkpt lat="37.07797" lon="-8.10246">
        <ele>31.0</ele>
      </trkpt>
      <trkpt lat="37.07798" lon="-8.10219">
        <ele>31.0</ele>
      </trkpt>
      <trkpt lat="37.07803" lon="-8.10142">
        <ele>32.0</ele>
      </trkpt>
      <trkpt lat="37.0781" lon="-8.10068">
        <ele>32.0</ele>
      </trkpt>
      <trkpt lat="37.07811" lon="-8.10057">
        <ele>33.0</ele>
      </trkpt>
      <trkpt lat="37.07812" lon="-8.10038">
        <ele>33.0</ele>
      </trkpt>
      <trkpt lat="37.07809" lon="-8.10013">
        <ele>33.0</ele>
      </trkpt>
      <trkpt lat="37.07802" lon="-8.09988">
        <ele>33.0</ele>
      </trkpt>
      <trkpt lat="37.07786" lon="-8.09955">
        <ele>34.0</ele>
      </trkpt>
      <trkpt lat="37.07759" lon="-8.09907">
        <ele>34.0</ele>
      </trkpt>
      <trkpt lat="37.07742" lon="-8.09867">
        <ele>34.0</ele>
      </trkpt>
      <trkpt lat="37.07738" lon="-8.09822">
        <ele>34.0</ele>
      </trkpt>
      <trkpt lat="37.07742" lon="-8.09792">
        <ele>34.0</ele>
      </trkpt>
      <trkpt lat="37.07741" lon="-8.09777">
        <ele>33.0</ele>
      </trkpt>
      <trkpt lat="37.07738" lon="-8.09763">
        <ele>33.0</ele>
      </trkpt>
      <trkpt lat="37.07737" lon="-8.09759">
        <ele>32.0</ele>
      </trkpt>
      <trkpt lat="37.07737" lon="-8.09754">
        <ele>32.0</ele>
      </trkpt>
      <trkpt lat="37.07738" lon="-8.0975">
        <ele>32.0</ele>
      </trkpt>
      <trkpt lat="37.07741" lon="-8.09744">
        <ele>31.0</ele>
      </trkpt>
      <trkpt lat="37.07746" lon="-8.0973">
        <ele>31.0</ele>
      </trkpt>
      <trkpt lat="37.07747" lon="-8.09719">
        <ele>31.0</ele>
      </trkpt>
      <trkpt lat="37.0774" lon="-8.0969">
        <ele>30.0</ele>
      </trkpt>
      <trkpt lat="37.07731" lon="-8.09667">
        <ele>29.0</ele>
      </trkpt>
      <trkpt lat="37.07718" lon="-8.09646">
        <ele>28.0</ele>
      </trkpt>
      <trkpt lat="37.07701" lon="-8.09628">
        <ele>27.0</ele>
      </trkpt>
      <trkpt lat="37.07682" lon="-8.09616">
        <ele>26.0</ele>
      </trkpt>
      <trkpt lat="37.07668" lon="-8.09613">
        <ele>25.0</ele>
      </trkpt>
      <trkpt lat="37.07653" lon="-8.09618">
        <ele>24.0</ele>
      </trkpt>
      <trkpt lat="37.07647" lon="-8.09619">
        <ele>24.0</ele>
      </trkpt>
      <trkpt lat="37.07645" lon="-8.09618">
        <ele>24.0</ele>
      </trkpt>
      <trkpt lat="37.07641" lon="-8.09618">
        <ele>24.0</ele>
      </trkpt>
      <trkpt lat="37.07636" lon="-8.09614">
        <ele>24.0</ele>
      </trkpt>
      <trkpt lat="37.07631" lon="-8.0961">
        <ele>23.0</ele>
      </trkpt>
      <trkpt lat="37.07628" lon="-8.09604">
        <ele>23.0</ele>
      </trkpt>
      <trkpt lat="37.07627" lon="-8.096">
        <ele>23.0</ele>
      </trkpt>
      <trkpt lat="37.07623" lon="-8.09592">
        <ele>23.0</ele>
      </trkpt>
      <trkpt lat="37.07618" lon="-8.09585">
        <ele>23.0</ele>
      </trkpt>
      <trkpt lat="37.07607" lon="-8.09579">
        <ele>23.0</ele>
      </trkpt>
      <trkpt lat="37.07553" lon="-8.09553">
        <ele>23.0</ele>
      </trkpt>
      <trkpt lat="37.07496" lon="-8.09523">
        <ele>23.0</ele>
      </trkpt>
      <trkpt lat="37.07488" lon="-8.0952">
        <ele>23.0</ele>
      </trkpt>
      <trkpt lat="37.07434" lon="-8.09493">
        <ele>23.0</ele>
      </trkpt>
      <trkpt lat="37.07415" lon="-8.09485">
        <ele>23.0</ele>
      </trkpt>
      <trkpt lat="37.07408" lon="-8.09483">
        <ele>24.0</ele>
      </trkpt>
      <trkpt lat="37.074" lon="-8.09482">
        <ele>24.0</ele>
      </trkpt>
      <trkpt lat="37.07388" lon="-8.09482">
        <ele>24.0</ele>
      </trkpt>
      <trkpt lat="37.07386" lon="-8.09483">
        <ele>24.0</ele>
      </trkpt>
      <trkpt lat="37.0738" lon="-8.09484">
        <ele>24.0</ele>
      </trkpt>
      <trkpt lat="37.07375" lon="-8.09482">
        <ele>24.0</ele>
      </trkpt>
      <trkpt lat="37.0737" lon="-8.09478">
        <ele>24.0</ele>
      </trkpt>
      <trkpt lat="37.07366" lon="-8.09473">
        <ele>25.0</ele>
      </trkpt>
      <trkpt lat="37.07364" lon="-8.09467">
        <ele>25.0</ele>
      </trkpt>
      <trkpt lat="37.07364" lon="-8.0946">
        <ele>25.0</ele>
      </trkpt>
      <trkpt lat="37.07365" lon="-8.09454">
        <ele>25.0</ele>
      </trkpt>
      <trkpt lat="37.07367" lon="-8.09449">
        <ele>25.0</ele>
      </trkpt>
      <trkpt lat="37.07371" lon="-8.09429">
        <ele>25.0</ele>
      </trkpt>
      <trkpt lat="37.07372" lon="-8.09419">
        <ele>25.0</ele>
      </trkpt>
      <trkpt lat="37.07371" lon="-8.09411">
        <ele>25.0</ele>
      </trkpt>
      <trkpt lat="37.07371" lon="-8.09407">
        <ele>25.0</ele>
      </trkpt>
      <trkpt lat="37.07366" lon="-8.0937">
        <ele>25.0</ele>
      </trkpt>
      <trkpt lat="37.07349" lon="-8.09231">
        <ele>25.0</ele>
      </trkpt>
      <trkpt lat="37.07349" lon="-8.09231">
        <ele>25.0</ele>
      </trkpt>
      <trkpt lat="37.07342" lon="-8.09173">
        <ele>25.0</ele>
      </trkpt>
      <trkpt lat="37.07324" lon="-8.09031">
        <ele>24.0</ele>
      </trkpt>
      <trkpt lat="37.07317" lon="-8.08978">
        <ele>23.0</ele>
      </trkpt>
      <trkpt lat="37.07311" lon="-8.08938">
        <ele>22.0</ele>
      </trkpt>
      <trkpt lat="37.07302" lon="-8.08912">
        <ele>22.0</ele>
      </trkpt>
      <trkpt lat="37.07295" lon="-8.08902">
        <ele>21.0</ele>
      </trkpt>
      <trkpt lat="37.07289" lon="-8.08901">
        <ele>21.0</ele>
      </trkpt>
      <trkpt lat="37.07284" lon="-8.08897">
        <ele>20.0</ele>
      </trkpt>
      <trkpt lat="37.0728" lon="-8.08892">
        <ele>20.0</ele>
      </trkpt>
      <trkpt lat="37.07278" lon="-8.08886">
        <ele>20.0</ele>
      </trkpt>
      <trkpt lat="37.07277" lon="-8.08878">
        <ele>19.0</ele>
      </trkpt>
      <trkpt lat="37.07277" lon="-8.08874">
        <ele>19.0</ele>
      </trkpt>
      <trkpt lat="37.07278" lon="-8.08871">
        <ele>19.0</ele>
      </trkpt>
      <trkpt lat="37.0728" lon="-8.08867">
        <ele>19.0</ele>
      </trkpt>
      <trkpt lat="37.0727" lon="-8.08839">
        <ele>19.0</ele>
      </trkpt>
      <trkpt lat="37.07251" lon="-8.08807">
        <ele>18.0</ele>
      </trkpt>
      <trkpt lat="37.07188" lon="-8.08743">
        <ele>17.0</ele>
      </trkpt>
      <trkpt lat="37.07118" lon="-8.0867">
        <ele>16.0</ele>
      </trkpt>
      <trkpt lat="37.07098" lon="-8.08641">
        <ele>16.0</ele>
      </trkpt>
      <trkpt lat="37.07074" lon="-8.08586">
        <ele>15.0</ele>
      </trkpt>
      <trkpt lat="37.07053" lon="-8.0854">
        <ele>15.0</ele>
      </trkpt>
      <trkpt lat="37.0703" lon="-8.08486">
        <ele>14.0</ele>
      </trkpt>
      <trkpt lat="37.07025" lon="-8.0848">
        <ele>14.0</ele>
      </trkpt>
      <trkpt lat="37.07027" lon="-8.08478">
        <ele>13.0</ele>
      </trkpt>
      <trkpt lat="37.07028" lon="-8.08477">
        <ele>13.0</ele>
      </trkpt>
      <trkpt lat="37.0703" lon="-8.08477">
        <ele>13.0</ele>
      </trkpt>
      <trkpt lat="37.07031" lon="-8.08476">
        <ele>13.0</ele>
      </trkpt>
      <trkpt lat="37.07033" lon="-8.08475">
        <ele>13.0</ele>
      </trkpt>
      <trkpt lat="37.07034" lon="-8.08474">
        <ele>13.0</ele>
      </trkpt>
      <trkpt lat="37.07036" lon="-8.08472">
        <ele>12.0</ele>
      </trkpt>
      <trkpt lat="37.07038" lon="-8.0847">
        <ele>12.0</ele>
      </trkpt>
      <trkpt lat="37.07038" lon="-8.0847">
        <ele>12.0</ele>
      </trkpt>
      <trkpt lat="37.07042" lon="-8.08484">
        <ele>12.0</ele>
      </trkpt>
      <trkpt lat="37.07044" lon="-8.0849">
        <ele>12.0</ele>
      </trkpt>
      <trkpt lat="37.07045" lon="-8.08493">
        <ele>12.0</ele>
      </trkpt>
      <trkpt lat="37.07047" lon="-8.08498">
        <ele>12.0</ele>
      </trkpt>
      <trkpt lat="37.07046" lon="-8.08499">
        <ele>12.0</ele>
      </trkpt>
      <trkpt lat="37.07046" lon="-8.08499">
        <ele>12.0</ele>
      </trkpt>
      <trkpt lat="37.07061" lon="-8.08534">
        <ele>12.0</ele>
      </trkpt>
      <trkpt lat="37.07073" lon="-8.08559">
        <ele>12.0</ele>
      </trkpt>
      <trkpt lat="37.07086" lon="-8.08592">
        <ele>11.0</ele>
      </trkpt>
      <trkpt lat="37.07091" lon="-8.08602">
        <ele>11.0</ele>
      </trkpt>
      <trkpt lat="37.07091" lon="-8.08602">
        <ele>11.0</ele>
      </trkpt>
      <trkpt lat="37.07124" lon="-8.08661">
        <ele>11.0</ele>
      </trkpt>
      <trkpt lat="37.07199" lon="-8.0874">
        <ele>12.0</ele>
      </trkpt>
      <trkpt lat="37.07279" lon="-8.08831">
        <ele>14.0</ele>
      </trkpt>
      <trkpt lat="37.07294" lon="-8.08856">
        <ele>15.0</ele>
      </trkpt>
      <trkpt lat="37.073" lon="-8.08856">
        <ele>16.0</ele>
      </trkpt>
      <trkpt lat="37.07306" lon="-8.08859">
        <ele>17.0</ele>
      </trkpt>
      <trkpt lat="37.0731" lon="-8.08864">
        <ele>17.0</ele>
      </trkpt>
      <trkpt lat="37.07313" lon="-8.08871">
        <ele>18.0</ele>
      </trkpt>
      <trkpt lat="37.07314" lon="-8.08878">
        <ele>18.0</ele>
      </trkpt>
      <trkpt lat="37.07314" lon="-8.08885">
        <ele>18.0</ele>
      </trkpt>
      <trkpt lat="37.07311" lon="-8.08891">
        <ele>18.0</ele>
      </trkpt>
      <trkpt lat="37.07314" lon="-8.08915">
        <ele>19.0</ele>
      </trkpt>
      <trkpt lat="37.07324" lon="-8.0896">
        <ele>19.0</ele>
      </trkpt>
      <trkpt lat="37.07341" lon="-8.09095">
        <ele>20.0</ele>
      </trkpt>
      <trkpt lat="37.0735" lon="-8.09166">
        <ele>21.0</ele>
      </trkpt>
      <trkpt lat="37.0736" lon="-8.09239">
        <ele>22.0</ele>
      </trkpt>
      <trkpt lat="37.07372" lon="-8.09337">
        <ele>24.0</ele>
      </trkpt>
      <trkpt lat="37.07379" lon="-8.09405">
        <ele>24.0</ele>
      </trkpt>
      <trkpt lat="37.07382" lon="-8.09419">
        <ele>24.0</ele>
      </trkpt>
      <trkpt lat="37.07386" lon="-8.09433">
        <ele>24.0</ele>
      </trkpt>
      <trkpt lat="37.07392" lon="-8.09442">
        <ele>24.0</ele>
      </trkpt>
      <trkpt lat="37.07396" lon="-8.09447">
        <ele>24.0</ele>
      </trkpt>
      <trkpt lat="37.07399" lon="-8.09453">
        <ele>24.0</ele>
      </trkpt>
      <trkpt lat="37.07411" lon="-8.09466">
        <ele>24.0</ele>
      </trkpt>
      <trkpt lat="37.07418" lon="-8.09473">
        <ele>24.0</ele>
      </trkpt>
      <trkpt lat="37.07444" lon="-8.09486">
        <ele>24.0</ele>
      </trkpt>
      <trkpt lat="37.07493" lon="-8.09508">
        <ele>23.0</ele>
      </trkpt>
      <trkpt lat="37.07584" lon="-8.09555">
        <ele>22.0</ele>
      </trkpt>
      <trkpt lat="37.0761" lon="-8.09567">
        <ele>22.0</ele>
      </trkpt>
      <trkpt lat="37.0762" lon="-8.09573">
        <ele>22.0</ele>
      </trkpt>
      <trkpt lat="37.07626" lon="-8.09573">
        <ele>22.0</ele>
      </trkpt>
      <trkpt lat="37.07637" lon="-8.09569">
        <ele>22.0</ele>
      </trkpt>
      <trkpt lat="37.07641" lon="-8.09566">
        <ele>22.0</ele>
      </trkpt>
      <trkpt lat="37.07647" lon="-8.09565">
        <ele>22.0</ele>
      </trkpt>
      <trkpt lat="37.07653" lon="-8.09567">
        <ele>22.0</ele>
      </trkpt>
      <trkpt lat="37.07659" lon="-8.0957">
        <ele>22.0</ele>
      </trkpt>
      <trkpt lat="37.07663" lon="-8.09575">
        <ele>22.0</ele>
      </trkpt>
      <trkpt lat="37.07666" lon="-8.09581">
        <ele>22.0</ele>
      </trkpt>
      <trkpt lat="37.07668" lon="-8.0959">
        <ele>22.0</ele>
      </trkpt>
      <trkpt lat="37.07686" lon="-8.09604">
        <ele>22.0</ele>
      </trkpt>
      <trkpt lat="37.07691" lon="-8.09608">
        <ele>23.0</ele>
      </trkpt>
      <trkpt lat="37.07708" lon="-8.09619">
        <ele>24.0</ele>
      </trkpt>
      <trkpt lat="37.0772" lon="-8.09632">
        <ele>24.0</ele>
      </trkpt>
      <trkpt lat="37.07731" lon="-8.09645">
        <ele>25.0</ele>
      </trkpt>
      <trkpt lat="37.07742" lon="-8.09667">
        <ele>26.0</ele>
      </trkpt>
      <trkpt lat="37.07752" lon="-8.09696">
        <ele>27.0</ele>
      </trkpt>
      <trkpt lat="37.07755" lon="-8.09713">
        <ele>28.0</ele>
      </trkpt>
      <trkpt lat="37.07755" lon="-8.09713">
        <ele>29.0</ele>
      </trkpt>
      <trkpt lat="37.07756" lon="-8.09721">
        <ele>29.0</ele>
      </trkpt>
      <trkpt lat="37.07758" lon="-8.09735">
        <ele>30.0</ele>
      </trkpt>
      <trkpt lat="37.07758" lon="-8.09744">
        <ele>31.0</ele>
      </trkpt>
      <trkpt lat="37.0776" lon="-8.09747">
        <ele>31.0</ele>
      </trkpt>
      <trkpt lat="37.0777" lon="-8.09751">
        <ele>32.0</ele>
      </trkpt>
      <trkpt lat="37.07776" lon="-8.09754">
        <ele>32.0</ele>
      </trkpt>
      <trkpt lat="37.07785" lon="-8.09758">
        <ele>32.0</ele>
      </trkpt>
      <trkpt lat="37.07817" lon="-8.09778">
        <ele>32.0</ele>
      </trkpt>
      <trkpt lat="37.07845" lon="-8.09795">
        <ele>33.0</ele>
      </trkpt>
      <trkpt lat="37.07884" lon="-8.09817">
        <ele>33.0</ele>
      </trkpt>
      <trkpt lat="37.07884" lon="-8.09817">
        <ele>33.0</ele>
      </trkpt>
      <trkpt lat="37.07985" lon="-8.09875">
        <ele>34.0</ele>
      </trkpt>
      <trkpt lat="37.08097" lon="-8.09925">
        <ele>35.0</ele>
      </trkpt>
      <trkpt lat="37.08294" lon="-8.10014">
        <ele>36.0</ele>
      </trkpt>
      <trkpt lat="37.08456" lon="-8.1007">
        <ele>37.0</ele>
      </trkpt>
      <trkpt lat="37.08505" lon="-8.1008">
        <ele>38.0</ele>
      </trkpt>
      <trkpt lat="37.08682" lon="-8.10116">
        <ele>40.0</ele>
      </trkpt>
      <trkpt lat="37.08744" lon="-8.10126">
        <ele>41.0</ele>
      </trkpt>
      <trkpt lat="37.08764" lon="-8.1013">
        <ele>42.0</ele>
      </trkpt>
      <trkpt lat="37.08887" lon="-8.10155">
        <ele>43.0</ele>
      </trkpt>
      <trkpt lat="37.08957" lon="-8.10168">
        <ele>44.0</ele>
      </trkpt>
      <trkpt lat="37.08991" lon="-8.10181">
        <ele>44.0</ele>
      </trkpt>
      <trkpt lat="37.09038" lon="-8.10203">
        <ele>44.0</ele>
      </trkpt>
      <trkpt lat="37.09084" lon="-8.10227">
        <ele>44.0</ele>
      </trkpt>
      <trkpt lat="37.09096" lon="-8.10233">
        <ele>44.0</ele>
      </trkpt>
      <trkpt lat="37.09101" lon="-8.10236">
        <ele>44.0</ele>
      </trkpt>
      <trkpt lat="37.09144" lon="-8.10258">
        <ele>43.0</ele>
      </trkpt>
      <trkpt lat="37.09187" lon="-8.10276">
        <ele>43.0</ele>
      </trkpt>
      <trkpt lat="37.09234" lon="-8.1029">
        <ele>44.0</ele>
      </trkpt>
      <trkpt lat="37.09271" lon="-8.10278">
        <ele>45.0</ele>
      </trkpt>
      <trkpt lat="37.09296" lon="-8.10257">
        <ele>45.0</ele>
      </trkpt>
      <trkpt lat="37.09307" lon="-8.10248">
        <ele>46.0</ele>
      </trkpt>
      <trkpt lat="37.09313" lon="-8.1024">
        <ele>47.0</ele>
      </trkpt>
      <trkpt lat="37.09346" lon="-8.10202">
        <ele>47.0</ele>
      </trkpt>
      <trkpt lat="37.09372" lon="-8.10153">
        <ele>49.0</ele>
      </trkpt>
      <trkpt lat="37.09385" lon="-8.1012">
        <ele>50.0</ele>
      </trkpt>
      <trkpt lat="37.09387" lon="-8.10117">
        <ele>50.0</ele>
      </trkpt>
      <trkpt lat="37.09389" lon="-8.10103">
        <ele>51.0</ele>
      </trkpt>
      <trkpt lat="37.09394" lon="-8.10076">
        <ele>52.0</ele>
      </trkpt>
      <trkpt lat="37.09394" lon="-8.10034">
        <ele>53.0</ele>
      </trkpt>
      <trkpt lat="37.09388" lon="-8.0998">
        <ele>54.0</ele>
      </trkpt>
      <trkpt lat="37.09385" lon="-8.09957">
        <ele>55.0</ele>
      </trkpt>
      <trkpt lat="37.09377" lon="-8.09884">
        <ele>55.0</ele>
      </trkpt>
      <trkpt lat="37.09376" lon="-8.09839">
        <ele>55.0</ele>
      </trkpt>
      <trkpt lat="37.09374" lon="-8.09832">
        <ele>54.0</ele>
      </trkpt>
      <trkpt lat="37.0937" lon="-8.09817">
        <ele>54.0</ele>
      </trkpt>
      <trkpt lat="37.09374" lon="-8.0979">
        <ele>53.0</ele>
      </trkpt>
      <trkpt lat="37.0938" lon="-8.09773">
        <ele>53.0</ele>
      </trkpt>
      <trkpt lat="37.09396" lon="-8.09751">
        <ele>53.0</ele>
      </trkpt>
      <trkpt lat="37.09424" lon="-8.09712">
        <ele>53.0</ele>
      </trkpt>
      <trkpt lat="37.09436" lon="-8.09651">
        <ele>53.0</ele>
      </trkpt>
      <trkpt lat="37.09437" lon="-8.09632">
        <ele>53.0</ele>
      </trkpt>
      <trkpt lat="37.09468" lon="-8.09517">
        <ele>53.0</ele>
      </trkpt>
      <trkpt lat="37.09498" lon="-8.0943">
        <ele>54.0</ele>
      </trkpt>
      <trkpt lat="37.09524" lon="-8.09348">
        <ele>55.0</ele>
      </trkpt>
      <trkpt lat="37.09524" lon="-8.09348">
        <ele>55.0</ele>
      </trkpt>
      <trkpt lat="37.09556" lon="-8.09248">
        <ele>56.0</ele>
      </trkpt>
      <trkpt lat="37.09567" lon="-8.09193">
        <ele>57.0</ele>
      </trkpt>
      <trkpt lat="37.09613" lon="-8.08976">
        <ele>58.0</ele>
      </trkpt>
      <trkpt lat="37.09616" lon="-8.08934">
        <ele>58.0</ele>
      </trkpt>
      <trkpt lat="37.0962" lon="-8.08871">
        <ele>58.0</ele>
      </trkpt>
      <trkpt lat="37.09644" lon="-8.08817">
        <ele>58.0</ele>
      </trkpt>
      <trkpt lat="37.09686" lon="-8.08749">
        <ele>57.0</ele>
      </trkpt>
      <trkpt lat="37.09719" lon="-8.08695">
        <ele>56.0</ele>
      </trkpt>
      <trkpt lat="37.09856" lon="-8.08666">
        <ele>54.0</ele>
      </trkpt>
      <trkpt lat="37.1015" lon="-8.08612">
        <ele>53.0</ele>
      </trkpt>
      <trkpt lat="37.10197" lon="-8.08614">
        <ele>52.0</ele>
      </trkpt>
      <trkpt lat="37.10222" lon="-8.08624">
        <ele>51.0</ele>
      </trkpt>
      <trkpt lat="37.10236" lon="-8.08638">
        <ele>50.0</ele>
      </trkpt>
      <trkpt lat="37.10255" lon="-8.08643">
        <ele>50.0</ele>
      </trkpt>
      <trkpt lat="37.10269" lon="-8.08649">
        <ele>50.0</ele>
      </trkpt>
      <trkpt lat="37.10276" lon="-8.08672">
        <ele>50.0</ele>
      </trkpt>
      <trkpt lat="37.10278" lon="-8.08699">
        <ele>50.0</ele>
      </trkpt>
      <trkpt lat="37.10303" lon="-8.08749">
        <ele>50.0</ele>
      </trkpt>
      <trkpt lat="37.10326" lon="-8.0878">
        <ele>50.0</ele>
      </trkpt>
      <trkpt lat="37.10341" lon="-8.08807">
        <ele>50.0</ele>
      </trkpt>
      <trkpt lat="37.10345" lon="-8.08834">
        <ele>50.0</ele>
      </trkpt>
      <trkpt lat="37.10351" lon="-8.08856">
        <ele>50.0</ele>
      </trkpt>
      <trkpt lat="37.10356" lon="-8.08869">
        <ele>50.0</ele>
      </trkpt>
      <trkpt lat="37.10368" lon="-8.08881">
        <ele>50.0</ele>
      </trkpt>
      <trkpt lat="37.10391" lon="-8.08885">
        <ele>50.0</ele>
      </trkpt>
      <trkpt lat="37.10465" lon="-8.08887">
        <ele>50.0</ele>
      </trkpt>
      <trkpt lat="37.10538" lon="-8.08886">
        <ele>49.0</ele>
      </trkpt>
      <trkpt lat="37.10579" lon="-8.08882">
        <ele>48.0</ele>
      </trkpt>
      <trkpt lat="37.10579" lon="-8.08882">
        <ele>48.0</ele>
      </trkpt>
      <trkpt lat="37.10639" lon="-8.08875">
        <ele>47.0</ele>
      </trkpt>
      <trkpt lat="37.10755" lon="-8.08854">
        <ele>46.0</ele>
      </trkpt>
      <trkpt lat="37.10799" lon="-8.08846">
        <ele>45.0</ele>
      </trkpt>
      <trkpt lat="37.10855" lon="-8.08831">
        <ele>43.0</ele>
      </trkpt>
      <trkpt lat="37.1088" lon="-8.08829">
        <ele>41.0</ele>
      </trkpt>
      <trkpt lat="37.10889" lon="-8.08834">
        <ele>40.0</ele>
      </trkpt>
      <trkpt lat="37.10894" lon="-8.0884">
        <ele>39.0</ele>
      </trkpt>
      <trkpt lat="37.10895" lon="-8.08844">
        <ele>38.0</ele>
      </trkpt>
      <trkpt lat="37.10898" lon="-8.08849">
        <ele>38.0</ele>
      </trkpt>
      <trkpt lat="37.10901" lon="-8.08852">
        <ele>37.0</ele>
      </trkpt>
      <trkpt lat="37.10905" lon="-8.08861">
        <ele>37.0</ele>
      </trkpt>
      <trkpt lat="37.10908" lon="-8.08872">
        <ele>37.0</ele>
      </trkpt>
      <trkpt lat="37.10911" lon="-8.08884">
        <ele>36.0</ele>
      </trkpt>
      <trkpt lat="37.10917" lon="-8.08911">
        <ele>36.0</ele>
      </trkpt>
      <trkpt lat="37.10931" lon="-8.09031">
        <ele>36.0</ele>
      </trkpt>
      <trkpt lat="37.10946" lon="-8.09162">
        <ele>36.0</ele>
      </trkpt>
      <trkpt lat="37.10947" lon="-8.09167">
        <ele>36.0</ele>
      </trkpt>
      <trkpt lat="37.10962" lon="-8.09281">
        <ele>36.0</ele>
      </trkpt>
      <trkpt lat="37.10978" lon="-8.09396">
        <ele>36.0</ele>
      </trkpt>
      <trkpt lat="37.10989" lon="-8.09475">
        <ele>35.0</ele>
      </trkpt>
      <trkpt lat="37.10997" lon="-8.09534">
        <ele>35.0</ele>
      </trkpt>
      <trkpt lat="37.11007" lon="-8.0959">
        <ele>35.0</ele>
      </trkpt>
      <trkpt lat="37.11007" lon="-8.09623">
        <ele>35.0</ele>
      </trkpt>
      <trkpt lat="37.11004" lon="-8.09644">
        <ele>35.0</ele>
      </trkpt>
      <trkpt lat="37.11001" lon="-8.0965">
        <ele>35.0</ele>
      </trkpt>
      <trkpt lat="37.10991" lon="-8.09659">
        <ele>34.0</ele>
      </trkpt>
      <trkpt lat="37.10979" lon="-8.09665">
        <ele>34.0</ele>
      </trkpt>
      <trkpt lat="37.10968" lon="-8.09665">
        <ele>34.0</ele>
      </trkpt>
      <trkpt lat="37.1094" lon="-8.09665">
        <ele>34.0</ele>
      </trkpt>
      <trkpt lat="37.10911" lon="-8.09664">
        <ele>34.0</ele>
      </trkpt>
      <trkpt lat="37.10881" lon="-8.09661">
        <ele>33.0</ele>
      </trkpt>
      <trkpt lat="37.10881" lon="-8.09661">
        <ele>33.0</ele>
      </trkpt>
      <trkpt lat="37.1088" lon="-8.0966">
        <ele>33.0</ele>
      </trkpt>
      <trkpt lat="37.10844" lon="-8.09656">
        <ele>33.0</ele>
      </trkpt>
      <trkpt lat="37.10816" lon="-8.09654">
        <ele>33.0</ele>
      </trkpt>
      <trkpt lat="37.1079" lon="-8.09652">
        <ele>34.0</ele>
      </trkpt>
      <trkpt lat="37.10677" lon="-8.09639">
        <ele>37.0</ele>
      </trkpt>
      <trkpt lat="37.10661" lon="-8.09639">
        <ele>39.0</ele>
      </trkpt>
      <trkpt lat="37.1061" lon="-8.09635">
        <ele>41.0</ele>
      </trkpt>
      <trkpt lat="37.10561" lon="-8.09634">
        <ele>42.0</ele>
      </trkpt>
      <trkpt lat="37.10518" lon="-8.09639">
        <ele>43.0</ele>
      </trkpt>
      <trkpt lat="37.1049" lon="-8.09655">
        <ele>43.0</ele>
      </trkpt>
      <trkpt lat="37.10458" lon="-8.0968">
        <ele>44.0</ele>
      </trkpt>
      <trkpt lat="37.10422" lon="-8.09698">
        <ele>44.0</ele>
      </trkpt>
      <trkpt lat="37.10378" lon="-8.09714">
        <ele>43.0</ele>
      </trkpt>
      <trkpt lat="37.1036" lon="-8.09717">
        <ele>42.0</ele>
      </trkpt>
      <trkpt lat="37.10336" lon="-8.09708">
        <ele>42.0</ele>
      </trkpt>
      <trkpt lat="37.10313" lon="-8.097">
        <ele>41.0</ele>
      </trkpt>
      <trkpt lat="37.10288" lon="-8.09706">
        <ele>41.0</ele>
      </trkpt>
      <trkpt lat="37.10265" lon="-8.09719">
        <ele>40.0</ele>
      </trkpt>
      <trkpt lat="37.10258" lon="-8.09723">
        <ele>39.0</ele>
      </trkpt>
      <trkpt lat="37.10239" lon="-8.09729">
        <ele>39.0</ele>
      </trkpt>
      <trkpt lat="37.10234" lon="-8.0973">
        <ele>39.0</ele>
      </trkpt>
      <trkpt lat="37.10204" lon="-8.09725">
        <ele>38.0</ele>
      </trkpt>
      <trkpt lat="37.10196" lon="-8.09723">
        <ele>38.0</ele>
      </trkpt>
      <trkpt lat="37.10142" lon="-8.09698">
        <ele>38.0</ele>
      </trkpt>
      <trkpt lat="37.10112" lon="-8.09692">
        <ele>38.0</ele>
      </trkpt>
      <trkpt lat="37.10042" lon="-8.09706">
        <ele>37.0</ele>
      </trkpt>
      <trkpt lat="37.10022" lon="-8.09707">
        <ele>37.0</ele>
      </trkpt>
      <trkpt lat="37.09999" lon="-8.09699">
        <ele>37.0</ele>
      </trkpt>
      <trkpt lat="37.09991" lon="-8.09693">
        <ele>37.0</ele>
      </trkpt>
      <trkpt lat="37.09951" lon="-8.09667">
        <ele>37.0</ele>
      </trkpt>
      <trkpt lat="37.09925" lon="-8.09652">
        <ele>37.0</ele>
      </trkpt>
      <trkpt lat="37.09899" lon="-8.0965">
        <ele>37.0</ele>
      </trkpt>
      <trkpt lat="37.09882" lon="-8.09658">
        <ele>38.0</ele>
      </trkpt>
      <trkpt lat="37.09799" lon="-8.09698">
        <ele>38.0</ele>
      </trkpt>
      <trkpt lat="37.09788" lon="-8.09707">
        <ele>38.0</ele>
      </trkpt>
      <trkpt lat="37.09764" lon="-8.09737">
        <ele>39.0</ele>
      </trkpt>
      <trkpt lat="37.09739" lon="-8.09749">
        <ele>40.0</ele>
      </trkpt>
      <trkpt lat="37.09714" lon="-8.09751">
        <ele>41.0</ele>
      </trkpt>
      <trkpt lat="37.09615" lon="-8.09761">
        <ele>43.0</ele>
      </trkpt>
      <trkpt lat="37.09506" lon="-8.09777">
        <ele>45.0</ele>
      </trkpt>
      <trkpt lat="37.0945" lon="-8.09788">
        <ele>47.0</ele>
      </trkpt>
      <trkpt lat="37.09432" lon="-8.09791">
        <ele>49.0</ele>
      </trkpt>
      <trkpt lat="37.09418" lon="-8.09794">
        <ele>50.0</ele>
      </trkpt>
      <trkpt lat="37.09402" lon="-8.09802">
        <ele>51.0</ele>
      </trkpt>
      <trkpt lat="37.09389" lon="-8.09816">
        <ele>52.0</ele>
      </trkpt>
      <trkpt lat="37.09382" lon="-8.09826">
        <ele>53.0</ele>
      </trkpt>
      <trkpt lat="37.09376" lon="-8.09839">
        <ele>53.0</ele>
      </trkpt>
      <trkpt lat="37.09377" lon="-8.09884">
        <ele>54.0</ele>
      </trkpt>
      <trkpt lat="37.09385" lon="-8.09957">
        <ele>55.0</ele>
      </trkpt>
      <trkpt lat="37.09388" lon="-8.0998">
        <ele>56.0</ele>
      </trkpt>
      <trkpt lat="37.09394" lon="-8.10034">
        <ele>55.0</ele>
      </trkpt>
      <trkpt lat="37.09394" lon="-8.10076">
        <ele>55.0</ele>
      </trkpt>
      <trkpt lat="37.09397" lon="-8.10079">
        <ele>55.0</ele>
      </trkpt>
      <trkpt lat="37.09402" lon="-8.10096">
        <ele>55.0</ele>
      </trkpt>
      <trkpt lat="37.09405" lon="-8.10212">
        <ele>55.0</ele>
      </trkpt>
      <trkpt lat="37.09404" lon="-8.10306">
        <ele>54.0</ele>
      </trkpt>
      <trkpt lat="37.09405" lon="-8.1034">
        <ele>54.0</ele>
      </trkpt>
      <trkpt lat="37.09406" lon="-8.10357">
        <ele>53.0</ele>
      </trkpt>
      <trkpt lat="37.09406" lon="-8.10357">
        <ele>53.0</ele>
      </trkpt>
      <trkpt lat="37.0941" lon="-8.10394">
        <ele>53.0</ele>
      </trkpt>
      <trkpt lat="37.09539" lon="-8.10579">
        <ele>52.0</ele>
      </trkpt>
      <trkpt lat="37.09553" lon="-8.106">
        <ele>51.0</ele>
      </trkpt>
      <trkpt lat="37.097" lon="-8.10804">
        <ele>49.0</ele>
      </trkpt>
      <trkpt lat="37.09803" lon="-8.10947">
        <ele>50.0</ele>
      </trkpt>
      <trkpt lat="37.09837" lon="-8.10971">
        <ele>51.0</ele>
      </trkpt>
      <trkpt lat="37.09866" lon="-8.10985">
        <ele>52.0</ele>
      </trkpt>
      <trkpt lat="37.09894" lon="-8.10998">
        <ele>52.0</ele>
      </trkpt>
      <trkpt lat="37.09898" lon="-8.11">
        <ele>52.0</ele>
      </trkpt>
      <trkpt lat="37.0993" lon="-8.11017">
        <ele>51.0</ele>
      </trkpt>
      <trkpt lat="37.10016" lon="-8.11027">
        <ele>50.0</ele>
      </trkpt>
      <trkpt lat="37.10037" lon="-8.11029">
        <ele>49.0</ele>
      </trkpt>
      <trkpt lat="37.1008" lon="-8.11059">
        <ele>48.0</ele>
      </trkpt>
      <trkpt lat="37.10134" lon="-8.11089">
        <ele>46.0</ele>
      </trkpt>
      <trkpt lat="37.10163" lon="-8.11101">
        <ele>45.0</ele>
      </trkpt>
      <trkpt lat="37.102" lon="-8.11111">
        <ele>43.0</ele>
      </trkpt>
      <trkpt lat="37.1024" lon="-8.11113">
        <ele>42.0</ele>
      </trkpt>
      <trkpt lat="37.10269" lon="-8.11115">
        <ele>41.0</ele>
      </trkpt>
      <trkpt lat="37.10286" lon="-8.11126">
        <ele>40.0</ele>
      </trkpt>
      <trkpt lat="37.10313" lon="-8.11153">
        <ele>39.0</ele>
      </trkpt>
      <trkpt lat="37.10346" lon="-8.11172">
        <ele>39.0</ele>
      </trkpt>
      <trkpt lat="37.10363" lon="-8.11191">
        <ele>38.0</ele>
      </trkpt>
      <trkpt lat="37.10397" lon="-8.1124">
        <ele>37.0</ele>
      </trkpt>
      <trkpt lat="37.1042" lon="-8.11264">
        <ele>35.0</ele>
      </trkpt>
      <trkpt lat="37.10439" lon="-8.11284">
        <ele>34.0</ele>
      </trkpt>
      <trkpt lat="37.10477" lon="-8.11309">
        <ele>32.0</ele>
      </trkpt>
      <trkpt lat="37.10497" lon="-8.11336">
        <ele>30.0</ele>
      </trkpt>
      <trkpt lat="37.10503" lon="-8.11372">
        <ele>29.0</ele>
      </trkpt>
      <trkpt lat="37.10499" lon="-8.11416">
        <ele>28.0</ele>
      </trkpt>
      <trkpt lat="37.10495" lon="-8.11458">
        <ele>27.0</ele>
      </trkpt>
      <trkpt lat="37.10493" lon="-8.11475">
        <ele>26.0</ele>
      </trkpt>
      <trkpt lat="37.10496" lon="-8.11525">
        <ele>26.0</ele>
      </trkpt>
      <trkpt lat="37.10511" lon="-8.11575">
        <ele>26.0</ele>
      </trkpt>
      <trkpt lat="37.10517" lon="-8.11586">
        <ele>26.0</ele>
      </trkpt>
      <trkpt lat="37.10536" lon="-8.11618">
        <ele>26.0</ele>
      </trkpt>
      <trkpt lat="37.10561" lon="-8.11644">
        <ele>25.0</ele>
      </trkpt>
      <trkpt lat="37.10566" lon="-8.11653">
        <ele>25.0</ele>
      </trkpt>
      <trkpt lat="37.10569" lon="-8.11664">
        <ele>25.0</ele>
      </trkpt>
      <trkpt lat="37.1057" lon="-8.11677">
        <ele>25.0</ele>
      </trkpt>
      <trkpt lat="37.10568" lon="-8.11689">
        <ele>25.0</ele>
      </trkpt>
      <trkpt lat="37.10559" lon="-8.11706">
        <ele>24.0</ele>
      </trkpt>
      <trkpt lat="37.10551" lon="-8.11714">
        <ele>24.0</ele>
      </trkpt>
      <trkpt lat="37.10513" lon="-8.11734">
        <ele>24.0</ele>
      </trkpt>
      <trkpt lat="37.10483" lon="-8.11751">
        <ele>23.0</ele>
      </trkpt>
      <trkpt lat="37.10444" lon="-8.11775">
        <ele>23.0</ele>
      </trkpt>
      <trkpt lat="37.10444" lon="-8.11775">
        <ele>22.0</ele>
      </trkpt>
      <trkpt lat="37.10429" lon="-8.11784">
        <ele>22.0</ele>
      </trkpt>
      <trkpt lat="37.10409" lon="-8.11794">
        <ele>22.0</ele>
      </trkpt>
      <trkpt lat="37.10373" lon="-8.11803">
        <ele>22.0</ele>
      </trkpt>
      <trkpt lat="37.10369" lon="-8.11807">
        <ele>21.0</ele>
      </trkpt>
      <trkpt lat="37.10365" lon="-8.11812">
        <ele>21.0</ele>
      </trkpt>
      <trkpt lat="37.10363" lon="-8.11816">
        <ele>21.0</ele>
      </trkpt>
      <trkpt lat="37.10361" lon="-8.11821">
        <ele>21.0</ele>
      </trkpt>
      <trkpt lat="37.10359" lon="-8.1184">
        <ele>21.0</ele>
      </trkpt>
      <trkpt lat="37.1036" lon="-8.11848">
        <ele>21.0</ele>
      </trkpt>
      <trkpt lat="37.10361" lon="-8.11854">
        <ele>21.0</ele>
      </trkpt>
      <trkpt lat="37.10363" lon="-8.11864">
        <ele>21.0</ele>
      </trkpt>
      <trkpt lat="37.10363" lon="-8.1187">
        <ele>21.0</ele>
      </trkpt>
      <trkpt lat="37.10386" lon="-8.1193">
        <ele>21.0</ele>
      </trkpt>
      <trkpt lat="37.10395" lon="-8.11964">
        <ele>21.0</ele>
      </trkpt>
      <trkpt lat="37.10395" lon="-8.11995">
        <ele>20.0</ele>
      </trkpt>
      <trkpt lat="37.10393" lon="-8.1202">
        <ele>20.0</ele>
      </trkpt>
      <trkpt lat="37.1039" lon="-8.12041">
        <ele>20.0</ele>
      </trkpt>
      <trkpt lat="37.10385" lon="-8.12089">
        <ele>20.0</ele>
      </trkpt>
      <trkpt lat="37.1039" lon="-8.12148">
        <ele>19.0</ele>
      </trkpt>
      <trkpt lat="37.10394" lon="-8.12174">
        <ele>19.0</ele>
      </trkpt>
      <trkpt lat="37.10394" lon="-8.12174">
        <ele>19.0</ele>
      </trkpt>
      <trkpt lat="37.10397" lon="-8.12189">
        <ele>19.0</ele>
      </trkpt>
      <trkpt lat="37.10399" lon="-8.12204">
        <ele>19.0</ele>
      </trkpt>
      <trkpt lat="37.10403" lon="-8.12215">
        <ele>18.0</ele>
      </trkpt>
      <trkpt lat="37.10407" lon="-8.12225">
        <ele>18.0</ele>
      </trkpt>
      <trkpt lat="37.10404" lon="-8.12233">
        <ele>18.0</ele>
      </trkpt>
      <trkpt lat="37.10404" lon="-8.12245">
        <ele>18.0</ele>
      </trkpt>
      <trkpt lat="37.10408" lon="-8.12252">
        <ele>18.0</ele>
      </trkpt>
      <trkpt lat="37.10395" lon="-8.12267">
        <ele>18.0</ele>
      </trkpt>
      <trkpt lat="37.10346" lon="-8.12329">
        <ele>17.0</ele>
      </trkpt>
      <trkpt lat="37.10346" lon="-8.12329">
        <ele>17.0</ele>
      </trkpt>
      <trkpt lat="37.10277" lon="-8.12416">
        <ele>17.0</ele>
      </trkpt>
      <trkpt lat="37.10279" lon="-8.12423">
        <ele>16.0</ele>
      </trkpt>
      <trkpt lat="37.10278" lon="-8.12429">
        <ele>16.0</ele>
      </trkpt>
      <trkpt lat="37.10277" lon="-8.12435">
        <ele>16.0</ele>
      </trkpt>
      <trkpt lat="37.10274" lon="-8.1244">
        <ele>16.0</ele>
      </trkpt>
      <trkpt lat="37.1027" lon="-8.12444">
        <ele>16.0</ele>
      </trkpt>
      <trkpt lat="37.10265" lon="-8.12446">
        <ele>16.0</ele>
      </trkpt>
      <trkpt lat="37.10259" lon="-8.12446">
        <ele>16.0</ele>
      </trkpt>
      <trkpt lat="37.10254" lon="-8.12445">
        <ele>16.0</ele>
      </trkpt>
      <trkpt lat="37.1025" lon="-8.12441">
        <ele>16.0</ele>
      </trkpt>
      <trkpt lat="37.10225" lon="-8.12462">
        <ele>16.0</ele>
      </trkpt>
      <trkpt lat="37.10193" lon="-8.12493">
        <ele>16.0</ele>
      </trkpt>
      <trkpt lat="37.10159" lon="-8.1252">
        <ele>16.0</ele>
      </trkpt>
      <trkpt lat="37.1013" lon="-8.1254">
        <ele>16.0</ele>
      </trkpt>
      <trkpt lat="37.1013" lon="-8.1254">
        <ele>16.0</ele>
      </trkpt>
      <trkpt lat="37.10116" lon="-8.12549">
        <ele>16.0</ele>
      </trkpt>
      <trkpt lat="37.10066" lon="-8.12574">
        <ele>16.0</ele>
      </trkpt>
      <trkpt lat="37.10024" lon="-8.1259">
        <ele>16.0</ele>
      </trkpt>
      <trkpt lat="37.09929" lon="-8.12611">
        <ele>16.0</ele>
      </trkpt>
      <trkpt lat="37.09814" lon="-8.12631">
        <ele>15.0</ele>
      </trkpt>
      <trkpt lat="37.09721" lon="-8.12647">
        <ele>15.0</ele>
      </trkpt>
      <trkpt lat="37.0966" lon="-8.12657">
        <ele>14.0</ele>
      </trkpt>
      <trkpt lat="37.09643" lon="-8.1266">
        <ele>14.0</ele>
      </trkpt>
      <trkpt lat="37.09611" lon="-8.12668">
        <ele>14.0</ele>
      </trkpt>
      <trkpt lat="37.09551" lon="-8.12679">
        <ele>14.0</ele>
      </trkpt>
      <trkpt lat="37.09546" lon="-8.1268">
        <ele>14.0</ele>
      </trkpt>
      <trkpt lat="37.09546" lon="-8.1268">
        <ele>14.0</ele>
      </trkpt>
      <trkpt lat="37.09434" lon="-8.12701">
        <ele>14.0</ele>
      </trkpt>
      <trkpt lat="37.09404" lon="-8.12706">
        <ele>13.0</ele>
      </trkpt>
      <trkpt lat="37.09367" lon="-8.12713">
        <ele>13.0</ele>
      </trkpt>
      <trkpt lat="37.09338" lon="-8.12718">
        <ele>13.0</ele>
      </trkpt>
      <trkpt lat="37.09315" lon="-8.1272">
        <ele>12.0</ele>
      </trkpt>
      <trkpt lat="37.09284" lon="-8.12717">
        <ele>12.0</ele>
      </trkpt>
      <trkpt lat="37.09264" lon="-8.12713">
        <ele>12.0</ele>
      </trkpt>
      <trkpt lat="37.09244" lon="-8.12705">
        <ele>11.0</ele>
      </trkpt>
      <trkpt lat="37.09224" lon="-8.12695">
        <ele>11.0</ele>
      </trkpt>
      <trkpt lat="37.09214" lon="-8.12689">
        <ele>11.0</ele>
      </trkpt>
      <trkpt lat="37.09196" lon="-8.12678">
        <ele>12.0</ele>
      </trkpt>
      <trkpt lat="37.09179" lon="-8.12663">
        <ele>12.0</ele>
      </trkpt>
      <trkpt lat="37.09166" lon="-8.12649">
        <ele>12.0</ele>
      </trkpt>
      <trkpt lat="37.0915" lon="-8.12629">
        <ele>13.0</ele>
      </trkpt>
      <trkpt lat="37.09133" lon="-8.12602">
        <ele>14.0</ele>
      </trkpt>
      <trkpt lat="37.0912" lon="-8.12579">
        <ele>14.0</ele>
      </trkpt>
      <trkpt lat="37.09106" lon="-8.12545">
        <ele>15.0</ele>
      </trkpt>
      <trkpt lat="37.0909" lon="-8.12507">
        <ele>15.0</ele>
      </trkpt>
      <trkpt lat="37.09082" lon="-8.1249">
        <ele>16.0</ele>
      </trkpt>
      <trkpt lat="37.09078" lon="-8.12479">
        <ele>16.0</ele>
      </trkpt>
      <trkpt lat="37.09061" lon="-8.12438">
        <ele>16.0</ele>
      </trkpt>
      <trkpt lat="37.09047" lon="-8.12403">
        <ele>16.0</ele>
      </trkpt>
      <trkpt lat="37.09036" lon="-8.12378">
        <ele>16.0</ele>
      </trkpt>
      <trkpt lat="37.09005" lon="-8.12303">
        <ele>16.0</ele>
      </trkpt>
      <trkpt lat="37.08966" lon="-8.12209">
        <ele>16.0</ele>
      </trkpt>
      <trkpt lat="37.0895" lon="-8.1217">
        <ele>17.0</ele>
      </trkpt>
      <trkpt lat="37.08941" lon="-8.12148">
        <ele>17.0</ele>
      </trkpt>
      <trkpt lat="37.08881" lon="-8.12002">
        <ele>18.0</ele>
      </trkpt>
      <trkpt lat="37.08851" lon="-8.11927">
        <ele>19.0</ele>
      </trkpt>
      <trkpt lat="37.08841" lon="-8.11905">
        <ele>19.0</ele>
      </trkpt>
      <trkpt lat="37.08831" lon="-8.11887">
        <ele>19.0</ele>
      </trkpt>
      <trkpt lat="37.08824" lon="-8.11879">
        <ele>19.0</ele>
      </trkpt>
      <trkpt lat="37.08817" lon="-8.11872">
        <ele>19.0</ele>
      </trkpt>
      <trkpt lat="37.088" lon="-8.11862">
        <ele>19.0</ele>
      </trkpt>
      <trkpt lat="37.08792" lon="-8.11858">
        <ele>18.0</ele>
      </trkpt>
      <trkpt lat="37.08781" lon="-8.11857">
        <ele>18.0</ele>
      </trkpt>
      <trkpt lat="37.08769" lon="-8.11856">
        <ele>18.0</ele>
      </trkpt>
      <trkpt lat="37.08746" lon="-8.11862">
        <ele>18.0</ele>
      </trkpt>
      <trkpt lat="37.08711" lon="-8.11869">
        <ele>18.0</ele>
      </trkpt>
      <trkpt lat="37.08701" lon="-8.11872">
        <ele>17.0</ele>
      </trkpt>
      <trkpt lat="37.08644" lon="-8.11888">
        <ele>17.0</ele>
      </trkpt>
      <trkpt lat="37.08585" lon="-8.11905">
        <ele>17.0</ele>
      </trkpt>
      <trkpt lat="37.08549" lon="-8.1191">
        <ele>16.0</ele>
      </trkpt>
      <trkpt lat="37.08535" lon="-8.11911">
        <ele>16.0</ele>
      </trkpt>
      <trkpt lat="37.08508" lon="-8.11906">
        <ele>15.0</ele>
      </trkpt>
      <trkpt lat="37.08476" lon="-8.11897">
        <ele>15.0</ele>
      </trkpt>
      <trkpt lat="37.08464" lon="-8.1189">
        <ele>14.0</ele>
      </trkpt>
      <trkpt lat="37.08446" lon="-8.11878">
        <ele>13.0</ele>
      </trkpt>
      <trkpt lat="37.08419" lon="-8.11856">
        <ele>12.0</ele>
      </trkpt>
      <trkpt lat="37.08383" lon="-8.11826">
        <ele>11.0</ele>
      </trkpt>
      <trkpt lat="37.08334" lon="-8.11787">
        <ele>11.0</ele>
      </trkpt>
      <trkpt lat="37.08312" lon="-8.11769">
        <ele>11.0</ele>
      </trkpt>
      <trkpt lat="37.08295" lon="-8.11755">
        <ele>11.0</ele>
      </trkpt>
      <trkpt lat="37.08274" lon="-8.11736">
        <ele>11.0</ele>
      </trkpt>
      <trkpt lat="37.08248" lon="-8.11714">
        <ele>11.0</ele>
      </trkpt>
      <trkpt lat="37.08224" lon="-8.11694">
        <ele>11.0</ele>
      </trkpt>
    </trkseg>
  </trk>
</gpx>