<?xml version="1.0" encoding="UTF-8"?>
<gpx xmlns="http://www.topografix.com/GPX/1/0" xmlns:xsi="http://www.w3.org/2001/XMLSchema-instance" xsi:schemaLocation="http://www.topografix.com/GPX/1/0 http://www.topografix.com/GPX/1/0/gpx.xsd" version="1.0" creator="GPSBabel - https://www.gpsbabel.org">
  <time>2026-04-10T08:02:38.835000Z</time>
  <bounds minlat="50.80458" maxlat="50.99439" minlon="5.70374" maxlon="5.98266" />
  <trk>
    <trkseg>
      <trkpt lat="50.86452" lon="5.70374">
        <ele>48.0</ele>
      </trkpt>
      <trkpt lat="50.86784" lon="5.70458">
        <ele>47.0</ele>
      </trkpt>
      <trkpt lat="50.87239" lon="5.70741">
        <ele>45.0</ele>
      </trkpt>
      <trkpt lat="50.8745" lon="5.70959">
        <ele>45.0</ele>
      </trkpt>
      <trkpt lat="50.87293" lon="5.71325">
        <ele>46.0</ele>
      </trkpt>
      <trkpt lat="50.87465" lon="5.71484">
        <ele>46.0</ele>
      </trkpt>
      <trkpt lat="50.8748" lon="5.71482">
        <ele>46.0</ele>
      </trkpt>
      <trkpt lat="50.87487" lon="5.71502">
        <ele>46.0</ele>
      </trkpt>
      <trkpt lat="50.88228" lon="5.72068">
        <ele>46.0</ele>
      </trkpt>
      <trkpt lat="50.88308" lon="5.72146">
        <ele>47.0</ele>
      </trkpt>
      <trkpt lat="50.88394" lon="5.72273">
        <ele>45.0</ele>
      </trkpt>
      <trkpt lat="50.88454" lon="5.72405">
        <ele>44.0</ele>
      </trkpt>
      <trkpt lat="50.88558" lon="5.72823">
        <ele>46.0</ele>
      </trkpt>
      <trkpt lat="50.88576" lon="5.72797">
        <ele>46.0</ele>
      </trkpt>
      <trkpt lat="50.88657" lon="5.7276">
        <ele>46.0</ele>
      </trkpt>
      <trkpt lat="50.88804" lon="5.72655">
        <ele>46.0</ele>
      </trkpt>
      <trkpt lat="50.89054" lon="5.72539">
        <ele>47.0</ele>
      </trkpt>
      <trkpt lat="50.89106" lon="5.72547">
        <ele>49.0</ele>
      </trkpt>
      <trkpt lat="50.89211" lon="5.72663">
        <ele>48.0</ele>
      </trkpt>
      <trkpt lat="50.89306" lon="5.72715">
        <ele>47.0</ele>
      </trkpt>
      <trkpt lat="50.89336" lon="5.72596">
        <ele>47.0</ele>
      </trkpt>
      <trkpt lat="50.89368" lon="5.72535">
        <ele>47.0</ele>
      </trkpt>
      <trkpt lat="50.89573" lon="5.72236">
        <ele>45.0</ele>
      </trkpt>
      <trkpt lat="50.89625" lon="5.72203">
        <ele>45.0</ele>
      </trkpt>
      <trkpt lat="50.89672" lon="5.72211">
        <ele>45.0</ele>
      </trkpt>
      <trkpt lat="50.89735" lon="5.72265">
        <ele>45.0</ele>
      </trkpt>
      <trkpt lat="50.89781" lon="5.72283">
        <ele>45.0</ele>
      </trkpt>
      <trkpt lat="50.8984" lon="5.72264">
        <ele>45.0</ele>
      </trkpt>
      <trkpt lat="50.89936" lon="5.72275">
        <ele>45.0</ele>
      </trkpt>
      <trkpt lat="50.90138" lon="5.72396">
        <ele>44.0</ele>
      </trkpt>
      <trkpt lat="50.90192" lon="5.72459">
        <ele>44.0</ele>
      </trkpt>
      <trkpt lat="50.90201" lon="5.7249">
        <ele>44.0</ele>
      </trkpt>
      <trkpt lat="50.90464" lon="5.72557">
        <ele>44.0</ele>
      </trkpt>
      <trkpt lat="50.90532" lon="5.7252">
        <ele>44.0</ele>
      </trkpt>
      <trkpt lat="50.90603" lon="5.7236">
        <ele>45.0</ele>
      </trkpt>
      <trkpt lat="50.90759" lon="5.72514">
        <ele>45.0</ele>
      </trkpt>
      <trkpt lat="50.9108" lon="5.72756">
        <ele>41.0</ele>
      </trkpt>
      <trkpt lat="50.91329" lon="5.72968">
        <ele>41.0</ele>
      </trkpt>
      <trkpt lat="50.92207" lon="5.73889">
        <ele>42.0</ele>
      </trkpt>
      <trkpt lat="50.92332" lon="5.74008">
        <ele>46.0</ele>
      </trkpt>
      <trkpt lat="50.92375" lon="5.74031">
        <ele>48.0</ele>
      </trkpt>
      <trkpt lat="50.92378" lon="5.74056">
        <ele>48.0</ele>
      </trkpt>
      <trkpt lat="50.92335" lon="5.74165">
        <ele>48.0</ele>
      </trkpt>
      <trkpt lat="50.92328" lon="5.74324">
        <ele>46.0</ele>
      </trkpt>
      <trkpt lat="50.92222" lon="5.74963">
        <ele>47.0</ele>
      </trkpt>
      <trkpt lat="50.92341" lon="5.75081">
        <ele>49.0</ele>
      </trkpt>
      <trkpt lat="50.92387" lon="5.75094">
        <ele>50.0</ele>
      </trkpt>
      <trkpt lat="50.92488" lon="5.75033">
        <ele>51.0</ele>
      </trkpt>
      <trkpt lat="50.92728" lon="5.7501">
        <ele>53.0</ele>
      </trkpt>
      <trkpt lat="50.92911" lon="5.74897">
        <ele>50.0</ele>
      </trkpt>
      <trkpt lat="50.92968" lon="5.749">
        <ele>48.0</ele>
      </trkpt>
      <trkpt lat="50.92984" lon="5.74927">
        <ele>47.0</ele>
      </trkpt>
      <trkpt lat="50.93008" lon="5.74909">
        <ele>47.0</ele>
      </trkpt>
      <trkpt lat="50.93069" lon="5.74801">
        <ele>44.0</ele>
      </trkpt>
      <trkpt lat="50.93096" lon="5.74711">
        <ele>43.0</ele>
      </trkpt>
      <trkpt lat="50.94279" lon="5.75268">
        <ele>43.0</ele>
      </trkpt>
      <trkpt lat="50.94479" lon="5.75374">
        <ele>45.0</ele>
      </trkpt>
      <trkpt lat="50.94563" lon="5.75445">
        <ele>45.0</ele>
      </trkpt>
      <trkpt lat="50.94628" lon="5.75515">
        <ele>44.0</ele>
      </trkpt>
      <trkpt lat="50.94785" lon="5.75735">
        <ele>48.0</ele>
      </trkpt>
      <trkpt lat="50.94754" lon="5.75955">
        <ele>54.0</ele>
      </trkpt>
      <trkpt lat="50.94677" lon="5.76162">
        <ele>60.0</ele>
      </trkpt>
      <trkpt lat="50.94699" lon="5.76376">
        <ele>64.0</ele>
      </trkpt>
      <trkpt lat="50.94668" lon="5.76678">
        <ele>68.0</ele>
      </trkpt>
      <trkpt lat="50.94671" lon="5.76909">
        <ele>69.0</ele>
      </trkpt>
      <trkpt lat="50.9464" lon="5.77105">
        <ele>70.0</ele>
      </trkpt>
      <trkpt lat="50.94641" lon="5.7717">
        <ele>71.0</ele>
      </trkpt>
      <trkpt lat="50.94665" lon="5.7741">
        <ele>73.0</ele>
      </trkpt>
      <trkpt lat="50.94681" lon="5.77428">
        <ele>73.0</ele>
      </trkpt>
      <trkpt lat="50.94735" lon="5.77424">
        <ele>74.0</ele>
      </trkpt>
      <trkpt lat="50.94748" lon="5.77444">
        <ele>74.0</ele>
      </trkpt>
      <trkpt lat="50.94724" lon="5.7787">
        <ele>72.0</ele>
      </trkpt>
      <trkpt lat="50.94801" lon="5.78221">
        <ele>70.0</ele>
      </trkpt>
      <trkpt lat="50.94797" lon="5.78272">
        <ele>70.0</ele>
      </trkpt>
      <trkpt lat="50.94843" lon="5.78378">
        <ele>69.0</ele>
      </trkpt>
      <trkpt lat="50.94887" lon="5.78426">
        <ele>69.0</ele>
      </trkpt>
      <trkpt lat="50.95417" lon="5.78546">
        <ele>69.0</ele>
      </trkpt>
      <trkpt lat="50.9549" lon="5.78571">
        <ele>69.0</ele>
      </trkpt>
      <trkpt lat="50.95505" lon="5.78592">
        <ele>69.0</ele>
      </trkpt>
      <trkpt lat="50.95545" lon="5.78577">
        <ele>69.0</ele>
      </trkpt>
      <trkpt lat="50.96086" lon="5.78559">
        <ele>70.0</ele>
      </trkpt>
      <trkpt lat="50.9624" lon="5.78583">
        <ele>70.0</ele>
      </trkpt>
      <trkpt lat="50.96346" lon="5.78547">
        <ele>67.0</ele>
      </trkpt>
      <trkpt lat="50.96482" lon="5.78455">
        <ele>65.0</ele>
      </trkpt>
      <trkpt lat="50.96817" lon="5.78394">
        <ele>67.0</ele>
      </trkpt>
      <trkpt lat="50.96911" lon="5.78355">
        <ele>68.0</ele>
      </trkpt>
      <trkpt lat="50.97017" lon="5.78462">
        <ele>68.0</ele>
      </trkpt>
      <trkpt lat="50.97124" lon="5.78532">
        <ele>68.0</ele>
      </trkpt>
      <trkpt lat="50.97258" lon="5.78572">
        <ele>68.0</ele>
      </trkpt>
      <trkpt lat="50.97399" lon="5.78572">
        <ele>63.0</ele>
      </trkpt>
      <trkpt lat="50.97445" lon="5.7859">
        <ele>59.0</ele>
      </trkpt>
      <trkpt lat="50.97601" lon="5.78469">
        <ele>57.0</ele>
      </trkpt>
      <trkpt lat="50.97625" lon="5.78467">
        <ele>58.0</ele>
      </trkpt>
      <trkpt lat="50.97844" lon="5.78325">
        <ele>61.0</ele>
      </trkpt>
      <trkpt lat="50.97994" lon="5.78168">
        <ele>57.0</ele>
      </trkpt>
      <trkpt lat="50.98111" lon="5.78194">
        <ele>55.0</ele>
      </trkpt>
      <trkpt lat="50.98298" lon="5.7814">
        <ele>56.0</ele>
      </trkpt>
      <trkpt lat="50.9838" lon="5.78138">
        <ele>56.0</ele>
      </trkpt>
      <trkpt lat="50.98733" lon="5.78169">
        <ele>56.0</ele>
      </trkpt>
      <trkpt lat="50.9875" lon="5.78186">
        <ele>56.0</ele>
      </trkpt>
      <trkpt lat="50.98947" lon="5.78214">
        <ele>56.0</ele>
      </trkpt>
      <trkpt lat="50.98995" lon="5.78241">
        <ele>56.0</ele>
      </trkpt>
      <trkpt lat="50.99028" lon="5.78299">
        <ele>56.0</ele>
      </trkpt>
      <trkpt lat="50.99042" lon="5.78384">
        <ele>56.0</ele>
      </trkpt>
      <trkpt lat="50.99036" lon="5.78811">
        <ele>58.0</ele>
      </trkpt>
      <trkpt lat="50.99007" lon="5.79167">
        <ele>57.0</ele>
      </trkpt>
      <trkpt lat="50.99011" lon="5.79393">
        <ele>59.0</ele>
      </trkpt>
      <trkpt lat="50.99094" lon="5.7998">
        <ele>61.0</ele>
      </trkpt>
      <trkpt lat="50.99238" lon="5.81356">
        <ele>58.0</ele>
      </trkpt>
      <trkpt lat="50.99243" lon="5.82033">
        <ele>59.0</ele>
      </trkpt>
      <trkpt lat="50.99194" lon="5.82554">
        <ele>56.0</ele>
      </trkpt>
      <trkpt lat="50.99209" lon="5.82967">
        <ele>57.0</ele>
      </trkpt>
      <trkpt lat="50.99239" lon="5.83139">
        <ele>60.0</ele>
      </trkpt>
      <trkpt lat="50.994" lon="5.83586">
        <ele>59.0</ele>
      </trkpt>
      <trkpt lat="50.99439" lon="5.83756">
        <ele>59.0</ele>
      </trkpt>
      <trkpt lat="50.99339" lon="5.83767">
        <ele>60.0</ele>
      </trkpt>
      <trkpt lat="50.98888" lon="5.83918">
        <ele>63.0</ele>
      </trkpt>
      <trkpt lat="50.98743" lon="5.84019">
        <ele>59.0</ele>
      </trkpt>
      <trkpt lat="50.98624" lon="5.84156">
        <ele>56.0</ele>
      </trkpt>
      <trkpt lat="50.98601" lon="5.8416">
        <ele>56.0</ele>
      </trkpt>
      <trkpt lat="50.98587" lon="5.84117">
        <ele>57.0</ele>
      </trkpt>
      <trkpt lat="50.986" lon="5.84028">
        <ele>59.0</ele>
      </trkpt>
      <trkpt lat="50.98589" lon="5.83969">
        <ele>60.0</ele>
      </trkpt>
      <trkpt lat="50.98531" lon="5.83926">
        <ele>60.0</ele>
      </trkpt>
      <trkpt lat="50.98463" lon="5.83801">
        <ele>60.0</ele>
      </trkpt>
      <trkpt lat="50.98175" lon="5.83379">
        <ele>61.0</ele>
      </trkpt>
      <trkpt lat="50.97751" lon="5.82828">
        <ele>65.0</ele>
      </trkpt>
      <trkpt lat="50.97577" lon="5.82559">
        <ele>64.0</ele>
      </trkpt>
      <trkpt lat="50.9745" lon="5.82407">
        <ele>63.0</ele>
      </trkpt>
      <trkpt lat="50.97302" lon="5.82186">
        <ele>67.0</ele>
      </trkpt>
      <trkpt lat="50.96987" lon="5.81805">
        <ele>66.0</ele>
      </trkpt>
      <trkpt lat="50.96645" lon="5.8133">
        <ele>68.0</ele>
      </trkpt>
      <trkpt lat="50.96594" lon="5.8128">
        <ele>70.0</ele>
      </trkpt>
      <trkpt lat="50.96505" lon="5.81229">
        <ele>74.0</ele>
      </trkpt>
      <trkpt lat="50.96408" lon="5.81279">
        <ele>72.0</ele>
      </trkpt>
      <trkpt lat="50.96311" lon="5.81358">
        <ele>70.0</ele>
      </trkpt>
      <trkpt lat="50.96102" lon="5.81439">
        <ele>67.0</ele>
      </trkpt>
      <trkpt lat="50.9596" lon="5.81567">
        <ele>66.0</ele>
      </trkpt>
      <trkpt lat="50.95867" lon="5.81729">
        <ele>63.0</ele>
      </trkpt>
      <trkpt lat="50.95782" lon="5.82026">
        <ele>64.0</ele>
      </trkpt>
      <trkpt lat="50.95789" lon="5.82044">
        <ele>65.0</ele>
      </trkpt>
      <trkpt lat="50.95758" lon="5.8248">
        <ele>65.0</ele>
      </trkpt>
      <trkpt lat="50.9577" lon="5.82615">
        <ele>65.0</ele>
      </trkpt>
      <trkpt lat="50.95798" lon="5.82736">
        <ele>64.0</ele>
      </trkpt>
      <trkpt lat="50.95791" lon="5.82753">
        <ele>64.0</ele>
      </trkpt>
      <trkpt lat="50.95807" lon="5.82763">
        <ele>64.0</ele>
      </trkpt>
      <trkpt lat="50.95844" lon="5.82855">
        <ele>63.0</ele>
      </trkpt>
      <trkpt lat="50.96002" lon="5.83307">
        <ele>63.0</ele>
      </trkpt>
      <trkpt lat="50.95925" lon="5.83307">
        <ele>62.0</ele>
      </trkpt>
      <trkpt lat="50.95458" lon="5.83419">
        <ele>59.0</ele>
      </trkpt>
      <trkpt lat="50.95447" lon="5.83408">
        <ele>60.0</ele>
      </trkpt>
      <trkpt lat="50.9544" lon="5.83425">
        <ele>60.0</ele>
      </trkpt>
      <trkpt lat="50.95261" lon="5.83489">
        <ele>61.0</ele>
      </trkpt>
      <trkpt lat="50.9486" lon="5.8373">
        <ele>62.0</ele>
      </trkpt>
      <trkpt lat="50.94712" lon="5.83846">
        <ele>63.0</ele>
      </trkpt>
      <trkpt lat="50.94686" lon="5.83851">
        <ele>63.0</ele>
      </trkpt>
      <trkpt lat="50.94611" lon="5.8382">
        <ele>63.0</ele>
      </trkpt>
      <trkpt lat="50.94559" lon="5.83834">
        <ele>62.0</ele>
      </trkpt>
      <trkpt lat="50.94378" lon="5.84056">
        <ele>63.0</ele>
      </trkpt>
      <trkpt lat="50.94225" lon="5.84172">
        <ele>65.0</ele>
      </trkpt>
      <trkpt lat="50.94046" lon="5.84354">
        <ele>69.0</ele>
      </trkpt>
      <trkpt lat="50.93866" lon="5.84618">
        <ele>73.0</ele>
      </trkpt>
      <trkpt lat="50.93818" lon="5.8465">
        <ele>74.0</ele>
      </trkpt>
      <trkpt lat="50.93758" lon="5.84627">
        <ele>75.0</ele>
      </trkpt>
      <trkpt lat="50.93676" lon="5.84519">
        <ele>76.0</ele>
      </trkpt>
      <trkpt lat="50.9358" lon="5.84443">
        <ele>79.0</ele>
      </trkpt>
      <trkpt lat="50.93488" lon="5.84318">
        <ele>83.0</ele>
      </trkpt>
      <trkpt lat="50.93007" lon="5.83975">
        <ele>90.0</ele>
      </trkpt>
      <trkpt lat="50.92915" lon="5.83825">
        <ele>93.0</ele>
      </trkpt>
      <trkpt lat="50.92697" lon="5.83782">
        <ele>98.0</ele>
      </trkpt>
      <trkpt lat="50.92509" lon="5.83632">
        <ele>105.0</ele>
      </trkpt>
      <trkpt lat="50.92373" lon="5.83615">
        <ele>109.0</ele>
      </trkpt>
      <trkpt lat="50.92227" lon="5.83628">
        <ele>118.0</ele>
      </trkpt>
      <trkpt lat="50.9191" lon="5.8351">
        <ele>121.0</ele>
      </trkpt>
      <trkpt lat="50.9169" lon="5.83284">
        <ele>122.0</ele>
      </trkpt>
      <trkpt lat="50.91574" lon="5.83237">
        <ele>123.0</ele>
      </trkpt>
      <trkpt lat="50.91497" lon="5.83029">
        <ele>125.0</ele>
      </trkpt>
      <trkpt lat="50.91382" lon="5.82851">
        <ele>124.0</ele>
      </trkpt>
      <trkpt lat="50.91331" lon="5.82822">
        <ele>123.0</ele>
      </trkpt>
      <trkpt lat="50.91183" lon="5.82798">
        <ele>122.0</ele>
      </trkpt>
      <trkpt lat="50.91051" lon="5.82733">
        <ele>123.0</ele>
      </trkpt>
      <trkpt lat="50.90919" lon="5.82564">
        <ele>125.0</ele>
      </trkpt>
      <trkpt lat="50.90888" lon="5.82768">
        <ele>126.0</ele>
      </trkpt>
      <trkpt lat="50.90868" lon="5.8283">
        <ele>126.0</ele>
      </trkpt>
      <trkpt lat="50.90722" lon="5.83164">
        <ele>131.0</ele>
      </trkpt>
      <trkpt lat="50.906" lon="5.83377">
        <ele>133.0</ele>
      </trkpt>
      <trkpt lat="50.9051" lon="5.83637">
        <ele>131.0</ele>
      </trkpt>
      <trkpt lat="50.90498" lon="5.83736">
        <ele>129.0</ele>
      </trkpt>
      <trkpt lat="50.90509" lon="5.84049">
        <ele>125.0</ele>
      </trkpt>
      <trkpt lat="50.90468" lon="5.84253">
        <ele>122.0</ele>
      </trkpt>
      <trkpt lat="50.9047" lon="5.84413">
        <ele>118.0</ele>
      </trkpt>
      <trkpt lat="50.90498" lon="5.84661">
        <ele>110.0</ele>
      </trkpt>
      <trkpt lat="50.90488" lon="5.84716">
        <ele>110.0</ele>
      </trkpt>
      <trkpt lat="50.90467" lon="5.8476">
        <ele>110.0</ele>
      </trkpt>
      <trkpt lat="50.90395" lon="5.84842">
        <ele>110.0</ele>
      </trkpt>
      <trkpt lat="50.90286" lon="5.8494">
        <ele>112.0</ele>
      </trkpt>
      <trkpt lat="50.90249" lon="5.85068">
        <ele>114.0</ele>
      </trkpt>
      <trkpt lat="50.90156" lon="5.85209">
        <ele>116.0</ele>
      </trkpt>
      <trkpt lat="50.90124" lon="5.85232">
        <ele>117.0</ele>
      </trkpt>
      <trkpt lat="50.90077" lon="5.85236">
        <ele>118.0</ele>
      </trkpt>
      <trkpt lat="50.90065" lon="5.85272">
        <ele>119.0</ele>
      </trkpt>
      <trkpt lat="50.90015" lon="5.85252">
        <ele>120.0</ele>
      </trkpt>
      <trkpt lat="50.89926" lon="5.85261">
        <ele>121.0</ele>
      </trkpt>
      <trkpt lat="50.89812" lon="5.8523">
        <ele>123.0</ele>
      </trkpt>
      <trkpt lat="50.89746" lon="5.85119">
        <ele>123.0</ele>
      </trkpt>
      <trkpt lat="50.89705" lon="5.85113">
        <ele>123.0</ele>
      </trkpt>
      <trkpt lat="50.89492" lon="5.85271">
        <ele>125.0</ele>
      </trkpt>
      <trkpt lat="50.89295" lon="5.8551">
        <ele>129.0</ele>
      </trkpt>
      <trkpt lat="50.89212" lon="5.85553">
        <ele>132.0</ele>
      </trkpt>
      <trkpt lat="50.89138" lon="5.85533">
        <ele>133.0</ele>
      </trkpt>
      <trkpt lat="50.89091" lon="5.85944">
        <ele>129.0</ele>
      </trkpt>
      <trkpt lat="50.89058" lon="5.86073">
        <ele>125.0</ele>
      </trkpt>
      <trkpt lat="50.88954" lon="5.86244">
        <ele>117.0</ele>
      </trkpt>
      <trkpt lat="50.88938" lon="5.86254">
        <ele>115.0</ele>
      </trkpt>
      <trkpt lat="50.88913" lon="5.86236">
        <ele>114.0</ele>
      </trkpt>
      <trkpt lat="50.88856" lon="5.86305">
        <ele>117.0</ele>
      </trkpt>
      <trkpt lat="50.88685" lon="5.86318">
        <ele>124.0</ele>
      </trkpt>
      <trkpt lat="50.88575" lon="5.86372">
        <ele>127.0</ele>
      </trkpt>
      <trkpt lat="50.88396" lon="5.86277">
        <ele>133.0</ele>
      </trkpt>
      <trkpt lat="50.88284" lon="5.86191">
        <ele>135.0</ele>
      </trkpt>
      <trkpt lat="50.8825" lon="5.86184">
        <ele>136.0</ele>
      </trkpt>
      <trkpt lat="50.87996" lon="5.86292">
        <ele>135.0</ele>
      </trkpt>
      <trkpt lat="50.87926" lon="5.86288">
        <ele>131.0</ele>
      </trkpt>
      <trkpt lat="50.87863" lon="5.8635">
        <ele>124.0</ele>
      </trkpt>
      <trkpt lat="50.87723" lon="5.86392">
        <ele>114.0</ele>
      </trkpt>
      <trkpt lat="50.87685" lon="5.8643">
        <ele>111.0</ele>
      </trkpt>
      <trkpt lat="50.87774" lon="5.86573">
        <ele>110.0</ele>
      </trkpt>
      <trkpt lat="50.87794" lon="5.86639">
        <ele>111.0</ele>
      </trkpt>
      <trkpt lat="50.87819" lon="5.86944">
        <ele>118.0</ele>
      </trkpt>
      <trkpt lat="50.87901" lon="5.87421">
        <ele>128.0</ele>
      </trkpt>
      <trkpt lat="50.87902" lon="5.87597">
        <ele>138.0</ele>
      </trkpt>
      <trkpt lat="50.87911" lon="5.87607">
        <ele>138.0</ele>
      </trkpt>
      <trkpt lat="50.87884" lon="5.87882">
        <ele>138.0</ele>
      </trkpt>
      <trkpt lat="50.87768" lon="5.88352">
        <ele>135.0</ele>
      </trkpt>
      <trkpt lat="50.87756" lon="5.88453">
        <ele>135.0</ele>
      </trkpt>
      <trkpt lat="50.87803" lon="5.88812">
        <ele>121.0</ele>
      </trkpt>
      <trkpt lat="50.87933" lon="5.90392">
        <ele>93.0</ele>
      </trkpt>
      <trkpt lat="50.8792" lon="5.90538">
        <ele>92.0</ele>
      </trkpt>
      <trkpt lat="50.87877" lon="5.90735">
        <ele>93.0</ele>
      </trkpt>
      <trkpt lat="50.87698" lon="5.91305">
        <ele>90.0</ele>
      </trkpt>
      <trkpt lat="50.87589" lon="5.91508">
        <ele>92.0</ele>
      </trkpt>
      <trkpt lat="50.87571" lon="5.91565">
        <ele>92.0</ele>
      </trkpt>
      <trkpt lat="50.87572" lon="5.91635">
        <ele>93.0</ele>
      </trkpt>
      <trkpt lat="50.87613" lon="5.91817">
        <ele>93.0</ele>
      </trkpt>
      <trkpt lat="50.87629" lon="5.91972">
        <ele>93.0</ele>
      </trkpt>
      <trkpt lat="50.87619" lon="5.92254">
        <ele>93.0</ele>
      </trkpt>
      <trkpt lat="50.87582" lon="5.92627">
        <ele>94.0</ele>
      </trkpt>
      <trkpt lat="50.87611" lon="5.93033">
        <ele>95.0</ele>
      </trkpt>
      <trkpt lat="50.8759" lon="5.93322">
        <ele>98.0</ele>
      </trkpt>
      <trkpt lat="50.87129" lon="5.93521">
        <ele>119.0</ele>
      </trkpt>
      <trkpt lat="50.86561" lon="5.93833">
        <ele>154.0</ele>
      </trkpt>
      <trkpt lat="50.86061" lon="5.94065">
        <ele>166.0</ele>
      </trkpt>
      <trkpt lat="50.85623" lon="5.94377">
        <ele>181.0</ele>
      </trkpt>
      <trkpt lat="50.85519" lon="5.94396">
        <ele>183.0</ele>
      </trkpt>
      <trkpt lat="50.85384" lon="5.9446">
        <ele>184.0</ele>
      </trkpt>
      <trkpt lat="50.85358" lon="5.94307">
        <ele>182.0</ele>
      </trkpt>
      <trkpt lat="50.85374" lon="5.94079">
        <ele>178.0</ele>
      </trkpt>
      <trkpt lat="50.85238" lon="5.93795">
        <ele>176.0</ele>
      </trkpt>
      <trkpt lat="50.85221" lon="5.93735">
        <ele>176.0</ele>
      </trkpt>
      <trkpt lat="50.85187" lon="5.93738">
        <ele>174.0</ele>
      </trkpt>
      <trkpt lat="50.85106" lon="5.93698">
        <ele>171.0</ele>
      </trkpt>
      <trkpt lat="50.85052" lon="5.93699">
        <ele>168.0</ele>
      </trkpt>
      <trkpt lat="50.8499" lon="5.9364">
        <ele>164.0</ele>
      </trkpt>
      <trkpt lat="50.84674" lon="5.93743">
        <ele>170.0</ele>
      </trkpt>
      <trkpt lat="50.84187" lon="5.93982">
        <ele>189.0</ele>
      </trkpt>
      <trkpt lat="50.8414" lon="5.94022">
        <ele>193.0</ele>
      </trkpt>
      <trkpt lat="50.84144" lon="5.94033">
        <ele>194.0</ele>
      </trkpt>
      <trkpt lat="50.84217" lon="5.94207">
        <ele>195.0</ele>
      </trkpt>
      <trkpt lat="50.84461" lon="5.94676">
        <ele>201.0</ele>
      </trkpt>
      <trkpt lat="50.84484" lon="5.94753">
        <ele>203.0</ele>
      </trkpt>
      <trkpt lat="50.84489" lon="5.948">
        <ele>204.0</ele>
      </trkpt>
      <trkpt lat="50.84461" lon="5.95032">
        <ele>206.0</ele>
      </trkpt>
      <trkpt lat="50.84463" lon="5.95112">
        <ele>207.0</ele>
      </trkpt>
      <trkpt lat="50.84597" lon="5.9548">
        <ele>205.0</ele>
      </trkpt>
      <trkpt lat="50.84577" lon="5.95645">
        <ele>201.0</ele>
      </trkpt>
      <trkpt lat="50.84433" lon="5.96281">
        <ele>199.0</ele>
      </trkpt>
      <trkpt lat="50.84443" lon="5.96485">
        <ele>198.0</ele>
      </trkpt>
      <trkpt lat="50.84513" lon="5.96804">
        <ele>202.0</ele>
      </trkpt>
      <trkpt lat="50.84517" lon="5.96921">
        <ele>205.0</ele>
      </trkpt>
      <trkpt lat="50.84407" lon="5.97174">
        <ele>209.0</ele>
      </trkpt>
      <trkpt lat="50.84202" lon="5.97557">
        <ele>209.0</ele>
      </trkpt>
      <trkpt lat="50.84082" lon="5.97645">
        <ele>197.0</ele>
      </trkpt>
      <trkpt lat="50.8405" lon="5.97624">
        <ele>193.0</ele>
      </trkpt>
      <trkpt lat="50.83958" lon="5.97488">
        <ele>186.0</ele>
      </trkpt>
      <trkpt lat="50.83913" lon="5.97471">
        <ele>180.0</ele>
      </trkpt>
      <trkpt lat="50.83868" lon="5.97509">
        <ele>175.0</ele>
      </trkpt>
      <trkpt lat="50.83816" lon="5.97663">
        <ele>165.0</ele>
      </trkpt>
      <trkpt lat="50.8377" lon="5.97706">
        <ele>159.0</ele>
      </trkpt>
      <trkpt lat="50.83574" lon="5.9767">
        <ele>149.0</ele>
      </trkpt>
      <trkpt lat="50.83503" lon="5.9768">
        <ele>144.0</ele>
      </trkpt>
      <trkpt lat="50.83515" lon="5.97848">
        <ele>138.0</ele>
      </trkpt>
      <trkpt lat="50.83539" lon="5.97959">
        <ele>137.0</ele>
      </trkpt>
      <trkpt lat="50.83541" lon="5.98175">
        <ele>136.0</ele>
      </trkpt>
      <trkpt lat="50.83519" lon="5.98219">
        <ele>137.0</ele>
      </trkpt>
      <trkpt lat="50.83473" lon="5.98217">
        <ele>138.0</ele>
      </trkpt>
      <trkpt lat="50.83344" lon="5.98266">
        <ele>140.0</ele>
      </trkpt>
      <trkpt lat="50.83164" lon="5.98265">
        <ele>145.0</ele>
      </trkpt>
      <trkpt lat="50.83112" lon="5.9825">
        <ele>148.0</ele>
      </trkpt>
      <trkpt lat="50.83102" lon="5.9823">
        <ele>149.0</ele>
      </trkpt>
      <trkpt lat="50.83091" lon="5.98244">
        <ele>150.0</ele>
      </trkpt>
      <trkpt lat="50.82467" lon="5.98089">
        <ele>169.0</ele>
      </trkpt>
      <trkpt lat="50.82417" lon="5.98103">
        <ele>170.0</ele>
      </trkpt>
      <trkpt lat="50.82377" lon="5.98157">
        <ele>170.0</ele>
      </trkpt>
      <trkpt lat="50.82322" lon="5.98098">
        <ele>171.0</ele>
      </trkpt>
      <trkpt lat="50.82246" lon="5.98058">
        <ele>172.0</ele>
      </trkpt>
      <trkpt lat="50.81792" lon="5.97968">
        <ele>175.0</ele>
      </trkpt>
      <trkpt lat="50.8163" lon="5.97897">
        <ele>177.0</ele>
      </trkpt>
      <trkpt lat="50.81482" lon="5.97785">
        <ele>179.0</ele>
      </trkpt>
      <trkpt lat="50.81333" lon="5.97605">
        <ele>181.0</ele>
      </trkpt>
      <trkpt lat="50.81047" lon="5.97083">
        <ele>167.0</ele>
      </trkpt>
      <trkpt lat="50.80458" lon="5.96108">
        <ele>121.0</ele>
      </trkpt>
      <trkpt lat="50.80466" lon="5.96066">
        <ele>121.0</ele>
      </trkpt>
      <trkpt lat="50.80706" lon="5.95625">
        <ele>121.0</ele>
      </trkpt>
      <trkpt lat="50.80794" lon="5.95368">
        <ele>118.0</ele>
      </trkpt>
      <trkpt lat="50.80832" lon="5.95113">
        <ele>122.0</ele>
      </trkpt>
      <trkpt lat="50.80955" lon="5.93701">
        <ele>115.0</ele>
      </trkpt>
      <trkpt lat="50.81005" lon="5.93713">
        <ele>114.0</ele>
      </trkpt>
      <trkpt lat="50.81003" lon="5.93774">
        <ele>113.0</ele>
      </trkpt>
      <trkpt lat="50.81065" lon="5.93773">
        <ele>113.0</ele>
      </trkpt>
      <trkpt lat="50.81059" lon="5.93953">
        <ele>112.0</ele>
      </trkpt>
      <trkpt lat="50.81087" lon="5.94022">
        <ele>111.0</ele>
      </trkpt>
      <trkpt lat="50.81268" lon="5.94017">
        <ele>111.0</ele>
      </trkpt>
      <trkpt lat="50.81327" lon="5.94054">
        <ele>117.0</ele>
      </trkpt>
      <trkpt lat="50.81387" lon="5.94066">
        <ele>126.0</ele>
      </trkpt>
      <trkpt lat="50.81555" lon="5.94185">
        <ele>146.0</ele>
      </trkpt>
      <trkpt lat="50.81624" lon="5.94294">
        <ele>159.0</ele>
      </trkpt>
      <trkpt lat="50.81755" lon="5.94335">
        <ele>162.0</ele>
      </trkpt>
      <trkpt lat="50.81864" lon="5.94215">
        <ele>161.0</ele>
      </trkpt>
      <trkpt lat="50.81961" lon="5.94072">
        <ele>157.0</ele>
      </trkpt>
      <trkpt lat="50.821" lon="5.93932">
        <ele>144.0</ele>
      </trkpt>
      <trkpt lat="50.82181" lon="5.93761">
        <ele>133.0</ele>
      </trkpt>
      <trkpt lat="50.82216" lon="5.9376">
        <ele>131.0</ele>
      </trkpt>
      <trkpt lat="50.82322" lon="5.9368">
        <ele>122.0</ele>
      </trkpt>
      <trkpt lat="50.82391" lon="5.93715">
        <ele>117.0</ele>
      </trkpt>
      <trkpt lat="50.82431" lon="5.93715">
        <ele>115.0</ele>
      </trkpt>
      <trkpt lat="50.82435" lon="5.93622">
        <ele>111.0</ele>
      </trkpt>
      <trkpt lat="50.82417" lon="5.93514">
        <ele>107.0</ele>
      </trkpt>
      <trkpt lat="50.82475" lon="5.93456">
        <ele>106.0</ele>
      </trkpt>
      <trkpt lat="50.82513" lon="5.93442">
        <ele>107.0</ele>
      </trkpt>
      <trkpt lat="50.82509" lon="5.93356">
        <ele>108.0</ele>
      </trkpt>
      <trkpt lat="50.82529" lon="5.93347">
        <ele>109.0</ele>
      </trkpt>
      <trkpt lat="50.82639" lon="5.93177">
        <ele>118.0</ele>
      </trkpt>
      <trkpt lat="50.82991" lon="5.9282">
        <ele>151.0</ele>
      </trkpt>
      <trkpt lat="50.83067" lon="5.92787">
        <ele>171.0</ele>
      </trkpt>
      <trkpt lat="50.8315" lon="5.92659">
        <ele>191.0</ele>
      </trkpt>
      <trkpt lat="50.83359" lon="5.92583">
        <ele>189.0</ele>
      </trkpt>
      <trkpt lat="50.83696" lon="5.92196">
        <ele>175.0</ele>
      </trkpt>
      <trkpt lat="50.83832" lon="5.92144">
        <ele>178.0</ele>
      </trkpt>
      <trkpt lat="50.83964" lon="5.92122">
        <ele>175.0</ele>
      </trkpt>
      <trkpt lat="50.84091" lon="5.91943">
        <ele>176.0</ele>
      </trkpt>
      <trkpt lat="50.8411" lon="5.91931">
        <ele>176.0</ele>
      </trkpt>
      <trkpt lat="50.84168" lon="5.91943">
        <ele>176.0</ele>
      </trkpt>
      <trkpt lat="50.84171" lon="5.91856">
        <ele>175.0</ele>
      </trkpt>
      <trkpt lat="50.84287" lon="5.91742">
        <ele>168.0</ele>
      </trkpt>
      <trkpt lat="50.84367" lon="5.91494">
        <ele>149.0</ele>
      </trkpt>
      <trkpt lat="50.84423" lon="5.91383">
        <ele>138.0</ele>
      </trkpt>
      <trkpt lat="50.84698" lon="5.9108">
        <ele>115.0</ele>
      </trkpt>
      <trkpt lat="50.84749" lon="5.91054">
        <ele>114.0</ele>
      </trkpt>
      <trkpt lat="50.8469" lon="5.90766">
        <ele>110.0</ele>
      </trkpt>
      <trkpt lat="50.8457" lon="5.90349">
        <ele>103.0</ele>
      </trkpt>
      <trkpt lat="50.84526" lon="5.90249">
        <ele>102.0</ele>
      </trkpt>
      <trkpt lat="50.8447" lon="5.90168">
        <ele>102.0</ele>
      </trkpt>
      <trkpt lat="50.84488" lon="5.90077">
        <ele>106.0</ele>
      </trkpt>
      <trkpt lat="50.84461" lon="5.89973">
        <ele>110.0</ele>
      </trkpt>
      <trkpt lat="50.84448" lon="5.89827">
        <ele>116.0</ele>
      </trkpt>
      <trkpt lat="50.84454" lon="5.89565">
        <ele>121.0</ele>
      </trkpt>
      <trkpt lat="50.84472" lon="5.89467">
        <ele>123.0</ele>
      </trkpt>
      <trkpt lat="50.84516" lon="5.8941">
        <ele>125.0</ele>
      </trkpt>
      <trkpt lat="50.84588" lon="5.89614">
        <ele>131.0</ele>
      </trkpt>
      <trkpt lat="50.84609" lon="5.89776">
        <ele>136.0</ele>
      </trkpt>
      <trkpt lat="50.84752" lon="5.90097">
        <ele>145.0</ele>
      </trkpt>
      <trkpt lat="50.84851" lon="5.90002">
        <ele>157.0</ele>
      </trkpt>
      <trkpt lat="50.84943" lon="5.89996">
        <ele>157.0</ele>
      </trkpt>
      <trkpt lat="50.84985" lon="5.89945">
        <ele>157.0</ele>
      </trkpt>
      <trkpt lat="50.85018" lon="5.8984">
        <ele>158.0</ele>
      </trkpt>
      <trkpt lat="50.85057" lon="5.89778">
        <ele>159.0</ele>
      </trkpt>
      <trkpt lat="50.85145" lon="5.8974">
        <ele>160.0</ele>
      </trkpt>
      <trkpt lat="50.85186" lon="5.89686">
        <ele>157.0</ele>
      </trkpt>
      <trkpt lat="50.85258" lon="5.89452">
        <ele>149.0</ele>
      </trkpt>
      <trkpt lat="50.85361" lon="5.88977">
        <ele>131.0</ele>
      </trkpt>
      <trkpt lat="50.85415" lon="5.88865">
        <ele>126.0</ele>
      </trkpt>
      <trkpt lat="50.85241" lon="5.88585">
        <ele>116.0</ele>
      </trkpt>
      <trkpt lat="50.85249" lon="5.88542">
        <ele>114.0</ele>
      </trkpt>
      <trkpt lat="50.85373" lon="5.88343">
        <ele>108.0</ele>
      </trkpt>
      <trkpt lat="50.85294" lon="5.8827">
        <ele>104.0</ele>
      </trkpt>
      <trkpt lat="50.85158" lon="5.88189">
        <ele>95.0</ele>
      </trkpt>
      <trkpt lat="50.85119" lon="5.88133">
        <ele>91.0</ele>
      </trkpt>
      <trkpt lat="50.8509" lon="5.88056">
        <ele>87.0</ele>
      </trkpt>
      <trkpt lat="50.85192" lon="5.87838">
        <ele>86.0</ele>
      </trkpt>
      <trkpt lat="50.85216" lon="5.87744">
        <ele>84.0</ele>
      </trkpt>
      <trkpt lat="50.85233" lon="5.87461">
        <ele>79.0</ele>
      </trkpt>
      <trkpt lat="50.85188" lon="5.87239">
        <ele>79.0</ele>
      </trkpt>
      <trkpt lat="50.85025" lon="5.87316">
        <ele>80.0</ele>
      </trkpt>
      <trkpt lat="50.84828" lon="5.8745">
        <ele>77.0</ele>
      </trkpt>
      <trkpt lat="50.8476" lon="5.87477">
        <ele>81.0</ele>
      </trkpt>
      <trkpt lat="50.84731" lon="5.87468">
        <ele>84.0</ele>
      </trkpt>
      <trkpt lat="50.84717" lon="5.87417">
        <ele>86.0</ele>
      </trkpt>
      <trkpt lat="50.84674" lon="5.87422">
        <ele>89.0</ele>
      </trkpt>
      <trkpt lat="50.84632" lon="5.8739">
        <ele>94.0</ele>
      </trkpt>
      <trkpt lat="50.84448" lon="5.87361">
        <ele>115.0</ele>
      </trkpt>
      <trkpt lat="50.84354" lon="5.87366">
        <ele>132.0</ele>
      </trkpt>
      <trkpt lat="50.84189" lon="5.87287">
        <ele>141.0</ele>
      </trkpt>
      <trkpt lat="50.84028" lon="5.87164">
        <ele>146.0</ele>
      </trkpt>
      <trkpt lat="50.83745" lon="5.87071">
        <ele>154.0</ele>
      </trkpt>
      <trkpt lat="50.83539" lon="5.8697">
        <ele>162.0</ele>
      </trkpt>
      <trkpt lat="50.83406" lon="5.86847">
        <ele>166.0</ele>
      </trkpt>
      <trkpt lat="50.83221" lon="5.86929">
        <ele>165.0</ele>
      </trkpt>
      <trkpt lat="50.83113" lon="5.86952">
        <ele>166.0</ele>
      </trkpt>
      <trkpt lat="50.82948" lon="5.86922">
        <ele>168.0</ele>
      </trkpt>
      <trkpt lat="50.82646" lon="5.86747">
        <ele>168.0</ele>
      </trkpt>
      <trkpt lat="50.8249" lon="5.8663">
        <ele>170.0</ele>
      </trkpt>
      <trkpt lat="50.82407" lon="5.86643">
        <ele>171.0</ele>
      </trkpt>
      <trkpt lat="50.8233" lon="5.8641">
        <ele>171.0</ele>
      </trkpt>
      <trkpt lat="50.82124" lon="5.85935">
        <ele>169.0</ele>
      </trkpt>
      <trkpt lat="50.8204" lon="5.8578">
        <ele>168.0</ele>
      </trkpt>
      <trkpt lat="50.8188" lon="5.85549">
        <ele>170.0</ele>
      </trkpt>
      <trkpt lat="50.82173" lon="5.85221">
        <ele>160.0</ele>
      </trkpt>
      <trkpt lat="50.82651" lon="5.8488">
        <ele>164.0</ele>
      </trkpt>
      <trkpt lat="50.82733" lon="5.84854">
        <ele>163.0</ele>
      </trkpt>
      <trkpt lat="50.82772" lon="5.84713">
        <ele>162.0</ele>
      </trkpt>
      <trkpt lat="50.82937" lon="5.84312">
        <ele>158.0</ele>
      </trkpt>
      <trkpt lat="50.83031" lon="5.83896">
        <ele>157.0</ele>
      </trkpt>
      <trkpt lat="50.83125" lon="5.83737">
        <ele>157.0</ele>
      </trkpt>
      <trkpt lat="50.83282" lon="5.83634">
        <ele>158.0</ele>
      </trkpt>
      <trkpt lat="50.83619" lon="5.83591">
        <ele>158.0</ele>
      </trkpt>
      <trkpt lat="50.83686" lon="5.83502">
        <ele>156.0</ele>
      </trkpt>
      <trkpt lat="50.83861" lon="5.83348">
        <ele>153.0</ele>
      </trkpt>
      <trkpt lat="50.83908" lon="5.83193">
        <ele>153.0</ele>
      </trkpt>
      <trkpt lat="50.83968" lon="5.83049">
        <ele>150.0</ele>
      </trkpt>
      <trkpt lat="50.84091" lon="5.82906">
        <ele>148.0</ele>
      </trkpt>
      <trkpt lat="50.84161" lon="5.82784">
        <ele>149.0</ele>
      </trkpt>
      <trkpt lat="50.84314" lon="5.82814">
        <ele>152.0</ele>
      </trkpt>
      <trkpt lat="50.84413" lon="5.82805">
        <ele>152.0</ele>
      </trkpt>
      <trkpt lat="50.84434" lon="5.82732">
        <ele>152.0</ele>
      </trkpt>
      <trkpt lat="50.84506" lon="5.82599">
        <ele>151.0</ele>
      </trkpt>
      <trkpt lat="50.8451" lon="5.82565">
        <ele>151.0</ele>
      </trkpt>
      <trkpt lat="50.84491" lon="5.82453">
        <ele>152.0</ele>
      </trkpt>
      <trkpt lat="50.8451" lon="5.82385">
        <ele>154.0</ele>
      </trkpt>
      <trkpt lat="50.84638" lon="5.82065">
        <ele>156.0</ele>
      </trkpt>
      <trkpt lat="50.84779" lon="5.8179">
        <ele>152.0</ele>
      </trkpt>
      <trkpt lat="50.84795" lon="5.81787">
        <ele>152.0</ele>
      </trkpt>
      <trkpt lat="50.85099" lon="5.8209">
        <ele>147.0</ele>
      </trkpt>
      <trkpt lat="50.85226" lon="5.82141">
        <ele>144.0</ele>
      </trkpt>
      <trkpt lat="50.85286" lon="5.8219">
        <ele>142.0</ele>
      </trkpt>
      <trkpt lat="50.85439" lon="5.82433">
        <ele>137.0</ele>
      </trkpt>
      <trkpt lat="50.85665" lon="5.82583">
        <ele>122.0</ele>
      </trkpt>
      <trkpt lat="50.85746" lon="5.82698">
        <ele>113.0</ele>
      </trkpt>
      <trkpt lat="50.85836" lon="5.82787">
        <ele>108.0</ele>
      </trkpt>
      <trkpt lat="50.85989" lon="5.83019">
        <ele>94.0</ele>
      </trkpt>
      <trkpt lat="50.86015" lon="5.83034">
        <ele>93.0</ele>
      </trkpt>
      <trkpt lat="50.86099" lon="5.83025">
        <ele>90.0</ele>
      </trkpt>
      <trkpt lat="50.86253" lon="5.82965">
        <ele>83.0</ele>
      </trkpt>
      <trkpt lat="50.86131" lon="5.82557">
        <ele>107.0</ele>
      </trkpt>
      <trkpt lat="50.86123" lon="5.82425">
        <ele>122.0</ele>
      </trkpt>
      <trkpt lat="50.86105" lon="5.82369">
        <ele>126.0</ele>
      </trkpt>
      <trkpt lat="50.86057" lon="5.82323">
        <ele>130.0</ele>
      </trkpt>
      <trkpt lat="50.85713" lon="5.82129">
        <ele>133.0</ele>
      </trkpt>
      <trkpt lat="50.85674" lon="5.82078">
        <ele>134.0</ele>
      </trkpt>
      <trkpt lat="50.85654" lon="5.82008">
        <ele>136.0</ele>
      </trkpt>
      <trkpt lat="50.85689" lon="5.81646">
        <ele>140.0</ele>
      </trkpt>
      <trkpt lat="50.85698" lon="5.81338">
        <ele>135.0</ele>
      </trkpt>
      <trkpt lat="50.85782" lon="5.80663">
        <ele>131.0</ele>
      </trkpt>
      <trkpt lat="50.85876" lon="5.79596">
        <ele>126.0</ele>
      </trkpt>
      <trkpt lat="50.86057" lon="5.79724">
        <ele>125.0</ele>
      </trkpt>
      <trkpt lat="50.86115" lon="5.79533">
        <ele>125.0</ele>
      </trkpt>
      <trkpt lat="50.86137" lon="5.79182">
        <ele>126.0</ele>
      </trkpt>
      <trkpt lat="50.86519" lon="5.79044">
        <ele>103.0</ele>
      </trkpt>
      <trkpt lat="50.86638" lon="5.7909">
        <ele>86.0</ele>
      </trkpt>
      <trkpt lat="50.86721" lon="5.79094">
        <ele>69.0</ele>
      </trkpt>
      <trkpt lat="50.86732" lon="5.79067">
        <ele>69.0</ele>
      </trkpt>
      <trkpt lat="50.86734" lon="5.78949">
        <ele>70.0</ele>
      </trkpt>
      <trkpt lat="50.86756" lon="5.78852">
        <ele>70.0</ele>
      </trkpt>
      <trkpt lat="50.86829" lon="5.78723">
        <ele>68.0</ele>
      </trkpt>
      <trkpt lat="50.86828" lon="5.78651">
        <ele>67.0</ele>
      </trkpt>
      <trkpt lat="50.8688" lon="5.78384">
        <ele>69.0</ele>
      </trkpt>
      <trkpt lat="50.8686" lon="5.78347">
        <ele>70.0</ele>
      </trkpt>
      <trkpt lat="50.8678" lon="5.78343">
        <ele>75.0</ele>
      </trkpt>
      <trkpt lat="50.86602" lon="5.78278">
        <ele>91.0</ele>
      </trkpt>
      <trkpt lat="50.86328" lon="5.77886">
        <ele>109.0</ele>
      </trkpt>
      <trkpt lat="50.86347" lon="5.7782">
        <ele>113.0</ele>
      </trkpt>
      <trkpt lat="50.86416" lon="5.77679">
        <ele>120.0</ele>
      </trkpt>
      <trkpt lat="50.86437" lon="5.77561">
        <ele>120.0</ele>
      </trkpt>
      <trkpt lat="50.86461" lon="5.77516">
        <ele>120.0</ele>
      </trkpt>
      <trkpt lat="50.86444" lon="5.7743">
        <ele>120.0</ele>
      </trkpt>
      <trkpt lat="50.86467" lon="5.77279">
        <ele>120.0</ele>
      </trkpt>
      <trkpt lat="50.86559" lon="5.76911">
        <ele>116.0</ele>
      </trkpt>
      <trkpt lat="50.86572" lon="5.76803">
        <ele>115.0</ele>
      </trkpt>
      <trkpt lat="50.86553" lon="5.76646">
        <ele>113.0</ele>
      </trkpt>
      <trkpt lat="50.86502" lon="5.7644">
        <ele>109.0</ele>
      </trkpt>
      <trkpt lat="50.86433" lon="5.76282">
        <ele>105.0</ele>
      </trkpt>
      <trkpt lat="50.86429" lon="5.76105">
        <ele>97.0</ele>
      </trkpt>
      <trkpt lat="50.86388" lon="5.75829">
        <ele>85.0</ele>
      </trkpt>
      <trkpt lat="50.86342" lon="5.7565">
        <ele>78.0</ele>
      </trkpt>
      <trkpt lat="50.86312" lon="5.75578">
        <ele>75.0</ele>
      </trkpt>
      <trkpt lat="50.86187" lon="5.74963">
        <ele>62.0</ele>
      </trkpt>
      <trkpt lat="50.86174" lon="5.74543">
        <ele>60.0</ele>
      </trkpt>
      <trkpt lat="50.86211" lon="5.74325">
        <ele>58.0</ele>
      </trkpt>
      <trkpt lat="50.86215" lon="5.74209">
        <ele>56.0</ele>
      </trkpt>
      <trkpt lat="50.86211" lon="5.74017">
        <ele>55.0</ele>
      </trkpt>
      <trkpt lat="50.86186" lon="5.73879">
        <ele>56.0</ele>
      </trkpt>
      <trkpt lat="50.86094" lon="5.73902">
        <ele>56.0</ele>
      </trkpt>
      <trkpt lat="50.85652" lon="5.73874">
        <ele>56.0</ele>
      </trkpt>
      <trkpt lat="50.85441" lon="5.74242">
        <ele>56.0</ele>
      </trkpt>
      <trkpt lat="50.85173" lon="5.74512">
        <ele>60.0</ele>
      </trkpt>
      <trkpt lat="50.85055" lon="5.746">
        <ele>61.0</ele>
      </trkpt>
      <trkpt lat="50.85031" lon="5.74694">
        <ele>61.0</ele>
      </trkpt>
      <trkpt lat="50.84857" lon="5.75074">
        <ele>63.0</ele>
      </trkpt>
      <trkpt lat="50.84733" lon="5.75251">
        <ele>75.0</ele>
      </trkpt>
      <trkpt lat="50.84727" lon="5.75554">
        <ele>76.0</ele>
      </trkpt>
      <trkpt lat="50.84701" lon="5.75831">
        <ele>76.0</ele>
      </trkpt>
      <trkpt lat="50.84759" lon="5.76272">
        <ele>79.0</ele>
      </trkpt>
      <trkpt lat="50.8475" lon="5.76522">
        <ele>77.0</ele>
      </trkpt>
      <trkpt lat="50.84773" lon="5.76638">
        <ele>79.0</ele>
      </trkpt>
      <trkpt lat="50.84806" lon="5.76722">
        <ele>85.0</ele>
      </trkpt>
      <trkpt lat="50.84775" lon="5.76818">
        <ele>91.0</ele>
      </trkpt>
      <trkpt lat="50.84792" lon="5.76881">
        <ele>93.0</ele>
      </trkpt>
      <trkpt lat="50.84847" lon="5.76891">
        <ele>93.0</ele>
      </trkpt>
      <trkpt lat="50.84884" lon="5.77013">
        <ele>94.0</ele>
      </trkpt>
      <trkpt lat="50.84856" lon="5.77048">
        <ele>97.0</ele>
      </trkpt>
      <trkpt lat="50.84793" lon="5.76973">
        <ele>103.0</ele>
      </trkpt>
      <trkpt lat="50.8474" lon="5.76969">
        <ele>106.0</ele>
      </trkpt>
      <trkpt lat="50.84685" lon="5.76994">
        <ele>110.0</ele>
      </trkpt>
      <trkpt lat="50.84624" lon="5.77205">
        <ele>120.0</ele>
      </trkpt>
      <trkpt lat="50.84537" lon="5.77392">
        <ele>119.0</ele>
      </trkpt>
      <trkpt lat="50.84498" lon="5.77562">
        <ele>120.0</ele>
      </trkpt>
      <trkpt lat="50.84397" lon="5.78271">
        <ele>131.0</ele>
      </trkpt>
      <trkpt lat="50.84385" lon="5.78501">
        <ele>137.0</ele>
      </trkpt>
      <trkpt lat="50.84284" lon="5.79079">
        <ele>141.0</ele>
      </trkpt>
      <trkpt lat="50.84267" lon="5.79253">
        <ele>141.0</ele>
      </trkpt>
      <trkpt lat="50.84125" lon="5.79789">
        <ele>145.0</ele>
      </trkpt>
      <trkpt lat="50.84094" lon="5.80584">
        <ele>148.0</ele>
      </trkpt>
      <trkpt lat="50.84102" lon="5.80653">
        <ele>148.0</ele>
      </trkpt>
      <trkpt lat="50.84151" lon="5.8079">
        <ele>149.0</ele>
      </trkpt>
      <trkpt lat="50.84355" lon="5.81006">
        <ele>150.0</ele>
      </trkpt>
      <trkpt lat="50.84612" lon="5.81523">
        <ele>152.0</ele>
      </trkpt>
      <trkpt lat="50.84675" lon="5.81613">
        <ele>152.0</ele>
      </trkpt>
      <trkpt lat="50.84715" lon="5.81698">
        <ele>152.0</ele>
      </trkpt>
      <trkpt lat="50.84779" lon="5.81768">
        <ele>152.0</ele>
      </trkpt>
      <trkpt lat="50.84779" lon="5.8179">
        <ele>151.0</ele>
      </trkpt>
      <trkpt lat="50.84795" lon="5.81787">
        <ele>151.0</ele>
      </trkpt>
      <trkpt lat="50.85099" lon="5.8209">
        <ele>147.0</ele>
      </trkpt>
      <trkpt lat="50.85226" lon="5.82141">
        <ele>144.0</ele>
      </trkpt>
      <trkpt lat="50.85272" lon="5.82176">
        <ele>142.0</ele>
      </trkpt>
      <trkpt lat="50.85332" lon="5.82249">
        <ele>140.0</ele>
      </trkpt>
      <trkpt lat="50.85439" lon="5.82433">
        <ele>137.0</ele>
      </trkpt>
      <trkpt lat="50.85659" lon="5.82577">
        <ele>123.0</ele>
      </trkpt>
      <trkpt lat="50.85746" lon="5.82698">
        <ele>113.0</ele>
      </trkpt>
      <trkpt lat="50.85836" lon="5.82787">
        <ele>108.0</ele>
      </trkpt>
      <trkpt lat="50.85989" lon="5.83019">
        <ele>94.0</ele>
      </trkpt>
      <trkpt lat="50.86068" lon="5.83031">
        <ele>91.0</ele>
      </trkpt>
      <trkpt lat="50.86253" lon="5.82965">
        <ele>83.0</ele>
      </trkpt>
      <trkpt lat="50.86131" lon="5.82557">
        <ele>107.0</ele>
      </trkpt>
      <trkpt lat="50.86113" lon="5.82387">
        <ele>125.0</ele>
      </trkpt>
      <trkpt lat="50.86057" lon="5.82323">
        <ele>130.0</ele>
      </trkpt>
      <trkpt lat="50.85713" lon="5.82129">
        <ele>133.0</ele>
      </trkpt>
      <trkpt lat="50.85668" lon="5.82065">
        <ele>134.0</ele>
      </trkpt>
      <trkpt lat="50.85652" lon="5.81987">
        <ele>137.0</ele>
      </trkpt>
      <trkpt lat="50.85689" lon="5.81646">
        <ele>140.0</ele>
      </trkpt>
      <trkpt lat="50.85698" lon="5.81338">
        <ele>135.0</ele>
      </trkpt>
      <trkpt lat="50.85782" lon="5.80663">
        <ele>131.0</ele>
      </trkpt>
      <trkpt lat="50.85876" lon="5.79596">
        <ele>126.0</ele>
      </trkpt>
      <trkpt lat="50.86057" lon="5.79724">
        <ele>125.0</ele>
      </trkpt>
      <trkpt lat="50.86115" lon="5.79533">
        <ele>126.0</ele>
      </trkpt>
      <trkpt lat="50.86137" lon="5.79182">
        <ele>126.0</ele>
      </trkpt>
      <trkpt lat="50.86519" lon="5.79044">
        <ele>103.0</ele>
      </trkpt>
      <trkpt lat="50.86638" lon="5.7909">
        <ele>86.0</ele>
      </trkpt>
      <trkpt lat="50.86721" lon="5.79094">
        <ele>69.0</ele>
      </trkpt>
      <trkpt lat="50.86732" lon="5.79067">
        <ele>69.0</ele>
      </trkpt>
      <trkpt lat="50.86734" lon="5.78949">
        <ele>70.0</ele>
      </trkpt>
      <trkpt lat="50.86756" lon="5.78852">
        <ele>70.0</ele>
      </trkpt>
      <trkpt lat="50.86829" lon="5.78723">
        <ele>68.0</ele>
      </trkpt>
      <trkpt lat="50.86828" lon="5.78651">
        <ele>67.0</ele>
      </trkpt>
      <trkpt lat="50.8688" lon="5.78389">
        <ele>69.0</ele>
      </trkpt>
      <trkpt lat="50.8686" lon="5.78347">
        <ele>70.0</ele>
      </trkpt>
      <trkpt lat="50.8678" lon="5.78343">
        <ele>75.0</ele>
      </trkpt>
      <trkpt lat="50.86602" lon="5.78278">
        <ele>91.0</ele>
      </trkpt>
      <trkpt lat="50.86328" lon="5.77886">
        <ele>109.0</ele>
      </trkpt>
      <trkpt lat="50.86347" lon="5.7782">
        <ele>113.0</ele>
      </trkpt>
      <trkpt lat="50.86416" lon="5.77679">
        <ele>120.0</ele>
      </trkpt>
      <trkpt lat="50.86437" lon="5.77561">
        <ele>120.0</ele>
      </trkpt>
      <trkpt lat="50.86461" lon="5.77516">
        <ele>120.0</ele>
      </trkpt>
      <trkpt lat="50.86444" lon="5.7743">
        <ele>120.0</ele>
      </trkpt>
      <trkpt lat="50.86467" lon="5.77279">
        <ele>120.0</ele>
      </trkpt>
      <trkpt lat="50.86559" lon="5.76911">
        <ele>116.0</ele>
      </trkpt>
      <trkpt lat="50.86572" lon="5.76803">
        <ele>115.0</ele>
      </trkpt>
      <trkpt lat="50.86553" lon="5.76646">
        <ele>113.0</ele>
      </trkpt>
      <trkpt lat="50.86502" lon="5.7644">
        <ele>109.0</ele>
      </trkpt>
      <trkpt lat="50.86433" lon="5.76282">
        <ele>105.0</ele>
      </trkpt>
      <trkpt lat="50.86429" lon="5.76105">
        <ele>97.0</ele>
      </trkpt>
      <trkpt lat="50.86388" lon="5.75829">
        <ele>85.0</ele>
      </trkpt>
      <trkpt lat="50.86342" lon="5.7565">
        <ele>78.0</ele>
      </trkpt>
      <trkpt lat="50.86312" lon="5.75578">
        <ele>75.0</ele>
      </trkpt>
      <trkpt lat="50.86187" lon="5.74963">
        <ele>62.0</ele>
      </trkpt>
      <trkpt lat="50.86174" lon="5.74543">
        <ele>60.0</ele>
      </trkpt>
      <trkpt lat="50.86211" lon="5.74325">
        <ele>58.0</ele>
      </trkpt>
      <trkpt lat="50.86215" lon="5.74209">
        <ele>56.0</ele>
      </trkpt>
      <trkpt lat="50.86211" lon="5.74017">
        <ele>55.0</ele>
      </trkpt>
      <trkpt lat="50.86186" lon="5.73879">
        <ele>56.0</ele>
      </trkpt>
      <trkpt lat="50.86094" lon="5.73902">
        <ele>56.0</ele>
      </trkpt>
      <trkpt lat="50.85652" lon="5.73874">
        <ele>56.0</ele>
      </trkpt>
      <trkpt lat="50.85441" lon="5.74242">
        <ele>56.0</ele>
      </trkpt>
      <trkpt lat="50.85173" lon="5.74512">
        <ele>60.0</ele>
      </trkpt>
      <trkpt lat="50.85055" lon="5.746">
        <ele>61.0</ele>
      </trkpt>
      <trkpt lat="50.85031" lon="5.74694">
        <ele>61.0</ele>
      </trkpt>
      <trkpt lat="50.84857" lon="5.75074">
        <ele>63.0</ele>
      </trkpt>
      <trkpt lat="50.84733" lon="5.75251">
        <ele>75.0</ele>
      </trkpt>
      <trkpt lat="50.84727" lon="5.75554">
        <ele>76.0</ele>
      </trkpt>
      <trkpt lat="50.84701" lon="5.75831">
        <ele>76.0</ele>
      </trkpt>
      <trkpt lat="50.84759" lon="5.76272">
        <ele>79.0</ele>
      </trkpt>
      <trkpt lat="50.8475" lon="5.76522">
        <ele>77.0</ele>
      </trkpt>
      <trkpt lat="50.84773" lon="5.76638">
        <ele>79.0</ele>
      </trkpt>
      <trkpt lat="50.84806" lon="5.76722">
        <ele>85.0</ele>
      </trkpt>
      <trkpt lat="50.84775" lon="5.76818">
        <ele>91.0</ele>
      </trkpt>
      <trkpt lat="50.84792" lon="5.76881">
        <ele>93.0</ele>
      </trkpt>
      <trkpt lat="50.84847" lon="5.76891">
        <ele>93.0</ele>
      </trkpt>
      <trkpt lat="50.84884" lon="5.77013">
        <ele>94.0</ele>
      </trkpt>
      <trkpt lat="50.84856" lon="5.77048">
        <ele>97.0</ele>
      </trkpt>
      <trkpt lat="50.84793" lon="5.76973">
        <ele>103.0</ele>
      </trkpt>
      <trkpt lat="50.8474" lon="5.76969">
        <ele>106.0</ele>
      </trkpt>
      <trkpt lat="50.84685" lon="5.76994">
        <ele>110.0</ele>
      </trkpt>
      <trkpt lat="50.84624" lon="5.77205">
        <ele>120.0</ele>
      </trkpt>
      <trkpt lat="50.84537" lon="5.77392">
        <ele>119.0</ele>
      </trkpt>
      <trkpt lat="50.84498" lon="5.77562">
        <ele>120.0</ele>
      </trkpt>
      <trkpt lat="50.84397" lon="5.78271">
        <ele>131.0</ele>
      </trkpt>
      <trkpt lat="50.84385" lon="5.78501">
        <ele>137.0</ele>
      </trkpt>
      <trkpt lat="50.84284" lon="5.79079">
        <ele>141.0</ele>
      </trkpt>
      <trkpt lat="50.84267" lon="5.79253">
        <ele>141.0</ele>
      </trkpt>
      <trkpt lat="50.84125" lon="5.79789">
        <ele>145.0</ele>
      </trkpt>
      <trkpt lat="50.84094" lon="5.80584">
        <ele>148.0</ele>
      </trkpt>
      <trkpt lat="50.84102" lon="5.80653">
        <ele>148.0</ele>
      </trkpt>
      <trkpt lat="50.84151" lon="5.8079">
        <ele>149.0</ele>
      </trkpt>
      <trkpt lat="50.84355" lon="5.81006">
        <ele>150.0</ele>
      </trkpt>
      <trkpt lat="50.84612" lon="5.81523">
        <ele>152.0</ele>
      </trkpt>
      <trkpt lat="50.84675" lon="5.81613">
        <ele>152.0</ele>
      </trkpt>
      <trkpt lat="50.84715" lon="5.81698">
        <ele>152.0</ele>
      </trkpt>
      <trkpt lat="50.84779" lon="5.81768">
        <ele>152.0</ele>
      </trkpt>
      <trkpt lat="50.84779" lon="5.8179">
        <ele>151.0</ele>
      </trkpt>
      <trkpt lat="50.84795" lon="5.81787">
        <ele>151.0</ele>
      </trkpt>
      <trkpt lat="50.85099" lon="5.8209">
        <ele>147.0</ele>
      </trkpt>
      <trkpt lat="50.85226" lon="5.82141">
        <ele>144.0</ele>
      </trkpt>
      <trkpt lat="50.85272" lon="5.82176">
        <ele>142.0</ele>
      </trkpt>
      <trkpt lat="50.85332" lon="5.82249">
        <ele>140.0</ele>
      </trkpt>
      <trkpt lat="50.85439" lon="5.82433">
        <ele>137.0</ele>
      </trkpt>
      <trkpt lat="50.85659" lon="5.82577">
        <ele>123.0</ele>
      </trkpt>
      <trkpt lat="50.85746" lon="5.82698">
        <ele>113.0</ele>
      </trkpt>
      <trkpt lat="50.85836" lon="5.82787">
        <ele>108.0</ele>
      </trkpt>
      <trkpt lat="50.85989" lon="5.83019">
        <ele>94.0</ele>
      </trkpt>
      <trkpt lat="50.86068" lon="5.83031">
        <ele>91.0</ele>
      </trkpt>
      <trkpt lat="50.86253" lon="5.82965">
        <ele>83.0</ele>
      </trkpt>
      <trkpt lat="50.86131" lon="5.82557">
        <ele>107.0</ele>
      </trkpt>
      <trkpt lat="50.86113" lon="5.82387">
        <ele>125.0</ele>
      </trkpt>
      <trkpt lat="50.86057" lon="5.82323">
        <ele>130.0</ele>
      </trkpt>
      <trkpt lat="50.85713" lon="5.82129">
        <ele>133.0</ele>
      </trkpt>
      <trkpt lat="50.85668" lon="5.82065">
        <ele>134.0</ele>
      </trkpt>
      <trkpt lat="50.85652" lon="5.81987">
        <ele>137.0</ele>
      </trkpt>
      <trkpt lat="50.85689" lon="5.81646">
        <ele>140.0</ele>
      </trkpt>
      <trkpt lat="50.85698" lon="5.81338">
        <ele>135.0</ele>
      </trkpt>
      <trkpt lat="50.85782" lon="5.80663">
        <ele>131.0</ele>
      </trkpt>
      <trkpt lat="50.85876" lon="5.79596">
        <ele>126.0</ele>
      </trkpt>
      <trkpt lat="50.86057" lon="5.79724">
        <ele>125.0</ele>
      </trkpt>
      <trkpt lat="50.86115" lon="5.79533">
        <ele>125.0</ele>
      </trkpt>
      <trkpt lat="50.86137" lon="5.79182">
        <ele>126.0</ele>
      </trkpt>
      <trkpt lat="50.86519" lon="5.79044">
        <ele>103.0</ele>
      </trkpt>
      <trkpt lat="50.86638" lon="5.7909">
        <ele>86.0</ele>
      </trkpt>
      <trkpt lat="50.86721" lon="5.79094">
        <ele>69.0</ele>
      </trkpt>
      <trkpt lat="50.86732" lon="5.79067">
        <ele>69.0</ele>
      </trkpt>
      <trkpt lat="50.86734" lon="5.78949">
        <ele>70.0</ele>
      </trkpt>
      <trkpt lat="50.86756" lon="5.78852">
        <ele>70.0</ele>
      </trkpt>
      <trkpt lat="50.86829" lon="5.78723">
        <ele>68.0</ele>
      </trkpt>
      <trkpt lat="50.86828" lon="5.78651">
        <ele>67.0</ele>
      </trkpt>
      <trkpt lat="50.8688" lon="5.78389">
        <ele>69.0</ele>
      </trkpt>
      <trkpt lat="50.8686" lon="5.78347">
        <ele>70.0</ele>
      </trkpt>
      <trkpt lat="50.8678" lon="5.78343">
        <ele>75.0</ele>
      </trkpt>
      <trkpt lat="50.86602" lon="5.78278">
        <ele>91.0</ele>
      </trkpt>
      <trkpt lat="50.86328" lon="5.77886">
        <ele>109.0</ele>
      </trkpt>
      <trkpt lat="50.86347" lon="5.7782">
        <ele>113.0</ele>
      </trkpt>
      <trkpt lat="50.86416" lon="5.77679">
        <ele>120.0</ele>
      </trkpt>
      <trkpt lat="50.86437" lon="5.77561">
        <ele>120.0</ele>
      </trkpt>
      <trkpt lat="50.86461" lon="5.77516">
        <ele>120.0</ele>
      </trkpt>
      <trkpt lat="50.86444" lon="5.7743">
        <ele>120.0</ele>
      </trkpt>
      <trkpt lat="50.86467" lon="5.77279">
        <ele>120.0</ele>
      </trkpt>
      <trkpt lat="50.86559" lon="5.76911">
        <ele>116.0</ele>
      </trkpt>
      <trkpt lat="50.86572" lon="5.76803">
        <ele>115.0</ele>
      </trkpt>
      <trkpt lat="50.86553" lon="5.76646">
        <ele>113.0</ele>
      </trkpt>
      <trkpt lat="50.86502" lon="5.7644">
        <ele>109.0</ele>
      </trkpt>
      <trkpt lat="50.86433" lon="5.76282">
        <ele>105.0</ele>
      </trkpt>
      <trkpt lat="50.86429" lon="5.76105">
        <ele>97.0</ele>
      </trkpt>
      <trkpt lat="50.86388" lon="5.75829">
        <ele>85.0</ele>
      </trkpt>
      <trkpt lat="50.86342" lon="5.7565">
        <ele>78.0</ele>
      </trkpt>
      <trkpt lat="50.86312" lon="5.75578">
        <ele>75.0</ele>
      </trkpt>
      <trkpt lat="50.86187" lon="5.74963">
        <ele>62.0</ele>
      </trkpt>
      <trkpt lat="50.86174" lon="5.74543">
        <ele>60.0</ele>
      </trkpt>
      <trkpt lat="50.86211" lon="5.74325">
        <ele>58.0</ele>
      </trkpt>
      <trkpt lat="50.86215" lon="5.74209">
        <ele>56.0</ele>
      </trkpt>
      <trkpt lat="50.86211" lon="5.74017">
        <ele>55.0</ele>
      </trkpt>
      <trkpt lat="50.86186" lon="5.73879">
        <ele>56.0</ele>
      </trkpt>
      <trkpt lat="50.86094" lon="5.73902">
        <ele>56.0</ele>
      </trkpt>
      <trkpt lat="50.85652" lon="5.73874">
        <ele>56.0</ele>
      </trkpt>
      <trkpt lat="50.85441" lon="5.74242">
        <ele>56.0</ele>
      </trkpt>
      <trkpt lat="50.85173" lon="5.74512">
        <ele>60.0</ele>
      </trkpt>
      <trkpt lat="50.85055" lon="5.746">
        <ele>61.0</ele>
      </trkpt>
      <trkpt lat="50.85031" lon="5.74694">
        <ele>61.0</ele>
      </trkpt>
      <trkpt lat="50.84857" lon="5.75074">
        <ele>63.0</ele>
      </trkpt>
      <trkpt lat="50.84733" lon="5.75251">
        <ele>75.0</ele>
      </trkpt>
      <trkpt lat="50.84727" lon="5.75554">
        <ele>76.0</ele>
      </trkpt>
      <trkpt lat="50.84701" lon="5.75831">
        <ele>76.0</ele>
      </trkpt>
      <trkpt lat="50.84759" lon="5.76272">
        <ele>79.0</ele>
      </trkpt>
      <trkpt lat="50.8475" lon="5.76522">
        <ele>77.0</ele>
      </trkpt>
      <trkpt lat="50.84773" lon="5.76638">
        <ele>79.0</ele>
      </trkpt>
      <trkpt lat="50.84806" lon="5.76722">
        <ele>85.0</ele>
      </trkpt>
      <trkpt lat="50.84775" lon="5.76818">
        <ele>91.0</ele>
      </trkpt>
      <trkpt lat="50.84792" lon="5.76881">
        <ele>93.0</ele>
      </trkpt>
      <trkpt lat="50.84847" lon="5.76891">
        <ele>93.0</ele>
      </trkpt>
      <trkpt lat="50.84884" lon="5.77013">
        <ele>94.0</ele>
      </trkpt>
      <trkpt lat="50.84856" lon="5.77048">
        <ele>97.0</ele>
      </trkpt>
      <trkpt lat="50.84793" lon="5.76973">
        <ele>103.0</ele>
      </trkpt>
      <trkpt lat="50.8474" lon="5.76969">
        <ele>106.0</ele>
      </trkpt>
      <trkpt lat="50.84685" lon="5.76994">
        <ele>110.0</ele>
      </trkpt>
      <trkpt lat="50.84624" lon="5.77205">
        <ele>120.0</ele>
      </trkpt>
      <trkpt lat="50.84537" lon="5.77392">
        <ele>119.0</ele>
      </trkpt>
      <trkpt lat="50.84498" lon="5.77562">
        <ele>120.0</ele>
      </trkpt>
      <trkpt lat="50.84397" lon="5.78271">
        <ele>131.0</ele>
      </trkpt>
      <trkpt lat="50.84385" lon="5.78501">
        <ele>137.0</ele>
      </trkpt>
      <trkpt lat="50.84284" lon="5.79079">
        <ele>141.0</ele>
      </trkpt>
      <trkpt lat="50.84267" lon="5.79253">
        <ele>141.0</ele>
      </trkpt>
      <trkpt lat="50.84125" lon="5.79789">
        <ele>145.0</ele>
      </trkpt>
      <trkpt lat="50.84094" lon="5.80584">
        <ele>148.0</ele>
      </trkpt>
      <trkpt lat="50.84102" lon="5.80653">
        <ele>148.0</ele>
      </trkpt>
      <trkpt lat="50.84151" lon="5.8079">
        <ele>149.0</ele>
      </trkpt>
      <trkpt lat="50.84355" lon="5.81006">
        <ele>150.0</ele>
      </trkpt>
      <trkpt lat="50.84612" lon="5.81523">
        <ele>152.0</ele>
      </trkpt>
      <trkpt lat="50.84675" lon="5.81613">
        <ele>152.0</ele>
      </trkpt>
      <trkpt lat="50.84715" lon="5.81698">
        <ele>152.0</ele>
      </trkpt>
      <trkpt lat="50.84779" lon="5.81768">
        <ele>152.0</ele>
      </trkpt>
      <trkpt lat="50.84779" lon="5.8179">
        <ele>151.0</ele>
      </trkpt>
      <trkpt lat="50.84795" lon="5.81787">
        <ele>151.0</ele>
      </trkpt>
      <trkpt lat="50.85099" lon="5.8209">
        <ele>147.0</ele>
      </trkpt>
      <trkpt lat="50.85226" lon="5.82141">
        <ele>144.0</ele>
      </trkpt>
      <trkpt lat="50.85272" lon="5.82176">
        <ele>142.0</ele>
      </trkpt>
      <trkpt lat="50.85332" lon="5.82249">
        <ele>140.0</ele>
      </trkpt>
      <trkpt lat="50.85439" lon="5.82433">
        <ele>137.0</ele>
      </trkpt>
      <trkpt lat="50.85659" lon="5.82577">
        <ele>123.0</ele>
      </trkpt>
      <trkpt lat="50.85746" lon="5.82698">
        <ele>113.0</ele>
      </trkpt>
      <trkpt lat="50.85836" lon="5.82787">
        <ele>108.0</ele>
      </trkpt>
      <trkpt lat="50.85989" lon="5.83019">
        <ele>94.0</ele>
      </trkpt>
      <trkpt lat="50.86068" lon="5.83031">
        <ele>91.0</ele>
      </trkpt>
      <trkpt lat="50.86253" lon="5.82965">
        <ele>83.0</ele>
      </trkpt>
      <trkpt lat="50.86131" lon="5.82557">
        <ele>107.0</ele>
      </trkpt>
      <trkpt lat="50.86113" lon="5.82387">
        <ele>125.0</ele>
      </trkpt>
      <trkpt lat="50.86057" lon="5.82323">
        <ele>130.0</ele>
      </trkpt>
      <trkpt lat="50.85713" lon="5.82129">
        <ele>133.0</ele>
      </trkpt>
      <trkpt lat="50.85668" lon="5.82065">
        <ele>134.0</ele>
      </trkpt>
      <trkpt lat="50.85652" lon="5.81987">
        <ele>137.0</ele>
      </trkpt>
      <trkpt lat="50.85689" lon="5.81646">
        <ele>140.0</ele>
      </trkpt>
      <trkpt lat="50.85698" lon="5.81338">
        <ele>135.0</ele>
      </trkpt>
      <trkpt lat="50.85782" lon="5.80663">
        <ele>131.0</ele>
      </trkpt>
      <trkpt lat="50.85876" lon="5.79596">
        <ele>126.0</ele>
      </trkpt>
      <trkpt lat="50.86057" lon="5.79724">
        <ele>125.0</ele>
      </trkpt>
      <trkpt lat="50.86115" lon="5.79533">
        <ele>126.0</ele>
      </trkpt>
      <trkpt lat="50.86137" lon="5.79182">
        <ele>126.0</ele>
      </trkpt>
      <trkpt lat="50.86519" lon="5.79044">
        <ele>103.0</ele>
      </trkpt>
      <trkpt lat="50.86638" lon="5.7909">
        <ele>86.0</ele>
      </trkpt>
      <trkpt lat="50.86721" lon="5.79094">
        <ele>69.0</ele>
      </trkpt>
      <trkpt lat="50.86732" lon="5.79067">
        <ele>69.0</ele>
      </trkpt>
      <trkpt lat="50.86734" lon="5.78949">
        <ele>70.0</ele>
      </trkpt>
      <trkpt lat="50.86756" lon="5.78852">
        <ele>70.0</ele>
      </trkpt>
      <trkpt lat="50.86829" lon="5.78723">
        <ele>68.0</ele>
      </trkpt>
      <trkpt lat="50.86828" lon="5.78651">
        <ele>67.0</ele>
      </trkpt>
      <trkpt lat="50.8688" lon="5.78389">
        <ele>69.0</ele>
      </trkpt>
      <trkpt lat="50.8686" lon="5.78347">
        <ele>70.0</ele>
      </trkpt>
      <trkpt lat="50.8678" lon="5.78343">
        <ele>75.0</ele>
      </trkpt>
      <trkpt lat="50.86602" lon="5.78278">
        <ele>92.0</ele>
      </trkpt>
      <trkpt lat="50.86328" lon="5.77886">
        <ele>109.0</ele>
      </trkpt>
      <trkpt lat="50.86347" lon="5.7782">
        <ele>113.0</ele>
      </trkpt>
      <trkpt lat="50.86406" lon="5.77707">
        <ele>117.0</ele>
      </trkpt>
      <trkpt lat="50.86437" lon="5.77561">
        <ele>120.0</ele>
      </trkpt>
      <trkpt lat="50.86461" lon="5.77516">
        <ele>120.0</ele>
      </trkpt>
      <trkpt lat="50.86444" lon="5.7743">
        <ele>120.0</ele>
      </trkpt>
      <trkpt lat="50.86467" lon="5.77279">
        <ele>120.0</ele>
      </trkpt>
      <trkpt lat="50.86559" lon="5.76911">
        <ele>116.0</ele>
      </trkpt>
      <trkpt lat="50.86572" lon="5.76803">
        <ele>115.0</ele>
      </trkpt>
      <trkpt lat="50.86553" lon="5.76646">
        <ele>113.0</ele>
      </trkpt>
      <trkpt lat="50.86502" lon="5.7644">
        <ele>109.0</ele>
      </trkpt>
      <trkpt lat="50.86433" lon="5.76282">
        <ele>105.0</ele>
      </trkpt>
      <trkpt lat="50.86429" lon="5.76105">
        <ele>97.0</ele>
      </trkpt>
      <trkpt lat="50.86388" lon="5.75829">
        <ele>85.0</ele>
      </trkpt>
      <trkpt lat="50.86342" lon="5.7565">
        <ele>78.0</ele>
      </trkpt>
      <trkpt lat="50.86312" lon="5.75578">
        <ele>75.0</ele>
      </trkpt>
      <trkpt lat="50.86187" lon="5.74963">
        <ele>62.0</ele>
      </trkpt>
      <trkpt lat="50.86174" lon="5.74543">
        <ele>60.0</ele>
      </trkpt>
      <trkpt lat="50.86211" lon="5.74325">
        <ele>58.0</ele>
      </trkpt>
      <trkpt lat="50.86215" lon="5.74209">
        <ele>56.0</ele>
      </trkpt>
      <trkpt lat="50.86211" lon="5.74017">
        <ele>55.0</ele>
      </trkpt>
      <trkpt lat="50.86186" lon="5.73879">
        <ele>56.0</ele>
      </trkpt>
      <trkpt lat="50.86094" lon="5.73902">
        <ele>56.0</ele>
      </trkpt>
      <trkpt lat="50.85652" lon="5.73874">
        <ele>56.0</ele>
      </trkpt>
      <trkpt lat="50.85441" lon="5.74242">
        <ele>56.0</ele>
      </trkpt>
      <trkpt lat="50.85173" lon="5.74512">
        <ele>60.0</ele>
      </trkpt>
      <trkpt lat="50.85055" lon="5.746">
        <ele>61.0</ele>
      </trkpt>
      <trkpt lat="50.85031" lon="5.74694">
        <ele>61.0</ele>
      </trkpt>
      <trkpt lat="50.84857" lon="5.75074">
        <ele>63.0</ele>
      </trkpt>
      <trkpt lat="50.84733" lon="5.75251">
        <ele>75.0</ele>
      </trkpt>
      <trkpt lat="50.84727" lon="5.75554">
        <ele>76.0</ele>
      </trkpt>
      <trkpt lat="50.84701" lon="5.75831">
        <ele>76.0</ele>
      </trkpt>
      <trkpt lat="50.84759" lon="5.76272">
        <ele>79.0</ele>
      </trkpt>
      <trkpt lat="50.8475" lon="5.76522">
        <ele>77.0</ele>
      </trkpt>
      <trkpt lat="50.84773" lon="5.76638">
        <ele>79.0</ele>
      </trkpt>
      <trkpt lat="50.84806" lon="5.76722">
        <ele>85.0</ele>
      </trkpt>
      <trkpt lat="50.84775" lon="5.76818">
        <ele>91.0</ele>
      </trkpt>
      <trkpt lat="50.84792" lon="5.76881">
        <ele>93.0</ele>
      </trkpt>
      <trkpt lat="50.84847" lon="5.76891">
        <ele>93.0</ele>
      </trkpt>
      <trkpt lat="50.84884" lon="5.77013">
        <ele>94.0</ele>
      </trkpt>
      <trkpt lat="50.84856" lon="5.77048">
        <ele>97.0</ele>
      </trkpt>
      <trkpt lat="50.84793" lon="5.76973">
        <ele>103.0</ele>
      </trkpt>
      <trkpt lat="50.8474" lon="5.76969">
        <ele>106.0</ele>
      </trkpt>
      <trkpt lat="50.84685" lon="5.76994">
        <ele>110.0</ele>
      </trkpt>
      <trkpt lat="50.84624" lon="5.77205">
        <ele>120.0</ele>
      </trkpt>
      <trkpt lat="50.84533" lon="5.77405">
        <ele>119.0</ele>
      </trkpt>
      <trkpt lat="50.84478" lon="5.77672">
        <ele>121.0</ele>
      </trkpt>
      <trkpt lat="50.84397" lon="5.78271">
        <ele>131.0</ele>
      </trkpt>
      <trkpt lat="50.84385" lon="5.78501">
        <ele>137.0</ele>
      </trkpt>
      <trkpt lat="50.84301" lon="5.78988">
        <ele>141.0</ele>
      </trkpt>
      <trkpt lat="50.84457" lon="5.78968">
        <ele>137.0</ele>
      </trkpt>
      <trkpt lat="50.84522" lon="5.79">
        <ele>135.0</ele>
      </trkpt>
      <trkpt lat="50.84591" lon="5.78894">
        <ele>134.0</ele>
      </trkpt>
      <trkpt lat="50.84655" lon="5.78843">
        <ele>133.0</ele>
      </trkpt>
      <trkpt lat="50.84969" lon="5.78728">
        <ele>129.0</ele>
      </trkpt>
      <trkpt lat="50.85313" lon="5.78542">
        <ele>124.0</ele>
      </trkpt>
      <trkpt lat="50.85327" lon="5.78556">
        <ele>124.0</ele>
      </trkpt>
      <trkpt lat="50.85379" lon="5.78767">
        <ele>122.0</ele>
      </trkpt>
      <trkpt lat="50.85394" lon="5.78903">
        <ele>117.0</ele>
      </trkpt>
      <trkpt lat="50.85424" lon="5.78999">
        <ele>115.0</ele>
      </trkpt>
      <trkpt lat="50.85576" lon="5.79133">
        <ele>111.0</ele>
      </trkpt>
      <trkpt lat="50.85629" lon="5.79214">
        <ele>111.0</ele>
      </trkpt>
      <trkpt lat="50.8564" lon="5.79365">
        <ele>112.0</ele>
      </trkpt>
      <trkpt lat="50.85635" lon="5.79498">
        <ele>113.0</ele>
      </trkpt>
      <trkpt lat="50.85533" lon="5.79745">
        <ele>114.0</ele>
      </trkpt>
      <trkpt lat="50.85517" lon="5.79771">
        <ele>114.0</ele>
      </trkpt>
      <trkpt lat="50.85478" lon="5.79764">
        <ele>114.0</ele>
      </trkpt>
      <trkpt lat="50.85438" lon="5.7979">
        <ele>115.0</ele>
      </trkpt>
      <trkpt lat="50.85313" lon="5.7993">
        <ele>119.0</ele>
      </trkpt>
      <trkpt lat="50.85155" lon="5.80198">
        <ele>123.0</ele>
      </trkpt>
      <trkpt lat="50.85131" lon="5.80263">
        <ele>125.0</ele>
      </trkpt>
      <trkpt lat="50.85131" lon="5.80346">
        <ele>127.0</ele>
      </trkpt>
      <trkpt lat="50.8515" lon="5.80463">
        <ele>128.0</ele>
      </trkpt>
      <trkpt lat="50.85259" lon="5.80787">
        <ele>131.0</ele>
      </trkpt>
      <trkpt lat="50.8538" lon="5.81235">
        <ele>135.0</ele>
      </trkpt>
      <trkpt lat="50.85158" lon="5.81445">
        <ele>140.0</ele>
      </trkpt>
      <trkpt lat="50.84938" lon="5.81509">
        <ele>145.0</ele>
      </trkpt>
      <trkpt lat="50.84776" lon="5.81779">
        <ele>151.0</ele>
      </trkpt>
      <trkpt lat="50.85099" lon="5.8209">
        <ele>147.0</ele>
      </trkpt>
      <trkpt lat="50.85226" lon="5.82141">
        <ele>144.0</ele>
      </trkpt>
      <trkpt lat="50.85272" lon="5.82176">
        <ele>142.0</ele>
      </trkpt>
      <trkpt lat="50.85332" lon="5.82249">
        <ele>140.0</ele>
      </trkpt>
      <trkpt lat="50.85439" lon="5.82433">
        <ele>137.0</ele>
      </trkpt>
      <trkpt lat="50.85659" lon="5.82577">
        <ele>123.0</ele>
      </trkpt>
      <trkpt lat="50.85746" lon="5.82698">
        <ele>113.0</ele>
      </trkpt>
      <trkpt lat="50.85836" lon="5.82787">
        <ele>108.0</ele>
      </trkpt>
      <trkpt lat="50.85989" lon="5.83019">
        <ele>94.0</ele>
      </trkpt>
      <trkpt lat="50.86068" lon="5.83031">
        <ele>91.0</ele>
      </trkpt>
      <trkpt lat="50.86253" lon="5.82965">
        <ele>83.0</ele>
      </trkpt>
      <trkpt lat="50.86131" lon="5.82557">
        <ele>107.0</ele>
      </trkpt>
      <trkpt lat="50.86113" lon="5.82387">
        <ele>125.0</ele>
      </trkpt>
      <trkpt lat="50.86057" lon="5.82323">
        <ele>130.0</ele>
      </trkpt>
      <trkpt lat="50.85713" lon="5.82129">
        <ele>133.0</ele>
      </trkpt>
      <trkpt lat="50.85668" lon="5.82065">
        <ele>134.0</ele>
      </trkpt>
      <trkpt lat="50.85652" lon="5.81987">
        <ele>137.0</ele>
      </trkpt>
      <trkpt lat="50.85689" lon="5.81646">
        <ele>140.0</ele>
      </trkpt>
      <trkpt lat="50.85698" lon="5.81338">
        <ele>135.0</ele>
      </trkpt>
      <trkpt lat="50.85782" lon="5.80663">
        <ele>131.0</ele>
      </trkpt>
      <trkpt lat="50.85858" lon="5.79802">
        <ele>127.0</ele>
      </trkpt>
    </trkseg>
  </trk>
</gpx>