<?xml version="1.0" encoding="UTF-8"?>
<gpx xmlns="http://www.topografix.com/GPX/1/0" xmlns:xsi="http://www.w3.org/2001/XMLSchema-instance" xsi:schemaLocation="http://www.topografix.com/GPX/1/0 http://www.topografix.com/GPX/1/0/gpx.xsd" version="1.0" creator="GPSBabel - https://www.gpsbabel.org">
  <time>2026-04-03T15:15:33.560000Z</time>
  <bounds minlat="50.74799" maxlat="50.99439" minlon="5.69978" maxlon="6.02127" />
  <trk>
    <trkseg>
      <trkpt lat="50.8655" lon="5.69992">
        <ele>45.0</ele>
      </trkpt>
      <trkpt lat="50.86923" lon="5.70049">
        <ele>43.0</ele>
      </trkpt>
      <trkpt lat="50.86947" lon="5.70053">
        <ele>43.0</ele>
      </trkpt>
      <trkpt lat="50.87608" lon="5.70589">
        <ele>47.0</ele>
      </trkpt>
      <trkpt lat="50.87449" lon="5.71458">
        <ele>47.0</ele>
      </trkpt>
      <trkpt lat="50.87473" lon="5.71524">
        <ele>46.0</ele>
      </trkpt>
      <trkpt lat="50.87924" lon="5.7183">
        <ele>47.0</ele>
      </trkpt>
      <trkpt lat="50.8843" lon="5.72348">
        <ele>45.0</ele>
      </trkpt>
      <trkpt lat="50.8855" lon="5.72793">
        <ele>45.0</ele>
      </trkpt>
      <trkpt lat="50.88588" lon="5.72792">
        <ele>46.0</ele>
      </trkpt>
      <trkpt lat="50.89054" lon="5.72539">
        <ele>47.0</ele>
      </trkpt>
      <trkpt lat="50.89211" lon="5.72663">
        <ele>48.0</ele>
      </trkpt>
      <trkpt lat="50.89339" lon="5.72588">
        <ele>47.0</ele>
      </trkpt>
      <trkpt lat="50.89644" lon="5.72202">
        <ele>45.0</ele>
      </trkpt>
      <trkpt lat="50.89824" lon="5.7227">
        <ele>45.0</ele>
      </trkpt>
      <trkpt lat="50.90199" lon="5.72477">
        <ele>44.0</ele>
      </trkpt>
      <trkpt lat="50.90592" lon="5.72367">
        <ele>44.0</ele>
      </trkpt>
      <trkpt lat="50.91024" lon="5.72712">
        <ele>40.0</ele>
      </trkpt>
      <trkpt lat="50.92215" lon="5.73896">
        <ele>43.0</ele>
      </trkpt>
      <trkpt lat="50.92331" lon="5.74295">
        <ele>47.0</ele>
      </trkpt>
      <trkpt lat="50.92341" lon="5.75081">
        <ele>49.0</ele>
      </trkpt>
      <trkpt lat="50.92693" lon="5.7502">
        <ele>52.0</ele>
      </trkpt>
      <trkpt lat="50.92981" lon="5.74918">
        <ele>48.0</ele>
      </trkpt>
      <trkpt lat="50.93222" lon="5.74768">
        <ele>43.0</ele>
      </trkpt>
      <trkpt lat="50.94563" lon="5.75445">
        <ele>45.0</ele>
      </trkpt>
      <trkpt lat="50.94772" lon="5.75796">
        <ele>50.0</ele>
      </trkpt>
      <trkpt lat="50.94689" lon="5.76117">
        <ele>60.0</ele>
      </trkpt>
      <trkpt lat="50.94699" lon="5.76375">
        <ele>64.0</ele>
      </trkpt>
      <trkpt lat="50.94656" lon="5.77012">
        <ele>70.0</ele>
      </trkpt>
      <trkpt lat="50.94681" lon="5.77428">
        <ele>73.0</ele>
      </trkpt>
      <trkpt lat="50.94739" lon="5.7756">
        <ele>74.0</ele>
      </trkpt>
      <trkpt lat="50.94803" lon="5.78252">
        <ele>70.0</ele>
      </trkpt>
      <trkpt lat="50.94819" lon="5.78314">
        <ele>70.0</ele>
      </trkpt>
      <trkpt lat="50.95294" lon="5.78517">
        <ele>68.0</ele>
      </trkpt>
      <trkpt lat="50.95516" lon="5.78584">
        <ele>69.0</ele>
      </trkpt>
      <trkpt lat="50.96073" lon="5.78564">
        <ele>68.0</ele>
      </trkpt>
      <trkpt lat="50.96295" lon="5.78571">
        <ele>66.0</ele>
      </trkpt>
      <trkpt lat="50.96584" lon="5.78431">
        <ele>67.0</ele>
      </trkpt>
      <trkpt lat="50.96908" lon="5.78355">
        <ele>69.0</ele>
      </trkpt>
      <trkpt lat="50.97258" lon="5.78572">
        <ele>67.0</ele>
      </trkpt>
      <trkpt lat="50.97449" lon="5.78589">
        <ele>61.0</ele>
      </trkpt>
      <trkpt lat="50.97612" lon="5.78467">
        <ele>59.0</ele>
      </trkpt>
      <trkpt lat="50.97844" lon="5.78325">
        <ele>61.0</ele>
      </trkpt>
      <trkpt lat="50.98053" lon="5.78181">
        <ele>56.0</ele>
      </trkpt>
      <trkpt lat="50.98348" lon="5.78137">
        <ele>56.0</ele>
      </trkpt>
      <trkpt lat="50.98735" lon="5.7817">
        <ele>56.0</ele>
      </trkpt>
      <trkpt lat="50.9877" lon="5.78179">
        <ele>56.0</ele>
      </trkpt>
      <trkpt lat="50.99008" lon="5.78258">
        <ele>56.0</ele>
      </trkpt>
      <trkpt lat="50.99041" lon="5.78554">
        <ele>56.0</ele>
      </trkpt>
      <trkpt lat="50.99011" lon="5.79393">
        <ele>59.0</ele>
      </trkpt>
      <trkpt lat="50.99229" lon="5.81229">
        <ele>60.0</ele>
      </trkpt>
      <trkpt lat="50.99197" lon="5.8251">
        <ele>56.0</ele>
      </trkpt>
      <trkpt lat="50.99383" lon="5.83537">
        <ele>59.0</ele>
      </trkpt>
      <trkpt lat="50.99269" lon="5.83794">
        <ele>60.0</ele>
      </trkpt>
      <trkpt lat="50.98652" lon="5.84119">
        <ele>56.0</ele>
      </trkpt>
      <trkpt lat="50.98589" lon="5.84081">
        <ele>58.0</ele>
      </trkpt>
      <trkpt lat="50.98567" lon="5.83945">
        <ele>60.0</ele>
      </trkpt>
      <trkpt lat="50.98476" lon="5.83822">
        <ele>60.0</ele>
      </trkpt>
      <trkpt lat="50.98163" lon="5.83363">
        <ele>62.0</ele>
      </trkpt>
      <trkpt lat="50.9749" lon="5.82449">
        <ele>63.0</ele>
      </trkpt>
      <trkpt lat="50.97163" lon="5.82024">
        <ele>68.0</ele>
      </trkpt>
      <trkpt lat="50.96628" lon="5.81309">
        <ele>69.0</ele>
      </trkpt>
      <trkpt lat="50.9651" lon="5.81231">
        <ele>74.0</ele>
      </trkpt>
      <trkpt lat="50.96449" lon="5.81258">
        <ele>73.0</ele>
      </trkpt>
      <trkpt lat="50.9616" lon="5.81415">
        <ele>68.0</ele>
      </trkpt>
      <trkpt lat="50.95867" lon="5.81729">
        <ele>63.0</ele>
      </trkpt>
      <trkpt lat="50.95785" lon="5.82019">
        <ele>64.0</ele>
      </trkpt>
      <trkpt lat="50.95764" lon="5.82369">
        <ele>65.0</ele>
      </trkpt>
      <trkpt lat="50.95798" lon="5.82736">
        <ele>64.0</ele>
      </trkpt>
      <trkpt lat="50.95898" lon="5.83002">
        <ele>62.0</ele>
      </trkpt>
      <trkpt lat="50.95954" lon="5.83307">
        <ele>62.0</ele>
      </trkpt>
      <trkpt lat="50.95452" lon="5.83408">
        <ele>60.0</ele>
      </trkpt>
      <trkpt lat="50.94808" lon="5.83768">
        <ele>62.0</ele>
      </trkpt>
      <trkpt lat="50.94619" lon="5.83822">
        <ele>63.0</ele>
      </trkpt>
      <trkpt lat="50.94347" lon="5.84083">
        <ele>64.0</ele>
      </trkpt>
      <trkpt lat="50.93848" lon="5.84635">
        <ele>73.0</ele>
      </trkpt>
      <trkpt lat="50.93602" lon="5.84464">
        <ele>78.0</ele>
      </trkpt>
      <trkpt lat="50.93193" lon="5.84104">
        <ele>88.0</ele>
      </trkpt>
      <trkpt lat="50.92896" lon="5.83814">
        <ele>93.0</ele>
      </trkpt>
      <trkpt lat="50.92573" lon="5.83675">
        <ele>103.0</ele>
      </trkpt>
      <trkpt lat="50.92086" lon="5.83569">
        <ele>120.0</ele>
      </trkpt>
      <trkpt lat="50.91633" lon="5.83259">
        <ele>123.0</ele>
      </trkpt>
      <trkpt lat="50.91331" lon="5.82822">
        <ele>123.0</ele>
      </trkpt>
      <trkpt lat="50.90905" lon="5.82654">
        <ele>125.0</ele>
      </trkpt>
      <trkpt lat="50.90612" lon="5.83354">
        <ele>133.0</ele>
      </trkpt>
      <trkpt lat="50.90497" lon="5.84126">
        <ele>124.0</ele>
      </trkpt>
      <trkpt lat="50.90467" lon="5.8476">
        <ele>110.0</ele>
      </trkpt>
      <trkpt lat="50.90111" lon="5.85233">
        <ele>117.0</ele>
      </trkpt>
      <trkpt lat="50.9001" lon="5.85252">
        <ele>120.0</ele>
      </trkpt>
      <trkpt lat="50.89794" lon="5.85213">
        <ele>123.0</ele>
      </trkpt>
      <trkpt lat="50.89705" lon="5.85113">
        <ele>123.0</ele>
      </trkpt>
      <trkpt lat="50.89304" lon="5.85499">
        <ele>128.0</ele>
      </trkpt>
      <trkpt lat="50.89171" lon="5.85548">
        <ele>133.0</ele>
      </trkpt>
      <trkpt lat="50.89096" lon="5.85905">
        <ele>129.0</ele>
      </trkpt>
      <trkpt lat="50.88997" lon="5.86185">
        <ele>119.0</ele>
      </trkpt>
      <trkpt lat="50.88908" lon="5.86241">
        <ele>114.0</ele>
      </trkpt>
      <trkpt lat="50.88655" lon="5.86329">
        <ele>127.0</ele>
      </trkpt>
      <trkpt lat="50.88201" lon="5.86202">
        <ele>138.0</ele>
      </trkpt>
      <trkpt lat="50.87926" lon="5.86288">
        <ele>129.0</ele>
      </trkpt>
      <trkpt lat="50.87708" lon="5.86402">
        <ele>114.0</ele>
      </trkpt>
      <trkpt lat="50.87809" lon="5.8686">
        <ele>115.0</ele>
      </trkpt>
      <trkpt lat="50.87903" lon="5.87599">
        <ele>138.0</ele>
      </trkpt>
      <trkpt lat="50.87808" lon="5.88201">
        <ele>136.0</ele>
      </trkpt>
      <trkpt lat="50.8778" lon="5.88623">
        <ele>129.0</ele>
      </trkpt>
      <trkpt lat="50.87888" lon="5.8984">
        <ele>102.0</ele>
      </trkpt>
      <trkpt lat="50.87923" lon="5.90217">
        <ele>95.0</ele>
      </trkpt>
      <trkpt lat="50.87929" lon="5.9046">
        <ele>92.0</ele>
      </trkpt>
      <trkpt lat="50.87886" lon="5.90703">
        <ele>93.0</ele>
      </trkpt>
      <trkpt lat="50.87734" lon="5.91195">
        <ele>90.0</ele>
      </trkpt>
      <trkpt lat="50.87589" lon="5.91508">
        <ele>92.0</ele>
      </trkpt>
      <trkpt lat="50.87613" lon="5.91817">
        <ele>93.0</ele>
      </trkpt>
      <trkpt lat="50.87619" lon="5.92232">
        <ele>93.0</ele>
      </trkpt>
      <trkpt lat="50.87589" lon="5.92791">
        <ele>95.0</ele>
      </trkpt>
      <trkpt lat="50.87592" lon="5.93295">
        <ele>98.0</ele>
      </trkpt>
      <trkpt lat="50.87203" lon="5.93488">
        <ele>113.0</ele>
      </trkpt>
      <trkpt lat="50.86564" lon="5.93831">
        <ele>153.0</ele>
      </trkpt>
      <trkpt lat="50.85985" lon="5.94108">
        <ele>169.0</ele>
      </trkpt>
      <trkpt lat="50.85603" lon="5.94386">
        <ele>181.0</ele>
      </trkpt>
      <trkpt lat="50.85381" lon="5.94442">
        <ele>184.0</ele>
      </trkpt>
      <trkpt lat="50.85359" lon="5.94318">
        <ele>182.0</ele>
      </trkpt>
      <trkpt lat="50.85377" lon="5.94113">
        <ele>178.0</ele>
      </trkpt>
      <trkpt lat="50.85335" lon="5.93984">
        <ele>176.0</ele>
      </trkpt>
      <trkpt lat="50.85217" lon="5.93736">
        <ele>176.0</ele>
      </trkpt>
      <trkpt lat="50.85112" lon="5.937">
        <ele>171.0</ele>
      </trkpt>
      <trkpt lat="50.85046" lon="5.93696">
        <ele>168.0</ele>
      </trkpt>
      <trkpt lat="50.84968" lon="5.93641">
        <ele>162.0</ele>
      </trkpt>
      <trkpt lat="50.84635" lon="5.93761">
        <ele>174.0</ele>
      </trkpt>
      <trkpt lat="50.84169" lon="5.93996">
        <ele>191.0</ele>
      </trkpt>
      <trkpt lat="50.84297" lon="5.94358">
        <ele>196.0</ele>
      </trkpt>
      <trkpt lat="50.84446" lon="5.9465">
        <ele>201.0</ele>
      </trkpt>
      <trkpt lat="50.84483" lon="5.9485">
        <ele>204.0</ele>
      </trkpt>
      <trkpt lat="50.8452" lon="5.95276">
        <ele>207.0</ele>
      </trkpt>
      <trkpt lat="50.8458" lon="5.95629">
        <ele>202.0</ele>
      </trkpt>
      <trkpt lat="50.84483" lon="5.96052">
        <ele>198.0</ele>
      </trkpt>
      <trkpt lat="50.84443" lon="5.96485">
        <ele>198.0</ele>
      </trkpt>
      <trkpt lat="50.84514" lon="5.96817">
        <ele>204.0</ele>
      </trkpt>
      <trkpt lat="50.84495" lon="5.96957">
        <ele>208.0</ele>
      </trkpt>
      <trkpt lat="50.84299" lon="5.97371">
        <ele>210.0</ele>
      </trkpt>
      <trkpt lat="50.83954" lon="5.97484">
        <ele>184.0</ele>
      </trkpt>
      <trkpt lat="50.8376" lon="5.9771">
        <ele>158.0</ele>
      </trkpt>
      <trkpt lat="50.83519" lon="5.97831">
        <ele>139.0</ele>
      </trkpt>
      <trkpt lat="50.83539" lon="5.9797">
        <ele>137.0</ele>
      </trkpt>
      <trkpt lat="50.83526" lon="5.98212">
        <ele>137.0</ele>
      </trkpt>
      <trkpt lat="50.83452" lon="5.98224">
        <ele>138.0</ele>
      </trkpt>
      <trkpt lat="50.83136" lon="5.98257">
        <ele>146.0</ele>
      </trkpt>
      <trkpt lat="50.83073" lon="5.98239">
        <ele>150.0</ele>
      </trkpt>
      <trkpt lat="50.827" lon="5.98146">
        <ele>166.0</ele>
      </trkpt>
      <trkpt lat="50.82464" lon="5.98089">
        <ele>170.0</ele>
      </trkpt>
      <trkpt lat="50.82344" lon="5.98118">
        <ele>170.0</ele>
      </trkpt>
      <trkpt lat="50.81909" lon="5.97995">
        <ele>174.0</ele>
      </trkpt>
      <trkpt lat="50.81513" lon="5.97813">
        <ele>178.0</ele>
      </trkpt>
      <trkpt lat="50.81014" lon="5.97027">
        <ele>163.0</ele>
      </trkpt>
      <trkpt lat="50.80582" lon="5.96316">
        <ele>121.0</ele>
      </trkpt>
      <trkpt lat="50.80458" lon="5.96103">
        <ele>121.0</ele>
      </trkpt>
      <trkpt lat="50.80504" lon="5.95996">
        <ele>121.0</ele>
      </trkpt>
      <trkpt lat="50.8054" lon="5.95929">
        <ele>121.0</ele>
      </trkpt>
      <trkpt lat="50.80706" lon="5.95625">
        <ele>121.0</ele>
      </trkpt>
      <trkpt lat="50.80787" lon="5.95386">
        <ele>119.0</ele>
      </trkpt>
      <trkpt lat="50.80818" lon="5.95229">
        <ele>120.0</ele>
      </trkpt>
      <trkpt lat="50.8091" lon="5.94195">
        <ele>123.0</ele>
      </trkpt>
      <trkpt lat="50.80948" lon="5.93779">
        <ele>116.0</ele>
      </trkpt>
      <trkpt lat="50.80977" lon="5.93431">
        <ele>110.0</ele>
      </trkpt>
      <trkpt lat="50.81007" lon="5.93083">
        <ele>106.0</ele>
      </trkpt>
      <trkpt lat="50.81144" lon="5.91621">
        <ele>98.0</ele>
      </trkpt>
      <trkpt lat="50.81266" lon="5.90996">
        <ele>94.0</ele>
      </trkpt>
      <trkpt lat="50.81448" lon="5.90531">
        <ele>91.0</ele>
      </trkpt>
      <trkpt lat="50.81534" lon="5.90402">
        <ele>91.0</ele>
      </trkpt>
      <trkpt lat="50.81666" lon="5.90295">
        <ele>92.0</ele>
      </trkpt>
      <trkpt lat="50.8173" lon="5.90193">
        <ele>95.0</ele>
      </trkpt>
      <trkpt lat="50.81759" lon="5.90033">
        <ele>97.0</ele>
      </trkpt>
      <trkpt lat="50.81726" lon="5.89871">
        <ele>95.0</ele>
      </trkpt>
      <trkpt lat="50.81612" lon="5.89543">
        <ele>94.0</ele>
      </trkpt>
      <trkpt lat="50.81539" lon="5.89346">
        <ele>94.0</ele>
      </trkpt>
      <trkpt lat="50.81435" lon="5.89021">
        <ele>96.0</ele>
      </trkpt>
      <trkpt lat="50.81233" lon="5.8823">
        <ele>115.0</ele>
      </trkpt>
      <trkpt lat="50.8106" lon="5.87549">
        <ele>136.0</ele>
      </trkpt>
      <trkpt lat="50.81048" lon="5.87127">
        <ele>146.0</ele>
      </trkpt>
      <trkpt lat="50.81186" lon="5.86695">
        <ele>159.0</ele>
      </trkpt>
      <trkpt lat="50.81272" lon="5.86367">
        <ele>172.0</ele>
      </trkpt>
      <trkpt lat="50.81482" lon="5.84863">
        <ele>181.0</ele>
      </trkpt>
      <trkpt lat="50.81626" lon="5.83849">
        <ele>174.0</ele>
      </trkpt>
      <trkpt lat="50.81665" lon="5.83571">
        <ele>172.0</ele>
      </trkpt>
      <trkpt lat="50.81693" lon="5.83468">
        <ele>171.0</ele>
      </trkpt>
      <trkpt lat="50.81691" lon="5.83401">
        <ele>170.0</ele>
      </trkpt>
      <trkpt lat="50.81756" lon="5.8294">
        <ele>168.0</ele>
      </trkpt>
      <trkpt lat="50.81829" lon="5.82425">
        <ele>168.0</ele>
      </trkpt>
      <trkpt lat="50.81876" lon="5.82085">
        <ele>173.0</ele>
      </trkpt>
      <trkpt lat="50.81804" lon="5.81838">
        <ele>170.0</ele>
      </trkpt>
      <trkpt lat="50.81735" lon="5.81771">
        <ele>165.0</ele>
      </trkpt>
      <trkpt lat="50.81551" lon="5.81484">
        <ele>156.0</ele>
      </trkpt>
      <trkpt lat="50.81447" lon="5.81275">
        <ele>153.0</ele>
      </trkpt>
      <trkpt lat="50.81271" lon="5.81181">
        <ele>156.0</ele>
      </trkpt>
      <trkpt lat="50.81081" lon="5.80967">
        <ele>162.0</ele>
      </trkpt>
      <trkpt lat="50.80973" lon="5.80815">
        <ele>162.0</ele>
      </trkpt>
      <trkpt lat="50.80976" lon="5.80481">
        <ele>153.0</ele>
      </trkpt>
      <trkpt lat="50.81035" lon="5.80255">
        <ele>144.0</ele>
      </trkpt>
      <trkpt lat="50.81265" lon="5.79935">
        <ele>145.0</ele>
      </trkpt>
      <trkpt lat="50.81491" lon="5.79708">
        <ele>146.0</ele>
      </trkpt>
      <trkpt lat="50.81609" lon="5.7955">
        <ele>143.0</ele>
      </trkpt>
      <trkpt lat="50.81731" lon="5.79438">
        <ele>140.0</ele>
      </trkpt>
      <trkpt lat="50.81843" lon="5.79291">
        <ele>134.0</ele>
      </trkpt>
      <trkpt lat="50.81943" lon="5.79258">
        <ele>126.0</ele>
      </trkpt>
      <trkpt lat="50.82041" lon="5.79093">
        <ele>128.0</ele>
      </trkpt>
      <trkpt lat="50.82123" lon="5.78873">
        <ele>131.0</ele>
      </trkpt>
      <trkpt lat="50.82203" lon="5.78681">
        <ele>127.0</ele>
      </trkpt>
      <trkpt lat="50.8227" lon="5.78317">
        <ele>123.0</ele>
      </trkpt>
      <trkpt lat="50.82299" lon="5.78183">
        <ele>123.0</ele>
      </trkpt>
      <trkpt lat="50.82389" lon="5.77878">
        <ele>126.0</ele>
      </trkpt>
      <trkpt lat="50.82489" lon="5.77679">
        <ele>128.0</ele>
      </trkpt>
      <trkpt lat="50.82579" lon="5.771">
        <ele>129.0</ele>
      </trkpt>
      <trkpt lat="50.82634" lon="5.76727">
        <ele>128.0</ele>
      </trkpt>
      <trkpt lat="50.8258" lon="5.76662">
        <ele>128.0</ele>
      </trkpt>
      <trkpt lat="50.82536" lon="5.76548">
        <ele>125.0</ele>
      </trkpt>
      <trkpt lat="50.82445" lon="5.76381">
        <ele>119.0</ele>
      </trkpt>
      <trkpt lat="50.82395" lon="5.76295">
        <ele>112.0</ele>
      </trkpt>
      <trkpt lat="50.82348" lon="5.76215">
        <ele>104.0</ele>
      </trkpt>
      <trkpt lat="50.82264" lon="5.76248">
        <ele>97.0</ele>
      </trkpt>
      <trkpt lat="50.82087" lon="5.76307">
        <ele>94.0</ele>
      </trkpt>
      <trkpt lat="50.81884" lon="5.76373">
        <ele>109.0</ele>
      </trkpt>
      <trkpt lat="50.81748" lon="5.76401">
        <ele>116.0</ele>
      </trkpt>
      <trkpt lat="50.81549" lon="5.76325">
        <ele>122.0</ele>
      </trkpt>
      <trkpt lat="50.8142" lon="5.76338">
        <ele>126.0</ele>
      </trkpt>
      <trkpt lat="50.81187" lon="5.76489">
        <ele>130.0</ele>
      </trkpt>
      <trkpt lat="50.80925" lon="5.76588">
        <ele>129.0</ele>
      </trkpt>
      <trkpt lat="50.80811" lon="5.76611">
        <ele>133.0</ele>
      </trkpt>
      <trkpt lat="50.80665" lon="5.76637">
        <ele>137.0</ele>
      </trkpt>
      <trkpt lat="50.80622" lon="5.76426">
        <ele>138.0</ele>
      </trkpt>
      <trkpt lat="50.80585" lon="5.7627">
        <ele>138.0</ele>
      </trkpt>
      <trkpt lat="50.80481" lon="5.76162">
        <ele>138.0</ele>
      </trkpt>
      <trkpt lat="50.80375" lon="5.76019">
        <ele>138.0</ele>
      </trkpt>
      <trkpt lat="50.79884" lon="5.76387">
        <ele>141.0</ele>
      </trkpt>
      <trkpt lat="50.79673" lon="5.76526">
        <ele>137.0</ele>
      </trkpt>
      <trkpt lat="50.79505" lon="5.76559">
        <ele>134.0</ele>
      </trkpt>
      <trkpt lat="50.79446" lon="5.76748">
        <ele>132.0</ele>
      </trkpt>
      <trkpt lat="50.79479" lon="5.77079">
        <ele>135.0</ele>
      </trkpt>
      <trkpt lat="50.79549" lon="5.77607">
        <ele>134.0</ele>
      </trkpt>
      <trkpt lat="50.79538" lon="5.77852">
        <ele>134.0</ele>
      </trkpt>
      <trkpt lat="50.79417" lon="5.78083">
        <ele>132.0</ele>
      </trkpt>
      <trkpt lat="50.79272" lon="5.7829">
        <ele>124.0</ele>
      </trkpt>
      <trkpt lat="50.79115" lon="5.78457">
        <ele>125.0</ele>
      </trkpt>
      <trkpt lat="50.78747" lon="5.78884">
        <ele>139.0</ele>
      </trkpt>
      <trkpt lat="50.78606" lon="5.79011">
        <ele>151.0</ele>
      </trkpt>
      <trkpt lat="50.78434" lon="5.79078">
        <ele>161.0</ele>
      </trkpt>
      <trkpt lat="50.78277" lon="5.79087">
        <ele>166.0</ele>
      </trkpt>
      <trkpt lat="50.78179" lon="5.79142">
        <ele>168.0</ele>
      </trkpt>
      <trkpt lat="50.78064" lon="5.79204">
        <ele>168.0</ele>
      </trkpt>
      <trkpt lat="50.77976" lon="5.79208">
        <ele>159.0</ele>
      </trkpt>
      <trkpt lat="50.7791" lon="5.79149">
        <ele>150.0</ele>
      </trkpt>
      <trkpt lat="50.77807" lon="5.79317">
        <ele>143.0</ele>
      </trkpt>
      <trkpt lat="50.77736" lon="5.79455">
        <ele>145.0</ele>
      </trkpt>
      <trkpt lat="50.77644" lon="5.79654">
        <ele>153.0</ele>
      </trkpt>
      <trkpt lat="50.77584" lon="5.79817">
        <ele>156.0</ele>
      </trkpt>
      <trkpt lat="50.77461" lon="5.80119">
        <ele>167.0</ele>
      </trkpt>
      <trkpt lat="50.77243" lon="5.80324">
        <ele>167.0</ele>
      </trkpt>
      <trkpt lat="50.77185" lon="5.80444">
        <ele>156.0</ele>
      </trkpt>
      <trkpt lat="50.77125" lon="5.80671">
        <ele>138.0</ele>
      </trkpt>
      <trkpt lat="50.77086" lon="5.80847">
        <ele>135.0</ele>
      </trkpt>
      <trkpt lat="50.76944" lon="5.80867">
        <ele>139.0</ele>
      </trkpt>
      <trkpt lat="50.76862" lon="5.80975">
        <ele>144.0</ele>
      </trkpt>
      <trkpt lat="50.76957" lon="5.81312">
        <ele>148.0</ele>
      </trkpt>
      <trkpt lat="50.77074" lon="5.81604">
        <ele>150.0</ele>
      </trkpt>
      <trkpt lat="50.7719" lon="5.81874">
        <ele>147.0</ele>
      </trkpt>
      <trkpt lat="50.77342" lon="5.8217">
        <ele>152.0</ele>
      </trkpt>
      <trkpt lat="50.77459" lon="5.82516">
        <ele>153.0</ele>
      </trkpt>
      <trkpt lat="50.77532" lon="5.82892">
        <ele>168.0</ele>
      </trkpt>
      <trkpt lat="50.77545" lon="5.83405">
        <ele>178.0</ele>
      </trkpt>
      <trkpt lat="50.77518" lon="5.83777">
        <ele>183.0</ele>
      </trkpt>
      <trkpt lat="50.77475" lon="5.84">
        <ele>184.0</ele>
      </trkpt>
      <trkpt lat="50.77406" lon="5.84199">
        <ele>188.0</ele>
      </trkpt>
      <trkpt lat="50.77435" lon="5.84356">
        <ele>196.0</ele>
      </trkpt>
      <trkpt lat="50.7749" lon="5.84655">
        <ele>190.0</ele>
      </trkpt>
      <trkpt lat="50.77548" lon="5.84951">
        <ele>177.0</ele>
      </trkpt>
      <trkpt lat="50.77503" lon="5.85084">
        <ele>170.0</ele>
      </trkpt>
      <trkpt lat="50.77468" lon="5.85377">
        <ele>144.0</ele>
      </trkpt>
      <trkpt lat="50.77355" lon="5.85582">
        <ele>137.0</ele>
      </trkpt>
      <trkpt lat="50.77098" lon="5.8583">
        <ele>142.0</ele>
      </trkpt>
      <trkpt lat="50.76958" lon="5.86048">
        <ele>146.0</ele>
      </trkpt>
      <trkpt lat="50.76852" lon="5.86189">
        <ele>144.0</ele>
      </trkpt>
      <trkpt lat="50.76958" lon="5.86268">
        <ele>141.0</ele>
      </trkpt>
      <trkpt lat="50.77051" lon="5.86303">
        <ele>140.0</ele>
      </trkpt>
      <trkpt lat="50.76959" lon="5.86536">
        <ele>153.0</ele>
      </trkpt>
      <trkpt lat="50.77025" lon="5.86848">
        <ele>166.0</ele>
      </trkpt>
      <trkpt lat="50.77173" lon="5.87249">
        <ele>187.0</ele>
      </trkpt>
      <trkpt lat="50.77078" lon="5.87418">
        <ele>197.0</ele>
      </trkpt>
      <trkpt lat="50.77126" lon="5.87439">
        <ele>206.0</ele>
      </trkpt>
      <trkpt lat="50.77305" lon="5.87327">
        <ele>214.0</ele>
      </trkpt>
      <trkpt lat="50.7738" lon="5.87295">
        <ele>217.0</ele>
      </trkpt>
      <trkpt lat="50.77472" lon="5.87435">
        <ele>218.0</ele>
      </trkpt>
      <trkpt lat="50.77566" lon="5.87553">
        <ele>217.0</ele>
      </trkpt>
      <trkpt lat="50.77759" lon="5.87603">
        <ele>213.0</ele>
      </trkpt>
      <trkpt lat="50.77943" lon="5.88023">
        <ele>205.0</ele>
      </trkpt>
      <trkpt lat="50.78028" lon="5.88304">
        <ele>204.0</ele>
      </trkpt>
      <trkpt lat="50.7844" lon="5.88473">
        <ele>202.0</ele>
      </trkpt>
      <trkpt lat="50.78543" lon="5.88403">
        <ele>203.0</ele>
      </trkpt>
      <trkpt lat="50.78846" lon="5.88132">
        <ele>196.0</ele>
      </trkpt>
      <trkpt lat="50.79126" lon="5.88094">
        <ele>193.0</ele>
      </trkpt>
      <trkpt lat="50.79277" lon="5.88034">
        <ele>186.0</ele>
      </trkpt>
      <trkpt lat="50.79457" lon="5.8803">
        <ele>183.0</ele>
      </trkpt>
      <trkpt lat="50.79661" lon="5.88536">
        <ele>181.0</ele>
      </trkpt>
      <trkpt lat="50.79881" lon="5.88792">
        <ele>174.0</ele>
      </trkpt>
      <trkpt lat="50.80099" lon="5.89016">
        <ele>170.0</ele>
      </trkpt>
      <trkpt lat="50.80467" lon="5.89144">
        <ele>158.0</ele>
      </trkpt>
      <trkpt lat="50.80639" lon="5.89327">
        <ele>156.0</ele>
      </trkpt>
      <trkpt lat="50.80764" lon="5.89462">
        <ele>156.0</ele>
      </trkpt>
      <trkpt lat="50.80843" lon="5.89433">
        <ele>156.0</ele>
      </trkpt>
      <trkpt lat="50.81107" lon="5.89556">
        <ele>152.0</ele>
      </trkpt>
      <trkpt lat="50.81268" lon="5.89664">
        <ele>153.0</ele>
      </trkpt>
      <trkpt lat="50.81262" lon="5.89965">
        <ele>153.0</ele>
      </trkpt>
      <trkpt lat="50.81212" lon="5.90131">
        <ele>140.0</ele>
      </trkpt>
      <trkpt lat="50.81127" lon="5.90584">
        <ele>104.0</ele>
      </trkpt>
      <trkpt lat="50.81083" lon="5.90835">
        <ele>95.0</ele>
      </trkpt>
      <trkpt lat="50.8097" lon="5.91061">
        <ele>92.0</ele>
      </trkpt>
      <trkpt lat="50.80938" lon="5.91393">
        <ele>95.0</ele>
      </trkpt>
      <trkpt lat="50.80914" lon="5.91589">
        <ele>95.0</ele>
      </trkpt>
      <trkpt lat="50.80919" lon="5.91798">
        <ele>97.0</ele>
      </trkpt>
      <trkpt lat="50.80909" lon="5.91851">
        <ele>99.0</ele>
      </trkpt>
      <trkpt lat="50.80799" lon="5.92109">
        <ele>103.0</ele>
      </trkpt>
      <trkpt lat="50.80652" lon="5.92373">
        <ele>107.0</ele>
      </trkpt>
      <trkpt lat="50.80319" lon="5.92814">
        <ele>112.0</ele>
      </trkpt>
      <trkpt lat="50.80149" lon="5.92841">
        <ele>118.0</ele>
      </trkpt>
      <trkpt lat="50.80099" lon="5.92841">
        <ele>120.0</ele>
      </trkpt>
      <trkpt lat="50.80047" lon="5.92838">
        <ele>121.0</ele>
      </trkpt>
      <trkpt lat="50.79895" lon="5.92808">
        <ele>120.0</ele>
      </trkpt>
      <trkpt lat="50.79707" lon="5.92725">
        <ele>115.0</ele>
      </trkpt>
      <trkpt lat="50.79615" lon="5.92556">
        <ele>111.0</ele>
      </trkpt>
      <trkpt lat="50.79521" lon="5.92314">
        <ele>104.0</ele>
      </trkpt>
      <trkpt lat="50.79471" lon="5.9208">
        <ele>102.0</ele>
      </trkpt>
      <trkpt lat="50.79488" lon="5.91872">
        <ele>102.0</ele>
      </trkpt>
      <trkpt lat="50.79374" lon="5.91781">
        <ele>104.0</ele>
      </trkpt>
      <trkpt lat="50.79146" lon="5.91802">
        <ele>106.0</ele>
      </trkpt>
      <trkpt lat="50.79002" lon="5.91878">
        <ele>107.0</ele>
      </trkpt>
      <trkpt lat="50.78871" lon="5.91846">
        <ele>108.0</ele>
      </trkpt>
      <trkpt lat="50.78874" lon="5.91596">
        <ele>114.0</ele>
      </trkpt>
      <trkpt lat="50.78805" lon="5.91394">
        <ele>126.0</ele>
      </trkpt>
      <trkpt lat="50.78727" lon="5.91244">
        <ele>135.0</ele>
      </trkpt>
      <trkpt lat="50.78639" lon="5.90969">
        <ele>144.0</ele>
      </trkpt>
      <trkpt lat="50.78562" lon="5.90626">
        <ele>155.0</ele>
      </trkpt>
      <trkpt lat="50.78413" lon="5.90353">
        <ele>165.0</ele>
      </trkpt>
      <trkpt lat="50.78271" lon="5.90169">
        <ele>176.0</ele>
      </trkpt>
      <trkpt lat="50.78157" lon="5.8993">
        <ele>188.0</ele>
      </trkpt>
      <trkpt lat="50.78069" lon="5.89625">
        <ele>193.0</ele>
      </trkpt>
      <trkpt lat="50.77942" lon="5.8946">
        <ele>198.0</ele>
      </trkpt>
      <trkpt lat="50.77777" lon="5.89171">
        <ele>213.0</ele>
      </trkpt>
      <trkpt lat="50.77547" lon="5.88821">
        <ele>223.0</ele>
      </trkpt>
      <trkpt lat="50.77266" lon="5.88586">
        <ele>222.0</ele>
      </trkpt>
      <trkpt lat="50.77274" lon="5.89255">
        <ele>222.0</ele>
      </trkpt>
      <trkpt lat="50.77273" lon="5.89496">
        <ele>220.0</ele>
      </trkpt>
      <trkpt lat="50.77327" lon="5.8984">
        <ele>207.0</ele>
      </trkpt>
      <trkpt lat="50.77421" lon="5.90057">
        <ele>195.0</ele>
      </trkpt>
      <trkpt lat="50.77466" lon="5.90327">
        <ele>190.0</ele>
      </trkpt>
      <trkpt lat="50.77526" lon="5.90642">
        <ele>176.0</ele>
      </trkpt>
      <trkpt lat="50.77554" lon="5.90968">
        <ele>158.0</ele>
      </trkpt>
      <trkpt lat="50.77634" lon="5.91259">
        <ele>143.0</ele>
      </trkpt>
      <trkpt lat="50.7739" lon="5.91345">
        <ele>137.0</ele>
      </trkpt>
      <trkpt lat="50.77139" lon="5.91516">
        <ele>122.0</ele>
      </trkpt>
      <trkpt lat="50.77146" lon="5.91669">
        <ele>119.0</ele>
      </trkpt>
      <trkpt lat="50.77187" lon="5.91759">
        <ele>118.0</ele>
      </trkpt>
      <trkpt lat="50.77299" lon="5.91957">
        <ele>114.0</ele>
      </trkpt>
      <trkpt lat="50.77365" lon="5.92133">
        <ele>113.0</ele>
      </trkpt>
      <trkpt lat="50.77262" lon="5.92421">
        <ele>116.0</ele>
      </trkpt>
      <trkpt lat="50.77116" lon="5.92611">
        <ele>134.0</ele>
      </trkpt>
      <trkpt lat="50.76991" lon="5.92618">
        <ele>145.0</ele>
      </trkpt>
      <trkpt lat="50.77003" lon="5.92985">
        <ele>164.0</ele>
      </trkpt>
      <trkpt lat="50.76936" lon="5.93197">
        <ele>178.0</ele>
      </trkpt>
      <trkpt lat="50.76907" lon="5.93429">
        <ele>191.0</ele>
      </trkpt>
      <trkpt lat="50.76725" lon="5.93808">
        <ele>204.0</ele>
      </trkpt>
      <trkpt lat="50.76767" lon="5.94162">
        <ele>217.0</ele>
      </trkpt>
      <trkpt lat="50.76649" lon="5.9443">
        <ele>207.0</ele>
      </trkpt>
      <trkpt lat="50.76719" lon="5.94569">
        <ele>212.0</ele>
      </trkpt>
      <trkpt lat="50.76641" lon="5.94683">
        <ele>213.0</ele>
      </trkpt>
      <trkpt lat="50.76673" lon="5.94944">
        <ele>228.0</ele>
      </trkpt>
      <trkpt lat="50.7662" lon="5.95245">
        <ele>232.0</ele>
      </trkpt>
      <trkpt lat="50.76485" lon="5.95224">
        <ele>233.0</ele>
      </trkpt>
      <trkpt lat="50.76373" lon="5.95425">
        <ele>233.0</ele>
      </trkpt>
      <trkpt lat="50.76407" lon="5.95496">
        <ele>249.0</ele>
      </trkpt>
      <trkpt lat="50.76439" lon="5.95342">
        <ele>246.0</ele>
      </trkpt>
      <trkpt lat="50.76584" lon="5.95338">
        <ele>258.0</ele>
      </trkpt>
      <trkpt lat="50.76706" lon="5.95336">
        <ele>262.0</ele>
      </trkpt>
      <trkpt lat="50.76769" lon="5.95253">
        <ele>264.0</ele>
      </trkpt>
      <trkpt lat="50.77068" lon="5.94879">
        <ele>270.0</ele>
      </trkpt>
      <trkpt lat="50.77857" lon="5.95111">
        <ele>235.0</ele>
      </trkpt>
      <trkpt lat="50.78171" lon="5.95283">
        <ele>205.0</ele>
      </trkpt>
      <trkpt lat="50.78369" lon="5.95545">
        <ele>192.0</ele>
      </trkpt>
      <trkpt lat="50.78484" lon="5.95728">
        <ele>178.0</ele>
      </trkpt>
      <trkpt lat="50.78558" lon="5.95847">
        <ele>171.0</ele>
      </trkpt>
      <trkpt lat="50.78681" lon="5.9598">
        <ele>163.0</ele>
      </trkpt>
      <trkpt lat="50.78773" lon="5.96089">
        <ele>165.0</ele>
      </trkpt>
      <trkpt lat="50.78925" lon="5.96235">
        <ele>173.0</ele>
      </trkpt>
      <trkpt lat="50.78842" lon="5.96329">
        <ele>185.0</ele>
      </trkpt>
      <trkpt lat="50.78734" lon="5.96338">
        <ele>196.0</ele>
      </trkpt>
      <trkpt lat="50.78564" lon="5.96441">
        <ele>199.0</ele>
      </trkpt>
      <trkpt lat="50.78305" lon="5.96556">
        <ele>201.0</ele>
      </trkpt>
      <trkpt lat="50.78194" lon="5.96952">
        <ele>200.0</ele>
      </trkpt>
      <trkpt lat="50.77983" lon="5.9724">
        <ele>196.0</ele>
      </trkpt>
      <trkpt lat="50.7775" lon="5.9765">
        <ele>206.0</ele>
      </trkpt>
      <trkpt lat="50.77536" lon="5.97708">
        <ele>201.0</ele>
      </trkpt>
      <trkpt lat="50.77329" lon="5.97863">
        <ele>196.0</ele>
      </trkpt>
      <trkpt lat="50.77391" lon="5.98163">
        <ele>192.0</ele>
      </trkpt>
      <trkpt lat="50.77267" lon="5.98592">
        <ele>199.0</ele>
      </trkpt>
      <trkpt lat="50.77064" lon="5.99131">
        <ele>187.0</ele>
      </trkpt>
      <trkpt lat="50.7687" lon="5.99537">
        <ele>181.0</ele>
      </trkpt>
      <trkpt lat="50.76916" lon="6.00111">
        <ele>182.0</ele>
      </trkpt>
      <trkpt lat="50.76848" lon="6.00651">
        <ele>207.0</ele>
      </trkpt>
      <trkpt lat="50.76844" lon="6.00723">
        <ele>212.0</ele>
      </trkpt>
      <trkpt lat="50.76808" lon="6.00857">
        <ele>218.0</ele>
      </trkpt>
      <trkpt lat="50.76796" lon="6.0098">
        <ele>222.0</ele>
      </trkpt>
      <trkpt lat="50.76767" lon="6.01089">
        <ele>222.0</ele>
      </trkpt>
      <trkpt lat="50.76704" lon="6.01122">
        <ele>222.0</ele>
      </trkpt>
      <trkpt lat="50.76597" lon="6.01154">
        <ele>228.0</ele>
      </trkpt>
      <trkpt lat="50.76514" lon="6.01285">
        <ele>236.0</ele>
      </trkpt>
      <trkpt lat="50.76502" lon="6.01465">
        <ele>242.0</ele>
      </trkpt>
      <trkpt lat="50.76535" lon="6.0167">
        <ele>248.0</ele>
      </trkpt>
      <trkpt lat="50.76519" lon="6.01745">
        <ele>251.0</ele>
      </trkpt>
      <trkpt lat="50.76465" lon="6.01768">
        <ele>256.0</ele>
      </trkpt>
      <trkpt lat="50.76387" lon="6.01702">
        <ele>266.0</ele>
      </trkpt>
      <trkpt lat="50.76397" lon="6.01623">
        <ele>271.0</ele>
      </trkpt>
      <trkpt lat="50.76368" lon="6.01508">
        <ele>278.0</ele>
      </trkpt>
      <trkpt lat="50.76297" lon="6.01478">
        <ele>284.0</ele>
      </trkpt>
      <trkpt lat="50.76173" lon="6.01468">
        <ele>292.0</ele>
      </trkpt>
      <trkpt lat="50.76103" lon="6.0141">
        <ele>297.0</ele>
      </trkpt>
      <trkpt lat="50.75986" lon="6.01429">
        <ele>308.0</ele>
      </trkpt>
      <trkpt lat="50.75961" lon="6.01453">
        <ele>313.0</ele>
      </trkpt>
      <trkpt lat="50.76061" lon="6.01522">
        <ele>315.0</ele>
      </trkpt>
      <trkpt lat="50.76148" lon="6.01596">
        <ele>316.0</ele>
      </trkpt>
      <trkpt lat="50.76158" lon="6.01684">
        <ele>317.0</ele>
      </trkpt>
      <trkpt lat="50.76027" lon="6.01758">
        <ele>320.0</ele>
      </trkpt>
      <trkpt lat="50.75888" lon="6.01792">
        <ele>318.0</ele>
      </trkpt>
      <trkpt lat="50.75699" lon="6.01882">
        <ele>320.0</ele>
      </trkpt>
      <trkpt lat="50.75575" lon="6.01954">
        <ele>322.0</ele>
      </trkpt>
      <trkpt lat="50.75452" lon="6.02087">
        <ele>326.0</ele>
      </trkpt>
      <trkpt lat="50.75351" lon="6.0209">
        <ele>329.0</ele>
      </trkpt>
      <trkpt lat="50.75382" lon="6.01746">
        <ele>311.0</ele>
      </trkpt>
      <trkpt lat="50.75211" lon="6.01957">
        <ele>297.0</ele>
      </trkpt>
      <trkpt lat="50.75193" lon="6.01901">
        <ele>286.0</ele>
      </trkpt>
      <trkpt lat="50.75227" lon="6.01687">
        <ele>270.0</ele>
      </trkpt>
      <trkpt lat="50.75055" lon="6.0111">
        <ele>242.0</ele>
      </trkpt>
      <trkpt lat="50.75021" lon="6.00959">
        <ele>234.0</ele>
      </trkpt>
      <trkpt lat="50.74833" lon="6.00174">
        <ele>220.0</ele>
      </trkpt>
      <trkpt lat="50.75022" lon="6.00203">
        <ele>235.0</ele>
      </trkpt>
      <trkpt lat="50.75132" lon="6.00017">
        <ele>246.0</ele>
      </trkpt>
      <trkpt lat="50.75356" lon="6.0012">
        <ele>267.0</ele>
      </trkpt>
      <trkpt lat="50.75482" lon="6.00172">
        <ele>270.0</ele>
      </trkpt>
      <trkpt lat="50.75711" lon="6.00357">
        <ele>248.0</ele>
      </trkpt>
      <trkpt lat="50.75846" lon="6.00355">
        <ele>236.0</ele>
      </trkpt>
      <trkpt lat="50.75853" lon="6.00164">
        <ele>232.0</ele>
      </trkpt>
      <trkpt lat="50.75921" lon="5.99988">
        <ele>227.0</ele>
      </trkpt>
      <trkpt lat="50.76073" lon="5.997">
        <ele>209.0</ele>
      </trkpt>
      <trkpt lat="50.76208" lon="5.9961">
        <ele>199.0</ele>
      </trkpt>
      <trkpt lat="50.76143" lon="5.99364">
        <ele>202.0</ele>
      </trkpt>
      <trkpt lat="50.7604" lon="5.99106">
        <ele>212.0</ele>
      </trkpt>
      <trkpt lat="50.76059" lon="5.98861">
        <ele>217.0</ele>
      </trkpt>
      <trkpt lat="50.76227" lon="5.98771">
        <ele>213.0</ele>
      </trkpt>
      <trkpt lat="50.7633" lon="5.98863">
        <ele>209.0</ele>
      </trkpt>
      <trkpt lat="50.76532" lon="5.98999">
        <ele>202.0</ele>
      </trkpt>
      <trkpt lat="50.76658" lon="5.98974">
        <ele>199.0</ele>
      </trkpt>
      <trkpt lat="50.76781" lon="5.98994">
        <ele>200.0</ele>
      </trkpt>
      <trkpt lat="50.7674" lon="5.98745">
        <ele>210.0</ele>
      </trkpt>
      <trkpt lat="50.76445" lon="5.98547">
        <ele>225.0</ele>
      </trkpt>
      <trkpt lat="50.7647" lon="5.98475">
        <ele>236.0</ele>
      </trkpt>
      <trkpt lat="50.7662" lon="5.98373">
        <ele>245.0</ele>
      </trkpt>
      <trkpt lat="50.76701" lon="5.98356">
        <ele>248.0</ele>
      </trkpt>
      <trkpt lat="50.7663" lon="5.98065">
        <ele>272.0</ele>
      </trkpt>
      <trkpt lat="50.76559" lon="5.9781">
        <ele>276.0</ele>
      </trkpt>
      <trkpt lat="50.76529" lon="5.97543">
        <ele>278.0</ele>
      </trkpt>
      <trkpt lat="50.76438" lon="5.97248">
        <ele>281.0</ele>
      </trkpt>
      <trkpt lat="50.76532" lon="5.96527">
        <ele>286.0</ele>
      </trkpt>
      <trkpt lat="50.76585" lon="5.96132">
        <ele>283.0</ele>
      </trkpt>
      <trkpt lat="50.76689" lon="5.95823">
        <ele>276.0</ele>
      </trkpt>
      <trkpt lat="50.76744" lon="5.95331">
        <ele>266.0</ele>
      </trkpt>
      <trkpt lat="50.76657" lon="5.95357">
        <ele>262.0</ele>
      </trkpt>
      <trkpt lat="50.76498" lon="5.95308">
        <ele>253.0</ele>
      </trkpt>
      <trkpt lat="50.76411" lon="5.95415">
        <ele>244.0</ele>
      </trkpt>
      <trkpt lat="50.76382" lon="5.955">
        <ele>249.0</ele>
      </trkpt>
      <trkpt lat="50.76398" lon="5.95216">
        <ele>230.0</ele>
      </trkpt>
      <trkpt lat="50.76559" lon="5.95205">
        <ele>231.0</ele>
      </trkpt>
      <trkpt lat="50.76651" lon="5.95192">
        <ele>233.0</ele>
      </trkpt>
      <trkpt lat="50.76616" lon="5.94749">
        <ele>219.0</ele>
      </trkpt>
      <trkpt lat="50.76726" lon="5.94611">
        <ele>213.0</ele>
      </trkpt>
      <trkpt lat="50.7668" lon="5.9452">
        <ele>211.0</ele>
      </trkpt>
      <trkpt lat="50.76667" lon="5.94323">
        <ele>206.0</ele>
      </trkpt>
      <trkpt lat="50.76765" lon="5.94065">
        <ele>217.0</ele>
      </trkpt>
      <trkpt lat="50.76791" lon="5.93633">
        <ele>201.0</ele>
      </trkpt>
      <trkpt lat="50.76926" lon="5.93292">
        <ele>188.0</ele>
      </trkpt>
      <trkpt lat="50.7699" lon="5.93099">
        <ele>173.0</ele>
      </trkpt>
      <trkpt lat="50.76998" lon="5.92847">
        <ele>161.0</ele>
      </trkpt>
      <trkpt lat="50.77017" lon="5.92585">
        <ele>143.0</ele>
      </trkpt>
      <trkpt lat="50.77197" lon="5.92566">
        <ele>130.0</ele>
      </trkpt>
      <trkpt lat="50.77328" lon="5.92226">
        <ele>114.0</ele>
      </trkpt>
      <trkpt lat="50.77362" lon="5.92057">
        <ele>113.0</ele>
      </trkpt>
      <trkpt lat="50.77232" lon="5.91898">
        <ele>113.0</ele>
      </trkpt>
      <trkpt lat="50.7716" lon="5.91723">
        <ele>119.0</ele>
      </trkpt>
      <trkpt lat="50.77148" lon="5.91561">
        <ele>119.0</ele>
      </trkpt>
      <trkpt lat="50.77295" lon="5.91419">
        <ele>128.0</ele>
      </trkpt>
      <trkpt lat="50.77472" lon="5.91278">
        <ele>139.0</ele>
      </trkpt>
      <trkpt lat="50.77612" lon="5.91104">
        <ele>147.0</ele>
      </trkpt>
      <trkpt lat="50.77531" lon="5.9082">
        <ele>163.0</ele>
      </trkpt>
      <trkpt lat="50.77516" lon="5.90468">
        <ele>179.0</ele>
      </trkpt>
      <trkpt lat="50.77441" lon="5.90213">
        <ele>190.0</ele>
      </trkpt>
      <trkpt lat="50.77385" lon="5.89952">
        <ele>199.0</ele>
      </trkpt>
      <trkpt lat="50.77297" lon="5.89738">
        <ele>209.0</ele>
      </trkpt>
      <trkpt lat="50.77262" lon="5.89344">
        <ele>221.0</ele>
      </trkpt>
      <trkpt lat="50.7727" lon="5.88889">
        <ele>224.0</ele>
      </trkpt>
      <trkpt lat="50.77307" lon="5.88572">
        <ele>222.0</ele>
      </trkpt>
      <trkpt lat="50.7774" lon="5.89045">
        <ele>220.0</ele>
      </trkpt>
      <trkpt lat="50.77872" lon="5.8931">
        <ele>208.0</ele>
      </trkpt>
      <trkpt lat="50.78002" lon="5.89529">
        <ele>196.0</ele>
      </trkpt>
      <trkpt lat="50.78139" lon="5.89777">
        <ele>192.0</ele>
      </trkpt>
      <trkpt lat="50.78227" lon="5.90036">
        <ele>186.0</ele>
      </trkpt>
      <trkpt lat="50.78354" lon="5.90275">
        <ele>171.0</ele>
      </trkpt>
      <trkpt lat="50.78503" lon="5.90514">
        <ele>163.0</ele>
      </trkpt>
      <trkpt lat="50.78607" lon="5.90848">
        <ele>151.0</ele>
      </trkpt>
      <trkpt lat="50.78692" lon="5.91108">
        <ele>141.0</ele>
      </trkpt>
      <trkpt lat="50.78771" lon="5.9132">
        <ele>133.0</ele>
      </trkpt>
      <trkpt lat="50.78842" lon="5.91512">
        <ele>122.0</ele>
      </trkpt>
      <trkpt lat="50.78879" lon="5.91738">
        <ele>110.0</ele>
      </trkpt>
      <trkpt lat="50.78927" lon="5.91866">
        <ele>108.0</ele>
      </trkpt>
      <trkpt lat="50.791" lon="5.91827">
        <ele>107.0</ele>
      </trkpt>
      <trkpt lat="50.79274" lon="5.91803">
        <ele>107.0</ele>
      </trkpt>
      <trkpt lat="50.79443" lon="5.91803">
        <ele>103.0</ele>
      </trkpt>
      <trkpt lat="50.79483" lon="5.91993">
        <ele>102.0</ele>
      </trkpt>
      <trkpt lat="50.79481" lon="5.92236">
        <ele>103.0</ele>
      </trkpt>
      <trkpt lat="50.79594" lon="5.92489">
        <ele>107.0</ele>
      </trkpt>
      <trkpt lat="50.79687" lon="5.92697">
        <ele>113.0</ele>
      </trkpt>
      <trkpt lat="50.79801" lon="5.92789">
        <ele>117.0</ele>
      </trkpt>
      <trkpt lat="50.79996" lon="5.92835">
        <ele>121.0</ele>
      </trkpt>
      <trkpt lat="50.80082" lon="5.92869">
        <ele>121.0</ele>
      </trkpt>
      <trkpt lat="50.80113" lon="5.92857">
        <ele>120.0</ele>
      </trkpt>
      <trkpt lat="50.80271" lon="5.92852">
        <ele>116.0</ele>
      </trkpt>
      <trkpt lat="50.80558" lon="5.92497">
        <ele>111.0</ele>
      </trkpt>
      <trkpt lat="50.80696" lon="5.92291">
        <ele>107.0</ele>
      </trkpt>
      <trkpt lat="50.80862" lon="5.91966">
        <ele>102.0</ele>
      </trkpt>
      <trkpt lat="50.80916" lon="5.91845">
        <ele>98.0</ele>
      </trkpt>
      <trkpt lat="50.8092" lon="5.91745">
        <ele>97.0</ele>
      </trkpt>
      <trkpt lat="50.80918" lon="5.91513">
        <ele>95.0</ele>
      </trkpt>
      <trkpt lat="50.80948" lon="5.91215">
        <ele>94.0</ele>
      </trkpt>
      <trkpt lat="50.81007" lon="5.90979">
        <ele>92.0</ele>
      </trkpt>
      <trkpt lat="50.81097" lon="5.90753">
        <ele>96.0</ele>
      </trkpt>
      <trkpt lat="50.81153" lon="5.90478">
        <ele>107.0</ele>
      </trkpt>
      <trkpt lat="50.81228" lon="5.90067">
        <ele>142.0</ele>
      </trkpt>
      <trkpt lat="50.81362" lon="5.90143">
        <ele>146.0</ele>
      </trkpt>
      <trkpt lat="50.81455" lon="5.90108">
        <ele>135.0</ele>
      </trkpt>
      <trkpt lat="50.81504" lon="5.89924">
        <ele>136.0</ele>
      </trkpt>
      <trkpt lat="50.8137" lon="5.89624">
        <ele>133.0</ele>
      </trkpt>
      <trkpt lat="50.81338" lon="5.89452">
        <ele>115.0</ele>
      </trkpt>
      <trkpt lat="50.81502" lon="5.89478">
        <ele>99.0</ele>
      </trkpt>
      <trkpt lat="50.81567" lon="5.8953">
        <ele>96.0</ele>
      </trkpt>
      <trkpt lat="50.81638" lon="5.89627">
        <ele>96.0</ele>
      </trkpt>
      <trkpt lat="50.81735" lon="5.89908">
        <ele>95.0</ele>
      </trkpt>
      <trkpt lat="50.81755" lon="5.90059">
        <ele>97.0</ele>
      </trkpt>
      <trkpt lat="50.81719" lon="5.90217">
        <ele>96.0</ele>
      </trkpt>
      <trkpt lat="50.81648" lon="5.90303">
        <ele>93.0</ele>
      </trkpt>
      <trkpt lat="50.81497" lon="5.90432">
        <ele>90.0</ele>
      </trkpt>
      <trkpt lat="50.8132" lon="5.90834">
        <ele>91.0</ele>
      </trkpt>
      <trkpt lat="50.81159" lon="5.91448">
        <ele>95.0</ele>
      </trkpt>
      <trkpt lat="50.81215" lon="5.91446">
        <ele>96.0</ele>
      </trkpt>
      <trkpt lat="50.81391" lon="5.91184">
        <ele>97.0</ele>
      </trkpt>
      <trkpt lat="50.81512" lon="5.91403">
        <ele>102.0</ele>
      </trkpt>
      <trkpt lat="50.81698" lon="5.91835">
        <ele>113.0</ele>
      </trkpt>
      <trkpt lat="50.81849" lon="5.92054">
        <ele>124.0</ele>
      </trkpt>
      <trkpt lat="50.8196" lon="5.92122">
        <ele>132.0</ele>
      </trkpt>
      <trkpt lat="50.82113" lon="5.9222">
        <ele>132.0</ele>
      </trkpt>
      <trkpt lat="50.82253" lon="5.92391">
        <ele>125.0</ele>
      </trkpt>
      <trkpt lat="50.82309" lon="5.92532">
        <ele>120.0</ele>
      </trkpt>
      <trkpt lat="50.82373" lon="5.92761">
        <ele>111.0</ele>
      </trkpt>
      <trkpt lat="50.82423" lon="5.9302">
        <ele>105.0</ele>
      </trkpt>
      <trkpt lat="50.82506" lon="5.93329">
        <ele>108.0</ele>
      </trkpt>
      <trkpt lat="50.82575" lon="5.93442">
        <ele>110.0</ele>
      </trkpt>
      <trkpt lat="50.82856" lon="5.93468">
        <ele>127.0</ele>
      </trkpt>
      <trkpt lat="50.83124" lon="5.93522">
        <ele>142.0</ele>
      </trkpt>
      <trkpt lat="50.83309" lon="5.93914">
        <ele>159.0</ele>
      </trkpt>
      <trkpt lat="50.83775" lon="5.94606">
        <ele>192.0</ele>
      </trkpt>
      <trkpt lat="50.83969" lon="5.94758">
        <ele>200.0</ele>
      </trkpt>
      <trkpt lat="50.84084" lon="5.94873">
        <ele>201.0</ele>
      </trkpt>
      <trkpt lat="50.84082" lon="5.94993">
        <ele>201.0</ele>
      </trkpt>
      <trkpt lat="50.8403" lon="5.95153">
        <ele>198.0</ele>
      </trkpt>
      <trkpt lat="50.83853" lon="5.95357">
        <ele>192.0</ele>
      </trkpt>
      <trkpt lat="50.83619" lon="5.95587">
        <ele>186.0</ele>
      </trkpt>
      <trkpt lat="50.83587" lon="5.95694">
        <ele>182.0</ele>
      </trkpt>
      <trkpt lat="50.83611" lon="5.95957">
        <ele>172.0</ele>
      </trkpt>
      <trkpt lat="50.83581" lon="5.96274">
        <ele>161.0</ele>
      </trkpt>
      <trkpt lat="50.83632" lon="5.96973">
        <ele>150.0</ele>
      </trkpt>
      <trkpt lat="50.83834" lon="5.96848">
        <ele>153.0</ele>
      </trkpt>
      <trkpt lat="50.84003" lon="5.9675">
        <ele>165.0</ele>
      </trkpt>
      <trkpt lat="50.84234" lon="5.96507">
        <ele>190.0</ele>
      </trkpt>
      <trkpt lat="50.84447" lon="5.96503">
        <ele>196.0</ele>
      </trkpt>
      <trkpt lat="50.84512" lon="5.96883">
        <ele>207.0</ele>
      </trkpt>
      <trkpt lat="50.84595" lon="5.96885">
        <ele>206.0</ele>
      </trkpt>
      <trkpt lat="50.84598" lon="5.96769">
        <ele>204.0</ele>
      </trkpt>
      <trkpt lat="50.84697" lon="5.96515">
        <ele>197.0</ele>
      </trkpt>
      <trkpt lat="50.8486" lon="5.96055">
        <ele>190.0</ele>
      </trkpt>
      <trkpt lat="50.84967" lon="5.95745">
        <ele>189.0</ele>
      </trkpt>
      <trkpt lat="50.85065" lon="5.95333">
        <ele>190.0</ele>
      </trkpt>
      <trkpt lat="50.85156" lon="5.94937">
        <ele>185.0</ele>
      </trkpt>
      <trkpt lat="50.84909" lon="5.94748">
        <ele>174.0</ele>
      </trkpt>
      <trkpt lat="50.85012" lon="5.94357">
        <ele>165.0</ele>
      </trkpt>
      <trkpt lat="50.84956" lon="5.93643">
        <ele>154.0</ele>
      </trkpt>
      <trkpt lat="50.84919" lon="5.93041">
        <ele>144.0</ele>
      </trkpt>
      <trkpt lat="50.84878" lon="5.92485">
        <ele>140.0</ele>
      </trkpt>
      <trkpt lat="50.84896" lon="5.92122">
        <ele>136.0</ele>
      </trkpt>
      <trkpt lat="50.8505" lon="5.92078">
        <ele>147.0</ele>
      </trkpt>
      <trkpt lat="50.85137" lon="5.92111">
        <ele>160.0</ele>
      </trkpt>
      <trkpt lat="50.85245" lon="5.92173">
        <ele>169.0</ele>
      </trkpt>
      <trkpt lat="50.85363" lon="5.92">
        <ele>173.0</ele>
      </trkpt>
      <trkpt lat="50.85246" lon="5.91621">
        <ele>171.0</ele>
      </trkpt>
      <trkpt lat="50.85245" lon="5.91209">
        <ele>166.0</ele>
      </trkpt>
      <trkpt lat="50.85164" lon="5.90872">
        <ele>161.0</ele>
      </trkpt>
      <trkpt lat="50.85053" lon="5.90589">
        <ele>158.0</ele>
      </trkpt>
      <trkpt lat="50.84889" lon="5.90322">
        <ele>155.0</ele>
      </trkpt>
      <trkpt lat="50.8477" lon="5.90145">
        <ele>157.0</ele>
      </trkpt>
      <trkpt lat="50.84851" lon="5.90002">
        <ele>157.0</ele>
      </trkpt>
      <trkpt lat="50.84952" lon="5.89988">
        <ele>157.0</ele>
      </trkpt>
      <trkpt lat="50.85022" lon="5.89833">
        <ele>158.0</ele>
      </trkpt>
      <trkpt lat="50.85153" lon="5.89734">
        <ele>159.0</ele>
      </trkpt>
      <trkpt lat="50.85259" lon="5.89444">
        <ele>149.0</ele>
      </trkpt>
      <trkpt lat="50.85342" lon="5.89069">
        <ele>134.0</ele>
      </trkpt>
      <trkpt lat="50.85404" lon="5.88837">
        <ele>125.0</ele>
      </trkpt>
      <trkpt lat="50.8537" lon="5.88349">
        <ele>108.0</ele>
      </trkpt>
      <trkpt lat="50.85235" lon="5.88228">
        <ele>101.0</ele>
      </trkpt>
      <trkpt lat="50.85117" lon="5.8813">
        <ele>91.0</ele>
      </trkpt>
      <trkpt lat="50.85127" lon="5.87977">
        <ele>87.0</ele>
      </trkpt>
      <trkpt lat="50.85225" lon="5.87649">
        <ele>82.0</ele>
      </trkpt>
      <trkpt lat="50.85225" lon="5.87396">
        <ele>79.0</ele>
      </trkpt>
      <trkpt lat="50.85105" lon="5.86928">
        <ele>82.0</ele>
      </trkpt>
      <trkpt lat="50.85109" lon="5.86661">
        <ele>86.0</ele>
      </trkpt>
      <trkpt lat="50.8518" lon="5.86288">
        <ele>86.0</ele>
      </trkpt>
      <trkpt lat="50.85282" lon="5.85808">
        <ele>80.0</ele>
      </trkpt>
      <trkpt lat="50.85465" lon="5.85453">
        <ele>81.0</ele>
      </trkpt>
      <trkpt lat="50.85501" lon="5.8492">
        <ele>74.0</ele>
      </trkpt>
      <trkpt lat="50.85572" lon="5.84282">
        <ele>78.0</ele>
      </trkpt>
      <trkpt lat="50.85762" lon="5.83649">
        <ele>79.0</ele>
      </trkpt>
      <trkpt lat="50.85548" lon="5.8344">
        <ele>89.0</ele>
      </trkpt>
      <trkpt lat="50.85462" lon="5.83401">
        <ele>93.0</ele>
      </trkpt>
      <trkpt lat="50.85355" lon="5.83413">
        <ele>101.0</ele>
      </trkpt>
      <trkpt lat="50.85274" lon="5.83388">
        <ele>108.0</ele>
      </trkpt>
      <trkpt lat="50.85198" lon="5.83453">
        <ele>113.0</ele>
      </trkpt>
      <trkpt lat="50.8506" lon="5.83463">
        <ele>122.0</ele>
      </trkpt>
      <trkpt lat="50.84928" lon="5.83349">
        <ele>129.0</ele>
      </trkpt>
      <trkpt lat="50.84776" lon="5.83175">
        <ele>130.0</ele>
      </trkpt>
      <trkpt lat="50.8464" lon="5.82871">
        <ele>139.0</ele>
      </trkpt>
      <trkpt lat="50.84506" lon="5.82599">
        <ele>149.0</ele>
      </trkpt>
      <trkpt lat="50.84491" lon="5.82453">
        <ele>152.0</ele>
      </trkpt>
      <trkpt lat="50.84571" lon="5.82241">
        <ele>156.0</ele>
      </trkpt>
      <trkpt lat="50.84768" lon="5.81808">
        <ele>153.0</ele>
      </trkpt>
      <trkpt lat="50.84939" lon="5.81933">
        <ele>150.0</ele>
      </trkpt>
      <trkpt lat="50.85178" lon="5.82122">
        <ele>145.0</ele>
      </trkpt>
      <trkpt lat="50.85312" lon="5.82222">
        <ele>141.0</ele>
      </trkpt>
      <trkpt lat="50.85466" lon="5.82456">
        <ele>136.0</ele>
      </trkpt>
      <trkpt lat="50.85684" lon="5.82605">
        <ele>119.0</ele>
      </trkpt>
      <trkpt lat="50.85831" lon="5.82781">
        <ele>109.0</ele>
      </trkpt>
      <trkpt lat="50.86015" lon="5.83034">
        <ele>93.0</ele>
      </trkpt>
      <trkpt lat="50.86235" lon="5.82975">
        <ele>82.0</ele>
      </trkpt>
      <trkpt lat="50.86202" lon="5.82792">
        <ele>87.0</ele>
      </trkpt>
      <trkpt lat="50.86125" lon="5.82518">
        <ele>115.0</ele>
      </trkpt>
      <trkpt lat="50.85867" lon="5.82211">
        <ele>134.0</ele>
      </trkpt>
      <trkpt lat="50.85661" lon="5.82045">
        <ele>135.0</ele>
      </trkpt>
      <trkpt lat="50.85695" lon="5.81414">
        <ele>138.0</ele>
      </trkpt>
      <trkpt lat="50.85787" lon="5.80604">
        <ele>130.0</ele>
      </trkpt>
      <trkpt lat="50.85896" lon="5.79604">
        <ele>126.0</ele>
      </trkpt>
      <trkpt lat="50.8612" lon="5.7949">
        <ele>126.0</ele>
      </trkpt>
      <trkpt lat="50.86385" lon="5.79102">
        <ele>115.0</ele>
      </trkpt>
      <trkpt lat="50.86627" lon="5.79086">
        <ele>92.0</ele>
      </trkpt>
      <trkpt lat="50.86732" lon="5.79061">
        <ele>70.0</ele>
      </trkpt>
      <trkpt lat="50.86751" lon="5.78871">
        <ele>70.0</ele>
      </trkpt>
      <trkpt lat="50.86819" lon="5.78731">
        <ele>68.0</ele>
      </trkpt>
      <trkpt lat="50.86857" lon="5.78538">
        <ele>66.0</ele>
      </trkpt>
      <trkpt lat="50.86872" lon="5.78357">
        <ele>68.0</ele>
      </trkpt>
      <trkpt lat="50.86752" lon="5.78334">
        <ele>77.0</ele>
      </trkpt>
      <trkpt lat="50.86557" lon="5.7822">
        <ele>92.0</ele>
      </trkpt>
      <trkpt lat="50.86405" lon="5.77706">
        <ele>116.0</ele>
      </trkpt>
      <trkpt lat="50.8615" lon="5.77586">
        <ele>123.0</ele>
      </trkpt>
      <trkpt lat="50.86113" lon="5.77433">
        <ele>123.0</ele>
      </trkpt>
      <trkpt lat="50.86071" lon="5.77346">
        <ele>122.0</ele>
      </trkpt>
      <trkpt lat="50.86048" lon="5.77008">
        <ele>119.0</ele>
      </trkpt>
      <trkpt lat="50.85833" lon="5.7546">
        <ele>77.0</ele>
      </trkpt>
      <trkpt lat="50.85442" lon="5.74137">
        <ele>57.0</ele>
      </trkpt>
      <trkpt lat="50.85258" lon="5.73655">
        <ele>58.0</ele>
      </trkpt>
      <trkpt lat="50.85249" lon="5.73359">
        <ele>58.0</ele>
      </trkpt>
      <trkpt lat="50.85251" lon="5.73157">
        <ele>53.0</ele>
      </trkpt>
      <trkpt lat="50.8515" lon="5.73135">
        <ele>52.0</ele>
      </trkpt>
      <trkpt lat="50.84884" lon="5.73189">
        <ele>56.0</ele>
      </trkpt>
      <trkpt lat="50.84791" lon="5.73202">
        <ele>56.0</ele>
      </trkpt>
      <trkpt lat="50.84321" lon="5.73191">
        <ele>57.0</ele>
      </trkpt>
      <trkpt lat="50.84279" lon="5.73414">
        <ele>57.0</ele>
      </trkpt>
      <trkpt lat="50.84251" lon="5.73783">
        <ele>58.0</ele>
      </trkpt>
      <trkpt lat="50.8421" lon="5.74218">
        <ele>60.0</ele>
      </trkpt>
      <trkpt lat="50.84145" lon="5.74655">
        <ele>68.0</ele>
      </trkpt>
      <trkpt lat="50.84032" lon="5.74903">
        <ele>79.0</ele>
      </trkpt>
      <trkpt lat="50.83532" lon="5.75396">
        <ele>105.0</ele>
      </trkpt>
      <trkpt lat="50.83111" lon="5.75775">
        <ele>124.0</ele>
      </trkpt>
      <trkpt lat="50.83098" lon="5.75804">
        <ele>125.0</ele>
      </trkpt>
      <trkpt lat="50.83134" lon="5.75825">
        <ele>125.0</ele>
      </trkpt>
      <trkpt lat="50.83271" lon="5.75948">
        <ele>126.0</ele>
      </trkpt>
      <trkpt lat="50.83579" lon="5.76197">
        <ele>124.0</ele>
      </trkpt>
      <trkpt lat="50.83879" lon="5.76319">
        <ele>117.0</ele>
      </trkpt>
      <trkpt lat="50.84053" lon="5.76433">
        <ele>102.0</ele>
      </trkpt>
      <trkpt lat="50.84183" lon="5.76511">
        <ele>94.0</ele>
      </trkpt>
      <trkpt lat="50.84305" lon="5.76434">
        <ele>90.0</ele>
      </trkpt>
      <trkpt lat="50.84319" lon="5.76322">
        <ele>90.0</ele>
      </trkpt>
      <trkpt lat="50.84505" lon="5.76395">
        <ele>87.0</ele>
      </trkpt>
      <trkpt lat="50.84634" lon="5.76379">
        <ele>84.0</ele>
      </trkpt>
      <trkpt lat="50.8475" lon="5.76503">
        <ele>79.0</ele>
      </trkpt>
      <trkpt lat="50.84797" lon="5.76697">
        <ele>79.0</ele>
      </trkpt>
      <trkpt lat="50.84777" lon="5.76834">
        <ele>87.0</ele>
      </trkpt>
      <trkpt lat="50.8482" lon="5.76879">
        <ele>92.0</ele>
      </trkpt>
      <trkpt lat="50.84881" lon="5.76985">
        <ele>97.0</ele>
      </trkpt>
      <trkpt lat="50.8485" lon="5.77046">
        <ele>104.0</ele>
      </trkpt>
      <trkpt lat="50.84797" lon="5.76975">
        <ele>108.0</ele>
      </trkpt>
      <trkpt lat="50.84696" lon="5.76984">
        <ele>112.0</ele>
      </trkpt>
      <trkpt lat="50.8465" lon="5.77126">
        <ele>115.0</ele>
      </trkpt>
      <trkpt lat="50.84541" lon="5.7738">
        <ele>120.0</ele>
      </trkpt>
      <trkpt lat="50.8446" lon="5.77806">
        <ele>123.0</ele>
      </trkpt>
      <trkpt lat="50.84397" lon="5.78271">
        <ele>132.0</ele>
      </trkpt>
      <trkpt lat="50.84372" lon="5.78582">
        <ele>138.0</ele>
      </trkpt>
      <trkpt lat="50.84212" lon="5.78742">
        <ele>137.0</ele>
      </trkpt>
      <trkpt lat="50.8382" lon="5.78619">
        <ele>138.0</ele>
      </trkpt>
      <trkpt lat="50.83598" lon="5.78437">
        <ele>138.0</ele>
      </trkpt>
      <trkpt lat="50.83409" lon="5.7812">
        <ele>131.0</ele>
      </trkpt>
      <trkpt lat="50.83397" lon="5.77837">
        <ele>125.0</ele>
      </trkpt>
      <trkpt lat="50.83356" lon="5.77592">
        <ele>113.0</ele>
      </trkpt>
      <trkpt lat="50.83228" lon="5.77487">
        <ele>103.0</ele>
      </trkpt>
      <trkpt lat="50.83073" lon="5.77269">
        <ele>119.0</ele>
      </trkpt>
      <trkpt lat="50.8282" lon="5.77157">
        <ele>130.0</ele>
      </trkpt>
      <trkpt lat="50.82678" lon="5.77408">
        <ele>130.0</ele>
      </trkpt>
      <trkpt lat="50.82547" lon="5.77709">
        <ele>127.0</ele>
      </trkpt>
      <trkpt lat="50.82477" lon="5.78055">
        <ele>124.0</ele>
      </trkpt>
      <trkpt lat="50.82413" lon="5.78135">
        <ele>121.0</ele>
      </trkpt>
      <trkpt lat="50.82299" lon="5.78227">
        <ele>122.0</ele>
      </trkpt>
      <trkpt lat="50.82231" lon="5.78531">
        <ele>124.0</ele>
      </trkpt>
      <trkpt lat="50.8216" lon="5.78795">
        <ele>129.0</ele>
      </trkpt>
      <trkpt lat="50.82094" lon="5.78975">
        <ele>131.0</ele>
      </trkpt>
      <trkpt lat="50.81959" lon="5.79246">
        <ele>126.0</ele>
      </trkpt>
      <trkpt lat="50.81881" lon="5.79265">
        <ele>129.0</ele>
      </trkpt>
      <trkpt lat="50.81765" lon="5.7939">
        <ele>137.0</ele>
      </trkpt>
      <trkpt lat="50.81681" lon="5.79509">
        <ele>141.0</ele>
      </trkpt>
      <trkpt lat="50.8155" lon="5.79624">
        <ele>144.0</ele>
      </trkpt>
      <trkpt lat="50.81405" lon="5.7979">
        <ele>146.0</ele>
      </trkpt>
      <trkpt lat="50.81099" lon="5.80148">
        <ele>145.0</ele>
      </trkpt>
      <trkpt lat="50.80935" lon="5.80443">
        <ele>147.0</ele>
      </trkpt>
      <trkpt lat="50.80803" lon="5.80413">
        <ele>153.0</ele>
      </trkpt>
      <trkpt lat="50.80645" lon="5.80371">
        <ele>161.0</ele>
      </trkpt>
      <trkpt lat="50.80497" lon="5.80347">
        <ele>162.0</ele>
      </trkpt>
      <trkpt lat="50.80364" lon="5.80224">
        <ele>159.0</ele>
      </trkpt>
      <trkpt lat="50.80127" lon="5.80242">
        <ele>155.0</ele>
      </trkpt>
      <trkpt lat="50.80042" lon="5.80332">
        <ele>156.0</ele>
      </trkpt>
      <trkpt lat="50.79724" lon="5.80456">
        <ele>166.0</ele>
      </trkpt>
      <trkpt lat="50.7955" lon="5.80563">
        <ele>182.0</ele>
      </trkpt>
      <trkpt lat="50.79403" lon="5.80591">
        <ele>182.0</ele>
      </trkpt>
      <trkpt lat="50.79238" lon="5.80633">
        <ele>175.0</ele>
      </trkpt>
      <trkpt lat="50.79042" lon="5.80939">
        <ele>182.0</ele>
      </trkpt>
      <trkpt lat="50.79017" lon="5.81065">
        <ele>182.0</ele>
      </trkpt>
      <trkpt lat="50.79029" lon="5.81187">
        <ele>182.0</ele>
      </trkpt>
      <trkpt lat="50.79018" lon="5.81387">
        <ele>178.0</ele>
      </trkpt>
      <trkpt lat="50.78973" lon="5.81599">
        <ele>173.0</ele>
      </trkpt>
      <trkpt lat="50.78936" lon="5.81871">
        <ele>170.0</ele>
      </trkpt>
      <trkpt lat="50.78928" lon="5.8199">
        <ele>171.0</ele>
      </trkpt>
      <trkpt lat="50.78937" lon="5.82463">
        <ele>176.0</ele>
      </trkpt>
      <trkpt lat="50.78827" lon="5.8285">
        <ele>184.0</ele>
      </trkpt>
      <trkpt lat="50.78629" lon="5.83023">
        <ele>188.0</ele>
      </trkpt>
      <trkpt lat="50.78444" lon="5.83255">
        <ele>190.0</ele>
      </trkpt>
      <trkpt lat="50.78256" lon="5.83461">
        <ele>188.0</ele>
      </trkpt>
      <trkpt lat="50.78042" lon="5.83605">
        <ele>184.0</ele>
      </trkpt>
      <trkpt lat="50.7767" lon="5.83956">
        <ele>187.0</ele>
      </trkpt>
      <trkpt lat="50.77472" lon="5.84128">
        <ele>188.0</ele>
      </trkpt>
      <trkpt lat="50.77408" lon="5.84288">
        <ele>193.0</ele>
      </trkpt>
      <trkpt lat="50.77458" lon="5.84461">
        <ele>194.0</ele>
      </trkpt>
      <trkpt lat="50.77535" lon="5.84839">
        <ele>184.0</ele>
      </trkpt>
      <trkpt lat="50.77519" lon="5.85034">
        <ele>173.0</ele>
      </trkpt>
      <trkpt lat="50.77512" lon="5.85233">
        <ele>157.0</ele>
      </trkpt>
      <trkpt lat="50.77409" lon="5.85521">
        <ele>138.0</ele>
      </trkpt>
      <trkpt lat="50.77173" lon="5.85749">
        <ele>140.0</ele>
      </trkpt>
      <trkpt lat="50.77043" lon="5.8593">
        <ele>145.0</ele>
      </trkpt>
      <trkpt lat="50.76896" lon="5.86098">
        <ele>146.0</ele>
      </trkpt>
      <trkpt lat="50.76859" lon="5.86223">
        <ele>143.0</ele>
      </trkpt>
      <trkpt lat="50.77027" lon="5.86276">
        <ele>138.0</ele>
      </trkpt>
      <trkpt lat="50.76989" lon="5.8643">
        <ele>147.0</ele>
      </trkpt>
      <trkpt lat="50.7698" lon="5.86713">
        <ele>161.0</ele>
      </trkpt>
      <trkpt lat="50.77136" lon="5.87099">
        <ele>178.0</ele>
      </trkpt>
      <trkpt lat="50.7715" lon="5.87317">
        <ele>192.0</ele>
      </trkpt>
      <trkpt lat="50.77093" lon="5.87475">
        <ele>202.0</ele>
      </trkpt>
      <trkpt lat="50.77198" lon="5.87403">
        <ele>209.0</ele>
      </trkpt>
      <trkpt lat="50.77352" lon="5.87278">
        <ele>216.0</ele>
      </trkpt>
      <trkpt lat="50.77411" lon="5.87367">
        <ele>217.0</ele>
      </trkpt>
      <trkpt lat="50.77531" lon="5.87479">
        <ele>218.0</ele>
      </trkpt>
      <trkpt lat="50.77628" lon="5.87457">
        <ele>215.0</ele>
      </trkpt>
      <trkpt lat="50.77905" lon="5.87857">
        <ele>207.0</ele>
      </trkpt>
      <trkpt lat="50.78004" lon="5.8826">
        <ele>205.0</ele>
      </trkpt>
      <trkpt lat="50.78395" lon="5.88463">
        <ele>200.0</ele>
      </trkpt>
      <trkpt lat="50.7853" lon="5.88426">
        <ele>203.0</ele>
      </trkpt>
      <trkpt lat="50.78748" lon="5.88168">
        <ele>198.0</ele>
      </trkpt>
      <trkpt lat="50.79068" lon="5.8808">
        <ele>194.0</ele>
      </trkpt>
      <trkpt lat="50.79244" lon="5.8807">
        <ele>187.0</ele>
      </trkpt>
      <trkpt lat="50.79406" lon="5.87998">
        <ele>184.0</ele>
      </trkpt>
      <trkpt lat="50.79624" lon="5.88434">
        <ele>182.0</ele>
      </trkpt>
      <trkpt lat="50.79797" lon="5.88712">
        <ele>176.0</ele>
      </trkpt>
      <trkpt lat="50.8009" lon="5.8897">
        <ele>167.0</ele>
      </trkpt>
      <trkpt lat="50.80144" lon="5.88592">
        <ele>159.0</ele>
      </trkpt>
      <trkpt lat="50.80415" lon="5.88415">
        <ele>137.0</ele>
      </trkpt>
      <trkpt lat="50.80628" lon="5.886">
        <ele>125.0</ele>
      </trkpt>
      <trkpt lat="50.80824" lon="5.88734">
        <ele>114.0</ele>
      </trkpt>
      <trkpt lat="50.81095" lon="5.88891">
        <ele>104.0</ele>
      </trkpt>
      <trkpt lat="50.81213" lon="5.89045">
        <ele>99.0</ele>
      </trkpt>
      <trkpt lat="50.8141" lon="5.89363">
        <ele>100.0</ele>
      </trkpt>
      <trkpt lat="50.81329" lon="5.89475">
        <ele>114.0</ele>
      </trkpt>
      <trkpt lat="50.81403" lon="5.89676">
        <ele>132.0</ele>
      </trkpt>
      <trkpt lat="50.81502" lon="5.89965">
        <ele>136.0</ele>
      </trkpt>
      <trkpt lat="50.81444" lon="5.9012">
        <ele>134.0</ele>
      </trkpt>
      <trkpt lat="50.81317" lon="5.90122">
        <ele>146.0</ele>
      </trkpt>
      <trkpt lat="50.8121" lon="5.90148">
        <ele>141.0</ele>
      </trkpt>
      <trkpt lat="50.81135" lon="5.90548">
        <ele>107.0</ele>
      </trkpt>
      <trkpt lat="50.81086" lon="5.90824">
        <ele>95.0</ele>
      </trkpt>
      <trkpt lat="50.80978" lon="5.9104">
        <ele>92.0</ele>
      </trkpt>
      <trkpt lat="50.80942" lon="5.91361">
        <ele>94.0</ele>
      </trkpt>
      <trkpt lat="50.80915" lon="5.91578">
        <ele>95.0</ele>
      </trkpt>
      <trkpt lat="50.80919" lon="5.91798">
        <ele>97.0</ele>
      </trkpt>
      <trkpt lat="50.80909" lon="5.91851">
        <ele>99.0</ele>
      </trkpt>
      <trkpt lat="50.80813" lon="5.92077">
        <ele>103.0</ele>
      </trkpt>
      <trkpt lat="50.80661" lon="5.92358">
        <ele>107.0</ele>
      </trkpt>
      <trkpt lat="50.80338" lon="5.92789">
        <ele>112.0</ele>
      </trkpt>
      <trkpt lat="50.80265" lon="5.92964">
        <ele>117.0</ele>
      </trkpt>
      <trkpt lat="50.80359" lon="5.93136">
        <ele>122.0</ele>
      </trkpt>
      <trkpt lat="50.80478" lon="5.9325">
        <ele>126.0</ele>
      </trkpt>
      <trkpt lat="50.80538" lon="5.93383">
        <ele>127.0</ele>
      </trkpt>
      <trkpt lat="50.8068" lon="5.93433">
        <ele>126.0</ele>
      </trkpt>
      <trkpt lat="50.80815" lon="5.93577">
        <ele>119.0</ele>
      </trkpt>
      <trkpt lat="50.80931" lon="5.93696">
        <ele>115.0</ele>
      </trkpt>
      <trkpt lat="50.80998" lon="5.9371">
        <ele>114.0</ele>
      </trkpt>
      <trkpt lat="50.8114" lon="5.93781">
        <ele>108.0</ele>
      </trkpt>
      <trkpt lat="50.81141" lon="5.93992">
        <ele>109.0</ele>
      </trkpt>
      <trkpt lat="50.81272" lon="5.94018">
        <ele>112.0</ele>
      </trkpt>
      <trkpt lat="50.81383" lon="5.94065">
        <ele>124.0</ele>
      </trkpt>
      <trkpt lat="50.81555" lon="5.94185">
        <ele>147.0</ele>
      </trkpt>
      <trkpt lat="50.8163" lon="5.94298">
        <ele>159.0</ele>
      </trkpt>
      <trkpt lat="50.8179" lon="5.94299">
        <ele>162.0</ele>
      </trkpt>
      <trkpt lat="50.82001" lon="5.94028">
        <ele>154.0</ele>
      </trkpt>
      <trkpt lat="50.82163" lon="5.93797">
        <ele>137.0</ele>
      </trkpt>
      <trkpt lat="50.82289" lon="5.93694">
        <ele>125.0</ele>
      </trkpt>
      <trkpt lat="50.82378" lon="5.93708">
        <ele>118.0</ele>
      </trkpt>
      <trkpt lat="50.82425" lon="5.93498">
        <ele>106.0</ele>
      </trkpt>
      <trkpt lat="50.82516" lon="5.93354">
        <ele>108.0</ele>
      </trkpt>
      <trkpt lat="50.82635" lon="5.93182">
        <ele>118.0</ele>
      </trkpt>
      <trkpt lat="50.82991" lon="5.9282">
        <ele>151.0</ele>
      </trkpt>
      <trkpt lat="50.83109" lon="5.92721">
        <ele>180.0</ele>
      </trkpt>
      <trkpt lat="50.83304" lon="5.92602">
        <ele>190.0</ele>
      </trkpt>
      <trkpt lat="50.83632" lon="5.92259">
        <ele>174.0</ele>
      </trkpt>
      <trkpt lat="50.8376" lon="5.92173">
        <ele>176.0</ele>
      </trkpt>
      <trkpt lat="50.83943" lon="5.92126">
        <ele>176.0</ele>
      </trkpt>
      <trkpt lat="50.84003" lon="5.92043">
        <ele>175.0</ele>
      </trkpt>
      <trkpt lat="50.84134" lon="5.91929">
        <ele>176.0</ele>
      </trkpt>
      <trkpt lat="50.84173" lon="5.91852">
        <ele>175.0</ele>
      </trkpt>
      <trkpt lat="50.84287" lon="5.91738">
        <ele>168.0</ele>
      </trkpt>
      <trkpt lat="50.84387" lon="5.91445">
        <ele>146.0</ele>
      </trkpt>
      <trkpt lat="50.84749" lon="5.91055">
        <ele>114.0</ele>
      </trkpt>
      <trkpt lat="50.84631" lon="5.90565">
        <ele>107.0</ele>
      </trkpt>
      <trkpt lat="50.84544" lon="5.90285">
        <ele>102.0</ele>
      </trkpt>
      <trkpt lat="50.84487" lon="5.901">
        <ele>104.0</ele>
      </trkpt>
      <trkpt lat="50.84448" lon="5.89852">
        <ele>115.0</ele>
      </trkpt>
      <trkpt lat="50.8445" lon="5.89687">
        <ele>119.0</ele>
      </trkpt>
      <trkpt lat="50.84468" lon="5.89481">
        <ele>123.0</ele>
      </trkpt>
      <trkpt lat="50.84521" lon="5.89433">
        <ele>126.0</ele>
      </trkpt>
      <trkpt lat="50.846" lon="5.89729">
        <ele>135.0</ele>
      </trkpt>
      <trkpt lat="50.8476" lon="5.90088">
        <ele>148.0</ele>
      </trkpt>
      <trkpt lat="50.84876" lon="5.89996">
        <ele>157.0</ele>
      </trkpt>
      <trkpt lat="50.8498" lon="5.89951">
        <ele>157.0</ele>
      </trkpt>
      <trkpt lat="50.85044" lon="5.89795">
        <ele>158.0</ele>
      </trkpt>
      <trkpt lat="50.85179" lon="5.89701">
        <ele>158.0</ele>
      </trkpt>
      <trkpt lat="50.85293" lon="5.89265">
        <ele>143.0</ele>
      </trkpt>
      <trkpt lat="50.85379" lon="5.88926">
        <ele>129.0</ele>
      </trkpt>
      <trkpt lat="50.85241" lon="5.88571">
        <ele>115.0</ele>
      </trkpt>
      <trkpt lat="50.85294" lon="5.8827">
        <ele>104.0</ele>
      </trkpt>
      <trkpt lat="50.85182" lon="5.88208">
        <ele>98.0</ele>
      </trkpt>
      <trkpt lat="50.85105" lon="5.88093">
        <ele>88.0</ele>
      </trkpt>
      <trkpt lat="50.85201" lon="5.87813">
        <ele>86.0</ele>
      </trkpt>
      <trkpt lat="50.85233" lon="5.87539">
        <ele>80.0</ele>
      </trkpt>
      <trkpt lat="50.85056" lon="5.87301">
        <ele>79.0</ele>
      </trkpt>
      <trkpt lat="50.84824" lon="5.87452">
        <ele>78.0</ele>
      </trkpt>
      <trkpt lat="50.84726" lon="5.8743">
        <ele>85.0</ele>
      </trkpt>
      <trkpt lat="50.84632" lon="5.8739">
        <ele>94.0</ele>
      </trkpt>
      <trkpt lat="50.84315" lon="5.8734">
        <ele>136.0</ele>
      </trkpt>
      <trkpt lat="50.84041" lon="5.87172">
        <ele>145.0</ele>
      </trkpt>
      <trkpt lat="50.83539" lon="5.8697">
        <ele>162.0</ele>
      </trkpt>
      <trkpt lat="50.83206" lon="5.86932">
        <ele>165.0</ele>
      </trkpt>
      <trkpt lat="50.82961" lon="5.86927">
        <ele>168.0</ele>
      </trkpt>
      <trkpt lat="50.82816" lon="5.8684">
        <ele>166.0</ele>
      </trkpt>
      <trkpt lat="50.82646" lon="5.86747">
        <ele>168.0</ele>
      </trkpt>
      <trkpt lat="50.82428" lon="5.86633">
        <ele>171.0</ele>
      </trkpt>
      <trkpt lat="50.82196" lon="5.86102">
        <ele>171.0</ele>
      </trkpt>
      <trkpt lat="50.81986" lon="5.85698">
        <ele>168.0</ele>
      </trkpt>
      <trkpt lat="50.81968" lon="5.85447">
        <ele>169.0</ele>
      </trkpt>
      <trkpt lat="50.82194" lon="5.85204">
        <ele>158.0</ele>
      </trkpt>
      <trkpt lat="50.82669" lon="5.84872">
        <ele>163.0</ele>
      </trkpt>
      <trkpt lat="50.82763" lon="5.84743">
        <ele>162.0</ele>
      </trkpt>
      <trkpt lat="50.82917" lon="5.84374">
        <ele>159.0</ele>
      </trkpt>
      <trkpt lat="50.83007" lon="5.84023">
        <ele>157.0</ele>
      </trkpt>
      <trkpt lat="50.83075" lon="5.83815">
        <ele>157.0</ele>
      </trkpt>
      <trkpt lat="50.83292" lon="5.83632">
        <ele>158.0</ele>
      </trkpt>
      <trkpt lat="50.83619" lon="5.83591">
        <ele>158.0</ele>
      </trkpt>
      <trkpt lat="50.83753" lon="5.83447">
        <ele>154.0</ele>
      </trkpt>
      <trkpt lat="50.83884" lon="5.83293">
        <ele>153.0</ele>
      </trkpt>
      <trkpt lat="50.83968" lon="5.83049">
        <ele>150.0</ele>
      </trkpt>
      <trkpt lat="50.8411" lon="5.82878">
        <ele>148.0</ele>
      </trkpt>
      <trkpt lat="50.8436" lon="5.82801">
        <ele>152.0</ele>
      </trkpt>
      <trkpt lat="50.8451" lon="5.82565">
        <ele>151.0</ele>
      </trkpt>
      <trkpt lat="50.84504" lon="5.82406">
        <ele>153.0</ele>
      </trkpt>
      <trkpt lat="50.84633" lon="5.82079">
        <ele>156.0</ele>
      </trkpt>
      <trkpt lat="50.84793" lon="5.81791">
        <ele>151.0</ele>
      </trkpt>
      <trkpt lat="50.85077" lon="5.82072">
        <ele>148.0</ele>
      </trkpt>
      <trkpt lat="50.85253" lon="5.8216">
        <ele>143.0</ele>
      </trkpt>
      <trkpt lat="50.85408" lon="5.82387">
        <ele>138.0</ele>
      </trkpt>
      <trkpt lat="50.85614" lon="5.82548">
        <ele>130.0</ele>
      </trkpt>
      <trkpt lat="50.85753" lon="5.82706">
        <ele>113.0</ele>
      </trkpt>
      <trkpt lat="50.85962" lon="5.82981">
        <ele>97.0</ele>
      </trkpt>
      <trkpt lat="50.86165" lon="5.82991">
        <ele>86.0</ele>
      </trkpt>
      <trkpt lat="50.86244" lon="5.82938">
        <ele>83.0</ele>
      </trkpt>
      <trkpt lat="50.86151" lon="5.82613">
        <ele>100.0</ele>
      </trkpt>
      <trkpt lat="50.86109" lon="5.82377">
        <ele>125.0</ele>
      </trkpt>
      <trkpt lat="50.85762" lon="5.82156">
        <ele>134.0</ele>
      </trkpt>
      <trkpt lat="50.85677" lon="5.81762">
        <ele>140.0</ele>
      </trkpt>
      <trkpt lat="50.85759" lon="5.8087">
        <ele>134.0</ele>
      </trkpt>
      <trkpt lat="50.85859" lon="5.79785">
        <ele>128.0</ele>
      </trkpt>
      <trkpt lat="50.86078" lon="5.79661">
        <ele>125.0</ele>
      </trkpt>
      <trkpt lat="50.8623" lon="5.79152">
        <ele>125.0</ele>
      </trkpt>
      <trkpt lat="50.86519" lon="5.79044">
        <ele>102.0</ele>
      </trkpt>
      <trkpt lat="50.86721" lon="5.79094">
        <ele>70.0</ele>
      </trkpt>
      <trkpt lat="50.86733" lon="5.78957">
        <ele>70.0</ele>
      </trkpt>
      <trkpt lat="50.86796" lon="5.78773">
        <ele>69.0</ele>
      </trkpt>
      <trkpt lat="50.86828" lon="5.78651">
        <ele>67.0</ele>
      </trkpt>
      <trkpt lat="50.8688" lon="5.78384">
        <ele>68.0</ele>
      </trkpt>
      <trkpt lat="50.86798" lon="5.78342">
        <ele>73.0</ele>
      </trkpt>
      <trkpt lat="50.8662" lon="5.7829">
        <ele>89.0</ele>
      </trkpt>
      <trkpt lat="50.86327" lon="5.77873">
        <ele>111.0</ele>
      </trkpt>
      <trkpt lat="50.86475" lon="5.77647">
        <ele>120.0</ele>
      </trkpt>
      <trkpt lat="50.86472" lon="5.77246">
        <ele>119.0</ele>
      </trkpt>
      <trkpt lat="50.86509" lon="5.77099">
        <ele>120.0</ele>
      </trkpt>
      <trkpt lat="50.86567" lon="5.76733">
        <ele>116.0</ele>
      </trkpt>
      <trkpt lat="50.86492" lon="5.7641">
        <ele>109.0</ele>
      </trkpt>
      <trkpt lat="50.86432" lon="5.76274">
        <ele>101.0</ele>
      </trkpt>
      <trkpt lat="50.86348" lon="5.75671">
        <ele>80.0</ele>
      </trkpt>
      <trkpt lat="50.86253" lon="5.75294">
        <ele>66.0</ele>
      </trkpt>
      <trkpt lat="50.86192" lon="5.74992">
        <ele>62.0</ele>
      </trkpt>
      <trkpt lat="50.86177" lon="5.74509">
        <ele>58.0</ele>
      </trkpt>
      <trkpt lat="50.86204" lon="5.7396">
        <ele>55.0</ele>
      </trkpt>
      <trkpt lat="50.86103" lon="5.73897">
        <ele>55.0</ele>
      </trkpt>
      <trkpt lat="50.85804" lon="5.73895">
        <ele>55.0</ele>
      </trkpt>
      <trkpt lat="50.85581" lon="5.74009">
        <ele>55.0</ele>
      </trkpt>
      <trkpt lat="50.85245" lon="5.74443">
        <ele>56.0</ele>
      </trkpt>
      <trkpt lat="50.85055" lon="5.746">
        <ele>60.0</ele>
      </trkpt>
      <trkpt lat="50.84986" lon="5.7478">
        <ele>60.0</ele>
      </trkpt>
      <trkpt lat="50.84794" lon="5.75174">
        <ele>70.0</ele>
      </trkpt>
      <trkpt lat="50.8473" lon="5.75418">
        <ele>75.0</ele>
      </trkpt>
      <trkpt lat="50.84707" lon="5.75888">
        <ele>77.0</ele>
      </trkpt>
      <trkpt lat="50.84736" lon="5.7609">
        <ele>78.0</ele>
      </trkpt>
      <trkpt lat="50.84758" lon="5.76257">
        <ele>78.0</ele>
      </trkpt>
      <trkpt lat="50.84755" lon="5.76461">
        <ele>79.0</ele>
      </trkpt>
      <trkpt lat="50.84783" lon="5.76665">
        <ele>79.0</ele>
      </trkpt>
      <trkpt lat="50.84775" lon="5.76818">
        <ele>86.0</ele>
      </trkpt>
      <trkpt lat="50.84817" lon="5.7688">
        <ele>92.0</ele>
      </trkpt>
      <trkpt lat="50.84875" lon="5.76968">
        <ele>95.0</ele>
      </trkpt>
      <trkpt lat="50.84856" lon="5.77048">
        <ele>104.0</ele>
      </trkpt>
      <trkpt lat="50.84805" lon="5.76979">
        <ele>108.0</ele>
      </trkpt>
      <trkpt lat="50.84702" lon="5.7698">
        <ele>112.0</ele>
      </trkpt>
      <trkpt lat="50.84652" lon="5.7712">
        <ele>115.0</ele>
      </trkpt>
      <trkpt lat="50.84549" lon="5.7736">
        <ele>120.0</ele>
      </trkpt>
      <trkpt lat="50.8446" lon="5.77806">
        <ele>123.0</ele>
      </trkpt>
      <trkpt lat="50.84396" lon="5.78282">
        <ele>133.0</ele>
      </trkpt>
      <trkpt lat="50.84372" lon="5.78582">
        <ele>138.0</ele>
      </trkpt>
      <trkpt lat="50.84421" lon="5.78972">
        <ele>139.0</ele>
      </trkpt>
      <trkpt lat="50.84533" lon="5.7899">
        <ele>134.0</ele>
      </trkpt>
      <trkpt lat="50.8466" lon="5.78841">
        <ele>133.0</ele>
      </trkpt>
      <trkpt lat="50.85282" lon="5.78556">
        <ele>124.0</ele>
      </trkpt>
      <trkpt lat="50.85379" lon="5.78767">
        <ele>122.0</ele>
      </trkpt>
      <trkpt lat="50.85484" lon="5.79049">
        <ele>112.0</ele>
      </trkpt>
      <trkpt lat="50.85592" lon="5.79159">
        <ele>111.0</ele>
      </trkpt>
      <trkpt lat="50.85632" lon="5.79274">
        <ele>111.0</ele>
      </trkpt>
      <trkpt lat="50.85635" lon="5.79498">
        <ele>113.0</ele>
      </trkpt>
      <trkpt lat="50.85545" lon="5.79711">
        <ele>114.0</ele>
      </trkpt>
      <trkpt lat="50.85469" lon="5.79768">
        <ele>114.0</ele>
      </trkpt>
      <trkpt lat="50.85366" lon="5.79874">
        <ele>117.0</ele>
      </trkpt>
      <trkpt lat="50.85244" lon="5.80041">
        <ele>120.0</ele>
      </trkpt>
      <trkpt lat="50.85131" lon="5.80263">
        <ele>125.0</ele>
      </trkpt>
      <trkpt lat="50.85162" lon="5.80509">
        <ele>128.0</ele>
      </trkpt>
      <trkpt lat="50.85282" lon="5.80872">
        <ele>132.0</ele>
      </trkpt>
      <trkpt lat="50.85367" lon="5.81201">
        <ele>135.0</ele>
      </trkpt>
      <trkpt lat="50.85326" lon="5.81287">
        <ele>136.0</ele>
      </trkpt>
      <trkpt lat="50.85136" lon="5.81457">
        <ele>141.0</ele>
      </trkpt>
      <trkpt lat="50.84951" lon="5.815">
        <ele>145.0</ele>
      </trkpt>
      <trkpt lat="50.84789" lon="5.81764">
        <ele>151.0</ele>
      </trkpt>
      <trkpt lat="50.84795" lon="5.81787">
        <ele>151.0</ele>
      </trkpt>
      <trkpt lat="50.85108" lon="5.82096">
        <ele>147.0</ele>
      </trkpt>
      <trkpt lat="50.85274" lon="5.82178">
        <ele>142.0</ele>
      </trkpt>
      <trkpt lat="50.85417" lon="5.82403">
        <ele>138.0</ele>
      </trkpt>
      <trkpt lat="50.85637" lon="5.82563">
        <ele>127.0</ele>
      </trkpt>
      <trkpt lat="50.85777" lon="5.82732">
        <ele>112.0</ele>
      </trkpt>
      <trkpt lat="50.85981" lon="5.8301">
        <ele>95.0</ele>
      </trkpt>
      <trkpt lat="50.86185" lon="5.82984">
        <ele>84.0</ele>
      </trkpt>
      <trkpt lat="50.86236" lon="5.82921">
        <ele>84.0</ele>
      </trkpt>
      <trkpt lat="50.86135" lon="5.8257">
        <ele>106.0</ele>
      </trkpt>
      <trkpt lat="50.86093" lon="5.82351">
        <ele>127.0</ele>
      </trkpt>
      <trkpt lat="50.85713" lon="5.82129">
        <ele>133.0</ele>
      </trkpt>
      <trkpt lat="50.85689" lon="5.81646">
        <ele>140.0</ele>
      </trkpt>
      <trkpt lat="50.85747" lon="5.80982">
        <ele>134.0</ele>
      </trkpt>
      <trkpt lat="50.85855" lon="5.79834">
        <ele>128.0</ele>
      </trkpt>
    </trkseg>
  </trk>
</gpx>