<?xml version="1.0" encoding="UTF-8"?>
<gpx xmlns="http://www.topografix.com/GPX/1/0" xmlns:xsi="http://www.w3.org/2001/XMLSchema-instance" xsi:schemaLocation="http://www.topografix.com/GPX/1/0 http://www.topografix.com/GPX/1/0/gpx.xsd" version="1.0" creator="GPSBabel - https://www.gpsbabel.org">
  <time>2026-02-11T07:14:11.289000Z</time>
  <bounds minlat="50.73753" maxlat="50.88378" minlon="3.29819" maxlon="3.83967" />
  <trk>
    <trkseg>
      <trkpt lat="50.86538" lon="3.32865">
        <ele>14.0</ele>
      </trkpt>
      <trkpt lat="50.86775" lon="3.3336">
        <ele>14.0</ele>
      </trkpt>
      <trkpt lat="50.87096" lon="3.34029">
        <ele>16.0</ele>
      </trkpt>
      <trkpt lat="50.87349" lon="3.34561">
        <ele>16.0</ele>
      </trkpt>
      <trkpt lat="50.87565" lon="3.35019">
        <ele>15.0</ele>
      </trkpt>
      <trkpt lat="50.8784" lon="3.35598">
        <ele>17.0</ele>
      </trkpt>
      <trkpt lat="50.87995" lon="3.35933">
        <ele>16.0</ele>
      </trkpt>
      <trkpt lat="50.87902" lon="3.36076">
        <ele>15.0</ele>
      </trkpt>
      <trkpt lat="50.87722" lon="3.36278">
        <ele>15.0</ele>
      </trkpt>
      <trkpt lat="50.87527" lon="3.36495">
        <ele>15.0</ele>
      </trkpt>
      <trkpt lat="50.87463" lon="3.36666">
        <ele>15.0</ele>
      </trkpt>
      <trkpt lat="50.87316" lon="3.36818">
        <ele>14.0</ele>
      </trkpt>
      <trkpt lat="50.87165" lon="3.3684">
        <ele>14.0</ele>
      </trkpt>
      <trkpt lat="50.8688" lon="3.37082">
        <ele>16.0</ele>
      </trkpt>
      <trkpt lat="50.86542" lon="3.37446">
        <ele>16.0</ele>
      </trkpt>
      <trkpt lat="50.86111" lon="3.37696">
        <ele>15.0</ele>
      </trkpt>
      <trkpt lat="50.85959" lon="3.3779">
        <ele>16.0</ele>
      </trkpt>
      <trkpt lat="50.86169" lon="3.3835">
        <ele>14.0</ele>
      </trkpt>
      <trkpt lat="50.86465" lon="3.39135">
        <ele>15.0</ele>
      </trkpt>
      <trkpt lat="50.86673" lon="3.39757">
        <ele>17.0</ele>
      </trkpt>
      <trkpt lat="50.86448" lon="3.39887">
        <ele>17.0</ele>
      </trkpt>
      <trkpt lat="50.86168" lon="3.40029">
        <ele>14.0</ele>
      </trkpt>
      <trkpt lat="50.8583" lon="3.40266">
        <ele>12.0</ele>
      </trkpt>
      <trkpt lat="50.85684" lon="3.40467">
        <ele>12.0</ele>
      </trkpt>
      <trkpt lat="50.85635" lon="3.40596">
        <ele>10.0</ele>
      </trkpt>
      <trkpt lat="50.8541" lon="3.40756">
        <ele>11.0</ele>
      </trkpt>
      <trkpt lat="50.8536" lon="3.40834">
        <ele>17.0</ele>
      </trkpt>
      <trkpt lat="50.85329" lon="3.41037">
        <ele>15.0</ele>
      </trkpt>
      <trkpt lat="50.85292" lon="3.41296">
        <ele>16.0</ele>
      </trkpt>
      <trkpt lat="50.85267" lon="3.41388">
        <ele>15.0</ele>
      </trkpt>
      <trkpt lat="50.8522" lon="3.41618">
        <ele>15.0</ele>
      </trkpt>
      <trkpt lat="50.85164" lon="3.4173">
        <ele>17.0</ele>
      </trkpt>
      <trkpt lat="50.85141" lon="3.41815">
        <ele>17.0</ele>
      </trkpt>
      <trkpt lat="50.85148" lon="3.41901">
        <ele>16.0</ele>
      </trkpt>
      <trkpt lat="50.84967" lon="3.42757">
        <ele>20.0</ele>
      </trkpt>
      <trkpt lat="50.84376" lon="3.43161">
        <ele>31.0</ele>
      </trkpt>
      <trkpt lat="50.84444" lon="3.43393">
        <ele>27.0</ele>
      </trkpt>
      <trkpt lat="50.84697" lon="3.43804">
        <ele>23.0</ele>
      </trkpt>
      <trkpt lat="50.84792" lon="3.43973">
        <ele>20.0</ele>
      </trkpt>
      <trkpt lat="50.84824" lon="3.44107">
        <ele>23.0</ele>
      </trkpt>
      <trkpt lat="50.84856" lon="3.44327">
        <ele>22.0</ele>
      </trkpt>
      <trkpt lat="50.84854" lon="3.44586">
        <ele>22.0</ele>
      </trkpt>
      <trkpt lat="50.8487" lon="3.44712">
        <ele>22.0</ele>
      </trkpt>
      <trkpt lat="50.84894" lon="3.44854">
        <ele>20.0</ele>
      </trkpt>
      <trkpt lat="50.84805" lon="3.45076">
        <ele>19.0</ele>
      </trkpt>
      <trkpt lat="50.84685" lon="3.4537">
        <ele>19.0</ele>
      </trkpt>
      <trkpt lat="50.84668" lon="3.45536">
        <ele>21.0</ele>
      </trkpt>
      <trkpt lat="50.84602" lon="3.46016">
        <ele>18.0</ele>
      </trkpt>
      <trkpt lat="50.84516" lon="3.46212">
        <ele>24.0</ele>
      </trkpt>
      <trkpt lat="50.84297" lon="3.46861">
        <ele>33.0</ele>
      </trkpt>
      <trkpt lat="50.84329" lon="3.4695">
        <ele>32.0</ele>
      </trkpt>
      <trkpt lat="50.84344" lon="3.47005">
        <ele>33.0</ele>
      </trkpt>
      <trkpt lat="50.84412" lon="3.47098">
        <ele>32.0</ele>
      </trkpt>
      <trkpt lat="50.84712" lon="3.476">
        <ele>28.0</ele>
      </trkpt>
      <trkpt lat="50.85139" lon="3.48314">
        <ele>36.0</ele>
      </trkpt>
      <trkpt lat="50.85151" lon="3.48886">
        <ele>38.0</ele>
      </trkpt>
      <trkpt lat="50.85199" lon="3.49028">
        <ele>36.0</ele>
      </trkpt>
      <trkpt lat="50.85573" lon="3.49438">
        <ele>40.0</ele>
      </trkpt>
      <trkpt lat="50.8549" lon="3.50322">
        <ele>56.0</ele>
      </trkpt>
      <trkpt lat="50.85323" lon="3.50772">
        <ele>69.0</ele>
      </trkpt>
      <trkpt lat="50.85242" lon="3.50924">
        <ele>66.0</ele>
      </trkpt>
      <trkpt lat="50.85207" lon="3.51029">
        <ele>65.0</ele>
      </trkpt>
      <trkpt lat="50.8526" lon="3.51091">
        <ele>66.0</ele>
      </trkpt>
      <trkpt lat="50.85429" lon="3.5135">
        <ele>69.0</ele>
      </trkpt>
      <trkpt lat="50.85524" lon="3.51883">
        <ele>69.0</ele>
      </trkpt>
      <trkpt lat="50.85597" lon="3.52321">
        <ele>70.0</ele>
      </trkpt>
      <trkpt lat="50.85733" lon="3.52893">
        <ele>67.0</ele>
      </trkpt>
      <trkpt lat="50.85754" lon="3.5348">
        <ele>66.0</ele>
      </trkpt>
      <trkpt lat="50.85703" lon="3.54048">
        <ele>66.0</ele>
      </trkpt>
      <trkpt lat="50.85618" lon="3.55025">
        <ele>61.0</ele>
      </trkpt>
      <trkpt lat="50.85455" lon="3.55814">
        <ele>49.0</ele>
      </trkpt>
      <trkpt lat="50.85473" lon="3.56151">
        <ele>35.0</ele>
      </trkpt>
      <trkpt lat="50.85467" lon="3.56521">
        <ele>29.0</ele>
      </trkpt>
      <trkpt lat="50.85511" lon="3.56941">
        <ele>21.0</ele>
      </trkpt>
      <trkpt lat="50.85496" lon="3.5711">
        <ele>23.0</ele>
      </trkpt>
      <trkpt lat="50.85508" lon="3.57773">
        <ele>26.0</ele>
      </trkpt>
      <trkpt lat="50.85468" lon="3.58294">
        <ele>27.0</ele>
      </trkpt>
      <trkpt lat="50.85276" lon="3.59143">
        <ele>26.0</ele>
      </trkpt>
      <trkpt lat="50.85455" lon="3.59254">
        <ele>25.0</ele>
      </trkpt>
      <trkpt lat="50.85718" lon="3.59323">
        <ele>29.0</ele>
      </trkpt>
      <trkpt lat="50.86163" lon="3.59795">
        <ele>24.0</ele>
      </trkpt>
      <trkpt lat="50.86191" lon="3.59842">
        <ele>26.0</ele>
      </trkpt>
      <trkpt lat="50.86889" lon="3.60632">
        <ele>16.0</ele>
      </trkpt>
      <trkpt lat="50.87505" lon="3.61227">
        <ele>21.0</ele>
      </trkpt>
      <trkpt lat="50.87827" lon="3.61518">
        <ele>28.0</ele>
      </trkpt>
      <trkpt lat="50.87936" lon="3.61614">
        <ele>25.0</ele>
      </trkpt>
      <trkpt lat="50.878" lon="3.61712">
        <ele>27.0</ele>
      </trkpt>
      <trkpt lat="50.87279" lon="3.61861">
        <ele>18.0</ele>
      </trkpt>
      <trkpt lat="50.86996" lon="3.62195">
        <ele>13.0</ele>
      </trkpt>
      <trkpt lat="50.87016" lon="3.62373">
        <ele>12.0</ele>
      </trkpt>
      <trkpt lat="50.87011" lon="3.62635">
        <ele>14.0</ele>
      </trkpt>
      <trkpt lat="50.87086" lon="3.62955">
        <ele>13.0</ele>
      </trkpt>
      <trkpt lat="50.87044" lon="3.6317">
        <ele>9.0</ele>
      </trkpt>
      <trkpt lat="50.8684" lon="3.63309">
        <ele>12.0</ele>
      </trkpt>
      <trkpt lat="50.86734" lon="3.63362">
        <ele>10.0</ele>
      </trkpt>
      <trkpt lat="50.86677" lon="3.63439">
        <ele>10.0</ele>
      </trkpt>
      <trkpt lat="50.86599" lon="3.63507">
        <ele>12.0</ele>
      </trkpt>
      <trkpt lat="50.86461" lon="3.63468">
        <ele>12.0</ele>
      </trkpt>
      <trkpt lat="50.86299" lon="3.6338">
        <ele>10.0</ele>
      </trkpt>
      <trkpt lat="50.86191" lon="3.63606">
        <ele>9.0</ele>
      </trkpt>
      <trkpt lat="50.85985" lon="3.63415">
        <ele>12.0</ele>
      </trkpt>
      <trkpt lat="50.85768" lon="3.63244">
        <ele>10.0</ele>
      </trkpt>
      <trkpt lat="50.85668" lon="3.6315">
        <ele>15.0</ele>
      </trkpt>
      <trkpt lat="50.85606" lon="3.63084">
        <ele>14.0</ele>
      </trkpt>
      <trkpt lat="50.85502" lon="3.63299">
        <ele>15.0</ele>
      </trkpt>
      <trkpt lat="50.8546" lon="3.63398">
        <ele>16.0</ele>
      </trkpt>
      <trkpt lat="50.85408" lon="3.63578">
        <ele>14.0</ele>
      </trkpt>
      <trkpt lat="50.85396" lon="3.63716">
        <ele>13.0</ele>
      </trkpt>
      <trkpt lat="50.85296" lon="3.63889">
        <ele>18.0</ele>
      </trkpt>
      <trkpt lat="50.85066" lon="3.64092">
        <ele>38.0</ele>
      </trkpt>
      <trkpt lat="50.84836" lon="3.64278">
        <ele>65.0</ele>
      </trkpt>
      <trkpt lat="50.84767" lon="3.64225">
        <ele>64.0</ele>
      </trkpt>
      <trkpt lat="50.84674" lon="3.64325">
        <ele>66.0</ele>
      </trkpt>
      <trkpt lat="50.846" lon="3.64319">
        <ele>67.0</ele>
      </trkpt>
      <trkpt lat="50.84548" lon="3.64269">
        <ele>67.0</ele>
      </trkpt>
      <trkpt lat="50.84456" lon="3.64408">
        <ele>67.0</ele>
      </trkpt>
      <trkpt lat="50.84373" lon="3.64546">
        <ele>72.0</ele>
      </trkpt>
      <trkpt lat="50.84284" lon="3.64653">
        <ele>73.0</ele>
      </trkpt>
      <trkpt lat="50.84053" lon="3.64875">
        <ele>80.0</ele>
      </trkpt>
      <trkpt lat="50.83663" lon="3.65047">
        <ele>79.0</ele>
      </trkpt>
      <trkpt lat="50.83172" lon="3.65385">
        <ele>90.0</ele>
      </trkpt>
      <trkpt lat="50.83136" lon="3.65605">
        <ele>90.0</ele>
      </trkpt>
      <trkpt lat="50.83138" lon="3.65933">
        <ele>87.0</ele>
      </trkpt>
      <trkpt lat="50.83112" lon="3.66244">
        <ele>86.0</ele>
      </trkpt>
      <trkpt lat="50.83086" lon="3.66568">
        <ele>88.0</ele>
      </trkpt>
      <trkpt lat="50.83124" lon="3.6685">
        <ele>90.0</ele>
      </trkpt>
      <trkpt lat="50.8311" lon="3.67451">
        <ele>97.0</ele>
      </trkpt>
      <trkpt lat="50.83091" lon="3.67683">
        <ele>101.0</ele>
      </trkpt>
      <trkpt lat="50.83015" lon="3.67906">
        <ele>98.0</ele>
      </trkpt>
      <trkpt lat="50.83058" lon="3.67997">
        <ele>96.0</ele>
      </trkpt>
      <trkpt lat="50.8316" lon="3.68147">
        <ele>97.0</ele>
      </trkpt>
      <trkpt lat="50.8343" lon="3.68395">
        <ele>98.0</ele>
      </trkpt>
      <trkpt lat="50.83502" lon="3.68505">
        <ele>96.0</ele>
      </trkpt>
      <trkpt lat="50.8369" lon="3.68594">
        <ele>91.0</ele>
      </trkpt>
      <trkpt lat="50.83741" lon="3.68721">
        <ele>90.0</ele>
      </trkpt>
      <trkpt lat="50.83762" lon="3.68797">
        <ele>89.0</ele>
      </trkpt>
      <trkpt lat="50.83826" lon="3.68863">
        <ele>88.0</ele>
      </trkpt>
      <trkpt lat="50.83991" lon="3.6906">
        <ele>78.0</ele>
      </trkpt>
      <trkpt lat="50.84138" lon="3.69328">
        <ele>74.0</ele>
      </trkpt>
      <trkpt lat="50.84325" lon="3.69571">
        <ele>68.0</ele>
      </trkpt>
      <trkpt lat="50.84426" lon="3.69694">
        <ele>65.0</ele>
      </trkpt>
      <trkpt lat="50.84585" lon="3.6988">
        <ele>57.0</ele>
      </trkpt>
      <trkpt lat="50.84655" lon="3.70037">
        <ele>53.0</ele>
      </trkpt>
      <trkpt lat="50.84756" lon="3.70196">
        <ele>48.0</ele>
      </trkpt>
      <trkpt lat="50.84862" lon="3.70325">
        <ele>41.0</ele>
      </trkpt>
      <trkpt lat="50.84978" lon="3.70503">
        <ele>37.0</ele>
      </trkpt>
      <trkpt lat="50.85073" lon="3.70683">
        <ele>33.0</ele>
      </trkpt>
      <trkpt lat="50.85093" lon="3.70802">
        <ele>31.0</ele>
      </trkpt>
      <trkpt lat="50.85064" lon="3.71068">
        <ele>31.0</ele>
      </trkpt>
      <trkpt lat="50.85019" lon="3.71432">
        <ele>38.0</ele>
      </trkpt>
      <trkpt lat="50.85027" lon="3.71601">
        <ele>45.0</ele>
      </trkpt>
      <trkpt lat="50.85123" lon="3.71862">
        <ele>54.0</ele>
      </trkpt>
      <trkpt lat="50.85202" lon="3.72004">
        <ele>59.0</ele>
      </trkpt>
      <trkpt lat="50.85233" lon="3.72388">
        <ele>62.0</ele>
      </trkpt>
      <trkpt lat="50.85176" lon="3.72907">
        <ele>64.0</ele>
      </trkpt>
      <trkpt lat="50.85166" lon="3.73307">
        <ele>68.0</ele>
      </trkpt>
      <trkpt lat="50.85458" lon="3.74204">
        <ele>68.0</ele>
      </trkpt>
      <trkpt lat="50.85729" lon="3.74844">
        <ele>58.0</ele>
      </trkpt>
      <trkpt lat="50.85882" lon="3.74944">
        <ele>51.0</ele>
      </trkpt>
      <trkpt lat="50.86106" lon="3.75049">
        <ele>44.0</ele>
      </trkpt>
      <trkpt lat="50.86306" lon="3.75167">
        <ele>44.0</ele>
      </trkpt>
      <trkpt lat="50.86539" lon="3.75176">
        <ele>45.0</ele>
      </trkpt>
      <trkpt lat="50.866" lon="3.75301">
        <ele>44.0</ele>
      </trkpt>
      <trkpt lat="50.86652" lon="3.75377">
        <ele>42.0</ele>
      </trkpt>
      <trkpt lat="50.86751" lon="3.75332">
        <ele>31.0</ele>
      </trkpt>
      <trkpt lat="50.86821" lon="3.75322">
        <ele>31.0</ele>
      </trkpt>
      <trkpt lat="50.86887" lon="3.75406">
        <ele>26.0</ele>
      </trkpt>
      <trkpt lat="50.86979" lon="3.75464">
        <ele>24.0</ele>
      </trkpt>
      <trkpt lat="50.87053" lon="3.75557">
        <ele>21.0</ele>
      </trkpt>
      <trkpt lat="50.87159" lon="3.7561">
        <ele>21.0</ele>
      </trkpt>
      <trkpt lat="50.87256" lon="3.75603">
        <ele>23.0</ele>
      </trkpt>
      <trkpt lat="50.8729" lon="3.75818">
        <ele>19.0</ele>
      </trkpt>
      <trkpt lat="50.87364" lon="3.76144">
        <ele>23.0</ele>
      </trkpt>
      <trkpt lat="50.87477" lon="3.76249">
        <ele>23.0</ele>
      </trkpt>
      <trkpt lat="50.8761" lon="3.76231">
        <ele>29.0</ele>
      </trkpt>
      <trkpt lat="50.87687" lon="3.76269">
        <ele>33.0</ele>
      </trkpt>
      <trkpt lat="50.87757" lon="3.7649">
        <ele>33.0</ele>
      </trkpt>
      <trkpt lat="50.87895" lon="3.76833">
        <ele>36.0</ele>
      </trkpt>
      <trkpt lat="50.88097" lon="3.77335">
        <ele>43.0</ele>
      </trkpt>
      <trkpt lat="50.88163" lon="3.77491">
        <ele>47.0</ele>
      </trkpt>
      <trkpt lat="50.88277" lon="3.77831">
        <ele>43.0</ele>
      </trkpt>
      <trkpt lat="50.88378" lon="3.78113">
        <ele>42.0</ele>
      </trkpt>
      <trkpt lat="50.88333" lon="3.78125">
        <ele>41.0</ele>
      </trkpt>
      <trkpt lat="50.88245" lon="3.78247">
        <ele>46.0</ele>
      </trkpt>
      <trkpt lat="50.88139" lon="3.78349">
        <ele>43.0</ele>
      </trkpt>
      <trkpt lat="50.88082" lon="3.78301">
        <ele>36.0</ele>
      </trkpt>
      <trkpt lat="50.8802" lon="3.7824">
        <ele>33.0</ele>
      </trkpt>
      <trkpt lat="50.87965" lon="3.78146">
        <ele>29.0</ele>
      </trkpt>
      <trkpt lat="50.87858" lon="3.7813">
        <ele>30.0</ele>
      </trkpt>
      <trkpt lat="50.87499" lon="3.78489">
        <ele>43.0</ele>
      </trkpt>
      <trkpt lat="50.87273" lon="3.78848">
        <ele>54.0</ele>
      </trkpt>
      <trkpt lat="50.87049" lon="3.78828">
        <ele>54.0</ele>
      </trkpt>
      <trkpt lat="50.8684" lon="3.78764">
        <ele>48.0</ele>
      </trkpt>
      <trkpt lat="50.86815" lon="3.78881">
        <ele>48.0</ele>
      </trkpt>
      <trkpt lat="50.86809" lon="3.79071">
        <ele>52.0</ele>
      </trkpt>
      <trkpt lat="50.86819" lon="3.79311">
        <ele>53.0</ele>
      </trkpt>
      <trkpt lat="50.86839" lon="3.79562">
        <ele>58.0</ele>
      </trkpt>
      <trkpt lat="50.86793" lon="3.79739">
        <ele>59.0</ele>
      </trkpt>
      <trkpt lat="50.86735" lon="3.79941">
        <ele>58.0</ele>
      </trkpt>
      <trkpt lat="50.86676" lon="3.80181">
        <ele>57.0</ele>
      </trkpt>
      <trkpt lat="50.86633" lon="3.80508">
        <ele>57.0</ele>
      </trkpt>
      <trkpt lat="50.86675" lon="3.8065">
        <ele>59.0</ele>
      </trkpt>
      <trkpt lat="50.86732" lon="3.80831">
        <ele>62.0</ele>
      </trkpt>
      <trkpt lat="50.86452" lon="3.81111">
        <ele>67.0</ele>
      </trkpt>
      <trkpt lat="50.86299" lon="3.81193">
        <ele>69.0</ele>
      </trkpt>
      <trkpt lat="50.86058" lon="3.81201">
        <ele>62.0</ele>
      </trkpt>
      <trkpt lat="50.8597" lon="3.81255">
        <ele>62.0</ele>
      </trkpt>
      <trkpt lat="50.8582" lon="3.81302">
        <ele>70.0</ele>
      </trkpt>
      <trkpt lat="50.85589" lon="3.81328">
        <ele>81.0</ele>
      </trkpt>
      <trkpt lat="50.85525" lon="3.81477">
        <ele>83.0</ele>
      </trkpt>
      <trkpt lat="50.85463" lon="3.81672">
        <ele>88.0</ele>
      </trkpt>
      <trkpt lat="50.85317" lon="3.81892">
        <ele>89.0</ele>
      </trkpt>
      <trkpt lat="50.85128" lon="3.82002">
        <ele>84.0</ele>
      </trkpt>
      <trkpt lat="50.84915" lon="3.82243">
        <ele>80.0</ele>
      </trkpt>
      <trkpt lat="50.84714" lon="3.82484">
        <ele>82.0</ele>
      </trkpt>
      <trkpt lat="50.84527" lon="3.82566">
        <ele>84.0</ele>
      </trkpt>
      <trkpt lat="50.8435" lon="3.82246">
        <ele>88.0</ele>
      </trkpt>
      <trkpt lat="50.84132" lon="3.819">
        <ele>87.0</ele>
      </trkpt>
      <trkpt lat="50.83946" lon="3.82098">
        <ele>90.0</ele>
      </trkpt>
      <trkpt lat="50.8376" lon="3.82136">
        <ele>88.0</ele>
      </trkpt>
      <trkpt lat="50.83543" lon="3.82171">
        <ele>77.0</ele>
      </trkpt>
      <trkpt lat="50.83365" lon="3.82331">
        <ele>67.0</ele>
      </trkpt>
      <trkpt lat="50.83099" lon="3.82473">
        <ele>56.0</ele>
      </trkpt>
      <trkpt lat="50.82858" lon="3.82708">
        <ele>47.0</ele>
      </trkpt>
      <trkpt lat="50.82573" lon="3.82774">
        <ele>46.0</ele>
      </trkpt>
      <trkpt lat="50.8253" lon="3.82772">
        <ele>45.0</ele>
      </trkpt>
      <trkpt lat="50.82458" lon="3.82718">
        <ele>46.0</ele>
      </trkpt>
      <trkpt lat="50.82393" lon="3.82246">
        <ele>46.0</ele>
      </trkpt>
      <trkpt lat="50.82069" lon="3.82159">
        <ele>46.0</ele>
      </trkpt>
      <trkpt lat="50.81909" lon="3.82239">
        <ele>51.0</ele>
      </trkpt>
      <trkpt lat="50.81756" lon="3.82296">
        <ele>58.0</ele>
      </trkpt>
      <trkpt lat="50.81731" lon="3.82243">
        <ele>58.0</ele>
      </trkpt>
      <trkpt lat="50.81716" lon="3.82252">
        <ele>59.0</ele>
      </trkpt>
      <trkpt lat="50.81664" lon="3.82364">
        <ele>58.0</ele>
      </trkpt>
      <trkpt lat="50.81573" lon="3.82442">
        <ele>56.0</ele>
      </trkpt>
      <trkpt lat="50.81492" lon="3.82349">
        <ele>57.0</ele>
      </trkpt>
      <trkpt lat="50.81365" lon="3.82369">
        <ele>52.0</ele>
      </trkpt>
      <trkpt lat="50.81257" lon="3.82322">
        <ele>51.0</ele>
      </trkpt>
      <trkpt lat="50.81175" lon="3.82273">
        <ele>51.0</ele>
      </trkpt>
      <trkpt lat="50.8094" lon="3.82273">
        <ele>41.0</ele>
      </trkpt>
      <trkpt lat="50.80515" lon="3.82424">
        <ele>42.0</ele>
      </trkpt>
      <trkpt lat="50.80271" lon="3.82523">
        <ele>46.0</ele>
      </trkpt>
      <trkpt lat="50.80262" lon="3.82545">
        <ele>45.0</ele>
      </trkpt>
      <trkpt lat="50.80236" lon="3.8268">
        <ele>42.0</ele>
      </trkpt>
      <trkpt lat="50.8011" lon="3.82854">
        <ele>42.0</ele>
      </trkpt>
      <trkpt lat="50.79948" lon="3.82844">
        <ele>39.0</ele>
      </trkpt>
      <trkpt lat="50.79508" lon="3.8294">
        <ele>30.0</ele>
      </trkpt>
      <trkpt lat="50.79197" lon="3.83496">
        <ele>34.0</ele>
      </trkpt>
      <trkpt lat="50.79101" lon="3.83671">
        <ele>43.0</ele>
      </trkpt>
      <trkpt lat="50.78828" lon="3.83925">
        <ele>47.0</ele>
      </trkpt>
      <trkpt lat="50.78723" lon="3.83914">
        <ele>46.0</ele>
      </trkpt>
      <trkpt lat="50.78634" lon="3.8357">
        <ele>51.0</ele>
      </trkpt>
      <trkpt lat="50.78501" lon="3.83278">
        <ele>54.0</ele>
      </trkpt>
      <trkpt lat="50.78285" lon="3.82865">
        <ele>58.0</ele>
      </trkpt>
      <trkpt lat="50.78018" lon="3.82307">
        <ele>65.0</ele>
      </trkpt>
      <trkpt lat="50.78002" lon="3.81863">
        <ele>71.0</ele>
      </trkpt>
      <trkpt lat="50.77893" lon="3.81302">
        <ele>72.0</ele>
      </trkpt>
      <trkpt lat="50.77827" lon="3.80988">
        <ele>71.0</ele>
      </trkpt>
      <trkpt lat="50.77774" lon="3.80539">
        <ele>87.0</ele>
      </trkpt>
      <trkpt lat="50.77786" lon="3.80444">
        <ele>87.0</ele>
      </trkpt>
      <trkpt lat="50.77736" lon="3.80052">
        <ele>88.0</ele>
      </trkpt>
      <trkpt lat="50.77712" lon="3.79989">
        <ele>90.0</ele>
      </trkpt>
      <trkpt lat="50.77621" lon="3.79754">
        <ele>88.0</ele>
      </trkpt>
      <trkpt lat="50.77538" lon="3.79315">
        <ele>90.0</ele>
      </trkpt>
      <trkpt lat="50.77594" lon="3.79096">
        <ele>88.0</ele>
      </trkpt>
      <trkpt lat="50.77658" lon="3.78771">
        <ele>95.0</ele>
      </trkpt>
      <trkpt lat="50.77536" lon="3.78462">
        <ele>93.0</ele>
      </trkpt>
      <trkpt lat="50.77447" lon="3.78105">
        <ele>96.0</ele>
      </trkpt>
      <trkpt lat="50.77378" lon="3.77818">
        <ele>98.0</ele>
      </trkpt>
      <trkpt lat="50.77391" lon="3.77656">
        <ele>98.0</ele>
      </trkpt>
      <trkpt lat="50.77387" lon="3.77552">
        <ele>98.0</ele>
      </trkpt>
      <trkpt lat="50.77348" lon="3.77276">
        <ele>100.0</ele>
      </trkpt>
      <trkpt lat="50.77253" lon="3.77136">
        <ele>104.0</ele>
      </trkpt>
      <trkpt lat="50.77113" lon="3.76801">
        <ele>110.0</ele>
      </trkpt>
      <trkpt lat="50.76995" lon="3.76633">
        <ele>114.0</ele>
      </trkpt>
      <trkpt lat="50.76945" lon="3.76571">
        <ele>112.0</ele>
      </trkpt>
      <trkpt lat="50.76789" lon="3.76177">
        <ele>102.0</ele>
      </trkpt>
      <trkpt lat="50.76743" lon="3.75829">
        <ele>109.0</ele>
      </trkpt>
      <trkpt lat="50.76607" lon="3.75539">
        <ele>113.0</ele>
      </trkpt>
      <trkpt lat="50.76387" lon="3.75068">
        <ele>120.0</ele>
      </trkpt>
      <trkpt lat="50.76324" lon="3.74991">
        <ele>122.0</ele>
      </trkpt>
      <trkpt lat="50.76194" lon="3.74854">
        <ele>120.0</ele>
      </trkpt>
      <trkpt lat="50.76105" lon="3.74763">
        <ele>122.0</ele>
      </trkpt>
      <trkpt lat="50.75997" lon="3.74844">
        <ele>122.0</ele>
      </trkpt>
      <trkpt lat="50.75863" lon="3.74873">
        <ele>119.0</ele>
      </trkpt>
      <trkpt lat="50.75766" lon="3.74811">
        <ele>118.0</ele>
      </trkpt>
      <trkpt lat="50.75666" lon="3.74629">
        <ele>118.0</ele>
      </trkpt>
      <trkpt lat="50.7547" lon="3.74457">
        <ele>113.0</ele>
      </trkpt>
      <trkpt lat="50.75407" lon="3.74514">
        <ele>112.0</ele>
      </trkpt>
      <trkpt lat="50.75359" lon="3.74613">
        <ele>107.0</ele>
      </trkpt>
      <trkpt lat="50.75314" lon="3.74686">
        <ele>105.0</ele>
      </trkpt>
      <trkpt lat="50.75236" lon="3.74744">
        <ele>100.0</ele>
      </trkpt>
      <trkpt lat="50.75138" lon="3.74761">
        <ele>91.0</ele>
      </trkpt>
      <trkpt lat="50.7493" lon="3.74762">
        <ele>85.0</ele>
      </trkpt>
      <trkpt lat="50.74782" lon="3.74788">
        <ele>80.0</ele>
      </trkpt>
      <trkpt lat="50.74681" lon="3.74869">
        <ele>72.0</ele>
      </trkpt>
      <trkpt lat="50.74617" lon="3.74883">
        <ele>68.0</ele>
      </trkpt>
      <trkpt lat="50.74539" lon="3.74866">
        <ele>62.0</ele>
      </trkpt>
      <trkpt lat="50.74426" lon="3.74838">
        <ele>55.0</ele>
      </trkpt>
      <trkpt lat="50.7434" lon="3.74832">
        <ele>51.0</ele>
      </trkpt>
      <trkpt lat="50.7424" lon="3.74849">
        <ele>47.0</ele>
      </trkpt>
      <trkpt lat="50.74101" lon="3.74904">
        <ele>41.0</ele>
      </trkpt>
      <trkpt lat="50.73956" lon="3.74923">
        <ele>34.0</ele>
      </trkpt>
      <trkpt lat="50.73873" lon="3.74873">
        <ele>32.0</ele>
      </trkpt>
      <trkpt lat="50.73811" lon="3.74717">
        <ele>35.0</ele>
      </trkpt>
      <trkpt lat="50.73781" lon="3.74639">
        <ele>37.0</ele>
      </trkpt>
      <trkpt lat="50.73757" lon="3.74528">
        <ele>38.0</ele>
      </trkpt>
      <trkpt lat="50.73768" lon="3.74479">
        <ele>39.0</ele>
      </trkpt>
      <trkpt lat="50.73843" lon="3.74413">
        <ele>37.0</ele>
      </trkpt>
      <trkpt lat="50.73961" lon="3.7433">
        <ele>38.0</ele>
      </trkpt>
      <trkpt lat="50.73977" lon="3.74274">
        <ele>36.0</ele>
      </trkpt>
      <trkpt lat="50.73941" lon="3.74164">
        <ele>38.0</ele>
      </trkpt>
      <trkpt lat="50.73883" lon="3.74008">
        <ele>38.0</ele>
      </trkpt>
      <trkpt lat="50.73897" lon="3.738">
        <ele>41.0</ele>
      </trkpt>
      <trkpt lat="50.74011" lon="3.7375">
        <ele>46.0</ele>
      </trkpt>
      <trkpt lat="50.74064" lon="3.73718">
        <ele>47.0</ele>
      </trkpt>
      <trkpt lat="50.7412" lon="3.73616">
        <ele>51.0</ele>
      </trkpt>
      <trkpt lat="50.74167" lon="3.73603">
        <ele>50.0</ele>
      </trkpt>
      <trkpt lat="50.74232" lon="3.73669">
        <ele>48.0</ele>
      </trkpt>
      <trkpt lat="50.74307" lon="3.73759">
        <ele>42.0</ele>
      </trkpt>
      <trkpt lat="50.74377" lon="3.73798">
        <ele>37.0</ele>
      </trkpt>
      <trkpt lat="50.74429" lon="3.73741">
        <ele>37.0</ele>
      </trkpt>
      <trkpt lat="50.74597" lon="3.73536">
        <ele>39.0</ele>
      </trkpt>
      <trkpt lat="50.74595" lon="3.73324">
        <ele>38.0</ele>
      </trkpt>
      <trkpt lat="50.7461" lon="3.73176">
        <ele>40.0</ele>
      </trkpt>
      <trkpt lat="50.74657" lon="3.73077">
        <ele>40.0</ele>
      </trkpt>
      <trkpt lat="50.748" lon="3.72864">
        <ele>38.0</ele>
      </trkpt>
      <trkpt lat="50.74927" lon="3.72674">
        <ele>41.0</ele>
      </trkpt>
      <trkpt lat="50.74943" lon="3.72597">
        <ele>41.0</ele>
      </trkpt>
      <trkpt lat="50.74959" lon="3.72471">
        <ele>41.0</ele>
      </trkpt>
      <trkpt lat="50.75038" lon="3.72326">
        <ele>42.0</ele>
      </trkpt>
      <trkpt lat="50.75099" lon="3.72243">
        <ele>47.0</ele>
      </trkpt>
      <trkpt lat="50.75311" lon="3.71904">
        <ele>45.0</ele>
      </trkpt>
      <trkpt lat="50.75624" lon="3.71486">
        <ele>53.0</ele>
      </trkpt>
      <trkpt lat="50.75804" lon="3.71072">
        <ele>59.0</ele>
      </trkpt>
      <trkpt lat="50.75878" lon="3.71019">
        <ele>63.0</ele>
      </trkpt>
      <trkpt lat="50.75916" lon="3.70996">
        <ele>67.0</ele>
      </trkpt>
      <trkpt lat="50.75967" lon="3.71067">
        <ele>69.0</ele>
      </trkpt>
      <trkpt lat="50.76055" lon="3.71233">
        <ele>75.0</ele>
      </trkpt>
      <trkpt lat="50.76083" lon="3.71254">
        <ele>75.0</ele>
      </trkpt>
      <trkpt lat="50.76223" lon="3.71133">
        <ele>88.0</ele>
      </trkpt>
      <trkpt lat="50.76251" lon="3.71049">
        <ele>95.0</ele>
      </trkpt>
      <trkpt lat="50.76276" lon="3.70995">
        <ele>100.0</ele>
      </trkpt>
      <trkpt lat="50.76385" lon="3.70988">
        <ele>114.0</ele>
      </trkpt>
      <trkpt lat="50.76434" lon="3.70908">
        <ele>121.0</ele>
      </trkpt>
      <trkpt lat="50.7647" lon="3.70886">
        <ele>125.0</ele>
      </trkpt>
      <trkpt lat="50.76493" lon="3.70911">
        <ele>127.0</ele>
      </trkpt>
      <trkpt lat="50.76514" lon="3.71012">
        <ele>129.0</ele>
      </trkpt>
      <trkpt lat="50.76541" lon="3.71024">
        <ele>130.0</ele>
      </trkpt>
      <trkpt lat="50.76606" lon="3.70926">
        <ele>134.0</ele>
      </trkpt>
      <trkpt lat="50.76648" lon="3.70867">
        <ele>133.0</ele>
      </trkpt>
      <trkpt lat="50.76685" lon="3.70888">
        <ele>129.0</ele>
      </trkpt>
      <trkpt lat="50.76786" lon="3.70867">
        <ele>133.0</ele>
      </trkpt>
      <trkpt lat="50.76788" lon="3.70619">
        <ele>154.0</ele>
      </trkpt>
      <trkpt lat="50.7686" lon="3.70422">
        <ele>144.0</ele>
      </trkpt>
      <trkpt lat="50.76905" lon="3.70046">
        <ele>141.0</ele>
      </trkpt>
      <trkpt lat="50.77371" lon="3.69631">
        <ele>118.0</ele>
      </trkpt>
      <trkpt lat="50.77539" lon="3.69595">
        <ele>113.0</ele>
      </trkpt>
      <trkpt lat="50.78434" lon="3.6941">
        <ele>110.0</ele>
      </trkpt>
      <trkpt lat="50.78831" lon="3.68757">
        <ele>95.0</ele>
      </trkpt>
      <trkpt lat="50.78938" lon="3.68728">
        <ele>96.0</ele>
      </trkpt>
      <trkpt lat="50.79075" lon="3.68635">
        <ele>92.0</ele>
      </trkpt>
      <trkpt lat="50.79129" lon="3.68507">
        <ele>84.0</ele>
      </trkpt>
      <trkpt lat="50.79242" lon="3.68482">
        <ele>76.0</ele>
      </trkpt>
      <trkpt lat="50.79368" lon="3.68403">
        <ele>62.0</ele>
      </trkpt>
      <trkpt lat="50.7946" lon="3.68243">
        <ele>50.0</ele>
      </trkpt>
      <trkpt lat="50.79538" lon="3.68004">
        <ele>44.0</ele>
      </trkpt>
      <trkpt lat="50.79595" lon="3.67779">
        <ele>47.0</ele>
      </trkpt>
      <trkpt lat="50.79573" lon="3.67509">
        <ele>52.0</ele>
      </trkpt>
      <trkpt lat="50.79688" lon="3.67451">
        <ele>50.0</ele>
      </trkpt>
      <trkpt lat="50.79771" lon="3.67428">
        <ele>48.0</ele>
      </trkpt>
      <trkpt lat="50.79893" lon="3.67484">
        <ele>48.0</ele>
      </trkpt>
      <trkpt lat="50.80158" lon="3.67556">
        <ele>42.0</ele>
      </trkpt>
      <trkpt lat="50.80286" lon="3.67609">
        <ele>47.0</ele>
      </trkpt>
      <trkpt lat="50.80518" lon="3.67752">
        <ele>44.0</ele>
      </trkpt>
      <trkpt lat="50.80612" lon="3.67861">
        <ele>44.0</ele>
      </trkpt>
      <trkpt lat="50.8066" lon="3.67895">
        <ele>43.0</ele>
      </trkpt>
      <trkpt lat="50.80705" lon="3.67951">
        <ele>40.0</ele>
      </trkpt>
      <trkpt lat="50.80788" lon="3.68032">
        <ele>39.0</ele>
      </trkpt>
      <trkpt lat="50.8083" lon="3.68037">
        <ele>40.0</ele>
      </trkpt>
      <trkpt lat="50.80914" lon="3.67938">
        <ele>40.0</ele>
      </trkpt>
      <trkpt lat="50.81109" lon="3.682">
        <ele>32.0</ele>
      </trkpt>
      <trkpt lat="50.81239" lon="3.68035">
        <ele>31.0</ele>
      </trkpt>
      <trkpt lat="50.81301" lon="3.67984">
        <ele>31.0</ele>
      </trkpt>
      <trkpt lat="50.81408" lon="3.68091">
        <ele>34.0</ele>
      </trkpt>
      <trkpt lat="50.81562" lon="3.68098">
        <ele>42.0</ele>
      </trkpt>
      <trkpt lat="50.81797" lon="3.68154">
        <ele>66.0</ele>
      </trkpt>
      <trkpt lat="50.81894" lon="3.68278">
        <ele>69.0</ele>
      </trkpt>
      <trkpt lat="50.82085" lon="3.68488">
        <ele>80.0</ele>
      </trkpt>
      <trkpt lat="50.82177" lon="3.68585">
        <ele>89.0</ele>
      </trkpt>
      <trkpt lat="50.82281" lon="3.68589">
        <ele>95.0</ele>
      </trkpt>
      <trkpt lat="50.82404" lon="3.68583">
        <ele>98.0</ele>
      </trkpt>
      <trkpt lat="50.82587" lon="3.68628">
        <ele>99.0</ele>
      </trkpt>
      <trkpt lat="50.82752" lon="3.68415">
        <ele>94.0</ele>
      </trkpt>
      <trkpt lat="50.82826" lon="3.68256">
        <ele>95.0</ele>
      </trkpt>
      <trkpt lat="50.82989" lon="3.6798">
        <ele>98.0</ele>
      </trkpt>
      <trkpt lat="50.83074" lon="3.67751">
        <ele>99.0</ele>
      </trkpt>
      <trkpt lat="50.83106" lon="3.67518">
        <ele>99.0</ele>
      </trkpt>
      <trkpt lat="50.83066" lon="3.67438">
        <ele>95.0</ele>
      </trkpt>
      <trkpt lat="50.82969" lon="3.67424">
        <ele>96.0</ele>
      </trkpt>
      <trkpt lat="50.82912" lon="3.67319">
        <ele>90.0</ele>
      </trkpt>
      <trkpt lat="50.82802" lon="3.67419">
        <ele>90.0</ele>
      </trkpt>
      <trkpt lat="50.82615" lon="3.67406">
        <ele>84.0</ele>
      </trkpt>
      <trkpt lat="50.82471" lon="3.67411">
        <ele>69.0</ele>
      </trkpt>
      <trkpt lat="50.82284" lon="3.67351">
        <ele>44.0</ele>
      </trkpt>
      <trkpt lat="50.82122" lon="3.67229">
        <ele>34.0</ele>
      </trkpt>
      <trkpt lat="50.81949" lon="3.67174">
        <ele>31.0</ele>
      </trkpt>
      <trkpt lat="50.81776" lon="3.67062">
        <ele>27.0</ele>
      </trkpt>
      <trkpt lat="50.81565" lon="3.66865">
        <ele>28.0</ele>
      </trkpt>
      <trkpt lat="50.81424" lon="3.66531">
        <ele>25.0</ele>
      </trkpt>
      <trkpt lat="50.81507" lon="3.65863">
        <ele>30.0</ele>
      </trkpt>
      <trkpt lat="50.81581" lon="3.65564">
        <ele>31.0</ele>
      </trkpt>
      <trkpt lat="50.81591" lon="3.65412">
        <ele>31.0</ele>
      </trkpt>
      <trkpt lat="50.81529" lon="3.65405">
        <ele>30.0</ele>
      </trkpt>
      <trkpt lat="50.81453" lon="3.654">
        <ele>33.0</ele>
      </trkpt>
      <trkpt lat="50.81329" lon="3.6539">
        <ele>37.0</ele>
      </trkpt>
      <trkpt lat="50.81215" lon="3.65354">
        <ele>38.0</ele>
      </trkpt>
      <trkpt lat="50.81101" lon="3.65316">
        <ele>38.0</ele>
      </trkpt>
      <trkpt lat="50.81051" lon="3.65373">
        <ele>36.0</ele>
      </trkpt>
      <trkpt lat="50.81008" lon="3.65422">
        <ele>35.0</ele>
      </trkpt>
      <trkpt lat="50.80936" lon="3.6551">
        <ele>37.0</ele>
      </trkpt>
      <trkpt lat="50.80863" lon="3.65602">
        <ele>37.0</ele>
      </trkpt>
      <trkpt lat="50.80543" lon="3.65924">
        <ele>40.0</ele>
      </trkpt>
      <trkpt lat="50.8022" lon="3.66264">
        <ele>34.0</ele>
      </trkpt>
      <trkpt lat="50.80139" lon="3.66103">
        <ele>37.0</ele>
      </trkpt>
      <trkpt lat="50.80107" lon="3.66008">
        <ele>38.0</ele>
      </trkpt>
      <trkpt lat="50.80049" lon="3.65873">
        <ele>42.0</ele>
      </trkpt>
      <trkpt lat="50.79985" lon="3.65712">
        <ele>43.0</ele>
      </trkpt>
      <trkpt lat="50.79951" lon="3.6556">
        <ele>46.0</ele>
      </trkpt>
      <trkpt lat="50.79892" lon="3.65379">
        <ele>50.0</ele>
      </trkpt>
      <trkpt lat="50.7981" lon="3.65295">
        <ele>55.0</ele>
      </trkpt>
      <trkpt lat="50.79722" lon="3.6487">
        <ele>74.0</ele>
      </trkpt>
      <trkpt lat="50.7966" lon="3.64738">
        <ele>78.0</ele>
      </trkpt>
      <trkpt lat="50.79531" lon="3.64412">
        <ele>89.0</ele>
      </trkpt>
      <trkpt lat="50.79488" lon="3.64206">
        <ele>83.0</ele>
      </trkpt>
      <trkpt lat="50.79252" lon="3.64217">
        <ele>81.0</ele>
      </trkpt>
      <trkpt lat="50.79088" lon="3.64186">
        <ele>80.0</ele>
      </trkpt>
      <trkpt lat="50.78813" lon="3.63993">
        <ele>78.0</ele>
      </trkpt>
      <trkpt lat="50.78678" lon="3.63897">
        <ele>79.0</ele>
      </trkpt>
      <trkpt lat="50.78551" lon="3.63951">
        <ele>82.0</ele>
      </trkpt>
      <trkpt lat="50.7842" lon="3.64016">
        <ele>81.0</ele>
      </trkpt>
      <trkpt lat="50.7823" lon="3.63996">
        <ele>95.0</ele>
      </trkpt>
      <trkpt lat="50.78073" lon="3.63959">
        <ele>95.0</ele>
      </trkpt>
      <trkpt lat="50.77763" lon="3.63728">
        <ele>92.0</ele>
      </trkpt>
      <trkpt lat="50.77647" lon="3.63749">
        <ele>103.0</ele>
      </trkpt>
      <trkpt lat="50.77446" lon="3.63801">
        <ele>114.0</ele>
      </trkpt>
      <trkpt lat="50.77355" lon="3.63859">
        <ele>106.0</ele>
      </trkpt>
      <trkpt lat="50.77281" lon="3.63893">
        <ele>100.0</ele>
      </trkpt>
      <trkpt lat="50.77169" lon="3.63923">
        <ele>97.0</ele>
      </trkpt>
      <trkpt lat="50.7712" lon="3.64023">
        <ele>96.0</ele>
      </trkpt>
      <trkpt lat="50.77113" lon="3.64162">
        <ele>100.0</ele>
      </trkpt>
      <trkpt lat="50.7717" lon="3.64393">
        <ele>109.0</ele>
      </trkpt>
      <trkpt lat="50.77177" lon="3.64504">
        <ele>110.0</ele>
      </trkpt>
      <trkpt lat="50.77114" lon="3.64803">
        <ele>98.0</ele>
      </trkpt>
      <trkpt lat="50.77175" lon="3.65807">
        <ele>107.0</ele>
      </trkpt>
      <trkpt lat="50.7723" lon="3.66089">
        <ele>114.0</ele>
      </trkpt>
      <trkpt lat="50.77627" lon="3.66344">
        <ele>115.0</ele>
      </trkpt>
      <trkpt lat="50.77518" lon="3.66507">
        <ele>115.0</ele>
      </trkpt>
      <trkpt lat="50.7745" lon="3.66589">
        <ele>113.0</ele>
      </trkpt>
      <trkpt lat="50.77323" lon="3.66732">
        <ele>120.0</ele>
      </trkpt>
      <trkpt lat="50.77177" lon="3.67022">
        <ele>121.0</ele>
      </trkpt>
      <trkpt lat="50.77061" lon="3.67218">
        <ele>124.0</ele>
      </trkpt>
      <trkpt lat="50.7664" lon="3.67799">
        <ele>124.0</ele>
      </trkpt>
      <trkpt lat="50.76489" lon="3.67913">
        <ele>133.0</ele>
      </trkpt>
      <trkpt lat="50.76297" lon="3.67972">
        <ele>129.0</ele>
      </trkpt>
      <trkpt lat="50.76159" lon="3.6798">
        <ele>125.0</ele>
      </trkpt>
      <trkpt lat="50.75911" lon="3.67387">
        <ele>105.0</ele>
      </trkpt>
      <trkpt lat="50.7585" lon="3.67257">
        <ele>103.0</ele>
      </trkpt>
      <trkpt lat="50.75668" lon="3.67008">
        <ele>91.0</ele>
      </trkpt>
      <trkpt lat="50.75517" lon="3.66802">
        <ele>83.0</ele>
      </trkpt>
      <trkpt lat="50.7545" lon="3.66654">
        <ele>76.0</ele>
      </trkpt>
      <trkpt lat="50.75414" lon="3.66454">
        <ele>75.0</ele>
      </trkpt>
      <trkpt lat="50.75431" lon="3.66126">
        <ele>68.0</ele>
      </trkpt>
      <trkpt lat="50.75473" lon="3.65514">
        <ele>65.0</ele>
      </trkpt>
      <trkpt lat="50.7544" lon="3.65185">
        <ele>60.0</ele>
      </trkpt>
      <trkpt lat="50.75414" lon="3.64861">
        <ele>54.0</ele>
      </trkpt>
      <trkpt lat="50.75353" lon="3.64092">
        <ele>51.0</ele>
      </trkpt>
      <trkpt lat="50.7531" lon="3.63526">
        <ele>48.0</ele>
      </trkpt>
      <trkpt lat="50.75277" lon="3.63084">
        <ele>42.0</ele>
      </trkpt>
      <trkpt lat="50.75234" lon="3.62468">
        <ele>45.0</ele>
      </trkpt>
      <trkpt lat="50.75207" lon="3.62062">
        <ele>44.0</ele>
      </trkpt>
      <trkpt lat="50.75156" lon="3.61317">
        <ele>42.0</ele>
      </trkpt>
      <trkpt lat="50.75115" lon="3.61015">
        <ele>40.0</ele>
      </trkpt>
      <trkpt lat="50.75079" lon="3.60817">
        <ele>41.0</ele>
      </trkpt>
      <trkpt lat="50.75015" lon="3.60595">
        <ele>36.0</ele>
      </trkpt>
      <trkpt lat="50.74987" lon="3.60416">
        <ele>35.0</ele>
      </trkpt>
      <trkpt lat="50.75008" lon="3.60364">
        <ele>35.0</ele>
      </trkpt>
      <trkpt lat="50.75143" lon="3.60256">
        <ele>33.0</ele>
      </trkpt>
      <trkpt lat="50.7526" lon="3.60192">
        <ele>33.0</ele>
      </trkpt>
      <trkpt lat="50.75368" lon="3.60114">
        <ele>35.0</ele>
      </trkpt>
      <trkpt lat="50.75526" lon="3.60004">
        <ele>40.0</ele>
      </trkpt>
      <trkpt lat="50.75506" lon="3.59906">
        <ele>40.0</ele>
      </trkpt>
      <trkpt lat="50.7544" lon="3.59588">
        <ele>47.0</ele>
      </trkpt>
      <trkpt lat="50.75385" lon="3.59381">
        <ele>48.0</ele>
      </trkpt>
      <trkpt lat="50.75484" lon="3.59265">
        <ele>53.0</ele>
      </trkpt>
      <trkpt lat="50.75707" lon="3.59123">
        <ele>65.0</ele>
      </trkpt>
      <trkpt lat="50.75871" lon="3.58888">
        <ele>87.0</ele>
      </trkpt>
      <trkpt lat="50.76006" lon="3.58751">
        <ele>107.0</ele>
      </trkpt>
      <trkpt lat="50.75862" lon="3.58716">
        <ele>92.0</ele>
      </trkpt>
      <trkpt lat="50.75785" lon="3.58747">
        <ele>84.0</ele>
      </trkpt>
      <trkpt lat="50.75454" lon="3.59193">
        <ele>54.0</ele>
      </trkpt>
      <trkpt lat="50.75348" lon="3.59346">
        <ele>47.0</ele>
      </trkpt>
      <trkpt lat="50.75272" lon="3.5945">
        <ele>46.0</ele>
      </trkpt>
      <trkpt lat="50.75172" lon="3.59576">
        <ele>39.0</ele>
      </trkpt>
      <trkpt lat="50.7506" lon="3.59653">
        <ele>33.0</ele>
      </trkpt>
      <trkpt lat="50.75007" lon="3.59662">
        <ele>34.0</ele>
      </trkpt>
      <trkpt lat="50.74965" lon="3.59442">
        <ele>34.0</ele>
      </trkpt>
      <trkpt lat="50.74961" lon="3.59381">
        <ele>34.0</ele>
      </trkpt>
      <trkpt lat="50.74965" lon="3.59003">
        <ele>34.0</ele>
      </trkpt>
      <trkpt lat="50.7492" lon="3.58643">
        <ele>32.0</ele>
      </trkpt>
      <trkpt lat="50.74928" lon="3.58594">
        <ele>32.0</ele>
      </trkpt>
      <trkpt lat="50.74924" lon="3.58552">
        <ele>32.0</ele>
      </trkpt>
      <trkpt lat="50.74952" lon="3.5844">
        <ele>34.0</ele>
      </trkpt>
      <trkpt lat="50.7495" lon="3.58293">
        <ele>33.0</ele>
      </trkpt>
      <trkpt lat="50.74914" lon="3.5814">
        <ele>34.0</ele>
      </trkpt>
      <trkpt lat="50.74831" lon="3.57781">
        <ele>35.0</ele>
      </trkpt>
      <trkpt lat="50.7478" lon="3.57547">
        <ele>30.0</ele>
      </trkpt>
      <trkpt lat="50.74777" lon="3.57419">
        <ele>28.0</ele>
      </trkpt>
      <trkpt lat="50.74801" lon="3.57228">
        <ele>31.0</ele>
      </trkpt>
      <trkpt lat="50.74868" lon="3.56667">
        <ele>38.0</ele>
      </trkpt>
      <trkpt lat="50.74897" lon="3.56504">
        <ele>38.0</ele>
      </trkpt>
      <trkpt lat="50.74874" lon="3.56445">
        <ele>37.0</ele>
      </trkpt>
      <trkpt lat="50.74865" lon="3.56342">
        <ele>38.0</ele>
      </trkpt>
      <trkpt lat="50.74916" lon="3.56009">
        <ele>28.0</ele>
      </trkpt>
      <trkpt lat="50.74921" lon="3.55533">
        <ele>37.0</ele>
      </trkpt>
      <trkpt lat="50.74973" lon="3.55116">
        <ele>40.0</ele>
      </trkpt>
      <trkpt lat="50.75054" lon="3.54566">
        <ele>50.0</ele>
      </trkpt>
      <trkpt lat="50.75102" lon="3.54437">
        <ele>51.0</ele>
      </trkpt>
      <trkpt lat="50.7523" lon="3.54311">
        <ele>51.0</ele>
      </trkpt>
      <trkpt lat="50.7554" lon="3.54048">
        <ele>61.0</ele>
      </trkpt>
      <trkpt lat="50.75729" lon="3.53867">
        <ele>82.0</ele>
      </trkpt>
      <trkpt lat="50.7579" lon="3.53848">
        <ele>89.0</ele>
      </trkpt>
      <trkpt lat="50.75923" lon="3.53788">
        <ele>103.0</ele>
      </trkpt>
      <trkpt lat="50.76058" lon="3.53887">
        <ele>113.0</ele>
      </trkpt>
      <trkpt lat="50.76204" lon="3.54012">
        <ele>131.0</ele>
      </trkpt>
      <trkpt lat="50.76271" lon="3.54058">
        <ele>128.0</ele>
      </trkpt>
      <trkpt lat="50.7632" lon="3.54052">
        <ele>126.0</ele>
      </trkpt>
      <trkpt lat="50.76429" lon="3.53866">
        <ele>129.0</ele>
      </trkpt>
      <trkpt lat="50.76482" lon="3.53369">
        <ele>121.0</ele>
      </trkpt>
      <trkpt lat="50.76568" lon="3.53129">
        <ele>115.0</ele>
      </trkpt>
      <trkpt lat="50.76729" lon="3.5303">
        <ele>105.0</ele>
      </trkpt>
      <trkpt lat="50.76902" lon="3.52946">
        <ele>108.0</ele>
      </trkpt>
      <trkpt lat="50.77536" lon="3.52236">
        <ele>71.0</ele>
      </trkpt>
      <trkpt lat="50.7791" lon="3.5196">
        <ele>33.0</ele>
      </trkpt>
      <trkpt lat="50.78198" lon="3.51777">
        <ele>17.0</ele>
      </trkpt>
      <trkpt lat="50.78489" lon="3.51408">
        <ele>14.0</ele>
      </trkpt>
      <trkpt lat="50.78644" lon="3.51262">
        <ele>14.0</ele>
      </trkpt>
      <trkpt lat="50.78784" lon="3.51162">
        <ele>14.0</ele>
      </trkpt>
      <trkpt lat="50.78902" lon="3.51295">
        <ele>14.0</ele>
      </trkpt>
      <trkpt lat="50.78991" lon="3.51516">
        <ele>13.0</ele>
      </trkpt>
      <trkpt lat="50.79117" lon="3.5182">
        <ele>15.0</ele>
      </trkpt>
      <trkpt lat="50.79089" lon="3.52037">
        <ele>15.0</ele>
      </trkpt>
      <trkpt lat="50.79028" lon="3.52452">
        <ele>14.0</ele>
      </trkpt>
      <trkpt lat="50.79037" lon="3.52697">
        <ele>14.0</ele>
      </trkpt>
      <trkpt lat="50.78977" lon="3.53008">
        <ele>14.0</ele>
      </trkpt>
      <trkpt lat="50.78993" lon="3.53158">
        <ele>13.0</ele>
      </trkpt>
      <trkpt lat="50.78908" lon="3.53504">
        <ele>15.0</ele>
      </trkpt>
      <trkpt lat="50.7881" lon="3.53644">
        <ele>16.0</ele>
      </trkpt>
      <trkpt lat="50.787" lon="3.53855">
        <ele>16.0</ele>
      </trkpt>
      <trkpt lat="50.78625" lon="3.5387">
        <ele>19.0</ele>
      </trkpt>
      <trkpt lat="50.78507" lon="3.53987">
        <ele>22.0</ele>
      </trkpt>
      <trkpt lat="50.78313" lon="3.5401">
        <ele>30.0</ele>
      </trkpt>
      <trkpt lat="50.78231" lon="3.53756">
        <ele>37.0</ele>
      </trkpt>
      <trkpt lat="50.78151" lon="3.53524">
        <ele>46.0</ele>
      </trkpt>
      <trkpt lat="50.77992" lon="3.53396">
        <ele>61.0</ele>
      </trkpt>
      <trkpt lat="50.77741" lon="3.52985">
        <ele>76.0</ele>
      </trkpt>
      <trkpt lat="50.77664" lon="3.52705">
        <ele>83.0</ele>
      </trkpt>
      <trkpt lat="50.77671" lon="3.52563">
        <ele>83.0</ele>
      </trkpt>
      <trkpt lat="50.77538" lon="3.52602">
        <ele>84.0</ele>
      </trkpt>
      <trkpt lat="50.77478" lon="3.52642">
        <ele>83.0</ele>
      </trkpt>
      <trkpt lat="50.77412" lon="3.52712">
        <ele>83.0</ele>
      </trkpt>
      <trkpt lat="50.77327" lon="3.52765">
        <ele>84.0</ele>
      </trkpt>
      <trkpt lat="50.77203" lon="3.52825">
        <ele>93.0</ele>
      </trkpt>
      <trkpt lat="50.77103" lon="3.52908">
        <ele>96.0</ele>
      </trkpt>
      <trkpt lat="50.7701" lon="3.5298">
        <ele>101.0</ele>
      </trkpt>
      <trkpt lat="50.7692" lon="3.53089">
        <ele>101.0</ele>
      </trkpt>
      <trkpt lat="50.76845" lon="3.53051">
        <ele>105.0</ele>
      </trkpt>
      <trkpt lat="50.76781" lon="3.53246">
        <ele>96.0</ele>
      </trkpt>
      <trkpt lat="50.76619" lon="3.54265">
        <ele>113.0</ele>
      </trkpt>
      <trkpt lat="50.76387" lon="3.55388">
        <ele>115.0</ele>
      </trkpt>
      <trkpt lat="50.7632" lon="3.55696">
        <ele>120.0</ele>
      </trkpt>
      <trkpt lat="50.76312" lon="3.55775">
        <ele>116.0</ele>
      </trkpt>
      <trkpt lat="50.7631" lon="3.56006">
        <ele>117.0</ele>
      </trkpt>
      <trkpt lat="50.76279" lon="3.5634">
        <ele>120.0</ele>
      </trkpt>
      <trkpt lat="50.76257" lon="3.56528">
        <ele>128.0</ele>
      </trkpt>
      <trkpt lat="50.76174" lon="3.56643">
        <ele>129.0</ele>
      </trkpt>
      <trkpt lat="50.76127" lon="3.56755">
        <ele>133.0</ele>
      </trkpt>
      <trkpt lat="50.76112" lon="3.56918">
        <ele>144.0</ele>
      </trkpt>
      <trkpt lat="50.76047" lon="3.57069">
        <ele>161.0</ele>
      </trkpt>
      <trkpt lat="50.75921" lon="3.57422">
        <ele>160.0</ele>
      </trkpt>
      <trkpt lat="50.7598" lon="3.57649">
        <ele>143.0</ele>
      </trkpt>
      <trkpt lat="50.76113" lon="3.57736">
        <ele>123.0</ele>
      </trkpt>
      <trkpt lat="50.76352" lon="3.58196">
        <ele>114.0</ele>
      </trkpt>
      <trkpt lat="50.76532" lon="3.58074">
        <ele>113.0</ele>
      </trkpt>
      <trkpt lat="50.76684" lon="3.57733">
        <ele>119.0</ele>
      </trkpt>
      <trkpt lat="50.76776" lon="3.57657">
        <ele>111.0</ele>
      </trkpt>
      <trkpt lat="50.77035" lon="3.57753">
        <ele>97.0</ele>
      </trkpt>
      <trkpt lat="50.77169" lon="3.57722">
        <ele>87.0</ele>
      </trkpt>
      <trkpt lat="50.77413" lon="3.57505">
        <ele>61.0</ele>
      </trkpt>
      <trkpt lat="50.77803" lon="3.57155">
        <ele>50.0</ele>
      </trkpt>
      <trkpt lat="50.78006" lon="3.5705">
        <ele>48.0</ele>
      </trkpt>
      <trkpt lat="50.78117" lon="3.57124">
        <ele>45.0</ele>
      </trkpt>
      <trkpt lat="50.78329" lon="3.57194">
        <ele>42.0</ele>
      </trkpt>
      <trkpt lat="50.78508" lon="3.57179">
        <ele>38.0</ele>
      </trkpt>
      <trkpt lat="50.78841" lon="3.57105">
        <ele>31.0</ele>
      </trkpt>
      <trkpt lat="50.78935" lon="3.5708">
        <ele>29.0</ele>
      </trkpt>
      <trkpt lat="50.79149" lon="3.56918">
        <ele>21.0</ele>
      </trkpt>
      <trkpt lat="50.79205" lon="3.57015">
        <ele>20.0</ele>
      </trkpt>
      <trkpt lat="50.79336" lon="3.57024">
        <ele>21.0</ele>
      </trkpt>
      <trkpt lat="50.79475" lon="3.57041">
        <ele>21.0</ele>
      </trkpt>
      <trkpt lat="50.79729" lon="3.57166">
        <ele>18.0</ele>
      </trkpt>
      <trkpt lat="50.79866" lon="3.5727">
        <ele>20.0</ele>
      </trkpt>
      <trkpt lat="50.80031" lon="3.57568">
        <ele>21.0</ele>
      </trkpt>
      <trkpt lat="50.80095" lon="3.57705">
        <ele>24.0</ele>
      </trkpt>
      <trkpt lat="50.80127" lon="3.57829">
        <ele>25.0</ele>
      </trkpt>
      <trkpt lat="50.79928" lon="3.58183">
        <ele>32.0</ele>
      </trkpt>
      <trkpt lat="50.79788" lon="3.58431">
        <ele>48.0</ele>
      </trkpt>
      <trkpt lat="50.79761" lon="3.58546">
        <ele>58.0</ele>
      </trkpt>
      <trkpt lat="50.79654" lon="3.5867">
        <ele>72.0</ele>
      </trkpt>
      <trkpt lat="50.79552" lon="3.58861">
        <ele>90.0</ele>
      </trkpt>
      <trkpt lat="50.79593" lon="3.59137">
        <ele>91.0</ele>
      </trkpt>
      <trkpt lat="50.79613" lon="3.59306">
        <ele>91.0</ele>
      </trkpt>
      <trkpt lat="50.7969" lon="3.59431">
        <ele>87.0</ele>
      </trkpt>
      <trkpt lat="50.79698" lon="3.59507">
        <ele>89.0</ele>
      </trkpt>
      <trkpt lat="50.79709" lon="3.59629">
        <ele>86.0</ele>
      </trkpt>
      <trkpt lat="50.7959" lon="3.59782">
        <ele>94.0</ele>
      </trkpt>
      <trkpt lat="50.79513" lon="3.60015">
        <ele>98.0</ele>
      </trkpt>
      <trkpt lat="50.79453" lon="3.60258">
        <ele>94.0</ele>
      </trkpt>
      <trkpt lat="50.79347" lon="3.60465">
        <ele>82.0</ele>
      </trkpt>
      <trkpt lat="50.79323" lon="3.60579">
        <ele>75.0</ele>
      </trkpt>
      <trkpt lat="50.79288" lon="3.60652">
        <ele>71.0</ele>
      </trkpt>
      <trkpt lat="50.79222" lon="3.60732">
        <ele>64.0</ele>
      </trkpt>
      <trkpt lat="50.79197" lon="3.60808">
        <ele>63.0</ele>
      </trkpt>
      <trkpt lat="50.79162" lon="3.60874">
        <ele>65.0</ele>
      </trkpt>
      <trkpt lat="50.791" lon="3.60973">
        <ele>63.0</ele>
      </trkpt>
      <trkpt lat="50.79028" lon="3.61051">
        <ele>57.0</ele>
      </trkpt>
      <trkpt lat="50.79194" lon="3.61385">
        <ele>51.0</ele>
      </trkpt>
      <trkpt lat="50.79253" lon="3.6177">
        <ele>44.0</ele>
      </trkpt>
      <trkpt lat="50.79155" lon="3.61848">
        <ele>37.0</ele>
      </trkpt>
      <trkpt lat="50.79103" lon="3.61957">
        <ele>36.0</ele>
      </trkpt>
      <trkpt lat="50.79067" lon="3.62031">
        <ele>36.0</ele>
      </trkpt>
      <trkpt lat="50.79056" lon="3.62111">
        <ele>37.0</ele>
      </trkpt>
      <trkpt lat="50.78993" lon="3.62155">
        <ele>37.0</ele>
      </trkpt>
      <trkpt lat="50.79066" lon="3.62263">
        <ele>34.0</ele>
      </trkpt>
      <trkpt lat="50.79317" lon="3.62174">
        <ele>39.0</ele>
      </trkpt>
      <trkpt lat="50.79436" lon="3.62353">
        <ele>35.0</ele>
      </trkpt>
      <trkpt lat="50.79467" lon="3.62639">
        <ele>35.0</ele>
      </trkpt>
      <trkpt lat="50.79523" lon="3.62803">
        <ele>51.0</ele>
      </trkpt>
      <trkpt lat="50.79591" lon="3.63201">
        <ele>75.0</ele>
      </trkpt>
      <trkpt lat="50.79557" lon="3.63547">
        <ele>78.0</ele>
      </trkpt>
      <trkpt lat="50.79568" lon="3.63678">
        <ele>81.0</ele>
      </trkpt>
      <trkpt lat="50.79559" lon="3.63844">
        <ele>79.0</ele>
      </trkpt>
      <trkpt lat="50.7956" lon="3.6417">
        <ele>85.0</ele>
      </trkpt>
      <trkpt lat="50.7953" lon="3.64309">
        <ele>87.0</ele>
      </trkpt>
      <trkpt lat="50.79617" lon="3.64622">
        <ele>83.0</ele>
      </trkpt>
      <trkpt lat="50.7968" lon="3.64813">
        <ele>75.0</ele>
      </trkpt>
      <trkpt lat="50.7972" lon="3.64922">
        <ele>72.0</ele>
      </trkpt>
      <trkpt lat="50.79847" lon="3.65342">
        <ele>52.0</ele>
      </trkpt>
      <trkpt lat="50.79925" lon="3.6549">
        <ele>49.0</ele>
      </trkpt>
      <trkpt lat="50.79975" lon="3.65646">
        <ele>43.0</ele>
      </trkpt>
      <trkpt lat="50.80016" lon="3.6581">
        <ele>41.0</ele>
      </trkpt>
      <trkpt lat="50.80079" lon="3.65948">
        <ele>40.0</ele>
      </trkpt>
      <trkpt lat="50.80126" lon="3.66049">
        <ele>37.0</ele>
      </trkpt>
      <trkpt lat="50.80169" lon="3.66159">
        <ele>37.0</ele>
      </trkpt>
      <trkpt lat="50.80241" lon="3.66268">
        <ele>34.0</ele>
      </trkpt>
      <trkpt lat="50.80779" lon="3.65684">
        <ele>42.0</ele>
      </trkpt>
      <trkpt lat="50.809" lon="3.65555">
        <ele>38.0</ele>
      </trkpt>
      <trkpt lat="50.80992" lon="3.65439">
        <ele>35.0</ele>
      </trkpt>
      <trkpt lat="50.81037" lon="3.65392">
        <ele>35.0</ele>
      </trkpt>
      <trkpt lat="50.81077" lon="3.65335">
        <ele>37.0</ele>
      </trkpt>
      <trkpt lat="50.81155" lon="3.65329">
        <ele>38.0</ele>
      </trkpt>
      <trkpt lat="50.81259" lon="3.65378">
        <ele>38.0</ele>
      </trkpt>
      <trkpt lat="50.81394" lon="3.65396">
        <ele>35.0</ele>
      </trkpt>
      <trkpt lat="50.81494" lon="3.65403">
        <ele>31.0</ele>
      </trkpt>
      <trkpt lat="50.81561" lon="3.65404">
        <ele>30.0</ele>
      </trkpt>
      <trkpt lat="50.81584" lon="3.65518">
        <ele>30.0</ele>
      </trkpt>
      <trkpt lat="50.81555" lon="3.65706">
        <ele>31.0</ele>
      </trkpt>
      <trkpt lat="50.81456" lon="3.66033">
        <ele>28.0</ele>
      </trkpt>
      <trkpt lat="50.8146" lon="3.66679">
        <ele>28.0</ele>
      </trkpt>
      <trkpt lat="50.81634" lon="3.66751">
        <ele>25.0</ele>
      </trkpt>
      <trkpt lat="50.81715" lon="3.66655">
        <ele>25.0</ele>
      </trkpt>
      <trkpt lat="50.81769" lon="3.66529">
        <ele>25.0</ele>
      </trkpt>
      <trkpt lat="50.81847" lon="3.66362">
        <ele>25.0</ele>
      </trkpt>
      <trkpt lat="50.81904" lon="3.66392">
        <ele>26.0</ele>
      </trkpt>
      <trkpt lat="50.81978" lon="3.66501">
        <ele>30.0</ele>
      </trkpt>
      <trkpt lat="50.82179" lon="3.66421">
        <ele>57.0</ele>
      </trkpt>
      <trkpt lat="50.82385" lon="3.66336">
        <ele>71.0</ele>
      </trkpt>
      <trkpt lat="50.82562" lon="3.66191">
        <ele>76.0</ele>
      </trkpt>
      <trkpt lat="50.82615" lon="3.66012">
        <ele>81.0</ele>
      </trkpt>
      <trkpt lat="50.82817" lon="3.65696">
        <ele>84.0</ele>
      </trkpt>
      <trkpt lat="50.83" lon="3.65532">
        <ele>88.0</ele>
      </trkpt>
      <trkpt lat="50.82807" lon="3.65241">
        <ele>90.0</ele>
      </trkpt>
      <trkpt lat="50.82601" lon="3.65252">
        <ele>90.0</ele>
      </trkpt>
      <trkpt lat="50.82466" lon="3.65242">
        <ele>85.0</ele>
      </trkpt>
      <trkpt lat="50.82403" lon="3.65241">
        <ele>79.0</ele>
      </trkpt>
      <trkpt lat="50.82309" lon="3.65265">
        <ele>68.0</ele>
      </trkpt>
      <trkpt lat="50.82271" lon="3.65387">
        <ele>66.0</ele>
      </trkpt>
      <trkpt lat="50.82228" lon="3.65402">
        <ele>60.0</ele>
      </trkpt>
      <trkpt lat="50.82209" lon="3.65366">
        <ele>56.0</ele>
      </trkpt>
      <trkpt lat="50.82171" lon="3.65336">
        <ele>51.0</ele>
      </trkpt>
      <trkpt lat="50.82148" lon="3.65266">
        <ele>47.0</ele>
      </trkpt>
      <trkpt lat="50.821" lon="3.65163">
        <ele>44.0</ele>
      </trkpt>
      <trkpt lat="50.82053" lon="3.65176">
        <ele>38.0</ele>
      </trkpt>
      <trkpt lat="50.81999" lon="3.65206">
        <ele>33.0</ele>
      </trkpt>
      <trkpt lat="50.81953" lon="3.6523">
        <ele>27.0</ele>
      </trkpt>
      <trkpt lat="50.81909" lon="3.65276">
        <ele>25.0</ele>
      </trkpt>
      <trkpt lat="50.81815" lon="3.65288">
        <ele>23.0</ele>
      </trkpt>
      <trkpt lat="50.81736" lon="3.65361">
        <ele>23.0</ele>
      </trkpt>
      <trkpt lat="50.81691" lon="3.65345">
        <ele>25.0</ele>
      </trkpt>
      <trkpt lat="50.81602" lon="3.65316">
        <ele>29.0</ele>
      </trkpt>
      <trkpt lat="50.81592" lon="3.65212">
        <ele>29.0</ele>
      </trkpt>
      <trkpt lat="50.81588" lon="3.64863">
        <ele>25.0</ele>
      </trkpt>
      <trkpt lat="50.81761" lon="3.64077">
        <ele>22.0</ele>
      </trkpt>
      <trkpt lat="50.8185" lon="3.63973">
        <ele>21.0</ele>
      </trkpt>
      <trkpt lat="50.81894" lon="3.64043">
        <ele>20.0</ele>
      </trkpt>
      <trkpt lat="50.82061" lon="3.64078">
        <ele>29.0</ele>
      </trkpt>
      <trkpt lat="50.82382" lon="3.63999">
        <ele>64.0</ele>
      </trkpt>
      <trkpt lat="50.82507" lon="3.6381">
        <ele>72.0</ele>
      </trkpt>
      <trkpt lat="50.82714" lon="3.63702">
        <ele>80.0</ele>
      </trkpt>
      <trkpt lat="50.82805" lon="3.63601">
        <ele>84.0</ele>
      </trkpt>
      <trkpt lat="50.82873" lon="3.63429">
        <ele>84.0</ele>
      </trkpt>
      <trkpt lat="50.82809" lon="3.63118">
        <ele>83.0</ele>
      </trkpt>
      <trkpt lat="50.82775" lon="3.62937">
        <ele>83.0</ele>
      </trkpt>
      <trkpt lat="50.82685" lon="3.62953">
        <ele>80.0</ele>
      </trkpt>
      <trkpt lat="50.8261" lon="3.62941">
        <ele>79.0</ele>
      </trkpt>
      <trkpt lat="50.82499" lon="3.62875">
        <ele>74.0</ele>
      </trkpt>
      <trkpt lat="50.82387" lon="3.62807">
        <ele>68.0</ele>
      </trkpt>
      <trkpt lat="50.82282" lon="3.62726">
        <ele>64.0</ele>
      </trkpt>
      <trkpt lat="50.82206" lon="3.62699">
        <ele>53.0</ele>
      </trkpt>
      <trkpt lat="50.82042" lon="3.62594">
        <ele>25.0</ele>
      </trkpt>
      <trkpt lat="50.81942" lon="3.62524">
        <ele>21.0</ele>
      </trkpt>
      <trkpt lat="50.81801" lon="3.62371">
        <ele>19.0</ele>
      </trkpt>
      <trkpt lat="50.81698" lon="3.62254">
        <ele>20.0</ele>
      </trkpt>
      <trkpt lat="50.81699" lon="3.62059">
        <ele>20.0</ele>
      </trkpt>
      <trkpt lat="50.81734" lon="3.61961">
        <ele>22.0</ele>
      </trkpt>
      <trkpt lat="50.81577" lon="3.61593">
        <ele>25.0</ele>
      </trkpt>
      <trkpt lat="50.81492" lon="3.61446">
        <ele>25.0</ele>
      </trkpt>
      <trkpt lat="50.81379" lon="3.61126">
        <ele>23.0</ele>
      </trkpt>
      <trkpt lat="50.81214" lon="3.6078">
        <ele>28.0</ele>
      </trkpt>
      <trkpt lat="50.8107" lon="3.6054">
        <ele>36.0</ele>
      </trkpt>
      <trkpt lat="50.81006" lon="3.60209">
        <ele>38.0</ele>
      </trkpt>
      <trkpt lat="50.80953" lon="3.60024">
        <ele>41.0</ele>
      </trkpt>
      <trkpt lat="50.8063" lon="3.59737">
        <ele>50.0</ele>
      </trkpt>
      <trkpt lat="50.8022" lon="3.59373">
        <ele>64.0</ele>
      </trkpt>
      <trkpt lat="50.79922" lon="3.5918">
        <ele>77.0</ele>
      </trkpt>
      <trkpt lat="50.79785" lon="3.59065">
        <ele>81.0</ele>
      </trkpt>
      <trkpt lat="50.79962" lon="3.58853">
        <ele>57.0</ele>
      </trkpt>
      <trkpt lat="50.80147" lon="3.58526">
        <ele>35.0</ele>
      </trkpt>
      <trkpt lat="50.80332" lon="3.58175">
        <ele>25.0</ele>
      </trkpt>
      <trkpt lat="50.80478" lon="3.57987">
        <ele>28.0</ele>
      </trkpt>
      <trkpt lat="50.80552" lon="3.57904">
        <ele>28.0</ele>
      </trkpt>
      <trkpt lat="50.80787" lon="3.58031">
        <ele>43.0</ele>
      </trkpt>
      <trkpt lat="50.80861" lon="3.57981">
        <ele>49.0</ele>
      </trkpt>
      <trkpt lat="50.80873" lon="3.57666">
        <ele>43.0</ele>
      </trkpt>
      <trkpt lat="50.8092" lon="3.57487">
        <ele>30.0</ele>
      </trkpt>
      <trkpt lat="50.81033" lon="3.57285">
        <ele>17.0</ele>
      </trkpt>
      <trkpt lat="50.81215" lon="3.57199">
        <ele>12.0</ele>
      </trkpt>
      <trkpt lat="50.81328" lon="3.57134">
        <ele>10.0</ele>
      </trkpt>
      <trkpt lat="50.81398" lon="3.56912">
        <ele>11.0</ele>
      </trkpt>
      <trkpt lat="50.81456" lon="3.5667">
        <ele>13.0</ele>
      </trkpt>
      <trkpt lat="50.81378" lon="3.56426">
        <ele>14.0</ele>
      </trkpt>
      <trkpt lat="50.81245" lon="3.56413">
        <ele>14.0</ele>
      </trkpt>
      <trkpt lat="50.80953" lon="3.56207">
        <ele>10.0</ele>
      </trkpt>
      <trkpt lat="50.8086" lon="3.56128">
        <ele>12.0</ele>
      </trkpt>
      <trkpt lat="50.8078" lon="3.56126">
        <ele>12.0</ele>
      </trkpt>
      <trkpt lat="50.80717" lon="3.56">
        <ele>11.0</ele>
      </trkpt>
      <trkpt lat="50.80595" lon="3.55858">
        <ele>13.0</ele>
      </trkpt>
      <trkpt lat="50.80494" lon="3.55772">
        <ele>11.0</ele>
      </trkpt>
      <trkpt lat="50.80342" lon="3.55631">
        <ele>12.0</ele>
      </trkpt>
      <trkpt lat="50.80216" lon="3.55623">
        <ele>11.0</ele>
      </trkpt>
      <trkpt lat="50.80086" lon="3.55646">
        <ele>12.0</ele>
      </trkpt>
      <trkpt lat="50.80032" lon="3.55634">
        <ele>11.0</ele>
      </trkpt>
      <trkpt lat="50.79984" lon="3.55644">
        <ele>13.0</ele>
      </trkpt>
      <trkpt lat="50.79915" lon="3.55633">
        <ele>13.0</ele>
      </trkpt>
      <trkpt lat="50.7981" lon="3.55674">
        <ele>16.0</ele>
      </trkpt>
      <trkpt lat="50.79626" lon="3.55894">
        <ele>15.0</ele>
      </trkpt>
      <trkpt lat="50.79206" lon="3.56165">
        <ele>20.0</ele>
      </trkpt>
      <trkpt lat="50.79031" lon="3.5601">
        <ele>28.0</ele>
      </trkpt>
      <trkpt lat="50.78781" lon="3.56085">
        <ele>34.0</ele>
      </trkpt>
      <trkpt lat="50.78681" lon="3.56187">
        <ele>35.0</ele>
      </trkpt>
      <trkpt lat="50.78625" lon="3.56282">
        <ele>34.0</ele>
      </trkpt>
      <trkpt lat="50.78455" lon="3.56434">
        <ele>33.0</ele>
      </trkpt>
      <trkpt lat="50.78386" lon="3.56454">
        <ele>35.0</ele>
      </trkpt>
      <trkpt lat="50.78269" lon="3.56563">
        <ele>35.0</ele>
      </trkpt>
      <trkpt lat="50.78232" lon="3.56494">
        <ele>38.0</ele>
      </trkpt>
      <trkpt lat="50.78189" lon="3.56294">
        <ele>45.0</ele>
      </trkpt>
      <trkpt lat="50.78045" lon="3.56039">
        <ele>56.0</ele>
      </trkpt>
      <trkpt lat="50.78066" lon="3.55809">
        <ele>69.0</ele>
      </trkpt>
      <trkpt lat="50.78118" lon="3.55694">
        <ele>72.0</ele>
      </trkpt>
      <trkpt lat="50.78142" lon="3.5545">
        <ele>84.0</ele>
      </trkpt>
      <trkpt lat="50.77897" lon="3.55358">
        <ele>85.0</ele>
      </trkpt>
      <trkpt lat="50.77713" lon="3.55252">
        <ele>83.0</ele>
      </trkpt>
      <trkpt lat="50.776" lon="3.55165">
        <ele>84.0</ele>
      </trkpt>
      <trkpt lat="50.77452" lon="3.55081">
        <ele>86.0</ele>
      </trkpt>
      <trkpt lat="50.77381" lon="3.55144">
        <ele>86.0</ele>
      </trkpt>
      <trkpt lat="50.77227" lon="3.55291">
        <ele>81.0</ele>
      </trkpt>
      <trkpt lat="50.77171" lon="3.55232">
        <ele>80.0</ele>
      </trkpt>
      <trkpt lat="50.77071" lon="3.55046">
        <ele>85.0</ele>
      </trkpt>
      <trkpt lat="50.76949" lon="3.5484">
        <ele>94.0</ele>
      </trkpt>
      <trkpt lat="50.76893" lon="3.54754">
        <ele>94.0</ele>
      </trkpt>
      <trkpt lat="50.77065" lon="3.54707">
        <ele>88.0</ele>
      </trkpt>
      <trkpt lat="50.77142" lon="3.54621">
        <ele>83.0</ele>
      </trkpt>
      <trkpt lat="50.7727" lon="3.54559">
        <ele>82.0</ele>
      </trkpt>
      <trkpt lat="50.77325" lon="3.54574">
        <ele>82.0</ele>
      </trkpt>
      <trkpt lat="50.77459" lon="3.54541">
        <ele>84.0</ele>
      </trkpt>
      <trkpt lat="50.77608" lon="3.5453">
        <ele>70.0</ele>
      </trkpt>
      <trkpt lat="50.77671" lon="3.54611">
        <ele>61.0</ele>
      </trkpt>
      <trkpt lat="50.77715" lon="3.54627">
        <ele>56.0</ele>
      </trkpt>
      <trkpt lat="50.77892" lon="3.5448">
        <ele>41.0</ele>
      </trkpt>
      <trkpt lat="50.78099" lon="3.5439">
        <ele>30.0</ele>
      </trkpt>
      <trkpt lat="50.78216" lon="3.54406">
        <ele>31.0</ele>
      </trkpt>
      <trkpt lat="50.78263" lon="3.54534">
        <ele>42.0</ele>
      </trkpt>
      <trkpt lat="50.78212" lon="3.54898">
        <ele>77.0</ele>
      </trkpt>
      <trkpt lat="50.78262" lon="3.54889">
        <ele>76.0</ele>
      </trkpt>
      <trkpt lat="50.78316" lon="3.54865">
        <ele>72.0</ele>
      </trkpt>
      <trkpt lat="50.78409" lon="3.54834">
        <ele>65.0</ele>
      </trkpt>
      <trkpt lat="50.78563" lon="3.54875">
        <ele>60.0</ele>
      </trkpt>
      <trkpt lat="50.78638" lon="3.54854">
        <ele>52.0</ele>
      </trkpt>
      <trkpt lat="50.78702" lon="3.54838">
        <ele>46.0</ele>
      </trkpt>
      <trkpt lat="50.78785" lon="3.54666">
        <ele>35.0</ele>
      </trkpt>
      <trkpt lat="50.78867" lon="3.54465">
        <ele>27.0</ele>
      </trkpt>
      <trkpt lat="50.78937" lon="3.5428">
        <ele>20.0</ele>
      </trkpt>
      <trkpt lat="50.78923" lon="3.54055">
        <ele>14.0</ele>
      </trkpt>
      <trkpt lat="50.78823" lon="3.53766">
        <ele>16.0</ele>
      </trkpt>
      <trkpt lat="50.78811" lon="3.53658">
        <ele>16.0</ele>
      </trkpt>
      <trkpt lat="50.78919" lon="3.53475">
        <ele>15.0</ele>
      </trkpt>
      <trkpt lat="50.78996" lon="3.53141">
        <ele>13.0</ele>
      </trkpt>
      <trkpt lat="50.78977" lon="3.53008">
        <ele>14.0</ele>
      </trkpt>
      <trkpt lat="50.79038" lon="3.52683">
        <ele>14.0</ele>
      </trkpt>
      <trkpt lat="50.79015" lon="3.52454">
        <ele>14.0</ele>
      </trkpt>
      <trkpt lat="50.7894" lon="3.52417">
        <ele>14.0</ele>
      </trkpt>
      <trkpt lat="50.78868" lon="3.52423">
        <ele>12.0</ele>
      </trkpt>
      <trkpt lat="50.78721" lon="3.52482">
        <ele>13.0</ele>
      </trkpt>
      <trkpt lat="50.78654" lon="3.52414">
        <ele>11.0</ele>
      </trkpt>
      <trkpt lat="50.78546" lon="3.52499">
        <ele>14.0</ele>
      </trkpt>
      <trkpt lat="50.78441" lon="3.5252">
        <ele>20.0</ele>
      </trkpt>
      <trkpt lat="50.78366" lon="3.52518">
        <ele>22.0</ele>
      </trkpt>
      <trkpt lat="50.7828" lon="3.52602">
        <ele>32.0</ele>
      </trkpt>
      <trkpt lat="50.7826" lon="3.52625">
        <ele>32.0</ele>
      </trkpt>
      <trkpt lat="50.78152" lon="3.52584">
        <ele>37.0</ele>
      </trkpt>
      <trkpt lat="50.78044" lon="3.52572">
        <ele>48.0</ele>
      </trkpt>
      <trkpt lat="50.77993" lon="3.5258">
        <ele>54.0</ele>
      </trkpt>
      <trkpt lat="50.77902" lon="3.52557">
        <ele>63.0</ele>
      </trkpt>
      <trkpt lat="50.77837" lon="3.52524">
        <ele>70.0</ele>
      </trkpt>
      <trkpt lat="50.77753" lon="3.5252">
        <ele>76.0</ele>
      </trkpt>
      <trkpt lat="50.77655" lon="3.52458">
        <ele>79.0</ele>
      </trkpt>
      <trkpt lat="50.77494" lon="3.5228">
        <ele>72.0</ele>
      </trkpt>
      <trkpt lat="50.76877" lon="3.52981">
        <ele>107.0</ele>
      </trkpt>
      <trkpt lat="50.76797" lon="3.53167">
        <ele>97.0</ele>
      </trkpt>
      <trkpt lat="50.76677" lon="3.53912">
        <ele>112.0</ele>
      </trkpt>
      <trkpt lat="50.76487" lon="3.54919">
        <ele>108.0</ele>
      </trkpt>
      <trkpt lat="50.76345" lon="3.55586">
        <ele>120.0</ele>
      </trkpt>
      <trkpt lat="50.76284" lon="3.55779">
        <ele>117.0</ele>
      </trkpt>
      <trkpt lat="50.76124" lon="3.56019">
        <ele>105.0</ele>
      </trkpt>
      <trkpt lat="50.75785" lon="3.56159">
        <ele>78.0</ele>
      </trkpt>
      <trkpt lat="50.7505" lon="3.56419">
        <ele>40.0</ele>
      </trkpt>
      <trkpt lat="50.74897" lon="3.56504">
        <ele>38.0</ele>
      </trkpt>
      <trkpt lat="50.74874" lon="3.56445">
        <ele>37.0</ele>
      </trkpt>
      <trkpt lat="50.74865" lon="3.56342">
        <ele>38.0</ele>
      </trkpt>
      <trkpt lat="50.74916" lon="3.56009">
        <ele>28.0</ele>
      </trkpt>
      <trkpt lat="50.74921" lon="3.55533">
        <ele>37.0</ele>
      </trkpt>
      <trkpt lat="50.75068" lon="3.54506">
        <ele>52.0</ele>
      </trkpt>
      <trkpt lat="50.75161" lon="3.54376">
        <ele>50.0</ele>
      </trkpt>
      <trkpt lat="50.7528" lon="3.5427">
        <ele>52.0</ele>
      </trkpt>
      <trkpt lat="50.75592" lon="3.5399">
        <ele>64.0</ele>
      </trkpt>
      <trkpt lat="50.75746" lon="3.53855">
        <ele>83.0</ele>
      </trkpt>
      <trkpt lat="50.75815" lon="3.53833">
        <ele>92.0</ele>
      </trkpt>
      <trkpt lat="50.75952" lon="3.53795">
        <ele>103.0</ele>
      </trkpt>
      <trkpt lat="50.76122" lon="3.53957">
        <ele>129.0</ele>
      </trkpt>
      <trkpt lat="50.76244" lon="3.54041">
        <ele>129.0</ele>
      </trkpt>
      <trkpt lat="50.76295" lon="3.54068">
        <ele>126.0</ele>
      </trkpt>
      <trkpt lat="50.76375" lon="3.5399">
        <ele>128.0</ele>
      </trkpt>
      <trkpt lat="50.76455" lon="3.5378">
        <ele>127.0</ele>
      </trkpt>
      <trkpt lat="50.7649" lon="3.53323">
        <ele>118.0</ele>
      </trkpt>
      <trkpt lat="50.76576" lon="3.53114">
        <ele>114.0</ele>
      </trkpt>
      <trkpt lat="50.76848" lon="3.52965">
        <ele>110.0</ele>
      </trkpt>
      <trkpt lat="50.76902" lon="3.52946">
        <ele>108.0</ele>
      </trkpt>
      <trkpt lat="50.77536" lon="3.52236">
        <ele>71.0</ele>
      </trkpt>
      <trkpt lat="50.77988" lon="3.51912">
        <ele>30.0</ele>
      </trkpt>
      <trkpt lat="50.78198" lon="3.51777">
        <ele>17.0</ele>
      </trkpt>
      <trkpt lat="50.78489" lon="3.51408">
        <ele>14.0</ele>
      </trkpt>
      <trkpt lat="50.78672" lon="3.51238">
        <ele>15.0</ele>
      </trkpt>
      <trkpt lat="50.78784" lon="3.51162">
        <ele>14.0</ele>
      </trkpt>
      <trkpt lat="50.78886" lon="3.51075">
        <ele>15.0</ele>
      </trkpt>
      <trkpt lat="50.79068" lon="3.50926">
        <ele>14.0</ele>
      </trkpt>
      <trkpt lat="50.79123" lon="3.50762">
        <ele>11.0</ele>
      </trkpt>
      <trkpt lat="50.79176" lon="3.50698">
        <ele>11.0</ele>
      </trkpt>
      <trkpt lat="50.79267" lon="3.50599">
        <ele>12.0</ele>
      </trkpt>
      <trkpt lat="50.79716" lon="3.50182">
        <ele>15.0</ele>
      </trkpt>
      <trkpt lat="50.7983" lon="3.50087">
        <ele>13.0</ele>
      </trkpt>
      <trkpt lat="50.79901" lon="3.50191">
        <ele>13.0</ele>
      </trkpt>
      <trkpt lat="50.80041" lon="3.50566">
        <ele>16.0</ele>
      </trkpt>
      <trkpt lat="50.80196" lon="3.51021">
        <ele>18.0</ele>
      </trkpt>
      <trkpt lat="50.80314" lon="3.51174">
        <ele>16.0</ele>
      </trkpt>
      <trkpt lat="50.80437" lon="3.50893">
        <ele>20.0</ele>
      </trkpt>
      <trkpt lat="50.80563" lon="3.50918">
        <ele>13.0</ele>
      </trkpt>
      <trkpt lat="50.80695" lon="3.50901">
        <ele>17.0</ele>
      </trkpt>
      <trkpt lat="50.81017" lon="3.50695">
        <ele>19.0</ele>
      </trkpt>
      <trkpt lat="50.81273" lon="3.50242">
        <ele>22.0</ele>
      </trkpt>
      <trkpt lat="50.81204" lon="3.49772">
        <ele>26.0</ele>
      </trkpt>
      <trkpt lat="50.81118" lon="3.49442">
        <ele>28.0</ele>
      </trkpt>
      <trkpt lat="50.80973" lon="3.48691">
        <ele>33.0</ele>
      </trkpt>
      <trkpt lat="50.80898" lon="3.48159">
        <ele>40.0</ele>
      </trkpt>
      <trkpt lat="50.80908" lon="3.47781">
        <ele>49.0</ele>
      </trkpt>
      <trkpt lat="50.80873" lon="3.47601">
        <ele>51.0</ele>
      </trkpt>
      <trkpt lat="50.8087" lon="3.47525">
        <ele>52.0</ele>
      </trkpt>
      <trkpt lat="50.80952" lon="3.47459">
        <ele>50.0</ele>
      </trkpt>
      <trkpt lat="50.81007" lon="3.47412">
        <ele>48.0</ele>
      </trkpt>
      <trkpt lat="50.81045" lon="3.47349">
        <ele>48.0</ele>
      </trkpt>
      <trkpt lat="50.81088" lon="3.47262">
        <ele>46.0</ele>
      </trkpt>
      <trkpt lat="50.81192" lon="3.4714">
        <ele>39.0</ele>
      </trkpt>
      <trkpt lat="50.81319" lon="3.47038">
        <ele>34.0</ele>
      </trkpt>
      <trkpt lat="50.81367" lon="3.46963">
        <ele>40.0</ele>
      </trkpt>
      <trkpt lat="50.81423" lon="3.46889">
        <ele>44.0</ele>
      </trkpt>
      <trkpt lat="50.81603" lon="3.46822">
        <ele>58.0</ele>
      </trkpt>
      <trkpt lat="50.81662" lon="3.46766">
        <ele>64.0</ele>
      </trkpt>
      <trkpt lat="50.81697" lon="3.46652">
        <ele>67.0</ele>
      </trkpt>
      <trkpt lat="50.81732" lon="3.46482">
        <ele>78.0</ele>
      </trkpt>
      <trkpt lat="50.81773" lon="3.46286">
        <ele>79.0</ele>
      </trkpt>
      <trkpt lat="50.81796" lon="3.46217">
        <ele>79.0</ele>
      </trkpt>
      <trkpt lat="50.81821" lon="3.46204">
        <ele>78.0</ele>
      </trkpt>
      <trkpt lat="50.81776" lon="3.46107">
        <ele>75.0</ele>
      </trkpt>
      <trkpt lat="50.81686" lon="3.45983">
        <ele>68.0</ele>
      </trkpt>
      <trkpt lat="50.81522" lon="3.45837">
        <ele>60.0</ele>
      </trkpt>
      <trkpt lat="50.81428" lon="3.45793">
        <ele>62.0</ele>
      </trkpt>
      <trkpt lat="50.81294" lon="3.45752">
        <ele>61.0</ele>
      </trkpt>
      <trkpt lat="50.81188" lon="3.45743">
        <ele>62.0</ele>
      </trkpt>
      <trkpt lat="50.80886" lon="3.45556">
        <ele>39.0</ele>
      </trkpt>
      <trkpt lat="50.80685" lon="3.45265">
        <ele>26.0</ele>
      </trkpt>
      <trkpt lat="50.80756" lon="3.45096">
        <ele>26.0</ele>
      </trkpt>
      <trkpt lat="50.81412" lon="3.43961">
        <ele>46.0</ele>
      </trkpt>
      <trkpt lat="50.81496" lon="3.43821">
        <ele>52.0</ele>
      </trkpt>
      <trkpt lat="50.81545" lon="3.43734">
        <ele>49.0</ele>
      </trkpt>
      <trkpt lat="50.81738" lon="3.43414">
        <ele>46.0</ele>
      </trkpt>
      <trkpt lat="50.81764" lon="3.43295">
        <ele>46.0</ele>
      </trkpt>
      <trkpt lat="50.8178" lon="3.43235">
        <ele>44.0</ele>
      </trkpt>
      <trkpt lat="50.81817" lon="3.4315">
        <ele>44.0</ele>
      </trkpt>
      <trkpt lat="50.81845" lon="3.43006">
        <ele>49.0</ele>
      </trkpt>
      <trkpt lat="50.81973" lon="3.42725">
        <ele>50.0</ele>
      </trkpt>
      <trkpt lat="50.82238" lon="3.42443">
        <ele>42.0</ele>
      </trkpt>
      <trkpt lat="50.82903" lon="3.41797">
        <ele>42.0</ele>
      </trkpt>
      <trkpt lat="50.83014" lon="3.41649">
        <ele>37.0</ele>
      </trkpt>
      <trkpt lat="50.83139" lon="3.41367">
        <ele>30.0</ele>
      </trkpt>
      <trkpt lat="50.83234" lon="3.40986">
        <ele>26.0</ele>
      </trkpt>
      <trkpt lat="50.8331" lon="3.40861">
        <ele>24.0</ele>
      </trkpt>
      <trkpt lat="50.83597" lon="3.40524">
        <ele>19.0</ele>
      </trkpt>
      <trkpt lat="50.8377" lon="3.40331">
        <ele>23.0</ele>
      </trkpt>
      <trkpt lat="50.83834" lon="3.40232">
        <ele>21.0</ele>
      </trkpt>
      <trkpt lat="50.83946" lon="3.39894">
        <ele>17.0</ele>
      </trkpt>
      <trkpt lat="50.84068" lon="3.3955">
        <ele>16.0</ele>
      </trkpt>
      <trkpt lat="50.841" lon="3.39457">
        <ele>15.0</ele>
      </trkpt>
      <trkpt lat="50.84118" lon="3.39398">
        <ele>15.0</ele>
      </trkpt>
      <trkpt lat="50.84357" lon="3.38708">
        <ele>14.0</ele>
      </trkpt>
      <trkpt lat="50.84529" lon="3.38201">
        <ele>14.0</ele>
      </trkpt>
      <trkpt lat="50.84524" lon="3.38162">
        <ele>15.0</ele>
      </trkpt>
      <trkpt lat="50.84478" lon="3.38015">
        <ele>18.0</ele>
      </trkpt>
      <trkpt lat="50.84353" lon="3.37759">
        <ele>12.0</ele>
      </trkpt>
      <trkpt lat="50.84213" lon="3.37578">
        <ele>11.0</ele>
      </trkpt>
      <trkpt lat="50.84134" lon="3.37463">
        <ele>11.0</ele>
      </trkpt>
      <trkpt lat="50.84039" lon="3.37112">
        <ele>12.0</ele>
      </trkpt>
      <trkpt lat="50.84139" lon="3.36887">
        <ele>11.0</ele>
      </trkpt>
      <trkpt lat="50.84197" lon="3.36817">
        <ele>13.0</ele>
      </trkpt>
      <trkpt lat="50.84544" lon="3.36565">
        <ele>15.0</ele>
      </trkpt>
      <trkpt lat="50.84805" lon="3.36295">
        <ele>14.0</ele>
      </trkpt>
      <trkpt lat="50.84612" lon="3.3574">
        <ele>12.0</ele>
      </trkpt>
      <trkpt lat="50.84545" lon="3.3509">
        <ele>13.0</ele>
      </trkpt>
      <trkpt lat="50.84708" lon="3.34526">
        <ele>11.0</ele>
      </trkpt>
      <trkpt lat="50.84884" lon="3.34016">
        <ele>12.0</ele>
      </trkpt>
      <trkpt lat="50.85127" lon="3.33644">
        <ele>16.0</ele>
      </trkpt>
      <trkpt lat="50.85218" lon="3.33561">
        <ele>21.0</ele>
      </trkpt>
      <trkpt lat="50.85387" lon="3.33426">
        <ele>13.0</ele>
      </trkpt>
      <trkpt lat="50.85473" lon="3.33359">
        <ele>15.0</ele>
      </trkpt>
      <trkpt lat="50.85934" lon="3.33003">
        <ele>17.0</ele>
      </trkpt>
      <trkpt lat="50.86321" lon="3.32628">
        <ele>16.0</ele>
      </trkpt>
      <trkpt lat="50.86369" lon="3.32501">
        <ele>17.0</ele>
      </trkpt>
      <trkpt lat="50.86287" lon="3.32341">
        <ele>17.0</ele>
      </trkpt>
      <trkpt lat="50.86146" lon="3.32046">
        <ele>16.0</ele>
      </trkpt>
      <trkpt lat="50.86006" lon="3.31754">
        <ele>18.0</ele>
      </trkpt>
      <trkpt lat="50.85908" lon="3.31561">
        <ele>17.0</ele>
      </trkpt>
      <trkpt lat="50.85793" lon="3.31371">
        <ele>19.0</ele>
      </trkpt>
      <trkpt lat="50.85749" lon="3.31246">
        <ele>16.0</ele>
      </trkpt>
      <trkpt lat="50.85691" lon="3.31099">
        <ele>15.0</ele>
      </trkpt>
      <trkpt lat="50.85566" lon="3.3093">
        <ele>20.0</ele>
      </trkpt>
      <trkpt lat="50.85433" lon="3.30765">
        <ele>18.0</ele>
      </trkpt>
      <trkpt lat="50.85316" lon="3.30835">
        <ele>17.0</ele>
      </trkpt>
      <trkpt lat="50.85146" lon="3.30872">
        <ele>19.0</ele>
      </trkpt>
      <trkpt lat="50.85111" lon="3.30877">
        <ele>18.0</ele>
      </trkpt>
      <trkpt lat="50.84979" lon="3.30896">
        <ele>17.0</ele>
      </trkpt>
      <trkpt lat="50.84729" lon="3.30909">
        <ele>17.0</ele>
      </trkpt>
      <trkpt lat="50.84694" lon="3.30787">
        <ele>19.0</ele>
      </trkpt>
      <trkpt lat="50.84597" lon="3.30583">
        <ele>16.0</ele>
      </trkpt>
      <trkpt lat="50.84484" lon="3.30476">
        <ele>15.0</ele>
      </trkpt>
      <trkpt lat="50.84319" lon="3.30077">
        <ele>17.0</ele>
      </trkpt>
      <trkpt lat="50.83999" lon="3.29859">
        <ele>13.0</ele>
      </trkpt>
      <trkpt lat="50.83901" lon="3.30234">
        <ele>16.0</ele>
      </trkpt>
      <trkpt lat="50.83845" lon="3.30647">
        <ele>13.0</ele>
      </trkpt>
      <trkpt lat="50.83872" lon="3.3094">
        <ele>12.0</ele>
      </trkpt>
      <trkpt lat="50.83957" lon="3.31061">
        <ele>12.0</ele>
      </trkpt>
      <trkpt lat="50.84131" lon="3.31009">
        <ele>12.0</ele>
      </trkpt>
      <trkpt lat="50.84262" lon="3.3098">
        <ele>15.0</ele>
      </trkpt>
      <trkpt lat="50.84403" lon="3.30964">
        <ele>12.0</ele>
      </trkpt>
    </trkseg>
  </trk>
</gpx>