<?xml version="1.0" encoding="UTF-8"?>
<gpx xmlns="http://www.topografix.com/GPX/1/0" xmlns:xsi="http://www.w3.org/2001/XMLSchema-instance" xsi:schemaLocation="http://www.topografix.com/GPX/1/0 http://www.topografix.com/GPX/1/0/gpx.xsd" version="1.0" creator="GPSBabel - https://www.gpsbabel.org">
  <time>2026-02-23T16:06:23.532000Z</time>
  <bounds minlat="50.66901" maxlat="50.87128" minlon="3.2626" maxlon="3.77368" />
  <trk>
    <trkseg>
      <trkpt lat="50.86356" lon="3.29585">
        <ele>13.0</ele>
      </trkpt>
      <trkpt lat="50.86308" lon="3.29847">
        <ele>13.0</ele>
      </trkpt>
      <trkpt lat="50.86202" lon="3.3014">
        <ele>13.0</ele>
      </trkpt>
      <trkpt lat="50.86169" lon="3.30195">
        <ele>13.0</ele>
      </trkpt>
      <trkpt lat="50.86207" lon="3.30225">
        <ele>13.0</ele>
      </trkpt>
      <trkpt lat="50.86485" lon="3.30579">
        <ele>12.0</ele>
      </trkpt>
      <trkpt lat="50.86708" lon="3.30801">
        <ele>12.0</ele>
      </trkpt>
      <trkpt lat="50.86716" lon="3.30894">
        <ele>11.0</ele>
      </trkpt>
      <trkpt lat="50.86683" lon="3.31369">
        <ele>8.0</ele>
      </trkpt>
      <trkpt lat="50.86653" lon="3.31651">
        <ele>8.0</ele>
      </trkpt>
      <trkpt lat="50.86615" lon="3.31861">
        <ele>9.0</ele>
      </trkpt>
      <trkpt lat="50.86554" lon="3.32093">
        <ele>10.0</ele>
      </trkpt>
      <trkpt lat="50.86467" lon="3.32326">
        <ele>10.0</ele>
      </trkpt>
      <trkpt lat="50.86288" lon="3.32631">
        <ele>12.0</ele>
      </trkpt>
      <trkpt lat="50.86131" lon="3.32811">
        <ele>13.0</ele>
      </trkpt>
      <trkpt lat="50.85985" lon="3.32942">
        <ele>13.0</ele>
      </trkpt>
      <trkpt lat="50.85125" lon="3.33627">
        <ele>15.0</ele>
      </trkpt>
      <trkpt lat="50.85036" lon="3.33733">
        <ele>15.0</ele>
      </trkpt>
      <trkpt lat="50.84936" lon="3.33888">
        <ele>14.0</ele>
      </trkpt>
      <trkpt lat="50.8485" lon="3.34066">
        <ele>12.0</ele>
      </trkpt>
      <trkpt lat="50.84791" lon="3.34228">
        <ele>11.0</ele>
      </trkpt>
      <trkpt lat="50.84551" lon="3.35003">
        <ele>8.0</ele>
      </trkpt>
      <trkpt lat="50.84519" lon="3.35187">
        <ele>10.0</ele>
      </trkpt>
      <trkpt lat="50.84514" lon="3.35314">
        <ele>11.0</ele>
      </trkpt>
      <trkpt lat="50.84531" lon="3.35492">
        <ele>12.0</ele>
      </trkpt>
      <trkpt lat="50.84569" lon="3.35642">
        <ele>12.0</ele>
      </trkpt>
      <trkpt lat="50.84805" lon="3.36295">
        <ele>11.0</ele>
      </trkpt>
      <trkpt lat="50.8435" lon="3.36758">
        <ele>12.0</ele>
      </trkpt>
      <trkpt lat="50.84175" lon="3.36833">
        <ele>11.0</ele>
      </trkpt>
      <trkpt lat="50.83962" lon="3.3725">
        <ele>10.0</ele>
      </trkpt>
      <trkpt lat="50.84204" lon="3.37568">
        <ele>10.0</ele>
      </trkpt>
      <trkpt lat="50.84337" lon="3.37707">
        <ele>12.0</ele>
      </trkpt>
      <trkpt lat="50.84369" lon="3.37798">
        <ele>12.0</ele>
      </trkpt>
      <trkpt lat="50.84461" lon="3.37968">
        <ele>13.0</ele>
      </trkpt>
      <trkpt lat="50.84524" lon="3.38162">
        <ele>14.0</ele>
      </trkpt>
      <trkpt lat="50.84538" lon="3.38177">
        <ele>14.0</ele>
      </trkpt>
      <trkpt lat="50.83838" lon="3.40205">
        <ele>17.0</ele>
      </trkpt>
      <trkpt lat="50.83741" lon="3.40357">
        <ele>20.0</ele>
      </trkpt>
      <trkpt lat="50.83259" lon="3.40933">
        <ele>21.0</ele>
      </trkpt>
      <trkpt lat="50.83215" lon="3.41046">
        <ele>23.0</ele>
      </trkpt>
      <trkpt lat="50.83126" lon="3.41401">
        <ele>27.0</ele>
      </trkpt>
      <trkpt lat="50.83022" lon="3.41634">
        <ele>31.0</ele>
      </trkpt>
      <trkpt lat="50.8297" lon="3.41719">
        <ele>37.0</ele>
      </trkpt>
      <trkpt lat="50.82045" lon="3.42629">
        <ele>41.0</ele>
      </trkpt>
      <trkpt lat="50.81979" lon="3.42715">
        <ele>43.0</ele>
      </trkpt>
      <trkpt lat="50.81852" lon="3.42979">
        <ele>48.0</ele>
      </trkpt>
      <trkpt lat="50.81817" lon="3.4315">
        <ele>45.0</ele>
      </trkpt>
      <trkpt lat="50.81772" lon="3.43256">
        <ele>43.0</ele>
      </trkpt>
      <trkpt lat="50.81741" lon="3.4341">
        <ele>43.0</ele>
      </trkpt>
      <trkpt lat="50.8143" lon="3.43921">
        <ele>46.0</ele>
      </trkpt>
      <trkpt lat="50.80674" lon="3.45254">
        <ele>25.0</ele>
      </trkpt>
      <trkpt lat="50.80775" lon="3.45359">
        <ele>25.0</ele>
      </trkpt>
      <trkpt lat="50.80875" lon="3.45545">
        <ele>28.0</ele>
      </trkpt>
      <trkpt lat="50.81037" lon="3.45674">
        <ele>37.0</ele>
      </trkpt>
      <trkpt lat="50.81222" lon="3.45762">
        <ele>51.0</ele>
      </trkpt>
      <trkpt lat="50.81309" lon="3.45752">
        <ele>55.0</ele>
      </trkpt>
      <trkpt lat="50.8147" lon="3.45808">
        <ele>58.0</ele>
      </trkpt>
      <trkpt lat="50.81614" lon="3.45902">
        <ele>59.0</ele>
      </trkpt>
      <trkpt lat="50.81764" lon="3.46077">
        <ele>67.0</ele>
      </trkpt>
      <trkpt lat="50.8182" lon="3.46204">
        <ele>75.0</ele>
      </trkpt>
      <trkpt lat="50.81794" lon="3.46219">
        <ele>76.0</ele>
      </trkpt>
      <trkpt lat="50.81777" lon="3.46266">
        <ele>77.0</ele>
      </trkpt>
      <trkpt lat="50.8169" lon="3.46688">
        <ele>72.0</ele>
      </trkpt>
      <trkpt lat="50.81652" lon="3.46783">
        <ele>63.0</ele>
      </trkpt>
      <trkpt lat="50.81606" lon="3.4682">
        <ele>59.0</ele>
      </trkpt>
      <trkpt lat="50.81399" lon="3.46902">
        <ele>47.0</ele>
      </trkpt>
      <trkpt lat="50.81337" lon="3.47021">
        <ele>39.0</ele>
      </trkpt>
      <trkpt lat="50.81209" lon="3.47117">
        <ele>37.0</ele>
      </trkpt>
      <trkpt lat="50.81088" lon="3.47261">
        <ele>39.0</ele>
      </trkpt>
      <trkpt lat="50.81016" lon="3.47402">
        <ele>46.0</ele>
      </trkpt>
      <trkpt lat="50.80859" lon="3.47534">
        <ele>49.0</ele>
      </trkpt>
      <trkpt lat="50.8091" lon="3.47798">
        <ele>49.0</ele>
      </trkpt>
      <trkpt lat="50.80897" lon="3.48193">
        <ele>44.0</ele>
      </trkpt>
      <trkpt lat="50.80904" lon="3.4832">
        <ele>40.0</ele>
      </trkpt>
      <trkpt lat="50.81108" lon="3.49449">
        <ele>27.0</ele>
      </trkpt>
      <trkpt lat="50.80725" lon="3.49677">
        <ele>23.0</ele>
      </trkpt>
      <trkpt lat="50.80235" lon="3.49807">
        <ele>13.0</ele>
      </trkpt>
      <trkpt lat="50.80096" lon="3.49874">
        <ele>14.0</ele>
      </trkpt>
      <trkpt lat="50.79877" lon="3.50026">
        <ele>13.0</ele>
      </trkpt>
      <trkpt lat="50.79829" lon="3.50042">
        <ele>13.0</ele>
      </trkpt>
      <trkpt lat="50.79819" lon="3.50067">
        <ele>13.0</ele>
      </trkpt>
      <trkpt lat="50.79687" lon="3.50199">
        <ele>13.0</ele>
      </trkpt>
      <trkpt lat="50.79254" lon="3.50605">
        <ele>13.0</ele>
      </trkpt>
      <trkpt lat="50.79202" lon="3.5068">
        <ele>10.0</ele>
      </trkpt>
      <trkpt lat="50.79314" lon="3.51021">
        <ele>10.0</ele>
      </trkpt>
      <trkpt lat="50.79488" lon="3.51951">
        <ele>11.0</ele>
      </trkpt>
      <trkpt lat="50.79774" lon="3.52707">
        <ele>14.0</ele>
      </trkpt>
      <trkpt lat="50.79855" lon="3.52904">
        <ele>14.0</ele>
      </trkpt>
      <trkpt lat="50.80307" lon="3.53859">
        <ele>14.0</ele>
      </trkpt>
      <trkpt lat="50.80617" lon="3.54693">
        <ele>13.0</ele>
      </trkpt>
      <trkpt lat="50.80689" lon="3.54842">
        <ele>14.0</ele>
      </trkpt>
      <trkpt lat="50.80864" lon="3.5514">
        <ele>14.0</ele>
      </trkpt>
      <trkpt lat="50.81419" lon="3.56522">
        <ele>13.0</ele>
      </trkpt>
      <trkpt lat="50.81661" lon="3.57043">
        <ele>11.0</ele>
      </trkpt>
      <trkpt lat="50.81865" lon="3.57461">
        <ele>10.0</ele>
      </trkpt>
      <trkpt lat="50.82222" lon="3.58015">
        <ele>10.0</ele>
      </trkpt>
      <trkpt lat="50.82478" lon="3.58468">
        <ele>10.0</ele>
      </trkpt>
      <trkpt lat="50.8273" lon="3.59005">
        <ele>10.0</ele>
      </trkpt>
      <trkpt lat="50.83067" lon="3.59663">
        <ele>10.0</ele>
      </trkpt>
      <trkpt lat="50.83096" lon="3.59609">
        <ele>10.0</ele>
      </trkpt>
      <trkpt lat="50.83209" lon="3.5948">
        <ele>10.0</ele>
      </trkpt>
      <trkpt lat="50.83229" lon="3.59476">
        <ele>9.0</ele>
      </trkpt>
      <trkpt lat="50.8333" lon="3.59694">
        <ele>9.0</ele>
      </trkpt>
      <trkpt lat="50.83517" lon="3.59941">
        <ele>10.0</ele>
      </trkpt>
      <trkpt lat="50.83542" lon="3.59944">
        <ele>11.0</ele>
      </trkpt>
      <trkpt lat="50.83656" lon="3.59857">
        <ele>11.0</ele>
      </trkpt>
      <trkpt lat="50.83896" lon="3.60401">
        <ele>11.0</ele>
      </trkpt>
      <trkpt lat="50.83868" lon="3.60787">
        <ele>12.0</ele>
      </trkpt>
      <trkpt lat="50.84023" lon="3.61004">
        <ele>13.0</ele>
      </trkpt>
      <trkpt lat="50.84156" lon="3.61088">
        <ele>13.0</ele>
      </trkpt>
      <trkpt lat="50.84056" lon="3.61315">
        <ele>13.0</ele>
      </trkpt>
      <trkpt lat="50.84012" lon="3.61476">
        <ele>14.0</ele>
      </trkpt>
      <trkpt lat="50.83975" lon="3.61495">
        <ele>14.0</ele>
      </trkpt>
      <trkpt lat="50.83855" lon="3.61656">
        <ele>19.0</ele>
      </trkpt>
      <trkpt lat="50.83939" lon="3.61924">
        <ele>19.0</ele>
      </trkpt>
      <trkpt lat="50.83959" lon="3.62135">
        <ele>21.0</ele>
      </trkpt>
      <trkpt lat="50.83942" lon="3.62282">
        <ele>25.0</ele>
      </trkpt>
      <trkpt lat="50.83952" lon="3.62527">
        <ele>27.0</ele>
      </trkpt>
      <trkpt lat="50.84011" lon="3.62739">
        <ele>30.0</ele>
      </trkpt>
      <trkpt lat="50.84042" lon="3.63202">
        <ele>37.0</ele>
      </trkpt>
      <trkpt lat="50.84071" lon="3.63431">
        <ele>34.0</ele>
      </trkpt>
      <trkpt lat="50.84101" lon="3.63517">
        <ele>33.0</ele>
      </trkpt>
      <trkpt lat="50.8407" lon="3.6368">
        <ele>33.0</ele>
      </trkpt>
      <trkpt lat="50.84012" lon="3.63824">
        <ele>33.0</ele>
      </trkpt>
      <trkpt lat="50.83966" lon="3.6402">
        <ele>35.0</ele>
      </trkpt>
      <trkpt lat="50.8394" lon="3.64266">
        <ele>50.0</ele>
      </trkpt>
      <trkpt lat="50.8385" lon="3.64386">
        <ele>64.0</ele>
      </trkpt>
      <trkpt lat="50.83778" lon="3.64723">
        <ele>71.0</ele>
      </trkpt>
      <trkpt lat="50.83663" lon="3.65047">
        <ele>75.0</ele>
      </trkpt>
      <trkpt lat="50.83118" lon="3.65425">
        <ele>82.0</ele>
      </trkpt>
      <trkpt lat="50.83154" lon="3.65813">
        <ele>85.0</ele>
      </trkpt>
      <trkpt lat="50.83121" lon="3.66049">
        <ele>85.0</ele>
      </trkpt>
      <trkpt lat="50.83104" lon="3.66411">
        <ele>85.0</ele>
      </trkpt>
      <trkpt lat="50.83085" lon="3.66568">
        <ele>85.0</ele>
      </trkpt>
      <trkpt lat="50.83124" lon="3.6685">
        <ele>87.0</ele>
      </trkpt>
      <trkpt lat="50.83133" lon="3.67095">
        <ele>88.0</ele>
      </trkpt>
      <trkpt lat="50.83127" lon="3.6734">
        <ele>89.0</ele>
      </trkpt>
      <trkpt lat="50.83087" lon="3.67707">
        <ele>96.0</ele>
      </trkpt>
      <trkpt lat="50.82983" lon="3.67991">
        <ele>96.0</ele>
      </trkpt>
      <trkpt lat="50.82854" lon="3.68199">
        <ele>95.0</ele>
      </trkpt>
      <trkpt lat="50.82752" lon="3.68415">
        <ele>93.0</ele>
      </trkpt>
      <trkpt lat="50.82466" lon="3.68793">
        <ele>98.0</ele>
      </trkpt>
      <trkpt lat="50.82319" lon="3.69137">
        <ele>98.0</ele>
      </trkpt>
      <trkpt lat="50.82279" lon="3.69211">
        <ele>96.0</ele>
      </trkpt>
      <trkpt lat="50.82165" lon="3.69357">
        <ele>95.0</ele>
      </trkpt>
      <trkpt lat="50.82068" lon="3.69596">
        <ele>95.0</ele>
      </trkpt>
      <trkpt lat="50.82049" lon="3.6976">
        <ele>95.0</ele>
      </trkpt>
      <trkpt lat="50.82017" lon="3.69901">
        <ele>96.0</ele>
      </trkpt>
      <trkpt lat="50.81948" lon="3.70478">
        <ele>96.0</ele>
      </trkpt>
      <trkpt lat="50.81952" lon="3.7062">
        <ele>96.0</ele>
      </trkpt>
      <trkpt lat="50.81979" lon="3.70867">
        <ele>92.0</ele>
      </trkpt>
      <trkpt lat="50.81966" lon="3.7115">
        <ele>81.0</ele>
      </trkpt>
      <trkpt lat="50.81841" lon="3.7166">
        <ele>71.0</ele>
      </trkpt>
      <trkpt lat="50.81785" lon="3.72335">
        <ele>70.0</ele>
      </trkpt>
      <trkpt lat="50.81721" lon="3.72585">
        <ele>74.0</ele>
      </trkpt>
      <trkpt lat="50.81633" lon="3.72765">
        <ele>78.0</ele>
      </trkpt>
      <trkpt lat="50.81533" lon="3.72901">
        <ele>88.0</ele>
      </trkpt>
      <trkpt lat="50.81425" lon="3.7318">
        <ele>97.0</ele>
      </trkpt>
      <trkpt lat="50.81339" lon="3.73448">
        <ele>101.0</ele>
      </trkpt>
      <trkpt lat="50.81286" lon="3.73553">
        <ele>102.0</ele>
      </trkpt>
      <trkpt lat="50.81198" lon="3.73631">
        <ele>102.0</ele>
      </trkpt>
      <trkpt lat="50.81028" lon="3.7367">
        <ele>99.0</ele>
      </trkpt>
      <trkpt lat="50.80935" lon="3.73723">
        <ele>97.0</ele>
      </trkpt>
      <trkpt lat="50.80854" lon="3.73851">
        <ele>92.0</ele>
      </trkpt>
      <trkpt lat="50.80674" lon="3.73963">
        <ele>88.0</ele>
      </trkpt>
      <trkpt lat="50.80656" lon="3.73996">
        <ele>86.0</ele>
      </trkpt>
      <trkpt lat="50.80627" lon="3.74119">
        <ele>81.0</ele>
      </trkpt>
      <trkpt lat="50.8057" lon="3.74404">
        <ele>72.0</ele>
      </trkpt>
      <trkpt lat="50.80596" lon="3.74982">
        <ele>56.0</ele>
      </trkpt>
      <trkpt lat="50.80544" lon="3.75049">
        <ele>49.0</ele>
      </trkpt>
      <trkpt lat="50.8042" lon="3.75105">
        <ele>47.0</ele>
      </trkpt>
      <trkpt lat="50.80455" lon="3.75274">
        <ele>43.0</ele>
      </trkpt>
      <trkpt lat="50.80497" lon="3.75337">
        <ele>41.0</ele>
      </trkpt>
      <trkpt lat="50.80546" lon="3.75538">
        <ele>40.0</ele>
      </trkpt>
      <trkpt lat="50.80567" lon="3.75797">
        <ele>39.0</ele>
      </trkpt>
      <trkpt lat="50.80565" lon="3.76104">
        <ele>38.0</ele>
      </trkpt>
      <trkpt lat="50.80554" lon="3.76173">
        <ele>38.0</ele>
      </trkpt>
      <trkpt lat="50.807" lon="3.76592">
        <ele>37.0</ele>
      </trkpt>
      <trkpt lat="50.80757" lon="3.76678">
        <ele>36.0</ele>
      </trkpt>
      <trkpt lat="50.8086" lon="3.7673">
        <ele>35.0</ele>
      </trkpt>
      <trkpt lat="50.80919" lon="3.76908">
        <ele>34.0</ele>
      </trkpt>
      <trkpt lat="50.80947" lon="3.76957">
        <ele>34.0</ele>
      </trkpt>
      <trkpt lat="50.80986" lon="3.7694">
        <ele>34.0</ele>
      </trkpt>
      <trkpt lat="50.81058" lon="3.76968">
        <ele>34.0</ele>
      </trkpt>
      <trkpt lat="50.81304" lon="3.77006">
        <ele>41.0</ele>
      </trkpt>
      <trkpt lat="50.8144" lon="3.76986">
        <ele>45.0</ele>
      </trkpt>
      <trkpt lat="50.81647" lon="3.7713">
        <ele>47.0</ele>
      </trkpt>
      <trkpt lat="50.81859" lon="3.77151">
        <ele>44.0</ele>
      </trkpt>
      <trkpt lat="50.82019" lon="3.77225">
        <ele>39.0</ele>
      </trkpt>
      <trkpt lat="50.82068" lon="3.77273">
        <ele>37.0</ele>
      </trkpt>
      <trkpt lat="50.82118" lon="3.77361">
        <ele>34.0</ele>
      </trkpt>
      <trkpt lat="50.82144" lon="3.77367">
        <ele>34.0</ele>
      </trkpt>
      <trkpt lat="50.82237" lon="3.77331">
        <ele>33.0</ele>
      </trkpt>
      <trkpt lat="50.82305" lon="3.77273">
        <ele>33.0</ele>
      </trkpt>
      <trkpt lat="50.82457" lon="3.77052">
        <ele>33.0</ele>
      </trkpt>
      <trkpt lat="50.82584" lon="3.76834">
        <ele>36.0</ele>
      </trkpt>
      <trkpt lat="50.82935" lon="3.765">
        <ele>37.0</ele>
      </trkpt>
      <trkpt lat="50.82999" lon="3.76453">
        <ele>35.0</ele>
      </trkpt>
      <trkpt lat="50.83267" lon="3.76344">
        <ele>29.0</ele>
      </trkpt>
      <trkpt lat="50.83313" lon="3.76295">
        <ele>23.0</ele>
      </trkpt>
      <trkpt lat="50.83348" lon="3.76287">
        <ele>22.0</ele>
      </trkpt>
      <trkpt lat="50.83371" lon="3.76195">
        <ele>23.0</ele>
      </trkpt>
      <trkpt lat="50.83346" lon="3.75826">
        <ele>31.0</ele>
      </trkpt>
      <trkpt lat="50.83297" lon="3.75512">
        <ele>39.0</ele>
      </trkpt>
      <trkpt lat="50.83283" lon="3.75248">
        <ele>45.0</ele>
      </trkpt>
      <trkpt lat="50.83225" lon="3.75058">
        <ele>54.0</ele>
      </trkpt>
      <trkpt lat="50.83089" lon="3.74423">
        <ele>69.0</ele>
      </trkpt>
      <trkpt lat="50.83092" lon="3.7431">
        <ele>73.0</ele>
      </trkpt>
      <trkpt lat="50.83136" lon="3.7413">
        <ele>78.0</ele>
      </trkpt>
      <trkpt lat="50.83145" lon="3.73973">
        <ele>80.0</ele>
      </trkpt>
      <trkpt lat="50.83128" lon="3.73816">
        <ele>89.0</ele>
      </trkpt>
      <trkpt lat="50.83018" lon="3.73236">
        <ele>97.0</ele>
      </trkpt>
      <trkpt lat="50.83353" lon="3.73185">
        <ele>95.0</ele>
      </trkpt>
      <trkpt lat="50.83391" lon="3.73077">
        <ele>90.0</ele>
      </trkpt>
      <trkpt lat="50.83733" lon="3.72689">
        <ele>89.0</ele>
      </trkpt>
      <trkpt lat="50.83866" lon="3.72472">
        <ele>82.0</ele>
      </trkpt>
      <trkpt lat="50.84016" lon="3.72416">
        <ele>77.0</ele>
      </trkpt>
      <trkpt lat="50.84208" lon="3.72237">
        <ele>75.0</ele>
      </trkpt>
      <trkpt lat="50.84346" lon="3.72193">
        <ele>68.0</ele>
      </trkpt>
      <trkpt lat="50.84512" lon="3.72047">
        <ele>61.0</ele>
      </trkpt>
      <trkpt lat="50.84604" lon="3.72024">
        <ele>48.0</ele>
      </trkpt>
      <trkpt lat="50.84788" lon="3.72093">
        <ele>41.0</ele>
      </trkpt>
      <trkpt lat="50.84965" lon="3.72089">
        <ele>32.0</ele>
      </trkpt>
      <trkpt lat="50.85022" lon="3.72064">
        <ele>32.0</ele>
      </trkpt>
      <trkpt lat="50.85164" lon="3.71934">
        <ele>42.0</ele>
      </trkpt>
      <trkpt lat="50.85053" lon="3.71703">
        <ele>44.0</ele>
      </trkpt>
      <trkpt lat="50.85024" lon="3.71584">
        <ele>39.0</ele>
      </trkpt>
      <trkpt lat="50.8502" lon="3.71417">
        <ele>33.0</ele>
      </trkpt>
      <trkpt lat="50.85069" lon="3.71031">
        <ele>24.0</ele>
      </trkpt>
      <trkpt lat="50.85028" lon="3.70969">
        <ele>22.0</ele>
      </trkpt>
      <trkpt lat="50.84993" lon="3.70973">
        <ele>21.0</ele>
      </trkpt>
      <trkpt lat="50.84901" lon="3.71131">
        <ele>24.0</ele>
      </trkpt>
      <trkpt lat="50.84858" lon="3.71152">
        <ele>22.0</ele>
      </trkpt>
      <trkpt lat="50.84631" lon="3.71053">
        <ele>27.0</ele>
      </trkpt>
      <trkpt lat="50.84309" lon="3.70853">
        <ele>35.0</ele>
      </trkpt>
      <trkpt lat="50.84025" lon="3.70594">
        <ele>50.0</ele>
      </trkpt>
      <trkpt lat="50.83875" lon="3.7037">
        <ele>59.0</ele>
      </trkpt>
      <trkpt lat="50.8357" lon="3.70056">
        <ele>67.0</ele>
      </trkpt>
      <trkpt lat="50.83455" lon="3.69889">
        <ele>73.0</ele>
      </trkpt>
      <trkpt lat="50.83438" lon="3.69839">
        <ele>73.0</ele>
      </trkpt>
      <trkpt lat="50.83317" lon="3.69628">
        <ele>77.0</ele>
      </trkpt>
      <trkpt lat="50.83251" lon="3.69535">
        <ele>77.0</ele>
      </trkpt>
      <trkpt lat="50.83078" lon="3.6944">
        <ele>79.0</ele>
      </trkpt>
      <trkpt lat="50.82965" lon="3.69319">
        <ele>83.0</ele>
      </trkpt>
      <trkpt lat="50.82854" lon="3.69233">
        <ele>86.0</ele>
      </trkpt>
      <trkpt lat="50.82413" lon="3.68928">
        <ele>93.0</ele>
      </trkpt>
      <trkpt lat="50.82407" lon="3.68918">
        <ele>93.0</ele>
      </trkpt>
      <trkpt lat="50.82466" lon="3.68793">
        <ele>97.0</ele>
      </trkpt>
      <trkpt lat="50.82587" lon="3.68628">
        <ele>97.0</ele>
      </trkpt>
      <trkpt lat="50.82509" lon="3.68544">
        <ele>95.0</ele>
      </trkpt>
      <trkpt lat="50.82375" lon="3.68594">
        <ele>90.0</ele>
      </trkpt>
      <trkpt lat="50.82229" lon="3.686">
        <ele>85.0</ele>
      </trkpt>
      <trkpt lat="50.82164" lon="3.68579">
        <ele>85.0</ele>
      </trkpt>
      <trkpt lat="50.82118" lon="3.68551">
        <ele>84.0</ele>
      </trkpt>
      <trkpt lat="50.82077" lon="3.68475">
        <ele>82.0</ele>
      </trkpt>
      <trkpt lat="50.81949" lon="3.68343">
        <ele>79.0</ele>
      </trkpt>
      <trkpt lat="50.81804" lon="3.68158">
        <ele>65.0</ele>
      </trkpt>
      <trkpt lat="50.81699" lon="3.68152">
        <ele>56.0</ele>
      </trkpt>
      <trkpt lat="50.81573" lon="3.68098">
        <ele>48.0</ele>
      </trkpt>
      <trkpt lat="50.81444" lon="3.68104">
        <ele>34.0</ele>
      </trkpt>
      <trkpt lat="50.81394" lon="3.68083">
        <ele>33.0</ele>
      </trkpt>
      <trkpt lat="50.81301" lon="3.67984">
        <ele>27.0</ele>
      </trkpt>
      <trkpt lat="50.81252" lon="3.68018">
        <ele>24.0</ele>
      </trkpt>
      <trkpt lat="50.81152" lon="3.68187">
        <ele>24.0</ele>
      </trkpt>
      <trkpt lat="50.81121" lon="3.68207">
        <ele>24.0</ele>
      </trkpt>
      <trkpt lat="50.81079" lon="3.68174">
        <ele>27.0</ele>
      </trkpt>
      <trkpt lat="50.80914" lon="3.67938">
        <ele>32.0</ele>
      </trkpt>
      <trkpt lat="50.80894" lon="3.67943">
        <ele>33.0</ele>
      </trkpt>
      <trkpt lat="50.80827" lon="3.68039">
        <ele>32.0</ele>
      </trkpt>
      <trkpt lat="50.80774" lon="3.68026">
        <ele>32.0</ele>
      </trkpt>
      <trkpt lat="50.80721" lon="3.67974">
        <ele>30.0</ele>
      </trkpt>
      <trkpt lat="50.80683" lon="3.67909">
        <ele>32.0</ele>
      </trkpt>
      <trkpt lat="50.80617" lon="3.67866">
        <ele>38.0</ele>
      </trkpt>
      <trkpt lat="50.80552" lon="3.67788">
        <ele>38.0</ele>
      </trkpt>
      <trkpt lat="50.80796" lon="3.6769">
        <ele>38.0</ele>
      </trkpt>
      <trkpt lat="50.8093" lon="3.67575">
        <ele>40.0</ele>
      </trkpt>
      <trkpt lat="50.81009" lon="3.67485">
        <ele>39.0</ele>
      </trkpt>
      <trkpt lat="50.81091" lon="3.67328">
        <ele>37.0</ele>
      </trkpt>
      <trkpt lat="50.81352" lon="3.66983">
        <ele>34.0</ele>
      </trkpt>
      <trkpt lat="50.81381" lon="3.66923">
        <ele>30.0</ele>
      </trkpt>
      <trkpt lat="50.81395" lon="3.66857">
        <ele>27.0</ele>
      </trkpt>
      <trkpt lat="50.81457" lon="3.66022">
        <ele>23.0</ele>
      </trkpt>
      <trkpt lat="50.81548" lon="3.6574">
        <ele>24.0</ele>
      </trkpt>
      <trkpt lat="50.81583" lon="3.65549">
        <ele>24.0</ele>
      </trkpt>
      <trkpt lat="50.81595" lon="3.65371">
        <ele>22.0</ele>
      </trkpt>
      <trkpt lat="50.81592" lon="3.64827">
        <ele>19.0</ele>
      </trkpt>
      <trkpt lat="50.81787" lon="3.63948">
        <ele>18.0</ele>
      </trkpt>
      <trkpt lat="50.81778" lon="3.63682">
        <ele>17.0</ele>
      </trkpt>
      <trkpt lat="50.81746" lon="3.63597">
        <ele>15.0</ele>
      </trkpt>
      <trkpt lat="50.81718" lon="3.63427">
        <ele>16.0</ele>
      </trkpt>
      <trkpt lat="50.8163" lon="3.63285">
        <ele>15.0</ele>
      </trkpt>
      <trkpt lat="50.81643" lon="3.63119">
        <ele>15.0</ele>
      </trkpt>
      <trkpt lat="50.81673" lon="3.62976">
        <ele>14.0</ele>
      </trkpt>
      <trkpt lat="50.8165" lon="3.62864">
        <ele>16.0</ele>
      </trkpt>
      <trkpt lat="50.81596" lon="3.62797">
        <ele>16.0</ele>
      </trkpt>
      <trkpt lat="50.81584" lon="3.6273">
        <ele>16.0</ele>
      </trkpt>
      <trkpt lat="50.81393" lon="3.62566">
        <ele>20.0</ele>
      </trkpt>
      <trkpt lat="50.81303" lon="3.62642">
        <ele>24.0</ele>
      </trkpt>
      <trkpt lat="50.81251" lon="3.62663">
        <ele>24.0</ele>
      </trkpt>
      <trkpt lat="50.81059" lon="3.62427">
        <ele>25.0</ele>
      </trkpt>
      <trkpt lat="50.80927" lon="3.62398">
        <ele>21.0</ele>
      </trkpt>
      <trkpt lat="50.80933" lon="3.62651">
        <ele>18.0</ele>
      </trkpt>
      <trkpt lat="50.80874" lon="3.62866">
        <ele>22.0</ele>
      </trkpt>
      <trkpt lat="50.80821" lon="3.62955">
        <ele>23.0</ele>
      </trkpt>
      <trkpt lat="50.80622" lon="3.63154">
        <ele>35.0</ele>
      </trkpt>
      <trkpt lat="50.80569" lon="3.6328">
        <ele>50.0</ele>
      </trkpt>
      <trkpt lat="50.80527" lon="3.63256">
        <ele>52.0</ele>
      </trkpt>
      <trkpt lat="50.80357" lon="3.63583">
        <ele>70.0</ele>
      </trkpt>
      <trkpt lat="50.80085" lon="3.63943">
        <ele>86.0</ele>
      </trkpt>
      <trkpt lat="50.80063" lon="3.63996">
        <ele>86.0</ele>
      </trkpt>
      <trkpt lat="50.79911" lon="3.64079">
        <ele>87.0</ele>
      </trkpt>
      <trkpt lat="50.79811" lon="3.64158">
        <ele>85.0</ele>
      </trkpt>
      <trkpt lat="50.79723" lon="3.64137">
        <ele>77.0</ele>
      </trkpt>
      <trkpt lat="50.79636" lon="3.64139">
        <ele>76.0</ele>
      </trkpt>
      <trkpt lat="50.79558" lon="3.64182">
        <ele>76.0</ele>
      </trkpt>
      <trkpt lat="50.79528" lon="3.64211">
        <ele>76.0</ele>
      </trkpt>
      <trkpt lat="50.7953" lon="3.64389">
        <ele>82.0</ele>
      </trkpt>
      <trkpt lat="50.79435" lon="3.64437">
        <ele>82.0</ele>
      </trkpt>
      <trkpt lat="50.79302" lon="3.64589">
        <ele>79.0</ele>
      </trkpt>
      <trkpt lat="50.7915" lon="3.64718">
        <ele>71.0</ele>
      </trkpt>
      <trkpt lat="50.79036" lon="3.64908">
        <ele>60.0</ele>
      </trkpt>
      <trkpt lat="50.7899" lon="3.65061">
        <ele>53.0</ele>
      </trkpt>
      <trkpt lat="50.7886" lon="3.65113">
        <ele>49.0</ele>
      </trkpt>
      <trkpt lat="50.78704" lon="3.65217">
        <ele>53.0</ele>
      </trkpt>
      <trkpt lat="50.78617" lon="3.65297">
        <ele>55.0</ele>
      </trkpt>
      <trkpt lat="50.78521" lon="3.65431">
        <ele>52.0</ele>
      </trkpt>
      <trkpt lat="50.78458" lon="3.65488">
        <ele>48.0</ele>
      </trkpt>
      <trkpt lat="50.78338" lon="3.65681">
        <ele>49.0</ele>
      </trkpt>
      <trkpt lat="50.78255" lon="3.6564">
        <ele>56.0</ele>
      </trkpt>
      <trkpt lat="50.78229" lon="3.65727">
        <ele>63.0</ele>
      </trkpt>
      <trkpt lat="50.78146" lon="3.65802">
        <ele>69.0</ele>
      </trkpt>
      <trkpt lat="50.77956" lon="3.65918">
        <ele>80.0</ele>
      </trkpt>
      <trkpt lat="50.77807" lon="3.66064">
        <ele>88.0</ele>
      </trkpt>
      <trkpt lat="50.77741" lon="3.66188">
        <ele>92.0</ele>
      </trkpt>
      <trkpt lat="50.7749" lon="3.66551">
        <ele>111.0</ele>
      </trkpt>
      <trkpt lat="50.77398" lon="3.66629">
        <ele>114.0</ele>
      </trkpt>
      <trkpt lat="50.77338" lon="3.66705">
        <ele>115.0</ele>
      </trkpt>
      <trkpt lat="50.77191" lon="3.66998">
        <ele>118.0</ele>
      </trkpt>
      <trkpt lat="50.77134" lon="3.67079">
        <ele>118.0</ele>
      </trkpt>
      <trkpt lat="50.77025" lon="3.67284">
        <ele>119.0</ele>
      </trkpt>
      <trkpt lat="50.76669" lon="3.6777">
        <ele>121.0</ele>
      </trkpt>
      <trkpt lat="50.76566" lon="3.67871">
        <ele>121.0</ele>
      </trkpt>
      <trkpt lat="50.76489" lon="3.67913">
        <ele>122.0</ele>
      </trkpt>
      <trkpt lat="50.76229" lon="3.6799">
        <ele>126.0</ele>
      </trkpt>
      <trkpt lat="50.76173" lon="3.67985">
        <ele>126.0</ele>
      </trkpt>
      <trkpt lat="50.76122" lon="3.67956">
        <ele>125.0</ele>
      </trkpt>
      <trkpt lat="50.76194" lon="3.68145">
        <ele>123.0</ele>
      </trkpt>
      <trkpt lat="50.76237" lon="3.68339">
        <ele>121.0</ele>
      </trkpt>
      <trkpt lat="50.75937" lon="3.68728">
        <ele>114.0</ele>
      </trkpt>
      <trkpt lat="50.7576" lon="3.69022">
        <ele>103.0</ele>
      </trkpt>
      <trkpt lat="50.75568" lon="3.69273">
        <ele>96.0</ele>
      </trkpt>
      <trkpt lat="50.75524" lon="3.6932">
        <ele>90.0</ele>
      </trkpt>
      <trkpt lat="50.75423" lon="3.69364">
        <ele>90.0</ele>
      </trkpt>
      <trkpt lat="50.75362" lon="3.6945">
        <ele>93.0</ele>
      </trkpt>
      <trkpt lat="50.75342" lon="3.69555">
        <ele>95.0</ele>
      </trkpt>
      <trkpt lat="50.7535" lon="3.69676">
        <ele>99.0</ele>
      </trkpt>
      <trkpt lat="50.75369" lon="3.69781">
        <ele>99.0</ele>
      </trkpt>
      <trkpt lat="50.75457" lon="3.70082">
        <ele>95.0</ele>
      </trkpt>
      <trkpt lat="50.75433" lon="3.70183">
        <ele>94.0</ele>
      </trkpt>
      <trkpt lat="50.7534" lon="3.70348">
        <ele>91.0</ele>
      </trkpt>
      <trkpt lat="50.75333" lon="3.70425">
        <ele>90.0</ele>
      </trkpt>
      <trkpt lat="50.75424" lon="3.70837">
        <ele>76.0</ele>
      </trkpt>
      <trkpt lat="50.75424" lon="3.70967">
        <ele>71.0</ele>
      </trkpt>
      <trkpt lat="50.7544" lon="3.71058">
        <ele>69.0</ele>
      </trkpt>
      <trkpt lat="50.75521" lon="3.71359">
        <ele>62.0</ele>
      </trkpt>
      <trkpt lat="50.7559" lon="3.71526">
        <ele>56.0</ele>
      </trkpt>
      <trkpt lat="50.75632" lon="3.71472">
        <ele>54.0</ele>
      </trkpt>
      <trkpt lat="50.75802" lon="3.71076">
        <ele>54.0</ele>
      </trkpt>
      <trkpt lat="50.75908" lon="3.70996">
        <ele>61.0</ele>
      </trkpt>
      <trkpt lat="50.75935" lon="3.71009">
        <ele>63.0</ele>
      </trkpt>
      <trkpt lat="50.76059" lon="3.7124">
        <ele>71.0</ele>
      </trkpt>
      <trkpt lat="50.76083" lon="3.71254">
        <ele>75.0</ele>
      </trkpt>
      <trkpt lat="50.76223" lon="3.71133">
        <ele>79.0</ele>
      </trkpt>
      <trkpt lat="50.76276" lon="3.70995">
        <ele>93.0</ele>
      </trkpt>
      <trkpt lat="50.76391" lon="3.70986">
        <ele>102.0</ele>
      </trkpt>
      <trkpt lat="50.76455" lon="3.70885">
        <ele>118.0</ele>
      </trkpt>
      <trkpt lat="50.76489" lon="3.70902">
        <ele>122.0</ele>
      </trkpt>
      <trkpt lat="50.7651" lon="3.71004">
        <ele>124.0</ele>
      </trkpt>
      <trkpt lat="50.76529" lon="3.71026">
        <ele>125.0</ele>
      </trkpt>
      <trkpt lat="50.76548" lon="3.71018">
        <ele>126.0</ele>
      </trkpt>
      <trkpt lat="50.76653" lon="3.70864">
        <ele>127.0</ele>
      </trkpt>
      <trkpt lat="50.76679" lon="3.70879">
        <ele>127.0</ele>
      </trkpt>
      <trkpt lat="50.7673" lon="3.70961">
        <ele>128.0</ele>
      </trkpt>
      <trkpt lat="50.76689" lon="3.7122">
        <ele>127.0</ele>
      </trkpt>
      <trkpt lat="50.76667" lon="3.71291">
        <ele>127.0</ele>
      </trkpt>
      <trkpt lat="50.765" lon="3.71557">
        <ele>127.0</ele>
      </trkpt>
      <trkpt lat="50.76486" lon="3.71642">
        <ele>126.0</ele>
      </trkpt>
      <trkpt lat="50.76507" lon="3.7195">
        <ele>122.0</ele>
      </trkpt>
      <trkpt lat="50.76434" lon="3.72193">
        <ele>111.0</ele>
      </trkpt>
      <trkpt lat="50.76461" lon="3.72502">
        <ele>109.0</ele>
      </trkpt>
      <trkpt lat="50.76518" lon="3.72745">
        <ele>107.0</ele>
      </trkpt>
      <trkpt lat="50.76584" lon="3.72874">
        <ele>105.0</ele>
      </trkpt>
      <trkpt lat="50.76593" lon="3.72987">
        <ele>102.0</ele>
      </trkpt>
      <trkpt lat="50.7655" lon="3.73225">
        <ele>99.0</ele>
      </trkpt>
      <trkpt lat="50.76449" lon="3.73526">
        <ele>102.0</ele>
      </trkpt>
      <trkpt lat="50.76405" lon="3.73725">
        <ele>109.0</ele>
      </trkpt>
      <trkpt lat="50.76331" lon="3.73963">
        <ele>112.0</ele>
      </trkpt>
      <trkpt lat="50.76239" lon="3.74101">
        <ele>119.0</ele>
      </trkpt>
      <trkpt lat="50.76229" lon="3.74225">
        <ele>125.0</ele>
      </trkpt>
      <trkpt lat="50.76268" lon="3.74351">
        <ele>125.0</ele>
      </trkpt>
      <trkpt lat="50.76233" lon="3.74579">
        <ele>126.0</ele>
      </trkpt>
      <trkpt lat="50.76216" lon="3.7463">
        <ele>125.0</ele>
      </trkpt>
      <trkpt lat="50.76137" lon="3.7476">
        <ele>122.0</ele>
      </trkpt>
      <trkpt lat="50.76089" lon="3.7477">
        <ele>122.0</ele>
      </trkpt>
      <trkpt lat="50.75983" lon="3.7485">
        <ele>121.0</ele>
      </trkpt>
      <trkpt lat="50.75863" lon="3.74873">
        <ele>119.0</ele>
      </trkpt>
      <trkpt lat="50.75791" lon="3.74858">
        <ele>119.0</ele>
      </trkpt>
      <trkpt lat="50.75697" lon="3.7466">
        <ele>117.0</ele>
      </trkpt>
      <trkpt lat="50.75498" lon="3.74467">
        <ele>114.0</ele>
      </trkpt>
      <trkpt lat="50.7547" lon="3.74457">
        <ele>113.0</ele>
      </trkpt>
      <trkpt lat="50.75446" lon="3.74464">
        <ele>112.0</ele>
      </trkpt>
      <trkpt lat="50.75413" lon="3.74505">
        <ele>110.0</ele>
      </trkpt>
      <trkpt lat="50.75314" lon="3.74686">
        <ele>104.0</ele>
      </trkpt>
      <trkpt lat="50.75205" lon="3.74758">
        <ele>98.0</ele>
      </trkpt>
      <trkpt lat="50.74996" lon="3.74752">
        <ele>88.0</ele>
      </trkpt>
      <trkpt lat="50.74796" lon="3.74783">
        <ele>80.0</ele>
      </trkpt>
      <trkpt lat="50.74696" lon="3.74862">
        <ele>74.0</ele>
      </trkpt>
      <trkpt lat="50.74623" lon="3.74883">
        <ele>68.0</ele>
      </trkpt>
      <trkpt lat="50.74426" lon="3.74838">
        <ele>58.0</ele>
      </trkpt>
      <trkpt lat="50.74303" lon="3.74832">
        <ele>51.0</ele>
      </trkpt>
      <trkpt lat="50.74029" lon="3.74933">
        <ele>41.0</ele>
      </trkpt>
      <trkpt lat="50.73919" lon="3.74913">
        <ele>34.0</ele>
      </trkpt>
      <trkpt lat="50.73873" lon="3.74873">
        <ele>33.0</ele>
      </trkpt>
      <trkpt lat="50.73781" lon="3.74639">
        <ele>33.0</ele>
      </trkpt>
      <trkpt lat="50.73704" lon="3.74241">
        <ele>40.0</ele>
      </trkpt>
      <trkpt lat="50.73638" lon="3.74041">
        <ele>45.0</ele>
      </trkpt>
      <trkpt lat="50.73605" lon="3.74012">
        <ele>45.0</ele>
      </trkpt>
      <trkpt lat="50.73721" lon="3.73749">
        <ele>45.0</ele>
      </trkpt>
      <trkpt lat="50.73332" lon="3.71993">
        <ele>47.0</ele>
      </trkpt>
      <trkpt lat="50.73152" lon="3.72083">
        <ele>36.0</ele>
      </trkpt>
      <trkpt lat="50.72775" lon="3.72063">
        <ele>31.0</ele>
      </trkpt>
      <trkpt lat="50.71822" lon="3.71826">
        <ele>45.0</ele>
      </trkpt>
      <trkpt lat="50.7173" lon="3.71828">
        <ele>57.0</ele>
      </trkpt>
      <trkpt lat="50.7129" lon="3.71729">
        <ele>44.0</ele>
      </trkpt>
      <trkpt lat="50.69416" lon="3.71249">
        <ele>60.0</ele>
      </trkpt>
      <trkpt lat="50.69489" lon="3.71042">
        <ele>62.0</ele>
      </trkpt>
      <trkpt lat="50.69575" lon="3.70671">
        <ele>61.0</ele>
      </trkpt>
      <trkpt lat="50.69558" lon="3.70625">
        <ele>61.0</ele>
      </trkpt>
      <trkpt lat="50.6947" lon="3.7055">
        <ele>61.0</ele>
      </trkpt>
      <trkpt lat="50.69445" lon="3.70497">
        <ele>61.0</ele>
      </trkpt>
      <trkpt lat="50.69357" lon="3.70001">
        <ele>65.0</ele>
      </trkpt>
      <trkpt lat="50.69215" lon="3.69343">
        <ele>90.0</ele>
      </trkpt>
      <trkpt lat="50.69232" lon="3.69051">
        <ele>97.0</ele>
      </trkpt>
      <trkpt lat="50.69161" lon="3.68679">
        <ele>109.0</ele>
      </trkpt>
      <trkpt lat="50.69283" lon="3.68009">
        <ele>116.0</ele>
      </trkpt>
      <trkpt lat="50.69399" lon="3.6777">
        <ele>118.0</ele>
      </trkpt>
      <trkpt lat="50.69411" lon="3.67701">
        <ele>118.0</ele>
      </trkpt>
      <trkpt lat="50.69403" lon="3.67637">
        <ele>117.0</ele>
      </trkpt>
      <trkpt lat="50.69378" lon="3.67584">
        <ele>116.0</ele>
      </trkpt>
      <trkpt lat="50.69248" lon="3.67505">
        <ele>111.0</ele>
      </trkpt>
      <trkpt lat="50.69223" lon="3.67472">
        <ele>108.0</ele>
      </trkpt>
      <trkpt lat="50.69122" lon="3.67177">
        <ele>101.0</ele>
      </trkpt>
      <trkpt lat="50.69013" lon="3.66922">
        <ele>85.0</ele>
      </trkpt>
      <trkpt lat="50.69013" lon="3.6685">
        <ele>76.0</ele>
      </trkpt>
      <trkpt lat="50.69094" lon="3.66633">
        <ele>67.0</ele>
      </trkpt>
      <trkpt lat="50.69103" lon="3.66581">
        <ele>64.0</ele>
      </trkpt>
      <trkpt lat="50.69052" lon="3.66213">
        <ele>56.0</ele>
      </trkpt>
      <trkpt lat="50.69049" lon="3.66098">
        <ele>55.0</ele>
      </trkpt>
      <trkpt lat="50.69053" lon="3.66081">
        <ele>55.0</ele>
      </trkpt>
      <trkpt lat="50.69124" lon="3.66087">
        <ele>58.0</ele>
      </trkpt>
      <trkpt lat="50.69209" lon="3.66019">
        <ele>61.0</ele>
      </trkpt>
      <trkpt lat="50.6935" lon="3.65952">
        <ele>74.0</ele>
      </trkpt>
      <trkpt lat="50.69418" lon="3.65794">
        <ele>101.0</ele>
      </trkpt>
      <trkpt lat="50.69526" lon="3.657">
        <ele>108.0</ele>
      </trkpt>
      <trkpt lat="50.69542" lon="3.65709">
        <ele>112.0</ele>
      </trkpt>
      <trkpt lat="50.69613" lon="3.65847">
        <ele>117.0</ele>
      </trkpt>
      <trkpt lat="50.69894" lon="3.65392">
        <ele>128.0</ele>
      </trkpt>
      <trkpt lat="50.7026" lon="3.65815">
        <ele>127.0</ele>
      </trkpt>
      <trkpt lat="50.70305" lon="3.65683">
        <ele>126.0</ele>
      </trkpt>
      <trkpt lat="50.70316" lon="3.65527">
        <ele>126.0</ele>
      </trkpt>
      <trkpt lat="50.70402" lon="3.65261">
        <ele>130.0</ele>
      </trkpt>
      <trkpt lat="50.70497" lon="3.6514">
        <ele>134.0</ele>
      </trkpt>
      <trkpt lat="50.70588" lon="3.64984">
        <ele>136.0</ele>
      </trkpt>
      <trkpt lat="50.70634" lon="3.64842">
        <ele>137.0</ele>
      </trkpt>
      <trkpt lat="50.70481" lon="3.64545">
        <ele>133.0</ele>
      </trkpt>
      <trkpt lat="50.70384" lon="3.64495">
        <ele>124.0</ele>
      </trkpt>
      <trkpt lat="50.70348" lon="3.64438">
        <ele>120.0</ele>
      </trkpt>
      <trkpt lat="50.7026" lon="3.64358">
        <ele>115.0</ele>
      </trkpt>
      <trkpt lat="50.70097" lon="3.64063">
        <ele>96.0</ele>
      </trkpt>
      <trkpt lat="50.69919" lon="3.63799">
        <ele>80.0</ele>
      </trkpt>
      <trkpt lat="50.69838" lon="3.6375">
        <ele>68.0</ele>
      </trkpt>
      <trkpt lat="50.697" lon="3.63844">
        <ele>63.0</ele>
      </trkpt>
      <trkpt lat="50.69659" lon="3.63845">
        <ele>61.0</ele>
      </trkpt>
      <trkpt lat="50.69328" lon="3.63652">
        <ele>53.0</ele>
      </trkpt>
      <trkpt lat="50.69199" lon="3.63629">
        <ele>52.0</ele>
      </trkpt>
      <trkpt lat="50.69106" lon="3.63539">
        <ele>52.0</ele>
      </trkpt>
      <trkpt lat="50.69026" lon="3.63429">
        <ele>52.0</ele>
      </trkpt>
      <trkpt lat="50.68799" lon="3.63282">
        <ele>51.0</ele>
      </trkpt>
      <trkpt lat="50.68719" lon="3.6326">
        <ele>51.0</ele>
      </trkpt>
      <trkpt lat="50.68483" lon="3.63242">
        <ele>54.0</ele>
      </trkpt>
      <trkpt lat="50.68268" lon="3.62992">
        <ele>55.0</ele>
      </trkpt>
      <trkpt lat="50.68223" lon="3.62894">
        <ele>52.0</ele>
      </trkpt>
      <trkpt lat="50.68172" lon="3.62698">
        <ele>48.0</ele>
      </trkpt>
      <trkpt lat="50.68096" lon="3.62556">
        <ele>48.0</ele>
      </trkpt>
      <trkpt lat="50.68038" lon="3.62488">
        <ele>48.0</ele>
      </trkpt>
      <trkpt lat="50.67775" lon="3.62349">
        <ele>54.0</ele>
      </trkpt>
      <trkpt lat="50.67581" lon="3.62194">
        <ele>56.0</ele>
      </trkpt>
      <trkpt lat="50.67547" lon="3.62149">
        <ele>56.0</ele>
      </trkpt>
      <trkpt lat="50.67499" lon="3.62018">
        <ele>55.0</ele>
      </trkpt>
      <trkpt lat="50.67462" lon="3.61974">
        <ele>54.0</ele>
      </trkpt>
      <trkpt lat="50.67187" lon="3.61991">
        <ele>50.0</ele>
      </trkpt>
      <trkpt lat="50.67096" lon="3.61965">
        <ele>46.0</ele>
      </trkpt>
      <trkpt lat="50.66999" lon="3.61972">
        <ele>43.0</ele>
      </trkpt>
      <trkpt lat="50.66901" lon="3.61759">
        <ele>38.0</ele>
      </trkpt>
      <trkpt lat="50.67053" lon="3.61613">
        <ele>36.0</ele>
      </trkpt>
      <trkpt lat="50.67104" lon="3.61533">
        <ele>36.0</ele>
      </trkpt>
      <trkpt lat="50.673" lon="3.61404">
        <ele>35.0</ele>
      </trkpt>
      <trkpt lat="50.67532" lon="3.61182">
        <ele>38.0</ele>
      </trkpt>
      <trkpt lat="50.67621" lon="3.61132">
        <ele>39.0</ele>
      </trkpt>
      <trkpt lat="50.67782" lon="3.6094">
        <ele>48.0</ele>
      </trkpt>
      <trkpt lat="50.68101" lon="3.60717">
        <ele>78.0</ele>
      </trkpt>
      <trkpt lat="50.68221" lon="3.60661">
        <ele>94.0</ele>
      </trkpt>
      <trkpt lat="50.6837" lon="3.60407">
        <ele>110.0</ele>
      </trkpt>
      <trkpt lat="50.68508" lon="3.60302">
        <ele>117.0</ele>
      </trkpt>
      <trkpt lat="50.68539" lon="3.6031">
        <ele>118.0</ele>
      </trkpt>
      <trkpt lat="50.68858" lon="3.606">
        <ele>125.0</ele>
      </trkpt>
      <trkpt lat="50.69068" lon="3.60741">
        <ele>129.0</ele>
      </trkpt>
      <trkpt lat="50.69211" lon="3.60988">
        <ele>126.0</ele>
      </trkpt>
      <trkpt lat="50.69412" lon="3.60795">
        <ele>115.0</ele>
      </trkpt>
      <trkpt lat="50.69587" lon="3.60553">
        <ele>100.0</ele>
      </trkpt>
      <trkpt lat="50.69639" lon="3.60399">
        <ele>82.0</ele>
      </trkpt>
      <trkpt lat="50.69654" lon="3.60238">
        <ele>74.0</ele>
      </trkpt>
      <trkpt lat="50.69678" lon="3.60197">
        <ele>69.0</ele>
      </trkpt>
      <trkpt lat="50.6981" lon="3.60148">
        <ele>63.0</ele>
      </trkpt>
      <trkpt lat="50.69944" lon="3.60161">
        <ele>56.0</ele>
      </trkpt>
      <trkpt lat="50.70195" lon="3.6007">
        <ele>50.0</ele>
      </trkpt>
      <trkpt lat="50.70574" lon="3.59831">
        <ele>42.0</ele>
      </trkpt>
      <trkpt lat="50.70602" lon="3.59775">
        <ele>41.0</ele>
      </trkpt>
      <trkpt lat="50.70623" lon="3.59691">
        <ele>41.0</ele>
      </trkpt>
      <trkpt lat="50.70776" lon="3.59849">
        <ele>40.0</ele>
      </trkpt>
      <trkpt lat="50.70914" lon="3.60152">
        <ele>39.0</ele>
      </trkpt>
      <trkpt lat="50.70996" lon="3.60386">
        <ele>40.0</ele>
      </trkpt>
      <trkpt lat="50.71009" lon="3.60529">
        <ele>40.0</ele>
      </trkpt>
      <trkpt lat="50.71039" lon="3.60588">
        <ele>41.0</ele>
      </trkpt>
      <trkpt lat="50.71002" lon="3.6076">
        <ele>43.0</ele>
      </trkpt>
      <trkpt lat="50.70978" lon="3.60996">
        <ele>46.0</ele>
      </trkpt>
      <trkpt lat="50.7098" lon="3.61104">
        <ele>51.0</ele>
      </trkpt>
      <trkpt lat="50.71011" lon="3.61211">
        <ele>59.0</ele>
      </trkpt>
      <trkpt lat="50.71117" lon="3.61395">
        <ele>78.0</ele>
      </trkpt>
      <trkpt lat="50.71173" lon="3.61585">
        <ele>98.0</ele>
      </trkpt>
      <trkpt lat="50.71221" lon="3.61685">
        <ele>110.0</ele>
      </trkpt>
      <trkpt lat="50.71222" lon="3.6175">
        <ele>114.0</ele>
      </trkpt>
      <trkpt lat="50.71181" lon="3.61974">
        <ele>123.0</ele>
      </trkpt>
      <trkpt lat="50.71185" lon="3.62176">
        <ele>129.0</ele>
      </trkpt>
      <trkpt lat="50.71119" lon="3.62349">
        <ele>132.0</ele>
      </trkpt>
      <trkpt lat="50.71167" lon="3.62573">
        <ele>135.0</ele>
      </trkpt>
      <trkpt lat="50.7116" lon="3.62624">
        <ele>135.0</ele>
      </trkpt>
      <trkpt lat="50.7109" lon="3.6277">
        <ele>133.0</ele>
      </trkpt>
      <trkpt lat="50.71086" lon="3.62844">
        <ele>133.0</ele>
      </trkpt>
      <trkpt lat="50.71106" lon="3.6291">
        <ele>133.0</ele>
      </trkpt>
      <trkpt lat="50.715" lon="3.63462">
        <ele>137.0</ele>
      </trkpt>
      <trkpt lat="50.71673" lon="3.63733">
        <ele>140.0</ele>
      </trkpt>
      <trkpt lat="50.7182" lon="3.63894">
        <ele>140.0</ele>
      </trkpt>
      <trkpt lat="50.72033" lon="3.64029">
        <ele>129.0</ele>
      </trkpt>
      <trkpt lat="50.72217" lon="3.64095">
        <ele>123.0</ele>
      </trkpt>
      <trkpt lat="50.72252" lon="3.64144">
        <ele>121.0</ele>
      </trkpt>
      <trkpt lat="50.72426" lon="3.64256">
        <ele>118.0</ele>
      </trkpt>
      <trkpt lat="50.73188" lon="3.64658">
        <ele>110.0</ele>
      </trkpt>
      <trkpt lat="50.73163" lon="3.64139">
        <ele>109.0</ele>
      </trkpt>
      <trkpt lat="50.73304" lon="3.63496">
        <ele>102.0</ele>
      </trkpt>
      <trkpt lat="50.73461" lon="3.63069">
        <ele>96.0</ele>
      </trkpt>
      <trkpt lat="50.74677" lon="3.60648">
        <ele>33.0</ele>
      </trkpt>
      <trkpt lat="50.74711" lon="3.60554">
        <ele>33.0</ele>
      </trkpt>
      <trkpt lat="50.74775" lon="3.60487">
        <ele>30.0</ele>
      </trkpt>
      <trkpt lat="50.74957" lon="3.60407">
        <ele>25.0</ele>
      </trkpt>
      <trkpt lat="50.74983" lon="3.60422">
        <ele>25.0</ele>
      </trkpt>
      <trkpt lat="50.74994" lon="3.60381">
        <ele>25.0</ele>
      </trkpt>
      <trkpt lat="50.75051" lon="3.6032">
        <ele>27.0</ele>
      </trkpt>
      <trkpt lat="50.75526" lon="3.60004">
        <ele>29.0</ele>
      </trkpt>
      <trkpt lat="50.75493" lon="3.5986">
        <ele>34.0</ele>
      </trkpt>
      <trkpt lat="50.75451" lon="3.59751">
        <ele>34.0</ele>
      </trkpt>
      <trkpt lat="50.75433" lon="3.59486">
        <ele>39.0</ele>
      </trkpt>
      <trkpt lat="50.75374" lon="3.59357">
        <ele>39.0</ele>
      </trkpt>
      <trkpt lat="50.75456" lon="3.5928">
        <ele>42.0</ele>
      </trkpt>
      <trkpt lat="50.75707" lon="3.59123">
        <ele>49.0</ele>
      </trkpt>
      <trkpt lat="50.75818" lon="3.5898">
        <ele>59.0</ele>
      </trkpt>
      <trkpt lat="50.7587" lon="3.58888">
        <ele>65.0</ele>
      </trkpt>
      <trkpt lat="50.75961" lon="3.58825">
        <ele>81.0</ele>
      </trkpt>
      <trkpt lat="50.76014" lon="3.58724">
        <ele>88.0</ele>
      </trkpt>
      <trkpt lat="50.76161" lon="3.58733">
        <ele>102.0</ele>
      </trkpt>
      <trkpt lat="50.76372" lon="3.5868">
        <ele>106.0</ele>
      </trkpt>
      <trkpt lat="50.76487" lon="3.58713">
        <ele>109.0</ele>
      </trkpt>
      <trkpt lat="50.76464" lon="3.58482">
        <ele>107.0</ele>
      </trkpt>
      <trkpt lat="50.76338" lon="3.58164">
        <ele>108.0</ele>
      </trkpt>
      <trkpt lat="50.76136" lon="3.5776">
        <ele>111.0</ele>
      </trkpt>
      <trkpt lat="50.7598" lon="3.57649">
        <ele>131.0</ele>
      </trkpt>
      <trkpt lat="50.75922" lon="3.57444">
        <ele>138.0</ele>
      </trkpt>
      <trkpt lat="50.75938" lon="3.5733">
        <ele>142.0</ele>
      </trkpt>
      <trkpt lat="50.76105" lon="3.5695">
        <ele>141.0</ele>
      </trkpt>
      <trkpt lat="50.76141" lon="3.56699">
        <ele>125.0</ele>
      </trkpt>
      <trkpt lat="50.7626" lon="3.56516">
        <ele>113.0</ele>
      </trkpt>
      <trkpt lat="50.76326" lon="3.55829">
        <ele>111.0</ele>
      </trkpt>
      <trkpt lat="50.76311" lon="3.55722">
        <ele>111.0</ele>
      </trkpt>
      <trkpt lat="50.76167" lon="3.5597">
        <ele>107.0</ele>
      </trkpt>
      <trkpt lat="50.76091" lon="3.56043">
        <ele>98.0</ele>
      </trkpt>
      <trkpt lat="50.75026" lon="3.56428">
        <ele>40.0</ele>
      </trkpt>
      <trkpt lat="50.74927" lon="3.56468">
        <ele>31.0</ele>
      </trkpt>
      <trkpt lat="50.74897" lon="3.56504">
        <ele>32.0</ele>
      </trkpt>
      <trkpt lat="50.74876" lon="3.56456">
        <ele>29.0</ele>
      </trkpt>
      <trkpt lat="50.74865" lon="3.56342">
        <ele>27.0</ele>
      </trkpt>
      <trkpt lat="50.74918" lon="3.55985">
        <ele>23.0</ele>
      </trkpt>
      <trkpt lat="50.74924" lon="3.55482">
        <ele>27.0</ele>
      </trkpt>
      <trkpt lat="50.75032" lon="3.54688">
        <ele>33.0</ele>
      </trkpt>
      <trkpt lat="50.75076" lon="3.54462">
        <ele>36.0</ele>
      </trkpt>
      <trkpt lat="50.7507" lon="3.5422">
        <ele>40.0</ele>
      </trkpt>
      <trkpt lat="50.75052" lon="3.54107">
        <ele>37.0</ele>
      </trkpt>
      <trkpt lat="50.74975" lon="3.53897">
        <ele>35.0</ele>
      </trkpt>
      <trkpt lat="50.74857" lon="3.53687">
        <ele>34.0</ele>
      </trkpt>
      <trkpt lat="50.7497" lon="3.53517">
        <ele>28.0</ele>
      </trkpt>
      <trkpt lat="50.75034" lon="3.53271">
        <ele>28.0</ele>
      </trkpt>
      <trkpt lat="50.75021" lon="3.5322">
        <ele>25.0</ele>
      </trkpt>
      <trkpt lat="50.74962" lon="3.53182">
        <ele>23.0</ele>
      </trkpt>
      <trkpt lat="50.74962" lon="3.52968">
        <ele>22.0</ele>
      </trkpt>
      <trkpt lat="50.74982" lon="3.52927">
        <ele>21.0</ele>
      </trkpt>
      <trkpt lat="50.75073" lon="3.52953">
        <ele>21.0</ele>
      </trkpt>
      <trkpt lat="50.75273" lon="3.52911">
        <ele>22.0</ele>
      </trkpt>
      <trkpt lat="50.75377" lon="3.52911">
        <ele>23.0</ele>
      </trkpt>
      <trkpt lat="50.75467" lon="3.52867">
        <ele>26.0</ele>
      </trkpt>
      <trkpt lat="50.75606" lon="3.52932">
        <ele>29.0</ele>
      </trkpt>
      <trkpt lat="50.75942" lon="3.52905">
        <ele>43.0</ele>
      </trkpt>
      <trkpt lat="50.76274" lon="3.52794">
        <ele>84.0</ele>
      </trkpt>
      <trkpt lat="50.7637" lon="3.52854">
        <ele>101.0</ele>
      </trkpt>
      <trkpt lat="50.76512" lon="3.52825">
        <ele>108.0</ele>
      </trkpt>
      <trkpt lat="50.76534" lon="3.53199">
        <ele>110.0</ele>
      </trkpt>
      <trkpt lat="50.76597" lon="3.5309">
        <ele>101.0</ele>
      </trkpt>
      <trkpt lat="50.76865" lon="3.52955">
        <ele>100.0</ele>
      </trkpt>
      <trkpt lat="50.7689" lon="3.52964">
        <ele>96.0</ele>
      </trkpt>
      <trkpt lat="50.77601" lon="3.52164">
        <ele>66.0</ele>
      </trkpt>
      <trkpt lat="50.78173" lon="3.51798">
        <ele>19.0</ele>
      </trkpt>
      <trkpt lat="50.78255" lon="3.51712">
        <ele>14.0</ele>
      </trkpt>
      <trkpt lat="50.7838" lon="3.5153">
        <ele>12.0</ele>
      </trkpt>
      <trkpt lat="50.78237" lon="3.51356">
        <ele>13.0</ele>
      </trkpt>
      <trkpt lat="50.78148" lon="3.5122">
        <ele>14.0</ele>
      </trkpt>
      <trkpt lat="50.78086" lon="3.51189">
        <ele>15.0</ele>
      </trkpt>
      <trkpt lat="50.77884" lon="3.51354">
        <ele>17.0</ele>
      </trkpt>
      <trkpt lat="50.77551" lon="3.51574">
        <ele>23.0</ele>
      </trkpt>
      <trkpt lat="50.77489" lon="3.51365">
        <ele>19.0</ele>
      </trkpt>
      <trkpt lat="50.77495" lon="3.51253">
        <ele>16.0</ele>
      </trkpt>
      <trkpt lat="50.77355" lon="3.51023">
        <ele>19.0</ele>
      </trkpt>
      <trkpt lat="50.77326" lon="3.50919">
        <ele>19.0</ele>
      </trkpt>
      <trkpt lat="50.77332" lon="3.50826">
        <ele>19.0</ele>
      </trkpt>
      <trkpt lat="50.77313" lon="3.50521">
        <ele>18.0</ele>
      </trkpt>
      <trkpt lat="50.77297" lon="3.50424">
        <ele>17.0</ele>
      </trkpt>
      <trkpt lat="50.77269" lon="3.50421">
        <ele>15.0</ele>
      </trkpt>
      <trkpt lat="50.77255" lon="3.50401">
        <ele>15.0</ele>
      </trkpt>
      <trkpt lat="50.77086" lon="3.49904">
        <ele>20.0</ele>
      </trkpt>
      <trkpt lat="50.77065" lon="3.4957">
        <ele>28.0</ele>
      </trkpt>
      <trkpt lat="50.77091" lon="3.49454">
        <ele>26.0</ele>
      </trkpt>
      <trkpt lat="50.77038" lon="3.49237">
        <ele>26.0</ele>
      </trkpt>
      <trkpt lat="50.77052" lon="3.49164">
        <ele>24.0</ele>
      </trkpt>
      <trkpt lat="50.77046" lon="3.49141">
        <ele>23.0</ele>
      </trkpt>
      <trkpt lat="50.76965" lon="3.4914">
        <ele>22.0</ele>
      </trkpt>
      <trkpt lat="50.7691" lon="3.48883">
        <ele>27.0</ele>
      </trkpt>
      <trkpt lat="50.76816" lon="3.48554">
        <ele>23.0</ele>
      </trkpt>
      <trkpt lat="50.76815" lon="3.48515">
        <ele>18.0</ele>
      </trkpt>
      <trkpt lat="50.76746" lon="3.484">
        <ele>16.0</ele>
      </trkpt>
      <trkpt lat="50.76537" lon="3.48551">
        <ele>23.0</ele>
      </trkpt>
      <trkpt lat="50.7645" lon="3.48564">
        <ele>25.0</ele>
      </trkpt>
      <trkpt lat="50.76408" lon="3.48588">
        <ele>29.0</ele>
      </trkpt>
      <trkpt lat="50.76305" lon="3.48438">
        <ele>32.0</ele>
      </trkpt>
      <trkpt lat="50.76075" lon="3.4847">
        <ele>54.0</ele>
      </trkpt>
      <trkpt lat="50.75986" lon="3.4841">
        <ele>73.0</ele>
      </trkpt>
      <trkpt lat="50.75904" lon="3.4838">
        <ele>83.0</ele>
      </trkpt>
      <trkpt lat="50.75901" lon="3.48302">
        <ele>87.0</ele>
      </trkpt>
      <trkpt lat="50.75688" lon="3.48086">
        <ele>87.0</ele>
      </trkpt>
      <trkpt lat="50.75591" lon="3.4796">
        <ele>74.0</ele>
      </trkpt>
      <trkpt lat="50.75428" lon="3.47955">
        <ele>57.0</ele>
      </trkpt>
      <trkpt lat="50.7531" lon="3.47889">
        <ele>45.0</ele>
      </trkpt>
      <trkpt lat="50.7527" lon="3.47885">
        <ele>44.0</ele>
      </trkpt>
      <trkpt lat="50.75243" lon="3.47905">
        <ele>39.0</ele>
      </trkpt>
      <trkpt lat="50.75151" lon="3.48072">
        <ele>33.0</ele>
      </trkpt>
      <trkpt lat="50.7513" lon="3.4808">
        <ele>31.0</ele>
      </trkpt>
      <trkpt lat="50.75002" lon="3.47982">
        <ele>23.0</ele>
      </trkpt>
      <trkpt lat="50.74859" lon="3.47951">
        <ele>16.0</ele>
      </trkpt>
      <trkpt lat="50.7481" lon="3.48027">
        <ele>12.0</ele>
      </trkpt>
      <trkpt lat="50.74811" lon="3.48087">
        <ele>12.0</ele>
      </trkpt>
      <trkpt lat="50.74763" lon="3.48215">
        <ele>12.0</ele>
      </trkpt>
      <trkpt lat="50.74683" lon="3.48631">
        <ele>16.0</ele>
      </trkpt>
      <trkpt lat="50.7457" lon="3.4906">
        <ele>15.0</ele>
      </trkpt>
      <trkpt lat="50.74566" lon="3.49149">
        <ele>17.0</ele>
      </trkpt>
      <trkpt lat="50.7459" lon="3.49441">
        <ele>15.0</ele>
      </trkpt>
      <trkpt lat="50.74631" lon="3.49755">
        <ele>14.0</ele>
      </trkpt>
      <trkpt lat="50.74405" lon="3.4983">
        <ele>12.0</ele>
      </trkpt>
      <trkpt lat="50.7434" lon="3.49785">
        <ele>11.0</ele>
      </trkpt>
      <trkpt lat="50.7429" lon="3.49692">
        <ele>11.0</ele>
      </trkpt>
      <trkpt lat="50.7409" lon="3.49618">
        <ele>11.0</ele>
      </trkpt>
      <trkpt lat="50.74012" lon="3.49638">
        <ele>10.0</ele>
      </trkpt>
      <trkpt lat="50.73838" lon="3.49596">
        <ele>10.0</ele>
      </trkpt>
      <trkpt lat="50.73566" lon="3.49468">
        <ele>15.0</ele>
      </trkpt>
      <trkpt lat="50.73421" lon="3.49425">
        <ele>13.0</ele>
      </trkpt>
      <trkpt lat="50.73425" lon="3.49242">
        <ele>15.0</ele>
      </trkpt>
      <trkpt lat="50.73414" lon="3.49194">
        <ele>16.0</ele>
      </trkpt>
      <trkpt lat="50.73116" lon="3.48962">
        <ele>22.0</ele>
      </trkpt>
      <trkpt lat="50.73085" lon="3.48852">
        <ele>20.0</ele>
      </trkpt>
      <trkpt lat="50.73022" lon="3.48785">
        <ele>24.0</ele>
      </trkpt>
      <trkpt lat="50.73016" lon="3.48727">
        <ele>25.0</ele>
      </trkpt>
      <trkpt lat="50.72914" lon="3.48425">
        <ele>25.0</ele>
      </trkpt>
      <trkpt lat="50.72587" lon="3.48249">
        <ele>23.0</ele>
      </trkpt>
      <trkpt lat="50.72357" lon="3.4772">
        <ele>20.0</ele>
      </trkpt>
      <trkpt lat="50.72197" lon="3.47473">
        <ele>15.0</ele>
      </trkpt>
      <trkpt lat="50.72143" lon="3.47248">
        <ele>15.0</ele>
      </trkpt>
      <trkpt lat="50.71962" lon="3.46943">
        <ele>14.0</ele>
      </trkpt>
      <trkpt lat="50.71778" lon="3.46555">
        <ele>13.0</ele>
      </trkpt>
      <trkpt lat="50.71729" lon="3.46478">
        <ele>13.0</ele>
      </trkpt>
      <trkpt lat="50.71536" lon="3.46264">
        <ele>16.0</ele>
      </trkpt>
      <trkpt lat="50.71244" lon="3.45904">
        <ele>17.0</ele>
      </trkpt>
      <trkpt lat="50.71287" lon="3.45819">
        <ele>14.0</ele>
      </trkpt>
      <trkpt lat="50.71151" lon="3.45717">
        <ele>16.0</ele>
      </trkpt>
      <trkpt lat="50.70808" lon="3.45573">
        <ele>14.0</ele>
      </trkpt>
      <trkpt lat="50.7063" lon="3.45432">
        <ele>13.0</ele>
      </trkpt>
      <trkpt lat="50.705" lon="3.45357">
        <ele>14.0</ele>
      </trkpt>
      <trkpt lat="50.70228" lon="3.45135">
        <ele>21.0</ele>
      </trkpt>
      <trkpt lat="50.702" lon="3.45081">
        <ele>18.0</ele>
      </trkpt>
      <trkpt lat="50.70171" lon="3.44922">
        <ele>15.0</ele>
      </trkpt>
      <trkpt lat="50.70086" lon="3.44766">
        <ele>14.0</ele>
      </trkpt>
      <trkpt lat="50.69837" lon="3.44591">
        <ele>19.0</ele>
      </trkpt>
      <trkpt lat="50.697" lon="3.44387">
        <ele>20.0</ele>
      </trkpt>
      <trkpt lat="50.69758" lon="3.44263">
        <ele>17.0</ele>
      </trkpt>
      <trkpt lat="50.6981" lon="3.44195">
        <ele>16.0</ele>
      </trkpt>
      <trkpt lat="50.69849" lon="3.44109">
        <ele>15.0</ele>
      </trkpt>
      <trkpt lat="50.70038" lon="3.438">
        <ele>17.0</ele>
      </trkpt>
      <trkpt lat="50.70199" lon="3.43644">
        <ele>24.0</ele>
      </trkpt>
      <trkpt lat="50.70148" lon="3.43537">
        <ele>29.0</ele>
      </trkpt>
      <trkpt lat="50.70159" lon="3.43492">
        <ele>29.0</ele>
      </trkpt>
      <trkpt lat="50.70204" lon="3.43418">
        <ele>27.0</ele>
      </trkpt>
      <trkpt lat="50.70208" lon="3.43381">
        <ele>29.0</ele>
      </trkpt>
      <trkpt lat="50.70141" lon="3.43226">
        <ele>25.0</ele>
      </trkpt>
      <trkpt lat="50.70288" lon="3.4299">
        <ele>26.0</ele>
      </trkpt>
      <trkpt lat="50.70193" lon="3.42875">
        <ele>29.0</ele>
      </trkpt>
      <trkpt lat="50.70443" lon="3.42438">
        <ele>32.0</ele>
      </trkpt>
      <trkpt lat="50.70493" lon="3.4228">
        <ele>26.0</ele>
      </trkpt>
      <trkpt lat="50.7089" lon="3.41715">
        <ele>16.0</ele>
      </trkpt>
      <trkpt lat="50.7109" lon="3.41518">
        <ele>17.0</ele>
      </trkpt>
      <trkpt lat="50.71389" lon="3.41177">
        <ele>14.0</ele>
      </trkpt>
      <trkpt lat="50.71593" lon="3.40987">
        <ele>16.0</ele>
      </trkpt>
      <trkpt lat="50.71892" lon="3.40642">
        <ele>17.0</ele>
      </trkpt>
      <trkpt lat="50.72083" lon="3.40413">
        <ele>14.0</ele>
      </trkpt>
      <trkpt lat="50.72251" lon="3.40184">
        <ele>13.0</ele>
      </trkpt>
      <trkpt lat="50.72293" lon="3.40087">
        <ele>12.0</ele>
      </trkpt>
      <trkpt lat="50.72458" lon="3.39936">
        <ele>12.0</ele>
      </trkpt>
      <trkpt lat="50.72547" lon="3.39891">
        <ele>11.0</ele>
      </trkpt>
      <trkpt lat="50.72698" lon="3.39731">
        <ele>12.0</ele>
      </trkpt>
      <trkpt lat="50.72796" lon="3.39589">
        <ele>12.0</ele>
      </trkpt>
      <trkpt lat="50.72615" lon="3.39298">
        <ele>11.0</ele>
      </trkpt>
      <trkpt lat="50.72787" lon="3.38892">
        <ele>10.0</ele>
      </trkpt>
      <trkpt lat="50.72921" lon="3.3876">
        <ele>9.0</ele>
      </trkpt>
      <trkpt lat="50.73037" lon="3.38382">
        <ele>8.0</ele>
      </trkpt>
      <trkpt lat="50.73018" lon="3.38316">
        <ele>8.0</ele>
      </trkpt>
      <trkpt lat="50.73025" lon="3.38302">
        <ele>8.0</ele>
      </trkpt>
      <trkpt lat="50.73212" lon="3.38103">
        <ele>12.0</ele>
      </trkpt>
      <trkpt lat="50.73224" lon="3.3813">
        <ele>12.0</ele>
      </trkpt>
      <trkpt lat="50.73302" lon="3.3811">
        <ele>13.0</ele>
      </trkpt>
      <trkpt lat="50.73725" lon="3.38166">
        <ele>14.0</ele>
      </trkpt>
      <trkpt lat="50.73844" lon="3.38288">
        <ele>10.0</ele>
      </trkpt>
      <trkpt lat="50.73897" lon="3.38294">
        <ele>10.0</ele>
      </trkpt>
      <trkpt lat="50.74159" lon="3.38051">
        <ele>11.0</ele>
      </trkpt>
      <trkpt lat="50.74372" lon="3.37813">
        <ele>11.0</ele>
      </trkpt>
      <trkpt lat="50.74511" lon="3.37753">
        <ele>11.0</ele>
      </trkpt>
      <trkpt lat="50.74541" lon="3.3772">
        <ele>11.0</ele>
      </trkpt>
      <trkpt lat="50.7467" lon="3.37418">
        <ele>13.0</ele>
      </trkpt>
      <trkpt lat="50.74758" lon="3.37314">
        <ele>14.0</ele>
      </trkpt>
      <trkpt lat="50.74711" lon="3.37152">
        <ele>13.0</ele>
      </trkpt>
      <trkpt lat="50.74707" lon="3.37064">
        <ele>14.0</ele>
      </trkpt>
      <trkpt lat="50.74639" lon="3.36647">
        <ele>19.0</ele>
      </trkpt>
      <trkpt lat="50.74603" lon="3.36159">
        <ele>21.0</ele>
      </trkpt>
      <trkpt lat="50.74612" lon="3.36111">
        <ele>22.0</ele>
      </trkpt>
      <trkpt lat="50.74651" lon="3.36067">
        <ele>21.0</ele>
      </trkpt>
      <trkpt lat="50.74744" lon="3.35851">
        <ele>23.0</ele>
      </trkpt>
      <trkpt lat="50.74834" lon="3.35731">
        <ele>21.0</ele>
      </trkpt>
      <trkpt lat="50.74925" lon="3.35534">
        <ele>28.0</ele>
      </trkpt>
      <trkpt lat="50.74966" lon="3.35477">
        <ele>30.0</ele>
      </trkpt>
      <trkpt lat="50.7509" lon="3.35338">
        <ele>35.0</ele>
      </trkpt>
      <trkpt lat="50.75467" lon="3.3498">
        <ele>26.0</ele>
      </trkpt>
      <trkpt lat="50.75604" lon="3.34763">
        <ele>16.0</ele>
      </trkpt>
      <trkpt lat="50.7563" lon="3.34669">
        <ele>15.0</ele>
      </trkpt>
      <trkpt lat="50.757" lon="3.34564">
        <ele>16.0</ele>
      </trkpt>
      <trkpt lat="50.75764" lon="3.3454">
        <ele>15.0</ele>
      </trkpt>
      <trkpt lat="50.75949" lon="3.34419">
        <ele>18.0</ele>
      </trkpt>
      <trkpt lat="50.76034" lon="3.34336">
        <ele>20.0</ele>
      </trkpt>
      <trkpt lat="50.76193" lon="3.34129">
        <ele>20.0</ele>
      </trkpt>
      <trkpt lat="50.76491" lon="3.33567">
        <ele>23.0</ele>
      </trkpt>
      <trkpt lat="50.76705" lon="3.33239">
        <ele>29.0</ele>
      </trkpt>
      <trkpt lat="50.76845" lon="3.33075">
        <ele>35.0</ele>
      </trkpt>
      <trkpt lat="50.77144" lon="3.32293">
        <ele>47.0</ele>
      </trkpt>
      <trkpt lat="50.77126" lon="3.32135">
        <ele>46.0</ele>
      </trkpt>
      <trkpt lat="50.76989" lon="3.31649">
        <ele>38.0</ele>
      </trkpt>
      <trkpt lat="50.77003" lon="3.31519">
        <ele>37.0</ele>
      </trkpt>
      <trkpt lat="50.76968" lon="3.3133">
        <ele>41.0</ele>
      </trkpt>
      <trkpt lat="50.76826" lon="3.30966">
        <ele>54.0</ele>
      </trkpt>
      <trkpt lat="50.77044" lon="3.30926">
        <ele>57.0</ele>
      </trkpt>
      <trkpt lat="50.77223" lon="3.30849">
        <ele>63.0</ele>
      </trkpt>
      <trkpt lat="50.77246" lon="3.30949">
        <ele>65.0</ele>
      </trkpt>
      <trkpt lat="50.77278" lon="3.31017">
        <ele>63.0</ele>
      </trkpt>
      <trkpt lat="50.77534" lon="3.31407">
        <ele>64.0</ele>
      </trkpt>
      <trkpt lat="50.77646" lon="3.31668">
        <ele>62.0</ele>
      </trkpt>
      <trkpt lat="50.7764" lon="3.31784">
        <ele>56.0</ele>
      </trkpt>
      <trkpt lat="50.77718" lon="3.32005">
        <ele>52.0</ele>
      </trkpt>
      <trkpt lat="50.77739" lon="3.32108">
        <ele>48.0</ele>
      </trkpt>
      <trkpt lat="50.77787" lon="3.32205">
        <ele>48.0</ele>
      </trkpt>
      <trkpt lat="50.77736" lon="3.32282">
        <ele>44.0</ele>
      </trkpt>
      <trkpt lat="50.77742" lon="3.32333">
        <ele>43.0</ele>
      </trkpt>
      <trkpt lat="50.77807" lon="3.32462">
        <ele>43.0</ele>
      </trkpt>
      <trkpt lat="50.77884" lon="3.3252">
        <ele>40.0</ele>
      </trkpt>
      <trkpt lat="50.77908" lon="3.32572">
        <ele>40.0</ele>
      </trkpt>
      <trkpt lat="50.7794" lon="3.32734">
        <ele>38.0</ele>
      </trkpt>
      <trkpt lat="50.77952" lon="3.33014">
        <ele>40.0</ele>
      </trkpt>
      <trkpt lat="50.78354" lon="3.32764">
        <ele>43.0</ele>
      </trkpt>
      <trkpt lat="50.78485" lon="3.3265">
        <ele>42.0</ele>
      </trkpt>
      <trkpt lat="50.78557" lon="3.32561">
        <ele>41.0</ele>
      </trkpt>
      <trkpt lat="50.78682" lon="3.32309">
        <ele>38.0</ele>
      </trkpt>
      <trkpt lat="50.7869" lon="3.32225">
        <ele>38.0</ele>
      </trkpt>
      <trkpt lat="50.78859" lon="3.3172">
        <ele>45.0</ele>
      </trkpt>
      <trkpt lat="50.78925" lon="3.31567">
        <ele>46.0</ele>
      </trkpt>
      <trkpt lat="50.79184" lon="3.31235">
        <ele>40.0</ele>
      </trkpt>
      <trkpt lat="50.79263" lon="3.31108">
        <ele>31.0</ele>
      </trkpt>
      <trkpt lat="50.79303" lon="3.31023">
        <ele>30.0</ele>
      </trkpt>
      <trkpt lat="50.79485" lon="3.30734">
        <ele>26.0</ele>
      </trkpt>
      <trkpt lat="50.79545" lon="3.30555">
        <ele>22.0</ele>
      </trkpt>
      <trkpt lat="50.79678" lon="3.30528">
        <ele>21.0</ele>
      </trkpt>
      <trkpt lat="50.79852" lon="3.3014">
        <ele>22.0</ele>
      </trkpt>
      <trkpt lat="50.79956" lon="3.29957">
        <ele>23.0</ele>
      </trkpt>
      <trkpt lat="50.80054" lon="3.29847">
        <ele>28.0</ele>
      </trkpt>
      <trkpt lat="50.80151" lon="3.29531">
        <ele>36.0</ele>
      </trkpt>
      <trkpt lat="50.80133" lon="3.29403">
        <ele>40.0</ele>
      </trkpt>
      <trkpt lat="50.80192" lon="3.29267">
        <ele>45.0</ele>
      </trkpt>
      <trkpt lat="50.80204" lon="3.29264">
        <ele>46.0</ele>
      </trkpt>
      <trkpt lat="50.80387" lon="3.29546">
        <ele>47.0</ele>
      </trkpt>
      <trkpt lat="50.80723" lon="3.29884">
        <ele>40.0</ele>
      </trkpt>
      <trkpt lat="50.80826" lon="3.30057">
        <ele>35.0</ele>
      </trkpt>
      <trkpt lat="50.80926" lon="3.29914">
        <ele>33.0</ele>
      </trkpt>
      <trkpt lat="50.80995" lon="3.29785">
        <ele>32.0</ele>
      </trkpt>
      <trkpt lat="50.81038" lon="3.29667">
        <ele>28.0</ele>
      </trkpt>
      <trkpt lat="50.81093" lon="3.29433">
        <ele>24.0</ele>
      </trkpt>
      <trkpt lat="50.81137" lon="3.29301">
        <ele>24.0</ele>
      </trkpt>
      <trkpt lat="50.812" lon="3.29177">
        <ele>24.0</ele>
      </trkpt>
      <trkpt lat="50.81272" lon="3.29076">
        <ele>24.0</ele>
      </trkpt>
      <trkpt lat="50.81527" lon="3.28776">
        <ele>26.0</ele>
      </trkpt>
      <trkpt lat="50.81833" lon="3.28561">
        <ele>21.0</ele>
      </trkpt>
      <trkpt lat="50.82241" lon="3.28324">
        <ele>20.0</ele>
      </trkpt>
      <trkpt lat="50.82438" lon="3.28146">
        <ele>18.0</ele>
      </trkpt>
      <trkpt lat="50.82568" lon="3.27901">
        <ele>17.0</ele>
      </trkpt>
      <trkpt lat="50.8255" lon="3.27874">
        <ele>17.0</ele>
      </trkpt>
      <trkpt lat="50.82495" lon="3.27866">
        <ele>16.0</ele>
      </trkpt>
      <trkpt lat="50.82388" lon="3.27791">
        <ele>16.0</ele>
      </trkpt>
      <trkpt lat="50.82244" lon="3.27763">
        <ele>18.0</ele>
      </trkpt>
      <trkpt lat="50.82194" lon="3.277">
        <ele>18.0</ele>
      </trkpt>
      <trkpt lat="50.82171" lon="3.27585">
        <ele>18.0</ele>
      </trkpt>
      <trkpt lat="50.82175" lon="3.27364">
        <ele>17.0</ele>
      </trkpt>
      <trkpt lat="50.82147" lon="3.26887">
        <ele>18.0</ele>
      </trkpt>
      <trkpt lat="50.82457" lon="3.26807">
        <ele>19.0</ele>
      </trkpt>
      <trkpt lat="50.82549" lon="3.26755">
        <ele>20.0</ele>
      </trkpt>
      <trkpt lat="50.82796" lon="3.26491">
        <ele>21.0</ele>
      </trkpt>
      <trkpt lat="50.82816" lon="3.26555">
        <ele>21.0</ele>
      </trkpt>
      <trkpt lat="50.82898" lon="3.26599">
        <ele>20.0</ele>
      </trkpt>
      <trkpt lat="50.82945" lon="3.2672">
        <ele>19.0</ele>
      </trkpt>
      <trkpt lat="50.83008" lon="3.27089">
        <ele>17.0</ele>
      </trkpt>
      <trkpt lat="50.82998" lon="3.27399">
        <ele>17.0</ele>
      </trkpt>
      <trkpt lat="50.83094" lon="3.27476">
        <ele>17.0</ele>
      </trkpt>
      <trkpt lat="50.83129" lon="3.2745">
        <ele>19.0</ele>
      </trkpt>
      <trkpt lat="50.84974" lon="3.30172">
        <ele>13.0</ele>
      </trkpt>
      <trkpt lat="50.85117" lon="3.29923">
        <ele>9.0</ele>
      </trkpt>
      <trkpt lat="50.85158" lon="3.29869">
        <ele>9.0</ele>
      </trkpt>
      <trkpt lat="50.85177" lon="3.29875">
        <ele>9.0</ele>
      </trkpt>
      <trkpt lat="50.85182" lon="3.29801">
        <ele>9.0</ele>
      </trkpt>
      <trkpt lat="50.85166" lon="3.29724">
        <ele>9.0</ele>
      </trkpt>
      <trkpt lat="50.85056" lon="3.29458">
        <ele>9.0</ele>
      </trkpt>
      <trkpt lat="50.84904" lon="3.28863">
        <ele>10.0</ele>
      </trkpt>
      <trkpt lat="50.84956" lon="3.2873">
        <ele>12.0</ele>
      </trkpt>
      <trkpt lat="50.8509" lon="3.28645">
        <ele>13.0</ele>
      </trkpt>
      <trkpt lat="50.85129" lon="3.2864">
        <ele>13.0</ele>
      </trkpt>
      <trkpt lat="50.85425" lon="3.28728">
        <ele>14.0</ele>
      </trkpt>
      <trkpt lat="50.85553" lon="3.28987">
        <ele>17.0</ele>
      </trkpt>
      <trkpt lat="50.85674" lon="3.29284">
        <ele>17.0</ele>
      </trkpt>
      <trkpt lat="50.85794" lon="3.29523">
        <ele>16.0</ele>
      </trkpt>
      <trkpt lat="50.8618" lon="3.30205">
        <ele>14.0</ele>
      </trkpt>
      <trkpt lat="50.86308" lon="3.29847">
        <ele>14.0</ele>
      </trkpt>
      <trkpt lat="50.86399" lon="3.29312">
        <ele>13.0</ele>
      </trkpt>
      <trkpt lat="50.86428" lon="3.29197">
        <ele>13.0</ele>
      </trkpt>
      <trkpt lat="50.87128" lon="3.2715">
        <ele>19.0</ele>
      </trkpt>
      <trkpt lat="50.84681" lon="3.2694">
        <ele>14.0</ele>
      </trkpt>
      <trkpt lat="50.84629" lon="3.26917">
        <ele>13.0</ele>
      </trkpt>
      <trkpt lat="50.83812" lon="3.2626">
        <ele>15.0</ele>
      </trkpt>
      <trkpt lat="50.83645" lon="3.26532">
        <ele>15.0</ele>
      </trkpt>
      <trkpt lat="50.83612" lon="3.26552">
        <ele>14.0</ele>
      </trkpt>
      <trkpt lat="50.83549" lon="3.26533">
        <ele>13.0</ele>
      </trkpt>
      <trkpt lat="50.83506" lon="3.26716">
        <ele>12.0</ele>
      </trkpt>
      <trkpt lat="50.83488" lon="3.26743">
        <ele>12.0</ele>
      </trkpt>
      <trkpt lat="50.83486" lon="3.26813">
        <ele>11.0</ele>
      </trkpt>
      <trkpt lat="50.83408" lon="3.27109">
        <ele>9.0</ele>
      </trkpt>
      <trkpt lat="50.83378" lon="3.27163">
        <ele>9.0</ele>
      </trkpt>
      <trkpt lat="50.83129" lon="3.2745">
        <ele>17.0</ele>
      </trkpt>
      <trkpt lat="50.84974" lon="3.30172">
        <ele>13.0</ele>
      </trkpt>
      <trkpt lat="50.85117" lon="3.29923">
        <ele>9.0</ele>
      </trkpt>
      <trkpt lat="50.85158" lon="3.29869">
        <ele>9.0</ele>
      </trkpt>
      <trkpt lat="50.85177" lon="3.29875">
        <ele>9.0</ele>
      </trkpt>
      <trkpt lat="50.85182" lon="3.29801">
        <ele>9.0</ele>
      </trkpt>
      <trkpt lat="50.85166" lon="3.29724">
        <ele>9.0</ele>
      </trkpt>
      <trkpt lat="50.85056" lon="3.29458">
        <ele>9.0</ele>
      </trkpt>
      <trkpt lat="50.84904" lon="3.28863">
        <ele>10.0</ele>
      </trkpt>
      <trkpt lat="50.84956" lon="3.2873">
        <ele>12.0</ele>
      </trkpt>
      <trkpt lat="50.85089" lon="3.28645">
        <ele>13.0</ele>
      </trkpt>
      <trkpt lat="50.85129" lon="3.2864">
        <ele>13.0</ele>
      </trkpt>
      <trkpt lat="50.85425" lon="3.28728">
        <ele>14.0</ele>
      </trkpt>
      <trkpt lat="50.85553" lon="3.28987">
        <ele>15.0</ele>
      </trkpt>
      <trkpt lat="50.85674" lon="3.29284">
        <ele>16.0</ele>
      </trkpt>
      <trkpt lat="50.85794" lon="3.29523">
        <ele>16.0</ele>
      </trkpt>
      <trkpt lat="50.8618" lon="3.30205">
        <ele>14.0</ele>
      </trkpt>
      <trkpt lat="50.86308" lon="3.29847">
        <ele>14.0</ele>
      </trkpt>
      <trkpt lat="50.86399" lon="3.29312">
        <ele>13.0</ele>
      </trkpt>
      <trkpt lat="50.86428" lon="3.29197">
        <ele>13.0</ele>
      </trkpt>
      <trkpt lat="50.87128" lon="3.2715">
        <ele>19.0</ele>
      </trkpt>
      <trkpt lat="50.86362" lon="3.27085">
        <ele>15.0</ele>
      </trkpt>
    </trkseg>
  </trk>
</gpx>