<?xml version="1.0" encoding="UTF-8"?>
<gpx xmlns="http://www.topografix.com/GPX/1/0" xmlns:xsi="http://www.w3.org/2001/XMLSchema-instance" xsi:schemaLocation="http://www.topografix.com/GPX/1/0 http://www.topografix.com/GPX/1/0/gpx.xsd" version="1.0" creator="GPSBabel - https://www.gpsbabel.org">
  <time>2026-04-19T09:49:50.087000Z</time>
  <bounds minlat="50.38244" maxlat="50.70828" minlon="5.21352" maxlon="5.75965" />
  <trk>
    <trkseg>
      <trkpt lat="50.6815" lon="5.69579">
        <ele>162.0</ele>
      </trkpt>
      <trkpt lat="50.68869" lon="5.69675">
        <ele>154.0</ele>
      </trkpt>
      <trkpt lat="50.6934" lon="5.69917">
        <ele>144.0</ele>
      </trkpt>
      <trkpt lat="50.69617" lon="5.70143">
        <ele>128.0</ele>
      </trkpt>
      <trkpt lat="50.69759" lon="5.70133">
        <ele>122.0</ele>
      </trkpt>
      <trkpt lat="50.69969" lon="5.70219">
        <ele>118.0</ele>
      </trkpt>
      <trkpt lat="50.70533" lon="5.70793">
        <ele>108.0</ele>
      </trkpt>
      <trkpt lat="50.70645" lon="5.7093">
        <ele>107.0</ele>
      </trkpt>
      <trkpt lat="50.70717" lon="5.71074">
        <ele>105.0</ele>
      </trkpt>
      <trkpt lat="50.70754" lon="5.71188">
        <ele>105.0</ele>
      </trkpt>
      <trkpt lat="50.70828" lon="5.71569">
        <ele>103.0</ele>
      </trkpt>
      <trkpt lat="50.70772" lon="5.71568">
        <ele>104.0</ele>
      </trkpt>
      <trkpt lat="50.70666" lon="5.71417">
        <ele>110.0</ele>
      </trkpt>
      <trkpt lat="50.70589" lon="5.71397">
        <ele>115.0</ele>
      </trkpt>
      <trkpt lat="50.70152" lon="5.71685">
        <ele>137.0</ele>
      </trkpt>
      <trkpt lat="50.70074" lon="5.71722">
        <ele>144.0</ele>
      </trkpt>
      <trkpt lat="50.69786" lon="5.71709">
        <ele>157.0</ele>
      </trkpt>
      <trkpt lat="50.69597" lon="5.71669">
        <ele>161.0</ele>
      </trkpt>
      <trkpt lat="50.69249" lon="5.71745">
        <ele>167.0</ele>
      </trkpt>
      <trkpt lat="50.68934" lon="5.72407">
        <ele>168.0</ele>
      </trkpt>
      <trkpt lat="50.68913" lon="5.72441">
        <ele>167.0</ele>
      </trkpt>
      <trkpt lat="50.68895" lon="5.72445">
        <ele>167.0</ele>
      </trkpt>
      <trkpt lat="50.68899" lon="5.72482">
        <ele>166.0</ele>
      </trkpt>
      <trkpt lat="50.68791" lon="5.72731">
        <ele>164.0</ele>
      </trkpt>
      <trkpt lat="50.68713" lon="5.73102">
        <ele>157.0</ele>
      </trkpt>
      <trkpt lat="50.68669" lon="5.73143">
        <ele>154.0</ele>
      </trkpt>
      <trkpt lat="50.68514" lon="5.73183">
        <ele>149.0</ele>
      </trkpt>
      <trkpt lat="50.68383" lon="5.73315">
        <ele>149.0</ele>
      </trkpt>
      <trkpt lat="50.68329" lon="5.734">
        <ele>152.0</ele>
      </trkpt>
      <trkpt lat="50.68279" lon="5.73541">
        <ele>155.0</ele>
      </trkpt>
      <trkpt lat="50.68198" lon="5.73685">
        <ele>159.0</ele>
      </trkpt>
      <trkpt lat="50.68081" lon="5.73625">
        <ele>160.0</ele>
      </trkpt>
      <trkpt lat="50.67997" lon="5.73419">
        <ele>166.0</ele>
      </trkpt>
      <trkpt lat="50.67934" lon="5.73341">
        <ele>169.0</ele>
      </trkpt>
      <trkpt lat="50.67547" lon="5.73048">
        <ele>187.0</ele>
      </trkpt>
      <trkpt lat="50.67325" lon="5.72943">
        <ele>201.0</ele>
      </trkpt>
      <trkpt lat="50.67306" lon="5.72881">
        <ele>205.0</ele>
      </trkpt>
      <trkpt lat="50.67355" lon="5.72748">
        <ele>209.0</ele>
      </trkpt>
      <trkpt lat="50.67371" lon="5.72563">
        <ele>212.0</ele>
      </trkpt>
      <trkpt lat="50.67352" lon="5.72528">
        <ele>212.0</ele>
      </trkpt>
      <trkpt lat="50.67284" lon="5.72528">
        <ele>214.0</ele>
      </trkpt>
      <trkpt lat="50.67269" lon="5.72511">
        <ele>216.0</ele>
      </trkpt>
      <trkpt lat="50.67269" lon="5.72541">
        <ele>217.0</ele>
      </trkpt>
      <trkpt lat="50.67235" lon="5.72596">
        <ele>218.0</ele>
      </trkpt>
      <trkpt lat="50.6724" lon="5.72639">
        <ele>219.0</ele>
      </trkpt>
      <trkpt lat="50.67118" lon="5.73078">
        <ele>222.0</ele>
      </trkpt>
      <trkpt lat="50.67023" lon="5.73561">
        <ele>224.0</ele>
      </trkpt>
      <trkpt lat="50.67025" lon="5.73612">
        <ele>225.0</ele>
      </trkpt>
      <trkpt lat="50.67094" lon="5.73862">
        <ele>228.0</ele>
      </trkpt>
      <trkpt lat="50.66995" lon="5.74327">
        <ele>236.0</ele>
      </trkpt>
      <trkpt lat="50.66602" lon="5.74221">
        <ele>246.0</ele>
      </trkpt>
      <trkpt lat="50.66546" lon="5.74316">
        <ele>247.0</ele>
      </trkpt>
      <trkpt lat="50.66482" lon="5.74636">
        <ele>240.0</ele>
      </trkpt>
      <trkpt lat="50.66407" lon="5.74794">
        <ele>231.0</ele>
      </trkpt>
      <trkpt lat="50.66343" lon="5.75012">
        <ele>224.0</ele>
      </trkpt>
      <trkpt lat="50.66297" lon="5.75098">
        <ele>219.0</ele>
      </trkpt>
      <trkpt lat="50.66264" lon="5.75274">
        <ele>213.0</ele>
      </trkpt>
      <trkpt lat="50.66248" lon="5.75298">
        <ele>211.0</ele>
      </trkpt>
      <trkpt lat="50.66194" lon="5.75306">
        <ele>206.0</ele>
      </trkpt>
      <trkpt lat="50.66178" lon="5.75339">
        <ele>204.0</ele>
      </trkpt>
      <trkpt lat="50.6617" lon="5.75474">
        <ele>202.0</ele>
      </trkpt>
      <trkpt lat="50.66145" lon="5.75608">
        <ele>200.0</ele>
      </trkpt>
      <trkpt lat="50.66152" lon="5.75751">
        <ele>200.0</ele>
      </trkpt>
      <trkpt lat="50.66129" lon="5.75965">
        <ele>201.0</ele>
      </trkpt>
      <trkpt lat="50.66101" lon="5.75882">
        <ele>202.0</ele>
      </trkpt>
      <trkpt lat="50.66053" lon="5.75443">
        <ele>200.0</ele>
      </trkpt>
      <trkpt lat="50.6606" lon="5.75286">
        <ele>200.0</ele>
      </trkpt>
      <trkpt lat="50.66112" lon="5.74933">
        <ele>196.0</ele>
      </trkpt>
      <trkpt lat="50.66105" lon="5.74811">
        <ele>193.0</ele>
      </trkpt>
      <trkpt lat="50.66083" lon="5.74714">
        <ele>192.0</ele>
      </trkpt>
      <trkpt lat="50.65994" lon="5.74469">
        <ele>201.0</ele>
      </trkpt>
      <trkpt lat="50.65973" lon="5.74301">
        <ele>203.0</ele>
      </trkpt>
      <trkpt lat="50.65976" lon="5.74149">
        <ele>202.0</ele>
      </trkpt>
      <trkpt lat="50.6592" lon="5.7405">
        <ele>204.0</ele>
      </trkpt>
      <trkpt lat="50.65884" lon="5.74038">
        <ele>207.0</ele>
      </trkpt>
      <trkpt lat="50.6574" lon="5.7416">
        <ele>212.0</ele>
      </trkpt>
      <trkpt lat="50.656" lon="5.74201">
        <ele>218.0</ele>
      </trkpt>
      <trkpt lat="50.65419" lon="5.74283">
        <ele>227.0</ele>
      </trkpt>
      <trkpt lat="50.653" lon="5.74211">
        <ele>234.0</ele>
      </trkpt>
      <trkpt lat="50.6512" lon="5.73985">
        <ele>240.0</ele>
      </trkpt>
      <trkpt lat="50.64919" lon="5.73794">
        <ele>233.0</ele>
      </trkpt>
      <trkpt lat="50.64809" lon="5.73846">
        <ele>224.0</ele>
      </trkpt>
      <trkpt lat="50.64761" lon="5.73886">
        <ele>222.0</ele>
      </trkpt>
      <trkpt lat="50.64695" lon="5.73995">
        <ele>217.0</ele>
      </trkpt>
      <trkpt lat="50.64672" lon="5.73992">
        <ele>215.0</ele>
      </trkpt>
      <trkpt lat="50.64652" lon="5.73896">
        <ele>214.0</ele>
      </trkpt>
      <trkpt lat="50.64657" lon="5.73826">
        <ele>215.0</ele>
      </trkpt>
      <trkpt lat="50.64642" lon="5.73776">
        <ele>216.0</ele>
      </trkpt>
      <trkpt lat="50.64661" lon="5.7371">
        <ele>217.0</ele>
      </trkpt>
      <trkpt lat="50.64617" lon="5.73613">
        <ele>221.0</ele>
      </trkpt>
      <trkpt lat="50.64533" lon="5.73552">
        <ele>225.0</ele>
      </trkpt>
      <trkpt lat="50.64387" lon="5.73513">
        <ele>237.0</ele>
      </trkpt>
      <trkpt lat="50.64303" lon="5.73444">
        <ele>245.0</ele>
      </trkpt>
      <trkpt lat="50.64219" lon="5.73457">
        <ele>249.0</ele>
      </trkpt>
      <trkpt lat="50.64034" lon="5.7343">
        <ele>261.0</ele>
      </trkpt>
      <trkpt lat="50.63844" lon="5.73474">
        <ele>267.0</ele>
      </trkpt>
      <trkpt lat="50.63597" lon="5.73432">
        <ele>269.0</ele>
      </trkpt>
      <trkpt lat="50.63598" lon="5.73418">
        <ele>269.0</ele>
      </trkpt>
      <trkpt lat="50.63597" lon="5.73432">
        <ele>269.0</ele>
      </trkpt>
      <trkpt lat="50.63269" lon="5.73382">
        <ele>276.0</ele>
      </trkpt>
      <trkpt lat="50.63267" lon="5.73458">
        <ele>277.0</ele>
      </trkpt>
      <trkpt lat="50.63122" lon="5.73542">
        <ele>277.0</ele>
      </trkpt>
      <trkpt lat="50.63128" lon="5.73565">
        <ele>277.0</ele>
      </trkpt>
      <trkpt lat="50.62844" lon="5.73993">
        <ele>268.0</ele>
      </trkpt>
      <trkpt lat="50.62808" lon="5.74024">
        <ele>266.0</ele>
      </trkpt>
      <trkpt lat="50.6273" lon="5.74033">
        <ele>262.0</ele>
      </trkpt>
      <trkpt lat="50.62494" lon="5.73899">
        <ele>251.0</ele>
      </trkpt>
      <trkpt lat="50.62448" lon="5.73884">
        <ele>248.0</ele>
      </trkpt>
      <trkpt lat="50.62397" lon="5.73898">
        <ele>245.0</ele>
      </trkpt>
      <trkpt lat="50.62352" lon="5.7394">
        <ele>243.0</ele>
      </trkpt>
      <trkpt lat="50.6212" lon="5.74262">
        <ele>235.0</ele>
      </trkpt>
      <trkpt lat="50.62053" lon="5.74291">
        <ele>228.0</ele>
      </trkpt>
      <trkpt lat="50.61973" lon="5.74291">
        <ele>221.0</ele>
      </trkpt>
      <trkpt lat="50.61899" lon="5.74339">
        <ele>216.0</ele>
      </trkpt>
      <trkpt lat="50.61861" lon="5.74396">
        <ele>213.0</ele>
      </trkpt>
      <trkpt lat="50.61782" lon="5.74592">
        <ele>210.0</ele>
      </trkpt>
      <trkpt lat="50.61647" lon="5.74703">
        <ele>208.0</ele>
      </trkpt>
      <trkpt lat="50.61547" lon="5.74742">
        <ele>205.0</ele>
      </trkpt>
      <trkpt lat="50.61238" lon="5.7468">
        <ele>198.0</ele>
      </trkpt>
      <trkpt lat="50.60826" lon="5.73162">
        <ele>193.0</ele>
      </trkpt>
      <trkpt lat="50.60768" lon="5.73012">
        <ele>190.0</ele>
      </trkpt>
      <trkpt lat="50.60665" lon="5.72847">
        <ele>188.0</ele>
      </trkpt>
      <trkpt lat="50.60495" lon="5.72305">
        <ele>192.0</ele>
      </trkpt>
      <trkpt lat="50.6012" lon="5.71941">
        <ele>192.0</ele>
      </trkpt>
      <trkpt lat="50.60059" lon="5.71925">
        <ele>191.0</ele>
      </trkpt>
      <trkpt lat="50.59873" lon="5.7194">
        <ele>185.0</ele>
      </trkpt>
      <trkpt lat="50.59762" lon="5.71901">
        <ele>181.0</ele>
      </trkpt>
      <trkpt lat="50.59696" lon="5.71826">
        <ele>175.0</ele>
      </trkpt>
      <trkpt lat="50.5958" lon="5.72003">
        <ele>175.0</ele>
      </trkpt>
      <trkpt lat="50.59513" lon="5.72051">
        <ele>177.0</ele>
      </trkpt>
      <trkpt lat="50.59429" lon="5.7205">
        <ele>181.0</ele>
      </trkpt>
      <trkpt lat="50.593" lon="5.72094">
        <ele>184.0</ele>
      </trkpt>
      <trkpt lat="50.59204" lon="5.72159">
        <ele>187.0</ele>
      </trkpt>
      <trkpt lat="50.58976" lon="5.72189">
        <ele>198.0</ele>
      </trkpt>
      <trkpt lat="50.58929" lon="5.72272">
        <ele>203.0</ele>
      </trkpt>
      <trkpt lat="50.58924" lon="5.72336">
        <ele>206.0</ele>
      </trkpt>
      <trkpt lat="50.58979" lon="5.72714">
        <ele>213.0</ele>
      </trkpt>
      <trkpt lat="50.58952" lon="5.73099">
        <ele>219.0</ele>
      </trkpt>
      <trkpt lat="50.58939" lon="5.73123">
        <ele>228.0</ele>
      </trkpt>
      <trkpt lat="50.58948" lon="5.7314">
        <ele>228.0</ele>
      </trkpt>
      <trkpt lat="50.58948" lon="5.73607">
        <ele>224.0</ele>
      </trkpt>
      <trkpt lat="50.58994" lon="5.73834">
        <ele>219.0</ele>
      </trkpt>
      <trkpt lat="50.58986" lon="5.73937">
        <ele>216.0</ele>
      </trkpt>
      <trkpt lat="50.59008" lon="5.74236">
        <ele>216.0</ele>
      </trkpt>
      <trkpt lat="50.58984" lon="5.74395">
        <ele>213.0</ele>
      </trkpt>
      <trkpt lat="50.58923" lon="5.74256">
        <ele>210.0</ele>
      </trkpt>
      <trkpt lat="50.58903" lon="5.7409">
        <ele>204.0</ele>
      </trkpt>
      <trkpt lat="50.58876" lon="5.74025">
        <ele>201.0</ele>
      </trkpt>
      <trkpt lat="50.58834" lon="5.73983">
        <ele>198.0</ele>
      </trkpt>
      <trkpt lat="50.58725" lon="5.73967">
        <ele>192.0</ele>
      </trkpt>
      <trkpt lat="50.587" lon="5.73943">
        <ele>190.0</ele>
      </trkpt>
      <trkpt lat="50.58696" lon="5.73833">
        <ele>185.0</ele>
      </trkpt>
      <trkpt lat="50.5866" lon="5.73727">
        <ele>178.0</ele>
      </trkpt>
      <trkpt lat="50.58643" lon="5.73548">
        <ele>169.0</ele>
      </trkpt>
      <trkpt lat="50.58614" lon="5.73474">
        <ele>165.0</ele>
      </trkpt>
      <trkpt lat="50.58561" lon="5.73433">
        <ele>160.0</ele>
      </trkpt>
      <trkpt lat="50.58496" lon="5.73455">
        <ele>156.0</ele>
      </trkpt>
      <trkpt lat="50.58457" lon="5.73524">
        <ele>154.0</ele>
      </trkpt>
      <trkpt lat="50.58448" lon="5.73576">
        <ele>153.0</ele>
      </trkpt>
      <trkpt lat="50.58453" lon="5.73761">
        <ele>150.0</ele>
      </trkpt>
      <trkpt lat="50.58414" lon="5.73856">
        <ele>147.0</ele>
      </trkpt>
      <trkpt lat="50.58355" lon="5.739">
        <ele>144.0</ele>
      </trkpt>
      <trkpt lat="50.58099" lon="5.7399">
        <ele>139.0</ele>
      </trkpt>
      <trkpt lat="50.58025" lon="5.74093">
        <ele>131.0</ele>
      </trkpt>
      <trkpt lat="50.57949" lon="5.74031">
        <ele>125.0</ele>
      </trkpt>
      <trkpt lat="50.57874" lon="5.74041">
        <ele>126.0</ele>
      </trkpt>
      <trkpt lat="50.5778" lon="5.73973">
        <ele>129.0</ele>
      </trkpt>
      <trkpt lat="50.57728" lon="5.73882">
        <ele>129.0</ele>
      </trkpt>
      <trkpt lat="50.57643" lon="5.73662">
        <ele>121.0</ele>
      </trkpt>
      <trkpt lat="50.57585" lon="5.7359">
        <ele>119.0</ele>
      </trkpt>
      <trkpt lat="50.57529" lon="5.73569">
        <ele>118.0</ele>
      </trkpt>
      <trkpt lat="50.57326" lon="5.73636">
        <ele>108.0</ele>
      </trkpt>
      <trkpt lat="50.57294" lon="5.73702">
        <ele>107.0</ele>
      </trkpt>
      <trkpt lat="50.57149" lon="5.73899">
        <ele>108.0</ele>
      </trkpt>
      <trkpt lat="50.57205" lon="5.73976">
        <ele>109.0</ele>
      </trkpt>
      <trkpt lat="50.57187" lon="5.74025">
        <ele>111.0</ele>
      </trkpt>
      <trkpt lat="50.57243" lon="5.74174">
        <ele>115.0</ele>
      </trkpt>
      <trkpt lat="50.57256" lon="5.74277">
        <ele>120.0</ele>
      </trkpt>
      <trkpt lat="50.57249" lon="5.74342">
        <ele>125.0</ele>
      </trkpt>
      <trkpt lat="50.57228" lon="5.74361">
        <ele>129.0</ele>
      </trkpt>
      <trkpt lat="50.57194" lon="5.74339">
        <ele>133.0</ele>
      </trkpt>
      <trkpt lat="50.57164" lon="5.74356">
        <ele>136.0</ele>
      </trkpt>
      <trkpt lat="50.57058" lon="5.74546">
        <ele>154.0</ele>
      </trkpt>
      <trkpt lat="50.5707" lon="5.7455">
        <ele>156.0</ele>
      </trkpt>
      <trkpt lat="50.57156" lon="5.74459">
        <ele>157.0</ele>
      </trkpt>
      <trkpt lat="50.57231" lon="5.74474">
        <ele>158.0</ele>
      </trkpt>
      <trkpt lat="50.57249" lon="5.7452">
        <ele>161.0</ele>
      </trkpt>
      <trkpt lat="50.57202" lon="5.74686">
        <ele>168.0</ele>
      </trkpt>
      <trkpt lat="50.57128" lon="5.74814">
        <ele>174.0</ele>
      </trkpt>
      <trkpt lat="50.57025" lon="5.74877">
        <ele>183.0</ele>
      </trkpt>
      <trkpt lat="50.5698" lon="5.7493">
        <ele>185.0</ele>
      </trkpt>
      <trkpt lat="50.56957" lon="5.74932">
        <ele>186.0</ele>
      </trkpt>
      <trkpt lat="50.56915" lon="5.74902">
        <ele>188.0</ele>
      </trkpt>
      <trkpt lat="50.56879" lon="5.74906">
        <ele>189.0</ele>
      </trkpt>
      <trkpt lat="50.5677" lon="5.75008">
        <ele>193.0</ele>
      </trkpt>
      <trkpt lat="50.56711" lon="5.7503">
        <ele>196.0</ele>
      </trkpt>
      <trkpt lat="50.56561" lon="5.74995">
        <ele>203.0</ele>
      </trkpt>
      <trkpt lat="50.56488" lon="5.7496">
        <ele>208.0</ele>
      </trkpt>
      <trkpt lat="50.56466" lon="5.74905">
        <ele>212.0</ele>
      </trkpt>
      <trkpt lat="50.56463" lon="5.7475">
        <ele>219.0</ele>
      </trkpt>
      <trkpt lat="50.56395" lon="5.74616">
        <ele>225.0</ele>
      </trkpt>
      <trkpt lat="50.56342" lon="5.74429">
        <ele>233.0</ele>
      </trkpt>
      <trkpt lat="50.56318" lon="5.7439">
        <ele>238.0</ele>
      </trkpt>
      <trkpt lat="50.56289" lon="5.74384">
        <ele>243.0</ele>
      </trkpt>
      <trkpt lat="50.56197" lon="5.74433">
        <ele>251.0</ele>
      </trkpt>
      <trkpt lat="50.56145" lon="5.74393">
        <ele>255.0</ele>
      </trkpt>
      <trkpt lat="50.56105" lon="5.74329">
        <ele>259.0</ele>
      </trkpt>
      <trkpt lat="50.56036" lon="5.74338">
        <ele>266.0</ele>
      </trkpt>
      <trkpt lat="50.55949" lon="5.7426">
        <ele>271.0</ele>
      </trkpt>
      <trkpt lat="50.55932" lon="5.74156">
        <ele>274.0</ele>
      </trkpt>
      <trkpt lat="50.55918" lon="5.74136">
        <ele>275.0</ele>
      </trkpt>
      <trkpt lat="50.55798" lon="5.74098">
        <ele>279.0</ele>
      </trkpt>
      <trkpt lat="50.55767" lon="5.74141">
        <ele>280.0</ele>
      </trkpt>
      <trkpt lat="50.55736" lon="5.74256">
        <ele>282.0</ele>
      </trkpt>
      <trkpt lat="50.55649" lon="5.74282">
        <ele>284.0</ele>
      </trkpt>
      <trkpt lat="50.55578" lon="5.74356">
        <ele>285.0</ele>
      </trkpt>
      <trkpt lat="50.55473" lon="5.74402">
        <ele>288.0</ele>
      </trkpt>
      <trkpt lat="50.55337" lon="5.74419">
        <ele>290.0</ele>
      </trkpt>
      <trkpt lat="50.54992" lon="5.74399">
        <ele>294.0</ele>
      </trkpt>
      <trkpt lat="50.54899" lon="5.7437">
        <ele>295.0</ele>
      </trkpt>
      <trkpt lat="50.54423" lon="5.74085">
        <ele>298.0</ele>
      </trkpt>
      <trkpt lat="50.54327" lon="5.74045">
        <ele>302.0</ele>
      </trkpt>
      <trkpt lat="50.54185" lon="5.7394">
        <ele>304.0</ele>
      </trkpt>
      <trkpt lat="50.5401" lon="5.7385">
        <ele>303.0</ele>
      </trkpt>
      <trkpt lat="50.53836" lon="5.73668">
        <ele>296.0</ele>
      </trkpt>
      <trkpt lat="50.538" lon="5.73667">
        <ele>294.0</ele>
      </trkpt>
      <trkpt lat="50.5377" lon="5.73095">
        <ele>280.0</ele>
      </trkpt>
      <trkpt lat="50.53714" lon="5.72908">
        <ele>269.0</ele>
      </trkpt>
      <trkpt lat="50.53669" lon="5.7282">
        <ele>262.0</ele>
      </trkpt>
      <trkpt lat="50.53164" lon="5.72126">
        <ele>260.0</ele>
      </trkpt>
      <trkpt lat="50.53101" lon="5.72054">
        <ele>263.0</ele>
      </trkpt>
      <trkpt lat="50.52959" lon="5.71962">
        <ele>265.0</ele>
      </trkpt>
      <trkpt lat="50.52949" lon="5.71937">
        <ele>264.0</ele>
      </trkpt>
      <trkpt lat="50.53" lon="5.71753">
        <ele>261.0</ele>
      </trkpt>
      <trkpt lat="50.53041" lon="5.71453">
        <ele>252.0</ele>
      </trkpt>
      <trkpt lat="50.53034" lon="5.71293">
        <ele>247.0</ele>
      </trkpt>
      <trkpt lat="50.53046" lon="5.71101">
        <ele>242.0</ele>
      </trkpt>
      <trkpt lat="50.5307" lon="5.71061">
        <ele>241.0</ele>
      </trkpt>
      <trkpt lat="50.53161" lon="5.70994">
        <ele>241.0</ele>
      </trkpt>
      <trkpt lat="50.532" lon="5.70933">
        <ele>240.0</ele>
      </trkpt>
      <trkpt lat="50.53209" lon="5.70869">
        <ele>237.0</ele>
      </trkpt>
      <trkpt lat="50.53185" lon="5.70706">
        <ele>230.0</ele>
      </trkpt>
      <trkpt lat="50.53196" lon="5.70654">
        <ele>227.0</ele>
      </trkpt>
      <trkpt lat="50.53221" lon="5.70633">
        <ele>226.0</ele>
      </trkpt>
      <trkpt lat="50.53248" lon="5.70637">
        <ele>226.0</ele>
      </trkpt>
      <trkpt lat="50.5351" lon="5.70904">
        <ele>222.0</ele>
      </trkpt>
      <trkpt lat="50.53539" lon="5.70915">
        <ele>218.0</ele>
      </trkpt>
      <trkpt lat="50.53558" lon="5.70887">
        <ele>216.0</ele>
      </trkpt>
      <trkpt lat="50.53542" lon="5.70742">
        <ele>213.0</ele>
      </trkpt>
      <trkpt lat="50.53605" lon="5.69982">
        <ele>207.0</ele>
      </trkpt>
      <trkpt lat="50.5362" lon="5.69622">
        <ele>202.0</ele>
      </trkpt>
      <trkpt lat="50.53675" lon="5.69355">
        <ele>201.0</ele>
      </trkpt>
      <trkpt lat="50.53704" lon="5.69278">
        <ele>200.0</ele>
      </trkpt>
      <trkpt lat="50.53757" lon="5.69199">
        <ele>199.0</ele>
      </trkpt>
      <trkpt lat="50.53831" lon="5.69166">
        <ele>197.0</ele>
      </trkpt>
      <trkpt lat="50.54022" lon="5.69258">
        <ele>194.0</ele>
      </trkpt>
      <trkpt lat="50.54201" lon="5.69297">
        <ele>188.0</ele>
      </trkpt>
      <trkpt lat="50.54324" lon="5.69234">
        <ele>183.0</ele>
      </trkpt>
      <trkpt lat="50.54383" lon="5.69159">
        <ele>178.0</ele>
      </trkpt>
      <trkpt lat="50.54408" lon="5.69031">
        <ele>183.0</ele>
      </trkpt>
      <trkpt lat="50.54378" lon="5.68652">
        <ele>190.0</ele>
      </trkpt>
      <trkpt lat="50.54348" lon="5.68458">
        <ele>202.0</ele>
      </trkpt>
      <trkpt lat="50.54397" lon="5.68352">
        <ele>211.0</ele>
      </trkpt>
      <trkpt lat="50.54431" lon="5.68193">
        <ele>222.0</ele>
      </trkpt>
      <trkpt lat="50.54432" lon="5.67693">
        <ele>249.0</ele>
      </trkpt>
      <trkpt lat="50.54451" lon="5.67646">
        <ele>255.0</ele>
      </trkpt>
      <trkpt lat="50.54565" lon="5.67484">
        <ele>267.0</ele>
      </trkpt>
      <trkpt lat="50.54736" lon="5.67066">
        <ele>277.0</ele>
      </trkpt>
      <trkpt lat="50.54575" lon="5.6691">
        <ele>278.0</ele>
      </trkpt>
      <trkpt lat="50.54478" lon="5.66787">
        <ele>271.0</ele>
      </trkpt>
      <trkpt lat="50.54171" lon="5.66292">
        <ele>250.0</ele>
      </trkpt>
      <trkpt lat="50.54099" lon="5.66104">
        <ele>240.0</ele>
      </trkpt>
      <trkpt lat="50.54053" lon="5.65802">
        <ele>242.0</ele>
      </trkpt>
      <trkpt lat="50.53942" lon="5.65255">
        <ele>257.0</ele>
      </trkpt>
      <trkpt lat="50.53929" lon="5.64494">
        <ele>253.0</ele>
      </trkpt>
      <trkpt lat="50.53875" lon="5.64042">
        <ele>249.0</ele>
      </trkpt>
      <trkpt lat="50.53838" lon="5.63893">
        <ele>250.0</ele>
      </trkpt>
      <trkpt lat="50.53751" lon="5.63717">
        <ele>249.0</ele>
      </trkpt>
      <trkpt lat="50.53652" lon="5.63459">
        <ele>250.0</ele>
      </trkpt>
      <trkpt lat="50.53604" lon="5.63291">
        <ele>250.0</ele>
      </trkpt>
      <trkpt lat="50.53702" lon="5.63131">
        <ele>249.0</ele>
      </trkpt>
      <trkpt lat="50.53708" lon="5.63009">
        <ele>247.0</ele>
      </trkpt>
      <trkpt lat="50.53747" lon="5.62877">
        <ele>240.0</ele>
      </trkpt>
      <trkpt lat="50.53732" lon="5.62704">
        <ele>234.0</ele>
      </trkpt>
      <trkpt lat="50.53751" lon="5.62493">
        <ele>227.0</ele>
      </trkpt>
      <trkpt lat="50.53699" lon="5.61897">
        <ele>213.0</ele>
      </trkpt>
      <trkpt lat="50.53628" lon="5.618">
        <ele>200.0</ele>
      </trkpt>
      <trkpt lat="50.53632" lon="5.61739">
        <ele>198.0</ele>
      </trkpt>
      <trkpt lat="50.53775" lon="5.61602">
        <ele>193.0</ele>
      </trkpt>
      <trkpt lat="50.53891" lon="5.61423">
        <ele>190.0</ele>
      </trkpt>
      <trkpt lat="50.53985" lon="5.61351">
        <ele>184.0</ele>
      </trkpt>
      <trkpt lat="50.54029" lon="5.61107">
        <ele>178.0</ele>
      </trkpt>
      <trkpt lat="50.54107" lon="5.60922">
        <ele>176.0</ele>
      </trkpt>
      <trkpt lat="50.54222" lon="5.60918">
        <ele>172.0</ele>
      </trkpt>
      <trkpt lat="50.54262" lon="5.60888">
        <ele>166.0</ele>
      </trkpt>
      <trkpt lat="50.54277" lon="5.60842">
        <ele>162.0</ele>
      </trkpt>
      <trkpt lat="50.54288" lon="5.60647">
        <ele>161.0</ele>
      </trkpt>
      <trkpt lat="50.54331" lon="5.60454">
        <ele>159.0</ele>
      </trkpt>
      <trkpt lat="50.54337" lon="5.60285">
        <ele>156.0</ele>
      </trkpt>
      <trkpt lat="50.5437" lon="5.60185">
        <ele>154.0</ele>
      </trkpt>
      <trkpt lat="50.54435" lon="5.60126">
        <ele>148.0</ele>
      </trkpt>
      <trkpt lat="50.54548" lon="5.60152">
        <ele>142.0</ele>
      </trkpt>
      <trkpt lat="50.54588" lon="5.60113">
        <ele>137.0</ele>
      </trkpt>
      <trkpt lat="50.54656" lon="5.59821">
        <ele>123.0</ele>
      </trkpt>
      <trkpt lat="50.54657" lon="5.59783">
        <ele>119.0</ele>
      </trkpt>
      <trkpt lat="50.54633" lon="5.59708">
        <ele>117.0</ele>
      </trkpt>
      <trkpt lat="50.54626" lon="5.59583">
        <ele>116.0</ele>
      </trkpt>
      <trkpt lat="50.54684" lon="5.5935">
        <ele>103.0</ele>
      </trkpt>
      <trkpt lat="50.54683" lon="5.59192">
        <ele>93.0</ele>
      </trkpt>
      <trkpt lat="50.54664" lon="5.5911">
        <ele>88.0</ele>
      </trkpt>
      <trkpt lat="50.54599" lon="5.59148">
        <ele>87.0</ele>
      </trkpt>
      <trkpt lat="50.54477" lon="5.59126">
        <ele>87.0</ele>
      </trkpt>
      <trkpt lat="50.54332" lon="5.59132">
        <ele>91.0</ele>
      </trkpt>
      <trkpt lat="50.54303" lon="5.59113">
        <ele>93.0</ele>
      </trkpt>
      <trkpt lat="50.54093" lon="5.58902">
        <ele>95.0</ele>
      </trkpt>
      <trkpt lat="50.53802" lon="5.5846">
        <ele>110.0</ele>
      </trkpt>
      <trkpt lat="50.53683" lon="5.58026">
        <ele>123.0</ele>
      </trkpt>
      <trkpt lat="50.53721" lon="5.57874">
        <ele>126.0</ele>
      </trkpt>
      <trkpt lat="50.53611" lon="5.56901">
        <ele>121.0</ele>
      </trkpt>
      <trkpt lat="50.53583" lon="5.56748">
        <ele>115.0</ele>
      </trkpt>
      <trkpt lat="50.53544" lon="5.56641">
        <ele>109.0</ele>
      </trkpt>
      <trkpt lat="50.53411" lon="5.56564">
        <ele>95.0</ele>
      </trkpt>
      <trkpt lat="50.5326" lon="5.567">
        <ele>87.0</ele>
      </trkpt>
      <trkpt lat="50.53104" lon="5.56679">
        <ele>87.0</ele>
      </trkpt>
      <trkpt lat="50.52974" lon="5.56628">
        <ele>88.0</ele>
      </trkpt>
      <trkpt lat="50.52724" lon="5.569">
        <ele>89.0</ele>
      </trkpt>
      <trkpt lat="50.52692" lon="5.56922">
        <ele>91.0</ele>
      </trkpt>
      <trkpt lat="50.52648" lon="5.56919">
        <ele>93.0</ele>
      </trkpt>
      <trkpt lat="50.52277" lon="5.56673">
        <ele>96.0</ele>
      </trkpt>
      <trkpt lat="50.5203" lon="5.56376">
        <ele>98.0</ele>
      </trkpt>
      <trkpt lat="50.51855" lon="5.56269">
        <ele>102.0</ele>
      </trkpt>
      <trkpt lat="50.51706" lon="5.56227">
        <ele>99.0</ele>
      </trkpt>
      <trkpt lat="50.51384" lon="5.55949">
        <ele>102.0</ele>
      </trkpt>
      <trkpt lat="50.51315" lon="5.55924">
        <ele>103.0</ele>
      </trkpt>
      <trkpt lat="50.51186" lon="5.55919">
        <ele>103.0</ele>
      </trkpt>
      <trkpt lat="50.51077" lon="5.55948">
        <ele>108.0</ele>
      </trkpt>
      <trkpt lat="50.50919" lon="5.55662">
        <ele>121.0</ele>
      </trkpt>
      <trkpt lat="50.50836" lon="5.55445">
        <ele>134.0</ele>
      </trkpt>
      <trkpt lat="50.50756" lon="5.55311">
        <ele>141.0</ele>
      </trkpt>
      <trkpt lat="50.5068" lon="5.55038">
        <ele>153.0</ele>
      </trkpt>
      <trkpt lat="50.50518" lon="5.5434">
        <ele>176.0</ele>
      </trkpt>
      <trkpt lat="50.50494" lon="5.53808">
        <ele>191.0</ele>
      </trkpt>
      <trkpt lat="50.50337" lon="5.53165">
        <ele>204.0</ele>
      </trkpt>
      <trkpt lat="50.50339" lon="5.53048">
        <ele>210.0</ele>
      </trkpt>
      <trkpt lat="50.50271" lon="5.52663">
        <ele>218.0</ele>
      </trkpt>
      <trkpt lat="50.50188" lon="5.52522">
        <ele>223.0</ele>
      </trkpt>
      <trkpt lat="50.50113" lon="5.52455">
        <ele>225.0</ele>
      </trkpt>
      <trkpt lat="50.50038" lon="5.52324">
        <ele>228.0</ele>
      </trkpt>
      <trkpt lat="50.50025" lon="5.52284">
        <ele>229.0</ele>
      </trkpt>
      <trkpt lat="50.50036" lon="5.52107">
        <ele>233.0</ele>
      </trkpt>
      <trkpt lat="50.49917" lon="5.51852">
        <ele>238.0</ele>
      </trkpt>
      <trkpt lat="50.49871" lon="5.51711">
        <ele>242.0</ele>
      </trkpt>
      <trkpt lat="50.49785" lon="5.51616">
        <ele>246.0</ele>
      </trkpt>
      <trkpt lat="50.49769" lon="5.51579">
        <ele>247.0</ele>
      </trkpt>
      <trkpt lat="50.4977" lon="5.5153">
        <ele>248.0</ele>
      </trkpt>
      <trkpt lat="50.49803" lon="5.51421">
        <ele>250.0</ele>
      </trkpt>
      <trkpt lat="50.4979" lon="5.51361">
        <ele>252.0</ele>
      </trkpt>
      <trkpt lat="50.49727" lon="5.51246">
        <ele>254.0</ele>
      </trkpt>
      <trkpt lat="50.49606" lon="5.50927">
        <ele>259.0</ele>
      </trkpt>
      <trkpt lat="50.49372" lon="5.50568">
        <ele>258.0</ele>
      </trkpt>
      <trkpt lat="50.49128" lon="5.50298">
        <ele>257.0</ele>
      </trkpt>
      <trkpt lat="50.49023" lon="5.50216">
        <ele>259.0</ele>
      </trkpt>
      <trkpt lat="50.48928" lon="5.50088">
        <ele>264.0</ele>
      </trkpt>
      <trkpt lat="50.48865" lon="5.50027">
        <ele>267.0</ele>
      </trkpt>
      <trkpt lat="50.48838" lon="5.50034">
        <ele>268.0</ele>
      </trkpt>
      <trkpt lat="50.48792" lon="5.50115">
        <ele>271.0</ele>
      </trkpt>
      <trkpt lat="50.48719" lon="5.50134">
        <ele>274.0</ele>
      </trkpt>
      <trkpt lat="50.48678" lon="5.50339">
        <ele>276.0</ele>
      </trkpt>
      <trkpt lat="50.48657" lon="5.50366">
        <ele>276.0</ele>
      </trkpt>
      <trkpt lat="50.48625" lon="5.50367">
        <ele>275.0</ele>
      </trkpt>
      <trkpt lat="50.48566" lon="5.50273">
        <ele>274.0</ele>
      </trkpt>
      <trkpt lat="50.48424" lon="5.50111">
        <ele>273.0</ele>
      </trkpt>
      <trkpt lat="50.4837" lon="5.49998">
        <ele>273.0</ele>
      </trkpt>
      <trkpt lat="50.48067" lon="5.49516">
        <ele>279.0</ele>
      </trkpt>
      <trkpt lat="50.47871" lon="5.49125">
        <ele>285.0</ele>
      </trkpt>
      <trkpt lat="50.47592" lon="5.49012">
        <ele>281.0</ele>
      </trkpt>
      <trkpt lat="50.47231" lon="5.48778">
        <ele>270.0</ele>
      </trkpt>
      <trkpt lat="50.4692" lon="5.48723">
        <ele>264.0</ele>
      </trkpt>
      <trkpt lat="50.46563" lon="5.48311">
        <ele>248.0</ele>
      </trkpt>
      <trkpt lat="50.46144" lon="5.48128">
        <ele>236.0</ele>
      </trkpt>
      <trkpt lat="50.46111" lon="5.48067">
        <ele>232.0</ele>
      </trkpt>
      <trkpt lat="50.46101" lon="5.47975">
        <ele>228.0</ele>
      </trkpt>
      <trkpt lat="50.46079" lon="5.4791">
        <ele>226.0</ele>
      </trkpt>
      <trkpt lat="50.45938" lon="5.47844">
        <ele>226.0</ele>
      </trkpt>
      <trkpt lat="50.45792" lon="5.47688">
        <ele>229.0</ele>
      </trkpt>
      <trkpt lat="50.45542" lon="5.47473">
        <ele>236.0</ele>
      </trkpt>
      <trkpt lat="50.4413" lon="5.46317">
        <ele>279.0</ele>
      </trkpt>
      <trkpt lat="50.44094" lon="5.46314">
        <ele>281.0</ele>
      </trkpt>
      <trkpt lat="50.43955" lon="5.46375">
        <ele>281.0</ele>
      </trkpt>
      <trkpt lat="50.43821" lon="5.46443">
        <ele>274.0</ele>
      </trkpt>
      <trkpt lat="50.43804" lon="5.46472">
        <ele>273.0</ele>
      </trkpt>
      <trkpt lat="50.43818" lon="5.46568">
        <ele>271.0</ele>
      </trkpt>
      <trkpt lat="50.43874" lon="5.46697">
        <ele>271.0</ele>
      </trkpt>
      <trkpt lat="50.43843" lon="5.46774">
        <ele>271.0</ele>
      </trkpt>
      <trkpt lat="50.43846" lon="5.46819">
        <ele>271.0</ele>
      </trkpt>
      <trkpt lat="50.43993" lon="5.47019">
        <ele>272.0</ele>
      </trkpt>
      <trkpt lat="50.44009" lon="5.4708">
        <ele>273.0</ele>
      </trkpt>
      <trkpt lat="50.43815" lon="5.47327">
        <ele>275.0</ele>
      </trkpt>
      <trkpt lat="50.43751" lon="5.47945">
        <ele>282.0</ele>
      </trkpt>
      <trkpt lat="50.43588" lon="5.48673">
        <ele>275.0</ele>
      </trkpt>
      <trkpt lat="50.4366" lon="5.49183">
        <ele>263.0</ele>
      </trkpt>
      <trkpt lat="50.43655" lon="5.49245">
        <ele>258.0</ele>
      </trkpt>
      <trkpt lat="50.43484" lon="5.49466">
        <ele>253.0</ele>
      </trkpt>
      <trkpt lat="50.43436" lon="5.49575">
        <ele>249.0</ele>
      </trkpt>
      <trkpt lat="50.43412" lon="5.49667">
        <ele>242.0</ele>
      </trkpt>
      <trkpt lat="50.43408" lon="5.49935">
        <ele>230.0</ele>
      </trkpt>
      <trkpt lat="50.43668" lon="5.50596">
        <ele>216.0</ele>
      </trkpt>
      <trkpt lat="50.43737" lon="5.50919">
        <ele>210.0</ele>
      </trkpt>
      <trkpt lat="50.43788" lon="5.51274">
        <ele>197.0</ele>
      </trkpt>
      <trkpt lat="50.43883" lon="5.51561">
        <ele>187.0</ele>
      </trkpt>
      <trkpt lat="50.43861" lon="5.51628">
        <ele>183.0</ele>
      </trkpt>
      <trkpt lat="50.43756" lon="5.51762">
        <ele>179.0</ele>
      </trkpt>
      <trkpt lat="50.43694" lon="5.51948">
        <ele>173.0</ele>
      </trkpt>
      <trkpt lat="50.43691" lon="5.52046">
        <ele>167.0</ele>
      </trkpt>
      <trkpt lat="50.43749" lon="5.52427">
        <ele>158.0</ele>
      </trkpt>
      <trkpt lat="50.43749" lon="5.5251">
        <ele>149.0</ele>
      </trkpt>
      <trkpt lat="50.43703" lon="5.52622">
        <ele>145.0</ele>
      </trkpt>
      <trkpt lat="50.43557" lon="5.52721">
        <ele>143.0</ele>
      </trkpt>
      <trkpt lat="50.43528" lon="5.52761">
        <ele>143.0</ele>
      </trkpt>
      <trkpt lat="50.43515" lon="5.52862">
        <ele>143.0</ele>
      </trkpt>
      <trkpt lat="50.43519" lon="5.53122">
        <ele>142.0</ele>
      </trkpt>
      <trkpt lat="50.43497" lon="5.53308">
        <ele>136.0</ele>
      </trkpt>
      <trkpt lat="50.4348" lon="5.53363">
        <ele>132.0</ele>
      </trkpt>
      <trkpt lat="50.43225" lon="5.53383">
        <ele>124.0</ele>
      </trkpt>
      <trkpt lat="50.43088" lon="5.53362">
        <ele>123.0</ele>
      </trkpt>
      <trkpt lat="50.42934" lon="5.53311">
        <ele>123.0</ele>
      </trkpt>
      <trkpt lat="50.42802" lon="5.53328">
        <ele>122.0</ele>
      </trkpt>
      <trkpt lat="50.42685" lon="5.53237">
        <ele>120.0</ele>
      </trkpt>
      <trkpt lat="50.42647" lon="5.52595">
        <ele>130.0</ele>
      </trkpt>
      <trkpt lat="50.42619" lon="5.52449">
        <ele>134.0</ele>
      </trkpt>
      <trkpt lat="50.42508" lon="5.52187">
        <ele>137.0</ele>
      </trkpt>
      <trkpt lat="50.42287" lon="5.51729">
        <ele>141.0</ele>
      </trkpt>
      <trkpt lat="50.4224" lon="5.5157">
        <ele>144.0</ele>
      </trkpt>
      <trkpt lat="50.42246" lon="5.51453">
        <ele>146.0</ele>
      </trkpt>
      <trkpt lat="50.42282" lon="5.51389">
        <ele>146.0</ele>
      </trkpt>
      <trkpt lat="50.42369" lon="5.51336">
        <ele>146.0</ele>
      </trkpt>
      <trkpt lat="50.42406" lon="5.51329">
        <ele>146.0</ele>
      </trkpt>
      <trkpt lat="50.42479" lon="5.51372">
        <ele>146.0</ele>
      </trkpt>
      <trkpt lat="50.42541" lon="5.5135">
        <ele>144.0</ele>
      </trkpt>
      <trkpt lat="50.42558" lon="5.51322">
        <ele>144.0</ele>
      </trkpt>
      <trkpt lat="50.42587" lon="5.51153">
        <ele>142.0</ele>
      </trkpt>
      <trkpt lat="50.42557" lon="5.5069">
        <ele>140.0</ele>
      </trkpt>
      <trkpt lat="50.42521" lon="5.50545">
        <ele>139.0</ele>
      </trkpt>
      <trkpt lat="50.42451" lon="5.50388">
        <ele>138.0</ele>
      </trkpt>
      <trkpt lat="50.42404" lon="5.50148">
        <ele>141.0</ele>
      </trkpt>
      <trkpt lat="50.42301" lon="5.49917">
        <ele>141.0</ele>
      </trkpt>
      <trkpt lat="50.42205" lon="5.49791">
        <ele>142.0</ele>
      </trkpt>
      <trkpt lat="50.42109" lon="5.49703">
        <ele>144.0</ele>
      </trkpt>
      <trkpt lat="50.42054" lon="5.49678">
        <ele>144.0</ele>
      </trkpt>
      <trkpt lat="50.42027" lon="5.49779">
        <ele>144.0</ele>
      </trkpt>
      <trkpt lat="50.41968" lon="5.49866">
        <ele>145.0</ele>
      </trkpt>
      <trkpt lat="50.4194" lon="5.49878">
        <ele>148.0</ele>
      </trkpt>
      <trkpt lat="50.41894" lon="5.49865">
        <ele>152.0</ele>
      </trkpt>
      <trkpt lat="50.41818" lon="5.49782">
        <ele>161.0</ele>
      </trkpt>
      <trkpt lat="50.41779" lon="5.49682">
        <ele>168.0</ele>
      </trkpt>
      <trkpt lat="50.41776" lon="5.49584">
        <ele>171.0</ele>
      </trkpt>
      <trkpt lat="50.41801" lon="5.49512">
        <ele>174.0</ele>
      </trkpt>
      <trkpt lat="50.41799" lon="5.49481">
        <ele>176.0</ele>
      </trkpt>
      <trkpt lat="50.41495" lon="5.49385">
        <ele>200.0</ele>
      </trkpt>
      <trkpt lat="50.41477" lon="5.4932">
        <ele>206.0</ele>
      </trkpt>
      <trkpt lat="50.41417" lon="5.49375">
        <ele>211.0</ele>
      </trkpt>
      <trkpt lat="50.41398" lon="5.49418">
        <ele>212.0</ele>
      </trkpt>
      <trkpt lat="50.41324" lon="5.49481">
        <ele>216.0</ele>
      </trkpt>
      <trkpt lat="50.41345" lon="5.49675">
        <ele>219.0</ele>
      </trkpt>
      <trkpt lat="50.41331" lon="5.49685">
        <ele>221.0</ele>
      </trkpt>
      <trkpt lat="50.4129" lon="5.49591">
        <ele>223.0</ele>
      </trkpt>
      <trkpt lat="50.41231" lon="5.49555">
        <ele>226.0</ele>
      </trkpt>
      <trkpt lat="50.41126" lon="5.49265">
        <ele>232.0</ele>
      </trkpt>
      <trkpt lat="50.40865" lon="5.4874">
        <ele>259.0</ele>
      </trkpt>
      <trkpt lat="50.40811" lon="5.48804">
        <ele>263.0</ele>
      </trkpt>
      <trkpt lat="50.40783" lon="5.48812">
        <ele>264.0</ele>
      </trkpt>
      <trkpt lat="50.40263" lon="5.48061">
        <ele>242.0</ele>
      </trkpt>
      <trkpt lat="50.40102" lon="5.47786">
        <ele>240.0</ele>
      </trkpt>
      <trkpt lat="50.40069" lon="5.47851">
        <ele>240.0</ele>
      </trkpt>
      <trkpt lat="50.40034" lon="5.47886">
        <ele>240.0</ele>
      </trkpt>
      <trkpt lat="50.39873" lon="5.48007">
        <ele>225.0</ele>
      </trkpt>
      <trkpt lat="50.39861" lon="5.48">
        <ele>221.0</ele>
      </trkpt>
      <trkpt lat="50.39801" lon="5.47809">
        <ele>216.0</ele>
      </trkpt>
      <trkpt lat="50.39691" lon="5.47813">
        <ele>218.0</ele>
      </trkpt>
      <trkpt lat="50.39541" lon="5.47652">
        <ele>232.0</ele>
      </trkpt>
      <trkpt lat="50.39435" lon="5.4768">
        <ele>244.0</ele>
      </trkpt>
      <trkpt lat="50.39285" lon="5.47656">
        <ele>255.0</ele>
      </trkpt>
      <trkpt lat="50.3926" lon="5.47675">
        <ele>261.0</ele>
      </trkpt>
      <trkpt lat="50.39172" lon="5.47813">
        <ele>270.0</ele>
      </trkpt>
      <trkpt lat="50.39053" lon="5.47865">
        <ele>274.0</ele>
      </trkpt>
      <trkpt lat="50.38944" lon="5.47799">
        <ele>277.0</ele>
      </trkpt>
      <trkpt lat="50.38876" lon="5.47819">
        <ele>277.0</ele>
      </trkpt>
      <trkpt lat="50.38743" lon="5.48076">
        <ele>273.0</ele>
      </trkpt>
      <trkpt lat="50.38703" lon="5.48119">
        <ele>270.0</ele>
      </trkpt>
      <trkpt lat="50.38732" lon="5.48041">
        <ele>270.0</ele>
      </trkpt>
      <trkpt lat="50.38742" lon="5.47211">
        <ele>297.0</ele>
      </trkpt>
      <trkpt lat="50.38758" lon="5.47151">
        <ele>297.0</ele>
      </trkpt>
      <trkpt lat="50.38837" lon="5.47016">
        <ele>293.0</ele>
      </trkpt>
      <trkpt lat="50.38854" lon="5.46925">
        <ele>290.0</ele>
      </trkpt>
      <trkpt lat="50.38836" lon="5.46825">
        <ele>287.0</ele>
      </trkpt>
      <trkpt lat="50.38781" lon="5.46697">
        <ele>282.0</ele>
      </trkpt>
      <trkpt lat="50.38807" lon="5.46535">
        <ele>275.0</ele>
      </trkpt>
      <trkpt lat="50.38748" lon="5.46161">
        <ele>261.0</ele>
      </trkpt>
      <trkpt lat="50.38824" lon="5.45983">
        <ele>264.0</ele>
      </trkpt>
      <trkpt lat="50.38851" lon="5.45889">
        <ele>270.0</ele>
      </trkpt>
      <trkpt lat="50.38799" lon="5.45883">
        <ele>271.0</ele>
      </trkpt>
      <trkpt lat="50.38761" lon="5.45825">
        <ele>270.0</ele>
      </trkpt>
      <trkpt lat="50.38602" lon="5.45709">
        <ele>267.0</ele>
      </trkpt>
      <trkpt lat="50.38481" lon="5.45522">
        <ele>270.0</ele>
      </trkpt>
      <trkpt lat="50.38351" lon="5.45242">
        <ele>281.0</ele>
      </trkpt>
      <trkpt lat="50.38244" lon="5.45086">
        <ele>300.0</ele>
      </trkpt>
      <trkpt lat="50.38266" lon="5.45092">
        <ele>305.0</ele>
      </trkpt>
      <trkpt lat="50.38334" lon="5.45167">
        <ele>302.0</ele>
      </trkpt>
      <trkpt lat="50.38363" lon="5.45158">
        <ele>300.0</ele>
      </trkpt>
      <trkpt lat="50.3839" lon="5.45124">
        <ele>297.0</ele>
      </trkpt>
      <trkpt lat="50.38417" lon="5.45053">
        <ele>295.0</ele>
      </trkpt>
      <trkpt lat="50.38412" lon="5.44838">
        <ele>295.0</ele>
      </trkpt>
      <trkpt lat="50.38429" lon="5.44788">
        <ele>296.0</ele>
      </trkpt>
      <trkpt lat="50.38475" lon="5.44812">
        <ele>296.0</ele>
      </trkpt>
      <trkpt lat="50.38546" lon="5.44929">
        <ele>297.0</ele>
      </trkpt>
      <trkpt lat="50.3858" lon="5.44949">
        <ele>298.0</ele>
      </trkpt>
      <trkpt lat="50.38624" lon="5.44932">
        <ele>299.0</ele>
      </trkpt>
      <trkpt lat="50.38779" lon="5.4481">
        <ele>302.0</ele>
      </trkpt>
      <trkpt lat="50.38809" lon="5.44726">
        <ele>303.0</ele>
      </trkpt>
      <trkpt lat="50.38806" lon="5.44541">
        <ele>302.0</ele>
      </trkpt>
      <trkpt lat="50.38841" lon="5.4448">
        <ele>300.0</ele>
      </trkpt>
      <trkpt lat="50.39309" lon="5.44395">
        <ele>288.0</ele>
      </trkpt>
      <trkpt lat="50.39344" lon="5.44376">
        <ele>285.0</ele>
      </trkpt>
      <trkpt lat="50.39361" lon="5.44343">
        <ele>284.0</ele>
      </trkpt>
      <trkpt lat="50.39365" lon="5.44299">
        <ele>283.0</ele>
      </trkpt>
      <trkpt lat="50.39308" lon="5.44045">
        <ele>280.0</ele>
      </trkpt>
      <trkpt lat="50.39318" lon="5.43931">
        <ele>278.0</ele>
      </trkpt>
      <trkpt lat="50.3936" lon="5.43866">
        <ele>276.0</ele>
      </trkpt>
      <trkpt lat="50.39495" lon="5.43736">
        <ele>274.0</ele>
      </trkpt>
      <trkpt lat="50.39523" lon="5.43736">
        <ele>272.0</ele>
      </trkpt>
      <trkpt lat="50.3955" lon="5.43764">
        <ele>271.0</ele>
      </trkpt>
      <trkpt lat="50.39621" lon="5.43967">
        <ele>267.0</ele>
      </trkpt>
      <trkpt lat="50.3981" lon="5.44087">
        <ele>256.0</ele>
      </trkpt>
      <trkpt lat="50.39845" lon="5.44062">
        <ele>254.0</ele>
      </trkpt>
      <trkpt lat="50.39904" lon="5.43879">
        <ele>252.0</ele>
      </trkpt>
      <trkpt lat="50.3989" lon="5.43717">
        <ele>246.0</ele>
      </trkpt>
      <trkpt lat="50.39896" lon="5.43676">
        <ele>245.0</ele>
      </trkpt>
      <trkpt lat="50.39926" lon="5.43626">
        <ele>242.0</ele>
      </trkpt>
      <trkpt lat="50.39977" lon="5.43592">
        <ele>240.0</ele>
      </trkpt>
      <trkpt lat="50.40122" lon="5.4363">
        <ele>232.0</ele>
      </trkpt>
      <trkpt lat="50.40267" lon="5.43645">
        <ele>223.0</ele>
      </trkpt>
      <trkpt lat="50.40288" lon="5.43663">
        <ele>220.0</ele>
      </trkpt>
      <trkpt lat="50.40401" lon="5.43877">
        <ele>214.0</ele>
      </trkpt>
      <trkpt lat="50.4042" lon="5.43886">
        <ele>212.0</ele>
      </trkpt>
      <trkpt lat="50.40471" lon="5.43845">
        <ele>212.0</ele>
      </trkpt>
      <trkpt lat="50.40387" lon="5.43715">
        <ele>211.0</ele>
      </trkpt>
      <trkpt lat="50.40366" lon="5.4365">
        <ele>211.0</ele>
      </trkpt>
      <trkpt lat="50.40352" lon="5.43356">
        <ele>216.0</ele>
      </trkpt>
      <trkpt lat="50.40308" lon="5.4312">
        <ele>217.0</ele>
      </trkpt>
      <trkpt lat="50.40318" lon="5.42953">
        <ele>218.0</ele>
      </trkpt>
      <trkpt lat="50.40297" lon="5.42859">
        <ele>220.0</ele>
      </trkpt>
      <trkpt lat="50.40249" lon="5.42757">
        <ele>221.0</ele>
      </trkpt>
      <trkpt lat="50.40211" lon="5.42711">
        <ele>221.0</ele>
      </trkpt>
      <trkpt lat="50.40066" lon="5.42671">
        <ele>219.0</ele>
      </trkpt>
      <trkpt lat="50.40016" lon="5.42634">
        <ele>218.0</ele>
      </trkpt>
      <trkpt lat="50.39963" lon="5.42541">
        <ele>219.0</ele>
      </trkpt>
      <trkpt lat="50.39939" lon="5.42466">
        <ele>220.0</ele>
      </trkpt>
      <trkpt lat="50.39919" lon="5.42297">
        <ele>225.0</ele>
      </trkpt>
      <trkpt lat="50.40048" lon="5.41723">
        <ele>225.0</ele>
      </trkpt>
      <trkpt lat="50.4004" lon="5.41624">
        <ele>224.0</ele>
      </trkpt>
      <trkpt lat="50.3984" lon="5.41209">
        <ele>224.0</ele>
      </trkpt>
      <trkpt lat="50.3979" lon="5.41005">
        <ele>226.0</ele>
      </trkpt>
      <trkpt lat="50.39613" lon="5.40667">
        <ele>231.0</ele>
      </trkpt>
      <trkpt lat="50.39594" lon="5.40506">
        <ele>232.0</ele>
      </trkpt>
      <trkpt lat="50.39601" lon="5.40442">
        <ele>233.0</ele>
      </trkpt>
      <trkpt lat="50.39689" lon="5.4027">
        <ele>236.0</ele>
      </trkpt>
      <trkpt lat="50.39681" lon="5.40102">
        <ele>239.0</ele>
      </trkpt>
      <trkpt lat="50.39691" lon="5.39882">
        <ele>241.0</ele>
      </trkpt>
      <trkpt lat="50.39628" lon="5.39537">
        <ele>245.0</ele>
      </trkpt>
      <trkpt lat="50.39537" lon="5.39326">
        <ele>248.0</ele>
      </trkpt>
      <trkpt lat="50.39536" lon="5.39287">
        <ele>249.0</ele>
      </trkpt>
      <trkpt lat="50.39547" lon="5.39193">
        <ele>249.0</ele>
      </trkpt>
      <trkpt lat="50.39623" lon="5.38996">
        <ele>249.0</ele>
      </trkpt>
      <trkpt lat="50.39649" lon="5.38953">
        <ele>248.0</ele>
      </trkpt>
      <trkpt lat="50.39693" lon="5.38954">
        <ele>248.0</ele>
      </trkpt>
      <trkpt lat="50.40067" lon="5.39186">
        <ele>257.0</ele>
      </trkpt>
      <trkpt lat="50.40109" lon="5.39234">
        <ele>263.0</ele>
      </trkpt>
      <trkpt lat="50.40158" lon="5.39338">
        <ele>268.0</ele>
      </trkpt>
      <trkpt lat="50.40215" lon="5.39402">
        <ele>271.0</ele>
      </trkpt>
      <trkpt lat="50.40257" lon="5.39417">
        <ele>274.0</ele>
      </trkpt>
      <trkpt lat="50.40308" lon="5.39405">
        <ele>276.0</ele>
      </trkpt>
      <trkpt lat="50.40405" lon="5.39318">
        <ele>281.0</ele>
      </trkpt>
      <trkpt lat="50.4043" lon="5.39271">
        <ele>283.0</ele>
      </trkpt>
      <trkpt lat="50.40437" lon="5.39209">
        <ele>285.0</ele>
      </trkpt>
      <trkpt lat="50.40414" lon="5.39018">
        <ele>289.0</ele>
      </trkpt>
      <trkpt lat="50.40447" lon="5.38938">
        <ele>293.0</ele>
      </trkpt>
      <trkpt lat="50.40664" lon="5.38818">
        <ele>301.0</ele>
      </trkpt>
      <trkpt lat="50.40876" lon="5.38779">
        <ele>294.0</ele>
      </trkpt>
      <trkpt lat="50.40927" lon="5.38749">
        <ele>292.0</ele>
      </trkpt>
      <trkpt lat="50.41997" lon="5.37393">
        <ele>286.0</ele>
      </trkpt>
      <trkpt lat="50.4203" lon="5.37312">
        <ele>283.0</ele>
      </trkpt>
      <trkpt lat="50.42162" lon="5.36726">
        <ele>265.0</ele>
      </trkpt>
      <trkpt lat="50.42642" lon="5.35722">
        <ele>260.0</ele>
      </trkpt>
      <trkpt lat="50.44019" lon="5.30044">
        <ele>234.0</ele>
      </trkpt>
      <trkpt lat="50.44074" lon="5.29945">
        <ele>234.0</ele>
      </trkpt>
      <trkpt lat="50.44132" lon="5.29889">
        <ele>235.0</ele>
      </trkpt>
      <trkpt lat="50.44714" lon="5.29401">
        <ele>230.0</ele>
      </trkpt>
      <trkpt lat="50.45005" lon="5.29221">
        <ele>220.0</ele>
      </trkpt>
      <trkpt lat="50.45058" lon="5.29166">
        <ele>213.0</ele>
      </trkpt>
      <trkpt lat="50.45081" lon="5.29065">
        <ele>209.0</ele>
      </trkpt>
      <trkpt lat="50.45086" lon="5.28631">
        <ele>196.0</ele>
      </trkpt>
      <trkpt lat="50.45096" lon="5.28567">
        <ele>190.0</ele>
      </trkpt>
      <trkpt lat="50.45139" lon="5.28443">
        <ele>185.0</ele>
      </trkpt>
      <trkpt lat="50.45183" lon="5.28486">
        <ele>186.0</ele>
      </trkpt>
      <trkpt lat="50.45213" lon="5.28396">
        <ele>187.0</ele>
      </trkpt>
      <trkpt lat="50.45202" lon="5.28331">
        <ele>189.0</ele>
      </trkpt>
      <trkpt lat="50.45144" lon="5.28241">
        <ele>186.0</ele>
      </trkpt>
      <trkpt lat="50.45139" lon="5.28171">
        <ele>184.0</ele>
      </trkpt>
      <trkpt lat="50.45184" lon="5.27993">
        <ele>179.0</ele>
      </trkpt>
      <trkpt lat="50.45243" lon="5.27867">
        <ele>174.0</ele>
      </trkpt>
      <trkpt lat="50.45269" lon="5.27848">
        <ele>172.0</ele>
      </trkpt>
      <trkpt lat="50.45293" lon="5.27858">
        <ele>171.0</ele>
      </trkpt>
      <trkpt lat="50.45434" lon="5.28056">
        <ele>170.0</ele>
      </trkpt>
      <trkpt lat="50.45533" lon="5.2829">
        <ele>173.0</ele>
      </trkpt>
      <trkpt lat="50.45581" lon="5.28364">
        <ele>173.0</ele>
      </trkpt>
      <trkpt lat="50.45696" lon="5.28449">
        <ele>167.0</ele>
      </trkpt>
      <trkpt lat="50.45842" lon="5.28469">
        <ele>167.0</ele>
      </trkpt>
      <trkpt lat="50.4604" lon="5.2828">
        <ele>168.0</ele>
      </trkpt>
      <trkpt lat="50.46174" lon="5.2808">
        <ele>165.0</ele>
      </trkpt>
      <trkpt lat="50.46215" lon="5.27972">
        <ele>164.0</ele>
      </trkpt>
      <trkpt lat="50.46227" lon="5.27883">
        <ele>164.0</ele>
      </trkpt>
      <trkpt lat="50.46225" lon="5.27778">
        <ele>165.0</ele>
      </trkpt>
      <trkpt lat="50.46247" lon="5.2771">
        <ele>165.0</ele>
      </trkpt>
      <trkpt lat="50.46329" lon="5.27654">
        <ele>166.0</ele>
      </trkpt>
      <trkpt lat="50.46503" lon="5.27491">
        <ele>167.0</ele>
      </trkpt>
      <trkpt lat="50.46623" lon="5.27331">
        <ele>164.0</ele>
      </trkpt>
      <trkpt lat="50.46718" lon="5.27271">
        <ele>163.0</ele>
      </trkpt>
      <trkpt lat="50.46817" lon="5.27179">
        <ele>164.0</ele>
      </trkpt>
      <trkpt lat="50.47082" lon="5.2675">
        <ele>158.0</ele>
      </trkpt>
      <trkpt lat="50.47149" lon="5.26673">
        <ele>156.0</ele>
      </trkpt>
      <trkpt lat="50.47193" lon="5.26647">
        <ele>155.0</ele>
      </trkpt>
      <trkpt lat="50.47293" lon="5.26651">
        <ele>155.0</ele>
      </trkpt>
      <trkpt lat="50.47448" lon="5.26761">
        <ele>154.0</ele>
      </trkpt>
      <trkpt lat="50.47638" lon="5.26851">
        <ele>154.0</ele>
      </trkpt>
      <trkpt lat="50.47917" lon="5.26784">
        <ele>146.0</ele>
      </trkpt>
      <trkpt lat="50.47886" lon="5.26616">
        <ele>149.0</ele>
      </trkpt>
      <trkpt lat="50.47789" lon="5.26355">
        <ele>157.0</ele>
      </trkpt>
      <trkpt lat="50.47704" lon="5.26378">
        <ele>159.0</ele>
      </trkpt>
      <trkpt lat="50.47604" lon="5.26334">
        <ele>163.0</ele>
      </trkpt>
      <trkpt lat="50.47457" lon="5.26351">
        <ele>174.0</ele>
      </trkpt>
      <trkpt lat="50.47364" lon="5.26337">
        <ele>182.0</ele>
      </trkpt>
      <trkpt lat="50.4721" lon="5.26272">
        <ele>192.0</ele>
      </trkpt>
      <trkpt lat="50.4706" lon="5.26155">
        <ele>209.0</ele>
      </trkpt>
      <trkpt lat="50.47022" lon="5.25878">
        <ele>220.0</ele>
      </trkpt>
      <trkpt lat="50.46961" lon="5.25706">
        <ele>231.0</ele>
      </trkpt>
      <trkpt lat="50.46946" lon="5.25612">
        <ele>237.0</ele>
      </trkpt>
      <trkpt lat="50.46959" lon="5.25582">
        <ele>241.0</ele>
      </trkpt>
      <trkpt lat="50.47048" lon="5.2553">
        <ele>246.0</ele>
      </trkpt>
      <trkpt lat="50.47053" lon="5.25505">
        <ele>248.0</ele>
      </trkpt>
      <trkpt lat="50.46883" lon="5.24952">
        <ele>257.0</ele>
      </trkpt>
      <trkpt lat="50.46721" lon="5.24684">
        <ele>261.0</ele>
      </trkpt>
      <trkpt lat="50.46677" lon="5.24587">
        <ele>261.0</ele>
      </trkpt>
      <trkpt lat="50.46581" lon="5.24335">
        <ele>258.0</ele>
      </trkpt>
      <trkpt lat="50.465" lon="5.24171">
        <ele>258.0</ele>
      </trkpt>
      <trkpt lat="50.46437" lon="5.23936">
        <ele>262.0</ele>
      </trkpt>
      <trkpt lat="50.46437" lon="5.23867">
        <ele>264.0</ele>
      </trkpt>
      <trkpt lat="50.46492" lon="5.23793">
        <ele>264.0</ele>
      </trkpt>
      <trkpt lat="50.46466" lon="5.23703">
        <ele>265.0</ele>
      </trkpt>
      <trkpt lat="50.466" lon="5.23593">
        <ele>263.0</ele>
      </trkpt>
      <trkpt lat="50.4673" lon="5.23153">
        <ele>246.0</ele>
      </trkpt>
      <trkpt lat="50.46905" lon="5.2275">
        <ele>216.0</ele>
      </trkpt>
      <trkpt lat="50.47274" lon="5.22657">
        <ele>205.0</ele>
      </trkpt>
      <trkpt lat="50.47538" lon="5.22706">
        <ele>208.0</ele>
      </trkpt>
      <trkpt lat="50.47605" lon="5.22703">
        <ele>211.0</ele>
      </trkpt>
      <trkpt lat="50.47972" lon="5.22604">
        <ele>240.0</ele>
      </trkpt>
      <trkpt lat="50.48011" lon="5.23541">
        <ele>238.0</ele>
      </trkpt>
      <trkpt lat="50.48029" lon="5.23741">
        <ele>233.0</ele>
      </trkpt>
      <trkpt lat="50.482" lon="5.24673">
        <ele>214.0</ele>
      </trkpt>
      <trkpt lat="50.48188" lon="5.2472">
        <ele>212.0</ele>
      </trkpt>
      <trkpt lat="50.48107" lon="5.24774">
        <ele>207.0</ele>
      </trkpt>
      <trkpt lat="50.4811" lon="5.24857">
        <ele>205.0</ele>
      </trkpt>
      <trkpt lat="50.48134" lon="5.2497">
        <ele>201.0</ele>
      </trkpt>
      <trkpt lat="50.48263" lon="5.25335">
        <ele>181.0</ele>
      </trkpt>
      <trkpt lat="50.48537" lon="5.25714">
        <ele>160.0</ele>
      </trkpt>
      <trkpt lat="50.48664" lon="5.25782">
        <ele>152.0</ele>
      </trkpt>
      <trkpt lat="50.48781" lon="5.25774">
        <ele>148.0</ele>
      </trkpt>
      <trkpt lat="50.48908" lon="5.25669">
        <ele>141.0</ele>
      </trkpt>
      <trkpt lat="50.48985" lon="5.25649">
        <ele>139.0</ele>
      </trkpt>
      <trkpt lat="50.4907" lon="5.25577">
        <ele>139.0</ele>
      </trkpt>
      <trkpt lat="50.49224" lon="5.25331">
        <ele>134.0</ele>
      </trkpt>
      <trkpt lat="50.4926" lon="5.25252">
        <ele>130.0</ele>
      </trkpt>
      <trkpt lat="50.49248" lon="5.25159">
        <ele>127.0</ele>
      </trkpt>
      <trkpt lat="50.49146" lon="5.24918">
        <ele>138.0</ele>
      </trkpt>
      <trkpt lat="50.49121" lon="5.2481">
        <ele>139.0</ele>
      </trkpt>
      <trkpt lat="50.49141" lon="5.24622">
        <ele>134.0</ele>
      </trkpt>
      <trkpt lat="50.49146" lon="5.24438">
        <ele>131.0</ele>
      </trkpt>
      <trkpt lat="50.4909" lon="5.24111">
        <ele>125.0</ele>
      </trkpt>
      <trkpt lat="50.49071" lon="5.23756">
        <ele>120.0</ele>
      </trkpt>
      <trkpt lat="50.49077" lon="5.23702">
        <ele>118.0</ele>
      </trkpt>
      <trkpt lat="50.49099" lon="5.23653">
        <ele>118.0</ele>
      </trkpt>
      <trkpt lat="50.49225" lon="5.23486">
        <ele>120.0</ele>
      </trkpt>
      <trkpt lat="50.49332" lon="5.23419">
        <ele>119.0</ele>
      </trkpt>
      <trkpt lat="50.49401" lon="5.2341">
        <ele>117.0</ele>
      </trkpt>
      <trkpt lat="50.49495" lon="5.2343">
        <ele>114.0</ele>
      </trkpt>
      <trkpt lat="50.49554" lon="5.23494">
        <ele>110.0</ele>
      </trkpt>
      <trkpt lat="50.49644" lon="5.23644">
        <ele>109.0</ele>
      </trkpt>
      <trkpt lat="50.49656" lon="5.23735">
        <ele>110.0</ele>
      </trkpt>
      <trkpt lat="50.49645" lon="5.23934">
        <ele>110.0</ele>
      </trkpt>
      <trkpt lat="50.49663" lon="5.24034">
        <ele>110.0</ele>
      </trkpt>
      <trkpt lat="50.49718" lon="5.24144">
        <ele>110.0</ele>
      </trkpt>
      <trkpt lat="50.49777" lon="5.24181">
        <ele>109.0</ele>
      </trkpt>
      <trkpt lat="50.49833" lon="5.24165">
        <ele>108.0</ele>
      </trkpt>
      <trkpt lat="50.5022" lon="5.23734">
        <ele>104.0</ele>
      </trkpt>
      <trkpt lat="50.50425" lon="5.23613">
        <ele>100.0</ele>
      </trkpt>
      <trkpt lat="50.50593" lon="5.23487">
        <ele>97.0</ele>
      </trkpt>
      <trkpt lat="50.50671" lon="5.23473">
        <ele>95.0</ele>
      </trkpt>
      <trkpt lat="50.5081" lon="5.23405">
        <ele>94.0</ele>
      </trkpt>
      <trkpt lat="50.509" lon="5.23466">
        <ele>94.0</ele>
      </trkpt>
      <trkpt lat="50.50928" lon="5.23506">
        <ele>94.0</ele>
      </trkpt>
      <trkpt lat="50.50941" lon="5.23554">
        <ele>94.0</ele>
      </trkpt>
      <trkpt lat="50.50911" lon="5.23898">
        <ele>87.0</ele>
      </trkpt>
      <trkpt lat="50.50922" lon="5.23938">
        <ele>86.0</ele>
      </trkpt>
      <trkpt lat="50.51054" lon="5.23919">
        <ele>86.0</ele>
      </trkpt>
      <trkpt lat="50.5117" lon="5.2394">
        <ele>83.0</ele>
      </trkpt>
      <trkpt lat="50.51326" lon="5.23905">
        <ele>80.0</ele>
      </trkpt>
      <trkpt lat="50.51331" lon="5.23867">
        <ele>79.0</ele>
      </trkpt>
      <trkpt lat="50.51373" lon="5.23803">
        <ele>78.0</ele>
      </trkpt>
      <trkpt lat="50.51502" lon="5.23717">
        <ele>83.0</ele>
      </trkpt>
      <trkpt lat="50.51462" lon="5.23656">
        <ele>85.0</ele>
      </trkpt>
      <trkpt lat="50.51431" lon="5.23556">
        <ele>90.0</ele>
      </trkpt>
      <trkpt lat="50.51382" lon="5.23347">
        <ele>103.0</ele>
      </trkpt>
      <trkpt lat="50.51363" lon="5.23206">
        <ele>118.0</ele>
      </trkpt>
      <trkpt lat="50.51368" lon="5.22993">
        <ele>132.0</ele>
      </trkpt>
      <trkpt lat="50.51402" lon="5.22611">
        <ele>152.0</ele>
      </trkpt>
      <trkpt lat="50.51399" lon="5.22469">
        <ele>165.0</ele>
      </trkpt>
      <trkpt lat="50.51369" lon="5.22346">
        <ele>171.0</ele>
      </trkpt>
      <trkpt lat="50.51346" lon="5.223">
        <ele>174.0</ele>
      </trkpt>
      <trkpt lat="50.51242" lon="5.2225">
        <ele>178.0</ele>
      </trkpt>
      <trkpt lat="50.51142" lon="5.22174">
        <ele>182.0</ele>
      </trkpt>
      <trkpt lat="50.51064" lon="5.22095">
        <ele>189.0</ele>
      </trkpt>
      <trkpt lat="50.51027" lon="5.22042">
        <ele>190.0</ele>
      </trkpt>
      <trkpt lat="50.51029" lon="5.22026">
        <ele>190.0</ele>
      </trkpt>
      <trkpt lat="50.5108" lon="5.22028">
        <ele>188.0</ele>
      </trkpt>
      <trkpt lat="50.51342" lon="5.21868">
        <ele>180.0</ele>
      </trkpt>
      <trkpt lat="50.51351" lon="5.2185">
        <ele>176.0</ele>
      </trkpt>
      <trkpt lat="50.51343" lon="5.21725">
        <ele>171.0</ele>
      </trkpt>
      <trkpt lat="50.51355" lon="5.21695">
        <ele>169.0</ele>
      </trkpt>
      <trkpt lat="50.51495" lon="5.21672">
        <ele>161.0</ele>
      </trkpt>
      <trkpt lat="50.51665" lon="5.21574">
        <ele>156.0</ele>
      </trkpt>
      <trkpt lat="50.51778" lon="5.21532">
        <ele>149.0</ele>
      </trkpt>
      <trkpt lat="50.51925" lon="5.2142">
        <ele>136.0</ele>
      </trkpt>
      <trkpt lat="50.52044" lon="5.21352">
        <ele>120.0</ele>
      </trkpt>
      <trkpt lat="50.52094" lon="5.21407">
        <ele>115.0</ele>
      </trkpt>
      <trkpt lat="50.52167" lon="5.21554">
        <ele>104.0</ele>
      </trkpt>
      <trkpt lat="50.52264" lon="5.21652">
        <ele>90.0</ele>
      </trkpt>
      <trkpt lat="50.52317" lon="5.21852">
        <ele>80.0</ele>
      </trkpt>
      <trkpt lat="50.52309" lon="5.21883">
        <ele>78.0</ele>
      </trkpt>
      <trkpt lat="50.52266" lon="5.21923">
        <ele>77.0</ele>
      </trkpt>
      <trkpt lat="50.51746" lon="5.22334">
        <ele>73.0</ele>
      </trkpt>
      <trkpt lat="50.51678" lon="5.22453">
        <ele>74.0</ele>
      </trkpt>
      <trkpt lat="50.51599" lon="5.22722">
        <ele>76.0</ele>
      </trkpt>
      <trkpt lat="50.51589" lon="5.22937">
        <ele>71.0</ele>
      </trkpt>
      <trkpt lat="50.51608" lon="5.23288">
        <ele>75.0</ele>
      </trkpt>
      <trkpt lat="50.51631" lon="5.23415">
        <ele>76.0</ele>
      </trkpt>
      <trkpt lat="50.51665" lon="5.23494">
        <ele>75.0</ele>
      </trkpt>
      <trkpt lat="50.5179" lon="5.23612">
        <ele>73.0</ele>
      </trkpt>
      <trkpt lat="50.51954" lon="5.23841">
        <ele>72.0</ele>
      </trkpt>
      <trkpt lat="50.51945" lon="5.23895">
        <ele>72.0</ele>
      </trkpt>
      <trkpt lat="50.51907" lon="5.23943">
        <ele>72.0</ele>
      </trkpt>
      <trkpt lat="50.51743" lon="5.24022">
        <ele>73.0</ele>
      </trkpt>
      <trkpt lat="50.51651" lon="5.24021">
        <ele>73.0</ele>
      </trkpt>
      <trkpt lat="50.51665" lon="5.24191">
        <ele>76.0</ele>
      </trkpt>
      <trkpt lat="50.51877" lon="5.24521">
        <ele>94.0</ele>
      </trkpt>
      <trkpt lat="50.51891" lon="5.24574">
        <ele>95.0</ele>
      </trkpt>
      <trkpt lat="50.51879" lon="5.24692">
        <ele>102.0</ele>
      </trkpt>
      <trkpt lat="50.51751" lon="5.24792">
        <ele>117.0</ele>
      </trkpt>
      <trkpt lat="50.51692" lon="5.24757">
        <ele>123.0</ele>
      </trkpt>
      <trkpt lat="50.51684" lon="5.24707">
        <ele>130.0</ele>
      </trkpt>
      <trkpt lat="50.51617" lon="5.24604">
        <ele>139.0</ele>
      </trkpt>
      <trkpt lat="50.516" lon="5.2465">
        <ele>146.0</ele>
      </trkpt>
      <trkpt lat="50.51519" lon="5.24678">
        <ele>160.0</ele>
      </trkpt>
      <trkpt lat="50.51442" lon="5.24753">
        <ele>175.0</ele>
      </trkpt>
      <trkpt lat="50.51427" lon="5.24807">
        <ele>181.0</ele>
      </trkpt>
      <trkpt lat="50.51402" lon="5.25074">
        <ele>199.0</ele>
      </trkpt>
      <trkpt lat="50.51241" lon="5.25536">
        <ele>213.0</ele>
      </trkpt>
      <trkpt lat="50.51084" lon="5.25933">
        <ele>216.0</ele>
      </trkpt>
      <trkpt lat="50.51003" lon="5.26192">
        <ele>219.0</ele>
      </trkpt>
      <trkpt lat="50.50934" lon="5.26291">
        <ele>220.0</ele>
      </trkpt>
      <trkpt lat="50.50694" lon="5.26829">
        <ele>229.0</ele>
      </trkpt>
      <trkpt lat="50.50496" lon="5.27147">
        <ele>236.0</ele>
      </trkpt>
      <trkpt lat="50.50361" lon="5.27307">
        <ele>247.0</ele>
      </trkpt>
      <trkpt lat="50.50263" lon="5.27515">
        <ele>250.0</ele>
      </trkpt>
      <trkpt lat="50.50206" lon="5.28043">
        <ele>251.0</ele>
      </trkpt>
      <trkpt lat="50.50206" lon="5.28141">
        <ele>251.0</ele>
      </trkpt>
      <trkpt lat="50.50238" lon="5.28223">
        <ele>251.0</ele>
      </trkpt>
      <trkpt lat="50.50331" lon="5.28384">
        <ele>251.0</ele>
      </trkpt>
      <trkpt lat="50.50431" lon="5.2878">
        <ele>249.0</ele>
      </trkpt>
      <trkpt lat="50.50432" lon="5.28834">
        <ele>249.0</ele>
      </trkpt>
      <trkpt lat="50.50377" lon="5.2916">
        <ele>249.0</ele>
      </trkpt>
      <trkpt lat="50.50228" lon="5.29705">
        <ele>246.0</ele>
      </trkpt>
      <trkpt lat="50.50076" lon="5.30415">
        <ele>236.0</ele>
      </trkpt>
      <trkpt lat="50.49925" lon="5.31036">
        <ele>240.0</ele>
      </trkpt>
      <trkpt lat="50.49784" lon="5.31318">
        <ele>242.0</ele>
      </trkpt>
      <trkpt lat="50.49553" lon="5.3167">
        <ele>241.0</ele>
      </trkpt>
      <trkpt lat="50.49481" lon="5.31748">
        <ele>247.0</ele>
      </trkpt>
      <trkpt lat="50.49362" lon="5.31823">
        <ele>247.0</ele>
      </trkpt>
      <trkpt lat="50.49129" lon="5.32113">
        <ele>259.0</ele>
      </trkpt>
      <trkpt lat="50.49092" lon="5.32183">
        <ele>264.0</ele>
      </trkpt>
      <trkpt lat="50.4906" lon="5.32297">
        <ele>266.0</ele>
      </trkpt>
      <trkpt lat="50.49037" lon="5.32327">
        <ele>266.0</ele>
      </trkpt>
      <trkpt lat="50.48904" lon="5.32357">
        <ele>264.0</ele>
      </trkpt>
      <trkpt lat="50.48776" lon="5.32574">
        <ele>252.0</ele>
      </trkpt>
      <trkpt lat="50.48747" lon="5.32663">
        <ele>249.0</ele>
      </trkpt>
      <trkpt lat="50.47969" lon="5.32917">
        <ele>250.0</ele>
      </trkpt>
      <trkpt lat="50.47187" lon="5.31056">
        <ele>262.0</ele>
      </trkpt>
      <trkpt lat="50.46778" lon="5.30359">
        <ele>267.0</ele>
      </trkpt>
      <trkpt lat="50.46728" lon="5.3032">
        <ele>267.0</ele>
      </trkpt>
      <trkpt lat="50.45858" lon="5.30017">
        <ele>231.0</ele>
      </trkpt>
      <trkpt lat="50.45813" lon="5.29976">
        <ele>228.0</ele>
      </trkpt>
      <trkpt lat="50.45666" lon="5.29613">
        <ele>229.0</ele>
      </trkpt>
      <trkpt lat="50.45537" lon="5.28893">
        <ele>225.0</ele>
      </trkpt>
      <trkpt lat="50.45364" lon="5.28655">
        <ele>214.0</ele>
      </trkpt>
      <trkpt lat="50.45261" lon="5.28598">
        <ele>196.0</ele>
      </trkpt>
      <trkpt lat="50.45183" lon="5.28486">
        <ele>189.0</ele>
      </trkpt>
      <trkpt lat="50.45213" lon="5.28372">
        <ele>189.0</ele>
      </trkpt>
      <trkpt lat="50.45195" lon="5.28316">
        <ele>189.0</ele>
      </trkpt>
      <trkpt lat="50.45152" lon="5.2826">
        <ele>187.0</ele>
      </trkpt>
      <trkpt lat="50.45138" lon="5.28217">
        <ele>185.0</ele>
      </trkpt>
      <trkpt lat="50.45139" lon="5.28171">
        <ele>184.0</ele>
      </trkpt>
      <trkpt lat="50.45184" lon="5.27993">
        <ele>179.0</ele>
      </trkpt>
      <trkpt lat="50.45243" lon="5.27867">
        <ele>174.0</ele>
      </trkpt>
      <trkpt lat="50.45284" lon="5.27851">
        <ele>172.0</ele>
      </trkpt>
      <trkpt lat="50.45446" lon="5.28076">
        <ele>170.0</ele>
      </trkpt>
      <trkpt lat="50.45533" lon="5.2829">
        <ele>173.0</ele>
      </trkpt>
      <trkpt lat="50.45581" lon="5.28364">
        <ele>173.0</ele>
      </trkpt>
      <trkpt lat="50.45696" lon="5.28449">
        <ele>167.0</ele>
      </trkpt>
      <trkpt lat="50.45815" lon="5.28473">
        <ele>166.0</ele>
      </trkpt>
      <trkpt lat="50.45858" lon="5.28461">
        <ele>168.0</ele>
      </trkpt>
      <trkpt lat="50.4604" lon="5.2828">
        <ele>168.0</ele>
      </trkpt>
      <trkpt lat="50.46174" lon="5.2808">
        <ele>165.0</ele>
      </trkpt>
      <trkpt lat="50.46215" lon="5.27972">
        <ele>164.0</ele>
      </trkpt>
      <trkpt lat="50.46227" lon="5.27883">
        <ele>164.0</ele>
      </trkpt>
      <trkpt lat="50.46225" lon="5.27778">
        <ele>165.0</ele>
      </trkpt>
      <trkpt lat="50.46247" lon="5.2771">
        <ele>165.0</ele>
      </trkpt>
      <trkpt lat="50.46329" lon="5.27654">
        <ele>166.0</ele>
      </trkpt>
      <trkpt lat="50.46503" lon="5.27491">
        <ele>167.0</ele>
      </trkpt>
      <trkpt lat="50.46623" lon="5.27331">
        <ele>164.0</ele>
      </trkpt>
      <trkpt lat="50.46718" lon="5.27271">
        <ele>163.0</ele>
      </trkpt>
      <trkpt lat="50.46817" lon="5.27179">
        <ele>164.0</ele>
      </trkpt>
      <trkpt lat="50.47082" lon="5.2675">
        <ele>158.0</ele>
      </trkpt>
      <trkpt lat="50.47149" lon="5.26673">
        <ele>156.0</ele>
      </trkpt>
      <trkpt lat="50.47193" lon="5.26647">
        <ele>155.0</ele>
      </trkpt>
      <trkpt lat="50.47293" lon="5.26651">
        <ele>155.0</ele>
      </trkpt>
      <trkpt lat="50.47448" lon="5.26761">
        <ele>154.0</ele>
      </trkpt>
      <trkpt lat="50.47638" lon="5.26851">
        <ele>154.0</ele>
      </trkpt>
      <trkpt lat="50.47917" lon="5.26784">
        <ele>146.0</ele>
      </trkpt>
      <trkpt lat="50.47886" lon="5.26616">
        <ele>149.0</ele>
      </trkpt>
      <trkpt lat="50.47789" lon="5.26355">
        <ele>157.0</ele>
      </trkpt>
      <trkpt lat="50.47704" lon="5.26378">
        <ele>159.0</ele>
      </trkpt>
      <trkpt lat="50.47604" lon="5.26334">
        <ele>163.0</ele>
      </trkpt>
      <trkpt lat="50.47457" lon="5.26351">
        <ele>174.0</ele>
      </trkpt>
      <trkpt lat="50.47364" lon="5.26337">
        <ele>182.0</ele>
      </trkpt>
      <trkpt lat="50.4721" lon="5.26272">
        <ele>192.0</ele>
      </trkpt>
      <trkpt lat="50.4706" lon="5.26155">
        <ele>209.0</ele>
      </trkpt>
      <trkpt lat="50.47022" lon="5.25878">
        <ele>220.0</ele>
      </trkpt>
      <trkpt lat="50.46961" lon="5.25706">
        <ele>231.0</ele>
      </trkpt>
      <trkpt lat="50.46946" lon="5.25612">
        <ele>237.0</ele>
      </trkpt>
      <trkpt lat="50.46959" lon="5.25582">
        <ele>241.0</ele>
      </trkpt>
      <trkpt lat="50.47048" lon="5.2553">
        <ele>246.0</ele>
      </trkpt>
      <trkpt lat="50.47053" lon="5.25505">
        <ele>248.0</ele>
      </trkpt>
      <trkpt lat="50.46883" lon="5.24952">
        <ele>257.0</ele>
      </trkpt>
      <trkpt lat="50.46712" lon="5.24666">
        <ele>261.0</ele>
      </trkpt>
      <trkpt lat="50.46581" lon="5.24335">
        <ele>258.0</ele>
      </trkpt>
      <trkpt lat="50.465" lon="5.24171">
        <ele>258.0</ele>
      </trkpt>
      <trkpt lat="50.46431" lon="5.23904">
        <ele>263.0</ele>
      </trkpt>
      <trkpt lat="50.46437" lon="5.23867">
        <ele>264.0</ele>
      </trkpt>
      <trkpt lat="50.46492" lon="5.23793">
        <ele>264.0</ele>
      </trkpt>
      <trkpt lat="50.46466" lon="5.23703">
        <ele>265.0</ele>
      </trkpt>
      <trkpt lat="50.466" lon="5.23593">
        <ele>263.0</ele>
      </trkpt>
      <trkpt lat="50.4673" lon="5.23153">
        <ele>246.0</ele>
      </trkpt>
      <trkpt lat="50.46905" lon="5.2275">
        <ele>216.0</ele>
      </trkpt>
      <trkpt lat="50.47274" lon="5.22657">
        <ele>205.0</ele>
      </trkpt>
      <trkpt lat="50.47538" lon="5.22706">
        <ele>208.0</ele>
      </trkpt>
      <trkpt lat="50.47605" lon="5.22703">
        <ele>211.0</ele>
      </trkpt>
      <trkpt lat="50.47972" lon="5.22604">
        <ele>240.0</ele>
      </trkpt>
      <trkpt lat="50.48011" lon="5.23541">
        <ele>238.0</ele>
      </trkpt>
      <trkpt lat="50.48029" lon="5.23741">
        <ele>233.0</ele>
      </trkpt>
      <trkpt lat="50.482" lon="5.24673">
        <ele>213.0</ele>
      </trkpt>
      <trkpt lat="50.48188" lon="5.2472">
        <ele>212.0</ele>
      </trkpt>
      <trkpt lat="50.48107" lon="5.24774">
        <ele>207.0</ele>
      </trkpt>
      <trkpt lat="50.4811" lon="5.24857">
        <ele>205.0</ele>
      </trkpt>
      <trkpt lat="50.48134" lon="5.2497">
        <ele>201.0</ele>
      </trkpt>
      <trkpt lat="50.48263" lon="5.25335">
        <ele>181.0</ele>
      </trkpt>
      <trkpt lat="50.48537" lon="5.25714">
        <ele>160.0</ele>
      </trkpt>
      <trkpt lat="50.48664" lon="5.25782">
        <ele>152.0</ele>
      </trkpt>
      <trkpt lat="50.48781" lon="5.25774">
        <ele>148.0</ele>
      </trkpt>
      <trkpt lat="50.48908" lon="5.25669">
        <ele>141.0</ele>
      </trkpt>
      <trkpt lat="50.48985" lon="5.25649">
        <ele>139.0</ele>
      </trkpt>
      <trkpt lat="50.4907" lon="5.25577">
        <ele>139.0</ele>
      </trkpt>
      <trkpt lat="50.49224" lon="5.25331">
        <ele>134.0</ele>
      </trkpt>
      <trkpt lat="50.4926" lon="5.25252">
        <ele>130.0</ele>
      </trkpt>
      <trkpt lat="50.49248" lon="5.25159">
        <ele>127.0</ele>
      </trkpt>
      <trkpt lat="50.49146" lon="5.24918">
        <ele>138.0</ele>
      </trkpt>
      <trkpt lat="50.49121" lon="5.2481">
        <ele>139.0</ele>
      </trkpt>
      <trkpt lat="50.49141" lon="5.24622">
        <ele>134.0</ele>
      </trkpt>
      <trkpt lat="50.49146" lon="5.24438">
        <ele>131.0</ele>
      </trkpt>
      <trkpt lat="50.4909" lon="5.24111">
        <ele>125.0</ele>
      </trkpt>
      <trkpt lat="50.49071" lon="5.23756">
        <ele>120.0</ele>
      </trkpt>
      <trkpt lat="50.49077" lon="5.23702">
        <ele>118.0</ele>
      </trkpt>
      <trkpt lat="50.49099" lon="5.23653">
        <ele>118.0</ele>
      </trkpt>
      <trkpt lat="50.49225" lon="5.23486">
        <ele>120.0</ele>
      </trkpt>
      <trkpt lat="50.49332" lon="5.23419">
        <ele>119.0</ele>
      </trkpt>
      <trkpt lat="50.49401" lon="5.2341">
        <ele>117.0</ele>
      </trkpt>
      <trkpt lat="50.49495" lon="5.2343">
        <ele>114.0</ele>
      </trkpt>
      <trkpt lat="50.49554" lon="5.23494">
        <ele>110.0</ele>
      </trkpt>
      <trkpt lat="50.49644" lon="5.23644">
        <ele>109.0</ele>
      </trkpt>
      <trkpt lat="50.49656" lon="5.23735">
        <ele>110.0</ele>
      </trkpt>
      <trkpt lat="50.49645" lon="5.23934">
        <ele>110.0</ele>
      </trkpt>
      <trkpt lat="50.49663" lon="5.24034">
        <ele>110.0</ele>
      </trkpt>
      <trkpt lat="50.49718" lon="5.24144">
        <ele>110.0</ele>
      </trkpt>
      <trkpt lat="50.49777" lon="5.24181">
        <ele>109.0</ele>
      </trkpt>
      <trkpt lat="50.49833" lon="5.24165">
        <ele>108.0</ele>
      </trkpt>
      <trkpt lat="50.5022" lon="5.23734">
        <ele>104.0</ele>
      </trkpt>
      <trkpt lat="50.50425" lon="5.23613">
        <ele>100.0</ele>
      </trkpt>
      <trkpt lat="50.50593" lon="5.23487">
        <ele>97.0</ele>
      </trkpt>
      <trkpt lat="50.50671" lon="5.23473">
        <ele>95.0</ele>
      </trkpt>
      <trkpt lat="50.5081" lon="5.23405">
        <ele>94.0</ele>
      </trkpt>
      <trkpt lat="50.509" lon="5.23466">
        <ele>94.0</ele>
      </trkpt>
      <trkpt lat="50.50928" lon="5.23506">
        <ele>94.0</ele>
      </trkpt>
      <trkpt lat="50.50941" lon="5.23554">
        <ele>94.0</ele>
      </trkpt>
      <trkpt lat="50.50911" lon="5.23898">
        <ele>87.0</ele>
      </trkpt>
      <trkpt lat="50.50922" lon="5.23938">
        <ele>86.0</ele>
      </trkpt>
      <trkpt lat="50.51054" lon="5.23919">
        <ele>86.0</ele>
      </trkpt>
      <trkpt lat="50.5117" lon="5.2394">
        <ele>83.0</ele>
      </trkpt>
      <trkpt lat="50.51326" lon="5.23905">
        <ele>80.0</ele>
      </trkpt>
      <trkpt lat="50.51331" lon="5.23867">
        <ele>79.0</ele>
      </trkpt>
      <trkpt lat="50.51373" lon="5.23803">
        <ele>78.0</ele>
      </trkpt>
      <trkpt lat="50.51502" lon="5.23717">
        <ele>83.0</ele>
      </trkpt>
      <trkpt lat="50.51462" lon="5.23656">
        <ele>85.0</ele>
      </trkpt>
      <trkpt lat="50.51431" lon="5.23556">
        <ele>90.0</ele>
      </trkpt>
      <trkpt lat="50.51382" lon="5.23347">
        <ele>103.0</ele>
      </trkpt>
      <trkpt lat="50.51364" lon="5.23215">
        <ele>117.0</ele>
      </trkpt>
      <trkpt lat="50.51368" lon="5.22993">
        <ele>132.0</ele>
      </trkpt>
      <trkpt lat="50.51402" lon="5.22611">
        <ele>152.0</ele>
      </trkpt>
      <trkpt lat="50.51399" lon="5.22469">
        <ele>165.0</ele>
      </trkpt>
      <trkpt lat="50.51369" lon="5.22346">
        <ele>171.0</ele>
      </trkpt>
      <trkpt lat="50.51346" lon="5.223">
        <ele>174.0</ele>
      </trkpt>
      <trkpt lat="50.51242" lon="5.2225">
        <ele>178.0</ele>
      </trkpt>
      <trkpt lat="50.51142" lon="5.22174">
        <ele>183.0</ele>
      </trkpt>
      <trkpt lat="50.51064" lon="5.22095">
        <ele>190.0</ele>
      </trkpt>
      <trkpt lat="50.51027" lon="5.22042">
        <ele>191.0</ele>
      </trkpt>
      <trkpt lat="50.51029" lon="5.22026">
        <ele>190.0</ele>
      </trkpt>
      <trkpt lat="50.5108" lon="5.22028">
        <ele>188.0</ele>
      </trkpt>
      <trkpt lat="50.51342" lon="5.21868">
        <ele>180.0</ele>
      </trkpt>
      <trkpt lat="50.51351" lon="5.2185">
        <ele>176.0</ele>
      </trkpt>
      <trkpt lat="50.51343" lon="5.21725">
        <ele>171.0</ele>
      </trkpt>
      <trkpt lat="50.51355" lon="5.21695">
        <ele>169.0</ele>
      </trkpt>
      <trkpt lat="50.51495" lon="5.21672">
        <ele>162.0</ele>
      </trkpt>
      <trkpt lat="50.51665" lon="5.21574">
        <ele>155.0</ele>
      </trkpt>
      <trkpt lat="50.51778" lon="5.21532">
        <ele>148.0</ele>
      </trkpt>
      <trkpt lat="50.51925" lon="5.2142">
        <ele>136.0</ele>
      </trkpt>
      <trkpt lat="50.52044" lon="5.21352">
        <ele>120.0</ele>
      </trkpt>
      <trkpt lat="50.52094" lon="5.21407">
        <ele>115.0</ele>
      </trkpt>
      <trkpt lat="50.52167" lon="5.21554">
        <ele>104.0</ele>
      </trkpt>
      <trkpt lat="50.52264" lon="5.21652">
        <ele>90.0</ele>
      </trkpt>
      <trkpt lat="50.52317" lon="5.21852">
        <ele>80.0</ele>
      </trkpt>
      <trkpt lat="50.52309" lon="5.21883">
        <ele>78.0</ele>
      </trkpt>
      <trkpt lat="50.52266" lon="5.21923">
        <ele>77.0</ele>
      </trkpt>
      <trkpt lat="50.51746" lon="5.22334">
        <ele>73.0</ele>
      </trkpt>
      <trkpt lat="50.51678" lon="5.22453">
        <ele>74.0</ele>
      </trkpt>
      <trkpt lat="50.51599" lon="5.22722">
        <ele>76.0</ele>
      </trkpt>
      <trkpt lat="50.51589" lon="5.22937">
        <ele>71.0</ele>
      </trkpt>
      <trkpt lat="50.51608" lon="5.23288">
        <ele>75.0</ele>
      </trkpt>
      <trkpt lat="50.51631" lon="5.23415">
        <ele>76.0</ele>
      </trkpt>
      <trkpt lat="50.51665" lon="5.23494">
        <ele>75.0</ele>
      </trkpt>
      <trkpt lat="50.5179" lon="5.23612">
        <ele>73.0</ele>
      </trkpt>
      <trkpt lat="50.51954" lon="5.23841">
        <ele>72.0</ele>
      </trkpt>
      <trkpt lat="50.51945" lon="5.23895">
        <ele>72.0</ele>
      </trkpt>
      <trkpt lat="50.51907" lon="5.23943">
        <ele>72.0</ele>
      </trkpt>
      <trkpt lat="50.51743" lon="5.24022">
        <ele>73.0</ele>
      </trkpt>
      <trkpt lat="50.51651" lon="5.24021">
        <ele>73.0</ele>
      </trkpt>
      <trkpt lat="50.51665" lon="5.24191">
        <ele>76.0</ele>
      </trkpt>
      <trkpt lat="50.51877" lon="5.24521">
        <ele>94.0</ele>
      </trkpt>
      <trkpt lat="50.51891" lon="5.24574">
        <ele>95.0</ele>
      </trkpt>
      <trkpt lat="50.51879" lon="5.24692">
        <ele>102.0</ele>
      </trkpt>
      <trkpt lat="50.51751" lon="5.24792">
        <ele>117.0</ele>
      </trkpt>
      <trkpt lat="50.51692" lon="5.24757">
        <ele>123.0</ele>
      </trkpt>
      <trkpt lat="50.51684" lon="5.24707">
        <ele>130.0</ele>
      </trkpt>
      <trkpt lat="50.51617" lon="5.24604">
        <ele>139.0</ele>
      </trkpt>
      <trkpt lat="50.516" lon="5.2465">
        <ele>146.0</ele>
      </trkpt>
      <trkpt lat="50.51519" lon="5.24678">
        <ele>160.0</ele>
      </trkpt>
      <trkpt lat="50.51442" lon="5.24753">
        <ele>175.0</ele>
      </trkpt>
      <trkpt lat="50.51427" lon="5.24807">
        <ele>181.0</ele>
      </trkpt>
      <trkpt lat="50.51402" lon="5.25074">
        <ele>201.0</ele>
      </trkpt>
      <trkpt lat="50.51241" lon="5.25536">
        <ele>213.0</ele>
      </trkpt>
      <trkpt lat="50.51084" lon="5.25933">
        <ele>216.0</ele>
      </trkpt>
      <trkpt lat="50.51003" lon="5.26192">
        <ele>219.0</ele>
      </trkpt>
      <trkpt lat="50.50934" lon="5.26291">
        <ele>220.0</ele>
      </trkpt>
      <trkpt lat="50.50694" lon="5.26829">
        <ele>229.0</ele>
      </trkpt>
      <trkpt lat="50.50496" lon="5.27147">
        <ele>236.0</ele>
      </trkpt>
      <trkpt lat="50.50361" lon="5.27307">
        <ele>247.0</ele>
      </trkpt>
      <trkpt lat="50.50263" lon="5.27515">
        <ele>250.0</ele>
      </trkpt>
      <trkpt lat="50.50206" lon="5.28043">
        <ele>251.0</ele>
      </trkpt>
      <trkpt lat="50.50206" lon="5.28141">
        <ele>251.0</ele>
      </trkpt>
      <trkpt lat="50.50238" lon="5.28223">
        <ele>251.0</ele>
      </trkpt>
      <trkpt lat="50.50331" lon="5.28384">
        <ele>251.0</ele>
      </trkpt>
      <trkpt lat="50.50431" lon="5.2878">
        <ele>250.0</ele>
      </trkpt>
      <trkpt lat="50.50432" lon="5.28834">
        <ele>250.0</ele>
      </trkpt>
      <trkpt lat="50.50377" lon="5.2916">
        <ele>249.0</ele>
      </trkpt>
      <trkpt lat="50.50228" lon="5.29705">
        <ele>246.0</ele>
      </trkpt>
      <trkpt lat="50.50076" lon="5.30415">
        <ele>236.0</ele>
      </trkpt>
      <trkpt lat="50.49925" lon="5.31036">
        <ele>240.0</ele>
      </trkpt>
      <trkpt lat="50.49784" lon="5.31318">
        <ele>242.0</ele>
      </trkpt>
      <trkpt lat="50.49553" lon="5.3167">
        <ele>241.0</ele>
      </trkpt>
      <trkpt lat="50.49481" lon="5.31748">
        <ele>248.0</ele>
      </trkpt>
      <trkpt lat="50.49362" lon="5.31823">
        <ele>247.0</ele>
      </trkpt>
      <trkpt lat="50.49129" lon="5.32113">
        <ele>259.0</ele>
      </trkpt>
      <trkpt lat="50.49092" lon="5.32183">
        <ele>264.0</ele>
      </trkpt>
      <trkpt lat="50.4906" lon="5.32297">
        <ele>266.0</ele>
      </trkpt>
      <trkpt lat="50.49037" lon="5.32327">
        <ele>266.0</ele>
      </trkpt>
      <trkpt lat="50.48904" lon="5.32357">
        <ele>264.0</ele>
      </trkpt>
      <trkpt lat="50.48776" lon="5.32574">
        <ele>252.0</ele>
      </trkpt>
      <trkpt lat="50.48747" lon="5.32663">
        <ele>250.0</ele>
      </trkpt>
      <trkpt lat="50.47969" lon="5.32917">
        <ele>250.0</ele>
      </trkpt>
      <trkpt lat="50.47187" lon="5.31056">
        <ele>262.0</ele>
      </trkpt>
      <trkpt lat="50.46778" lon="5.30359">
        <ele>267.0</ele>
      </trkpt>
      <trkpt lat="50.46728" lon="5.3032">
        <ele>267.0</ele>
      </trkpt>
      <trkpt lat="50.45858" lon="5.30017">
        <ele>231.0</ele>
      </trkpt>
      <trkpt lat="50.45813" lon="5.29976">
        <ele>228.0</ele>
      </trkpt>
      <trkpt lat="50.45666" lon="5.29613">
        <ele>229.0</ele>
      </trkpt>
      <trkpt lat="50.45537" lon="5.28893">
        <ele>225.0</ele>
      </trkpt>
      <trkpt lat="50.45364" lon="5.28655">
        <ele>214.0</ele>
      </trkpt>
      <trkpt lat="50.45261" lon="5.28598">
        <ele>196.0</ele>
      </trkpt>
      <trkpt lat="50.45183" lon="5.28486">
        <ele>189.0</ele>
      </trkpt>
      <trkpt lat="50.45213" lon="5.28372">
        <ele>189.0</ele>
      </trkpt>
      <trkpt lat="50.45195" lon="5.28316">
        <ele>189.0</ele>
      </trkpt>
      <trkpt lat="50.45152" lon="5.2826">
        <ele>187.0</ele>
      </trkpt>
      <trkpt lat="50.45138" lon="5.28217">
        <ele>185.0</ele>
      </trkpt>
      <trkpt lat="50.45139" lon="5.28171">
        <ele>184.0</ele>
      </trkpt>
      <trkpt lat="50.45184" lon="5.27993">
        <ele>179.0</ele>
      </trkpt>
      <trkpt lat="50.45243" lon="5.27867">
        <ele>174.0</ele>
      </trkpt>
      <trkpt lat="50.45284" lon="5.27851">
        <ele>172.0</ele>
      </trkpt>
      <trkpt lat="50.45446" lon="5.28076">
        <ele>170.0</ele>
      </trkpt>
      <trkpt lat="50.45533" lon="5.2829">
        <ele>173.0</ele>
      </trkpt>
      <trkpt lat="50.45581" lon="5.28364">
        <ele>173.0</ele>
      </trkpt>
      <trkpt lat="50.45696" lon="5.28449">
        <ele>167.0</ele>
      </trkpt>
      <trkpt lat="50.45815" lon="5.28473">
        <ele>166.0</ele>
      </trkpt>
      <trkpt lat="50.45858" lon="5.28461">
        <ele>168.0</ele>
      </trkpt>
      <trkpt lat="50.4604" lon="5.2828">
        <ele>168.0</ele>
      </trkpt>
      <trkpt lat="50.46174" lon="5.2808">
        <ele>165.0</ele>
      </trkpt>
      <trkpt lat="50.46215" lon="5.27972">
        <ele>164.0</ele>
      </trkpt>
      <trkpt lat="50.46227" lon="5.27883">
        <ele>164.0</ele>
      </trkpt>
      <trkpt lat="50.46225" lon="5.27778">
        <ele>165.0</ele>
      </trkpt>
      <trkpt lat="50.46247" lon="5.2771">
        <ele>165.0</ele>
      </trkpt>
      <trkpt lat="50.46329" lon="5.27654">
        <ele>166.0</ele>
      </trkpt>
      <trkpt lat="50.46503" lon="5.27491">
        <ele>167.0</ele>
      </trkpt>
      <trkpt lat="50.46623" lon="5.27331">
        <ele>164.0</ele>
      </trkpt>
      <trkpt lat="50.46718" lon="5.27271">
        <ele>163.0</ele>
      </trkpt>
      <trkpt lat="50.46817" lon="5.27179">
        <ele>164.0</ele>
      </trkpt>
      <trkpt lat="50.47082" lon="5.2675">
        <ele>158.0</ele>
      </trkpt>
      <trkpt lat="50.47149" lon="5.26673">
        <ele>156.0</ele>
      </trkpt>
      <trkpt lat="50.47193" lon="5.26647">
        <ele>155.0</ele>
      </trkpt>
      <trkpt lat="50.47293" lon="5.26651">
        <ele>155.0</ele>
      </trkpt>
      <trkpt lat="50.47448" lon="5.26761">
        <ele>154.0</ele>
      </trkpt>
      <trkpt lat="50.47638" lon="5.26851">
        <ele>154.0</ele>
      </trkpt>
      <trkpt lat="50.47917" lon="5.26784">
        <ele>146.0</ele>
      </trkpt>
      <trkpt lat="50.47886" lon="5.26616">
        <ele>149.0</ele>
      </trkpt>
      <trkpt lat="50.47789" lon="5.26355">
        <ele>157.0</ele>
      </trkpt>
      <trkpt lat="50.47704" lon="5.26378">
        <ele>159.0</ele>
      </trkpt>
      <trkpt lat="50.47604" lon="5.26334">
        <ele>163.0</ele>
      </trkpt>
      <trkpt lat="50.47457" lon="5.26351">
        <ele>174.0</ele>
      </trkpt>
      <trkpt lat="50.47364" lon="5.26337">
        <ele>183.0</ele>
      </trkpt>
      <trkpt lat="50.4721" lon="5.26272">
        <ele>193.0</ele>
      </trkpt>
      <trkpt lat="50.4706" lon="5.26155">
        <ele>209.0</ele>
      </trkpt>
      <trkpt lat="50.47022" lon="5.25878">
        <ele>220.0</ele>
      </trkpt>
      <trkpt lat="50.46961" lon="5.25706">
        <ele>231.0</ele>
      </trkpt>
      <trkpt lat="50.46946" lon="5.25612">
        <ele>237.0</ele>
      </trkpt>
      <trkpt lat="50.46959" lon="5.25582">
        <ele>241.0</ele>
      </trkpt>
      <trkpt lat="50.47048" lon="5.2553">
        <ele>246.0</ele>
      </trkpt>
      <trkpt lat="50.47053" lon="5.25505">
        <ele>248.0</ele>
      </trkpt>
      <trkpt lat="50.46883" lon="5.24952">
        <ele>257.0</ele>
      </trkpt>
      <trkpt lat="50.46712" lon="5.24666">
        <ele>261.0</ele>
      </trkpt>
      <trkpt lat="50.46581" lon="5.24335">
        <ele>258.0</ele>
      </trkpt>
      <trkpt lat="50.465" lon="5.24171">
        <ele>258.0</ele>
      </trkpt>
      <trkpt lat="50.46431" lon="5.23904">
        <ele>263.0</ele>
      </trkpt>
      <trkpt lat="50.46437" lon="5.23867">
        <ele>264.0</ele>
      </trkpt>
      <trkpt lat="50.46492" lon="5.23793">
        <ele>264.0</ele>
      </trkpt>
      <trkpt lat="50.46466" lon="5.23703">
        <ele>265.0</ele>
      </trkpt>
      <trkpt lat="50.466" lon="5.23593">
        <ele>263.0</ele>
      </trkpt>
      <trkpt lat="50.4673" lon="5.23153">
        <ele>246.0</ele>
      </trkpt>
      <trkpt lat="50.46905" lon="5.2275">
        <ele>216.0</ele>
      </trkpt>
      <trkpt lat="50.47274" lon="5.22657">
        <ele>205.0</ele>
      </trkpt>
      <trkpt lat="50.47538" lon="5.22706">
        <ele>208.0</ele>
      </trkpt>
      <trkpt lat="50.47605" lon="5.22703">
        <ele>211.0</ele>
      </trkpt>
      <trkpt lat="50.47972" lon="5.22604">
        <ele>240.0</ele>
      </trkpt>
      <trkpt lat="50.48011" lon="5.23541">
        <ele>238.0</ele>
      </trkpt>
      <trkpt lat="50.48029" lon="5.23741">
        <ele>233.0</ele>
      </trkpt>
      <trkpt lat="50.482" lon="5.24673">
        <ele>213.0</ele>
      </trkpt>
      <trkpt lat="50.48188" lon="5.2472">
        <ele>212.0</ele>
      </trkpt>
      <trkpt lat="50.48107" lon="5.24774">
        <ele>207.0</ele>
      </trkpt>
      <trkpt lat="50.4811" lon="5.24857">
        <ele>205.0</ele>
      </trkpt>
      <trkpt lat="50.48134" lon="5.2497">
        <ele>201.0</ele>
      </trkpt>
      <trkpt lat="50.48263" lon="5.25335">
        <ele>181.0</ele>
      </trkpt>
      <trkpt lat="50.48537" lon="5.25714">
        <ele>160.0</ele>
      </trkpt>
      <trkpt lat="50.48664" lon="5.25782">
        <ele>152.0</ele>
      </trkpt>
      <trkpt lat="50.48781" lon="5.25774">
        <ele>148.0</ele>
      </trkpt>
      <trkpt lat="50.48908" lon="5.25669">
        <ele>141.0</ele>
      </trkpt>
      <trkpt lat="50.48985" lon="5.25649">
        <ele>139.0</ele>
      </trkpt>
      <trkpt lat="50.4907" lon="5.25577">
        <ele>139.0</ele>
      </trkpt>
      <trkpt lat="50.49224" lon="5.25331">
        <ele>134.0</ele>
      </trkpt>
      <trkpt lat="50.4926" lon="5.25252">
        <ele>130.0</ele>
      </trkpt>
      <trkpt lat="50.49248" lon="5.25159">
        <ele>127.0</ele>
      </trkpt>
      <trkpt lat="50.49146" lon="5.24918">
        <ele>138.0</ele>
      </trkpt>
      <trkpt lat="50.49121" lon="5.2481">
        <ele>139.0</ele>
      </trkpt>
      <trkpt lat="50.49141" lon="5.24622">
        <ele>134.0</ele>
      </trkpt>
      <trkpt lat="50.49146" lon="5.24438">
        <ele>131.0</ele>
      </trkpt>
      <trkpt lat="50.49099" lon="5.24183">
        <ele>127.0</ele>
      </trkpt>
      <trkpt lat="50.49084" lon="5.24011">
        <ele>123.0</ele>
      </trkpt>
      <trkpt lat="50.49071" lon="5.23756">
        <ele>120.0</ele>
      </trkpt>
      <trkpt lat="50.49077" lon="5.23702">
        <ele>118.0</ele>
      </trkpt>
      <trkpt lat="50.49099" lon="5.23653">
        <ele>118.0</ele>
      </trkpt>
      <trkpt lat="50.49225" lon="5.23486">
        <ele>120.0</ele>
      </trkpt>
      <trkpt lat="50.49332" lon="5.23419">
        <ele>119.0</ele>
      </trkpt>
      <trkpt lat="50.49401" lon="5.2341">
        <ele>117.0</ele>
      </trkpt>
      <trkpt lat="50.49511" lon="5.23442">
        <ele>113.0</ele>
      </trkpt>
      <trkpt lat="50.49618" lon="5.23586">
        <ele>109.0</ele>
      </trkpt>
      <trkpt lat="50.49644" lon="5.23644">
        <ele>109.0</ele>
      </trkpt>
      <trkpt lat="50.49656" lon="5.23735">
        <ele>110.0</ele>
      </trkpt>
      <trkpt lat="50.49646" lon="5.23951">
        <ele>110.0</ele>
      </trkpt>
      <trkpt lat="50.49672" lon="5.24061">
        <ele>110.0</ele>
      </trkpt>
      <trkpt lat="50.49718" lon="5.24144">
        <ele>110.0</ele>
      </trkpt>
      <trkpt lat="50.49777" lon="5.24181">
        <ele>109.0</ele>
      </trkpt>
      <trkpt lat="50.49833" lon="5.24165">
        <ele>108.0</ele>
      </trkpt>
      <trkpt lat="50.5022" lon="5.23734">
        <ele>104.0</ele>
      </trkpt>
      <trkpt lat="50.50425" lon="5.23613">
        <ele>100.0</ele>
      </trkpt>
      <trkpt lat="50.50593" lon="5.23487">
        <ele>97.0</ele>
      </trkpt>
      <trkpt lat="50.50671" lon="5.23473">
        <ele>95.0</ele>
      </trkpt>
      <trkpt lat="50.5081" lon="5.23405">
        <ele>94.0</ele>
      </trkpt>
      <trkpt lat="50.509" lon="5.23466">
        <ele>94.0</ele>
      </trkpt>
      <trkpt lat="50.50928" lon="5.23506">
        <ele>94.0</ele>
      </trkpt>
      <trkpt lat="50.50941" lon="5.23554">
        <ele>94.0</ele>
      </trkpt>
      <trkpt lat="50.50911" lon="5.23898">
        <ele>87.0</ele>
      </trkpt>
      <trkpt lat="50.50922" lon="5.23938">
        <ele>86.0</ele>
      </trkpt>
      <trkpt lat="50.51054" lon="5.23919">
        <ele>86.0</ele>
      </trkpt>
      <trkpt lat="50.5117" lon="5.2394">
        <ele>83.0</ele>
      </trkpt>
      <trkpt lat="50.51326" lon="5.23905">
        <ele>80.0</ele>
      </trkpt>
      <trkpt lat="50.51331" lon="5.23867">
        <ele>79.0</ele>
      </trkpt>
      <trkpt lat="50.51373" lon="5.23803">
        <ele>78.0</ele>
      </trkpt>
      <trkpt lat="50.51502" lon="5.23717">
        <ele>83.0</ele>
      </trkpt>
      <trkpt lat="50.51462" lon="5.23656">
        <ele>85.0</ele>
      </trkpt>
      <trkpt lat="50.51431" lon="5.23556">
        <ele>90.0</ele>
      </trkpt>
      <trkpt lat="50.51382" lon="5.23347">
        <ele>103.0</ele>
      </trkpt>
      <trkpt lat="50.51363" lon="5.23201">
        <ele>118.0</ele>
      </trkpt>
      <trkpt lat="50.51368" lon="5.22993">
        <ele>133.0</ele>
      </trkpt>
      <trkpt lat="50.51402" lon="5.22611">
        <ele>152.0</ele>
      </trkpt>
      <trkpt lat="50.51399" lon="5.22469">
        <ele>165.0</ele>
      </trkpt>
      <trkpt lat="50.51369" lon="5.22346">
        <ele>171.0</ele>
      </trkpt>
      <trkpt lat="50.51346" lon="5.223">
        <ele>174.0</ele>
      </trkpt>
      <trkpt lat="50.51188" lon="5.22213">
        <ele>180.0</ele>
      </trkpt>
      <trkpt lat="50.51064" lon="5.22095">
        <ele>189.0</ele>
      </trkpt>
      <trkpt lat="50.51027" lon="5.22032">
        <ele>190.0</ele>
      </trkpt>
      <trkpt lat="50.5108" lon="5.22028">
        <ele>188.0</ele>
      </trkpt>
      <trkpt lat="50.51342" lon="5.21868">
        <ele>180.0</ele>
      </trkpt>
      <trkpt lat="50.51351" lon="5.2185">
        <ele>176.0</ele>
      </trkpt>
      <trkpt lat="50.51343" lon="5.21725">
        <ele>171.0</ele>
      </trkpt>
      <trkpt lat="50.51355" lon="5.21695">
        <ele>169.0</ele>
      </trkpt>
      <trkpt lat="50.51495" lon="5.21672">
        <ele>162.0</ele>
      </trkpt>
      <trkpt lat="50.51665" lon="5.21574">
        <ele>155.0</ele>
      </trkpt>
      <trkpt lat="50.51778" lon="5.21532">
        <ele>148.0</ele>
      </trkpt>
      <trkpt lat="50.51925" lon="5.2142">
        <ele>136.0</ele>
      </trkpt>
      <trkpt lat="50.52049" lon="5.21353">
        <ele>119.0</ele>
      </trkpt>
      <trkpt lat="50.52094" lon="5.21407">
        <ele>115.0</ele>
      </trkpt>
      <trkpt lat="50.52167" lon="5.21554">
        <ele>104.0</ele>
      </trkpt>
      <trkpt lat="50.52264" lon="5.21652">
        <ele>90.0</ele>
      </trkpt>
      <trkpt lat="50.52314" lon="5.21868">
        <ele>79.0</ele>
      </trkpt>
      <trkpt lat="50.52266" lon="5.21923">
        <ele>77.0</ele>
      </trkpt>
      <trkpt lat="50.51746" lon="5.22334">
        <ele>73.0</ele>
      </trkpt>
      <trkpt lat="50.51691" lon="5.22421">
        <ele>73.0</ele>
      </trkpt>
      <trkpt lat="50.51658" lon="5.22513">
        <ele>75.0</ele>
      </trkpt>
      <trkpt lat="50.51607" lon="5.22682">
        <ele>76.0</ele>
      </trkpt>
      <trkpt lat="50.51589" lon="5.22831">
        <ele>75.0</ele>
      </trkpt>
      <trkpt lat="50.51608" lon="5.23288">
        <ele>75.0</ele>
      </trkpt>
      <trkpt lat="50.5164" lon="5.23441">
        <ele>76.0</ele>
      </trkpt>
      <trkpt lat="50.51679" lon="5.23512">
        <ele>74.0</ele>
      </trkpt>
      <trkpt lat="50.5179" lon="5.23612">
        <ele>73.0</ele>
      </trkpt>
      <trkpt lat="50.51954" lon="5.23841">
        <ele>72.0</ele>
      </trkpt>
      <trkpt lat="50.51945" lon="5.23895">
        <ele>72.0</ele>
      </trkpt>
      <trkpt lat="50.51907" lon="5.23943">
        <ele>72.0</ele>
      </trkpt>
      <trkpt lat="50.51743" lon="5.24022">
        <ele>73.0</ele>
      </trkpt>
      <trkpt lat="50.51651" lon="5.24021">
        <ele>73.0</ele>
      </trkpt>
      <trkpt lat="50.51665" lon="5.24191">
        <ele>76.0</ele>
      </trkpt>
      <trkpt lat="50.51877" lon="5.24521">
        <ele>94.0</ele>
      </trkpt>
      <trkpt lat="50.51891" lon="5.24574">
        <ele>95.0</ele>
      </trkpt>
      <trkpt lat="50.51886" lon="5.2466">
        <ele>101.0</ele>
      </trkpt>
      <trkpt lat="50.51867" lon="5.2471">
        <ele>105.0</ele>
      </trkpt>
      <trkpt lat="50.51751" lon="5.24792">
        <ele>117.0</ele>
      </trkpt>
      <trkpt lat="50.51692" lon="5.24757">
        <ele>123.0</ele>
      </trkpt>
      <trkpt lat="50.51684" lon="5.24707">
        <ele>130.0</ele>
      </trkpt>
      <trkpt lat="50.51617" lon="5.24604">
        <ele>139.0</ele>
      </trkpt>
      <trkpt lat="50.516" lon="5.2465">
        <ele>146.0</ele>
      </trkpt>
      <trkpt lat="50.51519" lon="5.24678">
        <ele>160.0</ele>
      </trkpt>
      <trkpt lat="50.51442" lon="5.24753">
        <ele>175.0</ele>
      </trkpt>
      <trkpt lat="50.51427" lon="5.24807">
        <ele>181.0</ele>
      </trkpt>
      <trkpt lat="50.5141" lon="5.25007">
        <ele>198.0</ele>
      </trkpt>
    </trkseg>
  </trk>
</gpx>