<?xml version="1.0" encoding="UTF-8"?>
<gpx xmlns="http://www.topografix.com/GPX/1/0" xmlns:xsi="http://www.w3.org/2001/XMLSchema-instance" xsi:schemaLocation="http://www.topografix.com/GPX/1/0 http://www.topografix.com/GPX/1/0/gpx.xsd" version="1.0" creator="GPSBabel - https://www.gpsbabel.org">
  <time>2026-04-13T14:12:26.012000Z</time>
  <bounds minlat="50.03133" maxlat="50.62214" minlon="5.54717" maxlon="5.95155" />
  <trk>
    <trkseg>
      <trkpt lat="50.03133" lon="5.69762">
        <ele>465.0</ele>
      </trkpt>
      <trkpt lat="50.03357" lon="5.69732">
        <ele>467.0</ele>
      </trkpt>
      <trkpt lat="50.03548" lon="5.69574">
        <ele>459.0</ele>
      </trkpt>
      <trkpt lat="50.03777" lon="5.69248">
        <ele>456.0</ele>
      </trkpt>
      <trkpt lat="50.04029" lon="5.6909">
        <ele>458.0</ele>
      </trkpt>
      <trkpt lat="50.04351" lon="5.68912">
        <ele>467.0</ele>
      </trkpt>
      <trkpt lat="50.04525" lon="5.68813">
        <ele>463.0</ele>
      </trkpt>
      <trkpt lat="50.04553" lon="5.68633">
        <ele>455.0</ele>
      </trkpt>
      <trkpt lat="50.04622" lon="5.68594">
        <ele>446.0</ele>
      </trkpt>
      <trkpt lat="50.04733" lon="5.68733">
        <ele>437.0</ele>
      </trkpt>
      <trkpt lat="50.04847" lon="5.6878">
        <ele>430.0</ele>
      </trkpt>
      <trkpt lat="50.0513" lon="5.68844">
        <ele>429.0</ele>
      </trkpt>
      <trkpt lat="50.05269" lon="5.68999">
        <ele>446.0</ele>
      </trkpt>
      <trkpt lat="50.05367" lon="5.69072">
        <ele>456.0</ele>
      </trkpt>
      <trkpt lat="50.05595" lon="5.69161">
        <ele>467.0</ele>
      </trkpt>
      <trkpt lat="50.05704" lon="5.69153">
        <ele>476.0</ele>
      </trkpt>
      <trkpt lat="50.05812" lon="5.6888">
        <ele>466.0</ele>
      </trkpt>
      <trkpt lat="50.05974" lon="5.68663">
        <ele>448.0</ele>
      </trkpt>
      <trkpt lat="50.06547" lon="5.68213">
        <ele>464.0</ele>
      </trkpt>
      <trkpt lat="50.0686" lon="5.67865">
        <ele>472.0</ele>
      </trkpt>
      <trkpt lat="50.07212" lon="5.67524">
        <ele>456.0</ele>
      </trkpt>
      <trkpt lat="50.07646" lon="5.67053">
        <ele>443.0</ele>
      </trkpt>
      <trkpt lat="50.07919" lon="5.66605">
        <ele>436.0</ele>
      </trkpt>
      <trkpt lat="50.08019" lon="5.66491">
        <ele>434.0</ele>
      </trkpt>
      <trkpt lat="50.08061" lon="5.66498">
        <ele>434.0</ele>
      </trkpt>
      <trkpt lat="50.0812" lon="5.66511">
        <ele>434.0</ele>
      </trkpt>
      <trkpt lat="50.08312" lon="5.66709">
        <ele>430.0</ele>
      </trkpt>
      <trkpt lat="50.08482" lon="5.66816">
        <ele>425.0</ele>
      </trkpt>
      <trkpt lat="50.08527" lon="5.66932">
        <ele>423.0</ele>
      </trkpt>
      <trkpt lat="50.08579" lon="5.67044">
        <ele>417.0</ele>
      </trkpt>
      <trkpt lat="50.08642" lon="5.66966">
        <ele>413.0</ele>
      </trkpt>
      <trkpt lat="50.08772" lon="5.66969">
        <ele>407.0</ele>
      </trkpt>
      <trkpt lat="50.08977" lon="5.67196">
        <ele>399.0</ele>
      </trkpt>
      <trkpt lat="50.09099" lon="5.6743">
        <ele>392.0</ele>
      </trkpt>
      <trkpt lat="50.09166" lon="5.67496">
        <ele>391.0</ele>
      </trkpt>
      <trkpt lat="50.09251" lon="5.67505">
        <ele>391.0</ele>
      </trkpt>
      <trkpt lat="50.09344" lon="5.67433">
        <ele>393.0</ele>
      </trkpt>
      <trkpt lat="50.09448" lon="5.67455">
        <ele>394.0</ele>
      </trkpt>
      <trkpt lat="50.09591" lon="5.67502">
        <ele>395.0</ele>
      </trkpt>
      <trkpt lat="50.09728" lon="5.67596">
        <ele>384.0</ele>
      </trkpt>
      <trkpt lat="50.0977" lon="5.67607">
        <ele>377.0</ele>
      </trkpt>
      <trkpt lat="50.09791" lon="5.67564">
        <ele>376.0</ele>
      </trkpt>
      <trkpt lat="50.0981" lon="5.67445">
        <ele>379.0</ele>
      </trkpt>
      <trkpt lat="50.09951" lon="5.67319">
        <ele>381.0</ele>
      </trkpt>
      <trkpt lat="50.10115" lon="5.67359">
        <ele>370.0</ele>
      </trkpt>
      <trkpt lat="50.10315" lon="5.67156">
        <ele>361.0</ele>
      </trkpt>
      <trkpt lat="50.10386" lon="5.66665">
        <ele>348.0</ele>
      </trkpt>
      <trkpt lat="50.10517" lon="5.66289">
        <ele>329.0</ele>
      </trkpt>
      <trkpt lat="50.1056" lon="5.65919">
        <ele>315.0</ele>
      </trkpt>
      <trkpt lat="50.10385" lon="5.65787">
        <ele>315.0</ele>
      </trkpt>
      <trkpt lat="50.10271" lon="5.6546">
        <ele>326.0</ele>
      </trkpt>
      <trkpt lat="50.10378" lon="5.65227">
        <ele>322.0</ele>
      </trkpt>
      <trkpt lat="50.10652" lon="5.65228">
        <ele>309.0</ele>
      </trkpt>
      <trkpt lat="50.10774" lon="5.65182">
        <ele>306.0</ele>
      </trkpt>
      <trkpt lat="50.10835" lon="5.65014">
        <ele>307.0</ele>
      </trkpt>
      <trkpt lat="50.10786" lon="5.64804">
        <ele>307.0</ele>
      </trkpt>
      <trkpt lat="50.10604" lon="5.64518">
        <ele>306.0</ele>
      </trkpt>
      <trkpt lat="50.10306" lon="5.64454">
        <ele>307.0</ele>
      </trkpt>
      <trkpt lat="50.10273" lon="5.64258">
        <ele>311.0</ele>
      </trkpt>
      <trkpt lat="50.10437" lon="5.64096">
        <ele>318.0</ele>
      </trkpt>
      <trkpt lat="50.10571" lon="5.63757">
        <ele>338.0</ele>
      </trkpt>
      <trkpt lat="50.1071" lon="5.63274">
        <ele>348.0</ele>
      </trkpt>
      <trkpt lat="50.11215" lon="5.62851">
        <ele>368.0</ele>
      </trkpt>
      <trkpt lat="50.11369" lon="5.62886">
        <ele>374.0</ele>
      </trkpt>
      <trkpt lat="50.11492" lon="5.62683">
        <ele>383.0</ele>
      </trkpt>
      <trkpt lat="50.11749" lon="5.62373">
        <ele>389.0</ele>
      </trkpt>
      <trkpt lat="50.11952" lon="5.62169">
        <ele>396.0</ele>
      </trkpt>
      <trkpt lat="50.12361" lon="5.61758">
        <ele>405.0</ele>
      </trkpt>
      <trkpt lat="50.1251" lon="5.61526">
        <ele>412.0</ele>
      </trkpt>
      <trkpt lat="50.12536" lon="5.615">
        <ele>414.0</ele>
      </trkpt>
      <trkpt lat="50.12658" lon="5.61518">
        <ele>418.0</ele>
      </trkpt>
      <trkpt lat="50.12918" lon="5.61778">
        <ele>429.0</ele>
      </trkpt>
      <trkpt lat="50.1315" lon="5.61844">
        <ele>432.0</ele>
      </trkpt>
      <trkpt lat="50.135" lon="5.62074">
        <ele>434.0</ele>
      </trkpt>
      <trkpt lat="50.13722" lon="5.62279">
        <ele>430.0</ele>
      </trkpt>
      <trkpt lat="50.13862" lon="5.62189">
        <ele>422.0</ele>
      </trkpt>
      <trkpt lat="50.14677" lon="5.61777">
        <ele>396.0</ele>
      </trkpt>
      <trkpt lat="50.14989" lon="5.61578">
        <ele>395.0</ele>
      </trkpt>
      <trkpt lat="50.15398" lon="5.6134">
        <ele>396.0</ele>
      </trkpt>
      <trkpt lat="50.15675" lon="5.61109">
        <ele>382.0</ele>
      </trkpt>
      <trkpt lat="50.15836" lon="5.60812">
        <ele>377.0</ele>
      </trkpt>
      <trkpt lat="50.16081" lon="5.60318">
        <ele>384.0</ele>
      </trkpt>
      <trkpt lat="50.16195" lon="5.6017">
        <ele>389.0</ele>
      </trkpt>
      <trkpt lat="50.16528" lon="5.59661">
        <ele>388.0</ele>
      </trkpt>
      <trkpt lat="50.16617" lon="5.5958">
        <ele>381.0</ele>
      </trkpt>
      <trkpt lat="50.16601" lon="5.59413">
        <ele>371.0</ele>
      </trkpt>
      <trkpt lat="50.16554" lon="5.59241">
        <ele>359.0</ele>
      </trkpt>
      <trkpt lat="50.16668" lon="5.59122">
        <ele>351.0</ele>
      </trkpt>
      <trkpt lat="50.16774" lon="5.59025">
        <ele>340.0</ele>
      </trkpt>
      <trkpt lat="50.16754" lon="5.58823">
        <ele>329.0</ele>
      </trkpt>
      <trkpt lat="50.16811" lon="5.58668">
        <ele>319.0</ele>
      </trkpt>
      <trkpt lat="50.16901" lon="5.58617">
        <ele>310.0</ele>
      </trkpt>
      <trkpt lat="50.17038" lon="5.58415">
        <ele>299.0</ele>
      </trkpt>
      <trkpt lat="50.17365" lon="5.58243">
        <ele>286.0</ele>
      </trkpt>
      <trkpt lat="50.17526" lon="5.58134">
        <ele>274.0</ele>
      </trkpt>
      <trkpt lat="50.1764" lon="5.57802">
        <ele>251.0</ele>
      </trkpt>
      <trkpt lat="50.17786" lon="5.57741">
        <ele>236.0</ele>
      </trkpt>
      <trkpt lat="50.17946" lon="5.57722">
        <ele>226.0</ele>
      </trkpt>
      <trkpt lat="50.18002" lon="5.57619">
        <ele>222.0</ele>
      </trkpt>
      <trkpt lat="50.18064" lon="5.57595">
        <ele>221.0</ele>
      </trkpt>
      <trkpt lat="50.18118" lon="5.57574">
        <ele>220.0</ele>
      </trkpt>
      <trkpt lat="50.18151" lon="5.57685">
        <ele>222.0</ele>
      </trkpt>
      <trkpt lat="50.1823" lon="5.57966">
        <ele>226.0</ele>
      </trkpt>
      <trkpt lat="50.1821" lon="5.5827">
        <ele>230.0</ele>
      </trkpt>
      <trkpt lat="50.18064" lon="5.58385">
        <ele>230.0</ele>
      </trkpt>
      <trkpt lat="50.17942" lon="5.58383">
        <ele>227.0</ele>
      </trkpt>
      <trkpt lat="50.17778" lon="5.58392">
        <ele>226.0</ele>
      </trkpt>
      <trkpt lat="50.17692" lon="5.58524">
        <ele>226.0</ele>
      </trkpt>
      <trkpt lat="50.17808" lon="5.58693">
        <ele>232.0</ele>
      </trkpt>
      <trkpt lat="50.17943" lon="5.5879">
        <ele>246.0</ele>
      </trkpt>
      <trkpt lat="50.18096" lon="5.58873">
        <ele>260.0</ele>
      </trkpt>
      <trkpt lat="50.183" lon="5.59144">
        <ele>277.0</ele>
      </trkpt>
      <trkpt lat="50.18442" lon="5.59349">
        <ele>295.0</ele>
      </trkpt>
      <trkpt lat="50.18634" lon="5.59457">
        <ele>307.0</ele>
      </trkpt>
      <trkpt lat="50.18807" lon="5.59489">
        <ele>310.0</ele>
      </trkpt>
      <trkpt lat="50.19044" lon="5.59425">
        <ele>321.0</ele>
      </trkpt>
      <trkpt lat="50.19277" lon="5.59576">
        <ele>336.0</ele>
      </trkpt>
      <trkpt lat="50.19623" lon="5.59998">
        <ele>362.0</ele>
      </trkpt>
      <trkpt lat="50.19943" lon="5.60254">
        <ele>406.0</ele>
      </trkpt>
      <trkpt lat="50.2014" lon="5.60495">
        <ele>443.0</ele>
      </trkpt>
      <trkpt lat="50.20332" lon="5.60738">
        <ele>474.0</ele>
      </trkpt>
      <trkpt lat="50.20491" lon="5.60917">
        <ele>492.0</ele>
      </trkpt>
      <trkpt lat="50.20565" lon="5.61">
        <ele>503.0</ele>
      </trkpt>
      <trkpt lat="50.20667" lon="5.60813">
        <ele>507.0</ele>
      </trkpt>
      <trkpt lat="50.20598" lon="5.60217">
        <ele>493.0</ele>
      </trkpt>
      <trkpt lat="50.20665" lon="5.5995">
        <ele>484.0</ele>
      </trkpt>
      <trkpt lat="50.20674" lon="5.59635">
        <ele>472.0</ele>
      </trkpt>
      <trkpt lat="50.2065" lon="5.59354">
        <ele>447.0</ele>
      </trkpt>
      <trkpt lat="50.20886" lon="5.59604">
        <ele>430.0</ele>
      </trkpt>
      <trkpt lat="50.20909" lon="5.59945">
        <ele>426.0</ele>
      </trkpt>
      <trkpt lat="50.20889" lon="5.60205">
        <ele>434.0</ele>
      </trkpt>
      <trkpt lat="50.20961" lon="5.60274">
        <ele>434.0</ele>
      </trkpt>
      <trkpt lat="50.21039" lon="5.6009">
        <ele>438.0</ele>
      </trkpt>
      <trkpt lat="50.21162" lon="5.60104">
        <ele>444.0</ele>
      </trkpt>
      <trkpt lat="50.21292" lon="5.60187">
        <ele>453.0</ele>
      </trkpt>
      <trkpt lat="50.21415" lon="5.60237">
        <ele>460.0</ele>
      </trkpt>
      <trkpt lat="50.21537" lon="5.60487">
        <ele>469.0</ele>
      </trkpt>
      <trkpt lat="50.21596" lon="5.60763">
        <ele>480.0</ele>
      </trkpt>
      <trkpt lat="50.21492" lon="5.61304">
        <ele>495.0</ele>
      </trkpt>
      <trkpt lat="50.21343" lon="5.61477">
        <ele>501.0</ele>
      </trkpt>
      <trkpt lat="50.21285" lon="5.61656">
        <ele>506.0</ele>
      </trkpt>
      <trkpt lat="50.21247" lon="5.61958">
        <ele>520.0</ele>
      </trkpt>
      <trkpt lat="50.21067" lon="5.62191">
        <ele>530.0</ele>
      </trkpt>
      <trkpt lat="50.21008" lon="5.62453">
        <ele>533.0</ele>
      </trkpt>
      <trkpt lat="50.21102" lon="5.63362">
        <ele>542.0</ele>
      </trkpt>
      <trkpt lat="50.21368" lon="5.6449">
        <ele>549.0</ele>
      </trkpt>
      <trkpt lat="50.21696" lon="5.6582">
        <ele>573.0</ele>
      </trkpt>
      <trkpt lat="50.22276" lon="5.66972">
        <ele>582.0</ele>
      </trkpt>
      <trkpt lat="50.22554" lon="5.68056">
        <ele>601.0</ele>
      </trkpt>
      <trkpt lat="50.22655" lon="5.69398">
        <ele>620.0</ele>
      </trkpt>
      <trkpt lat="50.22808" lon="5.69719">
        <ele>627.0</ele>
      </trkpt>
      <trkpt lat="50.23709" lon="5.71198">
        <ele>639.0</ele>
      </trkpt>
      <trkpt lat="50.24181" lon="5.71978">
        <ele>628.0</ele>
      </trkpt>
      <trkpt lat="50.24761" lon="5.7296">
        <ele>645.0</ele>
      </trkpt>
      <trkpt lat="50.2485" lon="5.73203">
        <ele>648.0</ele>
      </trkpt>
      <trkpt lat="50.2491" lon="5.73569">
        <ele>646.0</ele>
      </trkpt>
      <trkpt lat="50.24914" lon="5.73748">
        <ele>640.0</ele>
      </trkpt>
      <trkpt lat="50.24917" lon="5.73777">
        <ele>639.0</ele>
      </trkpt>
      <trkpt lat="50.24911" lon="5.73817">
        <ele>638.0</ele>
      </trkpt>
      <trkpt lat="50.24899" lon="5.73845">
        <ele>637.0</ele>
      </trkpt>
      <trkpt lat="50.24905" lon="5.7387">
        <ele>636.0</ele>
      </trkpt>
      <trkpt lat="50.24909" lon="5.74497">
        <ele>631.0</ele>
      </trkpt>
      <trkpt lat="50.24904" lon="5.75538">
        <ele>609.0</ele>
      </trkpt>
      <trkpt lat="50.25219" lon="5.77559">
        <ele>575.0</ele>
      </trkpt>
      <trkpt lat="50.25323" lon="5.7835">
        <ele>545.0</ele>
      </trkpt>
      <trkpt lat="50.25153" lon="5.79583">
        <ele>531.0</ele>
      </trkpt>
      <trkpt lat="50.25167" lon="5.80305">
        <ele>521.0</ele>
      </trkpt>
      <trkpt lat="50.25266" lon="5.8118">
        <ele>504.0</ele>
      </trkpt>
      <trkpt lat="50.25447" lon="5.81414">
        <ele>500.0</ele>
      </trkpt>
      <trkpt lat="50.25623" lon="5.81631">
        <ele>502.0</ele>
      </trkpt>
      <trkpt lat="50.25755" lon="5.82053">
        <ele>506.0</ele>
      </trkpt>
      <trkpt lat="50.26171" lon="5.82657">
        <ele>495.0</ele>
      </trkpt>
      <trkpt lat="50.26237" lon="5.82809">
        <ele>490.0</ele>
      </trkpt>
      <trkpt lat="50.26275" lon="5.83201">
        <ele>482.0</ele>
      </trkpt>
      <trkpt lat="50.26131" lon="5.83981">
        <ele>465.0</ele>
      </trkpt>
      <trkpt lat="50.26303" lon="5.84298">
        <ele>458.0</ele>
      </trkpt>
      <trkpt lat="50.26334" lon="5.84708">
        <ele>452.0</ele>
      </trkpt>
      <trkpt lat="50.26523" lon="5.85246">
        <ele>442.0</ele>
      </trkpt>
      <trkpt lat="50.26762" lon="5.85894">
        <ele>435.0</ele>
      </trkpt>
      <trkpt lat="50.2684" lon="5.87039">
        <ele>426.0</ele>
      </trkpt>
      <trkpt lat="50.26837" lon="5.88216">
        <ele>411.0</ele>
      </trkpt>
      <trkpt lat="50.26813" lon="5.88526">
        <ele>411.0</ele>
      </trkpt>
      <trkpt lat="50.26832" lon="5.88832">
        <ele>407.0</ele>
      </trkpt>
      <trkpt lat="50.26791" lon="5.89078">
        <ele>402.0</ele>
      </trkpt>
      <trkpt lat="50.26797" lon="5.89394">
        <ele>396.0</ele>
      </trkpt>
      <trkpt lat="50.26776" lon="5.89755">
        <ele>390.0</ele>
      </trkpt>
      <trkpt lat="50.26716" lon="5.89923">
        <ele>386.0</ele>
      </trkpt>
      <trkpt lat="50.26669" lon="5.9024">
        <ele>382.0</ele>
      </trkpt>
      <trkpt lat="50.26625" lon="5.90413">
        <ele>380.0</ele>
      </trkpt>
      <trkpt lat="50.26587" lon="5.90541">
        <ele>376.0</ele>
      </trkpt>
      <trkpt lat="50.26673" lon="5.90686">
        <ele>375.0</ele>
      </trkpt>
      <trkpt lat="50.2677" lon="5.90839">
        <ele>376.0</ele>
      </trkpt>
      <trkpt lat="50.26883" lon="5.90915">
        <ele>382.0</ele>
      </trkpt>
      <trkpt lat="50.27161" lon="5.90744">
        <ele>377.0</ele>
      </trkpt>
      <trkpt lat="50.27273" lon="5.90753">
        <ele>373.0</ele>
      </trkpt>
      <trkpt lat="50.2757" lon="5.91071">
        <ele>366.0</ele>
      </trkpt>
      <trkpt lat="50.27766" lon="5.91094">
        <ele>366.0</ele>
      </trkpt>
      <trkpt lat="50.27931" lon="5.91133">
        <ele>366.0</ele>
      </trkpt>
      <trkpt lat="50.28251" lon="5.9135">
        <ele>372.0</ele>
      </trkpt>
      <trkpt lat="50.28383" lon="5.91479">
        <ele>367.0</ele>
      </trkpt>
      <trkpt lat="50.28504" lon="5.91627">
        <ele>372.0</ele>
      </trkpt>
      <trkpt lat="50.28573" lon="5.91729">
        <ele>375.0</ele>
      </trkpt>
      <trkpt lat="50.28725" lon="5.91589">
        <ele>372.0</ele>
      </trkpt>
      <trkpt lat="50.28739" lon="5.91508">
        <ele>366.0</ele>
      </trkpt>
      <trkpt lat="50.28777" lon="5.91449">
        <ele>362.0</ele>
      </trkpt>
      <trkpt lat="50.28846" lon="5.91459">
        <ele>358.0</ele>
      </trkpt>
      <trkpt lat="50.28931" lon="5.91523">
        <ele>353.0</ele>
      </trkpt>
      <trkpt lat="50.29011" lon="5.91538">
        <ele>352.0</ele>
      </trkpt>
      <trkpt lat="50.29115" lon="5.91441">
        <ele>352.0</ele>
      </trkpt>
      <trkpt lat="50.29212" lon="5.9119">
        <ele>352.0</ele>
      </trkpt>
      <trkpt lat="50.29303" lon="5.90754">
        <ele>352.0</ele>
      </trkpt>
      <trkpt lat="50.29548" lon="5.90454">
        <ele>349.0</ele>
      </trkpt>
      <trkpt lat="50.29683" lon="5.90299">
        <ele>349.0</ele>
      </trkpt>
      <trkpt lat="50.29825" lon="5.90258">
        <ele>346.0</ele>
      </trkpt>
      <trkpt lat="50.29903" lon="5.90449">
        <ele>345.0</ele>
      </trkpt>
      <trkpt lat="50.29991" lon="5.90948">
        <ele>347.0</ele>
      </trkpt>
      <trkpt lat="50.30142" lon="5.9115">
        <ele>337.0</ele>
      </trkpt>
      <trkpt lat="50.30418" lon="5.91111">
        <ele>333.0</ele>
      </trkpt>
      <trkpt lat="50.30629" lon="5.91081">
        <ele>332.0</ele>
      </trkpt>
      <trkpt lat="50.30784" lon="5.91096">
        <ele>333.0</ele>
      </trkpt>
      <trkpt lat="50.30981" lon="5.90852">
        <ele>331.0</ele>
      </trkpt>
      <trkpt lat="50.3106" lon="5.90611">
        <ele>329.0</ele>
      </trkpt>
      <trkpt lat="50.31165" lon="5.9061">
        <ele>327.0</ele>
      </trkpt>
      <trkpt lat="50.31516" lon="5.90805">
        <ele>326.0</ele>
      </trkpt>
      <trkpt lat="50.31803" lon="5.90847">
        <ele>328.0</ele>
      </trkpt>
      <trkpt lat="50.32" lon="5.90942">
        <ele>328.0</ele>
      </trkpt>
      <trkpt lat="50.32394" lon="5.90921">
        <ele>322.0</ele>
      </trkpt>
      <trkpt lat="50.32518" lon="5.90809">
        <ele>316.0</ele>
      </trkpt>
      <trkpt lat="50.32614" lon="5.90785">
        <ele>318.0</ele>
      </trkpt>
      <trkpt lat="50.32645" lon="5.91057">
        <ele>328.0</ele>
      </trkpt>
      <trkpt lat="50.32665" lon="5.91183">
        <ele>334.0</ele>
      </trkpt>
      <trkpt lat="50.32694" lon="5.91345">
        <ele>341.0</ele>
      </trkpt>
      <trkpt lat="50.32734" lon="5.9143">
        <ele>349.0</ele>
      </trkpt>
      <trkpt lat="50.32778" lon="5.91521">
        <ele>359.0</ele>
      </trkpt>
      <trkpt lat="50.32814" lon="5.91615">
        <ele>361.0</ele>
      </trkpt>
      <trkpt lat="50.32918" lon="5.91718">
        <ele>362.0</ele>
      </trkpt>
      <trkpt lat="50.33067" lon="5.91838">
        <ele>353.0</ele>
      </trkpt>
      <trkpt lat="50.33195" lon="5.91922">
        <ele>341.0</ele>
      </trkpt>
      <trkpt lat="50.33284" lon="5.91963">
        <ele>333.0</ele>
      </trkpt>
      <trkpt lat="50.33368" lon="5.92012">
        <ele>332.0</ele>
      </trkpt>
      <trkpt lat="50.33442" lon="5.92012">
        <ele>332.0</ele>
      </trkpt>
      <trkpt lat="50.33755" lon="5.92179">
        <ele>360.0</ele>
      </trkpt>
      <trkpt lat="50.33899" lon="5.92261">
        <ele>372.0</ele>
      </trkpt>
      <trkpt lat="50.33983" lon="5.92228">
        <ele>378.0</ele>
      </trkpt>
      <trkpt lat="50.34103" lon="5.92223">
        <ele>389.0</ele>
      </trkpt>
      <trkpt lat="50.34196" lon="5.92232">
        <ele>401.0</ele>
      </trkpt>
      <trkpt lat="50.34391" lon="5.92202">
        <ele>424.0</ele>
      </trkpt>
      <trkpt lat="50.34523" lon="5.92113">
        <ele>447.0</ele>
      </trkpt>
      <trkpt lat="50.34576" lon="5.92199">
        <ele>460.0</ele>
      </trkpt>
      <trkpt lat="50.34608" lon="5.9236">
        <ele>473.0</ele>
      </trkpt>
      <trkpt lat="50.34666" lon="5.92338">
        <ele>481.0</ele>
      </trkpt>
      <trkpt lat="50.34733" lon="5.92244">
        <ele>484.0</ele>
      </trkpt>
      <trkpt lat="50.34787" lon="5.92098">
        <ele>488.0</ele>
      </trkpt>
      <trkpt lat="50.3486" lon="5.92021">
        <ele>493.0</ele>
      </trkpt>
      <trkpt lat="50.34962" lon="5.91956">
        <ele>498.0</ele>
      </trkpt>
      <trkpt lat="50.35051" lon="5.91971">
        <ele>494.0</ele>
      </trkpt>
      <trkpt lat="50.35229" lon="5.92002">
        <ele>485.0</ele>
      </trkpt>
      <trkpt lat="50.35284" lon="5.91988">
        <ele>480.0</ele>
      </trkpt>
      <trkpt lat="50.35353" lon="5.91977">
        <ele>479.0</ele>
      </trkpt>
      <trkpt lat="50.35495" lon="5.92023">
        <ele>480.0</ele>
      </trkpt>
      <trkpt lat="50.35532" lon="5.92044">
        <ele>476.0</ele>
      </trkpt>
      <trkpt lat="50.35539" lon="5.92048">
        <ele>476.0</ele>
      </trkpt>
      <trkpt lat="50.35545" lon="5.9204">
        <ele>475.0</ele>
      </trkpt>
      <trkpt lat="50.35595" lon="5.92033">
        <ele>473.0</ele>
      </trkpt>
      <trkpt lat="50.35784" lon="5.91988">
        <ele>459.0</ele>
      </trkpt>
      <trkpt lat="50.35915" lon="5.91999">
        <ele>448.0</ele>
      </trkpt>
      <trkpt lat="50.36055" lon="5.9192">
        <ele>441.0</ele>
      </trkpt>
      <trkpt lat="50.36157" lon="5.91832">
        <ele>418.0</ele>
      </trkpt>
      <trkpt lat="50.36177" lon="5.91856">
        <ele>409.0</ele>
      </trkpt>
      <trkpt lat="50.36173" lon="5.91991">
        <ele>401.0</ele>
      </trkpt>
      <trkpt lat="50.36193" lon="5.92094">
        <ele>392.0</ele>
      </trkpt>
      <trkpt lat="50.36329" lon="5.92094">
        <ele>380.0</ele>
      </trkpt>
      <trkpt lat="50.36491" lon="5.92156">
        <ele>357.0</ele>
      </trkpt>
      <trkpt lat="50.36535" lon="5.92259">
        <ele>343.0</ele>
      </trkpt>
      <trkpt lat="50.36531" lon="5.92399">
        <ele>338.0</ele>
      </trkpt>
      <trkpt lat="50.36596" lon="5.92309">
        <ele>335.0</ele>
      </trkpt>
      <trkpt lat="50.36678" lon="5.92259">
        <ele>333.0</ele>
      </trkpt>
      <trkpt lat="50.36792" lon="5.92178">
        <ele>331.0</ele>
      </trkpt>
      <trkpt lat="50.36913" lon="5.92122">
        <ele>334.0</ele>
      </trkpt>
      <trkpt lat="50.36977" lon="5.92092">
        <ele>336.0</ele>
      </trkpt>
      <trkpt lat="50.37048" lon="5.91997">
        <ele>339.0</ele>
      </trkpt>
      <trkpt lat="50.37083" lon="5.91915">
        <ele>341.0</ele>
      </trkpt>
      <trkpt lat="50.37153" lon="5.91836">
        <ele>345.0</ele>
      </trkpt>
      <trkpt lat="50.37254" lon="5.91806">
        <ele>350.0</ele>
      </trkpt>
      <trkpt lat="50.37379" lon="5.91816">
        <ele>348.0</ele>
      </trkpt>
      <trkpt lat="50.37468" lon="5.91809">
        <ele>347.0</ele>
      </trkpt>
      <trkpt lat="50.37536" lon="5.91825">
        <ele>349.0</ele>
      </trkpt>
      <trkpt lat="50.37576" lon="5.91847">
        <ele>351.0</ele>
      </trkpt>
      <trkpt lat="50.37619" lon="5.91877">
        <ele>352.0</ele>
      </trkpt>
      <trkpt lat="50.37669" lon="5.91922">
        <ele>350.0</ele>
      </trkpt>
      <trkpt lat="50.37711" lon="5.91995">
        <ele>346.0</ele>
      </trkpt>
      <trkpt lat="50.37738" lon="5.9205">
        <ele>343.0</ele>
      </trkpt>
      <trkpt lat="50.37772" lon="5.92124">
        <ele>343.0</ele>
      </trkpt>
      <trkpt lat="50.37801" lon="5.92182">
        <ele>343.0</ele>
      </trkpt>
      <trkpt lat="50.3787" lon="5.92271">
        <ele>343.0</ele>
      </trkpt>
      <trkpt lat="50.37948" lon="5.92342">
        <ele>345.0</ele>
      </trkpt>
      <trkpt lat="50.38049" lon="5.92429">
        <ele>346.0</ele>
      </trkpt>
      <trkpt lat="50.38106" lon="5.92479">
        <ele>345.0</ele>
      </trkpt>
      <trkpt lat="50.3817" lon="5.92538">
        <ele>344.0</ele>
      </trkpt>
      <trkpt lat="50.38232" lon="5.92632">
        <ele>344.0</ele>
      </trkpt>
      <trkpt lat="50.38257" lon="5.92679">
        <ele>344.0</ele>
      </trkpt>
      <trkpt lat="50.38282" lon="5.92728">
        <ele>344.0</ele>
      </trkpt>
      <trkpt lat="50.38307" lon="5.92768">
        <ele>343.0</ele>
      </trkpt>
      <trkpt lat="50.38335" lon="5.9284">
        <ele>338.0</ele>
      </trkpt>
      <trkpt lat="50.38378" lon="5.92883">
        <ele>331.0</ele>
      </trkpt>
      <trkpt lat="50.38409" lon="5.92943">
        <ele>325.0</ele>
      </trkpt>
      <trkpt lat="50.38433" lon="5.93029">
        <ele>317.0</ele>
      </trkpt>
      <trkpt lat="50.38461" lon="5.93085">
        <ele>312.0</ele>
      </trkpt>
      <trkpt lat="50.38495" lon="5.93102">
        <ele>307.0</ele>
      </trkpt>
      <trkpt lat="50.38539" lon="5.9308">
        <ele>302.0</ele>
      </trkpt>
      <trkpt lat="50.38569" lon="5.93094">
        <ele>299.0</ele>
      </trkpt>
      <trkpt lat="50.3863" lon="5.93175">
        <ele>299.0</ele>
      </trkpt>
      <trkpt lat="50.3871" lon="5.93195">
        <ele>298.0</ele>
      </trkpt>
      <trkpt lat="50.38835" lon="5.93172">
        <ele>294.0</ele>
      </trkpt>
      <trkpt lat="50.38979" lon="5.93177">
        <ele>288.0</ele>
      </trkpt>
      <trkpt lat="50.39105" lon="5.93208">
        <ele>280.0</ele>
      </trkpt>
      <trkpt lat="50.39107" lon="5.93303">
        <ele>288.0</ele>
      </trkpt>
      <trkpt lat="50.39021" lon="5.93376">
        <ele>298.0</ele>
      </trkpt>
      <trkpt lat="50.38987" lon="5.93394">
        <ele>306.0</ele>
      </trkpt>
      <trkpt lat="50.3886" lon="5.93377">
        <ele>318.0</ele>
      </trkpt>
      <trkpt lat="50.38779" lon="5.93401">
        <ele>330.0</ele>
      </trkpt>
      <trkpt lat="50.38691" lon="5.93431">
        <ele>342.0</ele>
      </trkpt>
      <trkpt lat="50.38615" lon="5.93506">
        <ele>355.0</ele>
      </trkpt>
      <trkpt lat="50.38572" lon="5.93536">
        <ele>367.0</ele>
      </trkpt>
      <trkpt lat="50.3847" lon="5.93589">
        <ele>384.0</ele>
      </trkpt>
      <trkpt lat="50.38389" lon="5.9364">
        <ele>398.0</ele>
      </trkpt>
      <trkpt lat="50.38328" lon="5.93726">
        <ele>407.0</ele>
      </trkpt>
      <trkpt lat="50.38416" lon="5.93717">
        <ele>402.0</ele>
      </trkpt>
      <trkpt lat="50.38512" lon="5.93718">
        <ele>394.0</ele>
      </trkpt>
      <trkpt lat="50.38583" lon="5.93712">
        <ele>386.0</ele>
      </trkpt>
      <trkpt lat="50.38672" lon="5.93728">
        <ele>375.0</ele>
      </trkpt>
      <trkpt lat="50.38785" lon="5.93806">
        <ele>367.0</ele>
      </trkpt>
      <trkpt lat="50.38852" lon="5.93878">
        <ele>358.0</ele>
      </trkpt>
      <trkpt lat="50.38921" lon="5.93889">
        <ele>347.0</ele>
      </trkpt>
      <trkpt lat="50.39039" lon="5.93911">
        <ele>329.0</ele>
      </trkpt>
      <trkpt lat="50.39096" lon="5.93869">
        <ele>319.0</ele>
      </trkpt>
      <trkpt lat="50.39141" lon="5.93566">
        <ele>299.0</ele>
      </trkpt>
      <trkpt lat="50.39155" lon="5.93456">
        <ele>287.0</ele>
      </trkpt>
      <trkpt lat="50.39155" lon="5.93255">
        <ele>280.0</ele>
      </trkpt>
      <trkpt lat="50.39175" lon="5.93186">
        <ele>276.0</ele>
      </trkpt>
      <trkpt lat="50.39232" lon="5.93111">
        <ele>279.0</ele>
      </trkpt>
      <trkpt lat="50.39317" lon="5.93074">
        <ele>283.0</ele>
      </trkpt>
      <trkpt lat="50.39499" lon="5.9321">
        <ele>292.0</ele>
      </trkpt>
      <trkpt lat="50.39638" lon="5.93182">
        <ele>301.0</ele>
      </trkpt>
      <trkpt lat="50.39859" lon="5.93276">
        <ele>323.0</ele>
      </trkpt>
      <trkpt lat="50.39924" lon="5.93301">
        <ele>337.0</ele>
      </trkpt>
      <trkpt lat="50.39972" lon="5.93319">
        <ele>345.0</ele>
      </trkpt>
      <trkpt lat="50.40095" lon="5.93425">
        <ele>360.0</ele>
      </trkpt>
      <trkpt lat="50.4017" lon="5.93466">
        <ele>371.0</ele>
      </trkpt>
      <trkpt lat="50.40212" lon="5.93464">
        <ele>376.0</ele>
      </trkpt>
      <trkpt lat="50.4026" lon="5.93417">
        <ele>383.0</ele>
      </trkpt>
      <trkpt lat="50.40248" lon="5.93321">
        <ele>391.0</ele>
      </trkpt>
      <trkpt lat="50.40329" lon="5.93254">
        <ele>399.0</ele>
      </trkpt>
      <trkpt lat="50.40533" lon="5.93097">
        <ele>411.0</ele>
      </trkpt>
      <trkpt lat="50.40686" lon="5.92987">
        <ele>416.0</ele>
      </trkpt>
      <trkpt lat="50.4079" lon="5.92973">
        <ele>419.0</ele>
      </trkpt>
      <trkpt lat="50.41027" lon="5.9299">
        <ele>431.0</ele>
      </trkpt>
      <trkpt lat="50.41181" lon="5.93022">
        <ele>448.0</ele>
      </trkpt>
      <trkpt lat="50.4128" lon="5.93053">
        <ele>460.0</ele>
      </trkpt>
      <trkpt lat="50.41284" lon="5.93059">
        <ele>461.0</ele>
      </trkpt>
      <trkpt lat="50.41291" lon="5.93061">
        <ele>461.0</ele>
      </trkpt>
      <trkpt lat="50.41298" lon="5.93057">
        <ele>461.0</ele>
      </trkpt>
      <trkpt lat="50.41427" lon="5.93072">
        <ele>463.0</ele>
      </trkpt>
      <trkpt lat="50.41689" lon="5.9313">
        <ele>467.0</ele>
      </trkpt>
      <trkpt lat="50.41922" lon="5.93181">
        <ele>477.0</ele>
      </trkpt>
      <trkpt lat="50.42164" lon="5.93211">
        <ele>486.0</ele>
      </trkpt>
      <trkpt lat="50.42576" lon="5.93063">
        <ele>497.0</ele>
      </trkpt>
      <trkpt lat="50.42768" lon="5.92994">
        <ele>507.0</ele>
      </trkpt>
      <trkpt lat="50.42979" lon="5.92922">
        <ele>506.0</ele>
      </trkpt>
      <trkpt lat="50.43235" lon="5.92954">
        <ele>500.0</ele>
      </trkpt>
      <trkpt lat="50.43467" lon="5.93137">
        <ele>495.0</ele>
      </trkpt>
      <trkpt lat="50.43702" lon="5.93353">
        <ele>497.0</ele>
      </trkpt>
      <trkpt lat="50.44073" lon="5.9369">
        <ele>497.0</ele>
      </trkpt>
      <trkpt lat="50.44369" lon="5.93957">
        <ele>498.0</ele>
      </trkpt>
      <trkpt lat="50.44567" lon="5.94141">
        <ele>507.0</ele>
      </trkpt>
      <trkpt lat="50.44665" lon="5.94231">
        <ele>507.0</ele>
      </trkpt>
      <trkpt lat="50.4485" lon="5.94421">
        <ele>503.0</ele>
      </trkpt>
      <trkpt lat="50.4512" lon="5.94831">
        <ele>492.0</ele>
      </trkpt>
      <trkpt lat="50.4521" lon="5.94999">
        <ele>486.0</ele>
      </trkpt>
      <trkpt lat="50.45343" lon="5.95129">
        <ele>483.0</ele>
      </trkpt>
      <trkpt lat="50.45421" lon="5.95073">
        <ele>481.0</ele>
      </trkpt>
      <trkpt lat="50.45418" lon="5.94955">
        <ele>476.0</ele>
      </trkpt>
      <trkpt lat="50.45337" lon="5.94802">
        <ele>469.0</ele>
      </trkpt>
      <trkpt lat="50.45222" lon="5.94638">
        <ele>465.0</ele>
      </trkpt>
      <trkpt lat="50.44996" lon="5.94236">
        <ele>460.0</ele>
      </trkpt>
      <trkpt lat="50.44873" lon="5.93933">
        <ele>460.0</ele>
      </trkpt>
      <trkpt lat="50.44712" lon="5.93748">
        <ele>456.0</ele>
      </trkpt>
      <trkpt lat="50.44484" lon="5.93562">
        <ele>445.0</ele>
      </trkpt>
      <trkpt lat="50.44417" lon="5.93496">
        <ele>440.0</ele>
      </trkpt>
      <trkpt lat="50.44366" lon="5.93269">
        <ele>432.0</ele>
      </trkpt>
      <trkpt lat="50.44394" lon="5.93221">
        <ele>426.0</ele>
      </trkpt>
      <trkpt lat="50.44462" lon="5.93277">
        <ele>422.0</ele>
      </trkpt>
      <trkpt lat="50.44481" lon="5.93215">
        <ele>418.0</ele>
      </trkpt>
      <trkpt lat="50.44426" lon="5.93053">
        <ele>414.0</ele>
      </trkpt>
      <trkpt lat="50.44415" lon="5.92939">
        <ele>409.0</ele>
      </trkpt>
      <trkpt lat="50.44312" lon="5.92709">
        <ele>404.0</ele>
      </trkpt>
      <trkpt lat="50.4423" lon="5.92511">
        <ele>411.0</ele>
      </trkpt>
      <trkpt lat="50.44231" lon="5.92353">
        <ele>410.0</ele>
      </trkpt>
      <trkpt lat="50.44205" lon="5.9229">
        <ele>409.0</ele>
      </trkpt>
      <trkpt lat="50.44046" lon="5.92016">
        <ele>397.0</ele>
      </trkpt>
      <trkpt lat="50.43921" lon="5.91682">
        <ele>385.0</ele>
      </trkpt>
      <trkpt lat="50.4384" lon="5.91487">
        <ele>372.0</ele>
      </trkpt>
      <trkpt lat="50.43634" lon="5.91097">
        <ele>353.0</ele>
      </trkpt>
      <trkpt lat="50.43476" lon="5.90819">
        <ele>335.0</ele>
      </trkpt>
      <trkpt lat="50.4341" lon="5.90625">
        <ele>322.0</ele>
      </trkpt>
      <trkpt lat="50.43382" lon="5.90483">
        <ele>314.0</ele>
      </trkpt>
      <trkpt lat="50.43426" lon="5.90369">
        <ele>310.0</ele>
      </trkpt>
      <trkpt lat="50.43426" lon="5.90291">
        <ele>309.0</ele>
      </trkpt>
      <trkpt lat="50.43357" lon="5.9017">
        <ele>309.0</ele>
      </trkpt>
      <trkpt lat="50.43316" lon="5.90047">
        <ele>309.0</ele>
      </trkpt>
      <trkpt lat="50.43295" lon="5.89977">
        <ele>309.0</ele>
      </trkpt>
      <trkpt lat="50.43323" lon="5.90012">
        <ele>310.0</ele>
      </trkpt>
      <trkpt lat="50.43374" lon="5.90021">
        <ele>317.0</ele>
      </trkpt>
      <trkpt lat="50.43446" lon="5.90039">
        <ele>327.0</ele>
      </trkpt>
      <trkpt lat="50.43519" lon="5.90096">
        <ele>337.0</ele>
      </trkpt>
      <trkpt lat="50.43596" lon="5.90133">
        <ele>344.0</ele>
      </trkpt>
      <trkpt lat="50.43666" lon="5.90156">
        <ele>350.0</ele>
      </trkpt>
      <trkpt lat="50.43749" lon="5.90183">
        <ele>358.0</ele>
      </trkpt>
      <trkpt lat="50.43793" lon="5.90192">
        <ele>364.0</ele>
      </trkpt>
      <trkpt lat="50.43792" lon="5.90218">
        <ele>366.0</ele>
      </trkpt>
      <trkpt lat="50.43776" lon="5.90281">
        <ele>369.0</ele>
      </trkpt>
      <trkpt lat="50.438" lon="5.90306">
        <ele>370.0</ele>
      </trkpt>
      <trkpt lat="50.43841" lon="5.90287">
        <ele>372.0</ele>
      </trkpt>
      <trkpt lat="50.43886" lon="5.90217">
        <ele>374.0</ele>
      </trkpt>
      <trkpt lat="50.43927" lon="5.90199">
        <ele>377.0</ele>
      </trkpt>
      <trkpt lat="50.43995" lon="5.90226">
        <ele>381.0</ele>
      </trkpt>
      <trkpt lat="50.4404" lon="5.90173">
        <ele>384.0</ele>
      </trkpt>
      <trkpt lat="50.44086" lon="5.90093">
        <ele>390.0</ele>
      </trkpt>
      <trkpt lat="50.44149" lon="5.8997">
        <ele>400.0</ele>
      </trkpt>
      <trkpt lat="50.44221" lon="5.89861">
        <ele>407.0</ele>
      </trkpt>
      <trkpt lat="50.4424" lon="5.89788">
        <ele>409.0</ele>
      </trkpt>
      <trkpt lat="50.44089" lon="5.89636">
        <ele>411.0</ele>
      </trkpt>
      <trkpt lat="50.43968" lon="5.89516">
        <ele>416.0</ele>
      </trkpt>
      <trkpt lat="50.43848" lon="5.8937">
        <ele>425.0</ele>
      </trkpt>
      <trkpt lat="50.43821" lon="5.89229">
        <ele>433.0</ele>
      </trkpt>
      <trkpt lat="50.43934" lon="5.89075">
        <ele>446.0</ele>
      </trkpt>
      <trkpt lat="50.44013" lon="5.89051">
        <ele>456.0</ele>
      </trkpt>
      <trkpt lat="50.43965" lon="5.88866">
        <ele>464.0</ele>
      </trkpt>
      <trkpt lat="50.4397" lon="5.88505">
        <ele>479.0</ele>
      </trkpt>
      <trkpt lat="50.4405" lon="5.88392">
        <ele>487.0</ele>
      </trkpt>
      <trkpt lat="50.44155" lon="5.88389">
        <ele>493.0</ele>
      </trkpt>
      <trkpt lat="50.44428" lon="5.8839">
        <ele>509.0</ele>
      </trkpt>
      <trkpt lat="50.44531" lon="5.88128">
        <ele>520.0</ele>
      </trkpt>
      <trkpt lat="50.44651" lon="5.87789">
        <ele>535.0</ele>
      </trkpt>
      <trkpt lat="50.44758" lon="5.87631">
        <ele>545.0</ele>
      </trkpt>
      <trkpt lat="50.4491" lon="5.87925">
        <ele>556.0</ele>
      </trkpt>
      <trkpt lat="50.45023" lon="5.88019">
        <ele>561.0</ele>
      </trkpt>
      <trkpt lat="50.45148" lon="5.88076">
        <ele>564.0</ele>
      </trkpt>
      <trkpt lat="50.45241" lon="5.88112">
        <ele>564.0</ele>
      </trkpt>
      <trkpt lat="50.45336" lon="5.88147">
        <ele>563.0</ele>
      </trkpt>
      <trkpt lat="50.45429" lon="5.88169">
        <ele>561.0</ele>
      </trkpt>
      <trkpt lat="50.45554" lon="5.88196">
        <ele>556.0</ele>
      </trkpt>
      <trkpt lat="50.45714" lon="5.8823">
        <ele>548.0</ele>
      </trkpt>
      <trkpt lat="50.45813" lon="5.88251">
        <ele>542.0</ele>
      </trkpt>
      <trkpt lat="50.45861" lon="5.8822">
        <ele>539.0</ele>
      </trkpt>
      <trkpt lat="50.45911" lon="5.88108">
        <ele>533.0</ele>
      </trkpt>
      <trkpt lat="50.45909" lon="5.87868">
        <ele>523.0</ele>
      </trkpt>
      <trkpt lat="50.45939" lon="5.87703">
        <ele>516.0</ele>
      </trkpt>
      <trkpt lat="50.45974" lon="5.87502">
        <ele>507.0</ele>
      </trkpt>
      <trkpt lat="50.45991" lon="5.87168">
        <ele>500.0</ele>
      </trkpt>
      <trkpt lat="50.46003" lon="5.87029">
        <ele>494.0</ele>
      </trkpt>
      <trkpt lat="50.46083" lon="5.87021">
        <ele>486.0</ele>
      </trkpt>
      <trkpt lat="50.46272" lon="5.87166">
        <ele>470.0</ele>
      </trkpt>
      <trkpt lat="50.46339" lon="5.87191">
        <ele>462.0</ele>
      </trkpt>
      <trkpt lat="50.46321" lon="5.87061">
        <ele>459.0</ele>
      </trkpt>
      <trkpt lat="50.46304" lon="5.86923">
        <ele>456.0</ele>
      </trkpt>
      <trkpt lat="50.46294" lon="5.86726">
        <ele>447.0</ele>
      </trkpt>
      <trkpt lat="50.46284" lon="5.86472">
        <ele>436.0</ele>
      </trkpt>
      <trkpt lat="50.46277" lon="5.86246">
        <ele>430.0</ele>
      </trkpt>
      <trkpt lat="50.46271" lon="5.86077">
        <ele>422.0</ele>
      </trkpt>
      <trkpt lat="50.46266" lon="5.85936">
        <ele>418.0</ele>
      </trkpt>
      <trkpt lat="50.46273" lon="5.85795">
        <ele>418.0</ele>
      </trkpt>
      <trkpt lat="50.46296" lon="5.85576">
        <ele>414.0</ele>
      </trkpt>
      <trkpt lat="50.46293" lon="5.8546">
        <ele>409.0</ele>
      </trkpt>
      <trkpt lat="50.46282" lon="5.85291">
        <ele>406.0</ele>
      </trkpt>
      <trkpt lat="50.4627" lon="5.85095">
        <ele>405.0</ele>
      </trkpt>
      <trkpt lat="50.4625" lon="5.84854">
        <ele>405.0</ele>
      </trkpt>
      <trkpt lat="50.46249" lon="5.84715">
        <ele>400.0</ele>
      </trkpt>
      <trkpt lat="50.46281" lon="5.84643">
        <ele>395.0</ele>
      </trkpt>
      <trkpt lat="50.46384" lon="5.84485">
        <ele>390.0</ele>
      </trkpt>
      <trkpt lat="50.46468" lon="5.84485">
        <ele>389.0</ele>
      </trkpt>
      <trkpt lat="50.46782" lon="5.84575">
        <ele>389.0</ele>
      </trkpt>
      <trkpt lat="50.46864" lon="5.84528">
        <ele>389.0</ele>
      </trkpt>
      <trkpt lat="50.4697" lon="5.8465">
        <ele>388.0</ele>
      </trkpt>
      <trkpt lat="50.47094" lon="5.84671">
        <ele>386.0</ele>
      </trkpt>
      <trkpt lat="50.47171" lon="5.84631">
        <ele>385.0</ele>
      </trkpt>
      <trkpt lat="50.47305" lon="5.84541">
        <ele>383.0</ele>
      </trkpt>
      <trkpt lat="50.47431" lon="5.8464">
        <ele>382.0</ele>
      </trkpt>
      <trkpt lat="50.47626" lon="5.84835">
        <ele>376.0</ele>
      </trkpt>
      <trkpt lat="50.47712" lon="5.8492">
        <ele>371.0</ele>
      </trkpt>
      <trkpt lat="50.4794" lon="5.85297">
        <ele>361.0</ele>
      </trkpt>
      <trkpt lat="50.48066" lon="5.85507">
        <ele>345.0</ele>
      </trkpt>
      <trkpt lat="50.48342" lon="5.85645">
        <ele>327.0</ele>
      </trkpt>
      <trkpt lat="50.48489" lon="5.85682">
        <ele>309.0</ele>
      </trkpt>
      <trkpt lat="50.48622" lon="5.85789">
        <ele>296.0</ele>
      </trkpt>
      <trkpt lat="50.48779" lon="5.85926">
        <ele>282.0</ele>
      </trkpt>
      <trkpt lat="50.48867" lon="5.85905">
        <ele>278.0</ele>
      </trkpt>
      <trkpt lat="50.48891" lon="5.85816">
        <ele>274.0</ele>
      </trkpt>
      <trkpt lat="50.48872" lon="5.85565">
        <ele>270.0</ele>
      </trkpt>
      <trkpt lat="50.48836" lon="5.8526">
        <ele>268.0</ele>
      </trkpt>
      <trkpt lat="50.48791" lon="5.85151">
        <ele>266.0</ele>
      </trkpt>
      <trkpt lat="50.48735" lon="5.84981">
        <ele>265.0</ele>
      </trkpt>
      <trkpt lat="50.48734" lon="5.84876">
        <ele>264.0</ele>
      </trkpt>
      <trkpt lat="50.48798" lon="5.84808">
        <ele>261.0</ele>
      </trkpt>
      <trkpt lat="50.4883" lon="5.84764">
        <ele>258.0</ele>
      </trkpt>
      <trkpt lat="50.48848" lon="5.84675">
        <ele>254.0</ele>
      </trkpt>
      <trkpt lat="50.48835" lon="5.84562">
        <ele>250.0</ele>
      </trkpt>
      <trkpt lat="50.4881" lon="5.84352">
        <ele>246.0</ele>
      </trkpt>
      <trkpt lat="50.48738" lon="5.83874">
        <ele>244.0</ele>
      </trkpt>
      <trkpt lat="50.48726" lon="5.83735">
        <ele>243.0</ele>
      </trkpt>
      <trkpt lat="50.48731" lon="5.83612">
        <ele>242.0</ele>
      </trkpt>
      <trkpt lat="50.48752" lon="5.83475">
        <ele>242.0</ele>
      </trkpt>
      <trkpt lat="50.48779" lon="5.8336">
        <ele>241.0</ele>
      </trkpt>
      <trkpt lat="50.4883" lon="5.83266">
        <ele>236.0</ele>
      </trkpt>
      <trkpt lat="50.48878" lon="5.83247">
        <ele>232.0</ele>
      </trkpt>
      <trkpt lat="50.48932" lon="5.83136">
        <ele>227.0</ele>
      </trkpt>
      <trkpt lat="50.48989" lon="5.8309">
        <ele>223.0</ele>
      </trkpt>
      <trkpt lat="50.49035" lon="5.83061">
        <ele>221.0</ele>
      </trkpt>
      <trkpt lat="50.48999" lon="5.82999">
        <ele>220.0</ele>
      </trkpt>
      <trkpt lat="50.48933" lon="5.82923">
        <ele>222.0</ele>
      </trkpt>
      <trkpt lat="50.4885" lon="5.82865">
        <ele>225.0</ele>
      </trkpt>
      <trkpt lat="50.48774" lon="5.82848">
        <ele>229.0</ele>
      </trkpt>
      <trkpt lat="50.48659" lon="5.82873">
        <ele>235.0</ele>
      </trkpt>
      <trkpt lat="50.48653" lon="5.82854">
        <ele>239.0</ele>
      </trkpt>
      <trkpt lat="50.4879" lon="5.82766">
        <ele>249.0</ele>
      </trkpt>
      <trkpt lat="50.48823" lon="5.82766">
        <ele>252.0</ele>
      </trkpt>
      <trkpt lat="50.4888" lon="5.82783">
        <ele>253.0</ele>
      </trkpt>
      <trkpt lat="50.48889" lon="5.82776">
        <ele>254.0</ele>
      </trkpt>
      <trkpt lat="50.48901" lon="5.82729">
        <ele>255.0</ele>
      </trkpt>
      <trkpt lat="50.48917" lon="5.82707">
        <ele>255.0</ele>
      </trkpt>
      <trkpt lat="50.48927" lon="5.8271">
        <ele>256.0</ele>
      </trkpt>
      <trkpt lat="50.48943" lon="5.8274">
        <ele>256.0</ele>
      </trkpt>
      <trkpt lat="50.48961" lon="5.82746">
        <ele>257.0</ele>
      </trkpt>
      <trkpt lat="50.48973" lon="5.82738">
        <ele>257.0</ele>
      </trkpt>
      <trkpt lat="50.48983" lon="5.82719">
        <ele>258.0</ele>
      </trkpt>
      <trkpt lat="50.48985" lon="5.82695">
        <ele>258.0</ele>
      </trkpt>
      <trkpt lat="50.48962" lon="5.82512">
        <ele>261.0</ele>
      </trkpt>
      <trkpt lat="50.48948" lon="5.82468">
        <ele>263.0</ele>
      </trkpt>
      <trkpt lat="50.48919" lon="5.82437">
        <ele>265.0</ele>
      </trkpt>
      <trkpt lat="50.48794" lon="5.8236">
        <ele>273.0</ele>
      </trkpt>
      <trkpt lat="50.48774" lon="5.82335">
        <ele>276.0</ele>
      </trkpt>
      <trkpt lat="50.48768" lon="5.823">
        <ele>277.0</ele>
      </trkpt>
      <trkpt lat="50.48768" lon="5.82065">
        <ele>286.0</ele>
      </trkpt>
      <trkpt lat="50.48796" lon="5.82005">
        <ele>290.0</ele>
      </trkpt>
      <trkpt lat="50.48977" lon="5.81832">
        <ele>306.0</ele>
      </trkpt>
      <trkpt lat="50.49015" lon="5.81815">
        <ele>313.0</ele>
      </trkpt>
      <trkpt lat="50.49056" lon="5.81834">
        <ele>316.0</ele>
      </trkpt>
      <trkpt lat="50.49151" lon="5.81931">
        <ele>319.0</ele>
      </trkpt>
      <trkpt lat="50.49162" lon="5.81931">
        <ele>320.0</ele>
      </trkpt>
      <trkpt lat="50.49148" lon="5.81892">
        <ele>321.0</ele>
      </trkpt>
      <trkpt lat="50.49118" lon="5.81801">
        <ele>325.0</ele>
      </trkpt>
      <trkpt lat="50.49103" lon="5.81753">
        <ele>329.0</ele>
      </trkpt>
      <trkpt lat="50.49071" lon="5.81689">
        <ele>333.0</ele>
      </trkpt>
      <trkpt lat="50.48975" lon="5.81563">
        <ele>341.0</ele>
      </trkpt>
      <trkpt lat="50.48924" lon="5.81498">
        <ele>346.0</ele>
      </trkpt>
      <trkpt lat="50.48872" lon="5.81342">
        <ele>352.0</ele>
      </trkpt>
      <trkpt lat="50.4882" lon="5.81164">
        <ele>358.0</ele>
      </trkpt>
      <trkpt lat="50.48817" lon="5.81105">
        <ele>360.0</ele>
      </trkpt>
      <trkpt lat="50.48824" lon="5.81059">
        <ele>361.0</ele>
      </trkpt>
      <trkpt lat="50.48864" lon="5.80947">
        <ele>363.0</ele>
      </trkpt>
      <trkpt lat="50.48893" lon="5.80881">
        <ele>365.0</ele>
      </trkpt>
      <trkpt lat="50.48887" lon="5.80861">
        <ele>365.0</ele>
      </trkpt>
      <trkpt lat="50.48823" lon="5.80855">
        <ele>366.0</ele>
      </trkpt>
      <trkpt lat="50.48716" lon="5.80845">
        <ele>366.0</ele>
      </trkpt>
      <trkpt lat="50.48622" lon="5.80836">
        <ele>364.0</ele>
      </trkpt>
      <trkpt lat="50.48551" lon="5.80837">
        <ele>361.0</ele>
      </trkpt>
      <trkpt lat="50.48494" lon="5.80866">
        <ele>357.0</ele>
      </trkpt>
      <trkpt lat="50.48461" lon="5.80895">
        <ele>355.0</ele>
      </trkpt>
      <trkpt lat="50.48429" lon="5.80952">
        <ele>352.0</ele>
      </trkpt>
      <trkpt lat="50.48404" lon="5.81022">
        <ele>350.0</ele>
      </trkpt>
      <trkpt lat="50.48366" lon="5.81188">
        <ele>343.0</ele>
      </trkpt>
      <trkpt lat="50.48359" lon="5.81271">
        <ele>338.0</ele>
      </trkpt>
      <trkpt lat="50.48427" lon="5.81702">
        <ele>325.0</ele>
      </trkpt>
      <trkpt lat="50.48433" lon="5.8177">
        <ele>316.0</ele>
      </trkpt>
      <trkpt lat="50.48427" lon="5.81823">
        <ele>314.0</ele>
      </trkpt>
      <trkpt lat="50.48391" lon="5.81883">
        <ele>311.0</ele>
      </trkpt>
      <trkpt lat="50.48299" lon="5.81908">
        <ele>307.0</ele>
      </trkpt>
      <trkpt lat="50.4817" lon="5.8193">
        <ele>297.0</ele>
      </trkpt>
      <trkpt lat="50.48086" lon="5.8197">
        <ele>289.0</ele>
      </trkpt>
      <trkpt lat="50.48033" lon="5.81962">
        <ele>286.0</ele>
      </trkpt>
      <trkpt lat="50.47994" lon="5.81933">
        <ele>284.0</ele>
      </trkpt>
      <trkpt lat="50.47714" lon="5.81731">
        <ele>271.0</ele>
      </trkpt>
      <trkpt lat="50.47621" lon="5.81692">
        <ele>262.0</ele>
      </trkpt>
      <trkpt lat="50.47601" lon="5.81711">
        <ele>260.0</ele>
      </trkpt>
      <trkpt lat="50.47594" lon="5.81776">
        <ele>256.0</ele>
      </trkpt>
      <trkpt lat="50.47606" lon="5.81829">
        <ele>257.0</ele>
      </trkpt>
      <trkpt lat="50.47505" lon="5.8177">
        <ele>260.0</ele>
      </trkpt>
      <trkpt lat="50.47433" lon="5.81731">
        <ele>265.0</ele>
      </trkpt>
      <trkpt lat="50.47276" lon="5.81617">
        <ele>281.0</ele>
      </trkpt>
      <trkpt lat="50.47058" lon="5.81515">
        <ele>297.0</ele>
      </trkpt>
      <trkpt lat="50.46957" lon="5.81491">
        <ele>304.0</ele>
      </trkpt>
      <trkpt lat="50.46672" lon="5.81453">
        <ele>334.0</ele>
      </trkpt>
      <trkpt lat="50.46618" lon="5.81412">
        <ele>342.0</ele>
      </trkpt>
      <trkpt lat="50.46525" lon="5.81317">
        <ele>353.0</ele>
      </trkpt>
      <trkpt lat="50.46378" lon="5.81168">
        <ele>366.0</ele>
      </trkpt>
      <trkpt lat="50.46264" lon="5.81103">
        <ele>376.0</ele>
      </trkpt>
      <trkpt lat="50.46251" lon="5.81134">
        <ele>378.0</ele>
      </trkpt>
      <trkpt lat="50.46226" lon="5.81118">
        <ele>378.0</ele>
      </trkpt>
      <trkpt lat="50.46216" lon="5.81086">
        <ele>378.0</ele>
      </trkpt>
      <trkpt lat="50.4622" lon="5.81043">
        <ele>378.0</ele>
      </trkpt>
      <trkpt lat="50.46234" lon="5.80823">
        <ele>380.0</ele>
      </trkpt>
      <trkpt lat="50.46253" lon="5.80602">
        <ele>381.0</ele>
      </trkpt>
      <trkpt lat="50.46311" lon="5.80455">
        <ele>384.0</ele>
      </trkpt>
      <trkpt lat="50.46572" lon="5.79883">
        <ele>388.0</ele>
      </trkpt>
      <trkpt lat="50.46702" lon="5.79601">
        <ele>386.0</ele>
      </trkpt>
      <trkpt lat="50.46756" lon="5.79507">
        <ele>382.0</ele>
      </trkpt>
      <trkpt lat="50.46881" lon="5.79444">
        <ele>382.0</ele>
      </trkpt>
      <trkpt lat="50.47023" lon="5.79397">
        <ele>381.0</ele>
      </trkpt>
      <trkpt lat="50.47145" lon="5.79426">
        <ele>378.0</ele>
      </trkpt>
      <trkpt lat="50.47319" lon="5.79501">
        <ele>376.0</ele>
      </trkpt>
      <trkpt lat="50.47445" lon="5.79535">
        <ele>376.0</ele>
      </trkpt>
      <trkpt lat="50.47496" lon="5.79453">
        <ele>380.0</ele>
      </trkpt>
      <trkpt lat="50.47514" lon="5.79334">
        <ele>385.0</ele>
      </trkpt>
      <trkpt lat="50.47591" lon="5.79038">
        <ele>388.0</ele>
      </trkpt>
      <trkpt lat="50.47643" lon="5.78803">
        <ele>385.0</ele>
      </trkpt>
      <trkpt lat="50.47715" lon="5.78506">
        <ele>380.0</ele>
      </trkpt>
      <trkpt lat="50.47746" lon="5.7833">
        <ele>378.0</ele>
      </trkpt>
      <trkpt lat="50.47784" lon="5.78182">
        <ele>378.0</ele>
      </trkpt>
      <trkpt lat="50.47891" lon="5.77995">
        <ele>377.0</ele>
      </trkpt>
      <trkpt lat="50.47937" lon="5.77888">
        <ele>377.0</ele>
      </trkpt>
      <trkpt lat="50.48005" lon="5.77731">
        <ele>375.0</ele>
      </trkpt>
      <trkpt lat="50.48052" lon="5.77681">
        <ele>375.0</ele>
      </trkpt>
      <trkpt lat="50.48173" lon="5.77522">
        <ele>377.0</ele>
      </trkpt>
      <trkpt lat="50.4823" lon="5.77419">
        <ele>377.0</ele>
      </trkpt>
      <trkpt lat="50.48358" lon="5.77232">
        <ele>371.0</ele>
      </trkpt>
      <trkpt lat="50.48523" lon="5.76953">
        <ele>365.0</ele>
      </trkpt>
      <trkpt lat="50.48573" lon="5.76772">
        <ele>365.0</ele>
      </trkpt>
      <trkpt lat="50.4866" lon="5.76657">
        <ele>362.0</ele>
      </trkpt>
      <trkpt lat="50.48767" lon="5.76585">
        <ele>359.0</ele>
      </trkpt>
      <trkpt lat="50.48809" lon="5.7657">
        <ele>358.0</ele>
      </trkpt>
      <trkpt lat="50.48784" lon="5.76423">
        <ele>356.0</ele>
      </trkpt>
      <trkpt lat="50.48693" lon="5.76028">
        <ele>348.0</ele>
      </trkpt>
      <trkpt lat="50.48601" lon="5.7562">
        <ele>338.0</ele>
      </trkpt>
      <trkpt lat="50.48625" lon="5.75423">
        <ele>338.0</ele>
      </trkpt>
      <trkpt lat="50.48621" lon="5.75232">
        <ele>335.0</ele>
      </trkpt>
      <trkpt lat="50.48518" lon="5.74814">
        <ele>329.0</ele>
      </trkpt>
      <trkpt lat="50.48377" lon="5.7447">
        <ele>316.0</ele>
      </trkpt>
      <trkpt lat="50.48232" lon="5.7418">
        <ele>297.0</ele>
      </trkpt>
      <trkpt lat="50.48078" lon="5.74147">
        <ele>287.0</ele>
      </trkpt>
      <trkpt lat="50.48009" lon="5.74148">
        <ele>281.0</ele>
      </trkpt>
      <trkpt lat="50.47882" lon="5.74103">
        <ele>274.0</ele>
      </trkpt>
      <trkpt lat="50.47601" lon="5.74093">
        <ele>260.0</ele>
      </trkpt>
      <trkpt lat="50.47452" lon="5.74013">
        <ele>250.0</ele>
      </trkpt>
      <trkpt lat="50.47405" lon="5.73872">
        <ele>242.0</ele>
      </trkpt>
      <trkpt lat="50.47458" lon="5.73679">
        <ele>233.0</ele>
      </trkpt>
      <trkpt lat="50.47507" lon="5.73518">
        <ele>226.0</ele>
      </trkpt>
      <trkpt lat="50.47556" lon="5.73347">
        <ele>220.0</ele>
      </trkpt>
      <trkpt lat="50.4757" lon="5.73255">
        <ele>217.0</ele>
      </trkpt>
      <trkpt lat="50.47575" lon="5.73043">
        <ele>211.0</ele>
      </trkpt>
      <trkpt lat="50.47577" lon="5.7278">
        <ele>200.0</ele>
      </trkpt>
      <trkpt lat="50.47609" lon="5.72529">
        <ele>191.0</ele>
      </trkpt>
      <trkpt lat="50.47639" lon="5.72002">
        <ele>175.0</ele>
      </trkpt>
      <trkpt lat="50.47608" lon="5.71796">
        <ele>163.0</ele>
      </trkpt>
      <trkpt lat="50.47597" lon="5.71643">
        <ele>156.0</ele>
      </trkpt>
      <trkpt lat="50.47615" lon="5.71517">
        <ele>151.0</ele>
      </trkpt>
      <trkpt lat="50.4767" lon="5.71425">
        <ele>146.0</ele>
      </trkpt>
      <trkpt lat="50.47874" lon="5.71251">
        <ele>140.0</ele>
      </trkpt>
      <trkpt lat="50.47987" lon="5.71187">
        <ele>134.0</ele>
      </trkpt>
      <trkpt lat="50.4797" lon="5.71035">
        <ele>128.0</ele>
      </trkpt>
      <trkpt lat="50.48" lon="5.70705">
        <ele>125.0</ele>
      </trkpt>
      <trkpt lat="50.48019" lon="5.70655">
        <ele>126.0</ele>
      </trkpt>
      <trkpt lat="50.48098" lon="5.70724">
        <ele>127.0</ele>
      </trkpt>
      <trkpt lat="50.48193" lon="5.70732">
        <ele>130.0</ele>
      </trkpt>
      <trkpt lat="50.48293" lon="5.70714">
        <ele>134.0</ele>
      </trkpt>
      <trkpt lat="50.48403" lon="5.70707">
        <ele>134.0</ele>
      </trkpt>
      <trkpt lat="50.48375" lon="5.70608">
        <ele>134.0</ele>
      </trkpt>
      <trkpt lat="50.48321" lon="5.70427">
        <ele>135.0</ele>
      </trkpt>
      <trkpt lat="50.48338" lon="5.70373">
        <ele>135.0</ele>
      </trkpt>
      <trkpt lat="50.48403" lon="5.70317">
        <ele>138.0</ele>
      </trkpt>
      <trkpt lat="50.48541" lon="5.70344">
        <ele>147.0</ele>
      </trkpt>
      <trkpt lat="50.48588" lon="5.70318">
        <ele>153.0</ele>
      </trkpt>
      <trkpt lat="50.48628" lon="5.70367">
        <ele>160.0</ele>
      </trkpt>
      <trkpt lat="50.48644" lon="5.70446">
        <ele>167.0</ele>
      </trkpt>
      <trkpt lat="50.48673" lon="5.70516">
        <ele>170.0</ele>
      </trkpt>
      <trkpt lat="50.48788" lon="5.707">
        <ele>181.0</ele>
      </trkpt>
      <trkpt lat="50.48848" lon="5.70773">
        <ele>190.0</ele>
      </trkpt>
      <trkpt lat="50.48944" lon="5.70722">
        <ele>199.0</ele>
      </trkpt>
      <trkpt lat="50.49022" lon="5.70647">
        <ele>212.0</ele>
      </trkpt>
      <trkpt lat="50.49091" lon="5.7057">
        <ele>223.0</ele>
      </trkpt>
      <trkpt lat="50.49099" lon="5.70489">
        <ele>232.0</ele>
      </trkpt>
      <trkpt lat="50.49091" lon="5.70415">
        <ele>239.0</ele>
      </trkpt>
      <trkpt lat="50.49103" lon="5.70305">
        <ele>249.0</ele>
      </trkpt>
      <trkpt lat="50.49126" lon="5.70192">
        <ele>259.0</ele>
      </trkpt>
      <trkpt lat="50.49201" lon="5.70101">
        <ele>268.0</ele>
      </trkpt>
      <trkpt lat="50.49223" lon="5.7001">
        <ele>273.0</ele>
      </trkpt>
      <trkpt lat="50.49227" lon="5.69925">
        <ele>276.0</ele>
      </trkpt>
      <trkpt lat="50.4927" lon="5.69987">
        <ele>279.0</ele>
      </trkpt>
      <trkpt lat="50.49354" lon="5.70105">
        <ele>274.0</ele>
      </trkpt>
      <trkpt lat="50.49399" lon="5.7017">
        <ele>267.0</ele>
      </trkpt>
      <trkpt lat="50.49458" lon="5.70256">
        <ele>258.0</ele>
      </trkpt>
      <trkpt lat="50.49523" lon="5.70406">
        <ele>248.0</ele>
      </trkpt>
      <trkpt lat="50.49578" lon="5.70573">
        <ele>240.0</ele>
      </trkpt>
      <trkpt lat="50.49622" lon="5.70585">
        <ele>239.0</ele>
      </trkpt>
      <trkpt lat="50.49707" lon="5.70448">
        <ele>238.0</ele>
      </trkpt>
      <trkpt lat="50.49758" lon="5.70533">
        <ele>238.0</ele>
      </trkpt>
      <trkpt lat="50.49639" lon="5.70698">
        <ele>237.0</ele>
      </trkpt>
      <trkpt lat="50.49624" lon="5.70863">
        <ele>236.0</ele>
      </trkpt>
      <trkpt lat="50.49663" lon="5.7108">
        <ele>235.0</ele>
      </trkpt>
      <trkpt lat="50.49738" lon="5.71166">
        <ele>232.0</ele>
      </trkpt>
      <trkpt lat="50.49871" lon="5.71312">
        <ele>223.0</ele>
      </trkpt>
      <trkpt lat="50.49982" lon="5.71441">
        <ele>209.0</ele>
      </trkpt>
      <trkpt lat="50.5003" lon="5.71479">
        <ele>206.0</ele>
      </trkpt>
      <trkpt lat="50.50043" lon="5.71286">
        <ele>210.0</ele>
      </trkpt>
      <trkpt lat="50.50033" lon="5.71118">
        <ele>216.0</ele>
      </trkpt>
      <trkpt lat="50.50042" lon="5.71035">
        <ele>219.0</ele>
      </trkpt>
      <trkpt lat="50.50071" lon="5.70984">
        <ele>221.0</ele>
      </trkpt>
      <trkpt lat="50.50178" lon="5.71015">
        <ele>222.0</ele>
      </trkpt>
      <trkpt lat="50.50411" lon="5.70905">
        <ele>229.0</ele>
      </trkpt>
      <trkpt lat="50.50483" lon="5.70789">
        <ele>238.0</ele>
      </trkpt>
      <trkpt lat="50.50544" lon="5.70649">
        <ele>245.0</ele>
      </trkpt>
      <trkpt lat="50.50612" lon="5.70522">
        <ele>253.0</ele>
      </trkpt>
      <trkpt lat="50.50716" lon="5.70509">
        <ele>259.0</ele>
      </trkpt>
      <trkpt lat="50.50837" lon="5.70503">
        <ele>266.0</ele>
      </trkpt>
      <trkpt lat="50.5093" lon="5.70502">
        <ele>271.0</ele>
      </trkpt>
      <trkpt lat="50.50999" lon="5.70523">
        <ele>275.0</ele>
      </trkpt>
      <trkpt lat="50.51186" lon="5.70564">
        <ele>284.0</ele>
      </trkpt>
      <trkpt lat="50.5125" lon="5.70508">
        <ele>290.0</ele>
      </trkpt>
      <trkpt lat="50.51323" lon="5.70429">
        <ele>289.0</ele>
      </trkpt>
      <trkpt lat="50.51541" lon="5.70291">
        <ele>294.0</ele>
      </trkpt>
      <trkpt lat="50.51594" lon="5.70246">
        <ele>297.0</ele>
      </trkpt>
      <trkpt lat="50.5165" lon="5.70195">
        <ele>297.0</ele>
      </trkpt>
      <trkpt lat="50.51739" lon="5.70096">
        <ele>298.0</ele>
      </trkpt>
      <trkpt lat="50.51821" lon="5.70013">
        <ele>298.0</ele>
      </trkpt>
      <trkpt lat="50.51882" lon="5.70027">
        <ele>298.0</ele>
      </trkpt>
      <trkpt lat="50.52053" lon="5.70381">
        <ele>297.0</ele>
      </trkpt>
      <trkpt lat="50.52102" lon="5.70388">
        <ele>294.0</ele>
      </trkpt>
      <trkpt lat="50.52261" lon="5.70594">
        <ele>284.0</ele>
      </trkpt>
      <trkpt lat="50.52357" lon="5.70749">
        <ele>271.0</ele>
      </trkpt>
      <trkpt lat="50.52474" lon="5.70836">
        <ele>260.0</ele>
      </trkpt>
      <trkpt lat="50.52725" lon="5.70967">
        <ele>244.0</ele>
      </trkpt>
      <trkpt lat="50.52834" lon="5.7117">
        <ele>243.0</ele>
      </trkpt>
      <trkpt lat="50.52905" lon="5.71265">
        <ele>243.0</ele>
      </trkpt>
      <trkpt lat="50.52994" lon="5.71358">
        <ele>245.0</ele>
      </trkpt>
      <trkpt lat="50.53039" lon="5.71355">
        <ele>246.0</ele>
      </trkpt>
      <trkpt lat="50.53037" lon="5.71234">
        <ele>246.0</ele>
      </trkpt>
      <trkpt lat="50.53045" lon="5.71111">
        <ele>245.0</ele>
      </trkpt>
      <trkpt lat="50.53078" lon="5.71054">
        <ele>244.0</ele>
      </trkpt>
      <trkpt lat="50.53159" lon="5.70994">
        <ele>241.0</ele>
      </trkpt>
      <trkpt lat="50.53204" lon="5.70913">
        <ele>239.0</ele>
      </trkpt>
      <trkpt lat="50.53204" lon="5.70829">
        <ele>236.0</ele>
      </trkpt>
      <trkpt lat="50.53185" lon="5.70702">
        <ele>233.0</ele>
      </trkpt>
      <trkpt lat="50.53201" lon="5.70649">
        <ele>230.0</ele>
      </trkpt>
      <trkpt lat="50.53227" lon="5.7063">
        <ele>229.0</ele>
      </trkpt>
      <trkpt lat="50.53267" lon="5.7065">
        <ele>228.0</ele>
      </trkpt>
      <trkpt lat="50.5346" lon="5.70848">
        <ele>222.0</ele>
      </trkpt>
      <trkpt lat="50.53525" lon="5.70908">
        <ele>217.0</ele>
      </trkpt>
      <trkpt lat="50.53548" lon="5.70906">
        <ele>216.0</ele>
      </trkpt>
      <trkpt lat="50.5356" lon="5.7087">
        <ele>215.0</ele>
      </trkpt>
      <trkpt lat="50.53545" lon="5.70793">
        <ele>213.0</ele>
      </trkpt>
      <trkpt lat="50.53545" lon="5.70692">
        <ele>211.0</ele>
      </trkpt>
      <trkpt lat="50.53579" lon="5.70286">
        <ele>208.0</ele>
      </trkpt>
      <trkpt lat="50.53596" lon="5.70074">
        <ele>206.0</ele>
      </trkpt>
      <trkpt lat="50.53615" lon="5.69814">
        <ele>204.0</ele>
      </trkpt>
      <trkpt lat="50.53616" lon="5.69677">
        <ele>204.0</ele>
      </trkpt>
      <trkpt lat="50.53624" lon="5.69587">
        <ele>203.0</ele>
      </trkpt>
      <trkpt lat="50.53651" lon="5.69452">
        <ele>203.0</ele>
      </trkpt>
      <trkpt lat="50.5369" lon="5.69307">
        <ele>200.0</ele>
      </trkpt>
      <trkpt lat="50.53748" lon="5.69206">
        <ele>197.0</ele>
      </trkpt>
      <trkpt lat="50.53797" lon="5.69169">
        <ele>194.0</ele>
      </trkpt>
      <trkpt lat="50.53854" lon="5.69169">
        <ele>194.0</ele>
      </trkpt>
      <trkpt lat="50.53969" lon="5.69232">
        <ele>192.0</ele>
      </trkpt>
      <trkpt lat="50.5409" lon="5.69276">
        <ele>190.0</ele>
      </trkpt>
      <trkpt lat="50.54198" lon="5.69296">
        <ele>187.0</ele>
      </trkpt>
      <trkpt lat="50.5425" lon="5.69272">
        <ele>183.0</ele>
      </trkpt>
      <trkpt lat="50.54331" lon="5.69226">
        <ele>178.0</ele>
      </trkpt>
      <trkpt lat="50.54378" lon="5.69165">
        <ele>179.0</ele>
      </trkpt>
      <trkpt lat="50.54406" lon="5.69071">
        <ele>181.0</ele>
      </trkpt>
      <trkpt lat="50.54402" lon="5.68956">
        <ele>184.0</ele>
      </trkpt>
      <trkpt lat="50.54379" lon="5.68672">
        <ele>198.0</ele>
      </trkpt>
      <trkpt lat="50.54347" lon="5.68475">
        <ele>209.0</ele>
      </trkpt>
      <trkpt lat="50.54353" lon="5.68439">
        <ele>213.0</ele>
      </trkpt>
      <trkpt lat="50.54398" lon="5.68348">
        <ele>220.0</ele>
      </trkpt>
      <trkpt lat="50.54428" lon="5.68238">
        <ele>231.0</ele>
      </trkpt>
      <trkpt lat="50.5443" lon="5.68124">
        <ele>239.0</ele>
      </trkpt>
      <trkpt lat="50.5443" lon="5.67831">
        <ele>254.0</ele>
      </trkpt>
      <trkpt lat="50.54433" lon="5.67687">
        <ele>263.0</ele>
      </trkpt>
      <trkpt lat="50.54451" lon="5.67648">
        <ele>266.0</ele>
      </trkpt>
      <trkpt lat="50.54558" lon="5.67497">
        <ele>272.0</ele>
      </trkpt>
      <trkpt lat="50.5463" lon="5.6734">
        <ele>276.0</ele>
      </trkpt>
      <trkpt lat="50.54737" lon="5.67063">
        <ele>284.0</ele>
      </trkpt>
      <trkpt lat="50.54581" lon="5.66918">
        <ele>278.0</ele>
      </trkpt>
      <trkpt lat="50.54489" lon="5.66799">
        <ele>270.0</ele>
      </trkpt>
      <trkpt lat="50.54429" lon="5.66701">
        <ele>264.0</ele>
      </trkpt>
      <trkpt lat="50.54262" lon="5.66437">
        <ele>253.0</ele>
      </trkpt>
      <trkpt lat="50.54155" lon="5.66252">
        <ele>243.0</ele>
      </trkpt>
      <trkpt lat="50.54083" lon="5.66031">
        <ele>240.0</ele>
      </trkpt>
      <trkpt lat="50.54049" lon="5.65794">
        <ele>243.0</ele>
      </trkpt>
      <trkpt lat="50.53977" lon="5.65424">
        <ele>256.0</ele>
      </trkpt>
      <trkpt lat="50.53924" lon="5.64447">
        <ele>250.0</ele>
      </trkpt>
      <trkpt lat="50.53887" lon="5.64133">
        <ele>249.0</ele>
      </trkpt>
      <trkpt lat="50.53782" lon="5.63783">
        <ele>250.0</ele>
      </trkpt>
      <trkpt lat="50.53605" lon="5.63295">
        <ele>249.0</ele>
      </trkpt>
      <trkpt lat="50.5371" lon="5.63099">
        <ele>248.0</ele>
      </trkpt>
      <trkpt lat="50.53743" lon="5.62906">
        <ele>241.0</ele>
      </trkpt>
      <trkpt lat="50.53733" lon="5.62718">
        <ele>233.0</ele>
      </trkpt>
      <trkpt lat="50.53749" lon="5.62561">
        <ele>227.0</ele>
      </trkpt>
      <trkpt lat="50.53738" lon="5.62317">
        <ele>221.0</ele>
      </trkpt>
      <trkpt lat="50.53698" lon="5.61887">
        <ele>205.0</ele>
      </trkpt>
      <trkpt lat="50.53628" lon="5.61802">
        <ele>200.0</ele>
      </trkpt>
      <trkpt lat="50.53653" lon="5.61721">
        <ele>198.0</ele>
      </trkpt>
      <trkpt lat="50.53754" lon="5.61628">
        <ele>194.0</ele>
      </trkpt>
      <trkpt lat="50.53864" lon="5.61462">
        <ele>188.0</ele>
      </trkpt>
      <trkpt lat="50.53939" lon="5.61389">
        <ele>185.0</ele>
      </trkpt>
      <trkpt lat="50.54005" lon="5.61229">
        <ele>181.0</ele>
      </trkpt>
      <trkpt lat="50.54039" lon="5.61081">
        <ele>177.0</ele>
      </trkpt>
      <trkpt lat="50.54096" lon="5.60931">
        <ele>176.0</ele>
      </trkpt>
      <trkpt lat="50.54232" lon="5.60911">
        <ele>168.0</ele>
      </trkpt>
      <trkpt lat="50.54275" lon="5.60849">
        <ele>163.0</ele>
      </trkpt>
      <trkpt lat="50.54303" lon="5.60567">
        <ele>162.0</ele>
      </trkpt>
      <trkpt lat="50.54331" lon="5.60448">
        <ele>159.0</ele>
      </trkpt>
      <trkpt lat="50.54329" lon="5.60331">
        <ele>157.0</ele>
      </trkpt>
      <trkpt lat="50.54359" lon="5.60205">
        <ele>154.0</ele>
      </trkpt>
      <trkpt lat="50.5441" lon="5.60134">
        <ele>152.0</ele>
      </trkpt>
      <trkpt lat="50.54475" lon="5.60134">
        <ele>150.0</ele>
      </trkpt>
      <trkpt lat="50.5458" lon="5.60136">
        <ele>140.0</ele>
      </trkpt>
      <trkpt lat="50.54612" lon="5.60019">
        <ele>132.0</ele>
      </trkpt>
      <trkpt lat="50.54652" lon="5.5976">
        <ele>116.0</ele>
      </trkpt>
      <trkpt lat="50.54629" lon="5.59579">
        <ele>111.0</ele>
      </trkpt>
      <trkpt lat="50.54684" lon="5.59365">
        <ele>103.0</ele>
      </trkpt>
      <trkpt lat="50.54676" lon="5.59141">
        <ele>85.0</ele>
      </trkpt>
      <trkpt lat="50.54772" lon="5.59054">
        <ele>82.0</ele>
      </trkpt>
      <trkpt lat="50.54836" lon="5.58913">
        <ele>81.0</ele>
      </trkpt>
      <trkpt lat="50.54799" lon="5.58833">
        <ele>80.0</ele>
      </trkpt>
      <trkpt lat="50.54705" lon="5.58869">
        <ele>79.0</ele>
      </trkpt>
      <trkpt lat="50.54596" lon="5.58876">
        <ele>79.0</ele>
      </trkpt>
      <trkpt lat="50.54506" lon="5.58812">
        <ele>79.0</ele>
      </trkpt>
      <trkpt lat="50.54444" lon="5.587">
        <ele>79.0</ele>
      </trkpt>
      <trkpt lat="50.54327" lon="5.58496">
        <ele>80.0</ele>
      </trkpt>
      <trkpt lat="50.54274" lon="5.58373">
        <ele>81.0</ele>
      </trkpt>
      <trkpt lat="50.54221" lon="5.58102">
        <ele>83.0</ele>
      </trkpt>
      <trkpt lat="50.54132" lon="5.57816">
        <ele>84.0</ele>
      </trkpt>
      <trkpt lat="50.54177" lon="5.57801">
        <ele>86.0</ele>
      </trkpt>
      <trkpt lat="50.54228" lon="5.5788">
        <ele>90.0</ele>
      </trkpt>
      <trkpt lat="50.54277" lon="5.57965">
        <ele>98.0</ele>
      </trkpt>
      <trkpt lat="50.54395" lon="5.58166">
        <ele>120.0</ele>
      </trkpt>
      <trkpt lat="50.54437" lon="5.58182">
        <ele>128.0</ele>
      </trkpt>
      <trkpt lat="50.54517" lon="5.58103">
        <ele>137.0</ele>
      </trkpt>
      <trkpt lat="50.54597" lon="5.58041">
        <ele>151.0</ele>
      </trkpt>
      <trkpt lat="50.54665" lon="5.58014">
        <ele>160.0</ele>
      </trkpt>
      <trkpt lat="50.54691" lon="5.5794">
        <ele>167.0</ele>
      </trkpt>
      <trkpt lat="50.54767" lon="5.57809">
        <ele>182.0</ele>
      </trkpt>
      <trkpt lat="50.54863" lon="5.57716">
        <ele>197.0</ele>
      </trkpt>
      <trkpt lat="50.54931" lon="5.57625">
        <ele>212.0</ele>
      </trkpt>
      <trkpt lat="50.54945" lon="5.57565">
        <ele>218.0</ele>
      </trkpt>
      <trkpt lat="50.54991" lon="5.57455">
        <ele>218.0</ele>
      </trkpt>
      <trkpt lat="50.55034" lon="5.57346">
        <ele>216.0</ele>
      </trkpt>
      <trkpt lat="50.55067" lon="5.57203">
        <ele>206.0</ele>
      </trkpt>
      <trkpt lat="50.55141" lon="5.5708">
        <ele>189.0</ele>
      </trkpt>
      <trkpt lat="50.55185" lon="5.56993">
        <ele>183.0</ele>
      </trkpt>
      <trkpt lat="50.55255" lon="5.5697">
        <ele>181.0</ele>
      </trkpt>
      <trkpt lat="50.55288" lon="5.56933">
        <ele>179.0</ele>
      </trkpt>
      <trkpt lat="50.55324" lon="5.5668">
        <ele>179.0</ele>
      </trkpt>
      <trkpt lat="50.55351" lon="5.56495">
        <ele>177.0</ele>
      </trkpt>
      <trkpt lat="50.5533" lon="5.56262">
        <ele>173.0</ele>
      </trkpt>
      <trkpt lat="50.55331" lon="5.56184">
        <ele>172.0</ele>
      </trkpt>
      <trkpt lat="50.55357" lon="5.56097">
        <ele>172.0</ele>
      </trkpt>
      <trkpt lat="50.55361" lon="5.5602">
        <ele>172.0</ele>
      </trkpt>
      <trkpt lat="50.55367" lon="5.5594">
        <ele>174.0</ele>
      </trkpt>
      <trkpt lat="50.55362" lon="5.5588">
        <ele>177.0</ele>
      </trkpt>
      <trkpt lat="50.55365" lon="5.55844">
        <ele>179.0</ele>
      </trkpt>
      <trkpt lat="50.55376" lon="5.55794">
        <ele>181.0</ele>
      </trkpt>
      <trkpt lat="50.55368" lon="5.55697">
        <ele>185.0</ele>
      </trkpt>
      <trkpt lat="50.55355" lon="5.55614">
        <ele>188.0</ele>
      </trkpt>
      <trkpt lat="50.5532" lon="5.55424">
        <ele>193.0</ele>
      </trkpt>
      <trkpt lat="50.55285" lon="5.55205">
        <ele>197.0</ele>
      </trkpt>
      <trkpt lat="50.5527" lon="5.55079">
        <ele>201.0</ele>
      </trkpt>
      <trkpt lat="50.55249" lon="5.55018">
        <ele>203.0</ele>
      </trkpt>
      <trkpt lat="50.55245" lon="5.5497">
        <ele>205.0</ele>
      </trkpt>
      <trkpt lat="50.55288" lon="5.54864">
        <ele>208.0</ele>
      </trkpt>
      <trkpt lat="50.55376" lon="5.54805">
        <ele>215.0</ele>
      </trkpt>
      <trkpt lat="50.55563" lon="5.54828">
        <ele>230.0</ele>
      </trkpt>
      <trkpt lat="50.55619" lon="5.54872">
        <ele>241.0</ele>
      </trkpt>
      <trkpt lat="50.55662" lon="5.54934">
        <ele>247.0</ele>
      </trkpt>
      <trkpt lat="50.55806" lon="5.54886">
        <ele>253.0</ele>
      </trkpt>
      <trkpt lat="50.5595" lon="5.54755">
        <ele>266.0</ele>
      </trkpt>
      <trkpt lat="50.56058" lon="5.54739">
        <ele>270.0</ele>
      </trkpt>
      <trkpt lat="50.56128" lon="5.54718">
        <ele>269.0</ele>
      </trkpt>
      <trkpt lat="50.56147" lon="5.54757">
        <ele>269.0</ele>
      </trkpt>
      <trkpt lat="50.56225" lon="5.54807">
        <ele>270.0</ele>
      </trkpt>
      <trkpt lat="50.56273" lon="5.54829">
        <ele>270.0</ele>
      </trkpt>
      <trkpt lat="50.56337" lon="5.54869">
        <ele>270.0</ele>
      </trkpt>
      <trkpt lat="50.56438" lon="5.54912">
        <ele>270.0</ele>
      </trkpt>
      <trkpt lat="50.56542" lon="5.54928">
        <ele>270.0</ele>
      </trkpt>
      <trkpt lat="50.56585" lon="5.54934">
        <ele>270.0</ele>
      </trkpt>
      <trkpt lat="50.5664" lon="5.5495">
        <ele>270.0</ele>
      </trkpt>
      <trkpt lat="50.56701" lon="5.54978">
        <ele>269.0</ele>
      </trkpt>
      <trkpt lat="50.568" lon="5.55049">
        <ele>269.0</ele>
      </trkpt>
      <trkpt lat="50.56911" lon="5.55148">
        <ele>270.0</ele>
      </trkpt>
      <trkpt lat="50.56942" lon="5.55177">
        <ele>270.0</ele>
      </trkpt>
      <trkpt lat="50.57004" lon="5.55225">
        <ele>271.0</ele>
      </trkpt>
      <trkpt lat="50.57037" lon="5.55243">
        <ele>271.0</ele>
      </trkpt>
      <trkpt lat="50.57082" lon="5.5526">
        <ele>272.0</ele>
      </trkpt>
      <trkpt lat="50.57163" lon="5.55275">
        <ele>272.0</ele>
      </trkpt>
      <trkpt lat="50.57218" lon="5.55283">
        <ele>271.0</ele>
      </trkpt>
      <trkpt lat="50.5731" lon="5.55297">
        <ele>269.0</ele>
      </trkpt>
      <trkpt lat="50.574" lon="5.5531">
        <ele>268.0</ele>
      </trkpt>
      <trkpt lat="50.57503" lon="5.55327">
        <ele>268.0</ele>
      </trkpt>
      <trkpt lat="50.57575" lon="5.55339">
        <ele>266.0</ele>
      </trkpt>
      <trkpt lat="50.57653" lon="5.55351">
        <ele>263.0</ele>
      </trkpt>
      <trkpt lat="50.57661" lon="5.55378">
        <ele>262.0</ele>
      </trkpt>
      <trkpt lat="50.57681" lon="5.5539">
        <ele>261.0</ele>
      </trkpt>
      <trkpt lat="50.57893" lon="5.55552">
        <ele>261.0</ele>
      </trkpt>
      <trkpt lat="50.57968" lon="5.55632">
        <ele>259.0</ele>
      </trkpt>
      <trkpt lat="50.58018" lon="5.55637">
        <ele>258.0</ele>
      </trkpt>
      <trkpt lat="50.58034" lon="5.5572">
        <ele>256.0</ele>
      </trkpt>
      <trkpt lat="50.58063" lon="5.55821">
        <ele>255.0</ele>
      </trkpt>
      <trkpt lat="50.58164" lon="5.55986">
        <ele>252.0</ele>
      </trkpt>
      <trkpt lat="50.58265" lon="5.56193">
        <ele>248.0</ele>
      </trkpt>
      <trkpt lat="50.58398" lon="5.56412">
        <ele>248.0</ele>
      </trkpt>
      <trkpt lat="50.58507" lon="5.5645">
        <ele>249.0</ele>
      </trkpt>
      <trkpt lat="50.58536" lon="5.5649">
        <ele>248.0</ele>
      </trkpt>
      <trkpt lat="50.58529" lon="5.56578">
        <ele>247.0</ele>
      </trkpt>
      <trkpt lat="50.58522" lon="5.56718">
        <ele>245.0</ele>
      </trkpt>
      <trkpt lat="50.58518" lon="5.56722">
        <ele>244.0</ele>
      </trkpt>
      <trkpt lat="50.58515" lon="5.56727">
        <ele>244.0</ele>
      </trkpt>
      <trkpt lat="50.58514" lon="5.56736">
        <ele>244.0</ele>
      </trkpt>
      <trkpt lat="50.58515" lon="5.56742">
        <ele>244.0</ele>
      </trkpt>
      <trkpt lat="50.5852" lon="5.56749">
        <ele>244.0</ele>
      </trkpt>
      <trkpt lat="50.58526" lon="5.56751">
        <ele>244.0</ele>
      </trkpt>
      <trkpt lat="50.58586" lon="5.57046">
        <ele>244.0</ele>
      </trkpt>
      <trkpt lat="50.58657" lon="5.57138">
        <ele>244.0</ele>
      </trkpt>
      <trkpt lat="50.58729" lon="5.57076">
        <ele>243.0</ele>
      </trkpt>
      <trkpt lat="50.58755" lon="5.57035">
        <ele>243.0</ele>
      </trkpt>
      <trkpt lat="50.58812" lon="5.56945">
        <ele>243.0</ele>
      </trkpt>
      <trkpt lat="50.58908" lon="5.57041">
        <ele>242.0</ele>
      </trkpt>
      <trkpt lat="50.59068" lon="5.57119">
        <ele>239.0</ele>
      </trkpt>
      <trkpt lat="50.59068" lon="5.57151">
        <ele>238.0</ele>
      </trkpt>
      <trkpt lat="50.59065" lon="5.57192">
        <ele>238.0</ele>
      </trkpt>
      <trkpt lat="50.59104" lon="5.57219">
        <ele>237.0</ele>
      </trkpt>
      <trkpt lat="50.59157" lon="5.57263">
        <ele>236.0</ele>
      </trkpt>
      <trkpt lat="50.59265" lon="5.5741">
        <ele>236.0</ele>
      </trkpt>
      <trkpt lat="50.59295" lon="5.57586">
        <ele>234.0</ele>
      </trkpt>
      <trkpt lat="50.59348" lon="5.57798">
        <ele>231.0</ele>
      </trkpt>
      <trkpt lat="50.59481" lon="5.58031">
        <ele>229.0</ele>
      </trkpt>
      <trkpt lat="50.59579" lon="5.58092">
        <ele>228.0</ele>
      </trkpt>
      <trkpt lat="50.59631" lon="5.58165">
        <ele>225.0</ele>
      </trkpt>
      <trkpt lat="50.59756" lon="5.5817">
        <ele>219.0</ele>
      </trkpt>
      <trkpt lat="50.59883" lon="5.58175">
        <ele>212.0</ele>
      </trkpt>
      <trkpt lat="50.60114" lon="5.5834">
        <ele>199.0</ele>
      </trkpt>
      <trkpt lat="50.60166" lon="5.58443">
        <ele>193.0</ele>
      </trkpt>
      <trkpt lat="50.60307" lon="5.58723">
        <ele>185.0</ele>
      </trkpt>
      <trkpt lat="50.60367" lon="5.58952">
        <ele>172.0</ele>
      </trkpt>
      <trkpt lat="50.6038" lon="5.5897">
        <ele>170.0</ele>
      </trkpt>
      <trkpt lat="50.60657" lon="5.59142">
        <ele>159.0</ele>
      </trkpt>
      <trkpt lat="50.60846" lon="5.59257">
        <ele>140.0</ele>
      </trkpt>
      <trkpt lat="50.6089" lon="5.59276">
        <ele>137.0</ele>
      </trkpt>
      <trkpt lat="50.60929" lon="5.59208">
        <ele>133.0</ele>
      </trkpt>
      <trkpt lat="50.60946" lon="5.59144">
        <ele>129.0</ele>
      </trkpt>
      <trkpt lat="50.60971" lon="5.59058">
        <ele>123.0</ele>
      </trkpt>
      <trkpt lat="50.61058" lon="5.59026">
        <ele>116.0</ele>
      </trkpt>
      <trkpt lat="50.61094" lon="5.58966">
        <ele>111.0</ele>
      </trkpt>
      <trkpt lat="50.61104" lon="5.58925">
        <ele>109.0</ele>
      </trkpt>
      <trkpt lat="50.61106" lon="5.58892">
        <ele>107.0</ele>
      </trkpt>
      <trkpt lat="50.61102" lon="5.58853">
        <ele>105.0</ele>
      </trkpt>
      <trkpt lat="50.61094" lon="5.58824">
        <ele>102.0</ele>
      </trkpt>
      <trkpt lat="50.61084" lon="5.58804">
        <ele>101.0</ele>
      </trkpt>
      <trkpt lat="50.6107" lon="5.58783">
        <ele>99.0</ele>
      </trkpt>
      <trkpt lat="50.61049" lon="5.58759">
        <ele>96.0</ele>
      </trkpt>
      <trkpt lat="50.61039" lon="5.58749">
        <ele>95.0</ele>
      </trkpt>
      <trkpt lat="50.61031" lon="5.58739">
        <ele>94.0</ele>
      </trkpt>
      <trkpt lat="50.61022" lon="5.58729">
        <ele>93.0</ele>
      </trkpt>
      <trkpt lat="50.61014" lon="5.58719">
        <ele>91.0</ele>
      </trkpt>
      <trkpt lat="50.61006" lon="5.58707">
        <ele>90.0</ele>
      </trkpt>
      <trkpt lat="50.6099" lon="5.58674">
        <ele>88.0</ele>
      </trkpt>
      <trkpt lat="50.60975" lon="5.58642">
        <ele>85.0</ele>
      </trkpt>
      <trkpt lat="50.60967" lon="5.58624">
        <ele>84.0</ele>
      </trkpt>
      <trkpt lat="50.60961" lon="5.58607">
        <ele>83.0</ele>
      </trkpt>
      <trkpt lat="50.60955" lon="5.58581">
        <ele>82.0</ele>
      </trkpt>
      <trkpt lat="50.60953" lon="5.58566">
        <ele>81.0</ele>
      </trkpt>
      <trkpt lat="50.60952" lon="5.58548">
        <ele>80.0</ele>
      </trkpt>
      <trkpt lat="50.60952" lon="5.58523">
        <ele>79.0</ele>
      </trkpt>
      <trkpt lat="50.60954" lon="5.58508">
        <ele>78.0</ele>
      </trkpt>
      <trkpt lat="50.60959" lon="5.58488">
        <ele>77.0</ele>
      </trkpt>
      <trkpt lat="50.60963" lon="5.58476">
        <ele>76.0</ele>
      </trkpt>
      <trkpt lat="50.60971" lon="5.58456">
        <ele>75.0</ele>
      </trkpt>
      <trkpt lat="50.6099" lon="5.58429">
        <ele>73.0</ele>
      </trkpt>
      <trkpt lat="50.61034" lon="5.58377">
        <ele>70.0</ele>
      </trkpt>
      <trkpt lat="50.61051" lon="5.58367">
        <ele>70.0</ele>
      </trkpt>
      <trkpt lat="50.61072" lon="5.58363">
        <ele>69.0</ele>
      </trkpt>
      <trkpt lat="50.61093" lon="5.58364">
        <ele>69.0</ele>
      </trkpt>
      <trkpt lat="50.61133" lon="5.58377">
        <ele>68.0</ele>
      </trkpt>
      <trkpt lat="50.61184" lon="5.58409">
        <ele>67.0</ele>
      </trkpt>
      <trkpt lat="50.61255" lon="5.58416">
        <ele>66.0</ele>
      </trkpt>
      <trkpt lat="50.61296" lon="5.58409">
        <ele>65.0</ele>
      </trkpt>
      <trkpt lat="50.61324" lon="5.58397">
        <ele>65.0</ele>
      </trkpt>
      <trkpt lat="50.61402" lon="5.58372">
        <ele>65.0</ele>
      </trkpt>
      <trkpt lat="50.61487" lon="5.58338">
        <ele>65.0</ele>
      </trkpt>
      <trkpt lat="50.61532" lon="5.58301">
        <ele>66.0</ele>
      </trkpt>
      <trkpt lat="50.61565" lon="5.58275">
        <ele>66.0</ele>
      </trkpt>
      <trkpt lat="50.61597" lon="5.58261">
        <ele>66.0</ele>
      </trkpt>
      <trkpt lat="50.61622" lon="5.58226">
        <ele>66.0</ele>
      </trkpt>
      <trkpt lat="50.6165" lon="5.58157">
        <ele>66.0</ele>
      </trkpt>
      <trkpt lat="50.61704" lon="5.58121">
        <ele>66.0</ele>
      </trkpt>
      <trkpt lat="50.61753" lon="5.58101">
        <ele>66.0</ele>
      </trkpt>
      <trkpt lat="50.6186" lon="5.5811">
        <ele>65.0</ele>
      </trkpt>
      <trkpt lat="50.61998" lon="5.58128">
        <ele>65.0</ele>
      </trkpt>
      <trkpt lat="50.6212" lon="5.5812">
        <ele>66.0</ele>
      </trkpt>
      <trkpt lat="50.62154" lon="5.58162">
        <ele>67.0</ele>
      </trkpt>
      <trkpt lat="50.62203" lon="5.58271">
        <ele>67.0</ele>
      </trkpt>
      <trkpt lat="50.62023" lon="5.588">
        <ele>66.0</ele>
      </trkpt>
      <trkpt lat="50.61869" lon="5.59166">
        <ele>66.0</ele>
      </trkpt>
    </trkseg>
  </trk>
</gpx>