<?xml version="1.0" encoding="UTF-8"?>
<gpx xmlns="http://www.topografix.com/GPX/1/0" xmlns:xsi="http://www.w3.org/2001/XMLSchema-instance" xsi:schemaLocation="http://www.topografix.com/GPX/1/0 http://www.topografix.com/GPX/1/0/gpx.xsd" version="1.0" creator="GPSBabel - https://www.gpsbabel.org">
  <time>2026-01-25T06:28:11.886000Z</time>
  <bounds minlat="50.76739" maxlat="51.03514" minlon="3.5283" maxlon="4.02637" />
  <trk>
    <trkseg>
      <trkpt lat="51.00159" lon="3.72627">
        <ele>6.0</ele>
      </trkpt>
      <trkpt lat="51.00003" lon="3.73979">
        <ele>3.0</ele>
      </trkpt>
      <trkpt lat="50.99961" lon="3.74074">
        <ele>3.0</ele>
      </trkpt>
      <trkpt lat="50.99819" lon="3.74262">
        <ele>5.0</ele>
      </trkpt>
      <trkpt lat="51.00004" lon="3.74672">
        <ele>10.0</ele>
      </trkpt>
      <trkpt lat="51.00063" lon="3.75094">
        <ele>10.0</ele>
      </trkpt>
      <trkpt lat="51.00189" lon="3.75154">
        <ele>9.0</ele>
      </trkpt>
      <trkpt lat="51.00406" lon="3.75197">
        <ele>8.0</ele>
      </trkpt>
      <trkpt lat="51.00551" lon="3.75187">
        <ele>7.0</ele>
      </trkpt>
      <trkpt lat="51.0059" lon="3.75219">
        <ele>8.0</ele>
      </trkpt>
      <trkpt lat="51.00603" lon="3.7526">
        <ele>8.0</ele>
      </trkpt>
      <trkpt lat="51.00596" lon="3.75357">
        <ele>9.0</ele>
      </trkpt>
      <trkpt lat="51.00517" lon="3.75678">
        <ele>14.0</ele>
      </trkpt>
      <trkpt lat="51.00467" lon="3.76058">
        <ele>12.0</ele>
      </trkpt>
      <trkpt lat="51.0068" lon="3.76188">
        <ele>9.0</ele>
      </trkpt>
      <trkpt lat="51.00743" lon="3.76205">
        <ele>10.0</ele>
      </trkpt>
      <trkpt lat="51.01229" lon="3.76117">
        <ele>17.0</ele>
      </trkpt>
      <trkpt lat="51.0149" lon="3.76189">
        <ele>16.0</ele>
      </trkpt>
      <trkpt lat="51.01561" lon="3.76251">
        <ele>17.0</ele>
      </trkpt>
      <trkpt lat="51.01696" lon="3.76426">
        <ele>14.0</ele>
      </trkpt>
      <trkpt lat="51.01828" lon="3.76715">
        <ele>12.0</ele>
      </trkpt>
      <trkpt lat="51.01932" lon="3.76871">
        <ele>11.0</ele>
      </trkpt>
      <trkpt lat="51.01932" lon="3.76944">
        <ele>11.0</ele>
      </trkpt>
      <trkpt lat="51.01995" lon="3.76984">
        <ele>11.0</ele>
      </trkpt>
      <trkpt lat="51.02196" lon="3.7697">
        <ele>12.0</ele>
      </trkpt>
      <trkpt lat="51.02468" lon="3.77264">
        <ele>8.0</ele>
      </trkpt>
      <trkpt lat="51.02681" lon="3.77783">
        <ele>11.0</ele>
      </trkpt>
      <trkpt lat="51.02816" lon="3.78369">
        <ele>7.0</ele>
      </trkpt>
      <trkpt lat="51.02818" lon="3.7845">
        <ele>7.0</ele>
      </trkpt>
      <trkpt lat="51.02773" lon="3.78855">
        <ele>6.0</ele>
      </trkpt>
      <trkpt lat="51.02819" lon="3.79115">
        <ele>4.0</ele>
      </trkpt>
      <trkpt lat="51.0282" lon="3.79199">
        <ele>5.0</ele>
      </trkpt>
      <trkpt lat="51.02754" lon="3.79586">
        <ele>7.0</ele>
      </trkpt>
      <trkpt lat="51.02751" lon="3.79665">
        <ele>9.0</ele>
      </trkpt>
      <trkpt lat="51.02829" lon="3.79908">
        <ele>7.0</ele>
      </trkpt>
      <trkpt lat="51.02904" lon="3.80058">
        <ele>8.0</ele>
      </trkpt>
      <trkpt lat="51.03271" lon="3.80359">
        <ele>11.0</ele>
      </trkpt>
      <trkpt lat="51.0326" lon="3.8064">
        <ele>8.0</ele>
      </trkpt>
      <trkpt lat="51.03269" lon="3.80727">
        <ele>8.0</ele>
      </trkpt>
      <trkpt lat="51.03378" lon="3.8098">
        <ele>8.0</ele>
      </trkpt>
      <trkpt lat="51.03505" lon="3.81399">
        <ele>10.0</ele>
      </trkpt>
      <trkpt lat="51.03514" lon="3.81514">
        <ele>10.0</ele>
      </trkpt>
      <trkpt lat="51.03482" lon="3.81806">
        <ele>9.0</ele>
      </trkpt>
      <trkpt lat="51.0333" lon="3.82523">
        <ele>6.0</ele>
      </trkpt>
      <trkpt lat="51.03319" lon="3.82747">
        <ele>4.0</ele>
      </trkpt>
      <trkpt lat="51.03361" lon="3.83128">
        <ele>4.0</ele>
      </trkpt>
      <trkpt lat="51.0335" lon="3.83215">
        <ele>4.0</ele>
      </trkpt>
      <trkpt lat="51.03297" lon="3.83377">
        <ele>5.0</ele>
      </trkpt>
      <trkpt lat="51.03265" lon="3.83587">
        <ele>5.0</ele>
      </trkpt>
      <trkpt lat="51.03189" lon="3.83725">
        <ele>5.0</ele>
      </trkpt>
      <trkpt lat="51.03143" lon="3.83758">
        <ele>4.0</ele>
      </trkpt>
      <trkpt lat="51.03003" lon="3.83804">
        <ele>4.0</ele>
      </trkpt>
      <trkpt lat="51.02949" lon="3.83861">
        <ele>4.0</ele>
      </trkpt>
      <trkpt lat="51.02888" lon="3.83981">
        <ele>4.0</ele>
      </trkpt>
      <trkpt lat="51.02814" lon="3.84019">
        <ele>4.0</ele>
      </trkpt>
      <trkpt lat="51.02951" lon="3.84982">
        <ele>7.0</ele>
      </trkpt>
      <trkpt lat="51.02949" lon="3.85084">
        <ele>8.0</ele>
      </trkpt>
      <trkpt lat="51.02916" lon="3.85135">
        <ele>8.0</ele>
      </trkpt>
      <trkpt lat="51.02901" lon="3.85305">
        <ele>8.0</ele>
      </trkpt>
      <trkpt lat="51.02923" lon="3.85535">
        <ele>9.0</ele>
      </trkpt>
      <trkpt lat="51.02905" lon="3.85624">
        <ele>9.0</ele>
      </trkpt>
      <trkpt lat="51.02625" lon="3.86299">
        <ele>4.0</ele>
      </trkpt>
      <trkpt lat="51.02462" lon="3.86472">
        <ele>4.0</ele>
      </trkpt>
      <trkpt lat="51.02335" lon="3.86554">
        <ele>3.0</ele>
      </trkpt>
      <trkpt lat="51.02097" lon="3.8689">
        <ele>3.0</ele>
      </trkpt>
      <trkpt lat="51.02042" lon="3.86948">
        <ele>3.0</ele>
      </trkpt>
      <trkpt lat="51.0191" lon="3.87036">
        <ele>3.0</ele>
      </trkpt>
      <trkpt lat="51.01709" lon="3.87049">
        <ele>3.0</ele>
      </trkpt>
      <trkpt lat="51.01597" lon="3.87096">
        <ele>3.0</ele>
      </trkpt>
      <trkpt lat="51.01524" lon="3.87144">
        <ele>3.0</ele>
      </trkpt>
      <trkpt lat="51.01465" lon="3.8721">
        <ele>2.0</ele>
      </trkpt>
      <trkpt lat="51.01407" lon="3.87321">
        <ele>2.0</ele>
      </trkpt>
      <trkpt lat="51.0124" lon="3.88037">
        <ele>3.0</ele>
      </trkpt>
      <trkpt lat="51.01199" lon="3.88107">
        <ele>3.0</ele>
      </trkpt>
      <trkpt lat="51.01058" lon="3.88219">
        <ele>4.0</ele>
      </trkpt>
      <trkpt lat="51.00956" lon="3.88222">
        <ele>4.0</ele>
      </trkpt>
      <trkpt lat="51.0091" lon="3.88154">
        <ele>4.0</ele>
      </trkpt>
      <trkpt lat="51.00871" lon="3.8784">
        <ele>4.0</ele>
      </trkpt>
      <trkpt lat="51.00882" lon="3.8777">
        <ele>3.0</ele>
      </trkpt>
      <trkpt lat="51.00861" lon="3.87752">
        <ele>3.0</ele>
      </trkpt>
      <trkpt lat="51.00824" lon="3.87619">
        <ele>3.0</ele>
      </trkpt>
      <trkpt lat="51.0079" lon="3.87591">
        <ele>3.0</ele>
      </trkpt>
      <trkpt lat="51.00356" lon="3.87992">
        <ele>8.0</ele>
      </trkpt>
      <trkpt lat="51.00316" lon="3.88007">
        <ele>9.0</ele>
      </trkpt>
      <trkpt lat="51.00313" lon="3.88033">
        <ele>9.0</ele>
      </trkpt>
      <trkpt lat="51.00176" lon="3.88158">
        <ele>10.0</ele>
      </trkpt>
      <trkpt lat="51.00202" lon="3.8842">
        <ele>12.0</ele>
      </trkpt>
      <trkpt lat="51.00287" lon="3.88964">
        <ele>16.0</ele>
      </trkpt>
      <trkpt lat="51.00083" lon="3.89016">
        <ele>17.0</ele>
      </trkpt>
      <trkpt lat="51.00033" lon="3.89013">
        <ele>18.0</ele>
      </trkpt>
      <trkpt lat="51.00007" lon="3.88982">
        <ele>18.0</ele>
      </trkpt>
      <trkpt lat="50.9998" lon="3.88976">
        <ele>18.0</ele>
      </trkpt>
      <trkpt lat="50.99961" lon="3.8892">
        <ele>18.0</ele>
      </trkpt>
      <trkpt lat="50.99917" lon="3.88544">
        <ele>19.0</ele>
      </trkpt>
      <trkpt lat="50.99417" lon="3.88625">
        <ele>9.0</ele>
      </trkpt>
      <trkpt lat="50.99312" lon="3.88706">
        <ele>8.0</ele>
      </trkpt>
      <trkpt lat="50.99147" lon="3.88779">
        <ele>8.0</ele>
      </trkpt>
      <trkpt lat="50.9894" lon="3.88733">
        <ele>12.0</ele>
      </trkpt>
      <trkpt lat="50.98679" lon="3.88964">
        <ele>10.0</ele>
      </trkpt>
      <trkpt lat="50.98421" lon="3.89107">
        <ele>13.0</ele>
      </trkpt>
      <trkpt lat="50.97932" lon="3.89271">
        <ele>12.0</ele>
      </trkpt>
      <trkpt lat="50.9785" lon="3.89237">
        <ele>12.0</ele>
      </trkpt>
      <trkpt lat="50.97904" lon="3.89112">
        <ele>12.0</ele>
      </trkpt>
      <trkpt lat="50.97892" lon="3.88995">
        <ele>12.0</ele>
      </trkpt>
      <trkpt lat="50.9793" lon="3.88751">
        <ele>12.0</ele>
      </trkpt>
      <trkpt lat="50.97952" lon="3.88682">
        <ele>12.0</ele>
      </trkpt>
      <trkpt lat="50.97963" lon="3.88692">
        <ele>12.0</ele>
      </trkpt>
      <trkpt lat="50.98004" lon="3.88631">
        <ele>12.0</ele>
      </trkpt>
      <trkpt lat="50.98053" lon="3.88499">
        <ele>12.0</ele>
      </trkpt>
      <trkpt lat="50.98132" lon="3.8837">
        <ele>12.0</ele>
      </trkpt>
      <trkpt lat="50.98159" lon="3.88256">
        <ele>12.0</ele>
      </trkpt>
      <trkpt lat="50.98154" lon="3.88157">
        <ele>11.0</ele>
      </trkpt>
      <trkpt lat="50.9811" lon="3.87983">
        <ele>10.0</ele>
      </trkpt>
      <trkpt lat="50.98134" lon="3.87723">
        <ele>11.0</ele>
      </trkpt>
      <trkpt lat="50.98135" lon="3.87544">
        <ele>12.0</ele>
      </trkpt>
      <trkpt lat="50.98159" lon="3.87436">
        <ele>13.0</ele>
      </trkpt>
      <trkpt lat="50.97839" lon="3.87165">
        <ele>15.0</ele>
      </trkpt>
      <trkpt lat="50.97709" lon="3.87027">
        <ele>15.0</ele>
      </trkpt>
      <trkpt lat="50.97593" lon="3.86838">
        <ele>16.0</ele>
      </trkpt>
      <trkpt lat="50.97465" lon="3.86509">
        <ele>18.0</ele>
      </trkpt>
      <trkpt lat="50.97324" lon="3.86257">
        <ele>17.0</ele>
      </trkpt>
      <trkpt lat="50.97143" lon="3.8605">
        <ele>17.0</ele>
      </trkpt>
      <trkpt lat="50.97083" lon="3.86042">
        <ele>17.0</ele>
      </trkpt>
      <trkpt lat="50.96946" lon="3.86159">
        <ele>18.0</ele>
      </trkpt>
      <trkpt lat="50.96856" lon="3.86259">
        <ele>20.0</ele>
      </trkpt>
      <trkpt lat="50.96772" lon="3.8631">
        <ele>22.0</ele>
      </trkpt>
      <trkpt lat="50.96661" lon="3.86229">
        <ele>22.0</ele>
      </trkpt>
      <trkpt lat="50.96596" lon="3.86222">
        <ele>22.0</ele>
      </trkpt>
      <trkpt lat="50.96151" lon="3.8627">
        <ele>24.0</ele>
      </trkpt>
      <trkpt lat="50.96045" lon="3.8625">
        <ele>23.0</ele>
      </trkpt>
      <trkpt lat="50.95922" lon="3.86336">
        <ele>22.0</ele>
      </trkpt>
      <trkpt lat="50.95838" lon="3.8632">
        <ele>22.0</ele>
      </trkpt>
      <trkpt lat="50.95784" lon="3.8633">
        <ele>22.0</ele>
      </trkpt>
      <trkpt lat="50.95084" lon="3.86087">
        <ele>23.0</ele>
      </trkpt>
      <trkpt lat="50.94792" lon="3.86227">
        <ele>24.0</ele>
      </trkpt>
      <trkpt lat="50.94493" lon="3.86153">
        <ele>26.0</ele>
      </trkpt>
      <trkpt lat="50.94194" lon="3.85729">
        <ele>29.0</ele>
      </trkpt>
      <trkpt lat="50.94046" lon="3.85483">
        <ele>33.0</ele>
      </trkpt>
      <trkpt lat="50.93575" lon="3.85385">
        <ele>28.0</ele>
      </trkpt>
      <trkpt lat="50.92413" lon="3.84879">
        <ele>41.0</ele>
      </trkpt>
      <trkpt lat="50.92392" lon="3.84883">
        <ele>41.0</ele>
      </trkpt>
      <trkpt lat="50.9234" lon="3.84955">
        <ele>40.0</ele>
      </trkpt>
      <trkpt lat="50.92231" lon="3.85058">
        <ele>40.0</ele>
      </trkpt>
      <trkpt lat="50.92126" lon="3.85191">
        <ele>43.0</ele>
      </trkpt>
      <trkpt lat="50.92082" lon="3.85401">
        <ele>43.0</ele>
      </trkpt>
      <trkpt lat="50.92061" lon="3.85438">
        <ele>43.0</ele>
      </trkpt>
      <trkpt lat="50.92016" lon="3.85393">
        <ele>43.0</ele>
      </trkpt>
      <trkpt lat="50.91851" lon="3.85288">
        <ele>44.0</ele>
      </trkpt>
      <trkpt lat="50.91631" lon="3.85265">
        <ele>45.0</ele>
      </trkpt>
      <trkpt lat="50.91364" lon="3.8508">
        <ele>46.0</ele>
      </trkpt>
      <trkpt lat="50.91333" lon="3.85055">
        <ele>47.0</ele>
      </trkpt>
      <trkpt lat="50.91161" lon="3.84749">
        <ele>50.0</ele>
      </trkpt>
      <trkpt lat="50.90726" lon="3.84356">
        <ele>49.0</ele>
      </trkpt>
      <trkpt lat="50.90516" lon="3.84135">
        <ele>47.0</ele>
      </trkpt>
      <trkpt lat="50.90376" lon="3.83944">
        <ele>50.0</ele>
      </trkpt>
      <trkpt lat="50.90245" lon="3.83721">
        <ele>53.0</ele>
      </trkpt>
      <trkpt lat="50.90097" lon="3.83692">
        <ele>56.0</ele>
      </trkpt>
      <trkpt lat="50.90025" lon="3.83708">
        <ele>59.0</ele>
      </trkpt>
      <trkpt lat="50.89897" lon="3.83701">
        <ele>64.0</ele>
      </trkpt>
      <trkpt lat="50.89755" lon="3.83741">
        <ele>68.0</ele>
      </trkpt>
      <trkpt lat="50.89736" lon="3.83516">
        <ele>68.0</ele>
      </trkpt>
      <trkpt lat="50.89741" lon="3.83439">
        <ele>68.0</ele>
      </trkpt>
      <trkpt lat="50.89894" lon="3.82693">
        <ele>66.0</ele>
      </trkpt>
      <trkpt lat="50.89908" lon="3.82579">
        <ele>66.0</ele>
      </trkpt>
      <trkpt lat="50.89902" lon="3.81776">
        <ele>61.0</ele>
      </trkpt>
      <trkpt lat="50.89878" lon="3.81612">
        <ele>60.0</ele>
      </trkpt>
      <trkpt lat="50.89795" lon="3.8132">
        <ele>59.0</ele>
      </trkpt>
      <trkpt lat="50.89525" lon="3.80627">
        <ele>53.0</ele>
      </trkpt>
      <trkpt lat="50.89429" lon="3.80682">
        <ele>53.0</ele>
      </trkpt>
      <trkpt lat="50.89252" lon="3.80936">
        <ele>51.0</ele>
      </trkpt>
      <trkpt lat="50.89029" lon="3.81037">
        <ele>48.0</ele>
      </trkpt>
      <trkpt lat="50.88736" lon="3.80953">
        <ele>44.0</ele>
      </trkpt>
      <trkpt lat="50.88561" lon="3.80843">
        <ele>45.0</ele>
      </trkpt>
      <trkpt lat="50.88102" lon="3.8075">
        <ele>53.0</ele>
      </trkpt>
      <trkpt lat="50.87622" lon="3.8089">
        <ele>51.0</ele>
      </trkpt>
      <trkpt lat="50.87426" lon="3.81019">
        <ele>49.0</ele>
      </trkpt>
      <trkpt lat="50.87277" lon="3.80989">
        <ele>50.0</ele>
      </trkpt>
      <trkpt lat="50.87259" lon="3.8097">
        <ele>52.0</ele>
      </trkpt>
      <trkpt lat="50.87206" lon="3.8097">
        <ele>54.0</ele>
      </trkpt>
      <trkpt lat="50.8697" lon="3.8105">
        <ele>59.0</ele>
      </trkpt>
      <trkpt lat="50.86949" lon="3.81045">
        <ele>61.0</ele>
      </trkpt>
      <trkpt lat="50.86761" lon="3.80823">
        <ele>60.0</ele>
      </trkpt>
      <trkpt lat="50.86732" lon="3.80831">
        <ele>60.0</ele>
      </trkpt>
      <trkpt lat="50.86638" lon="3.80542">
        <ele>58.0</ele>
      </trkpt>
      <trkpt lat="50.86633" lon="3.80365">
        <ele>56.0</ele>
      </trkpt>
      <trkpt lat="50.86718" lon="3.79996">
        <ele>57.0</ele>
      </trkpt>
      <trkpt lat="50.86837" lon="3.7958">
        <ele>56.0</ele>
      </trkpt>
      <trkpt lat="50.86839" lon="3.79499">
        <ele>56.0</ele>
      </trkpt>
      <trkpt lat="50.86809" lon="3.79174">
        <ele>53.0</ele>
      </trkpt>
      <trkpt lat="50.86808" lon="3.7894">
        <ele>49.0</ele>
      </trkpt>
      <trkpt lat="50.86815" lon="3.78846">
        <ele>47.0</ele>
      </trkpt>
      <trkpt lat="50.8684" lon="3.78764">
        <ele>46.0</ele>
      </trkpt>
      <trkpt lat="50.87194" lon="3.78881">
        <ele>54.0</ele>
      </trkpt>
      <trkpt lat="50.87237" lon="3.78881">
        <ele>55.0</ele>
      </trkpt>
      <trkpt lat="50.87281" lon="3.78837">
        <ele>53.0</ele>
      </trkpt>
      <trkpt lat="50.87484" lon="3.78507">
        <ele>43.0</ele>
      </trkpt>
      <trkpt lat="50.878" lon="3.78153">
        <ele>33.0</ele>
      </trkpt>
      <trkpt lat="50.87902" lon="3.78126">
        <ele>29.0</ele>
      </trkpt>
      <trkpt lat="50.87956" lon="3.7814">
        <ele>29.0</ele>
      </trkpt>
      <trkpt lat="50.88003" lon="3.78195">
        <ele>30.0</ele>
      </trkpt>
      <trkpt lat="50.88036" lon="3.78269">
        <ele>34.0</ele>
      </trkpt>
      <trkpt lat="50.88139" lon="3.78349">
        <ele>40.0</ele>
      </trkpt>
      <trkpt lat="50.88193" lon="3.78321">
        <ele>41.0</ele>
      </trkpt>
      <trkpt lat="50.88269" lon="3.78212">
        <ele>44.0</ele>
      </trkpt>
      <trkpt lat="50.88378" lon="3.78113">
        <ele>42.0</ele>
      </trkpt>
      <trkpt lat="50.88169" lon="3.77504">
        <ele>46.0</ele>
      </trkpt>
      <trkpt lat="50.88131" lon="3.77437">
        <ele>45.0</ele>
      </trkpt>
      <trkpt lat="50.88097" lon="3.77335">
        <ele>44.0</ele>
      </trkpt>
      <trkpt lat="50.88044" lon="3.77245">
        <ele>41.0</ele>
      </trkpt>
      <trkpt lat="50.87903" lon="3.76851">
        <ele>38.0</ele>
      </trkpt>
      <trkpt lat="50.87814" lon="3.76667">
        <ele>36.0</ele>
      </trkpt>
      <trkpt lat="50.87761" lon="3.76512">
        <ele>33.0</ele>
      </trkpt>
      <trkpt lat="50.87729" lon="3.76347">
        <ele>32.0</ele>
      </trkpt>
      <trkpt lat="50.87658" lon="3.76214">
        <ele>31.0</ele>
      </trkpt>
      <trkpt lat="50.8774" lon="3.76153">
        <ele>34.0</ele>
      </trkpt>
      <trkpt lat="50.88182" lon="3.75982">
        <ele>42.0</ele>
      </trkpt>
      <trkpt lat="50.88212" lon="3.7602">
        <ele>41.0</ele>
      </trkpt>
      <trkpt lat="50.88252" lon="3.76028">
        <ele>39.0</ele>
      </trkpt>
      <trkpt lat="50.8828" lon="3.76083">
        <ele>37.0</ele>
      </trkpt>
      <trkpt lat="50.88336" lon="3.76106">
        <ele>34.0</ele>
      </trkpt>
      <trkpt lat="50.88405" lon="3.76092">
        <ele>30.0</ele>
      </trkpt>
      <trkpt lat="50.88507" lon="3.76323">
        <ele>29.0</ele>
      </trkpt>
      <trkpt lat="50.88561" lon="3.76348">
        <ele>32.0</ele>
      </trkpt>
      <trkpt lat="50.88618" lon="3.76331">
        <ele>35.0</ele>
      </trkpt>
      <trkpt lat="50.88611" lon="3.76">
        <ele>37.0</ele>
      </trkpt>
      <trkpt lat="50.88737" lon="3.75645">
        <ele>38.0</ele>
      </trkpt>
      <trkpt lat="50.88836" lon="3.75446">
        <ele>43.0</ele>
      </trkpt>
      <trkpt lat="50.88863" lon="3.75303">
        <ele>46.0</ele>
      </trkpt>
      <trkpt lat="50.88892" lon="3.74993">
        <ele>49.0</ele>
      </trkpt>
      <trkpt lat="50.8913" lon="3.74456">
        <ele>53.0</ele>
      </trkpt>
      <trkpt lat="50.89286" lon="3.73869">
        <ele>50.0</ele>
      </trkpt>
      <trkpt lat="50.89421" lon="3.73528">
        <ele>49.0</ele>
      </trkpt>
      <trkpt lat="50.89404" lon="3.73493">
        <ele>48.0</ele>
      </trkpt>
      <trkpt lat="50.89018" lon="3.70719">
        <ele>44.0</ele>
      </trkpt>
      <trkpt lat="50.888" lon="3.70308">
        <ele>33.0</ele>
      </trkpt>
      <trkpt lat="50.88739" lon="3.70168">
        <ele>25.0</ele>
      </trkpt>
      <trkpt lat="50.88572" lon="3.69291">
        <ele>15.0</ele>
      </trkpt>
      <trkpt lat="50.88531" lon="3.68827">
        <ele>11.0</ele>
      </trkpt>
      <trkpt lat="50.88462" lon="3.68553">
        <ele>10.0</ele>
      </trkpt>
      <trkpt lat="50.88466" lon="3.68524">
        <ele>10.0</ele>
      </trkpt>
      <trkpt lat="50.88452" lon="3.68523">
        <ele>10.0</ele>
      </trkpt>
      <trkpt lat="50.88428" lon="3.68557">
        <ele>10.0</ele>
      </trkpt>
      <trkpt lat="50.88393" lon="3.68653">
        <ele>10.0</ele>
      </trkpt>
      <trkpt lat="50.8835" lon="3.68708">
        <ele>11.0</ele>
      </trkpt>
      <trkpt lat="50.8788" lon="3.68989">
        <ele>13.0</ele>
      </trkpt>
      <trkpt lat="50.87782" lon="3.69067">
        <ele>15.0</ele>
      </trkpt>
      <trkpt lat="50.87572" lon="3.69426">
        <ele>18.0</ele>
      </trkpt>
      <trkpt lat="50.87488" lon="3.69656">
        <ele>21.0</ele>
      </trkpt>
      <trkpt lat="50.87409" lon="3.6978">
        <ele>22.0</ele>
      </trkpt>
      <trkpt lat="50.87311" lon="3.69979">
        <ele>23.0</ele>
      </trkpt>
      <trkpt lat="50.87319" lon="3.70021">
        <ele>23.0</ele>
      </trkpt>
      <trkpt lat="50.87419" lon="3.70146">
        <ele>23.0</ele>
      </trkpt>
      <trkpt lat="50.87427" lon="3.70191">
        <ele>23.0</ele>
      </trkpt>
      <trkpt lat="50.8742" lon="3.70237">
        <ele>23.0</ele>
      </trkpt>
      <trkpt lat="50.87321" lon="3.70336">
        <ele>24.0</ele>
      </trkpt>
      <trkpt lat="50.87256" lon="3.70441">
        <ele>26.0</ele>
      </trkpt>
      <trkpt lat="50.87201" lon="3.70497">
        <ele>28.0</ele>
      </trkpt>
      <trkpt lat="50.87162" lon="3.70592">
        <ele>31.0</ele>
      </trkpt>
      <trkpt lat="50.87107" lon="3.70678">
        <ele>35.0</ele>
      </trkpt>
      <trkpt lat="50.87073" lon="3.7077">
        <ele>39.0</ele>
      </trkpt>
      <trkpt lat="50.86933" lon="3.70834">
        <ele>41.0</ele>
      </trkpt>
      <trkpt lat="50.86841" lon="3.71051">
        <ele>43.0</ele>
      </trkpt>
      <trkpt lat="50.86601" lon="3.71105">
        <ele>48.0</ele>
      </trkpt>
      <trkpt lat="50.86578" lon="3.71274">
        <ele>56.0</ele>
      </trkpt>
      <trkpt lat="50.86498" lon="3.71122">
        <ele>61.0</ele>
      </trkpt>
      <trkpt lat="50.86432" lon="3.71231">
        <ele>65.0</ele>
      </trkpt>
      <trkpt lat="50.86092" lon="3.713">
        <ele>66.0</ele>
      </trkpt>
      <trkpt lat="50.86008" lon="3.7134">
        <ele>67.0</ele>
      </trkpt>
      <trkpt lat="50.85755" lon="3.71547">
        <ele>67.0</ele>
      </trkpt>
      <trkpt lat="50.85478" lon="3.71877">
        <ele>68.0</ele>
      </trkpt>
      <trkpt lat="50.85267" lon="3.71829">
        <ele>62.0</ele>
      </trkpt>
      <trkpt lat="50.85164" lon="3.71934">
        <ele>57.0</ele>
      </trkpt>
      <trkpt lat="50.85118" lon="3.71852">
        <ele>54.0</ele>
      </trkpt>
      <trkpt lat="50.85053" lon="3.71703">
        <ele>50.0</ele>
      </trkpt>
      <trkpt lat="50.85019" lon="3.71548">
        <ele>43.0</ele>
      </trkpt>
      <trkpt lat="50.8502" lon="3.71417">
        <ele>38.0</ele>
      </trkpt>
      <trkpt lat="50.85069" lon="3.71031">
        <ele>30.0</ele>
      </trkpt>
      <trkpt lat="50.85028" lon="3.70969">
        <ele>31.0</ele>
      </trkpt>
      <trkpt lat="50.84993" lon="3.70973">
        <ele>32.0</ele>
      </trkpt>
      <trkpt lat="50.84901" lon="3.71131">
        <ele>33.0</ele>
      </trkpt>
      <trkpt lat="50.84865" lon="3.71154">
        <ele>33.0</ele>
      </trkpt>
      <trkpt lat="50.84631" lon="3.71053">
        <ele>37.0</ele>
      </trkpt>
      <trkpt lat="50.84309" lon="3.70853">
        <ele>46.0</ele>
      </trkpt>
      <trkpt lat="50.84015" lon="3.70583">
        <ele>61.0</ele>
      </trkpt>
      <trkpt lat="50.83875" lon="3.7037">
        <ele>69.0</ele>
      </trkpt>
      <trkpt lat="50.83608" lon="3.70104">
        <ele>76.0</ele>
      </trkpt>
      <trkpt lat="50.83506" lon="3.69965">
        <ele>79.0</ele>
      </trkpt>
      <trkpt lat="50.83461" lon="3.70167">
        <ele>73.0</ele>
      </trkpt>
      <trkpt lat="50.8327" lon="3.70499">
        <ele>60.0</ele>
      </trkpt>
      <trkpt lat="50.83192" lon="3.70677">
        <ele>63.0</ele>
      </trkpt>
      <trkpt lat="50.83153" lon="3.70804">
        <ele>65.0</ele>
      </trkpt>
      <trkpt lat="50.83029" lon="3.70909">
        <ele>66.0</ele>
      </trkpt>
      <trkpt lat="50.82861" lon="3.71103">
        <ele>61.0</ele>
      </trkpt>
      <trkpt lat="50.8279" lon="3.71216">
        <ele>62.0</ele>
      </trkpt>
      <trkpt lat="50.8262" lon="3.71315">
        <ele>64.0</ele>
      </trkpt>
      <trkpt lat="50.82509" lon="3.71437">
        <ele>63.0</ele>
      </trkpt>
      <trkpt lat="50.82254" lon="3.71627">
        <ele>62.0</ele>
      </trkpt>
      <trkpt lat="50.82293" lon="3.71785">
        <ele>59.0</ele>
      </trkpt>
      <trkpt lat="50.82328" lon="3.71853">
        <ele>59.0</ele>
      </trkpt>
      <trkpt lat="50.82339" lon="3.71968">
        <ele>60.0</ele>
      </trkpt>
      <trkpt lat="50.82412" lon="3.7208">
        <ele>64.0</ele>
      </trkpt>
      <trkpt lat="50.82504" lon="3.72158">
        <ele>72.0</ele>
      </trkpt>
      <trkpt lat="50.82547" lon="3.72164">
        <ele>76.0</ele>
      </trkpt>
      <trkpt lat="50.82603" lon="3.7225">
        <ele>80.0</ele>
      </trkpt>
      <trkpt lat="50.82688" lon="3.72292">
        <ele>84.0</ele>
      </trkpt>
      <trkpt lat="50.83013" lon="3.72628">
        <ele>93.0</ele>
      </trkpt>
      <trkpt lat="50.8296" lon="3.73021">
        <ele>96.0</ele>
      </trkpt>
      <trkpt lat="50.82973" lon="3.73114">
        <ele>98.0</ele>
      </trkpt>
      <trkpt lat="50.83018" lon="3.73236">
        <ele>99.0</ele>
      </trkpt>
      <trkpt lat="50.82838" lon="3.73264">
        <ele>99.0</ele>
      </trkpt>
      <trkpt lat="50.82638" lon="3.73355">
        <ele>98.0</ele>
      </trkpt>
      <trkpt lat="50.82412" lon="3.73327">
        <ele>98.0</ele>
      </trkpt>
      <trkpt lat="50.8218" lon="3.73423">
        <ele>98.0</ele>
      </trkpt>
      <trkpt lat="50.81832" lon="3.73439">
        <ele>100.0</ele>
      </trkpt>
      <trkpt lat="50.81829" lon="3.73395">
        <ele>100.0</ele>
      </trkpt>
      <trkpt lat="50.81666" lon="3.73185">
        <ele>100.0</ele>
      </trkpt>
      <trkpt lat="50.81624" lon="3.73169">
        <ele>100.0</ele>
      </trkpt>
      <trkpt lat="50.8154" lon="3.73189">
        <ele>100.0</ele>
      </trkpt>
      <trkpt lat="50.81459" lon="3.73096">
        <ele>99.0</ele>
      </trkpt>
      <trkpt lat="50.81533" lon="3.72901">
        <ele>97.0</ele>
      </trkpt>
      <trkpt lat="50.81633" lon="3.72765">
        <ele>92.0</ele>
      </trkpt>
      <trkpt lat="50.8171" lon="3.72611">
        <ele>86.0</ele>
      </trkpt>
      <trkpt lat="50.81782" lon="3.72353">
        <ele>79.0</ele>
      </trkpt>
      <trkpt lat="50.81841" lon="3.7166">
        <ele>68.0</ele>
      </trkpt>
      <trkpt lat="50.81949" lon="3.7125">
        <ele>73.0</ele>
      </trkpt>
      <trkpt lat="50.81968" lon="3.71131">
        <ele>76.0</ele>
      </trkpt>
      <trkpt lat="50.81979" lon="3.70867">
        <ele>85.0</ele>
      </trkpt>
      <trkpt lat="50.81952" lon="3.7062">
        <ele>93.0</ele>
      </trkpt>
      <trkpt lat="50.81948" lon="3.70478">
        <ele>96.0</ele>
      </trkpt>
      <trkpt lat="50.82017" lon="3.69901">
        <ele>97.0</ele>
      </trkpt>
      <trkpt lat="50.82049" lon="3.6976">
        <ele>97.0</ele>
      </trkpt>
      <trkpt lat="50.82068" lon="3.69596">
        <ele>98.0</ele>
      </trkpt>
      <trkpt lat="50.82165" lon="3.69357">
        <ele>95.0</ele>
      </trkpt>
      <trkpt lat="50.82279" lon="3.69211">
        <ele>94.0</ele>
      </trkpt>
      <trkpt lat="50.82319" lon="3.69137">
        <ele>95.0</ele>
      </trkpt>
      <trkpt lat="50.82466" lon="3.68793">
        <ele>101.0</ele>
      </trkpt>
      <trkpt lat="50.82587" lon="3.68628">
        <ele>99.0</ele>
      </trkpt>
      <trkpt lat="50.82497" lon="3.68539">
        <ele>98.0</ele>
      </trkpt>
      <trkpt lat="50.82375" lon="3.68594">
        <ele>96.0</ele>
      </trkpt>
      <trkpt lat="50.82219" lon="3.68599">
        <ele>90.0</ele>
      </trkpt>
      <trkpt lat="50.82135" lon="3.68565">
        <ele>86.0</ele>
      </trkpt>
      <trkpt lat="50.82077" lon="3.68475">
        <ele>80.0</ele>
      </trkpt>
      <trkpt lat="50.81949" lon="3.68343">
        <ele>75.0</ele>
      </trkpt>
      <trkpt lat="50.81804" lon="3.68158">
        <ele>64.0</ele>
      </trkpt>
      <trkpt lat="50.81699" lon="3.68152">
        <ele>58.0</ele>
      </trkpt>
      <trkpt lat="50.81573" lon="3.68098">
        <ele>50.0</ele>
      </trkpt>
      <trkpt lat="50.81444" lon="3.68104">
        <ele>37.0</ele>
      </trkpt>
      <trkpt lat="50.81394" lon="3.68083">
        <ele>35.0</ele>
      </trkpt>
      <trkpt lat="50.81305" lon="3.67985">
        <ele>31.0</ele>
      </trkpt>
      <trkpt lat="50.81252" lon="3.68018">
        <ele>30.0</ele>
      </trkpt>
      <trkpt lat="50.81152" lon="3.68187">
        <ele>30.0</ele>
      </trkpt>
      <trkpt lat="50.81121" lon="3.68207">
        <ele>30.0</ele>
      </trkpt>
      <trkpt lat="50.81079" lon="3.68174">
        <ele>31.0</ele>
      </trkpt>
      <trkpt lat="50.80914" lon="3.67938">
        <ele>37.0</ele>
      </trkpt>
      <trkpt lat="50.80894" lon="3.67943">
        <ele>37.0</ele>
      </trkpt>
      <trkpt lat="50.80827" lon="3.68039">
        <ele>38.0</ele>
      </trkpt>
      <trkpt lat="50.80774" lon="3.68026">
        <ele>39.0</ele>
      </trkpt>
      <trkpt lat="50.80721" lon="3.67974">
        <ele>40.0</ele>
      </trkpt>
      <trkpt lat="50.80683" lon="3.67909">
        <ele>41.0</ele>
      </trkpt>
      <trkpt lat="50.80617" lon="3.67866">
        <ele>42.0</ele>
      </trkpt>
      <trkpt lat="50.80552" lon="3.67788">
        <ele>43.0</ele>
      </trkpt>
      <trkpt lat="50.80796" lon="3.6769">
        <ele>44.0</ele>
      </trkpt>
      <trkpt lat="50.8093" lon="3.67575">
        <ele>44.0</ele>
      </trkpt>
      <trkpt lat="50.81009" lon="3.67485">
        <ele>43.0</ele>
      </trkpt>
      <trkpt lat="50.81091" lon="3.67328">
        <ele>40.0</ele>
      </trkpt>
      <trkpt lat="50.81352" lon="3.66983">
        <ele>37.0</ele>
      </trkpt>
      <trkpt lat="50.81381" lon="3.66923">
        <ele>35.0</ele>
      </trkpt>
      <trkpt lat="50.81395" lon="3.66857">
        <ele>34.0</ele>
      </trkpt>
      <trkpt lat="50.81457" lon="3.66022">
        <ele>27.0</ele>
      </trkpt>
      <trkpt lat="50.81548" lon="3.6574">
        <ele>29.0</ele>
      </trkpt>
      <trkpt lat="50.81583" lon="3.65549">
        <ele>29.0</ele>
      </trkpt>
      <trkpt lat="50.81595" lon="3.65371">
        <ele>29.0</ele>
      </trkpt>
      <trkpt lat="50.81592" lon="3.64827">
        <ele>25.0</ele>
      </trkpt>
      <trkpt lat="50.81786" lon="3.63962">
        <ele>21.0</ele>
      </trkpt>
      <trkpt lat="50.81838" lon="3.63962">
        <ele>20.0</ele>
      </trkpt>
      <trkpt lat="50.81876" lon="3.64031">
        <ele>20.0</ele>
      </trkpt>
      <trkpt lat="50.81946" lon="3.64065">
        <ele>21.0</ele>
      </trkpt>
      <trkpt lat="50.82251" lon="3.64079">
        <ele>38.0</ele>
      </trkpt>
      <trkpt lat="50.82368" lon="3.64019">
        <ele>53.0</ele>
      </trkpt>
      <trkpt lat="50.82417" lon="3.63913">
        <ele>63.0</ele>
      </trkpt>
      <trkpt lat="50.82507" lon="3.6381">
        <ele>69.0</ele>
      </trkpt>
      <trkpt lat="50.82766" lon="3.6367">
        <ele>79.0</ele>
      </trkpt>
      <trkpt lat="50.82862" lon="3.63487">
        <ele>81.0</ele>
      </trkpt>
      <trkpt lat="50.83024" lon="3.62883">
        <ele>79.0</ele>
      </trkpt>
      <trkpt lat="50.83055" lon="3.62852">
        <ele>78.0</ele>
      </trkpt>
      <trkpt lat="50.83147" lon="3.62831">
        <ele>76.0</ele>
      </trkpt>
      <trkpt lat="50.8322" lon="3.62768">
        <ele>75.0</ele>
      </trkpt>
      <trkpt lat="50.83356" lon="3.62542">
        <ele>77.0</ele>
      </trkpt>
      <trkpt lat="50.83559" lon="3.62073">
        <ele>67.0</ele>
      </trkpt>
      <trkpt lat="50.83706" lon="3.61946">
        <ele>56.0</ele>
      </trkpt>
      <trkpt lat="50.83752" lon="3.61878">
        <ele>51.0</ele>
      </trkpt>
      <trkpt lat="50.83767" lon="3.61819">
        <ele>48.0</ele>
      </trkpt>
      <trkpt lat="50.8374" lon="3.61483">
        <ele>37.0</ele>
      </trkpt>
      <trkpt lat="50.83439" lon="3.60694">
        <ele>14.0</ele>
      </trkpt>
      <trkpt lat="50.83517" lon="3.60678">
        <ele>13.0</ele>
      </trkpt>
      <trkpt lat="50.83752" lon="3.60714">
        <ele>12.0</ele>
      </trkpt>
      <trkpt lat="50.83771" lon="3.60524">
        <ele>14.0</ele>
      </trkpt>
      <trkpt lat="50.83826" lon="3.60402">
        <ele>14.0</ele>
      </trkpt>
      <trkpt lat="50.84188" lon="3.60192">
        <ele>11.0</ele>
      </trkpt>
      <trkpt lat="50.84215" lon="3.60242">
        <ele>12.0</ele>
      </trkpt>
      <trkpt lat="50.84224" lon="3.60346">
        <ele>13.0</ele>
      </trkpt>
      <trkpt lat="50.84271" lon="3.60404">
        <ele>14.0</ele>
      </trkpt>
      <trkpt lat="50.84336" lon="3.6038">
        <ele>14.0</ele>
      </trkpt>
      <trkpt lat="50.84523" lon="3.60232">
        <ele>14.0</ele>
      </trkpt>
      <trkpt lat="50.847" lon="3.60134">
        <ele>16.0</ele>
      </trkpt>
      <trkpt lat="50.84797" lon="3.60042">
        <ele>16.0</ele>
      </trkpt>
      <trkpt lat="50.84894" lon="3.59922">
        <ele>14.0</ele>
      </trkpt>
      <trkpt lat="50.85127" lon="3.59561">
        <ele>16.0</ele>
      </trkpt>
      <trkpt lat="50.85295" lon="3.59437">
        <ele>19.0</ele>
      </trkpt>
      <trkpt lat="50.85371" lon="3.59353">
        <ele>20.0</ele>
      </trkpt>
      <trkpt lat="50.85759" lon="3.58622">
        <ele>26.0</ele>
      </trkpt>
      <trkpt lat="50.86261" lon="3.57189">
        <ele>26.0</ele>
      </trkpt>
      <trkpt lat="50.86343" lon="3.57001">
        <ele>32.0</ele>
      </trkpt>
      <trkpt lat="50.86568" lon="3.56705">
        <ele>43.0</ele>
      </trkpt>
      <trkpt lat="50.86739" lon="3.56517">
        <ele>52.0</ele>
      </trkpt>
      <trkpt lat="50.86899" lon="3.56293">
        <ele>52.0</ele>
      </trkpt>
      <trkpt lat="50.87275" lon="3.55924">
        <ele>56.0</ele>
      </trkpt>
      <trkpt lat="50.87639" lon="3.5549">
        <ele>45.0</ele>
      </trkpt>
      <trkpt lat="50.87985" lon="3.54881">
        <ele>32.0</ele>
      </trkpt>
      <trkpt lat="50.88154" lon="3.54744">
        <ele>36.0</ele>
      </trkpt>
      <trkpt lat="50.88313" lon="3.54569">
        <ele>40.0</ele>
      </trkpt>
      <trkpt lat="50.88871" lon="3.54221">
        <ele>46.0</ele>
      </trkpt>
      <trkpt lat="50.89967" lon="3.52978">
        <ele>55.0</ele>
      </trkpt>
      <trkpt lat="50.90015" lon="3.52954">
        <ele>52.0</ele>
      </trkpt>
      <trkpt lat="50.90103" lon="3.52957">
        <ele>49.0</ele>
      </trkpt>
      <trkpt lat="50.90309" lon="3.52925">
        <ele>42.0</ele>
      </trkpt>
      <trkpt lat="50.90381" lon="3.52887">
        <ele>41.0</ele>
      </trkpt>
      <trkpt lat="50.90437" lon="3.5283">
        <ele>40.0</ele>
      </trkpt>
      <trkpt lat="50.9046" lon="3.52832">
        <ele>40.0</ele>
      </trkpt>
      <trkpt lat="50.90502" lon="3.52872">
        <ele>39.0</ele>
      </trkpt>
      <trkpt lat="50.90606" lon="3.52867">
        <ele>38.0</ele>
      </trkpt>
      <trkpt lat="50.907" lon="3.53114">
        <ele>36.0</ele>
      </trkpt>
      <trkpt lat="50.90772" lon="3.53221">
        <ele>35.0</ele>
      </trkpt>
      <trkpt lat="50.90869" lon="3.53321">
        <ele>32.0</ele>
      </trkpt>
      <trkpt lat="50.91121" lon="3.53467">
        <ele>31.0</ele>
      </trkpt>
      <trkpt lat="50.91186" lon="3.53538">
        <ele>31.0</ele>
      </trkpt>
      <trkpt lat="50.913" lon="3.53745">
        <ele>30.0</ele>
      </trkpt>
      <trkpt lat="50.91393" lon="3.54421">
        <ele>25.0</ele>
      </trkpt>
      <trkpt lat="50.91592" lon="3.55459">
        <ele>21.0</ele>
      </trkpt>
      <trkpt lat="50.91877" lon="3.56806">
        <ele>20.0</ele>
      </trkpt>
      <trkpt lat="50.91879" lon="3.56874">
        <ele>19.0</ele>
      </trkpt>
      <trkpt lat="50.91894" lon="3.56882">
        <ele>19.0</ele>
      </trkpt>
      <trkpt lat="50.919" lon="3.56869">
        <ele>19.0</ele>
      </trkpt>
      <trkpt lat="50.91963" lon="3.56907">
        <ele>18.0</ele>
      </trkpt>
      <trkpt lat="50.92166" lon="3.56943">
        <ele>17.0</ele>
      </trkpt>
      <trkpt lat="50.92463" lon="3.57222">
        <ele>13.0</ele>
      </trkpt>
      <trkpt lat="50.92547" lon="3.57258">
        <ele>12.0</ele>
      </trkpt>
      <trkpt lat="50.92591" lon="3.57297">
        <ele>12.0</ele>
      </trkpt>
      <trkpt lat="50.92616" lon="3.57333">
        <ele>12.0</ele>
      </trkpt>
      <trkpt lat="50.9265" lon="3.57429">
        <ele>12.0</ele>
      </trkpt>
      <trkpt lat="50.92852" lon="3.58643">
        <ele>11.0</ele>
      </trkpt>
      <trkpt lat="50.92871" lon="3.58702">
        <ele>11.0</ele>
      </trkpt>
      <trkpt lat="50.92921" lon="3.58752">
        <ele>10.0</ele>
      </trkpt>
      <trkpt lat="50.93247" lon="3.5884">
        <ele>10.0</ele>
      </trkpt>
      <trkpt lat="50.93532" lon="3.59083">
        <ele>10.0</ele>
      </trkpt>
      <trkpt lat="50.93854" lon="3.59431">
        <ele>7.0</ele>
      </trkpt>
      <trkpt lat="50.94012" lon="3.59764">
        <ele>9.0</ele>
      </trkpt>
      <trkpt lat="50.93395" lon="3.61241">
        <ele>6.0</ele>
      </trkpt>
      <trkpt lat="50.933" lon="3.61493">
        <ele>7.0</ele>
      </trkpt>
      <trkpt lat="50.93185" lon="3.6193">
        <ele>7.0</ele>
      </trkpt>
      <trkpt lat="50.93039" lon="3.62804">
        <ele>7.0</ele>
      </trkpt>
      <trkpt lat="50.93377" lon="3.62906">
        <ele>7.0</ele>
      </trkpt>
      <trkpt lat="50.94056" lon="3.6333">
        <ele>8.0</ele>
      </trkpt>
      <trkpt lat="50.94518" lon="3.63679">
        <ele>8.0</ele>
      </trkpt>
      <trkpt lat="50.94877" lon="3.6401">
        <ele>7.0</ele>
      </trkpt>
      <trkpt lat="50.95649" lon="3.64606">
        <ele>8.0</ele>
      </trkpt>
      <trkpt lat="50.9562" lon="3.65023">
        <ele>7.0</ele>
      </trkpt>
      <trkpt lat="50.95585" lon="3.65183">
        <ele>7.0</ele>
      </trkpt>
      <trkpt lat="50.95405" lon="3.657">
        <ele>6.0</ele>
      </trkpt>
      <trkpt lat="50.95351" lon="3.65801">
        <ele>6.0</ele>
      </trkpt>
      <trkpt lat="50.95216" lon="3.65996">
        <ele>5.0</ele>
      </trkpt>
      <trkpt lat="50.95151" lon="3.66125">
        <ele>7.0</ele>
      </trkpt>
      <trkpt lat="50.95035" lon="3.66573">
        <ele>7.0</ele>
      </trkpt>
      <trkpt lat="50.94805" lon="3.66845">
        <ele>11.0</ele>
      </trkpt>
      <trkpt lat="50.94697" lon="3.66906">
        <ele>16.0</ele>
      </trkpt>
      <trkpt lat="50.9466" lon="3.66899">
        <ele>20.0</ele>
      </trkpt>
      <trkpt lat="50.9458" lon="3.66804">
        <ele>24.0</ele>
      </trkpt>
      <trkpt lat="50.94511" lon="3.66655">
        <ele>30.0</ele>
      </trkpt>
      <trkpt lat="50.94491" lon="3.66658">
        <ele>30.0</ele>
      </trkpt>
      <trkpt lat="50.9445" lon="3.66709">
        <ele>30.0</ele>
      </trkpt>
      <trkpt lat="50.94436" lon="3.66763">
        <ele>30.0</ele>
      </trkpt>
      <trkpt lat="50.9448" lon="3.66819">
        <ele>30.0</ele>
      </trkpt>
      <trkpt lat="50.94519" lon="3.66952">
        <ele>30.0</ele>
      </trkpt>
      <trkpt lat="50.94532" lon="3.67261">
        <ele>29.0</ele>
      </trkpt>
      <trkpt lat="50.94616" lon="3.67691">
        <ele>27.0</ele>
      </trkpt>
      <trkpt lat="50.94704" lon="3.67929">
        <ele>25.0</ele>
      </trkpt>
      <trkpt lat="50.94848" lon="3.68216">
        <ele>24.0</ele>
      </trkpt>
      <trkpt lat="50.9491" lon="3.68425">
        <ele>23.0</ele>
      </trkpt>
      <trkpt lat="50.94815" lon="3.68431">
        <ele>23.0</ele>
      </trkpt>
      <trkpt lat="50.94499" lon="3.68396">
        <ele>28.0</ele>
      </trkpt>
      <trkpt lat="50.94451" lon="3.68516">
        <ele>29.0</ele>
      </trkpt>
      <trkpt lat="50.94448" lon="3.68552">
        <ele>29.0</ele>
      </trkpt>
      <trkpt lat="50.9448" lon="3.68857">
        <ele>26.0</ele>
      </trkpt>
      <trkpt lat="50.94228" lon="3.69199">
        <ele>30.0</ele>
      </trkpt>
      <trkpt lat="50.94159" lon="3.69368">
        <ele>32.0</ele>
      </trkpt>
      <trkpt lat="50.94158" lon="3.69418">
        <ele>33.0</ele>
      </trkpt>
      <trkpt lat="50.94193" lon="3.69534">
        <ele>34.0</ele>
      </trkpt>
      <trkpt lat="50.94193" lon="3.69597">
        <ele>34.0</ele>
      </trkpt>
      <trkpt lat="50.94117" lon="3.6992">
        <ele>31.0</ele>
      </trkpt>
      <trkpt lat="50.9404" lon="3.7009">
        <ele>31.0</ele>
      </trkpt>
      <trkpt lat="50.9404" lon="3.70217">
        <ele>32.0</ele>
      </trkpt>
      <trkpt lat="50.94076" lon="3.70438">
        <ele>32.0</ele>
      </trkpt>
      <trkpt lat="50.9407" lon="3.70476">
        <ele>32.0</ele>
      </trkpt>
      <trkpt lat="50.93793" lon="3.70917">
        <ele>34.0</ele>
      </trkpt>
      <trkpt lat="50.93682" lon="3.71251">
        <ele>39.0</ele>
      </trkpt>
      <trkpt lat="50.93583" lon="3.71451">
        <ele>40.0</ele>
      </trkpt>
      <trkpt lat="50.93391" lon="3.71677">
        <ele>37.0</ele>
      </trkpt>
      <trkpt lat="50.93314" lon="3.71831">
        <ele>39.0</ele>
      </trkpt>
      <trkpt lat="50.93258" lon="3.71902">
        <ele>40.0</ele>
      </trkpt>
      <trkpt lat="50.92952" lon="3.72187">
        <ele>41.0</ele>
      </trkpt>
      <trkpt lat="50.9305" lon="3.72439">
        <ele>41.0</ele>
      </trkpt>
      <trkpt lat="50.93106" lon="3.72675">
        <ele>41.0</ele>
      </trkpt>
      <trkpt lat="50.93205" lon="3.72839">
        <ele>41.0</ele>
      </trkpt>
      <trkpt lat="50.93222" lon="3.7299">
        <ele>41.0</ele>
      </trkpt>
      <trkpt lat="50.93261" lon="3.73161">
        <ele>42.0</ele>
      </trkpt>
      <trkpt lat="50.93251" lon="3.73273">
        <ele>42.0</ele>
      </trkpt>
      <trkpt lat="50.93167" lon="3.73712">
        <ele>40.0</ele>
      </trkpt>
      <trkpt lat="50.93048" lon="3.73932">
        <ele>41.0</ele>
      </trkpt>
      <trkpt lat="50.93025" lon="3.74016">
        <ele>41.0</ele>
      </trkpt>
      <trkpt lat="50.93026" lon="3.74592">
        <ele>36.0</ele>
      </trkpt>
      <trkpt lat="50.93044" lon="3.74831">
        <ele>33.0</ele>
      </trkpt>
      <trkpt lat="50.93135" lon="3.75042">
        <ele>34.0</ele>
      </trkpt>
      <trkpt lat="50.93486" lon="3.75575">
        <ele>34.0</ele>
      </trkpt>
      <trkpt lat="50.93589" lon="3.75684">
        <ele>32.0</ele>
      </trkpt>
      <trkpt lat="50.93651" lon="3.76005">
        <ele>31.0</ele>
      </trkpt>
      <trkpt lat="50.93627" lon="3.76254">
        <ele>30.0</ele>
      </trkpt>
      <trkpt lat="50.93559" lon="3.76431">
        <ele>30.0</ele>
      </trkpt>
      <trkpt lat="50.93542" lon="3.76584">
        <ele>30.0</ele>
      </trkpt>
      <trkpt lat="50.9351" lon="3.76707">
        <ele>30.0</ele>
      </trkpt>
      <trkpt lat="50.93314" lon="3.77182">
        <ele>33.0</ele>
      </trkpt>
      <trkpt lat="50.93017" lon="3.76704">
        <ele>36.0</ele>
      </trkpt>
      <trkpt lat="50.92925" lon="3.7665">
        <ele>37.0</ele>
      </trkpt>
      <trkpt lat="50.92812" lon="3.76629">
        <ele>37.0</ele>
      </trkpt>
      <trkpt lat="50.92497" lon="3.76376">
        <ele>43.0</ele>
      </trkpt>
      <trkpt lat="50.924" lon="3.76333">
        <ele>43.0</ele>
      </trkpt>
      <trkpt lat="50.92148" lon="3.76045">
        <ele>47.0</ele>
      </trkpt>
      <trkpt lat="50.92124" lon="3.75997">
        <ele>48.0</ele>
      </trkpt>
      <trkpt lat="50.91921" lon="3.75089">
        <ele>56.0</ele>
      </trkpt>
      <trkpt lat="50.91636" lon="3.73705">
        <ele>57.0</ele>
      </trkpt>
      <trkpt lat="50.91491" lon="3.73291">
        <ele>57.0</ele>
      </trkpt>
      <trkpt lat="50.91463" lon="3.73023">
        <ele>58.0</ele>
      </trkpt>
      <trkpt lat="50.91373" lon="3.72643">
        <ele>58.0</ele>
      </trkpt>
      <trkpt lat="50.91341" lon="3.72575">
        <ele>58.0</ele>
      </trkpt>
      <trkpt lat="50.91185" lon="3.72039">
        <ele>59.0</ele>
      </trkpt>
      <trkpt lat="50.9114" lon="3.71965">
        <ele>56.0</ele>
      </trkpt>
      <trkpt lat="50.90708" lon="3.71816">
        <ele>42.0</ele>
      </trkpt>
      <trkpt lat="50.90632" lon="3.71754">
        <ele>39.0</ele>
      </trkpt>
      <trkpt lat="50.90587" lon="3.71671">
        <ele>38.0</ele>
      </trkpt>
      <trkpt lat="50.90311" lon="3.71878">
        <ele>30.0</ele>
      </trkpt>
      <trkpt lat="50.90094" lon="3.71987">
        <ele>26.0</ele>
      </trkpt>
      <trkpt lat="50.90063" lon="3.72023">
        <ele>28.0</ele>
      </trkpt>
      <trkpt lat="50.90032" lon="3.72098">
        <ele>30.0</ele>
      </trkpt>
      <trkpt lat="50.9" lon="3.72299">
        <ele>31.0</ele>
      </trkpt>
      <trkpt lat="50.89973" lon="3.72396">
        <ele>31.0</ele>
      </trkpt>
      <trkpt lat="50.89694" lon="3.72872">
        <ele>38.0</ele>
      </trkpt>
      <trkpt lat="50.89431" lon="3.73506">
        <ele>44.0</ele>
      </trkpt>
      <trkpt lat="50.89421" lon="3.73528">
        <ele>45.0</ele>
      </trkpt>
      <trkpt lat="50.89411" lon="3.73513">
        <ele>47.0</ele>
      </trkpt>
      <trkpt lat="50.89018" lon="3.70719">
        <ele>44.0</ele>
      </trkpt>
      <trkpt lat="50.888" lon="3.70308">
        <ele>33.0</ele>
      </trkpt>
      <trkpt lat="50.88739" lon="3.70168">
        <ele>25.0</ele>
      </trkpt>
      <trkpt lat="50.88575" lon="3.69309">
        <ele>16.0</ele>
      </trkpt>
      <trkpt lat="50.88531" lon="3.68827">
        <ele>11.0</ele>
      </trkpt>
      <trkpt lat="50.88462" lon="3.68521">
        <ele>10.0</ele>
      </trkpt>
      <trkpt lat="50.88423" lon="3.68565">
        <ele>10.0</ele>
      </trkpt>
      <trkpt lat="50.88393" lon="3.68653">
        <ele>10.0</ele>
      </trkpt>
      <trkpt lat="50.8835" lon="3.68708">
        <ele>11.0</ele>
      </trkpt>
      <trkpt lat="50.8788" lon="3.68989">
        <ele>13.0</ele>
      </trkpt>
      <trkpt lat="50.87782" lon="3.69067">
        <ele>15.0</ele>
      </trkpt>
      <trkpt lat="50.87572" lon="3.69426">
        <ele>18.0</ele>
      </trkpt>
      <trkpt lat="50.87488" lon="3.69656">
        <ele>21.0</ele>
      </trkpt>
      <trkpt lat="50.87409" lon="3.6978">
        <ele>22.0</ele>
      </trkpt>
      <trkpt lat="50.87311" lon="3.69979">
        <ele>23.0</ele>
      </trkpt>
      <trkpt lat="50.87319" lon="3.70021">
        <ele>23.0</ele>
      </trkpt>
      <trkpt lat="50.87419" lon="3.70146">
        <ele>23.0</ele>
      </trkpt>
      <trkpt lat="50.87427" lon="3.70191">
        <ele>23.0</ele>
      </trkpt>
      <trkpt lat="50.8742" lon="3.70237">
        <ele>23.0</ele>
      </trkpt>
      <trkpt lat="50.87321" lon="3.70336">
        <ele>24.0</ele>
      </trkpt>
      <trkpt lat="50.87256" lon="3.70441">
        <ele>26.0</ele>
      </trkpt>
      <trkpt lat="50.87201" lon="3.70497">
        <ele>28.0</ele>
      </trkpt>
      <trkpt lat="50.87162" lon="3.70592">
        <ele>31.0</ele>
      </trkpt>
      <trkpt lat="50.87107" lon="3.70678">
        <ele>35.0</ele>
      </trkpt>
      <trkpt lat="50.87073" lon="3.7077">
        <ele>39.0</ele>
      </trkpt>
      <trkpt lat="50.86933" lon="3.70834">
        <ele>41.0</ele>
      </trkpt>
      <trkpt lat="50.86841" lon="3.71051">
        <ele>43.0</ele>
      </trkpt>
      <trkpt lat="50.86601" lon="3.71105">
        <ele>48.0</ele>
      </trkpt>
      <trkpt lat="50.86578" lon="3.71274">
        <ele>56.0</ele>
      </trkpt>
      <trkpt lat="50.86498" lon="3.71122">
        <ele>61.0</ele>
      </trkpt>
      <trkpt lat="50.86432" lon="3.71231">
        <ele>64.0</ele>
      </trkpt>
      <trkpt lat="50.86092" lon="3.713">
        <ele>66.0</ele>
      </trkpt>
      <trkpt lat="50.86008" lon="3.7134">
        <ele>67.0</ele>
      </trkpt>
      <trkpt lat="50.85755" lon="3.71547">
        <ele>67.0</ele>
      </trkpt>
      <trkpt lat="50.85478" lon="3.71877">
        <ele>68.0</ele>
      </trkpt>
      <trkpt lat="50.85267" lon="3.71829">
        <ele>62.0</ele>
      </trkpt>
      <trkpt lat="50.85164" lon="3.71934">
        <ele>57.0</ele>
      </trkpt>
      <trkpt lat="50.85118" lon="3.71852">
        <ele>54.0</ele>
      </trkpt>
      <trkpt lat="50.85053" lon="3.71703">
        <ele>49.0</ele>
      </trkpt>
      <trkpt lat="50.85019" lon="3.71548">
        <ele>43.0</ele>
      </trkpt>
      <trkpt lat="50.8502" lon="3.71417">
        <ele>38.0</ele>
      </trkpt>
      <trkpt lat="50.85069" lon="3.71031">
        <ele>30.0</ele>
      </trkpt>
      <trkpt lat="50.85028" lon="3.70969">
        <ele>31.0</ele>
      </trkpt>
      <trkpt lat="50.84993" lon="3.70973">
        <ele>32.0</ele>
      </trkpt>
      <trkpt lat="50.84901" lon="3.71131">
        <ele>33.0</ele>
      </trkpt>
      <trkpt lat="50.84865" lon="3.71154">
        <ele>33.0</ele>
      </trkpt>
      <trkpt lat="50.84631" lon="3.71053">
        <ele>36.0</ele>
      </trkpt>
      <trkpt lat="50.84309" lon="3.70853">
        <ele>45.0</ele>
      </trkpt>
      <trkpt lat="50.84015" lon="3.70583">
        <ele>61.0</ele>
      </trkpt>
      <trkpt lat="50.83875" lon="3.7037">
        <ele>69.0</ele>
      </trkpt>
      <trkpt lat="50.83608" lon="3.70104">
        <ele>76.0</ele>
      </trkpt>
      <trkpt lat="50.83506" lon="3.69965">
        <ele>79.0</ele>
      </trkpt>
      <trkpt lat="50.83461" lon="3.70167">
        <ele>74.0</ele>
      </trkpt>
      <trkpt lat="50.8327" lon="3.70499">
        <ele>60.0</ele>
      </trkpt>
      <trkpt lat="50.83192" lon="3.70677">
        <ele>63.0</ele>
      </trkpt>
      <trkpt lat="50.83153" lon="3.70804">
        <ele>65.0</ele>
      </trkpt>
      <trkpt lat="50.83029" lon="3.70909">
        <ele>66.0</ele>
      </trkpt>
      <trkpt lat="50.82861" lon="3.71103">
        <ele>61.0</ele>
      </trkpt>
      <trkpt lat="50.8279" lon="3.71216">
        <ele>62.0</ele>
      </trkpt>
      <trkpt lat="50.8262" lon="3.71315">
        <ele>64.0</ele>
      </trkpt>
      <trkpt lat="50.82509" lon="3.71437">
        <ele>63.0</ele>
      </trkpt>
      <trkpt lat="50.82254" lon="3.71627">
        <ele>62.0</ele>
      </trkpt>
      <trkpt lat="50.82293" lon="3.71785">
        <ele>59.0</ele>
      </trkpt>
      <trkpt lat="50.82328" lon="3.71853">
        <ele>59.0</ele>
      </trkpt>
      <trkpt lat="50.82339" lon="3.71968">
        <ele>60.0</ele>
      </trkpt>
      <trkpt lat="50.82412" lon="3.7208">
        <ele>64.0</ele>
      </trkpt>
      <trkpt lat="50.82504" lon="3.72158">
        <ele>72.0</ele>
      </trkpt>
      <trkpt lat="50.82547" lon="3.72164">
        <ele>76.0</ele>
      </trkpt>
      <trkpt lat="50.82603" lon="3.7225">
        <ele>80.0</ele>
      </trkpt>
      <trkpt lat="50.82688" lon="3.72292">
        <ele>84.0</ele>
      </trkpt>
      <trkpt lat="50.83013" lon="3.72628">
        <ele>93.0</ele>
      </trkpt>
      <trkpt lat="50.8296" lon="3.73021">
        <ele>96.0</ele>
      </trkpt>
      <trkpt lat="50.82973" lon="3.73114">
        <ele>98.0</ele>
      </trkpt>
      <trkpt lat="50.83018" lon="3.73236">
        <ele>99.0</ele>
      </trkpt>
      <trkpt lat="50.82838" lon="3.73264">
        <ele>99.0</ele>
      </trkpt>
      <trkpt lat="50.82638" lon="3.73355">
        <ele>98.0</ele>
      </trkpt>
      <trkpt lat="50.82412" lon="3.73327">
        <ele>98.0</ele>
      </trkpt>
      <trkpt lat="50.8218" lon="3.73423">
        <ele>98.0</ele>
      </trkpt>
      <trkpt lat="50.81832" lon="3.73439">
        <ele>100.0</ele>
      </trkpt>
      <trkpt lat="50.81829" lon="3.73395">
        <ele>100.0</ele>
      </trkpt>
      <trkpt lat="50.81666" lon="3.73185">
        <ele>100.0</ele>
      </trkpt>
      <trkpt lat="50.81624" lon="3.73169">
        <ele>100.0</ele>
      </trkpt>
      <trkpt lat="50.81548" lon="3.7319">
        <ele>100.0</ele>
      </trkpt>
      <trkpt lat="50.81513" lon="3.73168">
        <ele>100.0</ele>
      </trkpt>
      <trkpt lat="50.81459" lon="3.73096">
        <ele>99.0</ele>
      </trkpt>
      <trkpt lat="50.81533" lon="3.72901">
        <ele>97.0</ele>
      </trkpt>
      <trkpt lat="50.81633" lon="3.72765">
        <ele>92.0</ele>
      </trkpt>
      <trkpt lat="50.8171" lon="3.72611">
        <ele>87.0</ele>
      </trkpt>
      <trkpt lat="50.81785" lon="3.72335">
        <ele>78.0</ele>
      </trkpt>
      <trkpt lat="50.81841" lon="3.7166">
        <ele>68.0</ele>
      </trkpt>
      <trkpt lat="50.81949" lon="3.7125">
        <ele>73.0</ele>
      </trkpt>
      <trkpt lat="50.81974" lon="3.71073">
        <ele>77.0</ele>
      </trkpt>
      <trkpt lat="50.81979" lon="3.70867">
        <ele>85.0</ele>
      </trkpt>
      <trkpt lat="50.81952" lon="3.7062">
        <ele>93.0</ele>
      </trkpt>
      <trkpt lat="50.81948" lon="3.70478">
        <ele>96.0</ele>
      </trkpt>
      <trkpt lat="50.82017" lon="3.69901">
        <ele>97.0</ele>
      </trkpt>
      <trkpt lat="50.82049" lon="3.6976">
        <ele>97.0</ele>
      </trkpt>
      <trkpt lat="50.82068" lon="3.69596">
        <ele>98.0</ele>
      </trkpt>
      <trkpt lat="50.82165" lon="3.69357">
        <ele>95.0</ele>
      </trkpt>
      <trkpt lat="50.82279" lon="3.69211">
        <ele>94.0</ele>
      </trkpt>
      <trkpt lat="50.82319" lon="3.69137">
        <ele>95.0</ele>
      </trkpt>
      <trkpt lat="50.82466" lon="3.68793">
        <ele>101.0</ele>
      </trkpt>
      <trkpt lat="50.82587" lon="3.68628">
        <ele>100.0</ele>
      </trkpt>
      <trkpt lat="50.82497" lon="3.68539">
        <ele>98.0</ele>
      </trkpt>
      <trkpt lat="50.82375" lon="3.68594">
        <ele>96.0</ele>
      </trkpt>
      <trkpt lat="50.82219" lon="3.68599">
        <ele>90.0</ele>
      </trkpt>
      <trkpt lat="50.82135" lon="3.68565">
        <ele>86.0</ele>
      </trkpt>
      <trkpt lat="50.82077" lon="3.68475">
        <ele>80.0</ele>
      </trkpt>
      <trkpt lat="50.81949" lon="3.68343">
        <ele>75.0</ele>
      </trkpt>
      <trkpt lat="50.81804" lon="3.68158">
        <ele>64.0</ele>
      </trkpt>
      <trkpt lat="50.81699" lon="3.68152">
        <ele>58.0</ele>
      </trkpt>
      <trkpt lat="50.81573" lon="3.68098">
        <ele>50.0</ele>
      </trkpt>
      <trkpt lat="50.81444" lon="3.68104">
        <ele>37.0</ele>
      </trkpt>
      <trkpt lat="50.81394" lon="3.68083">
        <ele>35.0</ele>
      </trkpt>
      <trkpt lat="50.81305" lon="3.67985">
        <ele>31.0</ele>
      </trkpt>
      <trkpt lat="50.81252" lon="3.68018">
        <ele>30.0</ele>
      </trkpt>
      <trkpt lat="50.81152" lon="3.68187">
        <ele>30.0</ele>
      </trkpt>
      <trkpt lat="50.81121" lon="3.68207">
        <ele>30.0</ele>
      </trkpt>
      <trkpt lat="50.81079" lon="3.68174">
        <ele>31.0</ele>
      </trkpt>
      <trkpt lat="50.80914" lon="3.67938">
        <ele>37.0</ele>
      </trkpt>
      <trkpt lat="50.80894" lon="3.67943">
        <ele>37.0</ele>
      </trkpt>
      <trkpt lat="50.80827" lon="3.68039">
        <ele>38.0</ele>
      </trkpt>
      <trkpt lat="50.80774" lon="3.68026">
        <ele>39.0</ele>
      </trkpt>
      <trkpt lat="50.80721" lon="3.67974">
        <ele>40.0</ele>
      </trkpt>
      <trkpt lat="50.80683" lon="3.67909">
        <ele>41.0</ele>
      </trkpt>
      <trkpt lat="50.80617" lon="3.67866">
        <ele>42.0</ele>
      </trkpt>
      <trkpt lat="50.80552" lon="3.67788">
        <ele>43.0</ele>
      </trkpt>
      <trkpt lat="50.80796" lon="3.6769">
        <ele>44.0</ele>
      </trkpt>
      <trkpt lat="50.8093" lon="3.67575">
        <ele>44.0</ele>
      </trkpt>
      <trkpt lat="50.81009" lon="3.67485">
        <ele>43.0</ele>
      </trkpt>
      <trkpt lat="50.81091" lon="3.67328">
        <ele>40.0</ele>
      </trkpt>
      <trkpt lat="50.81352" lon="3.66983">
        <ele>37.0</ele>
      </trkpt>
      <trkpt lat="50.81381" lon="3.66923">
        <ele>35.0</ele>
      </trkpt>
      <trkpt lat="50.81395" lon="3.66857">
        <ele>34.0</ele>
      </trkpt>
      <trkpt lat="50.81457" lon="3.66022">
        <ele>27.0</ele>
      </trkpt>
      <trkpt lat="50.81548" lon="3.6574">
        <ele>29.0</ele>
      </trkpt>
      <trkpt lat="50.81583" lon="3.65549">
        <ele>29.0</ele>
      </trkpt>
      <trkpt lat="50.81595" lon="3.65371">
        <ele>29.0</ele>
      </trkpt>
      <trkpt lat="50.81592" lon="3.64827">
        <ele>25.0</ele>
      </trkpt>
      <trkpt lat="50.81786" lon="3.63962">
        <ele>21.0</ele>
      </trkpt>
      <trkpt lat="50.81838" lon="3.63962">
        <ele>20.0</ele>
      </trkpt>
      <trkpt lat="50.81876" lon="3.64031">
        <ele>20.0</ele>
      </trkpt>
      <trkpt lat="50.81946" lon="3.64065">
        <ele>21.0</ele>
      </trkpt>
      <trkpt lat="50.82033" lon="3.64079">
        <ele>24.0</ele>
      </trkpt>
      <trkpt lat="50.82265" lon="3.64074">
        <ele>41.0</ele>
      </trkpt>
      <trkpt lat="50.82368" lon="3.64019">
        <ele>53.0</ele>
      </trkpt>
      <trkpt lat="50.82417" lon="3.63913">
        <ele>63.0</ele>
      </trkpt>
      <trkpt lat="50.82492" lon="3.63822">
        <ele>68.0</ele>
      </trkpt>
      <trkpt lat="50.82758" lon="3.63678">
        <ele>78.0</ele>
      </trkpt>
      <trkpt lat="50.82862" lon="3.63487">
        <ele>81.0</ele>
      </trkpt>
      <trkpt lat="50.82889" lon="3.63857">
        <ele>83.0</ele>
      </trkpt>
      <trkpt lat="50.8295" lon="3.64374">
        <ele>83.0</ele>
      </trkpt>
      <trkpt lat="50.83062" lon="3.64556">
        <ele>87.0</ele>
      </trkpt>
      <trkpt lat="50.83078" lon="3.64604">
        <ele>88.0</ele>
      </trkpt>
      <trkpt lat="50.83078" lon="3.65014">
        <ele>92.0</ele>
      </trkpt>
      <trkpt lat="50.83118" lon="3.65425">
        <ele>89.0</ele>
      </trkpt>
      <trkpt lat="50.83663" lon="3.65047">
        <ele>79.0</ele>
      </trkpt>
      <trkpt lat="50.83778" lon="3.64723">
        <ele>76.0</ele>
      </trkpt>
      <trkpt lat="50.8385" lon="3.64386">
        <ele>70.0</ele>
      </trkpt>
      <trkpt lat="50.8394" lon="3.64266">
        <ele>63.0</ele>
      </trkpt>
      <trkpt lat="50.83966" lon="3.6402">
        <ele>53.0</ele>
      </trkpt>
      <trkpt lat="50.84012" lon="3.63824">
        <ele>40.0</ele>
      </trkpt>
      <trkpt lat="50.8407" lon="3.6368">
        <ele>34.0</ele>
      </trkpt>
      <trkpt lat="50.84101" lon="3.63517">
        <ele>31.0</ele>
      </trkpt>
      <trkpt lat="50.84168" lon="3.63676">
        <ele>29.0</ele>
      </trkpt>
      <trkpt lat="50.84192" lon="3.63779">
        <ele>30.0</ele>
      </trkpt>
      <trkpt lat="50.84219" lon="3.63969">
        <ele>40.0</ele>
      </trkpt>
      <trkpt lat="50.84315" lon="3.64407">
        <ele>63.0</ele>
      </trkpt>
      <trkpt lat="50.84336" lon="3.64591">
        <ele>67.0</ele>
      </trkpt>
      <trkpt lat="50.84399" lon="3.64518">
        <ele>70.0</ele>
      </trkpt>
      <trkpt lat="50.84542" lon="3.6427">
        <ele>66.0</ele>
      </trkpt>
      <trkpt lat="50.84642" lon="3.64355">
        <ele>65.0</ele>
      </trkpt>
      <trkpt lat="50.84662" lon="3.64346">
        <ele>65.0</ele>
      </trkpt>
      <trkpt lat="50.84711" lon="3.64238">
        <ele>65.0</ele>
      </trkpt>
      <trkpt lat="50.84735" lon="3.64213">
        <ele>65.0</ele>
      </trkpt>
      <trkpt lat="50.84836" lon="3.64278">
        <ele>64.0</ele>
      </trkpt>
      <trkpt lat="50.84835" lon="3.64318">
        <ele>63.0</ele>
      </trkpt>
      <trkpt lat="50.84848" lon="3.64347">
        <ele>63.0</ele>
      </trkpt>
      <trkpt lat="50.85024" lon="3.64502">
        <ele>60.0</ele>
      </trkpt>
      <trkpt lat="50.85171" lon="3.64705">
        <ele>62.0</ele>
      </trkpt>
      <trkpt lat="50.85266" lon="3.64847">
        <ele>61.0</ele>
      </trkpt>
      <trkpt lat="50.85326" lon="3.64996">
        <ele>61.0</ele>
      </trkpt>
      <trkpt lat="50.8539" lon="3.65091">
        <ele>61.0</ele>
      </trkpt>
      <trkpt lat="50.85529" lon="3.65227">
        <ele>61.0</ele>
      </trkpt>
      <trkpt lat="50.85639" lon="3.65264">
        <ele>59.0</ele>
      </trkpt>
      <trkpt lat="50.85571" lon="3.6545">
        <ele>57.0</ele>
      </trkpt>
      <trkpt lat="50.85503" lon="3.65491">
        <ele>56.0</ele>
      </trkpt>
      <trkpt lat="50.85478" lon="3.65525">
        <ele>55.0</ele>
      </trkpt>
      <trkpt lat="50.85518" lon="3.65671">
        <ele>54.0</ele>
      </trkpt>
      <trkpt lat="50.85565" lon="3.65777">
        <ele>52.0</ele>
      </trkpt>
      <trkpt lat="50.8564" lon="3.66152">
        <ele>46.0</ele>
      </trkpt>
      <trkpt lat="50.85607" lon="3.66252">
        <ele>40.0</ele>
      </trkpt>
      <trkpt lat="50.85616" lon="3.66333">
        <ele>38.0</ele>
      </trkpt>
      <trkpt lat="50.85605" lon="3.6641">
        <ele>36.0</ele>
      </trkpt>
      <trkpt lat="50.8567" lon="3.66532">
        <ele>33.0</ele>
      </trkpt>
      <trkpt lat="50.85472" lon="3.66931">
        <ele>26.0</ele>
      </trkpt>
      <trkpt lat="50.85424" lon="3.67">
        <ele>25.0</ele>
      </trkpt>
      <trkpt lat="50.85414" lon="3.67104">
        <ele>26.0</ele>
      </trkpt>
      <trkpt lat="50.85386" lon="3.67182">
        <ele>27.0</ele>
      </trkpt>
      <trkpt lat="50.85363" lon="3.67181">
        <ele>28.0</ele>
      </trkpt>
      <trkpt lat="50.85295" lon="3.67153">
        <ele>30.0</ele>
      </trkpt>
      <trkpt lat="50.85045" lon="3.66962">
        <ele>37.0</ele>
      </trkpt>
      <trkpt lat="50.84886" lon="3.66892">
        <ele>46.0</ele>
      </trkpt>
      <trkpt lat="50.84611" lon="3.66672">
        <ele>58.0</ele>
      </trkpt>
      <trkpt lat="50.8443" lon="3.66469">
        <ele>64.0</ele>
      </trkpt>
      <trkpt lat="50.8435" lon="3.66399">
        <ele>67.0</ele>
      </trkpt>
      <trkpt lat="50.84243" lon="3.66353">
        <ele>68.0</ele>
      </trkpt>
      <trkpt lat="50.84085" lon="3.6661">
        <ele>59.0</ele>
      </trkpt>
      <trkpt lat="50.84041" lon="3.66758">
        <ele>63.0</ele>
      </trkpt>
      <trkpt lat="50.83923" lon="3.66789">
        <ele>74.0</ele>
      </trkpt>
      <trkpt lat="50.83866" lon="3.66888">
        <ele>76.0</ele>
      </trkpt>
      <trkpt lat="50.83747" lon="3.66966">
        <ele>77.0</ele>
      </trkpt>
      <trkpt lat="50.83603" lon="3.67129">
        <ele>80.0</ele>
      </trkpt>
      <trkpt lat="50.83503" lon="3.67301">
        <ele>79.0</ele>
      </trkpt>
      <trkpt lat="50.83508" lon="3.67319">
        <ele>79.0</ele>
      </trkpt>
      <trkpt lat="50.83526" lon="3.67352">
        <ele>78.0</ele>
      </trkpt>
      <trkpt lat="50.83679" lon="3.67481">
        <ele>75.0</ele>
      </trkpt>
      <trkpt lat="50.83768" lon="3.67519">
        <ele>73.0</ele>
      </trkpt>
      <trkpt lat="50.83786" lon="3.67564">
        <ele>73.0</ele>
      </trkpt>
      <trkpt lat="50.83785" lon="3.6766">
        <ele>74.0</ele>
      </trkpt>
      <trkpt lat="50.83806" lon="3.67702">
        <ele>75.0</ele>
      </trkpt>
      <trkpt lat="50.83888" lon="3.67753">
        <ele>75.0</ele>
      </trkpt>
      <trkpt lat="50.84055" lon="3.67918">
        <ele>75.0</ele>
      </trkpt>
      <trkpt lat="50.84159" lon="3.67961">
        <ele>75.0</ele>
      </trkpt>
      <trkpt lat="50.84439" lon="3.67971">
        <ele>76.0</ele>
      </trkpt>
      <trkpt lat="50.84546" lon="3.68051">
        <ele>76.0</ele>
      </trkpt>
      <trkpt lat="50.84593" lon="3.67993">
        <ele>74.0</ele>
      </trkpt>
      <trkpt lat="50.8476" lon="3.67965">
        <ele>71.0</ele>
      </trkpt>
      <trkpt lat="50.8497" lon="3.67857">
        <ele>64.0</ele>
      </trkpt>
      <trkpt lat="50.85008" lon="3.67866">
        <ele>62.0</ele>
      </trkpt>
      <trkpt lat="50.85083" lon="3.67838">
        <ele>60.0</ele>
      </trkpt>
      <trkpt lat="50.85239" lon="3.67823">
        <ele>57.0</ele>
      </trkpt>
      <trkpt lat="50.85428" lon="3.6768">
        <ele>54.0</ele>
      </trkpt>
      <trkpt lat="50.85484" lon="3.677">
        <ele>54.0</ele>
      </trkpt>
      <trkpt lat="50.85589" lon="3.6783">
        <ele>53.0</ele>
      </trkpt>
      <trkpt lat="50.85771" lon="3.67755">
        <ele>48.0</ele>
      </trkpt>
      <trkpt lat="50.86094" lon="3.67857">
        <ele>46.0</ele>
      </trkpt>
      <trkpt lat="50.86122" lon="3.67857">
        <ele>46.0</ele>
      </trkpt>
      <trkpt lat="50.86142" lon="3.6783">
        <ele>46.0</ele>
      </trkpt>
      <trkpt lat="50.86169" lon="3.67844">
        <ele>46.0</ele>
      </trkpt>
      <trkpt lat="50.86301" lon="3.67932">
        <ele>44.0</ele>
      </trkpt>
      <trkpt lat="50.86318" lon="3.68074">
        <ele>41.0</ele>
      </trkpt>
      <trkpt lat="50.86697" lon="3.68527">
        <ele>26.0</ele>
      </trkpt>
      <trkpt lat="50.86766" lon="3.68635">
        <ele>21.0</ele>
      </trkpt>
      <trkpt lat="50.86755" lon="3.68909">
        <ele>17.0</ele>
      </trkpt>
      <trkpt lat="50.86776" lon="3.69355">
        <ele>16.0</ele>
      </trkpt>
      <trkpt lat="50.86689" lon="3.69335">
        <ele>16.0</ele>
      </trkpt>
      <trkpt lat="50.8624" lon="3.69468">
        <ele>19.0</ele>
      </trkpt>
      <trkpt lat="50.86063" lon="3.69629">
        <ele>20.0</ele>
      </trkpt>
      <trkpt lat="50.85836" lon="3.69908">
        <ele>22.0</ele>
      </trkpt>
      <trkpt lat="50.85798" lon="3.69988">
        <ele>24.0</ele>
      </trkpt>
      <trkpt lat="50.85833" lon="3.70022">
        <ele>27.0</ele>
      </trkpt>
      <trkpt lat="50.85874" lon="3.70032">
        <ele>29.0</ele>
      </trkpt>
      <trkpt lat="50.85911" lon="3.7018">
        <ele>37.0</ele>
      </trkpt>
      <trkpt lat="50.85951" lon="3.70261">
        <ele>44.0</ele>
      </trkpt>
      <trkpt lat="50.86008" lon="3.70306">
        <ele>49.0</ele>
      </trkpt>
      <trkpt lat="50.86075" lon="3.70433">
        <ele>54.0</ele>
      </trkpt>
      <trkpt lat="50.86051" lon="3.70639">
        <ele>59.0</ele>
      </trkpt>
      <trkpt lat="50.85998" lon="3.70824">
        <ele>61.0</ele>
      </trkpt>
      <trkpt lat="50.85992" lon="3.71069">
        <ele>64.0</ele>
      </trkpt>
      <trkpt lat="50.8593" lon="3.71399">
        <ele>68.0</ele>
      </trkpt>
      <trkpt lat="50.85755" lon="3.71547">
        <ele>67.0</ele>
      </trkpt>
      <trkpt lat="50.85491" lon="3.71871">
        <ele>68.0</ele>
      </trkpt>
      <trkpt lat="50.85449" lon="3.71879">
        <ele>67.0</ele>
      </trkpt>
      <trkpt lat="50.85267" lon="3.71829">
        <ele>62.0</ele>
      </trkpt>
      <trkpt lat="50.85164" lon="3.71934">
        <ele>57.0</ele>
      </trkpt>
      <trkpt lat="50.85123" lon="3.71862">
        <ele>55.0</ele>
      </trkpt>
      <trkpt lat="50.85053" lon="3.71703">
        <ele>50.0</ele>
      </trkpt>
      <trkpt lat="50.85019" lon="3.71548">
        <ele>43.0</ele>
      </trkpt>
      <trkpt lat="50.8502" lon="3.71417">
        <ele>39.0</ele>
      </trkpt>
      <trkpt lat="50.85069" lon="3.71031">
        <ele>30.0</ele>
      </trkpt>
      <trkpt lat="50.85028" lon="3.70969">
        <ele>31.0</ele>
      </trkpt>
      <trkpt lat="50.84993" lon="3.70973">
        <ele>32.0</ele>
      </trkpt>
      <trkpt lat="50.84901" lon="3.71131">
        <ele>33.0</ele>
      </trkpt>
      <trkpt lat="50.84865" lon="3.71154">
        <ele>33.0</ele>
      </trkpt>
      <trkpt lat="50.84631" lon="3.71053">
        <ele>37.0</ele>
      </trkpt>
      <trkpt lat="50.84309" lon="3.70853">
        <ele>45.0</ele>
      </trkpt>
      <trkpt lat="50.84015" lon="3.70583">
        <ele>61.0</ele>
      </trkpt>
      <trkpt lat="50.83875" lon="3.7037">
        <ele>69.0</ele>
      </trkpt>
      <trkpt lat="50.83608" lon="3.70104">
        <ele>76.0</ele>
      </trkpt>
      <trkpt lat="50.83506" lon="3.69965">
        <ele>79.0</ele>
      </trkpt>
      <trkpt lat="50.83461" lon="3.70167">
        <ele>73.0</ele>
      </trkpt>
      <trkpt lat="50.8327" lon="3.70499">
        <ele>61.0</ele>
      </trkpt>
      <trkpt lat="50.83192" lon="3.70677">
        <ele>63.0</ele>
      </trkpt>
      <trkpt lat="50.83153" lon="3.70804">
        <ele>65.0</ele>
      </trkpt>
      <trkpt lat="50.83029" lon="3.70909">
        <ele>66.0</ele>
      </trkpt>
      <trkpt lat="50.82861" lon="3.71103">
        <ele>61.0</ele>
      </trkpt>
      <trkpt lat="50.8279" lon="3.71216">
        <ele>62.0</ele>
      </trkpt>
      <trkpt lat="50.8262" lon="3.71315">
        <ele>64.0</ele>
      </trkpt>
      <trkpt lat="50.82509" lon="3.71437">
        <ele>63.0</ele>
      </trkpt>
      <trkpt lat="50.82254" lon="3.71627">
        <ele>62.0</ele>
      </trkpt>
      <trkpt lat="50.82293" lon="3.71785">
        <ele>59.0</ele>
      </trkpt>
      <trkpt lat="50.82328" lon="3.71853">
        <ele>59.0</ele>
      </trkpt>
      <trkpt lat="50.82339" lon="3.71968">
        <ele>60.0</ele>
      </trkpt>
      <trkpt lat="50.82412" lon="3.7208">
        <ele>64.0</ele>
      </trkpt>
      <trkpt lat="50.82504" lon="3.72158">
        <ele>72.0</ele>
      </trkpt>
      <trkpt lat="50.82547" lon="3.72164">
        <ele>76.0</ele>
      </trkpt>
      <trkpt lat="50.82603" lon="3.7225">
        <ele>80.0</ele>
      </trkpt>
      <trkpt lat="50.82688" lon="3.72292">
        <ele>84.0</ele>
      </trkpt>
      <trkpt lat="50.83013" lon="3.72628">
        <ele>93.0</ele>
      </trkpt>
      <trkpt lat="50.82962" lon="3.72953">
        <ele>95.0</ele>
      </trkpt>
      <trkpt lat="50.82962" lon="3.73046">
        <ele>97.0</ele>
      </trkpt>
      <trkpt lat="50.83047" lon="3.73357">
        <ele>100.0</ele>
      </trkpt>
      <trkpt lat="50.83129" lon="3.73822">
        <ele>97.0</ele>
      </trkpt>
      <trkpt lat="50.83145" lon="3.73973">
        <ele>94.0</ele>
      </trkpt>
      <trkpt lat="50.83136" lon="3.7413">
        <ele>92.0</ele>
      </trkpt>
      <trkpt lat="50.83092" lon="3.7431">
        <ele>90.0</ele>
      </trkpt>
      <trkpt lat="50.83089" lon="3.74423">
        <ele>87.0</ele>
      </trkpt>
      <trkpt lat="50.83225" lon="3.75058">
        <ele>72.0</ele>
      </trkpt>
      <trkpt lat="50.83283" lon="3.75248">
        <ele>62.0</ele>
      </trkpt>
      <trkpt lat="50.83297" lon="3.75512">
        <ele>55.0</ele>
      </trkpt>
      <trkpt lat="50.83346" lon="3.75826">
        <ele>45.0</ele>
      </trkpt>
      <trkpt lat="50.83371" lon="3.76195">
        <ele>39.0</ele>
      </trkpt>
      <trkpt lat="50.83346" lon="3.7633">
        <ele>32.0</ele>
      </trkpt>
      <trkpt lat="50.83364" lon="3.76507">
        <ele>30.0</ele>
      </trkpt>
      <trkpt lat="50.83394" lon="3.76612">
        <ele>29.0</ele>
      </trkpt>
      <trkpt lat="50.83378" lon="3.76927">
        <ele>30.0</ele>
      </trkpt>
      <trkpt lat="50.83411" lon="3.77134">
        <ele>34.0</ele>
      </trkpt>
      <trkpt lat="50.83321" lon="3.77695">
        <ele>65.0</ele>
      </trkpt>
      <trkpt lat="50.83248" lon="3.77915">
        <ele>81.0</ele>
      </trkpt>
      <trkpt lat="50.83232" lon="3.78037">
        <ele>89.0</ele>
      </trkpt>
      <trkpt lat="50.83135" lon="3.78328">
        <ele>91.0</ele>
      </trkpt>
      <trkpt lat="50.83113" lon="3.7844">
        <ele>91.0</ele>
      </trkpt>
      <trkpt lat="50.83149" lon="3.78667">
        <ele>90.0</ele>
      </trkpt>
      <trkpt lat="50.83188" lon="3.78756">
        <ele>90.0</ele>
      </trkpt>
      <trkpt lat="50.83238" lon="3.78946">
        <ele>90.0</ele>
      </trkpt>
      <trkpt lat="50.83282" lon="3.79043">
        <ele>91.0</ele>
      </trkpt>
      <trkpt lat="50.83306" lon="3.79144">
        <ele>92.0</ele>
      </trkpt>
      <trkpt lat="50.83315" lon="3.79258">
        <ele>92.0</ele>
      </trkpt>
      <trkpt lat="50.83385" lon="3.7947">
        <ele>94.0</ele>
      </trkpt>
      <trkpt lat="50.83247" lon="3.7982">
        <ele>94.0</ele>
      </trkpt>
      <trkpt lat="50.83281" lon="3.79896">
        <ele>94.0</ele>
      </trkpt>
      <trkpt lat="50.83199" lon="3.80011">
        <ele>94.0</ele>
      </trkpt>
      <trkpt lat="50.83076" lon="3.8026">
        <ele>92.0</ele>
      </trkpt>
      <trkpt lat="50.82958" lon="3.8043">
        <ele>91.0</ele>
      </trkpt>
      <trkpt lat="50.82891" lon="3.80491">
        <ele>90.0</ele>
      </trkpt>
      <trkpt lat="50.82814" lon="3.80538">
        <ele>91.0</ele>
      </trkpt>
      <trkpt lat="50.82783" lon="3.80539">
        <ele>91.0</ele>
      </trkpt>
      <trkpt lat="50.82745" lon="3.80501">
        <ele>91.0</ele>
      </trkpt>
      <trkpt lat="50.82688" lon="3.80348">
        <ele>91.0</ele>
      </trkpt>
      <trkpt lat="50.82536" lon="3.80238">
        <ele>91.0</ele>
      </trkpt>
      <trkpt lat="50.82415" lon="3.80277">
        <ele>91.0</ele>
      </trkpt>
      <trkpt lat="50.82251" lon="3.80285">
        <ele>89.0</ele>
      </trkpt>
      <trkpt lat="50.82149" lon="3.80219">
        <ele>84.0</ele>
      </trkpt>
      <trkpt lat="50.81883" lon="3.80098">
        <ele>80.0</ele>
      </trkpt>
      <trkpt lat="50.81661" lon="3.80021">
        <ele>80.0</ele>
      </trkpt>
      <trkpt lat="50.81325" lon="3.798">
        <ele>71.0</ele>
      </trkpt>
      <trkpt lat="50.81222" lon="3.79755">
        <ele>64.0</ele>
      </trkpt>
      <trkpt lat="50.81166" lon="3.79751">
        <ele>59.0</ele>
      </trkpt>
      <trkpt lat="50.81077" lon="3.79785">
        <ele>57.0</ele>
      </trkpt>
      <trkpt lat="50.80729" lon="3.77927">
        <ele>47.0</ele>
      </trkpt>
      <trkpt lat="50.80632" lon="3.77328">
        <ele>38.0</ele>
      </trkpt>
      <trkpt lat="50.80593" lon="3.77253">
        <ele>36.0</ele>
      </trkpt>
      <trkpt lat="50.80288" lon="3.76919">
        <ele>34.0</ele>
      </trkpt>
      <trkpt lat="50.80242" lon="3.77">
        <ele>36.0</ele>
      </trkpt>
      <trkpt lat="50.80163" lon="3.7704">
        <ele>37.0</ele>
      </trkpt>
      <trkpt lat="50.80106" lon="3.76866">
        <ele>38.0</ele>
      </trkpt>
      <trkpt lat="50.80002" lon="3.76689">
        <ele>39.0</ele>
      </trkpt>
      <trkpt lat="50.79945" lon="3.76791">
        <ele>43.0</ele>
      </trkpt>
      <trkpt lat="50.79848" lon="3.76902">
        <ele>48.0</ele>
      </trkpt>
      <trkpt lat="50.79722" lon="3.77099">
        <ele>65.0</ele>
      </trkpt>
      <trkpt lat="50.79591" lon="3.77226">
        <ele>68.0</ele>
      </trkpt>
      <trkpt lat="50.79561" lon="3.7723">
        <ele>69.0</ele>
      </trkpt>
      <trkpt lat="50.79331" lon="3.77376">
        <ele>63.0</ele>
      </trkpt>
      <trkpt lat="50.79233" lon="3.77509">
        <ele>59.0</ele>
      </trkpt>
      <trkpt lat="50.79241" lon="3.77587">
        <ele>58.0</ele>
      </trkpt>
      <trkpt lat="50.79232" lon="3.77633">
        <ele>57.0</ele>
      </trkpt>
      <trkpt lat="50.79118" lon="3.77946">
        <ele>53.0</ele>
      </trkpt>
      <trkpt lat="50.79053" lon="3.78073">
        <ele>48.0</ele>
      </trkpt>
      <trkpt lat="50.79057" lon="3.7821">
        <ele>48.0</ele>
      </trkpt>
      <trkpt lat="50.79021" lon="3.78306">
        <ele>48.0</ele>
      </trkpt>
      <trkpt lat="50.78971" lon="3.7855">
        <ele>45.0</ele>
      </trkpt>
      <trkpt lat="50.78835" lon="3.78901">
        <ele>39.0</ele>
      </trkpt>
      <trkpt lat="50.78749" lon="3.79028">
        <ele>39.0</ele>
      </trkpt>
      <trkpt lat="50.78631" lon="3.79271">
        <ele>41.0</ele>
      </trkpt>
      <trkpt lat="50.78576" lon="3.79447">
        <ele>42.0</ele>
      </trkpt>
      <trkpt lat="50.78525" lon="3.79557">
        <ele>44.0</ele>
      </trkpt>
      <trkpt lat="50.78479" lon="3.7972">
        <ele>46.0</ele>
      </trkpt>
      <trkpt lat="50.78368" lon="3.79996">
        <ele>49.0</ele>
      </trkpt>
      <trkpt lat="50.78336" lon="3.80036">
        <ele>51.0</ele>
      </trkpt>
      <trkpt lat="50.78118" lon="3.80194">
        <ele>67.0</ele>
      </trkpt>
      <trkpt lat="50.77925" lon="3.80284">
        <ele>84.0</ele>
      </trkpt>
      <trkpt lat="50.77913" lon="3.80295">
        <ele>83.0</ele>
      </trkpt>
      <trkpt lat="50.77891" lon="3.80411">
        <ele>82.0</ele>
      </trkpt>
      <trkpt lat="50.77781" lon="3.80503">
        <ele>81.0</ele>
      </trkpt>
      <trkpt lat="50.77774" lon="3.8055">
        <ele>81.0</ele>
      </trkpt>
      <trkpt lat="50.77815" lon="3.8078">
        <ele>80.0</ele>
      </trkpt>
      <trkpt lat="50.7783" lon="3.81147">
        <ele>71.0</ele>
      </trkpt>
      <trkpt lat="50.77846" lon="3.81211">
        <ele>70.0</ele>
      </trkpt>
      <trkpt lat="50.77904" lon="3.81332">
        <ele>70.0</ele>
      </trkpt>
      <trkpt lat="50.77965" lon="3.81571">
        <ele>70.0</ele>
      </trkpt>
      <trkpt lat="50.78009" lon="3.81829">
        <ele>70.0</ele>
      </trkpt>
      <trkpt lat="50.77989" lon="3.8189">
        <ele>69.0</ele>
      </trkpt>
      <trkpt lat="50.77905" lon="3.81983">
        <ele>69.0</ele>
      </trkpt>
      <trkpt lat="50.7775" lon="3.82102">
        <ele>66.0</ele>
      </trkpt>
      <trkpt lat="50.77714" lon="3.82338">
        <ele>64.0</ele>
      </trkpt>
      <trkpt lat="50.77704" lon="3.82505">
        <ele>63.0</ele>
      </trkpt>
      <trkpt lat="50.77554" lon="3.83426">
        <ele>57.0</ele>
      </trkpt>
      <trkpt lat="50.77526" lon="3.83659">
        <ele>57.0</ele>
      </trkpt>
      <trkpt lat="50.77513" lon="3.84096">
        <ele>54.0</ele>
      </trkpt>
      <trkpt lat="50.7758" lon="3.84697">
        <ele>49.0</ele>
      </trkpt>
      <trkpt lat="50.77495" lon="3.84954">
        <ele>45.0</ele>
      </trkpt>
      <trkpt lat="50.77447" lon="3.85259">
        <ele>41.0</ele>
      </trkpt>
      <trkpt lat="50.77401" lon="3.85433">
        <ele>39.0</ele>
      </trkpt>
      <trkpt lat="50.77408" lon="3.85482">
        <ele>38.0</ele>
      </trkpt>
      <trkpt lat="50.77461" lon="3.85595">
        <ele>37.0</ele>
      </trkpt>
      <trkpt lat="50.77504" lon="3.85731">
        <ele>37.0</ele>
      </trkpt>
      <trkpt lat="50.77519" lon="3.8587">
        <ele>36.0</ele>
      </trkpt>
      <trkpt lat="50.77511" lon="3.85909">
        <ele>36.0</ele>
      </trkpt>
      <trkpt lat="50.77462" lon="3.85994">
        <ele>36.0</ele>
      </trkpt>
      <trkpt lat="50.77385" lon="3.86386">
        <ele>37.0</ele>
      </trkpt>
      <trkpt lat="50.77321" lon="3.86539">
        <ele>34.0</ele>
      </trkpt>
      <trkpt lat="50.77261" lon="3.86735">
        <ele>29.0</ele>
      </trkpt>
      <trkpt lat="50.77185" lon="3.87424">
        <ele>25.0</ele>
      </trkpt>
      <trkpt lat="50.77155" lon="3.88191">
        <ele>23.0</ele>
      </trkpt>
      <trkpt lat="50.77129" lon="3.88295">
        <ele>30.0</ele>
      </trkpt>
      <trkpt lat="50.77167" lon="3.88326">
        <ele>33.0</ele>
      </trkpt>
      <trkpt lat="50.77163" lon="3.8846">
        <ele>40.0</ele>
      </trkpt>
      <trkpt lat="50.77248" lon="3.88502">
        <ele>48.0</ele>
      </trkpt>
      <trkpt lat="50.7726" lon="3.88534">
        <ele>51.0</ele>
      </trkpt>
      <trkpt lat="50.77389" lon="3.88684">
        <ele>58.0</ele>
      </trkpt>
      <trkpt lat="50.77319" lon="3.88782">
        <ele>68.0</ele>
      </trkpt>
      <trkpt lat="50.77259" lon="3.88792">
        <ele>78.0</ele>
      </trkpt>
      <trkpt lat="50.77237" lon="3.88844">
        <ele>85.0</ele>
      </trkpt>
      <trkpt lat="50.77163" lon="3.88805">
        <ele>92.0</ele>
      </trkpt>
      <trkpt lat="50.77138" lon="3.88887">
        <ele>99.0</ele>
      </trkpt>
      <trkpt lat="50.77212" lon="3.8896">
        <ele>104.0</ele>
      </trkpt>
      <trkpt lat="50.77209" lon="3.88999">
        <ele>104.0</ele>
      </trkpt>
      <trkpt lat="50.77225" lon="3.8901">
        <ele>104.0</ele>
      </trkpt>
      <trkpt lat="50.77233" lon="3.89065">
        <ele>104.0</ele>
      </trkpt>
      <trkpt lat="50.77256" lon="3.89102">
        <ele>104.0</ele>
      </trkpt>
      <trkpt lat="50.77278" lon="3.89101">
        <ele>104.0</ele>
      </trkpt>
      <trkpt lat="50.7731" lon="3.89049">
        <ele>101.0</ele>
      </trkpt>
      <trkpt lat="50.77354" lon="3.89133">
        <ele>96.0</ele>
      </trkpt>
      <trkpt lat="50.77421" lon="3.89197">
        <ele>90.0</ele>
      </trkpt>
      <trkpt lat="50.7742" lon="3.89291">
        <ele>88.0</ele>
      </trkpt>
      <trkpt lat="50.77515" lon="3.89852">
        <ele>87.0</ele>
      </trkpt>
      <trkpt lat="50.77462" lon="3.9005">
        <ele>85.0</ele>
      </trkpt>
      <trkpt lat="50.77124" lon="3.90719">
        <ele>55.0</ele>
      </trkpt>
      <trkpt lat="50.77039" lon="3.90968">
        <ele>54.0</ele>
      </trkpt>
      <trkpt lat="50.76974" lon="3.91117">
        <ele>52.0</ele>
      </trkpt>
      <trkpt lat="50.76915" lon="3.91334">
        <ele>47.0</ele>
      </trkpt>
      <trkpt lat="50.76896" lon="3.91462">
        <ele>46.0</ele>
      </trkpt>
      <trkpt lat="50.76879" lon="3.91702">
        <ele>44.0</ele>
      </trkpt>
      <trkpt lat="50.76905" lon="3.91725">
        <ele>43.0</ele>
      </trkpt>
      <trkpt lat="50.76908" lon="3.9175">
        <ele>42.0</ele>
      </trkpt>
      <trkpt lat="50.76839" lon="3.91886">
        <ele>40.0</ele>
      </trkpt>
      <trkpt lat="50.76812" lon="3.91974">
        <ele>38.0</ele>
      </trkpt>
      <trkpt lat="50.76739" lon="3.92091">
        <ele>35.0</ele>
      </trkpt>
      <trkpt lat="50.76787" lon="3.92351">
        <ele>37.0</ele>
      </trkpt>
      <trkpt lat="50.76774" lon="3.92551">
        <ele>42.0</ele>
      </trkpt>
      <trkpt lat="50.76802" lon="3.93141">
        <ele>54.0</ele>
      </trkpt>
      <trkpt lat="50.7681" lon="3.93272">
        <ele>56.0</ele>
      </trkpt>
      <trkpt lat="50.76866" lon="3.93542">
        <ele>74.0</ele>
      </trkpt>
      <trkpt lat="50.76868" lon="3.93935">
        <ele>101.0</ele>
      </trkpt>
      <trkpt lat="50.76886" lon="3.94069">
        <ele>102.0</ele>
      </trkpt>
      <trkpt lat="50.76958" lon="3.94211">
        <ele>99.0</ele>
      </trkpt>
      <trkpt lat="50.76996" lon="3.94379">
        <ele>95.0</ele>
      </trkpt>
      <trkpt lat="50.77064" lon="3.94524">
        <ele>92.0</ele>
      </trkpt>
      <trkpt lat="50.77105" lon="3.94563">
        <ele>91.0</ele>
      </trkpt>
      <trkpt lat="50.773" lon="3.94674">
        <ele>91.0</ele>
      </trkpt>
      <trkpt lat="50.77406" lon="3.94813">
        <ele>91.0</ele>
      </trkpt>
      <trkpt lat="50.77484" lon="3.95011">
        <ele>90.0</ele>
      </trkpt>
      <trkpt lat="50.77551" lon="3.95235">
        <ele>87.0</ele>
      </trkpt>
      <trkpt lat="50.77685" lon="3.95454">
        <ele>84.0</ele>
      </trkpt>
      <trkpt lat="50.77729" lon="3.95607">
        <ele>84.0</ele>
      </trkpt>
      <trkpt lat="50.77826" lon="3.95863">
        <ele>81.0</ele>
      </trkpt>
      <trkpt lat="50.77877" lon="3.96091">
        <ele>77.0</ele>
      </trkpt>
      <trkpt lat="50.77966" lon="3.96247">
        <ele>75.0</ele>
      </trkpt>
      <trkpt lat="50.78122" lon="3.96465">
        <ele>70.0</ele>
      </trkpt>
      <trkpt lat="50.78233" lon="3.96824">
        <ele>66.0</ele>
      </trkpt>
      <trkpt lat="50.7841" lon="3.97209">
        <ele>62.0</ele>
      </trkpt>
      <trkpt lat="50.78502" lon="3.97531">
        <ele>62.0</ele>
      </trkpt>
      <trkpt lat="50.78541" lon="3.97614">
        <ele>62.0</ele>
      </trkpt>
      <trkpt lat="50.78614" lon="3.97698">
        <ele>64.0</ele>
      </trkpt>
      <trkpt lat="50.7864" lon="3.9775">
        <ele>65.0</ele>
      </trkpt>
      <trkpt lat="50.78655" lon="3.97838">
        <ele>67.0</ele>
      </trkpt>
      <trkpt lat="50.78647" lon="3.98328">
        <ele>65.0</ele>
      </trkpt>
      <trkpt lat="50.78714" lon="3.98486">
        <ele>63.0</ele>
      </trkpt>
      <trkpt lat="50.7879" lon="3.98728">
        <ele>57.0</ele>
      </trkpt>
      <trkpt lat="50.78798" lon="3.98792">
        <ele>56.0</ele>
      </trkpt>
      <trkpt lat="50.78788" lon="3.98928">
        <ele>55.0</ele>
      </trkpt>
      <trkpt lat="50.78797" lon="3.98994">
        <ele>54.0</ele>
      </trkpt>
      <trkpt lat="50.7884" lon="3.9908">
        <ele>54.0</ele>
      </trkpt>
      <trkpt lat="50.78917" lon="3.99332">
        <ele>54.0</ele>
      </trkpt>
      <trkpt lat="50.78975" lon="3.99449">
        <ele>54.0</ele>
      </trkpt>
      <trkpt lat="50.79017" lon="3.99492">
        <ele>55.0</ele>
      </trkpt>
      <trkpt lat="50.79109" lon="3.99522">
        <ele>55.0</ele>
      </trkpt>
      <trkpt lat="50.79178" lon="3.9958">
        <ele>56.0</ele>
      </trkpt>
      <trkpt lat="50.79314" lon="3.99804">
        <ele>56.0</ele>
      </trkpt>
      <trkpt lat="50.79339" lon="3.99877">
        <ele>55.0</ele>
      </trkpt>
      <trkpt lat="50.79354" lon="4.00313">
        <ele>51.0</ele>
      </trkpt>
      <trkpt lat="50.79515" lon="4.0091">
        <ele>48.0</ele>
      </trkpt>
      <trkpt lat="50.79524" lon="4.01009">
        <ele>47.0</ele>
      </trkpt>
      <trkpt lat="50.79511" lon="4.01184">
        <ele>46.0</ele>
      </trkpt>
      <trkpt lat="50.79519" lon="4.01273">
        <ele>43.0</ele>
      </trkpt>
      <trkpt lat="50.7971" lon="4.01873">
        <ele>37.0</ele>
      </trkpt>
      <trkpt lat="50.79749" lon="4.02134">
        <ele>36.0</ele>
      </trkpt>
      <trkpt lat="50.79745" lon="4.02237">
        <ele>36.0</ele>
      </trkpt>
      <trkpt lat="50.79772" lon="4.02503">
        <ele>39.0</ele>
      </trkpt>
      <trkpt lat="50.79878" lon="4.02431">
        <ele>42.0</ele>
      </trkpt>
      <trkpt lat="50.79979" lon="4.0228">
        <ele>45.0</ele>
      </trkpt>
      <trkpt lat="50.80033" lon="4.02252">
        <ele>46.0</ele>
      </trkpt>
      <trkpt lat="50.82524" lon="4.02622">
        <ele>24.0</ele>
      </trkpt>
      <trkpt lat="50.82709" lon="4.02632">
        <ele>17.0</ele>
      </trkpt>
      <trkpt lat="50.82764" lon="4.02596">
        <ele>16.0</ele>
      </trkpt>
      <trkpt lat="50.82803" lon="4.02544">
        <ele>15.0</ele>
      </trkpt>
      <trkpt lat="50.82617" lon="4.02084">
        <ele>16.0</ele>
      </trkpt>
      <trkpt lat="50.82595" lon="4.01924">
        <ele>17.0</ele>
      </trkpt>
      <trkpt lat="50.82608" lon="4.01796">
        <ele>16.0</ele>
      </trkpt>
      <trkpt lat="50.82644" lon="4.01682">
        <ele>13.0</ele>
      </trkpt>
      <trkpt lat="50.82703" lon="4.01584">
        <ele>12.0</ele>
      </trkpt>
      <trkpt lat="50.82939" lon="4.01419">
        <ele>12.0</ele>
      </trkpt>
    </trkseg>
  </trk>
</gpx>