<?xml version="1.0" encoding="UTF-8"?>
<gpx xmlns="http://www.topografix.com/GPX/1/0" xmlns:xsi="http://www.w3.org/2001/XMLSchema-instance" xsi:schemaLocation="http://www.topografix.com/GPX/1/0 http://www.topografix.com/GPX/1/0/gpx.xsd" version="1.0" creator="GPSBabel - https://www.gpsbabel.org">
  <time>2026-10-05T20:17:32.376000Z</time>
  <bounds minlat="47.38826" maxlat="48.40016" minlon="0.6713" maxlon="1.49877" />
  <trk>
    <trkseg>
      <trkpt lat="48.40016" lon="1.49263">
        <ele>132.0</ele>
      </trkpt>
      <trkpt lat="48.39679" lon="1.49292">
        <ele>136.0</ele>
      </trkpt>
      <trkpt lat="48.39136" lon="1.49256">
        <ele>142.0</ele>
      </trkpt>
      <trkpt lat="48.39053" lon="1.49276">
        <ele>144.0</ele>
      </trkpt>
      <trkpt lat="48.38848" lon="1.49379">
        <ele>145.0</ele>
      </trkpt>
      <trkpt lat="48.38764" lon="1.49404">
        <ele>144.0</ele>
      </trkpt>
      <trkpt lat="48.38464" lon="1.49391">
        <ele>143.0</ele>
      </trkpt>
      <trkpt lat="48.37849" lon="1.49444">
        <ele>131.0</ele>
      </trkpt>
      <trkpt lat="48.36341" lon="1.49634">
        <ele>146.0</ele>
      </trkpt>
      <trkpt lat="48.35672" lon="1.49639">
        <ele>147.0</ele>
      </trkpt>
      <trkpt lat="48.35188" lon="1.49553">
        <ele>145.0</ele>
      </trkpt>
      <trkpt lat="48.35096" lon="1.49564">
        <ele>144.0</ele>
      </trkpt>
      <trkpt lat="48.34937" lon="1.49647">
        <ele>144.0</ele>
      </trkpt>
      <trkpt lat="48.34889" lon="1.49595">
        <ele>144.0</ele>
      </trkpt>
      <trkpt lat="48.34844" lon="1.49491">
        <ele>144.0</ele>
      </trkpt>
      <trkpt lat="48.34828" lon="1.49478">
        <ele>144.0</ele>
      </trkpt>
      <trkpt lat="48.34161" lon="1.49352">
        <ele>150.0</ele>
      </trkpt>
      <trkpt lat="48.34038" lon="1.49314">
        <ele>152.0</ele>
      </trkpt>
      <trkpt lat="48.33607" lon="1.49101">
        <ele>153.0</ele>
      </trkpt>
      <trkpt lat="48.33174" lon="1.4892">
        <ele>152.0</ele>
      </trkpt>
      <trkpt lat="48.32212" lon="1.48631">
        <ele>149.0</ele>
      </trkpt>
      <trkpt lat="48.31826" lon="1.48472">
        <ele>147.0</ele>
      </trkpt>
      <trkpt lat="48.31648" lon="1.48439">
        <ele>148.0</ele>
      </trkpt>
      <trkpt lat="48.31246" lon="1.48401">
        <ele>150.0</ele>
      </trkpt>
      <trkpt lat="48.30212" lon="1.48407">
        <ele>147.0</ele>
      </trkpt>
      <trkpt lat="48.29712" lon="1.48384">
        <ele>146.0</ele>
      </trkpt>
      <trkpt lat="48.29385" lon="1.48392">
        <ele>147.0</ele>
      </trkpt>
      <trkpt lat="48.28901" lon="1.48424">
        <ele>145.0</ele>
      </trkpt>
      <trkpt lat="48.2873" lon="1.48455">
        <ele>142.0</ele>
      </trkpt>
      <trkpt lat="48.2839" lon="1.48443">
        <ele>143.0</ele>
      </trkpt>
      <trkpt lat="48.28043" lon="1.48469">
        <ele>145.0</ele>
      </trkpt>
      <trkpt lat="48.274" lon="1.48485">
        <ele>147.0</ele>
      </trkpt>
      <trkpt lat="48.26312" lon="1.48578">
        <ele>148.0</ele>
      </trkpt>
      <trkpt lat="48.2551" lon="1.48621">
        <ele>144.0</ele>
      </trkpt>
      <trkpt lat="48.24283" lon="1.48899">
        <ele>143.0</ele>
      </trkpt>
      <trkpt lat="48.22914" lon="1.49057">
        <ele>139.0</ele>
      </trkpt>
      <trkpt lat="48.20049" lon="1.49601">
        <ele>136.0</ele>
      </trkpt>
      <trkpt lat="48.19709" lon="1.4969">
        <ele>137.0</ele>
      </trkpt>
      <trkpt lat="48.19275" lon="1.49749">
        <ele>136.0</ele>
      </trkpt>
      <trkpt lat="48.18571" lon="1.49877">
        <ele>135.0</ele>
      </trkpt>
      <trkpt lat="48.18587" lon="1.48432">
        <ele>130.0</ele>
      </trkpt>
      <trkpt lat="48.18492" lon="1.47668">
        <ele>130.0</ele>
      </trkpt>
      <trkpt lat="48.18486" lon="1.4749">
        <ele>131.0</ele>
      </trkpt>
      <trkpt lat="48.18497" lon="1.46978">
        <ele>131.0</ele>
      </trkpt>
      <trkpt lat="48.18455" lon="1.46613">
        <ele>131.0</ele>
      </trkpt>
      <trkpt lat="48.1851" lon="1.46209">
        <ele>131.0</ele>
      </trkpt>
      <trkpt lat="48.18504" lon="1.45981">
        <ele>129.0</ele>
      </trkpt>
      <trkpt lat="48.18467" lon="1.4562">
        <ele>129.0</ele>
      </trkpt>
      <trkpt lat="48.18159" lon="1.43429">
        <ele>132.0</ele>
      </trkpt>
      <trkpt lat="48.18096" lon="1.43219">
        <ele>133.0</ele>
      </trkpt>
      <trkpt lat="48.18072" lon="1.43073">
        <ele>133.0</ele>
      </trkpt>
      <trkpt lat="48.18071" lon="1.42573">
        <ele>133.0</ele>
      </trkpt>
      <trkpt lat="48.18116" lon="1.41589">
        <ele>131.0</ele>
      </trkpt>
      <trkpt lat="48.18193" lon="1.4067">
        <ele>130.0</ele>
      </trkpt>
      <trkpt lat="48.18292" lon="1.40343">
        <ele>131.0</ele>
      </trkpt>
      <trkpt lat="48.18273" lon="1.40003">
        <ele>130.0</ele>
      </trkpt>
      <trkpt lat="48.18156" lon="1.39507">
        <ele>132.0</ele>
      </trkpt>
      <trkpt lat="48.18143" lon="1.3939">
        <ele>130.0</ele>
      </trkpt>
      <trkpt lat="48.18152" lon="1.39336">
        <ele>129.0</ele>
      </trkpt>
      <trkpt lat="48.18276" lon="1.38985">
        <ele>125.0</ele>
      </trkpt>
      <trkpt lat="48.1822" lon="1.38902">
        <ele>125.0</ele>
      </trkpt>
      <trkpt lat="48.18299" lon="1.3876">
        <ele>126.0</ele>
      </trkpt>
      <trkpt lat="48.18144" lon="1.38646">
        <ele>126.0</ele>
      </trkpt>
      <trkpt lat="48.18091" lon="1.38583">
        <ele>126.0</ele>
      </trkpt>
      <trkpt lat="48.17934" lon="1.38207">
        <ele>129.0</ele>
      </trkpt>
      <trkpt lat="48.17844" lon="1.38054">
        <ele>133.0</ele>
      </trkpt>
      <trkpt lat="48.17757" lon="1.37981">
        <ele>137.0</ele>
      </trkpt>
      <trkpt lat="48.17745" lon="1.37891">
        <ele>140.0</ele>
      </trkpt>
      <trkpt lat="48.18146" lon="1.3735">
        <ele>146.0</ele>
      </trkpt>
      <trkpt lat="48.18172" lon="1.37211">
        <ele>146.0</ele>
      </trkpt>
      <trkpt lat="48.18159" lon="1.37061">
        <ele>147.0</ele>
      </trkpt>
      <trkpt lat="48.18063" lon="1.37106">
        <ele>148.0</ele>
      </trkpt>
      <trkpt lat="48.17962" lon="1.3724">
        <ele>150.0</ele>
      </trkpt>
      <trkpt lat="48.1791" lon="1.37197">
        <ele>150.0</ele>
      </trkpt>
      <trkpt lat="48.17636" lon="1.37063">
        <ele>153.0</ele>
      </trkpt>
      <trkpt lat="48.17349" lon="1.36767">
        <ele>156.0</ele>
      </trkpt>
      <trkpt lat="48.1714" lon="1.36674">
        <ele>156.0</ele>
      </trkpt>
      <trkpt lat="48.16993" lon="1.36567">
        <ele>154.0</ele>
      </trkpt>
      <trkpt lat="48.1685" lon="1.36141">
        <ele>152.0</ele>
      </trkpt>
      <trkpt lat="48.16839" lon="1.36055">
        <ele>152.0</ele>
      </trkpt>
      <trkpt lat="48.16852" lon="1.35986">
        <ele>153.0</ele>
      </trkpt>
      <trkpt lat="48.16951" lon="1.35689">
        <ele>157.0</ele>
      </trkpt>
      <trkpt lat="48.17049" lon="1.35457">
        <ele>159.0</ele>
      </trkpt>
      <trkpt lat="48.17087" lon="1.35145">
        <ele>161.0</ele>
      </trkpt>
      <trkpt lat="48.1703" lon="1.34694">
        <ele>162.0</ele>
      </trkpt>
      <trkpt lat="48.16963" lon="1.3316">
        <ele>160.0</ele>
      </trkpt>
      <trkpt lat="48.16968" lon="1.33059">
        <ele>161.0</ele>
      </trkpt>
      <trkpt lat="48.17008" lon="1.32844">
        <ele>164.0</ele>
      </trkpt>
      <trkpt lat="48.17001" lon="1.32658">
        <ele>166.0</ele>
      </trkpt>
      <trkpt lat="48.16991" lon="1.32536">
        <ele>168.0</ele>
      </trkpt>
      <trkpt lat="48.16938" lon="1.32232">
        <ele>166.0</ele>
      </trkpt>
      <trkpt lat="48.16911" lon="1.31696">
        <ele>163.0</ele>
      </trkpt>
      <trkpt lat="48.1687" lon="1.31329">
        <ele>162.0</ele>
      </trkpt>
      <trkpt lat="48.16848" lon="1.31286">
        <ele>162.0</ele>
      </trkpt>
      <trkpt lat="48.16824" lon="1.31272">
        <ele>162.0</ele>
      </trkpt>
      <trkpt lat="48.16597" lon="1.31225">
        <ele>159.0</ele>
      </trkpt>
      <trkpt lat="48.16478" lon="1.31169">
        <ele>158.0</ele>
      </trkpt>
      <trkpt lat="48.16274" lon="1.31156">
        <ele>158.0</ele>
      </trkpt>
      <trkpt lat="48.16233" lon="1.31111">
        <ele>158.0</ele>
      </trkpt>
      <trkpt lat="48.16222" lon="1.31043">
        <ele>158.0</ele>
      </trkpt>
      <trkpt lat="48.16214" lon="1.30555">
        <ele>160.0</ele>
      </trkpt>
      <trkpt lat="48.16152" lon="1.29861">
        <ele>159.0</ele>
      </trkpt>
      <trkpt lat="48.16136" lon="1.29745">
        <ele>159.0</ele>
      </trkpt>
      <trkpt lat="48.16056" lon="1.29391">
        <ele>160.0</ele>
      </trkpt>
      <trkpt lat="48.15959" lon="1.29109">
        <ele>159.0</ele>
      </trkpt>
      <trkpt lat="48.15854" lon="1.28874">
        <ele>155.0</ele>
      </trkpt>
      <trkpt lat="48.15627" lon="1.28543">
        <ele>156.0</ele>
      </trkpt>
      <trkpt lat="48.15539" lon="1.28358">
        <ele>160.0</ele>
      </trkpt>
      <trkpt lat="48.15495" lon="1.28041">
        <ele>165.0</ele>
      </trkpt>
      <trkpt lat="48.15327" lon="1.27505">
        <ele>160.0</ele>
      </trkpt>
      <trkpt lat="48.15249" lon="1.2736">
        <ele>157.0</ele>
      </trkpt>
      <trkpt lat="48.15181" lon="1.27195">
        <ele>156.0</ele>
      </trkpt>
      <trkpt lat="48.15138" lon="1.27148">
        <ele>156.0</ele>
      </trkpt>
      <trkpt lat="48.14998" lon="1.27157">
        <ele>156.0</ele>
      </trkpt>
      <trkpt lat="48.14962" lon="1.27125">
        <ele>156.0</ele>
      </trkpt>
      <trkpt lat="48.14723" lon="1.26425">
        <ele>160.0</ele>
      </trkpt>
      <trkpt lat="48.14726" lon="1.26314">
        <ele>161.0</ele>
      </trkpt>
      <trkpt lat="48.14691" lon="1.26064">
        <ele>161.0</ele>
      </trkpt>
      <trkpt lat="48.14512" lon="1.26073">
        <ele>162.0</ele>
      </trkpt>
      <trkpt lat="48.14391" lon="1.26039">
        <ele>162.0</ele>
      </trkpt>
      <trkpt lat="48.14096" lon="1.2608">
        <ele>162.0</ele>
      </trkpt>
      <trkpt lat="48.13952" lon="1.26125">
        <ele>162.0</ele>
      </trkpt>
      <trkpt lat="48.13796" lon="1.26119">
        <ele>162.0</ele>
      </trkpt>
      <trkpt lat="48.13692" lon="1.26102">
        <ele>161.0</ele>
      </trkpt>
      <trkpt lat="48.13446" lon="1.25931">
        <ele>156.0</ele>
      </trkpt>
      <trkpt lat="48.1332" lon="1.26019">
        <ele>155.0</ele>
      </trkpt>
      <trkpt lat="48.131" lon="1.26023">
        <ele>154.0</ele>
      </trkpt>
      <trkpt lat="48.12931" lon="1.25638">
        <ele>155.0</ele>
      </trkpt>
      <trkpt lat="48.12536" lon="1.25229">
        <ele>157.0</ele>
      </trkpt>
      <trkpt lat="48.12338" lon="1.25112">
        <ele>157.0</ele>
      </trkpt>
      <trkpt lat="48.1218" lon="1.24993">
        <ele>154.0</ele>
      </trkpt>
      <trkpt lat="48.12054" lon="1.24854">
        <ele>153.0</ele>
      </trkpt>
      <trkpt lat="48.11893" lon="1.24601">
        <ele>154.0</ele>
      </trkpt>
      <trkpt lat="48.11575" lon="1.24372">
        <ele>158.0</ele>
      </trkpt>
      <trkpt lat="48.11205" lon="1.24208">
        <ele>156.0</ele>
      </trkpt>
      <trkpt lat="48.10719" lon="1.24125">
        <ele>155.0</ele>
      </trkpt>
      <trkpt lat="48.10071" lon="1.24134">
        <ele>156.0</ele>
      </trkpt>
      <trkpt lat="48.09803" lon="1.24216">
        <ele>150.0</ele>
      </trkpt>
      <trkpt lat="48.09745" lon="1.24218">
        <ele>147.0</ele>
      </trkpt>
      <trkpt lat="48.09553" lon="1.24181">
        <ele>144.0</ele>
      </trkpt>
      <trkpt lat="48.09131" lon="1.24002">
        <ele>152.0</ele>
      </trkpt>
      <trkpt lat="48.08905" lon="1.24027">
        <ele>151.0</ele>
      </trkpt>
      <trkpt lat="48.08804" lon="1.24087">
        <ele>149.0</ele>
      </trkpt>
      <trkpt lat="48.08776" lon="1.24084">
        <ele>148.0</ele>
      </trkpt>
      <trkpt lat="48.08648" lon="1.23949">
        <ele>148.0</ele>
      </trkpt>
      <trkpt lat="48.08372" lon="1.23761">
        <ele>151.0</ele>
      </trkpt>
      <trkpt lat="48.08308" lon="1.23702">
        <ele>152.0</ele>
      </trkpt>
      <trkpt lat="48.08165" lon="1.23689">
        <ele>152.0</ele>
      </trkpt>
      <trkpt lat="48.08087" lon="1.2372">
        <ele>151.0</ele>
      </trkpt>
      <trkpt lat="48.08026" lon="1.23723">
        <ele>151.0</ele>
      </trkpt>
      <trkpt lat="48.07861" lon="1.23638">
        <ele>146.0</ele>
      </trkpt>
      <trkpt lat="48.07518" lon="1.235">
        <ele>146.0</ele>
      </trkpt>
      <trkpt lat="48.07292" lon="1.23485">
        <ele>147.0</ele>
      </trkpt>
      <trkpt lat="48.07091" lon="1.23437">
        <ele>149.0</ele>
      </trkpt>
      <trkpt lat="48.0686" lon="1.23418">
        <ele>149.0</ele>
      </trkpt>
      <trkpt lat="48.0671" lon="1.23371">
        <ele>146.0</ele>
      </trkpt>
      <trkpt lat="48.06667" lon="1.23342">
        <ele>144.0</ele>
      </trkpt>
      <trkpt lat="48.0656" lon="1.23317">
        <ele>141.0</ele>
      </trkpt>
      <trkpt lat="48.06408" lon="1.2339">
        <ele>135.0</ele>
      </trkpt>
      <trkpt lat="48.063" lon="1.23412">
        <ele>131.0</ele>
      </trkpt>
      <trkpt lat="48.0617" lon="1.23616">
        <ele>124.0</ele>
      </trkpt>
      <trkpt lat="48.06109" lon="1.23747">
        <ele>123.0</ele>
      </trkpt>
      <trkpt lat="48.06054" lon="1.23812">
        <ele>123.0</ele>
      </trkpt>
      <trkpt lat="48.05945" lon="1.23835">
        <ele>121.0</ele>
      </trkpt>
      <trkpt lat="48.05855" lon="1.23877">
        <ele>120.0</ele>
      </trkpt>
      <trkpt lat="48.05634" lon="1.24023">
        <ele>116.0</ele>
      </trkpt>
      <trkpt lat="48.05476" lon="1.24033">
        <ele>114.0</ele>
      </trkpt>
      <trkpt lat="48.05033" lon="1.24442">
        <ele>125.0</ele>
      </trkpt>
      <trkpt lat="48.04926" lon="1.24489">
        <ele>126.0</ele>
      </trkpt>
      <trkpt lat="48.04724" lon="1.24509">
        <ele>125.0</ele>
      </trkpt>
      <trkpt lat="48.04546" lon="1.24685">
        <ele>119.0</ele>
      </trkpt>
      <trkpt lat="48.04501" lon="1.24682">
        <ele>119.0</ele>
      </trkpt>
      <trkpt lat="48.04402" lon="1.24629">
        <ele>120.0</ele>
      </trkpt>
      <trkpt lat="48.04365" lon="1.24626">
        <ele>120.0</ele>
      </trkpt>
      <trkpt lat="48.0431" lon="1.24641">
        <ele>118.0</ele>
      </trkpt>
      <trkpt lat="48.04252" lon="1.24687">
        <ele>116.0</ele>
      </trkpt>
      <trkpt lat="48.04154" lon="1.2473">
        <ele>113.0</ele>
      </trkpt>
      <trkpt lat="48.0404" lon="1.24876">
        <ele>111.0</ele>
      </trkpt>
      <trkpt lat="48.03916" lon="1.25098">
        <ele>110.0</ele>
      </trkpt>
      <trkpt lat="48.0378" lon="1.2521">
        <ele>111.0</ele>
      </trkpt>
      <trkpt lat="48.03715" lon="1.25377">
        <ele>111.0</ele>
      </trkpt>
      <trkpt lat="48.03628" lon="1.25506">
        <ele>111.0</ele>
      </trkpt>
      <trkpt lat="48.03501" lon="1.2563">
        <ele>110.0</ele>
      </trkpt>
      <trkpt lat="48.03383" lon="1.25682">
        <ele>109.0</ele>
      </trkpt>
      <trkpt lat="48.03233" lon="1.258">
        <ele>109.0</ele>
      </trkpt>
      <trkpt lat="48.03153" lon="1.2582">
        <ele>106.0</ele>
      </trkpt>
      <trkpt lat="48.0275" lon="1.25701">
        <ele>101.0</ele>
      </trkpt>
      <trkpt lat="48.02712" lon="1.25488">
        <ele>101.0</ele>
      </trkpt>
      <trkpt lat="48.02762" lon="1.25536">
        <ele>101.0</ele>
      </trkpt>
      <trkpt lat="48.02814" lon="1.25555">
        <ele>101.0</ele>
      </trkpt>
      <trkpt lat="48.02915" lon="1.25559">
        <ele>101.0</ele>
      </trkpt>
      <trkpt lat="48.02985" lon="1.25521">
        <ele>102.0</ele>
      </trkpt>
      <trkpt lat="48.02947" lon="1.25152">
        <ele>109.0</ele>
      </trkpt>
      <trkpt lat="48.0295" lon="1.24889">
        <ele>117.0</ele>
      </trkpt>
      <trkpt lat="48.02934" lon="1.2468">
        <ele>123.0</ele>
      </trkpt>
      <trkpt lat="48.02884" lon="1.24408">
        <ele>129.0</ele>
      </trkpt>
      <trkpt lat="48.02841" lon="1.24247">
        <ele>133.0</ele>
      </trkpt>
      <trkpt lat="48.02858" lon="1.22331">
        <ele>143.0</ele>
      </trkpt>
      <trkpt lat="48.02942" lon="1.22246">
        <ele>140.0</ele>
      </trkpt>
      <trkpt lat="48.02951" lon="1.22183">
        <ele>140.0</ele>
      </trkpt>
      <trkpt lat="48.02946" lon="1.22061">
        <ele>139.0</ele>
      </trkpt>
      <trkpt lat="48.02912" lon="1.21874">
        <ele>140.0</ele>
      </trkpt>
      <trkpt lat="48.02867" lon="1.2142">
        <ele>143.0</ele>
      </trkpt>
      <trkpt lat="48.02856" lon="1.20865">
        <ele>146.0</ele>
      </trkpt>
      <trkpt lat="48.02907" lon="1.2058">
        <ele>147.0</ele>
      </trkpt>
      <trkpt lat="48.02891" lon="1.20299">
        <ele>149.0</ele>
      </trkpt>
      <trkpt lat="48.02934" lon="1.19745">
        <ele>153.0</ele>
      </trkpt>
      <trkpt lat="48.02279" lon="1.20281">
        <ele>151.0</ele>
      </trkpt>
      <trkpt lat="48.0196" lon="1.20363">
        <ele>145.0</ele>
      </trkpt>
      <trkpt lat="48.01797" lon="1.20518">
        <ele>142.0</ele>
      </trkpt>
      <trkpt lat="48.01556" lon="1.20832">
        <ele>137.0</ele>
      </trkpt>
      <trkpt lat="48.01343" lon="1.20983">
        <ele>136.0</ele>
      </trkpt>
      <trkpt lat="48.01275" lon="1.21071">
        <ele>136.0</ele>
      </trkpt>
      <trkpt lat="48.01219" lon="1.21179">
        <ele>136.0</ele>
      </trkpt>
      <trkpt lat="48.01183" lon="1.21313">
        <ele>137.0</ele>
      </trkpt>
      <trkpt lat="48.01079" lon="1.21448">
        <ele>139.0</ele>
      </trkpt>
      <trkpt lat="48.00958" lon="1.2164">
        <ele>141.0</ele>
      </trkpt>
      <trkpt lat="48.00685" lon="1.21816">
        <ele>143.0</ele>
      </trkpt>
      <trkpt lat="48.00511" lon="1.22017">
        <ele>144.0</ele>
      </trkpt>
      <trkpt lat="48.00073" lon="1.22793">
        <ele>128.0</ele>
      </trkpt>
      <trkpt lat="48.00036" lon="1.22837">
        <ele>123.0</ele>
      </trkpt>
      <trkpt lat="47.99762" lon="1.23024">
        <ele>103.0</ele>
      </trkpt>
      <trkpt lat="47.99552" lon="1.2307">
        <ele>98.0</ele>
      </trkpt>
      <trkpt lat="47.99573" lon="1.23191">
        <ele>98.0</ele>
      </trkpt>
      <trkpt lat="47.99512" lon="1.23189">
        <ele>97.0</ele>
      </trkpt>
      <trkpt lat="47.99206" lon="1.23248">
        <ele>96.0</ele>
      </trkpt>
      <trkpt lat="47.99119" lon="1.23105">
        <ele>97.0</ele>
      </trkpt>
      <trkpt lat="47.99021" lon="1.22602">
        <ele>100.0</ele>
      </trkpt>
      <trkpt lat="47.9893" lon="1.22371">
        <ele>100.0</ele>
      </trkpt>
      <trkpt lat="47.98867" lon="1.22245">
        <ele>102.0</ele>
      </trkpt>
      <trkpt lat="47.98856" lon="1.21955">
        <ele>107.0</ele>
      </trkpt>
      <trkpt lat="47.98829" lon="1.21835">
        <ele>110.0</ele>
      </trkpt>
      <trkpt lat="47.98684" lon="1.21642">
        <ele>116.0</ele>
      </trkpt>
      <trkpt lat="47.98572" lon="1.21458">
        <ele>123.0</ele>
      </trkpt>
      <trkpt lat="47.98526" lon="1.21432">
        <ele>127.0</ele>
      </trkpt>
      <trkpt lat="47.98454" lon="1.21427">
        <ele>130.0</ele>
      </trkpt>
      <trkpt lat="47.98443" lon="1.2141">
        <ele>130.0</ele>
      </trkpt>
      <trkpt lat="47.98409" lon="1.21017">
        <ele>131.0</ele>
      </trkpt>
      <trkpt lat="47.9826" lon="1.19853">
        <ele>140.0</ele>
      </trkpt>
      <trkpt lat="47.98121" lon="1.19706">
        <ele>138.0</ele>
      </trkpt>
      <trkpt lat="47.98024" lon="1.19432">
        <ele>143.0</ele>
      </trkpt>
      <trkpt lat="47.97872" lon="1.19188">
        <ele>147.0</ele>
      </trkpt>
      <trkpt lat="47.97617" lon="1.18591">
        <ele>144.0</ele>
      </trkpt>
      <trkpt lat="47.97577" lon="1.18455">
        <ele>143.0</ele>
      </trkpt>
      <trkpt lat="47.97374" lon="1.18055">
        <ele>149.0</ele>
      </trkpt>
      <trkpt lat="47.97196" lon="1.17416">
        <ele>175.0</ele>
      </trkpt>
      <trkpt lat="47.96934" lon="1.16965">
        <ele>180.0</ele>
      </trkpt>
      <trkpt lat="47.96902" lon="1.16478">
        <ele>187.0</ele>
      </trkpt>
      <trkpt lat="47.96845" lon="1.16242">
        <ele>191.0</ele>
      </trkpt>
      <trkpt lat="47.96675" lon="1.15731">
        <ele>198.0</ele>
      </trkpt>
      <trkpt lat="47.96637" lon="1.1521">
        <ele>205.0</ele>
      </trkpt>
      <trkpt lat="47.9657" lon="1.14839">
        <ele>207.0</ele>
      </trkpt>
      <trkpt lat="47.96589" lon="1.14662">
        <ele>207.0</ele>
      </trkpt>
      <trkpt lat="47.96586" lon="1.14552">
        <ele>207.0</ele>
      </trkpt>
      <trkpt lat="47.96512" lon="1.14127">
        <ele>207.0</ele>
      </trkpt>
      <trkpt lat="47.96472" lon="1.13995">
        <ele>208.0</ele>
      </trkpt>
      <trkpt lat="47.96438" lon="1.13926">
        <ele>209.0</ele>
      </trkpt>
      <trkpt lat="47.96229" lon="1.13691">
        <ele>209.0</ele>
      </trkpt>
      <trkpt lat="47.96151" lon="1.13541">
        <ele>208.0</ele>
      </trkpt>
      <trkpt lat="47.96088" lon="1.13292">
        <ele>207.0</ele>
      </trkpt>
      <trkpt lat="47.9606" lon="1.13045">
        <ele>204.0</ele>
      </trkpt>
      <trkpt lat="47.95983" lon="1.12832">
        <ele>200.0</ele>
      </trkpt>
      <trkpt lat="47.95936" lon="1.12747">
        <ele>199.0</ele>
      </trkpt>
      <trkpt lat="47.95584" lon="1.12324">
        <ele>197.0</ele>
      </trkpt>
      <trkpt lat="47.95417" lon="1.12158">
        <ele>198.0</ele>
      </trkpt>
      <trkpt lat="47.95241" lon="1.12023">
        <ele>197.0</ele>
      </trkpt>
      <trkpt lat="47.95127" lon="1.1186">
        <ele>197.0</ele>
      </trkpt>
      <trkpt lat="47.94885" lon="1.11642">
        <ele>202.0</ele>
      </trkpt>
      <trkpt lat="47.94749" lon="1.1143">
        <ele>202.0</ele>
      </trkpt>
      <trkpt lat="47.94695" lon="1.11257">
        <ele>202.0</ele>
      </trkpt>
      <trkpt lat="47.94639" lon="1.11152">
        <ele>200.0</ele>
      </trkpt>
      <trkpt lat="47.9456" lon="1.11055">
        <ele>198.0</ele>
      </trkpt>
      <trkpt lat="47.94329" lon="1.10865">
        <ele>197.0</ele>
      </trkpt>
      <trkpt lat="47.94254" lon="1.10774">
        <ele>196.0</ele>
      </trkpt>
      <trkpt lat="47.94142" lon="1.10583">
        <ele>195.0</ele>
      </trkpt>
      <trkpt lat="47.94076" lon="1.10499">
        <ele>193.0</ele>
      </trkpt>
      <trkpt lat="47.93983" lon="1.10423">
        <ele>191.0</ele>
      </trkpt>
      <trkpt lat="47.93693" lon="1.10236">
        <ele>186.0</ele>
      </trkpt>
      <trkpt lat="47.93349" lon="1.09843">
        <ele>171.0</ele>
      </trkpt>
      <trkpt lat="47.9295" lon="1.09509">
        <ele>162.0</ele>
      </trkpt>
      <trkpt lat="47.92766" lon="1.09408">
        <ele>160.0</ele>
      </trkpt>
      <trkpt lat="47.92641" lon="1.09315">
        <ele>159.0</ele>
      </trkpt>
      <trkpt lat="47.92328" lon="1.09235">
        <ele>154.0</ele>
      </trkpt>
      <trkpt lat="47.92051" lon="1.09134">
        <ele>147.0</ele>
      </trkpt>
      <trkpt lat="47.92005" lon="1.09103">
        <ele>144.0</ele>
      </trkpt>
      <trkpt lat="47.9197" lon="1.09044">
        <ele>139.0</ele>
      </trkpt>
      <trkpt lat="47.91839" lon="1.08552">
        <ele>141.0</ele>
      </trkpt>
      <trkpt lat="47.91684" lon="1.08482">
        <ele>144.0</ele>
      </trkpt>
      <trkpt lat="47.91541" lon="1.08486">
        <ele>145.0</ele>
      </trkpt>
      <trkpt lat="47.91354" lon="1.08664">
        <ele>148.0</ele>
      </trkpt>
      <trkpt lat="47.91198" lon="1.0877">
        <ele>150.0</ele>
      </trkpt>
      <trkpt lat="47.9114" lon="1.08799">
        <ele>152.0</ele>
      </trkpt>
      <trkpt lat="47.9094" lon="1.08842">
        <ele>153.0</ele>
      </trkpt>
      <trkpt lat="47.90898" lon="1.08839">
        <ele>153.0</ele>
      </trkpt>
      <trkpt lat="47.90654" lon="1.08745">
        <ele>153.0</ele>
      </trkpt>
      <trkpt lat="47.9035" lon="1.08741">
        <ele>150.0</ele>
      </trkpt>
      <trkpt lat="47.90084" lon="1.08782">
        <ele>150.0</ele>
      </trkpt>
      <trkpt lat="47.8986" lon="1.08728">
        <ele>147.0</ele>
      </trkpt>
      <trkpt lat="47.89647" lon="1.08732">
        <ele>143.0</ele>
      </trkpt>
      <trkpt lat="47.89594" lon="1.087">
        <ele>143.0</ele>
      </trkpt>
      <trkpt lat="47.8932" lon="1.08345">
        <ele>146.0</ele>
      </trkpt>
      <trkpt lat="47.89225" lon="1.08245">
        <ele>149.0</ele>
      </trkpt>
      <trkpt lat="47.88858" lon="1.08021">
        <ele>149.0</ele>
      </trkpt>
      <trkpt lat="47.88622" lon="1.07919">
        <ele>147.0</ele>
      </trkpt>
      <trkpt lat="47.88331" lon="1.07753">
        <ele>147.0</ele>
      </trkpt>
      <trkpt lat="47.87931" lon="1.07794">
        <ele>142.0</ele>
      </trkpt>
      <trkpt lat="47.87783" lon="1.07871">
        <ele>141.0</ele>
      </trkpt>
      <trkpt lat="47.87471" lon="1.07972">
        <ele>140.0</ele>
      </trkpt>
      <trkpt lat="47.8715" lon="1.07942">
        <ele>142.0</ele>
      </trkpt>
      <trkpt lat="47.86978" lon="1.07964">
        <ele>141.0</ele>
      </trkpt>
      <trkpt lat="47.86987" lon="1.07761">
        <ele>137.0</ele>
      </trkpt>
      <trkpt lat="47.86958" lon="1.07575">
        <ele>127.0</ele>
      </trkpt>
      <trkpt lat="47.86958" lon="1.07459">
        <ele>126.0</ele>
      </trkpt>
      <trkpt lat="47.87048" lon="1.06812">
        <ele>136.0</ele>
      </trkpt>
      <trkpt lat="47.87113" lon="1.06749">
        <ele>138.0</ele>
      </trkpt>
      <trkpt lat="47.87044" lon="1.06594">
        <ele>140.0</ele>
      </trkpt>
      <trkpt lat="47.86953" lon="1.06477">
        <ele>141.0</ele>
      </trkpt>
      <trkpt lat="47.86778" lon="1.06471">
        <ele>139.0</ele>
      </trkpt>
      <trkpt lat="47.86631" lon="1.06396">
        <ele>135.0</ele>
      </trkpt>
      <trkpt lat="47.86589" lon="1.0635">
        <ele>134.0</ele>
      </trkpt>
      <trkpt lat="47.86455" lon="1.06035">
        <ele>136.0</ele>
      </trkpt>
      <trkpt lat="47.86416" lon="1.06012">
        <ele>137.0</ele>
      </trkpt>
      <trkpt lat="47.86234" lon="1.06001">
        <ele>140.0</ele>
      </trkpt>
      <trkpt lat="47.86156" lon="1.05916">
        <ele>140.0</ele>
      </trkpt>
      <trkpt lat="47.86129" lon="1.05792">
        <ele>140.0</ele>
      </trkpt>
      <trkpt lat="47.86112" lon="1.0576">
        <ele>139.0</ele>
      </trkpt>
      <trkpt lat="47.86069" lon="1.05722">
        <ele>139.0</ele>
      </trkpt>
      <trkpt lat="47.85974" lon="1.05677">
        <ele>137.0</ele>
      </trkpt>
      <trkpt lat="47.85926" lon="1.05629">
        <ele>136.0</ele>
      </trkpt>
      <trkpt lat="47.85905" lon="1.0558">
        <ele>135.0</ele>
      </trkpt>
      <trkpt lat="47.85901" lon="1.05349">
        <ele>129.0</ele>
      </trkpt>
      <trkpt lat="47.85856" lon="1.05213">
        <ele>123.0</ele>
      </trkpt>
      <trkpt lat="47.85765" lon="1.04591">
        <ele>131.0</ele>
      </trkpt>
      <trkpt lat="47.85696" lon="1.04283">
        <ele>135.0</ele>
      </trkpt>
      <trkpt lat="47.85472" lon="1.04439">
        <ele>137.0</ele>
      </trkpt>
      <trkpt lat="47.85167" lon="1.04604">
        <ele>132.0</ele>
      </trkpt>
      <trkpt lat="47.84954" lon="1.04808">
        <ele>125.0</ele>
      </trkpt>
      <trkpt lat="47.84738" lon="1.04955">
        <ele>126.0</ele>
      </trkpt>
      <trkpt lat="47.84576" lon="1.05043">
        <ele>126.0</ele>
      </trkpt>
      <trkpt lat="47.84294" lon="1.05241">
        <ele>123.0</ele>
      </trkpt>
      <trkpt lat="47.84244" lon="1.05353">
        <ele>122.0</ele>
      </trkpt>
      <trkpt lat="47.84202" lon="1.0541">
        <ele>122.0</ele>
      </trkpt>
      <trkpt lat="47.83989" lon="1.05613">
        <ele>119.0</ele>
      </trkpt>
      <trkpt lat="47.83874" lon="1.05696">
        <ele>120.0</ele>
      </trkpt>
      <trkpt lat="47.83832" lon="1.05747">
        <ele>120.0</ele>
      </trkpt>
      <trkpt lat="47.8372" lon="1.05806">
        <ele>121.0</ele>
      </trkpt>
      <trkpt lat="47.83464" lon="1.06075">
        <ele>125.0</ele>
      </trkpt>
      <trkpt lat="47.83356" lon="1.06317">
        <ele>125.0</ele>
      </trkpt>
      <trkpt lat="47.83329" lon="1.06352">
        <ele>126.0</ele>
      </trkpt>
      <trkpt lat="47.83082" lon="1.06348">
        <ele>126.0</ele>
      </trkpt>
      <trkpt lat="47.82953" lon="1.06435">
        <ele>125.0</ele>
      </trkpt>
      <trkpt lat="47.82824" lon="1.06553">
        <ele>123.0</ele>
      </trkpt>
      <trkpt lat="47.82728" lon="1.06604">
        <ele>122.0</ele>
      </trkpt>
      <trkpt lat="47.81533" lon="1.07011">
        <ele>120.0</ele>
      </trkpt>
      <trkpt lat="47.81527" lon="1.06981">
        <ele>119.0</ele>
      </trkpt>
      <trkpt lat="47.81533" lon="1.07011">
        <ele>119.0</ele>
      </trkpt>
      <trkpt lat="47.81363" lon="1.07127">
        <ele>112.0</ele>
      </trkpt>
      <trkpt lat="47.81085" lon="1.07202">
        <ele>101.0</ele>
      </trkpt>
      <trkpt lat="47.81047" lon="1.06913">
        <ele>91.0</ele>
      </trkpt>
      <trkpt lat="47.81077" lon="1.06646">
        <ele>89.0</ele>
      </trkpt>
      <trkpt lat="47.81012" lon="1.06698">
        <ele>89.0</ele>
      </trkpt>
      <trkpt lat="47.80958" lon="1.06766">
        <ele>88.0</ele>
      </trkpt>
      <trkpt lat="47.80821" lon="1.0687">
        <ele>88.0</ele>
      </trkpt>
      <trkpt lat="47.80676" lon="1.0694">
        <ele>86.0</ele>
      </trkpt>
      <trkpt lat="47.80664" lon="1.06927">
        <ele>85.0</ele>
      </trkpt>
      <trkpt lat="47.80663" lon="1.06948">
        <ele>84.0</ele>
      </trkpt>
      <trkpt lat="47.80639" lon="1.06968">
        <ele>84.0</ele>
      </trkpt>
      <trkpt lat="47.80395" lon="1.06998">
        <ele>82.0</ele>
      </trkpt>
      <trkpt lat="47.80302" lon="1.07051">
        <ele>82.0</ele>
      </trkpt>
      <trkpt lat="47.80065" lon="1.0695">
        <ele>82.0</ele>
      </trkpt>
      <trkpt lat="47.79747" lon="1.06845">
        <ele>82.0</ele>
      </trkpt>
      <trkpt lat="47.79469" lon="1.06783">
        <ele>82.0</ele>
      </trkpt>
      <trkpt lat="47.79508" lon="1.06513">
        <ele>81.0</ele>
      </trkpt>
      <trkpt lat="47.79512" lon="1.06384">
        <ele>80.0</ele>
      </trkpt>
      <trkpt lat="47.79329" lon="1.06518">
        <ele>81.0</ele>
      </trkpt>
      <trkpt lat="47.79159" lon="1.0645">
        <ele>81.0</ele>
      </trkpt>
      <trkpt lat="47.79044" lon="1.06367">
        <ele>84.0</ele>
      </trkpt>
      <trkpt lat="47.7898" lon="1.06376">
        <ele>86.0</ele>
      </trkpt>
      <trkpt lat="47.78838" lon="1.06348">
        <ele>92.0</ele>
      </trkpt>
      <trkpt lat="47.78683" lon="1.06384">
        <ele>99.0</ele>
      </trkpt>
      <trkpt lat="47.78673" lon="1.0637">
        <ele>101.0</ele>
      </trkpt>
      <trkpt lat="47.78671" lon="1.06388">
        <ele>101.0</ele>
      </trkpt>
      <trkpt lat="47.78646" lon="1.064">
        <ele>102.0</ele>
      </trkpt>
      <trkpt lat="47.78478" lon="1.06323">
        <ele>105.0</ele>
      </trkpt>
      <trkpt lat="47.78385" lon="1.06323">
        <ele>108.0</ele>
      </trkpt>
      <trkpt lat="47.78309" lon="1.06381">
        <ele>113.0</ele>
      </trkpt>
      <trkpt lat="47.78257" lon="1.06498">
        <ele>119.0</ele>
      </trkpt>
      <trkpt lat="47.78212" lon="1.07112">
        <ele>133.0</ele>
      </trkpt>
      <trkpt lat="47.78162" lon="1.07187">
        <ele>135.0</ele>
      </trkpt>
      <trkpt lat="47.78179" lon="1.07243">
        <ele>135.0</ele>
      </trkpt>
      <trkpt lat="47.78174" lon="1.07284">
        <ele>134.0</ele>
      </trkpt>
      <trkpt lat="47.77936" lon="1.07629">
        <ele>130.0</ele>
      </trkpt>
      <trkpt lat="47.77879" lon="1.07682">
        <ele>129.0</ele>
      </trkpt>
      <trkpt lat="47.7784" lon="1.07653">
        <ele>130.0</ele>
      </trkpt>
      <trkpt lat="47.77679" lon="1.07377">
        <ele>132.0</ele>
      </trkpt>
      <trkpt lat="47.77606" lon="1.07094">
        <ele>133.0</ele>
      </trkpt>
      <trkpt lat="47.77601" lon="1.07039">
        <ele>134.0</ele>
      </trkpt>
      <trkpt lat="47.77611" lon="1.06979">
        <ele>134.0</ele>
      </trkpt>
      <trkpt lat="47.77596" lon="1.06981">
        <ele>134.0</ele>
      </trkpt>
      <trkpt lat="47.7723" lon="1.07075">
        <ele>133.0</ele>
      </trkpt>
      <trkpt lat="47.77131" lon="1.07126">
        <ele>132.0</ele>
      </trkpt>
      <trkpt lat="47.76957" lon="1.07255">
        <ele>134.0</ele>
      </trkpt>
      <trkpt lat="47.76738" lon="1.07266">
        <ele>129.0</ele>
      </trkpt>
      <trkpt lat="47.76717" lon="1.07247">
        <ele>130.0</ele>
      </trkpt>
      <trkpt lat="47.76686" lon="1.07274">
        <ele>130.0</ele>
      </trkpt>
      <trkpt lat="47.76253" lon="1.07395">
        <ele>133.0</ele>
      </trkpt>
      <trkpt lat="47.76042" lon="1.07479">
        <ele>131.0</ele>
      </trkpt>
      <trkpt lat="47.75713" lon="1.07682">
        <ele>127.0</ele>
      </trkpt>
      <trkpt lat="47.75587" lon="1.07735">
        <ele>127.0</ele>
      </trkpt>
      <trkpt lat="47.75265" lon="1.07702">
        <ele>126.0</ele>
      </trkpt>
      <trkpt lat="47.74699" lon="1.07781">
        <ele>122.0</ele>
      </trkpt>
      <trkpt lat="47.74446" lon="1.07753">
        <ele>120.0</ele>
      </trkpt>
      <trkpt lat="47.74293" lon="1.07823">
        <ele>122.0</ele>
      </trkpt>
      <trkpt lat="47.74086" lon="1.07946">
        <ele>121.0</ele>
      </trkpt>
      <trkpt lat="47.73744" lon="1.08252">
        <ele>119.0</ele>
      </trkpt>
      <trkpt lat="47.73568" lon="1.0836">
        <ele>119.0</ele>
      </trkpt>
      <trkpt lat="47.73057" lon="1.08511">
        <ele>124.0</ele>
      </trkpt>
      <trkpt lat="47.72882" lon="1.08706">
        <ele>126.0</ele>
      </trkpt>
      <trkpt lat="47.72825" lon="1.08751">
        <ele>127.0</ele>
      </trkpt>
      <trkpt lat="47.72773" lon="1.08822">
        <ele>127.0</ele>
      </trkpt>
      <trkpt lat="47.72687" lon="1.08884">
        <ele>128.0</ele>
      </trkpt>
      <trkpt lat="47.72494" lon="1.0907">
        <ele>128.0</ele>
      </trkpt>
      <trkpt lat="47.72241" lon="1.09345">
        <ele>126.0</ele>
      </trkpt>
      <trkpt lat="47.72118" lon="1.09549">
        <ele>126.0</ele>
      </trkpt>
      <trkpt lat="47.71831" lon="1.10136">
        <ele>125.0</ele>
      </trkpt>
      <trkpt lat="47.71404" lon="1.10745">
        <ele>125.0</ele>
      </trkpt>
      <trkpt lat="47.71332" lon="1.10797">
        <ele>125.0</ele>
      </trkpt>
      <trkpt lat="47.70756" lon="1.11075">
        <ele>125.0</ele>
      </trkpt>
      <trkpt lat="47.70606" lon="1.11234">
        <ele>126.0</ele>
      </trkpt>
      <trkpt lat="47.70471" lon="1.1133">
        <ele>126.0</ele>
      </trkpt>
      <trkpt lat="47.70399" lon="1.11337">
        <ele>125.0</ele>
      </trkpt>
      <trkpt lat="47.70299" lon="1.11295">
        <ele>125.0</ele>
      </trkpt>
      <trkpt lat="47.70247" lon="1.11299">
        <ele>125.0</ele>
      </trkpt>
      <trkpt lat="47.70184" lon="1.11337">
        <ele>125.0</ele>
      </trkpt>
      <trkpt lat="47.70025" lon="1.11485">
        <ele>124.0</ele>
      </trkpt>
      <trkpt lat="47.69949" lon="1.11532">
        <ele>124.0</ele>
      </trkpt>
      <trkpt lat="47.69487" lon="1.11694">
        <ele>126.0</ele>
      </trkpt>
      <trkpt lat="47.69303" lon="1.11721">
        <ele>127.0</ele>
      </trkpt>
      <trkpt lat="47.68384" lon="1.1179">
        <ele>125.0</ele>
      </trkpt>
      <trkpt lat="47.68053" lon="1.11909">
        <ele>124.0</ele>
      </trkpt>
      <trkpt lat="47.67983" lon="1.11892">
        <ele>124.0</ele>
      </trkpt>
      <trkpt lat="47.67944" lon="1.1186">
        <ele>124.0</ele>
      </trkpt>
      <trkpt lat="47.67861" lon="1.1176">
        <ele>126.0</ele>
      </trkpt>
      <trkpt lat="47.67766" lon="1.11585">
        <ele>126.0</ele>
      </trkpt>
      <trkpt lat="47.67726" lon="1.11578">
        <ele>126.0</ele>
      </trkpt>
      <trkpt lat="47.67667" lon="1.11618">
        <ele>126.0</ele>
      </trkpt>
      <trkpt lat="47.67622" lon="1.11525">
        <ele>126.0</ele>
      </trkpt>
      <trkpt lat="47.67579" lon="1.11489">
        <ele>126.0</ele>
      </trkpt>
      <trkpt lat="47.6742" lon="1.11595">
        <ele>126.0</ele>
      </trkpt>
      <trkpt lat="47.67278" lon="1.11745">
        <ele>127.0</ele>
      </trkpt>
      <trkpt lat="47.67224" lon="1.11765">
        <ele>127.0</ele>
      </trkpt>
      <trkpt lat="47.66738" lon="1.11694">
        <ele>128.0</ele>
      </trkpt>
      <trkpt lat="47.66659" lon="1.11654">
        <ele>129.0</ele>
      </trkpt>
      <trkpt lat="47.66565" lon="1.11565">
        <ele>129.0</ele>
      </trkpt>
      <trkpt lat="47.66518" lon="1.11555">
        <ele>128.0</ele>
      </trkpt>
      <trkpt lat="47.65719" lon="1.11908">
        <ele>124.0</ele>
      </trkpt>
      <trkpt lat="47.65245" lon="1.12247">
        <ele>114.0</ele>
      </trkpt>
      <trkpt lat="47.652" lon="1.12251">
        <ele>113.0</ele>
      </trkpt>
      <trkpt lat="47.64963" lon="1.12174">
        <ele>112.0</ele>
      </trkpt>
      <trkpt lat="47.64927" lon="1.12176">
        <ele>114.0</ele>
      </trkpt>
      <trkpt lat="47.64833" lon="1.12274">
        <ele>116.0</ele>
      </trkpt>
      <trkpt lat="47.64649" lon="1.12399">
        <ele>118.0</ele>
      </trkpt>
      <trkpt lat="47.64283" lon="1.12558">
        <ele>115.0</ele>
      </trkpt>
      <trkpt lat="47.63795" lon="1.12897">
        <ele>118.0</ele>
      </trkpt>
      <trkpt lat="47.63237" lon="1.13038">
        <ele>115.0</ele>
      </trkpt>
      <trkpt lat="47.63029" lon="1.12943">
        <ele>115.0</ele>
      </trkpt>
      <trkpt lat="47.62896" lon="1.12928">
        <ele>115.0</ele>
      </trkpt>
      <trkpt lat="47.62845" lon="1.12943">
        <ele>115.0</ele>
      </trkpt>
      <trkpt lat="47.62761" lon="1.13019">
        <ele>115.0</ele>
      </trkpt>
      <trkpt lat="47.62716" lon="1.13037">
        <ele>115.0</ele>
      </trkpt>
      <trkpt lat="47.62393" lon="1.13084">
        <ele>112.0</ele>
      </trkpt>
      <trkpt lat="47.62336" lon="1.13072">
        <ele>113.0</ele>
      </trkpt>
      <trkpt lat="47.62098" lon="1.12845">
        <ele>114.0</ele>
      </trkpt>
      <trkpt lat="47.61854" lon="1.12454">
        <ele>114.0</ele>
      </trkpt>
      <trkpt lat="47.61815" lon="1.12497">
        <ele>114.0</ele>
      </trkpt>
      <trkpt lat="47.61784" lon="1.12559">
        <ele>114.0</ele>
      </trkpt>
      <trkpt lat="47.61595" lon="1.12739">
        <ele>116.0</ele>
      </trkpt>
      <trkpt lat="47.6149" lon="1.12808">
        <ele>115.0</ele>
      </trkpt>
      <trkpt lat="47.61357" lon="1.12992">
        <ele>115.0</ele>
      </trkpt>
      <trkpt lat="47.60644" lon="1.1372">
        <ele>128.0</ele>
      </trkpt>
      <trkpt lat="47.60443" lon="1.14022">
        <ele>137.0</ele>
      </trkpt>
      <trkpt lat="47.60246" lon="1.13744">
        <ele>142.0</ele>
      </trkpt>
      <trkpt lat="47.60098" lon="1.13646">
        <ele>142.0</ele>
      </trkpt>
      <trkpt lat="47.59093" lon="1.12886">
        <ele>127.0</ele>
      </trkpt>
      <trkpt lat="47.59028" lon="1.12892">
        <ele>126.0</ele>
      </trkpt>
      <trkpt lat="47.58643" lon="1.13014">
        <ele>122.0</ele>
      </trkpt>
      <trkpt lat="47.58447" lon="1.13142">
        <ele>123.0</ele>
      </trkpt>
      <trkpt lat="47.58371" lon="1.13137">
        <ele>123.0</ele>
      </trkpt>
      <trkpt lat="47.58328" lon="1.13102">
        <ele>123.0</ele>
      </trkpt>
      <trkpt lat="47.57884" lon="1.12588">
        <ele>120.0</ele>
      </trkpt>
      <trkpt lat="47.5744" lon="1.12374">
        <ele>119.0</ele>
      </trkpt>
      <trkpt lat="47.57136" lon="1.12247">
        <ele>121.0</ele>
      </trkpt>
      <trkpt lat="47.5673" lon="1.11793">
        <ele>118.0</ele>
      </trkpt>
      <trkpt lat="47.56639" lon="1.11623">
        <ele>113.0</ele>
      </trkpt>
      <trkpt lat="47.56629" lon="1.11509">
        <ele>110.0</ele>
      </trkpt>
      <trkpt lat="47.56476" lon="1.10768">
        <ele>113.0</ele>
      </trkpt>
      <trkpt lat="47.56153" lon="1.09843">
        <ele>119.0</ele>
      </trkpt>
      <trkpt lat="47.56121" lon="1.09724">
        <ele>119.0</ele>
      </trkpt>
      <trkpt lat="47.56117" lon="1.09558">
        <ele>119.0</ele>
      </trkpt>
      <trkpt lat="47.56273" lon="1.08045">
        <ele>120.0</ele>
      </trkpt>
      <trkpt lat="47.56072" lon="1.06624">
        <ele>118.0</ele>
      </trkpt>
      <trkpt lat="47.56017" lon="1.06501">
        <ele>118.0</ele>
      </trkpt>
      <trkpt lat="47.55693" lon="1.06047">
        <ele>117.0</ele>
      </trkpt>
      <trkpt lat="47.55646" lon="1.05945">
        <ele>117.0</ele>
      </trkpt>
      <trkpt lat="47.55553" lon="1.05666">
        <ele>114.0</ele>
      </trkpt>
      <trkpt lat="47.55526" lon="1.05495">
        <ele>112.0</ele>
      </trkpt>
      <trkpt lat="47.5555" lon="1.04942">
        <ele>118.0</ele>
      </trkpt>
      <trkpt lat="47.55542" lon="1.04869">
        <ele>118.0</ele>
      </trkpt>
      <trkpt lat="47.55516" lon="1.04785">
        <ele>118.0</ele>
      </trkpt>
      <trkpt lat="47.55463" lon="1.04725">
        <ele>117.0</ele>
      </trkpt>
      <trkpt lat="47.5532" lon="1.04673">
        <ele>117.0</ele>
      </trkpt>
      <trkpt lat="47.55248" lon="1.04629">
        <ele>118.0</ele>
      </trkpt>
      <trkpt lat="47.55114" lon="1.04513">
        <ele>120.0</ele>
      </trkpt>
      <trkpt lat="47.54987" lon="1.04369">
        <ele>122.0</ele>
      </trkpt>
      <trkpt lat="47.54352" lon="1.03295">
        <ele>108.0</ele>
      </trkpt>
      <trkpt lat="47.5429" lon="1.03226">
        <ele>108.0</ele>
      </trkpt>
      <trkpt lat="47.54198" lon="1.03166">
        <ele>109.0</ele>
      </trkpt>
      <trkpt lat="47.54148" lon="1.03147">
        <ele>111.0</ele>
      </trkpt>
      <trkpt lat="47.54066" lon="1.032">
        <ele>114.0</ele>
      </trkpt>
      <trkpt lat="47.5395" lon="1.03205">
        <ele>114.0</ele>
      </trkpt>
      <trkpt lat="47.53906" lon="1.03277">
        <ele>114.0</ele>
      </trkpt>
      <trkpt lat="47.53765" lon="1.03301">
        <ele>111.0</ele>
      </trkpt>
      <trkpt lat="47.53729" lon="1.03323">
        <ele>111.0</ele>
      </trkpt>
      <trkpt lat="47.53554" lon="1.035">
        <ele>108.0</ele>
      </trkpt>
      <trkpt lat="47.53251" lon="1.03918">
        <ele>97.0</ele>
      </trkpt>
      <trkpt lat="47.5289" lon="1.04201">
        <ele>96.0</ele>
      </trkpt>
      <trkpt lat="47.52231" lon="1.04538">
        <ele>105.0</ele>
      </trkpt>
      <trkpt lat="47.51973" lon="1.04883">
        <ele>106.0</ele>
      </trkpt>
      <trkpt lat="47.51735" lon="1.05071">
        <ele>101.0</ele>
      </trkpt>
      <trkpt lat="47.51642" lon="1.0512">
        <ele>99.0</ele>
      </trkpt>
      <trkpt lat="47.51333" lon="1.05217">
        <ele>97.0</ele>
      </trkpt>
      <trkpt lat="47.50696" lon="1.05844">
        <ele>101.0</ele>
      </trkpt>
      <trkpt lat="47.50568" lon="1.05996">
        <ele>100.0</ele>
      </trkpt>
      <trkpt lat="47.5054" lon="1.06011">
        <ele>98.0</ele>
      </trkpt>
      <trkpt lat="47.50469" lon="1.06033">
        <ele>95.0</ele>
      </trkpt>
      <trkpt lat="47.50311" lon="1.05999">
        <ele>94.0</ele>
      </trkpt>
      <trkpt lat="47.50131" lon="1.05919">
        <ele>94.0</ele>
      </trkpt>
      <trkpt lat="47.49902" lon="1.05766">
        <ele>96.0</ele>
      </trkpt>
      <trkpt lat="47.49529" lon="1.05645">
        <ele>97.0</ele>
      </trkpt>
      <trkpt lat="47.49463" lon="1.05639">
        <ele>98.0</ele>
      </trkpt>
      <trkpt lat="47.49081" lon="1.0566">
        <ele>104.0</ele>
      </trkpt>
      <trkpt lat="47.48957" lon="1.05719">
        <ele>110.0</ele>
      </trkpt>
      <trkpt lat="47.48575" lon="1.05837">
        <ele>103.0</ele>
      </trkpt>
      <trkpt lat="47.48433" lon="1.05899">
        <ele>101.0</ele>
      </trkpt>
      <trkpt lat="47.48058" lon="1.05876">
        <ele>108.0</ele>
      </trkpt>
      <trkpt lat="47.47879" lon="1.0583">
        <ele>106.0</ele>
      </trkpt>
      <trkpt lat="47.47533" lon="1.05865">
        <ele>104.0</ele>
      </trkpt>
      <trkpt lat="47.47341" lon="1.0581">
        <ele>102.0</ele>
      </trkpt>
      <trkpt lat="47.47273" lon="1.05865">
        <ele>98.0</ele>
      </trkpt>
      <trkpt lat="47.47177" lon="1.06023">
        <ele>90.0</ele>
      </trkpt>
      <trkpt lat="47.47101" lon="1.06097">
        <ele>88.0</ele>
      </trkpt>
      <trkpt lat="47.47079" lon="1.06093">
        <ele>88.0</ele>
      </trkpt>
      <trkpt lat="47.46997" lon="1.05963">
        <ele>80.0</ele>
      </trkpt>
      <trkpt lat="47.46926" lon="1.05906">
        <ele>73.0</ele>
      </trkpt>
      <trkpt lat="47.46734" lon="1.06028">
        <ele>67.0</ele>
      </trkpt>
      <trkpt lat="47.46709" lon="1.05962">
        <ele>70.0</ele>
      </trkpt>
      <trkpt lat="47.46719" lon="1.05788">
        <ele>77.0</ele>
      </trkpt>
      <trkpt lat="47.46681" lon="1.05607">
        <ele>82.0</ele>
      </trkpt>
      <trkpt lat="47.46708" lon="1.05503">
        <ele>85.0</ele>
      </trkpt>
      <trkpt lat="47.46699" lon="1.05368">
        <ele>87.0</ele>
      </trkpt>
      <trkpt lat="47.46924" lon="1.05067">
        <ele>95.0</ele>
      </trkpt>
      <trkpt lat="47.47014" lon="1.04968">
        <ele>101.0</ele>
      </trkpt>
      <trkpt lat="47.47109" lon="1.04779">
        <ele>104.0</ele>
      </trkpt>
      <trkpt lat="47.47115" lon="1.04692">
        <ele>105.0</ele>
      </trkpt>
      <trkpt lat="47.47105" lon="1.04589">
        <ele>106.0</ele>
      </trkpt>
      <trkpt lat="47.47018" lon="1.04246">
        <ele>110.0</ele>
      </trkpt>
      <trkpt lat="47.47022" lon="1.042">
        <ele>111.0</ele>
      </trkpt>
      <trkpt lat="47.47068" lon="1.04121">
        <ele>111.0</ele>
      </trkpt>
      <trkpt lat="47.47089" lon="1.04051">
        <ele>111.0</ele>
      </trkpt>
      <trkpt lat="47.47001" lon="1.04027">
        <ele>111.0</ele>
      </trkpt>
      <trkpt lat="47.46911" lon="1.03972">
        <ele>111.0</ele>
      </trkpt>
      <trkpt lat="47.46632" lon="1.03961">
        <ele>104.0</ele>
      </trkpt>
      <trkpt lat="47.46568" lon="1.03844">
        <ele>100.0</ele>
      </trkpt>
      <trkpt lat="47.46425" lon="1.03758">
        <ele>96.0</ele>
      </trkpt>
      <trkpt lat="47.46299" lon="1.03646">
        <ele>89.0</ele>
      </trkpt>
      <trkpt lat="47.46196" lon="1.0372">
        <ele>87.0</ele>
      </trkpt>
      <trkpt lat="47.4608" lon="1.036">
        <ele>89.0</ele>
      </trkpt>
      <trkpt lat="47.46089" lon="1.03127">
        <ele>101.0</ele>
      </trkpt>
      <trkpt lat="47.45977" lon="1.02738">
        <ele>104.0</ele>
      </trkpt>
      <trkpt lat="47.45865" lon="1.02485">
        <ele>111.0</ele>
      </trkpt>
      <trkpt lat="47.4626" lon="1.02179">
        <ele>111.0</ele>
      </trkpt>
      <trkpt lat="47.46558" lon="1.0197">
        <ele>111.0</ele>
      </trkpt>
      <trkpt lat="47.46528" lon="1.01909">
        <ele>112.0</ele>
      </trkpt>
      <trkpt lat="47.46371" lon="1.01726">
        <ele>113.0</ele>
      </trkpt>
      <trkpt lat="47.46298" lon="1.01558">
        <ele>112.0</ele>
      </trkpt>
      <trkpt lat="47.46205" lon="1.01264">
        <ele>112.0</ele>
      </trkpt>
      <trkpt lat="47.46177" lon="1.01246">
        <ele>112.0</ele>
      </trkpt>
      <trkpt lat="47.46087" lon="1.01265">
        <ele>112.0</ele>
      </trkpt>
      <trkpt lat="47.46071" lon="1.01249">
        <ele>112.0</ele>
      </trkpt>
      <trkpt lat="47.46081" lon="1.01232">
        <ele>112.0</ele>
      </trkpt>
      <trkpt lat="47.45764" lon="1.01193">
        <ele>106.0</ele>
      </trkpt>
      <trkpt lat="47.45635" lon="1.0116">
        <ele>101.0</ele>
      </trkpt>
      <trkpt lat="47.4542" lon="1.01003">
        <ele>99.0</ele>
      </trkpt>
      <trkpt lat="47.45348" lon="1.00973">
        <ele>99.0</ele>
      </trkpt>
      <trkpt lat="47.45204" lon="1.00956">
        <ele>94.0</ele>
      </trkpt>
      <trkpt lat="47.45001" lon="1.00809">
        <ele>85.0</ele>
      </trkpt>
      <trkpt lat="47.44915" lon="1.0077">
        <ele>82.0</ele>
      </trkpt>
      <trkpt lat="47.44799" lon="1.00759">
        <ele>73.0</ele>
      </trkpt>
      <trkpt lat="47.44588" lon="1.00802">
        <ele>61.0</ele>
      </trkpt>
      <trkpt lat="47.44519" lon="1.00797">
        <ele>58.0</ele>
      </trkpt>
      <trkpt lat="47.44508" lon="1.00775">
        <ele>57.0</ele>
      </trkpt>
      <trkpt lat="47.44491" lon="1.00562">
        <ele>55.0</ele>
      </trkpt>
      <trkpt lat="47.44434" lon="1.00165">
        <ele>61.0</ele>
      </trkpt>
      <trkpt lat="47.44292" lon="0.99457">
        <ele>57.0</ele>
      </trkpt>
      <trkpt lat="47.44154" lon="0.99685">
        <ele>57.0</ele>
      </trkpt>
      <trkpt lat="47.44008" lon="0.99845">
        <ele>55.0</ele>
      </trkpt>
      <trkpt lat="47.43771" lon="1.0002">
        <ele>54.0</ele>
      </trkpt>
      <trkpt lat="47.43545" lon="1.00156">
        <ele>54.0</ele>
      </trkpt>
      <trkpt lat="47.43466" lon="0.99888">
        <ele>56.0</ele>
      </trkpt>
      <trkpt lat="47.4337" lon="0.99374">
        <ele>55.0</ele>
      </trkpt>
      <trkpt lat="47.43212" lon="0.98961">
        <ele>53.0</ele>
      </trkpt>
      <trkpt lat="47.43017" lon="0.98703">
        <ele>54.0</ele>
      </trkpt>
      <trkpt lat="47.42935" lon="0.9862">
        <ele>54.0</ele>
      </trkpt>
      <trkpt lat="47.42856" lon="0.98685">
        <ele>55.0</ele>
      </trkpt>
      <trkpt lat="47.42763" lon="0.98795">
        <ele>55.0</ele>
      </trkpt>
      <trkpt lat="47.42734" lon="0.98796">
        <ele>56.0</ele>
      </trkpt>
      <trkpt lat="47.42697" lon="0.98758">
        <ele>56.0</ele>
      </trkpt>
      <trkpt lat="47.42637" lon="0.98572">
        <ele>56.0</ele>
      </trkpt>
      <trkpt lat="47.42506" lon="0.98324">
        <ele>56.0</ele>
      </trkpt>
      <trkpt lat="47.42496" lon="0.98282">
        <ele>56.0</ele>
      </trkpt>
      <trkpt lat="47.42442" lon="0.98344">
        <ele>56.0</ele>
      </trkpt>
      <trkpt lat="47.42342" lon="0.98403">
        <ele>56.0</ele>
      </trkpt>
      <trkpt lat="47.42173" lon="0.98467">
        <ele>56.0</ele>
      </trkpt>
      <trkpt lat="47.41843" lon="0.98248">
        <ele>60.0</ele>
      </trkpt>
      <trkpt lat="47.41772" lon="0.98152">
        <ele>60.0</ele>
      </trkpt>
      <trkpt lat="47.4165" lon="0.97713">
        <ele>58.0</ele>
      </trkpt>
      <trkpt lat="47.41534" lon="0.97361">
        <ele>56.0</ele>
      </trkpt>
      <trkpt lat="47.41467" lon="0.97009">
        <ele>55.0</ele>
      </trkpt>
      <trkpt lat="47.41354" lon="0.96632">
        <ele>55.0</ele>
      </trkpt>
      <trkpt lat="47.41302" lon="0.96363">
        <ele>56.0</ele>
      </trkpt>
      <trkpt lat="47.41625" lon="0.96235">
        <ele>53.0</ele>
      </trkpt>
      <trkpt lat="47.42122" lon="0.96008">
        <ele>53.0</ele>
      </trkpt>
      <trkpt lat="47.42456" lon="0.95898">
        <ele>53.0</ele>
      </trkpt>
      <trkpt lat="47.42571" lon="0.95895">
        <ele>53.0</ele>
      </trkpt>
      <trkpt lat="47.42749" lon="0.95932">
        <ele>53.0</ele>
      </trkpt>
      <trkpt lat="47.42772" lon="0.95951">
        <ele>53.0</ele>
      </trkpt>
      <trkpt lat="47.42811" lon="0.95864">
        <ele>53.0</ele>
      </trkpt>
      <trkpt lat="47.43121" lon="0.954">
        <ele>56.0</ele>
      </trkpt>
      <trkpt lat="47.43216" lon="0.95336">
        <ele>58.0</ele>
      </trkpt>
      <trkpt lat="47.43132" lon="0.95106">
        <ele>57.0</ele>
      </trkpt>
      <trkpt lat="47.43068" lon="0.94798">
        <ele>57.0</ele>
      </trkpt>
      <trkpt lat="47.42948" lon="0.94351">
        <ele>59.0</ele>
      </trkpt>
      <trkpt lat="47.4292" lon="0.94105">
        <ele>59.0</ele>
      </trkpt>
      <trkpt lat="47.42892" lon="0.93985">
        <ele>60.0</ele>
      </trkpt>
      <trkpt lat="47.42875" lon="0.93946">
        <ele>59.0</ele>
      </trkpt>
      <trkpt lat="47.42777" lon="0.93854">
        <ele>54.0</ele>
      </trkpt>
      <trkpt lat="47.42738" lon="0.93782">
        <ele>52.0</ele>
      </trkpt>
      <trkpt lat="47.42603" lon="0.93272">
        <ele>55.0</ele>
      </trkpt>
      <trkpt lat="47.42544" lon="0.92805">
        <ele>53.0</ele>
      </trkpt>
      <trkpt lat="47.42459" lon="0.92367">
        <ele>51.0</ele>
      </trkpt>
      <trkpt lat="47.42448" lon="0.92081">
        <ele>52.0</ele>
      </trkpt>
      <trkpt lat="47.42424" lon="0.91832">
        <ele>52.0</ele>
      </trkpt>
      <trkpt lat="47.42448" lon="0.91508">
        <ele>54.0</ele>
      </trkpt>
      <trkpt lat="47.42389" lon="0.91196">
        <ele>54.0</ele>
      </trkpt>
      <trkpt lat="47.42575" lon="0.91136">
        <ele>64.0</ele>
      </trkpt>
      <trkpt lat="47.4259" lon="0.91111">
        <ele>67.0</ele>
      </trkpt>
      <trkpt lat="47.4265" lon="0.91162">
        <ele>71.0</ele>
      </trkpt>
      <trkpt lat="47.42783" lon="0.91128">
        <ele>82.0</ele>
      </trkpt>
      <trkpt lat="47.42942" lon="0.91145">
        <ele>93.0</ele>
      </trkpt>
      <trkpt lat="47.43052" lon="0.91135">
        <ele>103.0</ele>
      </trkpt>
      <trkpt lat="47.43185" lon="0.91018">
        <ele>107.0</ele>
      </trkpt>
      <trkpt lat="47.43332" lon="0.90958">
        <ele>108.0</ele>
      </trkpt>
      <trkpt lat="47.43545" lon="0.90803">
        <ele>110.0</ele>
      </trkpt>
      <trkpt lat="47.43499" lon="0.90724">
        <ele>110.0</ele>
      </trkpt>
      <trkpt lat="47.43486" lon="0.90565">
        <ele>105.0</ele>
      </trkpt>
      <trkpt lat="47.43461" lon="0.9046">
        <ele>103.0</ele>
      </trkpt>
      <trkpt lat="47.43533" lon="0.90463">
        <ele>104.0</ele>
      </trkpt>
      <trkpt lat="47.43609" lon="0.90426">
        <ele>106.0</ele>
      </trkpt>
      <trkpt lat="47.43647" lon="0.90485">
        <ele>106.0</ele>
      </trkpt>
      <trkpt lat="47.4377" lon="0.90471">
        <ele>106.0</ele>
      </trkpt>
      <trkpt lat="47.43887" lon="0.90446">
        <ele>107.0</ele>
      </trkpt>
      <trkpt lat="47.43985" lon="0.90392">
        <ele>108.0</ele>
      </trkpt>
      <trkpt lat="47.4401" lon="0.90349">
        <ele>108.0</ele>
      </trkpt>
      <trkpt lat="47.43996" lon="0.90246">
        <ele>108.0</ele>
      </trkpt>
      <trkpt lat="47.4389" lon="0.8978">
        <ele>108.0</ele>
      </trkpt>
      <trkpt lat="47.44273" lon="0.89445">
        <ele>108.0</ele>
      </trkpt>
      <trkpt lat="47.4441" lon="0.89212">
        <ele>104.0</ele>
      </trkpt>
      <trkpt lat="47.44671" lon="0.88997">
        <ele>87.0</ele>
      </trkpt>
      <trkpt lat="47.44872" lon="0.88783">
        <ele>72.0</ele>
      </trkpt>
      <trkpt lat="47.44923" lon="0.88908">
        <ele>71.0</ele>
      </trkpt>
      <trkpt lat="47.44939" lon="0.88843">
        <ele>70.0</ele>
      </trkpt>
      <trkpt lat="47.45287" lon="0.88222">
        <ele>63.0</ele>
      </trkpt>
      <trkpt lat="47.453" lon="0.88173">
        <ele>61.0</ele>
      </trkpt>
      <trkpt lat="47.45342" lon="0.88177">
        <ele>60.0</ele>
      </trkpt>
      <trkpt lat="47.45401" lon="0.88253">
        <ele>61.0</ele>
      </trkpt>
      <trkpt lat="47.4539" lon="0.88341">
        <ele>62.0</ele>
      </trkpt>
      <trkpt lat="47.45734" lon="0.88643">
        <ele>64.0</ele>
      </trkpt>
      <trkpt lat="47.45794" lon="0.88474">
        <ele>65.0</ele>
      </trkpt>
      <trkpt lat="47.45924" lon="0.88521">
        <ele>64.0</ele>
      </trkpt>
      <trkpt lat="47.46089" lon="0.88608">
        <ele>65.0</ele>
      </trkpt>
      <trkpt lat="47.46149" lon="0.88447">
        <ele>63.0</ele>
      </trkpt>
      <trkpt lat="47.46078" lon="0.88314">
        <ele>61.0</ele>
      </trkpt>
      <trkpt lat="47.46069" lon="0.88252">
        <ele>60.0</ele>
      </trkpt>
      <trkpt lat="47.46114" lon="0.88144">
        <ele>60.0</ele>
      </trkpt>
      <trkpt lat="47.46183" lon="0.87885">
        <ele>64.0</ele>
      </trkpt>
      <trkpt lat="47.46199" lon="0.87784">
        <ele>67.0</ele>
      </trkpt>
      <trkpt lat="47.46193" lon="0.87567">
        <ele>77.0</ele>
      </trkpt>
      <trkpt lat="47.46272" lon="0.87443">
        <ele>84.0</ele>
      </trkpt>
      <trkpt lat="47.46376" lon="0.87343">
        <ele>85.0</ele>
      </trkpt>
      <trkpt lat="47.46419" lon="0.87259">
        <ele>86.0</ele>
      </trkpt>
      <trkpt lat="47.46398" lon="0.87081">
        <ele>93.0</ele>
      </trkpt>
      <trkpt lat="47.46341" lon="0.86992">
        <ele>98.0</ele>
      </trkpt>
      <trkpt lat="47.46412" lon="0.86893">
        <ele>101.0</ele>
      </trkpt>
      <trkpt lat="47.46441" lon="0.86811">
        <ele>103.0</ele>
      </trkpt>
      <trkpt lat="47.46497" lon="0.86721">
        <ele>104.0</ele>
      </trkpt>
      <trkpt lat="47.46539" lon="0.86679">
        <ele>104.0</ele>
      </trkpt>
      <trkpt lat="47.46641" lon="0.86649">
        <ele>105.0</ele>
      </trkpt>
      <trkpt lat="47.46712" lon="0.86592">
        <ele>106.0</ele>
      </trkpt>
      <trkpt lat="47.4674" lon="0.86513">
        <ele>108.0</ele>
      </trkpt>
      <trkpt lat="47.46754" lon="0.86413">
        <ele>109.0</ele>
      </trkpt>
      <trkpt lat="47.46785" lon="0.86331">
        <ele>110.0</ele>
      </trkpt>
      <trkpt lat="47.46663" lon="0.85648">
        <ele>110.0</ele>
      </trkpt>
      <trkpt lat="47.46942" lon="0.85548">
        <ele>110.0</ele>
      </trkpt>
      <trkpt lat="47.47003" lon="0.85502">
        <ele>110.0</ele>
      </trkpt>
      <trkpt lat="47.46797" lon="0.85086">
        <ele>114.0</ele>
      </trkpt>
      <trkpt lat="47.46639" lon="0.84973">
        <ele>112.0</ele>
      </trkpt>
      <trkpt lat="47.46551" lon="0.84966">
        <ele>110.0</ele>
      </trkpt>
      <trkpt lat="47.46488" lon="0.84918">
        <ele>111.0</ele>
      </trkpt>
      <trkpt lat="47.4631" lon="0.84675">
        <ele>112.0</ele>
      </trkpt>
      <trkpt lat="47.46253" lon="0.84547">
        <ele>112.0</ele>
      </trkpt>
      <trkpt lat="47.46132" lon="0.84377">
        <ele>111.0</ele>
      </trkpt>
      <trkpt lat="47.45815" lon="0.84114">
        <ele>92.0</ele>
      </trkpt>
      <trkpt lat="47.45702" lon="0.84038">
        <ele>86.0</ele>
      </trkpt>
      <trkpt lat="47.45638" lon="0.83965">
        <ele>82.0</ele>
      </trkpt>
      <trkpt lat="47.4554" lon="0.83978">
        <ele>84.0</ele>
      </trkpt>
      <trkpt lat="47.45482" lon="0.84063">
        <ele>86.0</ele>
      </trkpt>
      <trkpt lat="47.4542" lon="0.84102">
        <ele>84.0</ele>
      </trkpt>
      <trkpt lat="47.45319" lon="0.84113">
        <ele>81.0</ele>
      </trkpt>
      <trkpt lat="47.45038" lon="0.84199">
        <ele>83.0</ele>
      </trkpt>
      <trkpt lat="47.44908" lon="0.84196">
        <ele>76.0</ele>
      </trkpt>
      <trkpt lat="47.44809" lon="0.84234">
        <ele>73.0</ele>
      </trkpt>
      <trkpt lat="47.447" lon="0.84204">
        <ele>71.0</ele>
      </trkpt>
      <trkpt lat="47.4469" lon="0.8424">
        <ele>72.0</ele>
      </trkpt>
      <trkpt lat="47.44632" lon="0.84304">
        <ele>74.0</ele>
      </trkpt>
      <trkpt lat="47.4449" lon="0.844">
        <ele>80.0</ele>
      </trkpt>
      <trkpt lat="47.44422" lon="0.84418">
        <ele>84.0</ele>
      </trkpt>
      <trkpt lat="47.44142" lon="0.84435">
        <ele>99.0</ele>
      </trkpt>
      <trkpt lat="47.43958" lon="0.84528">
        <ele>101.0</ele>
      </trkpt>
      <trkpt lat="47.43818" lon="0.84542">
        <ele>98.0</ele>
      </trkpt>
      <trkpt lat="47.43658" lon="0.84615">
        <ele>88.0</ele>
      </trkpt>
      <trkpt lat="47.436" lon="0.84695">
        <ele>81.0</ele>
      </trkpt>
      <trkpt lat="47.43566" lon="0.84718">
        <ele>76.0</ele>
      </trkpt>
      <trkpt lat="47.43513" lon="0.84714">
        <ele>71.0</ele>
      </trkpt>
      <trkpt lat="47.43351" lon="0.84656">
        <ele>66.0</ele>
      </trkpt>
      <trkpt lat="47.43206" lon="0.84665">
        <ele>62.0</ele>
      </trkpt>
      <trkpt lat="47.43075" lon="0.84735">
        <ele>58.0</ele>
      </trkpt>
      <trkpt lat="47.42844" lon="0.84595">
        <ele>54.0</ele>
      </trkpt>
      <trkpt lat="47.4272" lon="0.84778">
        <ele>53.0</ele>
      </trkpt>
      <trkpt lat="47.42632" lon="0.84744">
        <ele>52.0</ele>
      </trkpt>
      <trkpt lat="47.42588" lon="0.84763">
        <ele>52.0</ele>
      </trkpt>
      <trkpt lat="47.42441" lon="0.84877">
        <ele>54.0</ele>
      </trkpt>
      <trkpt lat="47.425" lon="0.85027">
        <ele>56.0</ele>
      </trkpt>
      <trkpt lat="47.42722" lon="0.85334">
        <ele>60.0</ele>
      </trkpt>
      <trkpt lat="47.42869" lon="0.85616">
        <ele>64.0</ele>
      </trkpt>
      <trkpt lat="47.42973" lon="0.85767">
        <ele>66.0</ele>
      </trkpt>
      <trkpt lat="47.43045" lon="0.85931">
        <ele>63.0</ele>
      </trkpt>
      <trkpt lat="47.43157" lon="0.86062">
        <ele>60.0</ele>
      </trkpt>
      <trkpt lat="47.43297" lon="0.86369">
        <ele>62.0</ele>
      </trkpt>
      <trkpt lat="47.43444" lon="0.86557">
        <ele>63.0</ele>
      </trkpt>
      <trkpt lat="47.43684" lon="0.86701">
        <ele>58.0</ele>
      </trkpt>
      <trkpt lat="47.43727" lon="0.86758">
        <ele>59.0</ele>
      </trkpt>
      <trkpt lat="47.4376" lon="0.86832">
        <ele>60.0</ele>
      </trkpt>
      <trkpt lat="47.43668" lon="0.86963">
        <ele>65.0</ele>
      </trkpt>
      <trkpt lat="47.4349" lon="0.87157">
        <ele>73.0</ele>
      </trkpt>
      <trkpt lat="47.43356" lon="0.87213">
        <ele>82.0</ele>
      </trkpt>
      <trkpt lat="47.4323" lon="0.87553">
        <ele>95.0</ele>
      </trkpt>
      <trkpt lat="47.42967" lon="0.8778">
        <ele>104.0</ele>
      </trkpt>
      <trkpt lat="47.43009" lon="0.87899">
        <ele>104.0</ele>
      </trkpt>
      <trkpt lat="47.42983" lon="0.88047">
        <ele>104.0</ele>
      </trkpt>
      <trkpt lat="47.43049" lon="0.88206">
        <ele>105.0</ele>
      </trkpt>
      <trkpt lat="47.43058" lon="0.88373">
        <ele>106.0</ele>
      </trkpt>
      <trkpt lat="47.43116" lon="0.88593">
        <ele>104.0</ele>
      </trkpt>
      <trkpt lat="47.43078" lon="0.88715">
        <ele>104.0</ele>
      </trkpt>
      <trkpt lat="47.42956" lon="0.88909">
        <ele>103.0</ele>
      </trkpt>
      <trkpt lat="47.42937" lon="0.88911">
        <ele>103.0</ele>
      </trkpt>
      <trkpt lat="47.42903" lon="0.88801">
        <ele>103.0</ele>
      </trkpt>
      <trkpt lat="47.4287" lon="0.88752">
        <ele>102.0</ele>
      </trkpt>
      <trkpt lat="47.42817" lon="0.88707">
        <ele>101.0</ele>
      </trkpt>
      <trkpt lat="47.42745" lon="0.88681">
        <ele>99.0</ele>
      </trkpt>
      <trkpt lat="47.4245" lon="0.88889">
        <ele>82.0</ele>
      </trkpt>
      <trkpt lat="47.42384" lon="0.88998">
        <ele>77.0</ele>
      </trkpt>
      <trkpt lat="47.4219" lon="0.89125">
        <ele>69.0</ele>
      </trkpt>
      <trkpt lat="47.42148" lon="0.8917">
        <ele>64.0</ele>
      </trkpt>
      <trkpt lat="47.42035" lon="0.89214">
        <ele>55.0</ele>
      </trkpt>
      <trkpt lat="47.41978" lon="0.89207">
        <ele>54.0</ele>
      </trkpt>
      <trkpt lat="47.41712" lon="0.89341">
        <ele>53.0</ele>
      </trkpt>
      <trkpt lat="47.41516" lon="0.89413">
        <ele>51.0</ele>
      </trkpt>
      <trkpt lat="47.41416" lon="0.88486">
        <ele>50.0</ele>
      </trkpt>
      <trkpt lat="47.41414" lon="0.88349">
        <ele>50.0</ele>
      </trkpt>
      <trkpt lat="47.41444" lon="0.88238">
        <ele>50.0</ele>
      </trkpt>
      <trkpt lat="47.41448" lon="0.87873">
        <ele>50.0</ele>
      </trkpt>
      <trkpt lat="47.41438" lon="0.87684">
        <ele>50.0</ele>
      </trkpt>
      <trkpt lat="47.41601" lon="0.8768">
        <ele>50.0</ele>
      </trkpt>
      <trkpt lat="47.41641" lon="0.87664">
        <ele>51.0</ele>
      </trkpt>
      <trkpt lat="47.41811" lon="0.8742">
        <ele>52.0</ele>
      </trkpt>
      <trkpt lat="47.41796" lon="0.87335">
        <ele>54.0</ele>
      </trkpt>
      <trkpt lat="47.41835" lon="0.87311">
        <ele>57.0</ele>
      </trkpt>
      <trkpt lat="47.4187" lon="0.8736">
        <ele>61.0</ele>
      </trkpt>
      <trkpt lat="47.41921" lon="0.87391">
        <ele>71.0</ele>
      </trkpt>
      <trkpt lat="47.4199" lon="0.87407">
        <ele>82.0</ele>
      </trkpt>
      <trkpt lat="47.42051" lon="0.87395">
        <ele>89.0</ele>
      </trkpt>
      <trkpt lat="47.42138" lon="0.87407">
        <ele>93.0</ele>
      </trkpt>
      <trkpt lat="47.42145" lon="0.8705">
        <ele>98.0</ele>
      </trkpt>
      <trkpt lat="47.42082" lon="0.86547">
        <ele>99.0</ele>
      </trkpt>
      <trkpt lat="47.42028" lon="0.86323">
        <ele>98.0</ele>
      </trkpt>
      <trkpt lat="47.42038" lon="0.86202">
        <ele>96.0</ele>
      </trkpt>
      <trkpt lat="47.42066" lon="0.86098">
        <ele>93.0</ele>
      </trkpt>
      <trkpt lat="47.42021" lon="0.85855">
        <ele>83.0</ele>
      </trkpt>
      <trkpt lat="47.42035" lon="0.85643">
        <ele>78.0</ele>
      </trkpt>
      <trkpt lat="47.42036" lon="0.85523">
        <ele>75.0</ele>
      </trkpt>
      <trkpt lat="47.42025" lon="0.85455">
        <ele>73.0</ele>
      </trkpt>
      <trkpt lat="47.42004" lon="0.85396">
        <ele>72.0</ele>
      </trkpt>
      <trkpt lat="47.41864" lon="0.8521">
        <ele>70.0</ele>
      </trkpt>
      <trkpt lat="47.41764" lon="0.84981">
        <ele>63.0</ele>
      </trkpt>
      <trkpt lat="47.41751" lon="0.84735">
        <ele>58.0</ele>
      </trkpt>
      <trkpt lat="47.41798" lon="0.84637">
        <ele>55.0</ele>
      </trkpt>
      <trkpt lat="47.41838" lon="0.84599">
        <ele>54.0</ele>
      </trkpt>
      <trkpt lat="47.41709" lon="0.84227">
        <ele>53.0</ele>
      </trkpt>
      <trkpt lat="47.41461" lon="0.84337">
        <ele>55.0</ele>
      </trkpt>
      <trkpt lat="47.41408" lon="0.8434">
        <ele>54.0</ele>
      </trkpt>
      <trkpt lat="47.41369" lon="0.84318">
        <ele>54.0</ele>
      </trkpt>
      <trkpt lat="47.41243" lon="0.83953">
        <ele>52.0</ele>
      </trkpt>
      <trkpt lat="47.41192" lon="0.837">
        <ele>51.0</ele>
      </trkpt>
      <trkpt lat="47.41142" lon="0.83527">
        <ele>51.0</ele>
      </trkpt>
      <trkpt lat="47.41138" lon="0.83405">
        <ele>51.0</ele>
      </trkpt>
      <trkpt lat="47.41189" lon="0.83046">
        <ele>51.0</ele>
      </trkpt>
      <trkpt lat="47.41206" lon="0.82781">
        <ele>52.0</ele>
      </trkpt>
      <trkpt lat="47.4121" lon="0.82565">
        <ele>50.0</ele>
      </trkpt>
      <trkpt lat="47.41192" lon="0.8232">
        <ele>51.0</ele>
      </trkpt>
      <trkpt lat="47.4121" lon="0.823">
        <ele>52.0</ele>
      </trkpt>
      <trkpt lat="47.41338" lon="0.82266">
        <ele>58.0</ele>
      </trkpt>
      <trkpt lat="47.41383" lon="0.82227">
        <ele>61.0</ele>
      </trkpt>
      <trkpt lat="47.41418" lon="0.82221">
        <ele>64.0</ele>
      </trkpt>
      <trkpt lat="47.41472" lon="0.82248">
        <ele>71.0</ele>
      </trkpt>
      <trkpt lat="47.41617" lon="0.82462">
        <ele>87.0</ele>
      </trkpt>
      <trkpt lat="47.41619" lon="0.82497">
        <ele>88.0</ele>
      </trkpt>
      <trkpt lat="47.41583" lon="0.82516">
        <ele>91.0</ele>
      </trkpt>
      <trkpt lat="47.41573" lon="0.82671">
        <ele>92.0</ele>
      </trkpt>
      <trkpt lat="47.41575" lon="0.82749">
        <ele>92.0</ele>
      </trkpt>
      <trkpt lat="47.41604" lon="0.82833">
        <ele>93.0</ele>
      </trkpt>
      <trkpt lat="47.41614" lon="0.82816">
        <ele>93.0</ele>
      </trkpt>
      <trkpt lat="47.41897" lon="0.82783">
        <ele>99.0</ele>
      </trkpt>
      <trkpt lat="47.42029" lon="0.82817">
        <ele>99.0</ele>
      </trkpt>
      <trkpt lat="47.42191" lon="0.8289">
        <ele>101.0</ele>
      </trkpt>
      <trkpt lat="47.42307" lon="0.82992">
        <ele>103.0</ele>
      </trkpt>
      <trkpt lat="47.42433" lon="0.82951">
        <ele>103.0</ele>
      </trkpt>
      <trkpt lat="47.42553" lon="0.82856">
        <ele>104.0</ele>
      </trkpt>
      <trkpt lat="47.42623" lon="0.8283">
        <ele>105.0</ele>
      </trkpt>
      <trkpt lat="47.42694" lon="0.82816">
        <ele>106.0</ele>
      </trkpt>
      <trkpt lat="47.42753" lon="0.82866">
        <ele>106.0</ele>
      </trkpt>
      <trkpt lat="47.42798" lon="0.8287">
        <ele>106.0</ele>
      </trkpt>
      <trkpt lat="47.42995" lon="0.82793">
        <ele>105.0</ele>
      </trkpt>
      <trkpt lat="47.42985" lon="0.82733">
        <ele>104.0</ele>
      </trkpt>
      <trkpt lat="47.42894" lon="0.8254">
        <ele>104.0</ele>
      </trkpt>
      <trkpt lat="47.42916" lon="0.82439">
        <ele>104.0</ele>
      </trkpt>
      <trkpt lat="47.42913" lon="0.82381">
        <ele>104.0</ele>
      </trkpt>
      <trkpt lat="47.42878" lon="0.8232">
        <ele>105.0</ele>
      </trkpt>
      <trkpt lat="47.42783" lon="0.82232">
        <ele>106.0</ele>
      </trkpt>
      <trkpt lat="47.42747" lon="0.81976">
        <ele>107.0</ele>
      </trkpt>
      <trkpt lat="47.42672" lon="0.81952">
        <ele>107.0</ele>
      </trkpt>
      <trkpt lat="47.42635" lon="0.81877">
        <ele>107.0</ele>
      </trkpt>
      <trkpt lat="47.42432" lon="0.81607">
        <ele>107.0</ele>
      </trkpt>
      <trkpt lat="47.42335" lon="0.81539">
        <ele>106.0</ele>
      </trkpt>
      <trkpt lat="47.42143" lon="0.81456">
        <ele>108.0</ele>
      </trkpt>
      <trkpt lat="47.42037" lon="0.81374">
        <ele>107.0</ele>
      </trkpt>
      <trkpt lat="47.41972" lon="0.81271">
        <ele>104.0</ele>
      </trkpt>
      <trkpt lat="47.41944" lon="0.81097">
        <ele>101.0</ele>
      </trkpt>
      <trkpt lat="47.41942" lon="0.80967">
        <ele>100.0</ele>
      </trkpt>
      <trkpt lat="47.41806" lon="0.8043">
        <ele>97.0</ele>
      </trkpt>
      <trkpt lat="47.41737" lon="0.80238">
        <ele>91.0</ele>
      </trkpt>
      <trkpt lat="47.41638" lon="0.80017">
        <ele>78.0</ele>
      </trkpt>
      <trkpt lat="47.41564" lon="0.79745">
        <ele>66.0</ele>
      </trkpt>
      <trkpt lat="47.41639" lon="0.79725">
        <ele>64.0</ele>
      </trkpt>
      <trkpt lat="47.41654" lon="0.79677">
        <ele>67.0</ele>
      </trkpt>
      <trkpt lat="47.41715" lon="0.79652">
        <ele>69.0</ele>
      </trkpt>
      <trkpt lat="47.41865" lon="0.79659">
        <ele>80.0</ele>
      </trkpt>
      <trkpt lat="47.41997" lon="0.7957">
        <ele>89.0</ele>
      </trkpt>
      <trkpt lat="47.42162" lon="0.79378">
        <ele>96.0</ele>
      </trkpt>
      <trkpt lat="47.4219" lon="0.79293">
        <ele>97.0</ele>
      </trkpt>
      <trkpt lat="47.42371" lon="0.79264">
        <ele>101.0</ele>
      </trkpt>
      <trkpt lat="47.42462" lon="0.7895">
        <ele>99.0</ele>
      </trkpt>
      <trkpt lat="47.42604" lon="0.78711">
        <ele>101.0</ele>
      </trkpt>
      <trkpt lat="47.42639" lon="0.78685">
        <ele>102.0</ele>
      </trkpt>
      <trkpt lat="47.42757" lon="0.78701">
        <ele>104.0</ele>
      </trkpt>
      <trkpt lat="47.42835" lon="0.78689">
        <ele>103.0</ele>
      </trkpt>
      <trkpt lat="47.42742" lon="0.78331">
        <ele>98.0</ele>
      </trkpt>
      <trkpt lat="47.42668" lon="0.78163">
        <ele>97.0</ele>
      </trkpt>
      <trkpt lat="47.42649" lon="0.78056">
        <ele>97.0</ele>
      </trkpt>
      <trkpt lat="47.42578" lon="0.77918">
        <ele>98.0</ele>
      </trkpt>
      <trkpt lat="47.42417" lon="0.77726">
        <ele>102.0</ele>
      </trkpt>
      <trkpt lat="47.42227" lon="0.77353">
        <ele>101.0</ele>
      </trkpt>
      <trkpt lat="47.42107" lon="0.7719">
        <ele>101.0</ele>
      </trkpt>
      <trkpt lat="47.42033" lon="0.76842">
        <ele>98.0</ele>
      </trkpt>
      <trkpt lat="47.42034" lon="0.76458">
        <ele>100.0</ele>
      </trkpt>
      <trkpt lat="47.42221" lon="0.76503">
        <ele>101.0</ele>
      </trkpt>
      <trkpt lat="47.42505" lon="0.76664">
        <ele>102.0</ele>
      </trkpt>
      <trkpt lat="47.42623" lon="0.76714">
        <ele>103.0</ele>
      </trkpt>
      <trkpt lat="47.42632" lon="0.76703">
        <ele>104.0</ele>
      </trkpt>
      <trkpt lat="47.42644" lon="0.76507">
        <ele>104.0</ele>
      </trkpt>
      <trkpt lat="47.42697" lon="0.76339">
        <ele>102.0</ele>
      </trkpt>
      <trkpt lat="47.42615" lon="0.76246">
        <ele>102.0</ele>
      </trkpt>
      <trkpt lat="47.42498" lon="0.76169">
        <ele>103.0</ele>
      </trkpt>
      <trkpt lat="47.4239" lon="0.7606">
        <ele>102.0</ele>
      </trkpt>
      <trkpt lat="47.42315" lon="0.76018">
        <ele>102.0</ele>
      </trkpt>
      <trkpt lat="47.42158" lon="0.75887">
        <ele>101.0</ele>
      </trkpt>
      <trkpt lat="47.42144" lon="0.75856">
        <ele>100.0</ele>
      </trkpt>
      <trkpt lat="47.42142" lon="0.75761">
        <ele>96.0</ele>
      </trkpt>
      <trkpt lat="47.42111" lon="0.75679">
        <ele>92.0</ele>
      </trkpt>
      <trkpt lat="47.42036" lon="0.75615">
        <ele>88.0</ele>
      </trkpt>
      <trkpt lat="47.41716" lon="0.75683">
        <ele>63.0</ele>
      </trkpt>
      <trkpt lat="47.41694" lon="0.75658">
        <ele>60.0</ele>
      </trkpt>
      <trkpt lat="47.4166" lon="0.75484">
        <ele>60.0</ele>
      </trkpt>
      <trkpt lat="47.4144" lon="0.75508">
        <ele>65.0</ele>
      </trkpt>
      <trkpt lat="47.41436" lon="0.7537">
        <ele>72.0</ele>
      </trkpt>
      <trkpt lat="47.41418" lon="0.75241">
        <ele>83.0</ele>
      </trkpt>
      <trkpt lat="47.41405" lon="0.752">
        <ele>85.0</ele>
      </trkpt>
      <trkpt lat="47.41338" lon="0.75112">
        <ele>91.0</ele>
      </trkpt>
      <trkpt lat="47.41312" lon="0.74932">
        <ele>97.0</ele>
      </trkpt>
      <trkpt lat="47.41196" lon="0.74958">
        <ele>97.0</ele>
      </trkpt>
      <trkpt lat="47.41178" lon="0.74946">
        <ele>98.0</ele>
      </trkpt>
      <trkpt lat="47.41092" lon="0.74384">
        <ele>103.0</ele>
      </trkpt>
      <trkpt lat="47.41008" lon="0.74224">
        <ele>102.0</ele>
      </trkpt>
      <trkpt lat="47.40991" lon="0.73968">
        <ele>99.0</ele>
      </trkpt>
      <trkpt lat="47.40998" lon="0.7385">
        <ele>96.0</ele>
      </trkpt>
      <trkpt lat="47.40874" lon="0.73722">
        <ele>88.0</ele>
      </trkpt>
      <trkpt lat="47.40852" lon="0.73675">
        <ele>85.0</ele>
      </trkpt>
      <trkpt lat="47.40837" lon="0.73588">
        <ele>79.0</ele>
      </trkpt>
      <trkpt lat="47.40809" lon="0.73544">
        <ele>76.0</ele>
      </trkpt>
      <trkpt lat="47.40658" lon="0.73416">
        <ele>62.0</ele>
      </trkpt>
      <trkpt lat="47.40583" lon="0.73399">
        <ele>60.0</ele>
      </trkpt>
      <trkpt lat="47.40513" lon="0.73352">
        <ele>57.0</ele>
      </trkpt>
      <trkpt lat="47.40413" lon="0.72772">
        <ele>52.0</ele>
      </trkpt>
      <trkpt lat="47.40362" lon="0.72582">
        <ele>53.0</ele>
      </trkpt>
      <trkpt lat="47.40366" lon="0.72511">
        <ele>53.0</ele>
      </trkpt>
      <trkpt lat="47.40386" lon="0.72455">
        <ele>54.0</ele>
      </trkpt>
      <trkpt lat="47.4041" lon="0.7243">
        <ele>54.0</ele>
      </trkpt>
      <trkpt lat="47.40413" lon="0.72399">
        <ele>54.0</ele>
      </trkpt>
      <trkpt lat="47.40399" lon="0.72376">
        <ele>54.0</ele>
      </trkpt>
      <trkpt lat="47.40359" lon="0.72368">
        <ele>54.0</ele>
      </trkpt>
      <trkpt lat="47.40333" lon="0.72337">
        <ele>53.0</ele>
      </trkpt>
      <trkpt lat="47.40261" lon="0.72155">
        <ele>52.0</ele>
      </trkpt>
      <trkpt lat="47.40194" lon="0.71871">
        <ele>50.0</ele>
      </trkpt>
      <trkpt lat="47.40168" lon="0.71633">
        <ele>50.0</ele>
      </trkpt>
      <trkpt lat="47.40171" lon="0.71481">
        <ele>51.0</ele>
      </trkpt>
      <trkpt lat="47.40264" lon="0.71126">
        <ele>52.0</ele>
      </trkpt>
      <trkpt lat="47.40324" lon="0.70233">
        <ele>54.0</ele>
      </trkpt>
      <trkpt lat="47.40272" lon="0.69624">
        <ele>50.0</ele>
      </trkpt>
      <trkpt lat="47.40213" lon="0.69335">
        <ele>50.0</ele>
      </trkpt>
      <trkpt lat="47.40152" lon="0.68656">
        <ele>52.0</ele>
      </trkpt>
      <trkpt lat="47.40138" lon="0.68642">
        <ele>51.0</ele>
      </trkpt>
      <trkpt lat="47.401" lon="0.68489">
        <ele>50.0</ele>
      </trkpt>
      <trkpt lat="47.40068" lon="0.68256">
        <ele>51.0</ele>
      </trkpt>
      <trkpt lat="47.40075" lon="0.6821">
        <ele>52.0</ele>
      </trkpt>
      <trkpt lat="47.4005" lon="0.68077">
        <ele>52.0</ele>
      </trkpt>
      <trkpt lat="47.40057" lon="0.67874">
        <ele>52.0</ele>
      </trkpt>
      <trkpt lat="47.40024" lon="0.67779">
        <ele>52.0</ele>
      </trkpt>
      <trkpt lat="47.39974" lon="0.6754">
        <ele>50.0</ele>
      </trkpt>
      <trkpt lat="47.39951" lon="0.67528">
        <ele>48.0</ele>
      </trkpt>
      <trkpt lat="47.39547" lon="0.67727">
        <ele>51.0</ele>
      </trkpt>
      <trkpt lat="47.39533" lon="0.6765">
        <ele>52.0</ele>
      </trkpt>
      <trkpt lat="47.39553" lon="0.67496">
        <ele>52.0</ele>
      </trkpt>
      <trkpt lat="47.39491" lon="0.6713">
        <ele>53.0</ele>
      </trkpt>
      <trkpt lat="47.39354" lon="0.67184">
        <ele>52.0</ele>
      </trkpt>
      <trkpt lat="47.38826" lon="0.67582">
        <ele>51.0</ele>
      </trkpt>
      <trkpt lat="47.38976" lon="0.68655">
        <ele>52.0</ele>
      </trkpt>
    </trkseg>
  </trk>
</gpx>