<?xml version="1.0" encoding="UTF-8"?>
<gpx xmlns="http://www.topografix.com/GPX/1/0" xmlns:xsi="http://www.w3.org/2001/XMLSchema-instance" xsi:schemaLocation="http://www.topografix.com/GPX/1/0 http://www.topografix.com/GPX/1/0/gpx.xsd" version="1.0" creator="GPSBabel - https://www.gpsbabel.org">
  <time>2026-03-18T09:06:43.244000Z</time>
  <bounds minlat="50.18458" maxlat="50.67939" minlon="3.10141" maxlon="3.50317" />
  <trk>
    <trkseg>
      <trkpt lat="50.29409" lon="3.40197">
        <ele>56.0</ele>
      </trkpt>
      <trkpt lat="50.29327" lon="3.40224">
        <ele>56.0</ele>
      </trkpt>
      <trkpt lat="50.29151" lon="3.40245">
        <ele>57.0</ele>
      </trkpt>
      <trkpt lat="50.28768" lon="3.40366">
        <ele>57.0</ele>
      </trkpt>
      <trkpt lat="50.28602" lon="3.40421">
        <ele>54.0</ele>
      </trkpt>
      <trkpt lat="50.28578" lon="3.40321">
        <ele>53.0</ele>
      </trkpt>
      <trkpt lat="50.28622" lon="3.39778">
        <ele>51.0</ele>
      </trkpt>
      <trkpt lat="50.28623" lon="3.39682">
        <ele>49.0</ele>
      </trkpt>
      <trkpt lat="50.28556" lon="3.39453">
        <ele>46.0</ele>
      </trkpt>
      <trkpt lat="50.28541" lon="3.39375">
        <ele>42.0</ele>
      </trkpt>
      <trkpt lat="50.2854" lon="3.39273">
        <ele>40.0</ele>
      </trkpt>
      <trkpt lat="50.28561" lon="3.39097">
        <ele>37.0</ele>
      </trkpt>
      <trkpt lat="50.2862" lon="3.39091">
        <ele>37.0</ele>
      </trkpt>
      <trkpt lat="50.28647" lon="3.39058">
        <ele>37.0</ele>
      </trkpt>
      <trkpt lat="50.28662" lon="3.38867">
        <ele>37.0</ele>
      </trkpt>
      <trkpt lat="50.28561" lon="3.38706">
        <ele>37.0</ele>
      </trkpt>
      <trkpt lat="50.28342" lon="3.38697">
        <ele>37.0</ele>
      </trkpt>
      <trkpt lat="50.28219" lon="3.38842">
        <ele>38.0</ele>
      </trkpt>
      <trkpt lat="50.2819" lon="3.38839">
        <ele>39.0</ele>
      </trkpt>
      <trkpt lat="50.28052" lon="3.3852">
        <ele>45.0</ele>
      </trkpt>
      <trkpt lat="50.28002" lon="3.38462">
        <ele>47.0</ele>
      </trkpt>
      <trkpt lat="50.27952" lon="3.38445">
        <ele>49.0</ele>
      </trkpt>
      <trkpt lat="50.27794" lon="3.38437">
        <ele>52.0</ele>
      </trkpt>
      <trkpt lat="50.276" lon="3.38358">
        <ele>55.0</ele>
      </trkpt>
      <trkpt lat="50.27516" lon="3.38323">
        <ele>57.0</ele>
      </trkpt>
      <trkpt lat="50.27413" lon="3.38309">
        <ele>58.0</ele>
      </trkpt>
      <trkpt lat="50.27274" lon="3.3822">
        <ele>60.0</ele>
      </trkpt>
      <trkpt lat="50.27139" lon="3.38154">
        <ele>63.0</ele>
      </trkpt>
      <trkpt lat="50.26929" lon="3.38114">
        <ele>65.0</ele>
      </trkpt>
      <trkpt lat="50.26784" lon="3.38062">
        <ele>66.0</ele>
      </trkpt>
      <trkpt lat="50.26677" lon="3.37999">
        <ele>67.0</ele>
      </trkpt>
      <trkpt lat="50.26478" lon="3.37883">
        <ele>71.0</ele>
      </trkpt>
      <trkpt lat="50.26366" lon="3.37837">
        <ele>72.0</ele>
      </trkpt>
      <trkpt lat="50.2611" lon="3.37824">
        <ele>73.0</ele>
      </trkpt>
      <trkpt lat="50.25965" lon="3.37821">
        <ele>74.0</ele>
      </trkpt>
      <trkpt lat="50.25791" lon="3.37791">
        <ele>72.0</ele>
      </trkpt>
      <trkpt lat="50.25739" lon="3.37814">
        <ele>71.0</ele>
      </trkpt>
      <trkpt lat="50.25591" lon="3.37874">
        <ele>70.0</ele>
      </trkpt>
      <trkpt lat="50.25521" lon="3.37876">
        <ele>68.0</ele>
      </trkpt>
      <trkpt lat="50.25402" lon="3.37779">
        <ele>67.0</ele>
      </trkpt>
      <trkpt lat="50.25322" lon="3.37837">
        <ele>67.0</ele>
      </trkpt>
      <trkpt lat="50.25289" lon="3.37826">
        <ele>67.0</ele>
      </trkpt>
      <trkpt lat="50.25243" lon="3.37744">
        <ele>67.0</ele>
      </trkpt>
      <trkpt lat="50.25175" lon="3.37616">
        <ele>65.0</ele>
      </trkpt>
      <trkpt lat="50.25142" lon="3.37561">
        <ele>64.0</ele>
      </trkpt>
      <trkpt lat="50.25073" lon="3.37505">
        <ele>63.0</ele>
      </trkpt>
      <trkpt lat="50.24974" lon="3.37439">
        <ele>61.0</ele>
      </trkpt>
      <trkpt lat="50.2494" lon="3.37453">
        <ele>60.0</ele>
      </trkpt>
      <trkpt lat="50.2485" lon="3.37701">
        <ele>60.0</ele>
      </trkpt>
      <trkpt lat="50.24839" lon="3.37763">
        <ele>62.0</ele>
      </trkpt>
      <trkpt lat="50.24918" lon="3.37856">
        <ele>64.0</ele>
      </trkpt>
      <trkpt lat="50.24984" lon="3.3793">
        <ele>66.0</ele>
      </trkpt>
      <trkpt lat="50.2503" lon="3.38041">
        <ele>67.0</ele>
      </trkpt>
      <trkpt lat="50.25092" lon="3.38128">
        <ele>68.0</ele>
      </trkpt>
      <trkpt lat="50.25213" lon="3.38306">
        <ele>71.0</ele>
      </trkpt>
      <trkpt lat="50.25256" lon="3.38354">
        <ele>71.0</ele>
      </trkpt>
      <trkpt lat="50.25344" lon="3.38393">
        <ele>71.0</ele>
      </trkpt>
      <trkpt lat="50.25384" lon="3.3844">
        <ele>71.0</ele>
      </trkpt>
      <trkpt lat="50.255" lon="3.38822">
        <ele>70.0</ele>
      </trkpt>
      <trkpt lat="50.25527" lon="3.38951">
        <ele>68.0</ele>
      </trkpt>
      <trkpt lat="50.25551" lon="3.39256">
        <ele>67.0</ele>
      </trkpt>
      <trkpt lat="50.2558" lon="3.39491">
        <ele>65.0</ele>
      </trkpt>
      <trkpt lat="50.25602" lon="3.39701">
        <ele>64.0</ele>
      </trkpt>
      <trkpt lat="50.25639" lon="3.39998">
        <ele>59.0</ele>
      </trkpt>
      <trkpt lat="50.25653" lon="3.40135">
        <ele>58.0</ele>
      </trkpt>
      <trkpt lat="50.25693" lon="3.4034">
        <ele>55.0</ele>
      </trkpt>
      <trkpt lat="50.25716" lon="3.40494">
        <ele>50.0</ele>
      </trkpt>
      <trkpt lat="50.25705" lon="3.40738">
        <ele>51.0</ele>
      </trkpt>
      <trkpt lat="50.25708" lon="3.40865">
        <ele>53.0</ele>
      </trkpt>
      <trkpt lat="50.2572" lon="3.40978">
        <ele>53.0</ele>
      </trkpt>
      <trkpt lat="50.25632" lon="3.4114">
        <ele>53.0</ele>
      </trkpt>
      <trkpt lat="50.25561" lon="3.41285">
        <ele>51.0</ele>
      </trkpt>
      <trkpt lat="50.25553" lon="3.41318">
        <ele>50.0</ele>
      </trkpt>
      <trkpt lat="50.25552" lon="3.41333">
        <ele>50.0</ele>
      </trkpt>
      <trkpt lat="50.25431" lon="3.41553">
        <ele>48.0</ele>
      </trkpt>
      <trkpt lat="50.25377" lon="3.41617">
        <ele>48.0</ele>
      </trkpt>
      <trkpt lat="50.25251" lon="3.41518">
        <ele>50.0</ele>
      </trkpt>
      <trkpt lat="50.24963" lon="3.41413">
        <ele>58.0</ele>
      </trkpt>
      <trkpt lat="50.24901" lon="3.4138">
        <ele>62.0</ele>
      </trkpt>
      <trkpt lat="50.2473" lon="3.41186">
        <ele>62.0</ele>
      </trkpt>
      <trkpt lat="50.24544" lon="3.41059">
        <ele>62.0</ele>
      </trkpt>
      <trkpt lat="50.24287" lon="3.40965">
        <ele>62.0</ele>
      </trkpt>
      <trkpt lat="50.2414" lon="3.40862">
        <ele>65.0</ele>
      </trkpt>
      <trkpt lat="50.24022" lon="3.40793">
        <ele>68.0</ele>
      </trkpt>
      <trkpt lat="50.23434" lon="3.40492">
        <ele>74.0</ele>
      </trkpt>
      <trkpt lat="50.23129" lon="3.40334">
        <ele>78.0</ele>
      </trkpt>
      <trkpt lat="50.2303" lon="3.40258">
        <ele>78.0</ele>
      </trkpt>
      <trkpt lat="50.22897" lon="3.40144">
        <ele>79.0</ele>
      </trkpt>
      <trkpt lat="50.22841" lon="3.40078">
        <ele>79.0</ele>
      </trkpt>
      <trkpt lat="50.22765" lon="3.39949">
        <ele>79.0</ele>
      </trkpt>
      <trkpt lat="50.22689" lon="3.39953">
        <ele>79.0</ele>
      </trkpt>
      <trkpt lat="50.22665" lon="3.40008">
        <ele>79.0</ele>
      </trkpt>
      <trkpt lat="50.22619" lon="3.40066">
        <ele>78.0</ele>
      </trkpt>
      <trkpt lat="50.22531" lon="3.40249">
        <ele>75.0</ele>
      </trkpt>
      <trkpt lat="50.22468" lon="3.40296">
        <ele>75.0</ele>
      </trkpt>
      <trkpt lat="50.22393" lon="3.40331">
        <ele>75.0</ele>
      </trkpt>
      <trkpt lat="50.22131" lon="3.40613">
        <ele>78.0</ele>
      </trkpt>
      <trkpt lat="50.21848" lon="3.40922">
        <ele>85.0</ele>
      </trkpt>
      <trkpt lat="50.21801" lon="3.40997">
        <ele>85.0</ele>
      </trkpt>
      <trkpt lat="50.21785" lon="3.40972">
        <ele>84.0</ele>
      </trkpt>
      <trkpt lat="50.21682" lon="3.41058">
        <ele>80.0</ele>
      </trkpt>
      <trkpt lat="50.21506" lon="3.41101">
        <ele>73.0</ele>
      </trkpt>
      <trkpt lat="50.21317" lon="3.4115">
        <ele>65.0</ele>
      </trkpt>
      <trkpt lat="50.21217" lon="3.4122">
        <ele>64.0</ele>
      </trkpt>
      <trkpt lat="50.21108" lon="3.41305">
        <ele>65.0</ele>
      </trkpt>
      <trkpt lat="50.20941" lon="3.41522">
        <ele>66.0</ele>
      </trkpt>
      <trkpt lat="50.209" lon="3.41594">
        <ele>67.0</ele>
      </trkpt>
      <trkpt lat="50.20864" lon="3.41642">
        <ele>67.0</ele>
      </trkpt>
      <trkpt lat="50.2075" lon="3.41658">
        <ele>67.0</ele>
      </trkpt>
      <trkpt lat="50.2065" lon="3.41679">
        <ele>68.0</ele>
      </trkpt>
      <trkpt lat="50.20652" lon="3.41543">
        <ele>69.0</ele>
      </trkpt>
      <trkpt lat="50.20673" lon="3.4139">
        <ele>70.0</ele>
      </trkpt>
      <trkpt lat="50.20621" lon="3.41367">
        <ele>71.0</ele>
      </trkpt>
      <trkpt lat="50.20544" lon="3.41351">
        <ele>71.0</ele>
      </trkpt>
      <trkpt lat="50.20511" lon="3.41288">
        <ele>70.0</ele>
      </trkpt>
      <trkpt lat="50.20414" lon="3.41262">
        <ele>70.0</ele>
      </trkpt>
      <trkpt lat="50.20364" lon="3.41283">
        <ele>70.0</ele>
      </trkpt>
      <trkpt lat="50.20316" lon="3.41348">
        <ele>70.0</ele>
      </trkpt>
      <trkpt lat="50.20256" lon="3.41384">
        <ele>70.0</ele>
      </trkpt>
      <trkpt lat="50.20119" lon="3.41428">
        <ele>69.0</ele>
      </trkpt>
      <trkpt lat="50.19952" lon="3.4148">
        <ele>69.0</ele>
      </trkpt>
      <trkpt lat="50.19754" lon="3.41546">
        <ele>70.0</ele>
      </trkpt>
      <trkpt lat="50.19652" lon="3.41576">
        <ele>72.0</ele>
      </trkpt>
      <trkpt lat="50.19189" lon="3.41666">
        <ele>74.0</ele>
      </trkpt>
      <trkpt lat="50.1918" lon="3.41958">
        <ele>81.0</ele>
      </trkpt>
      <trkpt lat="50.19199" lon="3.42116">
        <ele>80.0</ele>
      </trkpt>
      <trkpt lat="50.19218" lon="3.42182">
        <ele>78.0</ele>
      </trkpt>
      <trkpt lat="50.19203" lon="3.42381">
        <ele>73.0</ele>
      </trkpt>
      <trkpt lat="50.19191" lon="3.42518">
        <ele>71.0</ele>
      </trkpt>
      <trkpt lat="50.19175" lon="3.42794">
        <ele>74.0</ele>
      </trkpt>
      <trkpt lat="50.19149" lon="3.42879">
        <ele>76.0</ele>
      </trkpt>
      <trkpt lat="50.19121" lon="3.43025">
        <ele>80.0</ele>
      </trkpt>
      <trkpt lat="50.1912" lon="3.43105">
        <ele>82.0</ele>
      </trkpt>
      <trkpt lat="50.19128" lon="3.43262">
        <ele>84.0</ele>
      </trkpt>
      <trkpt lat="50.19122" lon="3.43495">
        <ele>87.0</ele>
      </trkpt>
      <trkpt lat="50.19112" lon="3.43646">
        <ele>89.0</ele>
      </trkpt>
      <trkpt lat="50.19097" lon="3.43722">
        <ele>88.0</ele>
      </trkpt>
      <trkpt lat="50.1905" lon="3.43932">
        <ele>86.0</ele>
      </trkpt>
      <trkpt lat="50.19041" lon="3.44028">
        <ele>88.0</ele>
      </trkpt>
      <trkpt lat="50.19048" lon="3.44196">
        <ele>90.0</ele>
      </trkpt>
      <trkpt lat="50.19046" lon="3.44281">
        <ele>90.0</ele>
      </trkpt>
      <trkpt lat="50.19028" lon="3.44421">
        <ele>89.0</ele>
      </trkpt>
      <trkpt lat="50.19" lon="3.44637">
        <ele>88.0</ele>
      </trkpt>
      <trkpt lat="50.18967" lon="3.45138">
        <ele>90.0</ele>
      </trkpt>
      <trkpt lat="50.18947" lon="3.45266">
        <ele>91.0</ele>
      </trkpt>
      <trkpt lat="50.18886" lon="3.45474">
        <ele>91.0</ele>
      </trkpt>
      <trkpt lat="50.18858" lon="3.45616">
        <ele>91.0</ele>
      </trkpt>
      <trkpt lat="50.18722" lon="3.46586">
        <ele>100.0</ele>
      </trkpt>
      <trkpt lat="50.18691" lon="3.4677">
        <ele>100.0</ele>
      </trkpt>
      <trkpt lat="50.18681" lon="3.46913">
        <ele>98.0</ele>
      </trkpt>
      <trkpt lat="50.18691" lon="3.47092">
        <ele>92.0</ele>
      </trkpt>
      <trkpt lat="50.18675" lon="3.47348">
        <ele>88.0</ele>
      </trkpt>
      <trkpt lat="50.18664" lon="3.4755">
        <ele>83.0</ele>
      </trkpt>
      <trkpt lat="50.18762" lon="3.47689">
        <ele>79.0</ele>
      </trkpt>
      <trkpt lat="50.18837" lon="3.47873">
        <ele>72.0</ele>
      </trkpt>
      <trkpt lat="50.18908" lon="3.48102">
        <ele>64.0</ele>
      </trkpt>
      <trkpt lat="50.18959" lon="3.48167">
        <ele>64.0</ele>
      </trkpt>
      <trkpt lat="50.19029" lon="3.48257">
        <ele>64.0</ele>
      </trkpt>
      <trkpt lat="50.19057" lon="3.48326">
        <ele>64.0</ele>
      </trkpt>
      <trkpt lat="50.19057" lon="3.48351">
        <ele>64.0</ele>
      </trkpt>
      <trkpt lat="50.1904" lon="3.48384">
        <ele>64.0</ele>
      </trkpt>
      <trkpt lat="50.18948" lon="3.48462">
        <ele>65.0</ele>
      </trkpt>
      <trkpt lat="50.18825" lon="3.48561">
        <ele>66.0</ele>
      </trkpt>
      <trkpt lat="50.18755" lon="3.48675">
        <ele>68.0</ele>
      </trkpt>
      <trkpt lat="50.18707" lon="3.48821">
        <ele>69.0</ele>
      </trkpt>
      <trkpt lat="50.18607" lon="3.49013">
        <ele>67.0</ele>
      </trkpt>
      <trkpt lat="50.18535" lon="3.49153">
        <ele>65.0</ele>
      </trkpt>
      <trkpt lat="50.18458" lon="3.49391">
        <ele>66.0</ele>
      </trkpt>
      <trkpt lat="50.18527" lon="3.49385">
        <ele>66.0</ele>
      </trkpt>
      <trkpt lat="50.1857" lon="3.49406">
        <ele>67.0</ele>
      </trkpt>
      <trkpt lat="50.18609" lon="3.49467">
        <ele>68.0</ele>
      </trkpt>
      <trkpt lat="50.18682" lon="3.4964">
        <ele>70.0</ele>
      </trkpt>
      <trkpt lat="50.18676" lon="3.49677">
        <ele>71.0</ele>
      </trkpt>
      <trkpt lat="50.1867" lon="3.49714">
        <ele>71.0</ele>
      </trkpt>
      <trkpt lat="50.18719" lon="3.49846">
        <ele>71.0</ele>
      </trkpt>
      <trkpt lat="50.1876" lon="3.49883">
        <ele>73.0</ele>
      </trkpt>
      <trkpt lat="50.18805" lon="3.49895">
        <ele>75.0</ele>
      </trkpt>
      <trkpt lat="50.18865" lon="3.4988">
        <ele>77.0</ele>
      </trkpt>
      <trkpt lat="50.18983" lon="3.49874">
        <ele>82.0</ele>
      </trkpt>
      <trkpt lat="50.19114" lon="3.49868">
        <ele>89.0</ele>
      </trkpt>
      <trkpt lat="50.19176" lon="3.49883">
        <ele>92.0</ele>
      </trkpt>
      <trkpt lat="50.1932" lon="3.49972">
        <ele>99.0</ele>
      </trkpt>
      <trkpt lat="50.19386" lon="3.50033">
        <ele>103.0</ele>
      </trkpt>
      <trkpt lat="50.19444" lon="3.50049">
        <ele>105.0</ele>
      </trkpt>
      <trkpt lat="50.19611" lon="3.50072">
        <ele>112.0</ele>
      </trkpt>
      <trkpt lat="50.1973" lon="3.50101">
        <ele>115.0</ele>
      </trkpt>
      <trkpt lat="50.20097" lon="3.50058">
        <ele>112.0</ele>
      </trkpt>
      <trkpt lat="50.20166" lon="3.50027">
        <ele>113.0</ele>
      </trkpt>
      <trkpt lat="50.20256" lon="3.4999">
        <ele>113.0</ele>
      </trkpt>
      <trkpt lat="50.20391" lon="3.50031">
        <ele>111.0</ele>
      </trkpt>
      <trkpt lat="50.20725" lon="3.50149">
        <ele>103.0</ele>
      </trkpt>
      <trkpt lat="50.20874" lon="3.50188">
        <ele>101.0</ele>
      </trkpt>
      <trkpt lat="50.21078" lon="3.50249">
        <ele>101.0</ele>
      </trkpt>
      <trkpt lat="50.21152" lon="3.50254">
        <ele>98.0</ele>
      </trkpt>
      <trkpt lat="50.21257" lon="3.50241">
        <ele>95.0</ele>
      </trkpt>
      <trkpt lat="50.21597" lon="3.50265">
        <ele>96.0</ele>
      </trkpt>
      <trkpt lat="50.21654" lon="3.5026">
        <ele>97.0</ele>
      </trkpt>
      <trkpt lat="50.21767" lon="3.50229">
        <ele>97.0</ele>
      </trkpt>
      <trkpt lat="50.2193" lon="3.50231">
        <ele>98.0</ele>
      </trkpt>
      <trkpt lat="50.22091" lon="3.50236">
        <ele>100.0</ele>
      </trkpt>
      <trkpt lat="50.22218" lon="3.50242">
        <ele>101.0</ele>
      </trkpt>
      <trkpt lat="50.22324" lon="3.50272">
        <ele>101.0</ele>
      </trkpt>
      <trkpt lat="50.22445" lon="3.50314">
        <ele>102.0</ele>
      </trkpt>
      <trkpt lat="50.22498" lon="3.50124">
        <ele>104.0</ele>
      </trkpt>
      <trkpt lat="50.22428" lon="3.4977">
        <ele>101.0</ele>
      </trkpt>
      <trkpt lat="50.22359" lon="3.49327">
        <ele>95.0</ele>
      </trkpt>
      <trkpt lat="50.22295" lon="3.491">
        <ele>92.0</ele>
      </trkpt>
      <trkpt lat="50.22265" lon="3.48915">
        <ele>89.0</ele>
      </trkpt>
      <trkpt lat="50.22213" lon="3.48766">
        <ele>84.0</ele>
      </trkpt>
      <trkpt lat="50.22161" lon="3.48634">
        <ele>78.0</ele>
      </trkpt>
      <trkpt lat="50.22111" lon="3.48518">
        <ele>75.0</ele>
      </trkpt>
      <trkpt lat="50.22059" lon="3.48365">
        <ele>73.0</ele>
      </trkpt>
      <trkpt lat="50.21996" lon="3.48246">
        <ele>69.0</ele>
      </trkpt>
      <trkpt lat="50.21911" lon="3.48059">
        <ele>64.0</ele>
      </trkpt>
      <trkpt lat="50.21846" lon="3.47953">
        <ele>62.0</ele>
      </trkpt>
      <trkpt lat="50.21966" lon="3.47832">
        <ele>60.0</ele>
      </trkpt>
      <trkpt lat="50.22031" lon="3.4773">
        <ele>59.0</ele>
      </trkpt>
      <trkpt lat="50.22139" lon="3.47625">
        <ele>57.0</ele>
      </trkpt>
      <trkpt lat="50.2222" lon="3.47585">
        <ele>56.0</ele>
      </trkpt>
      <trkpt lat="50.22287" lon="3.47525">
        <ele>55.0</ele>
      </trkpt>
      <trkpt lat="50.22339" lon="3.4744">
        <ele>54.0</ele>
      </trkpt>
      <trkpt lat="50.22372" lon="3.47362">
        <ele>54.0</ele>
      </trkpt>
      <trkpt lat="50.22386" lon="3.47272">
        <ele>54.0</ele>
      </trkpt>
      <trkpt lat="50.22389" lon="3.47087">
        <ele>54.0</ele>
      </trkpt>
      <trkpt lat="50.22439" lon="3.46962">
        <ele>55.0</ele>
      </trkpt>
      <trkpt lat="50.22486" lon="3.46855">
        <ele>55.0</ele>
      </trkpt>
      <trkpt lat="50.22588" lon="3.46692">
        <ele>55.0</ele>
      </trkpt>
      <trkpt lat="50.22632" lon="3.466">
        <ele>56.0</ele>
      </trkpt>
      <trkpt lat="50.22703" lon="3.46398">
        <ele>58.0</ele>
      </trkpt>
      <trkpt lat="50.22763" lon="3.46291">
        <ele>59.0</ele>
      </trkpt>
      <trkpt lat="50.2287" lon="3.46151">
        <ele>59.0</ele>
      </trkpt>
      <trkpt lat="50.23018" lon="3.45944">
        <ele>57.0</ele>
      </trkpt>
      <trkpt lat="50.2323" lon="3.45705">
        <ele>53.0</ele>
      </trkpt>
      <trkpt lat="50.233" lon="3.45614">
        <ele>52.0</ele>
      </trkpt>
      <trkpt lat="50.23357" lon="3.45418">
        <ele>51.0</ele>
      </trkpt>
      <trkpt lat="50.23403" lon="3.45226">
        <ele>51.0</ele>
      </trkpt>
      <trkpt lat="50.23421" lon="3.44989">
        <ele>51.0</ele>
      </trkpt>
      <trkpt lat="50.23437" lon="3.44909">
        <ele>51.0</ele>
      </trkpt>
      <trkpt lat="50.23531" lon="3.44771">
        <ele>51.0</ele>
      </trkpt>
      <trkpt lat="50.23745" lon="3.44498">
        <ele>51.0</ele>
      </trkpt>
      <trkpt lat="50.23898" lon="3.44323">
        <ele>51.0</ele>
      </trkpt>
      <trkpt lat="50.2397" lon="3.4423">
        <ele>51.0</ele>
      </trkpt>
      <trkpt lat="50.24025" lon="3.44208">
        <ele>52.0</ele>
      </trkpt>
      <trkpt lat="50.24083" lon="3.44245">
        <ele>53.0</ele>
      </trkpt>
      <trkpt lat="50.24086" lon="3.44348">
        <ele>54.0</ele>
      </trkpt>
      <trkpt lat="50.24123" lon="3.44462">
        <ele>56.0</ele>
      </trkpt>
      <trkpt lat="50.24186" lon="3.44629">
        <ele>59.0</ele>
      </trkpt>
      <trkpt lat="50.24299" lon="3.44989">
        <ele>67.0</ele>
      </trkpt>
      <trkpt lat="50.24409" lon="3.45275">
        <ele>73.0</ele>
      </trkpt>
      <trkpt lat="50.24519" lon="3.45395">
        <ele>77.0</ele>
      </trkpt>
      <trkpt lat="50.24693" lon="3.45595">
        <ele>81.0</ele>
      </trkpt>
      <trkpt lat="50.2482" lon="3.45775">
        <ele>83.0</ele>
      </trkpt>
      <trkpt lat="50.24877" lon="3.45884">
        <ele>83.0</ele>
      </trkpt>
      <trkpt lat="50.24961" lon="3.46004">
        <ele>84.0</ele>
      </trkpt>
      <trkpt lat="50.25111" lon="3.46209">
        <ele>84.0</ele>
      </trkpt>
      <trkpt lat="50.25178" lon="3.46287">
        <ele>83.0</ele>
      </trkpt>
      <trkpt lat="50.25333" lon="3.46397">
        <ele>79.0</ele>
      </trkpt>
      <trkpt lat="50.25459" lon="3.46492">
        <ele>76.0</ele>
      </trkpt>
      <trkpt lat="50.25618" lon="3.46653">
        <ele>73.0</ele>
      </trkpt>
      <trkpt lat="50.25717" lon="3.46731">
        <ele>71.0</ele>
      </trkpt>
      <trkpt lat="50.25833" lon="3.46887">
        <ele>69.0</ele>
      </trkpt>
      <trkpt lat="50.26045" lon="3.47122">
        <ele>67.0</ele>
      </trkpt>
      <trkpt lat="50.26164" lon="3.47263">
        <ele>64.0</ele>
      </trkpt>
      <trkpt lat="50.2625" lon="3.47408">
        <ele>58.0</ele>
      </trkpt>
      <trkpt lat="50.26312" lon="3.47447">
        <ele>55.0</ele>
      </trkpt>
      <trkpt lat="50.26389" lon="3.47534">
        <ele>52.0</ele>
      </trkpt>
      <trkpt lat="50.26491" lon="3.47558">
        <ele>49.0</ele>
      </trkpt>
      <trkpt lat="50.2656" lon="3.4752">
        <ele>47.0</ele>
      </trkpt>
      <trkpt lat="50.2657" lon="3.47457">
        <ele>46.0</ele>
      </trkpt>
      <trkpt lat="50.26642" lon="3.47382">
        <ele>44.0</ele>
      </trkpt>
      <trkpt lat="50.26646" lon="3.47338">
        <ele>43.0</ele>
      </trkpt>
      <trkpt lat="50.26627" lon="3.47248">
        <ele>43.0</ele>
      </trkpt>
      <trkpt lat="50.26697" lon="3.46961">
        <ele>46.0</ele>
      </trkpt>
      <trkpt lat="50.26751" lon="3.46819">
        <ele>46.0</ele>
      </trkpt>
      <trkpt lat="50.2681" lon="3.46651">
        <ele>46.0</ele>
      </trkpt>
      <trkpt lat="50.26893" lon="3.4643">
        <ele>47.0</ele>
      </trkpt>
      <trkpt lat="50.26949" lon="3.46339">
        <ele>47.0</ele>
      </trkpt>
      <trkpt lat="50.27012" lon="3.46265">
        <ele>47.0</ele>
      </trkpt>
      <trkpt lat="50.27045" lon="3.46204">
        <ele>48.0</ele>
      </trkpt>
      <trkpt lat="50.27122" lon="3.45988">
        <ele>48.0</ele>
      </trkpt>
      <trkpt lat="50.27219" lon="3.45556">
        <ele>45.0</ele>
      </trkpt>
      <trkpt lat="50.27255" lon="3.45488">
        <ele>44.0</ele>
      </trkpt>
      <trkpt lat="50.27314" lon="3.45446">
        <ele>43.0</ele>
      </trkpt>
      <trkpt lat="50.27394" lon="3.45447">
        <ele>42.0</ele>
      </trkpt>
      <trkpt lat="50.27521" lon="3.45407">
        <ele>40.0</ele>
      </trkpt>
      <trkpt lat="50.27718" lon="3.45348">
        <ele>36.0</ele>
      </trkpt>
      <trkpt lat="50.27785" lon="3.45362">
        <ele>36.0</ele>
      </trkpt>
      <trkpt lat="50.27842" lon="3.45358">
        <ele>37.0</ele>
      </trkpt>
      <trkpt lat="50.27985" lon="3.45271">
        <ele>37.0</ele>
      </trkpt>
      <trkpt lat="50.28124" lon="3.45202">
        <ele>37.0</ele>
      </trkpt>
      <trkpt lat="50.28233" lon="3.4517">
        <ele>37.0</ele>
      </trkpt>
      <trkpt lat="50.28281" lon="3.45144">
        <ele>37.0</ele>
      </trkpt>
      <trkpt lat="50.28457" lon="3.44968">
        <ele>37.0</ele>
      </trkpt>
      <trkpt lat="50.28524" lon="3.44931">
        <ele>37.0</ele>
      </trkpt>
      <trkpt lat="50.28541" lon="3.44937">
        <ele>37.0</ele>
      </trkpt>
      <trkpt lat="50.28556" lon="3.44919">
        <ele>37.0</ele>
      </trkpt>
      <trkpt lat="50.2868" lon="3.44883">
        <ele>38.0</ele>
      </trkpt>
      <trkpt lat="50.28781" lon="3.44853">
        <ele>40.0</ele>
      </trkpt>
      <trkpt lat="50.28874" lon="3.44799">
        <ele>37.0</ele>
      </trkpt>
      <trkpt lat="50.29053" lon="3.44834">
        <ele>36.0</ele>
      </trkpt>
      <trkpt lat="50.29216" lon="3.44839">
        <ele>35.0</ele>
      </trkpt>
      <trkpt lat="50.2932" lon="3.44796">
        <ele>34.0</ele>
      </trkpt>
      <trkpt lat="50.29422" lon="3.44741">
        <ele>34.0</ele>
      </trkpt>
      <trkpt lat="50.29607" lon="3.44694">
        <ele>35.0</ele>
      </trkpt>
      <trkpt lat="50.29827" lon="3.44715">
        <ele>36.0</ele>
      </trkpt>
      <trkpt lat="50.29979" lon="3.4474">
        <ele>33.0</ele>
      </trkpt>
      <trkpt lat="50.29996" lon="3.44756">
        <ele>33.0</ele>
      </trkpt>
      <trkpt lat="50.30022" lon="3.44736">
        <ele>34.0</ele>
      </trkpt>
      <trkpt lat="50.30124" lon="3.44738">
        <ele>37.0</ele>
      </trkpt>
      <trkpt lat="50.30177" lon="3.44724">
        <ele>38.0</ele>
      </trkpt>
      <trkpt lat="50.30268" lon="3.44664">
        <ele>39.0</ele>
      </trkpt>
      <trkpt lat="50.30351" lon="3.44689">
        <ele>40.0</ele>
      </trkpt>
      <trkpt lat="50.30383" lon="3.44693">
        <ele>40.0</ele>
      </trkpt>
      <trkpt lat="50.30423" lon="3.44619">
        <ele>40.0</ele>
      </trkpt>
      <trkpt lat="50.30522" lon="3.44371">
        <ele>39.0</ele>
      </trkpt>
      <trkpt lat="50.30633" lon="3.44349">
        <ele>38.0</ele>
      </trkpt>
      <trkpt lat="50.30665" lon="3.4431">
        <ele>37.0</ele>
      </trkpt>
      <trkpt lat="50.30718" lon="3.4412">
        <ele>35.0</ele>
      </trkpt>
      <trkpt lat="50.30794" lon="3.43916">
        <ele>33.0</ele>
      </trkpt>
      <trkpt lat="50.30841" lon="3.43825">
        <ele>31.0</ele>
      </trkpt>
      <trkpt lat="50.30949" lon="3.43643">
        <ele>26.0</ele>
      </trkpt>
      <trkpt lat="50.31003" lon="3.43557">
        <ele>26.0</ele>
      </trkpt>
      <trkpt lat="50.31072" lon="3.43423">
        <ele>27.0</ele>
      </trkpt>
      <trkpt lat="50.31154" lon="3.43245">
        <ele>29.0</ele>
      </trkpt>
      <trkpt lat="50.31172" lon="3.43203">
        <ele>30.0</ele>
      </trkpt>
      <trkpt lat="50.31299" lon="3.42944">
        <ele>29.0</ele>
      </trkpt>
      <trkpt lat="50.31352" lon="3.42859">
        <ele>30.0</ele>
      </trkpt>
      <trkpt lat="50.31448" lon="3.42753">
        <ele>31.0</ele>
      </trkpt>
      <trkpt lat="50.31625" lon="3.42536">
        <ele>39.0</ele>
      </trkpt>
      <trkpt lat="50.31689" lon="3.42422">
        <ele>41.0</ele>
      </trkpt>
      <trkpt lat="50.31792" lon="3.4223">
        <ele>42.0</ele>
      </trkpt>
      <trkpt lat="50.31764" lon="3.4213">
        <ele>43.0</ele>
      </trkpt>
      <trkpt lat="50.31535" lon="3.41608">
        <ele>46.0</ele>
      </trkpt>
      <trkpt lat="50.31474" lon="3.41341">
        <ele>51.0</ele>
      </trkpt>
      <trkpt lat="50.31529" lon="3.4122">
        <ele>49.0</ele>
      </trkpt>
      <trkpt lat="50.31587" lon="3.41135">
        <ele>47.0</ele>
      </trkpt>
      <trkpt lat="50.31708" lon="3.4102">
        <ele>43.0</ele>
      </trkpt>
      <trkpt lat="50.31819" lon="3.4096">
        <ele>40.0</ele>
      </trkpt>
      <trkpt lat="50.31944" lon="3.40931">
        <ele>37.0</ele>
      </trkpt>
      <trkpt lat="50.32094" lon="3.4091">
        <ele>33.0</ele>
      </trkpt>
      <trkpt lat="50.32129" lon="3.40903">
        <ele>33.0</ele>
      </trkpt>
      <trkpt lat="50.32152" lon="3.40907">
        <ele>32.0</ele>
      </trkpt>
      <trkpt lat="50.32188" lon="3.40903">
        <ele>32.0</ele>
      </trkpt>
      <trkpt lat="50.32409" lon="3.40883">
        <ele>29.0</ele>
      </trkpt>
      <trkpt lat="50.3251" lon="3.4087">
        <ele>29.0</ele>
      </trkpt>
      <trkpt lat="50.32562" lon="3.40848">
        <ele>30.0</ele>
      </trkpt>
      <trkpt lat="50.32635" lon="3.40784">
        <ele>30.0</ele>
      </trkpt>
      <trkpt lat="50.32749" lon="3.40647">
        <ele>29.0</ele>
      </trkpt>
      <trkpt lat="50.32818" lon="3.40584">
        <ele>30.0</ele>
      </trkpt>
      <trkpt lat="50.32914" lon="3.40547">
        <ele>31.0</ele>
      </trkpt>
      <trkpt lat="50.33024" lon="3.40504">
        <ele>34.0</ele>
      </trkpt>
      <trkpt lat="50.33186" lon="3.40446">
        <ele>36.0</ele>
      </trkpt>
      <trkpt lat="50.33328" lon="3.40394">
        <ele>37.0</ele>
      </trkpt>
      <trkpt lat="50.33464" lon="3.40362">
        <ele>37.0</ele>
      </trkpt>
      <trkpt lat="50.33588" lon="3.40347">
        <ele>35.0</ele>
      </trkpt>
      <trkpt lat="50.33707" lon="3.40338">
        <ele>32.0</ele>
      </trkpt>
      <trkpt lat="50.33727" lon="3.40359">
        <ele>32.0</ele>
      </trkpt>
      <trkpt lat="50.33749" lon="3.40351">
        <ele>33.0</ele>
      </trkpt>
      <trkpt lat="50.33776" lon="3.40328">
        <ele>34.0</ele>
      </trkpt>
      <trkpt lat="50.33871" lon="3.40307">
        <ele>36.0</ele>
      </trkpt>
      <trkpt lat="50.33963" lon="3.40276">
        <ele>36.0</ele>
      </trkpt>
      <trkpt lat="50.34051" lon="3.40232">
        <ele>36.0</ele>
      </trkpt>
      <trkpt lat="50.34207" lon="3.40125">
        <ele>38.0</ele>
      </trkpt>
      <trkpt lat="50.34269" lon="3.40105">
        <ele>38.0</ele>
      </trkpt>
      <trkpt lat="50.34295" lon="3.40116">
        <ele>37.0</ele>
      </trkpt>
      <trkpt lat="50.34319" lon="3.40113">
        <ele>37.0</ele>
      </trkpt>
      <trkpt lat="50.3449" lon="3.40169">
        <ele>36.0</ele>
      </trkpt>
      <trkpt lat="50.34652" lon="3.40209">
        <ele>35.0</ele>
      </trkpt>
      <trkpt lat="50.34813" lon="3.40232">
        <ele>35.0</ele>
      </trkpt>
      <trkpt lat="50.3491" lon="3.40226">
        <ele>34.0</ele>
      </trkpt>
      <trkpt lat="50.34967" lon="3.4022">
        <ele>32.0</ele>
      </trkpt>
      <trkpt lat="50.35023" lon="3.40226">
        <ele>32.0</ele>
      </trkpt>
      <trkpt lat="50.35161" lon="3.40246">
        <ele>31.0</ele>
      </trkpt>
      <trkpt lat="50.35279" lon="3.40251">
        <ele>31.0</ele>
      </trkpt>
      <trkpt lat="50.35279" lon="3.40083">
        <ele>31.0</ele>
      </trkpt>
      <trkpt lat="50.35275" lon="3.39913">
        <ele>31.0</ele>
      </trkpt>
      <trkpt lat="50.35272" lon="3.39857">
        <ele>31.0</ele>
      </trkpt>
      <trkpt lat="50.35308" lon="3.39603">
        <ele>31.0</ele>
      </trkpt>
      <trkpt lat="50.35378" lon="3.3919">
        <ele>31.0</ele>
      </trkpt>
      <trkpt lat="50.35436" lon="3.38244">
        <ele>36.0</ele>
      </trkpt>
      <trkpt lat="50.35915" lon="3.38275">
        <ele>35.0</ele>
      </trkpt>
      <trkpt lat="50.36071" lon="3.38204">
        <ele>34.0</ele>
      </trkpt>
      <trkpt lat="50.36296" lon="3.38211">
        <ele>34.0</ele>
      </trkpt>
      <trkpt lat="50.36607" lon="3.38151">
        <ele>32.0</ele>
      </trkpt>
      <trkpt lat="50.36754" lon="3.38024">
        <ele>31.0</ele>
      </trkpt>
      <trkpt lat="50.36658" lon="3.37481">
        <ele>31.0</ele>
      </trkpt>
      <trkpt lat="50.36546" lon="3.37146">
        <ele>31.0</ele>
      </trkpt>
      <trkpt lat="50.36486" lon="3.3694">
        <ele>29.0</ele>
      </trkpt>
      <trkpt lat="50.36355" lon="3.36588">
        <ele>26.0</ele>
      </trkpt>
      <trkpt lat="50.36323" lon="3.36427">
        <ele>26.0</ele>
      </trkpt>
      <trkpt lat="50.36298" lon="3.36338">
        <ele>27.0</ele>
      </trkpt>
      <trkpt lat="50.36238" lon="3.36219">
        <ele>27.0</ele>
      </trkpt>
      <trkpt lat="50.3624" lon="3.36101">
        <ele>26.0</ele>
      </trkpt>
      <trkpt lat="50.36285" lon="3.36086">
        <ele>25.0</ele>
      </trkpt>
      <trkpt lat="50.36328" lon="3.3604">
        <ele>24.0</ele>
      </trkpt>
      <trkpt lat="50.36437" lon="3.35911">
        <ele>22.0</ele>
      </trkpt>
      <trkpt lat="50.36621" lon="3.35722">
        <ele>22.0</ele>
      </trkpt>
      <trkpt lat="50.36699" lon="3.3568">
        <ele>22.0</ele>
      </trkpt>
      <trkpt lat="50.36891" lon="3.35789">
        <ele>22.0</ele>
      </trkpt>
      <trkpt lat="50.36994" lon="3.35835">
        <ele>21.0</ele>
      </trkpt>
      <trkpt lat="50.37224" lon="3.35714">
        <ele>20.0</ele>
      </trkpt>
      <trkpt lat="50.37396" lon="3.35588">
        <ele>18.0</ele>
      </trkpt>
      <trkpt lat="50.37439" lon="3.35454">
        <ele>17.0</ele>
      </trkpt>
      <trkpt lat="50.3749" lon="3.35421">
        <ele>17.0</ele>
      </trkpt>
      <trkpt lat="50.37524" lon="3.35187">
        <ele>18.0</ele>
      </trkpt>
      <trkpt lat="50.37497" lon="3.35033">
        <ele>19.0</ele>
      </trkpt>
      <trkpt lat="50.37452" lon="3.34878">
        <ele>20.0</ele>
      </trkpt>
      <trkpt lat="50.37374" lon="3.34871">
        <ele>20.0</ele>
      </trkpt>
      <trkpt lat="50.37227" lon="3.34782">
        <ele>21.0</ele>
      </trkpt>
      <trkpt lat="50.37166" lon="3.3467">
        <ele>21.0</ele>
      </trkpt>
      <trkpt lat="50.37061" lon="3.34418">
        <ele>22.0</ele>
      </trkpt>
      <trkpt lat="50.37034" lon="3.34289">
        <ele>22.0</ele>
      </trkpt>
      <trkpt lat="50.37021" lon="3.34244">
        <ele>22.0</ele>
      </trkpt>
      <trkpt lat="50.36982" lon="3.34176">
        <ele>22.0</ele>
      </trkpt>
      <trkpt lat="50.37003" lon="3.3407">
        <ele>22.0</ele>
      </trkpt>
      <trkpt lat="50.37065" lon="3.33929">
        <ele>22.0</ele>
      </trkpt>
      <trkpt lat="50.37094" lon="3.33865">
        <ele>22.0</ele>
      </trkpt>
      <trkpt lat="50.37139" lon="3.33764">
        <ele>21.0</ele>
      </trkpt>
      <trkpt lat="50.37134" lon="3.33722">
        <ele>21.0</ele>
      </trkpt>
      <trkpt lat="50.37142" lon="3.33671">
        <ele>21.0</ele>
      </trkpt>
      <trkpt lat="50.37155" lon="3.33634">
        <ele>21.0</ele>
      </trkpt>
      <trkpt lat="50.37203" lon="3.3361">
        <ele>20.0</ele>
      </trkpt>
      <trkpt lat="50.37282" lon="3.33552">
        <ele>20.0</ele>
      </trkpt>
      <trkpt lat="50.37133" lon="3.33387">
        <ele>20.0</ele>
      </trkpt>
      <trkpt lat="50.37099" lon="3.33298">
        <ele>20.0</ele>
      </trkpt>
      <trkpt lat="50.37012" lon="3.32993">
        <ele>20.0</ele>
      </trkpt>
      <trkpt lat="50.37013" lon="3.32715">
        <ele>20.0</ele>
      </trkpt>
      <trkpt lat="50.37037" lon="3.32581">
        <ele>20.0</ele>
      </trkpt>
      <trkpt lat="50.37018" lon="3.32236">
        <ele>19.0</ele>
      </trkpt>
      <trkpt lat="50.37009" lon="3.32099">
        <ele>19.0</ele>
      </trkpt>
      <trkpt lat="50.36989" lon="3.32082">
        <ele>19.0</ele>
      </trkpt>
      <trkpt lat="50.36965" lon="3.31969">
        <ele>19.0</ele>
      </trkpt>
      <trkpt lat="50.36863" lon="3.31845">
        <ele>19.0</ele>
      </trkpt>
      <trkpt lat="50.36822" lon="3.3171">
        <ele>21.0</ele>
      </trkpt>
      <trkpt lat="50.37303" lon="3.31456">
        <ele>19.0</ele>
      </trkpt>
      <trkpt lat="50.37704" lon="3.31748">
        <ele>19.0</ele>
      </trkpt>
      <trkpt lat="50.37866" lon="3.31733">
        <ele>18.0</ele>
      </trkpt>
      <trkpt lat="50.38316" lon="3.3166">
        <ele>17.0</ele>
      </trkpt>
      <trkpt lat="50.38596" lon="3.31612">
        <ele>16.0</ele>
      </trkpt>
      <trkpt lat="50.38833" lon="3.31682">
        <ele>14.0</ele>
      </trkpt>
      <trkpt lat="50.39014" lon="3.31659">
        <ele>14.0</ele>
      </trkpt>
      <trkpt lat="50.39384" lon="3.31622">
        <ele>16.0</ele>
      </trkpt>
      <trkpt lat="50.39435" lon="3.31766">
        <ele>16.0</ele>
      </trkpt>
      <trkpt lat="50.39443" lon="3.31869">
        <ele>16.0</ele>
      </trkpt>
      <trkpt lat="50.39412" lon="3.32077">
        <ele>16.0</ele>
      </trkpt>
      <trkpt lat="50.39379" lon="3.32231">
        <ele>17.0</ele>
      </trkpt>
      <trkpt lat="50.39358" lon="3.32334">
        <ele>17.0</ele>
      </trkpt>
      <trkpt lat="50.39357" lon="3.32423">
        <ele>17.0</ele>
      </trkpt>
      <trkpt lat="50.39384" lon="3.32593">
        <ele>17.0</ele>
      </trkpt>
      <trkpt lat="50.39423" lon="3.32738">
        <ele>17.0</ele>
      </trkpt>
      <trkpt lat="50.39444" lon="3.32798">
        <ele>17.0</ele>
      </trkpt>
      <trkpt lat="50.39621" lon="3.32786">
        <ele>16.0</ele>
      </trkpt>
      <trkpt lat="50.39634" lon="3.32985">
        <ele>15.0</ele>
      </trkpt>
      <trkpt lat="50.39672" lon="3.33114">
        <ele>15.0</ele>
      </trkpt>
      <trkpt lat="50.39734" lon="3.33147">
        <ele>15.0</ele>
      </trkpt>
      <trkpt lat="50.39836" lon="3.33135">
        <ele>15.0</ele>
      </trkpt>
      <trkpt lat="50.39944" lon="3.33173">
        <ele>15.0</ele>
      </trkpt>
      <trkpt lat="50.40061" lon="3.33208">
        <ele>17.0</ele>
      </trkpt>
      <trkpt lat="50.40117" lon="3.3323">
        <ele>17.0</ele>
      </trkpt>
      <trkpt lat="50.40214" lon="3.33211">
        <ele>16.0</ele>
      </trkpt>
      <trkpt lat="50.40325" lon="3.33159">
        <ele>16.0</ele>
      </trkpt>
      <trkpt lat="50.40458" lon="3.333">
        <ele>16.0</ele>
      </trkpt>
      <trkpt lat="50.40507" lon="3.33334">
        <ele>17.0</ele>
      </trkpt>
      <trkpt lat="50.40565" lon="3.33388">
        <ele>17.0</ele>
      </trkpt>
      <trkpt lat="50.40705" lon="3.33395">
        <ele>17.0</ele>
      </trkpt>
      <trkpt lat="50.40746" lon="3.33381">
        <ele>16.0</ele>
      </trkpt>
      <trkpt lat="50.40832" lon="3.33322">
        <ele>15.0</ele>
      </trkpt>
      <trkpt lat="50.4085" lon="3.33297">
        <ele>15.0</ele>
      </trkpt>
      <trkpt lat="50.40873" lon="3.33222">
        <ele>16.0</ele>
      </trkpt>
      <trkpt lat="50.40927" lon="3.33197">
        <ele>16.0</ele>
      </trkpt>
      <trkpt lat="50.40979" lon="3.33156">
        <ele>18.0</ele>
      </trkpt>
      <trkpt lat="50.4097" lon="3.33094">
        <ele>18.0</ele>
      </trkpt>
      <trkpt lat="50.40971" lon="3.32963">
        <ele>18.0</ele>
      </trkpt>
      <trkpt lat="50.41006" lon="3.32801">
        <ele>18.0</ele>
      </trkpt>
      <trkpt lat="50.41025" lon="3.327">
        <ele>18.0</ele>
      </trkpt>
      <trkpt lat="50.41026" lon="3.32502">
        <ele>17.0</ele>
      </trkpt>
      <trkpt lat="50.4107" lon="3.32258">
        <ele>17.0</ele>
      </trkpt>
      <trkpt lat="50.41112" lon="3.32188">
        <ele>17.0</ele>
      </trkpt>
      <trkpt lat="50.4115" lon="3.32158">
        <ele>17.0</ele>
      </trkpt>
      <trkpt lat="50.4127" lon="3.31986">
        <ele>17.0</ele>
      </trkpt>
      <trkpt lat="50.41368" lon="3.3167">
        <ele>16.0</ele>
      </trkpt>
      <trkpt lat="50.41453" lon="3.31627">
        <ele>16.0</ele>
      </trkpt>
      <trkpt lat="50.41514" lon="3.31605">
        <ele>16.0</ele>
      </trkpt>
      <trkpt lat="50.41636" lon="3.31652">
        <ele>16.0</ele>
      </trkpt>
      <trkpt lat="50.41846" lon="3.31788">
        <ele>15.0</ele>
      </trkpt>
      <trkpt lat="50.42132" lon="3.32073">
        <ele>15.0</ele>
      </trkpt>
      <trkpt lat="50.42408" lon="3.32163">
        <ele>15.0</ele>
      </trkpt>
      <trkpt lat="50.42593" lon="3.32264">
        <ele>15.0</ele>
      </trkpt>
      <trkpt lat="50.42686" lon="3.3243">
        <ele>15.0</ele>
      </trkpt>
      <trkpt lat="50.42843" lon="3.3258">
        <ele>14.0</ele>
      </trkpt>
      <trkpt lat="50.4293" lon="3.32552">
        <ele>15.0</ele>
      </trkpt>
      <trkpt lat="50.42992" lon="3.32506">
        <ele>16.0</ele>
      </trkpt>
      <trkpt lat="50.4305" lon="3.32482">
        <ele>17.0</ele>
      </trkpt>
      <trkpt lat="50.43147" lon="3.32538">
        <ele>18.0</ele>
      </trkpt>
      <trkpt lat="50.43163" lon="3.32417">
        <ele>18.0</ele>
      </trkpt>
      <trkpt lat="50.43164" lon="3.32297">
        <ele>18.0</ele>
      </trkpt>
      <trkpt lat="50.43133" lon="3.31947">
        <ele>19.0</ele>
      </trkpt>
      <trkpt lat="50.43265" lon="3.31711">
        <ele>18.0</ele>
      </trkpt>
      <trkpt lat="50.43496" lon="3.31678">
        <ele>18.0</ele>
      </trkpt>
      <trkpt lat="50.4413" lon="3.31978">
        <ele>17.0</ele>
      </trkpt>
      <trkpt lat="50.44326" lon="3.31882">
        <ele>16.0</ele>
      </trkpt>
      <trkpt lat="50.44511" lon="3.31677">
        <ele>17.0</ele>
      </trkpt>
      <trkpt lat="50.44568" lon="3.31867">
        <ele>17.0</ele>
      </trkpt>
      <trkpt lat="50.44635" lon="3.3214">
        <ele>18.0</ele>
      </trkpt>
      <trkpt lat="50.44772" lon="3.3226">
        <ele>18.0</ele>
      </trkpt>
      <trkpt lat="50.44926" lon="3.32394">
        <ele>18.0</ele>
      </trkpt>
      <trkpt lat="50.45034" lon="3.32511">
        <ele>19.0</ele>
      </trkpt>
      <trkpt lat="50.45066" lon="3.32545">
        <ele>19.0</ele>
      </trkpt>
      <trkpt lat="50.45114" lon="3.32484">
        <ele>19.0</ele>
      </trkpt>
      <trkpt lat="50.45159" lon="3.3225">
        <ele>18.0</ele>
      </trkpt>
      <trkpt lat="50.4547" lon="3.30767">
        <ele>19.0</ele>
      </trkpt>
      <trkpt lat="50.45506" lon="3.30606">
        <ele>19.0</ele>
      </trkpt>
      <trkpt lat="50.45729" lon="3.29841">
        <ele>23.0</ele>
      </trkpt>
      <trkpt lat="50.4575" lon="3.29734">
        <ele>23.0</ele>
      </trkpt>
      <trkpt lat="50.45757" lon="3.29639">
        <ele>21.0</ele>
      </trkpt>
      <trkpt lat="50.45747" lon="3.2948">
        <ele>20.0</ele>
      </trkpt>
      <trkpt lat="50.45759" lon="3.29377">
        <ele>20.0</ele>
      </trkpt>
      <trkpt lat="50.45849" lon="3.28954">
        <ele>21.0</ele>
      </trkpt>
      <trkpt lat="50.45871" lon="3.28841">
        <ele>23.0</ele>
      </trkpt>
      <trkpt lat="50.45891" lon="3.28722">
        <ele>24.0</ele>
      </trkpt>
      <trkpt lat="50.45924" lon="3.28654">
        <ele>24.0</ele>
      </trkpt>
      <trkpt lat="50.45947" lon="3.28558">
        <ele>24.0</ele>
      </trkpt>
      <trkpt lat="50.45956" lon="3.28435">
        <ele>24.0</ele>
      </trkpt>
      <trkpt lat="50.45963" lon="3.28364">
        <ele>24.0</ele>
      </trkpt>
      <trkpt lat="50.45996" lon="3.28247">
        <ele>24.0</ele>
      </trkpt>
      <trkpt lat="50.46006" lon="3.28158">
        <ele>24.0</ele>
      </trkpt>
      <trkpt lat="50.45952" lon="3.27997">
        <ele>22.0</ele>
      </trkpt>
      <trkpt lat="50.45868" lon="3.27713">
        <ele>22.0</ele>
      </trkpt>
      <trkpt lat="50.45832" lon="3.27383">
        <ele>25.0</ele>
      </trkpt>
      <trkpt lat="50.45943" lon="3.26867">
        <ele>27.0</ele>
      </trkpt>
      <trkpt lat="50.45977" lon="3.26809">
        <ele>28.0</ele>
      </trkpt>
      <trkpt lat="50.46137" lon="3.2631">
        <ele>26.0</ele>
      </trkpt>
      <trkpt lat="50.46248" lon="3.2612">
        <ele>25.0</ele>
      </trkpt>
      <trkpt lat="50.46488" lon="3.25835">
        <ele>24.0</ele>
      </trkpt>
      <trkpt lat="50.46611" lon="3.25809">
        <ele>26.0</ele>
      </trkpt>
      <trkpt lat="50.46665" lon="3.25752">
        <ele>27.0</ele>
      </trkpt>
      <trkpt lat="50.46725" lon="3.25555">
        <ele>27.0</ele>
      </trkpt>
      <trkpt lat="50.46784" lon="3.25345">
        <ele>28.0</ele>
      </trkpt>
      <trkpt lat="50.46798" lon="3.25316">
        <ele>28.0</ele>
      </trkpt>
      <trkpt lat="50.46817" lon="3.25262">
        <ele>29.0</ele>
      </trkpt>
      <trkpt lat="50.46941" lon="3.24997">
        <ele>30.0</ele>
      </trkpt>
      <trkpt lat="50.4697" lon="3.24953">
        <ele>31.0</ele>
      </trkpt>
      <trkpt lat="50.47016" lon="3.24904">
        <ele>33.0</ele>
      </trkpt>
      <trkpt lat="50.47074" lon="3.24833">
        <ele>34.0</ele>
      </trkpt>
      <trkpt lat="50.47151" lon="3.24871">
        <ele>34.0</ele>
      </trkpt>
      <trkpt lat="50.4729" lon="3.24722">
        <ele>33.0</ele>
      </trkpt>
      <trkpt lat="50.47429" lon="3.24585">
        <ele>35.0</ele>
      </trkpt>
      <trkpt lat="50.47508" lon="3.24487">
        <ele>36.0</ele>
      </trkpt>
      <trkpt lat="50.47521" lon="3.24427">
        <ele>36.0</ele>
      </trkpt>
      <trkpt lat="50.47532" lon="3.24396">
        <ele>36.0</ele>
      </trkpt>
      <trkpt lat="50.47612" lon="3.24305">
        <ele>36.0</ele>
      </trkpt>
      <trkpt lat="50.47656" lon="3.24245">
        <ele>36.0</ele>
      </trkpt>
      <trkpt lat="50.47795" lon="3.24096">
        <ele>36.0</ele>
      </trkpt>
      <trkpt lat="50.47812" lon="3.24086">
        <ele>36.0</ele>
      </trkpt>
      <trkpt lat="50.4782" lon="3.24066">
        <ele>36.0</ele>
      </trkpt>
      <trkpt lat="50.4781" lon="3.24049">
        <ele>36.0</ele>
      </trkpt>
      <trkpt lat="50.47783" lon="3.23997">
        <ele>36.0</ele>
      </trkpt>
      <trkpt lat="50.47682" lon="3.23806">
        <ele>36.0</ele>
      </trkpt>
      <trkpt lat="50.47598" lon="3.23619">
        <ele>36.0</ele>
      </trkpt>
      <trkpt lat="50.47585" lon="3.23569">
        <ele>36.0</ele>
      </trkpt>
      <trkpt lat="50.47572" lon="3.23549">
        <ele>36.0</ele>
      </trkpt>
      <trkpt lat="50.47549" lon="3.23551">
        <ele>36.0</ele>
      </trkpt>
      <trkpt lat="50.47471" lon="3.23486">
        <ele>36.0</ele>
      </trkpt>
      <trkpt lat="50.47373" lon="3.2338">
        <ele>39.0</ele>
      </trkpt>
      <trkpt lat="50.47337" lon="3.23327">
        <ele>40.0</ele>
      </trkpt>
      <trkpt lat="50.47316" lon="3.23257">
        <ele>41.0</ele>
      </trkpt>
      <trkpt lat="50.47336" lon="3.23207">
        <ele>41.0</ele>
      </trkpt>
      <trkpt lat="50.47265" lon="3.22902">
        <ele>43.0</ele>
      </trkpt>
      <trkpt lat="50.47356" lon="3.22476">
        <ele>44.0</ele>
      </trkpt>
      <trkpt lat="50.47398" lon="3.2239">
        <ele>40.0</ele>
      </trkpt>
      <trkpt lat="50.47506" lon="3.22555">
        <ele>38.0</ele>
      </trkpt>
      <trkpt lat="50.47668" lon="3.22714">
        <ele>38.0</ele>
      </trkpt>
      <trkpt lat="50.47685" lon="3.22813">
        <ele>39.0</ele>
      </trkpt>
      <trkpt lat="50.47731" lon="3.22943">
        <ele>40.0</ele>
      </trkpt>
      <trkpt lat="50.47933" lon="3.23307">
        <ele>39.0</ele>
      </trkpt>
      <trkpt lat="50.47957" lon="3.23473">
        <ele>39.0</ele>
      </trkpt>
      <trkpt lat="50.4797" lon="3.23533">
        <ele>38.0</ele>
      </trkpt>
      <trkpt lat="50.48292" lon="3.2299">
        <ele>34.0</ele>
      </trkpt>
      <trkpt lat="50.48438" lon="3.22737">
        <ele>31.0</ele>
      </trkpt>
      <trkpt lat="50.48533" lon="3.22616">
        <ele>31.0</ele>
      </trkpt>
      <trkpt lat="50.4863" lon="3.22397">
        <ele>32.0</ele>
      </trkpt>
      <trkpt lat="50.48683" lon="3.22215">
        <ele>32.0</ele>
      </trkpt>
      <trkpt lat="50.48725" lon="3.22196">
        <ele>32.0</ele>
      </trkpt>
      <trkpt lat="50.48765" lon="3.2207">
        <ele>32.0</ele>
      </trkpt>
      <trkpt lat="50.48883" lon="3.21854">
        <ele>33.0</ele>
      </trkpt>
      <trkpt lat="50.48947" lon="3.21682">
        <ele>34.0</ele>
      </trkpt>
      <trkpt lat="50.48948" lon="3.21593">
        <ele>35.0</ele>
      </trkpt>
      <trkpt lat="50.48874" lon="3.21308">
        <ele>36.0</ele>
      </trkpt>
      <trkpt lat="50.48868" lon="3.21213">
        <ele>36.0</ele>
      </trkpt>
      <trkpt lat="50.48836" lon="3.21091">
        <ele>36.0</ele>
      </trkpt>
      <trkpt lat="50.48733" lon="3.21053">
        <ele>36.0</ele>
      </trkpt>
      <trkpt lat="50.48666" lon="3.21051">
        <ele>37.0</ele>
      </trkpt>
      <trkpt lat="50.48586" lon="3.21034">
        <ele>38.0</ele>
      </trkpt>
      <trkpt lat="50.48429" lon="3.20983">
        <ele>39.0</ele>
      </trkpt>
      <trkpt lat="50.48223" lon="3.20825">
        <ele>41.0</ele>
      </trkpt>
      <trkpt lat="50.48133" lon="3.20732">
        <ele>43.0</ele>
      </trkpt>
      <trkpt lat="50.48075" lon="3.20613">
        <ele>44.0</ele>
      </trkpt>
      <trkpt lat="50.47982" lon="3.20496">
        <ele>46.0</ele>
      </trkpt>
      <trkpt lat="50.47955" lon="3.20456">
        <ele>47.0</ele>
      </trkpt>
      <trkpt lat="50.47976" lon="3.20398">
        <ele>47.0</ele>
      </trkpt>
      <trkpt lat="50.48021" lon="3.20292">
        <ele>46.0</ele>
      </trkpt>
      <trkpt lat="50.48113" lon="3.20122">
        <ele>45.0</ele>
      </trkpt>
      <trkpt lat="50.48152" lon="3.19932">
        <ele>45.0</ele>
      </trkpt>
      <trkpt lat="50.48204" lon="3.19807">
        <ele>44.0</ele>
      </trkpt>
      <trkpt lat="50.48286" lon="3.1959">
        <ele>41.0</ele>
      </trkpt>
      <trkpt lat="50.48224" lon="3.19384">
        <ele>41.0</ele>
      </trkpt>
      <trkpt lat="50.48219" lon="3.19204">
        <ele>40.0</ele>
      </trkpt>
      <trkpt lat="50.48249" lon="3.19098">
        <ele>40.0</ele>
      </trkpt>
      <trkpt lat="50.48305" lon="3.19006">
        <ele>39.0</ele>
      </trkpt>
      <trkpt lat="50.48401" lon="3.18699">
        <ele>39.0</ele>
      </trkpt>
      <trkpt lat="50.48446" lon="3.1861">
        <ele>39.0</ele>
      </trkpt>
      <trkpt lat="50.48487" lon="3.18581">
        <ele>40.0</ele>
      </trkpt>
      <trkpt lat="50.48578" lon="3.18562">
        <ele>40.0</ele>
      </trkpt>
      <trkpt lat="50.48665" lon="3.18431">
        <ele>41.0</ele>
      </trkpt>
      <trkpt lat="50.48837" lon="3.17725">
        <ele>46.0</ele>
      </trkpt>
      <trkpt lat="50.48915" lon="3.17495">
        <ele>50.0</ele>
      </trkpt>
      <trkpt lat="50.48934" lon="3.17013">
        <ele>53.0</ele>
      </trkpt>
      <trkpt lat="50.48633" lon="3.16104">
        <ele>53.0</ele>
      </trkpt>
      <trkpt lat="50.48495" lon="3.16182">
        <ele>53.0</ele>
      </trkpt>
      <trkpt lat="50.48358" lon="3.15799">
        <ele>53.0</ele>
      </trkpt>
      <trkpt lat="50.483" lon="3.15608">
        <ele>54.0</ele>
      </trkpt>
      <trkpt lat="50.48242" lon="3.15298">
        <ele>54.0</ele>
      </trkpt>
      <trkpt lat="50.48186" lon="3.15102">
        <ele>54.0</ele>
      </trkpt>
      <trkpt lat="50.48149" lon="3.14901">
        <ele>54.0</ele>
      </trkpt>
      <trkpt lat="50.47991" lon="3.14595">
        <ele>54.0</ele>
      </trkpt>
      <trkpt lat="50.48026" lon="3.14488">
        <ele>53.0</ele>
      </trkpt>
      <trkpt lat="50.48082" lon="3.14328">
        <ele>51.0</ele>
      </trkpt>
      <trkpt lat="50.48096" lon="3.14252">
        <ele>51.0</ele>
      </trkpt>
      <trkpt lat="50.48075" lon="3.14101">
        <ele>51.0</ele>
      </trkpt>
      <trkpt lat="50.48056" lon="3.13954">
        <ele>52.0</ele>
      </trkpt>
      <trkpt lat="50.48056" lon="3.13845">
        <ele>53.0</ele>
      </trkpt>
      <trkpt lat="50.48055" lon="3.13742">
        <ele>54.0</ele>
      </trkpt>
      <trkpt lat="50.48048" lon="3.13626">
        <ele>56.0</ele>
      </trkpt>
      <trkpt lat="50.48051" lon="3.13455">
        <ele>57.0</ele>
      </trkpt>
      <trkpt lat="50.48141" lon="3.13437">
        <ele>57.0</ele>
      </trkpt>
      <trkpt lat="50.48269" lon="3.13457">
        <ele>55.0</ele>
      </trkpt>
      <trkpt lat="50.48286" lon="3.13448">
        <ele>54.0</ele>
      </trkpt>
      <trkpt lat="50.48168" lon="3.13431">
        <ele>55.0</ele>
      </trkpt>
      <trkpt lat="50.48082" lon="3.13439">
        <ele>56.0</ele>
      </trkpt>
      <trkpt lat="50.48141" lon="3.13437">
        <ele>56.0</ele>
      </trkpt>
      <trkpt lat="50.48269" lon="3.13457">
        <ele>55.0</ele>
      </trkpt>
      <trkpt lat="50.48404" lon="3.13478">
        <ele>54.0</ele>
      </trkpt>
      <trkpt lat="50.4854" lon="3.13497">
        <ele>53.0</ele>
      </trkpt>
      <trkpt lat="50.48616" lon="3.13491">
        <ele>53.0</ele>
      </trkpt>
      <trkpt lat="50.4871" lon="3.13465">
        <ele>52.0</ele>
      </trkpt>
      <trkpt lat="50.48828" lon="3.1341">
        <ele>52.0</ele>
      </trkpt>
      <trkpt lat="50.48933" lon="3.13346">
        <ele>52.0</ele>
      </trkpt>
      <trkpt lat="50.4904" lon="3.13267">
        <ele>51.0</ele>
      </trkpt>
      <trkpt lat="50.49215" lon="3.13143">
        <ele>51.0</ele>
      </trkpt>
      <trkpt lat="50.49238" lon="3.12932">
        <ele>50.0</ele>
      </trkpt>
      <trkpt lat="50.49168" lon="3.12779">
        <ele>49.0</ele>
      </trkpt>
      <trkpt lat="50.48956" lon="3.12598">
        <ele>49.0</ele>
      </trkpt>
      <trkpt lat="50.4884" lon="3.12476">
        <ele>50.0</ele>
      </trkpt>
      <trkpt lat="50.48607" lon="3.12126">
        <ele>51.0</ele>
      </trkpt>
      <trkpt lat="50.48836" lon="3.12108">
        <ele>48.0</ele>
      </trkpt>
      <trkpt lat="50.48984" lon="3.11925">
        <ele>49.0</ele>
      </trkpt>
      <trkpt lat="50.49066" lon="3.11797">
        <ele>50.0</ele>
      </trkpt>
      <trkpt lat="50.4918" lon="3.11738">
        <ele>50.0</ele>
      </trkpt>
      <trkpt lat="50.49193" lon="3.11567">
        <ele>48.0</ele>
      </trkpt>
      <trkpt lat="50.48713" lon="3.10398">
        <ele>59.0</ele>
      </trkpt>
      <trkpt lat="50.49022" lon="3.10259">
        <ele>67.0</ele>
      </trkpt>
      <trkpt lat="50.4909" lon="3.10249">
        <ele>66.0</ele>
      </trkpt>
      <trkpt lat="50.49164" lon="3.10256">
        <ele>62.0</ele>
      </trkpt>
      <trkpt lat="50.49398" lon="3.10342">
        <ele>56.0</ele>
      </trkpt>
      <trkpt lat="50.49463" lon="3.10377">
        <ele>52.0</ele>
      </trkpt>
      <trkpt lat="50.49602" lon="3.1048">
        <ele>49.0</ele>
      </trkpt>
      <trkpt lat="50.49777" lon="3.10595">
        <ele>50.0</ele>
      </trkpt>
      <trkpt lat="50.49997" lon="3.10738">
        <ele>46.0</ele>
      </trkpt>
      <trkpt lat="50.50063" lon="3.10764">
        <ele>46.0</ele>
      </trkpt>
      <trkpt lat="50.50197" lon="3.10772">
        <ele>45.0</ele>
      </trkpt>
      <trkpt lat="50.50261" lon="3.1079">
        <ele>44.0</ele>
      </trkpt>
      <trkpt lat="50.50429" lon="3.10897">
        <ele>43.0</ele>
      </trkpt>
      <trkpt lat="50.50476" lon="3.10919">
        <ele>43.0</ele>
      </trkpt>
      <trkpt lat="50.50575" lon="3.10871">
        <ele>43.0</ele>
      </trkpt>
      <trkpt lat="50.50684" lon="3.10796">
        <ele>43.0</ele>
      </trkpt>
      <trkpt lat="50.50728" lon="3.10669">
        <ele>41.0</ele>
      </trkpt>
      <trkpt lat="50.51002" lon="3.10564">
        <ele>40.0</ele>
      </trkpt>
      <trkpt lat="50.51127" lon="3.1057">
        <ele>40.0</ele>
      </trkpt>
      <trkpt lat="50.51295" lon="3.10412">
        <ele>39.0</ele>
      </trkpt>
      <trkpt lat="50.51464" lon="3.10253">
        <ele>36.0</ele>
      </trkpt>
      <trkpt lat="50.51578" lon="3.10207">
        <ele>34.0</ele>
      </trkpt>
      <trkpt lat="50.51708" lon="3.10166">
        <ele>34.0</ele>
      </trkpt>
      <trkpt lat="50.518" lon="3.10285">
        <ele>35.0</ele>
      </trkpt>
      <trkpt lat="50.51825" lon="3.10392">
        <ele>35.0</ele>
      </trkpt>
      <trkpt lat="50.51851" lon="3.10594">
        <ele>34.0</ele>
      </trkpt>
      <trkpt lat="50.51983" lon="3.10776">
        <ele>33.0</ele>
      </trkpt>
      <trkpt lat="50.52022" lon="3.10781">
        <ele>32.0</ele>
      </trkpt>
      <trkpt lat="50.52206" lon="3.10677">
        <ele>32.0</ele>
      </trkpt>
      <trkpt lat="50.52254" lon="3.10673">
        <ele>34.0</ele>
      </trkpt>
      <trkpt lat="50.52289" lon="3.10785">
        <ele>35.0</ele>
      </trkpt>
      <trkpt lat="50.52297" lon="3.10856">
        <ele>36.0</ele>
      </trkpt>
      <trkpt lat="50.52338" lon="3.10955">
        <ele>36.0</ele>
      </trkpt>
      <trkpt lat="50.52366" lon="3.11041">
        <ele>36.0</ele>
      </trkpt>
      <trkpt lat="50.52419" lon="3.1119">
        <ele>36.0</ele>
      </trkpt>
      <trkpt lat="50.52484" lon="3.11161">
        <ele>36.0</ele>
      </trkpt>
      <trkpt lat="50.52507" lon="3.11148">
        <ele>36.0</ele>
      </trkpt>
      <trkpt lat="50.5256" lon="3.11094">
        <ele>37.0</ele>
      </trkpt>
      <trkpt lat="50.52747" lon="3.10888">
        <ele>38.0</ele>
      </trkpt>
      <trkpt lat="50.52817" lon="3.10805">
        <ele>37.0</ele>
      </trkpt>
      <trkpt lat="50.52947" lon="3.1071">
        <ele>33.0</ele>
      </trkpt>
      <trkpt lat="50.5299" lon="3.10689">
        <ele>32.0</ele>
      </trkpt>
      <trkpt lat="50.53003" lon="3.10699">
        <ele>32.0</ele>
      </trkpt>
      <trkpt lat="50.53018" lon="3.10693">
        <ele>32.0</ele>
      </trkpt>
      <trkpt lat="50.53029" lon="3.10665">
        <ele>32.0</ele>
      </trkpt>
      <trkpt lat="50.53102" lon="3.10602">
        <ele>32.0</ele>
      </trkpt>
      <trkpt lat="50.53155" lon="3.10586">
        <ele>31.0</ele>
      </trkpt>
      <trkpt lat="50.53274" lon="3.10589">
        <ele>31.0</ele>
      </trkpt>
      <trkpt lat="50.53379" lon="3.10582">
        <ele>31.0</ele>
      </trkpt>
      <trkpt lat="50.53424" lon="3.10803">
        <ele>30.0</ele>
      </trkpt>
      <trkpt lat="50.53316" lon="3.11155">
        <ele>28.0</ele>
      </trkpt>
      <trkpt lat="50.53495" lon="3.11636">
        <ele>28.0</ele>
      </trkpt>
      <trkpt lat="50.53592" lon="3.11997">
        <ele>30.0</ele>
      </trkpt>
      <trkpt lat="50.53661" lon="3.12164">
        <ele>32.0</ele>
      </trkpt>
      <trkpt lat="50.53617" lon="3.12219">
        <ele>31.0</ele>
      </trkpt>
      <trkpt lat="50.53663" lon="3.12384">
        <ele>28.0</ele>
      </trkpt>
      <trkpt lat="50.5375" lon="3.1259">
        <ele>30.0</ele>
      </trkpt>
      <trkpt lat="50.53811" lon="3.12594">
        <ele>31.0</ele>
      </trkpt>
      <trkpt lat="50.53843" lon="3.12614">
        <ele>31.0</ele>
      </trkpt>
      <trkpt lat="50.5389" lon="3.12703">
        <ele>31.0</ele>
      </trkpt>
      <trkpt lat="50.53924" lon="3.12739">
        <ele>31.0</ele>
      </trkpt>
      <trkpt lat="50.54022" lon="3.12791">
        <ele>30.0</ele>
      </trkpt>
      <trkpt lat="50.53997" lon="3.1284">
        <ele>30.0</ele>
      </trkpt>
      <trkpt lat="50.53977" lon="3.12922">
        <ele>30.0</ele>
      </trkpt>
      <trkpt lat="50.53962" lon="3.13067">
        <ele>30.0</ele>
      </trkpt>
      <trkpt lat="50.54008" lon="3.13162">
        <ele>30.0</ele>
      </trkpt>
      <trkpt lat="50.54018" lon="3.13272">
        <ele>30.0</ele>
      </trkpt>
      <trkpt lat="50.54077" lon="3.13423">
        <ele>30.0</ele>
      </trkpt>
      <trkpt lat="50.54193" lon="3.13543">
        <ele>30.0</ele>
      </trkpt>
      <trkpt lat="50.54313" lon="3.13866">
        <ele>29.0</ele>
      </trkpt>
      <trkpt lat="50.54296" lon="3.13984">
        <ele>29.0</ele>
      </trkpt>
      <trkpt lat="50.54256" lon="3.1419">
        <ele>30.0</ele>
      </trkpt>
      <trkpt lat="50.54232" lon="3.1433">
        <ele>28.0</ele>
      </trkpt>
      <trkpt lat="50.54245" lon="3.14431">
        <ele>28.0</ele>
      </trkpt>
      <trkpt lat="50.54241" lon="3.14593">
        <ele>28.0</ele>
      </trkpt>
      <trkpt lat="50.54254" lon="3.14678">
        <ele>28.0</ele>
      </trkpt>
      <trkpt lat="50.5423" lon="3.14759">
        <ele>29.0</ele>
      </trkpt>
      <trkpt lat="50.54228" lon="3.14882">
        <ele>30.0</ele>
      </trkpt>
      <trkpt lat="50.54245" lon="3.14984">
        <ele>30.0</ele>
      </trkpt>
      <trkpt lat="50.54275" lon="3.15104">
        <ele>30.0</ele>
      </trkpt>
      <trkpt lat="50.54245" lon="3.15201">
        <ele>30.0</ele>
      </trkpt>
      <trkpt lat="50.54193" lon="3.15342">
        <ele>29.0</ele>
      </trkpt>
      <trkpt lat="50.54158" lon="3.15424">
        <ele>29.0</ele>
      </trkpt>
      <trkpt lat="50.5408" lon="3.1556">
        <ele>29.0</ele>
      </trkpt>
      <trkpt lat="50.54027" lon="3.15699">
        <ele>29.0</ele>
      </trkpt>
      <trkpt lat="50.53966" lon="3.15979">
        <ele>29.0</ele>
      </trkpt>
      <trkpt lat="50.53937" lon="3.16074">
        <ele>29.0</ele>
      </trkpt>
      <trkpt lat="50.53891" lon="3.16164">
        <ele>29.0</ele>
      </trkpt>
      <trkpt lat="50.5379" lon="3.16304">
        <ele>29.0</ele>
      </trkpt>
      <trkpt lat="50.53741" lon="3.16352">
        <ele>29.0</ele>
      </trkpt>
      <trkpt lat="50.53691" lon="3.16372">
        <ele>30.0</ele>
      </trkpt>
      <trkpt lat="50.53674" lon="3.16377">
        <ele>31.0</ele>
      </trkpt>
      <trkpt lat="50.53673" lon="3.16401">
        <ele>31.0</ele>
      </trkpt>
      <trkpt lat="50.53666" lon="3.16459">
        <ele>32.0</ele>
      </trkpt>
      <trkpt lat="50.53569" lon="3.16757">
        <ele>34.0</ele>
      </trkpt>
      <trkpt lat="50.53554" lon="3.16835">
        <ele>34.0</ele>
      </trkpt>
      <trkpt lat="50.53552" lon="3.16915">
        <ele>34.0</ele>
      </trkpt>
      <trkpt lat="50.53561" lon="3.16954">
        <ele>34.0</ele>
      </trkpt>
      <trkpt lat="50.53583" lon="3.17123">
        <ele>35.0</ele>
      </trkpt>
      <trkpt lat="50.53598" lon="3.17254">
        <ele>35.0</ele>
      </trkpt>
      <trkpt lat="50.5352" lon="3.17478">
        <ele>37.0</ele>
      </trkpt>
      <trkpt lat="50.53615" lon="3.17681">
        <ele>39.0</ele>
      </trkpt>
      <trkpt lat="50.53762" lon="3.17772">
        <ele>36.0</ele>
      </trkpt>
      <trkpt lat="50.53921" lon="3.17821">
        <ele>34.0</ele>
      </trkpt>
      <trkpt lat="50.54088" lon="3.17932">
        <ele>32.0</ele>
      </trkpt>
      <trkpt lat="50.54089" lon="3.18007">
        <ele>32.0</ele>
      </trkpt>
      <trkpt lat="50.54109" lon="3.181">
        <ele>32.0</ele>
      </trkpt>
      <trkpt lat="50.5414" lon="3.18191">
        <ele>32.0</ele>
      </trkpt>
      <trkpt lat="50.54152" lon="3.18287">
        <ele>32.0</ele>
      </trkpt>
      <trkpt lat="50.54147" lon="3.18358">
        <ele>31.0</ele>
      </trkpt>
      <trkpt lat="50.54248" lon="3.18465">
        <ele>30.0</ele>
      </trkpt>
      <trkpt lat="50.54335" lon="3.18533">
        <ele>30.0</ele>
      </trkpt>
      <trkpt lat="50.54252" lon="3.18661">
        <ele>30.0</ele>
      </trkpt>
      <trkpt lat="50.5415" lon="3.18866">
        <ele>30.0</ele>
      </trkpt>
      <trkpt lat="50.54147" lon="3.18964">
        <ele>30.0</ele>
      </trkpt>
      <trkpt lat="50.54233" lon="3.19003">
        <ele>29.0</ele>
      </trkpt>
      <trkpt lat="50.54307" lon="3.19014">
        <ele>28.0</ele>
      </trkpt>
      <trkpt lat="50.54411" lon="3.19005">
        <ele>28.0</ele>
      </trkpt>
      <trkpt lat="50.54523" lon="3.18998">
        <ele>29.0</ele>
      </trkpt>
      <trkpt lat="50.54615" lon="3.19018">
        <ele>31.0</ele>
      </trkpt>
      <trkpt lat="50.54834" lon="3.19091">
        <ele>31.0</ele>
      </trkpt>
      <trkpt lat="50.54892" lon="3.19126">
        <ele>30.0</ele>
      </trkpt>
      <trkpt lat="50.54921" lon="3.19153">
        <ele>29.0</ele>
      </trkpt>
      <trkpt lat="50.54973" lon="3.1919">
        <ele>29.0</ele>
      </trkpt>
      <trkpt lat="50.55071" lon="3.19224">
        <ele>29.0</ele>
      </trkpt>
      <trkpt lat="50.55168" lon="3.19242">
        <ele>29.0</ele>
      </trkpt>
      <trkpt lat="50.55248" lon="3.19217">
        <ele>29.0</ele>
      </trkpt>
      <trkpt lat="50.55361" lon="3.1918">
        <ele>29.0</ele>
      </trkpt>
      <trkpt lat="50.55471" lon="3.19163">
        <ele>29.0</ele>
      </trkpt>
      <trkpt lat="50.5558" lon="3.19197">
        <ele>31.0</ele>
      </trkpt>
      <trkpt lat="50.55649" lon="3.19244">
        <ele>32.0</ele>
      </trkpt>
      <trkpt lat="50.55735" lon="3.19314">
        <ele>31.0</ele>
      </trkpt>
      <trkpt lat="50.55909" lon="3.19355">
        <ele>29.0</ele>
      </trkpt>
      <trkpt lat="50.55974" lon="3.19323">
        <ele>29.0</ele>
      </trkpt>
      <trkpt lat="50.56022" lon="3.19287">
        <ele>29.0</ele>
      </trkpt>
      <trkpt lat="50.5606" lon="3.19296">
        <ele>29.0</ele>
      </trkpt>
      <trkpt lat="50.56151" lon="3.19342">
        <ele>30.0</ele>
      </trkpt>
      <trkpt lat="50.56185" lon="3.19341">
        <ele>30.0</ele>
      </trkpt>
      <trkpt lat="50.56211" lon="3.19357">
        <ele>29.0</ele>
      </trkpt>
      <trkpt lat="50.56306" lon="3.19407">
        <ele>28.0</ele>
      </trkpt>
      <trkpt lat="50.56351" lon="3.19435">
        <ele>27.0</ele>
      </trkpt>
      <trkpt lat="50.5643" lon="3.19598">
        <ele>28.0</ele>
      </trkpt>
      <trkpt lat="50.56506" lon="3.19748">
        <ele>29.0</ele>
      </trkpt>
      <trkpt lat="50.5661" lon="3.19839">
        <ele>28.0</ele>
      </trkpt>
      <trkpt lat="50.56635" lon="3.19882">
        <ele>28.0</ele>
      </trkpt>
      <trkpt lat="50.56656" lon="3.19949">
        <ele>28.0</ele>
      </trkpt>
      <trkpt lat="50.56661" lon="3.20016">
        <ele>28.0</ele>
      </trkpt>
      <trkpt lat="50.56637" lon="3.20262">
        <ele>28.0</ele>
      </trkpt>
      <trkpt lat="50.56623" lon="3.20416">
        <ele>28.0</ele>
      </trkpt>
      <trkpt lat="50.56622" lon="3.20688">
        <ele>29.0</ele>
      </trkpt>
      <trkpt lat="50.56588" lon="3.20878">
        <ele>30.0</ele>
      </trkpt>
      <trkpt lat="50.56577" lon="3.21088">
        <ele>31.0</ele>
      </trkpt>
      <trkpt lat="50.56573" lon="3.21188">
        <ele>32.0</ele>
      </trkpt>
      <trkpt lat="50.56586" lon="3.21382">
        <ele>34.0</ele>
      </trkpt>
      <trkpt lat="50.56603" lon="3.21416">
        <ele>35.0</ele>
      </trkpt>
      <trkpt lat="50.56657" lon="3.2144">
        <ele>36.0</ele>
      </trkpt>
      <trkpt lat="50.56765" lon="3.21503">
        <ele>37.0</ele>
      </trkpt>
      <trkpt lat="50.56788" lon="3.21603">
        <ele>38.0</ele>
      </trkpt>
      <trkpt lat="50.56787" lon="3.21673">
        <ele>39.0</ele>
      </trkpt>
      <trkpt lat="50.56799" lon="3.21766">
        <ele>40.0</ele>
      </trkpt>
      <trkpt lat="50.56851" lon="3.21983">
        <ele>40.0</ele>
      </trkpt>
      <trkpt lat="50.56865" lon="3.22006">
        <ele>41.0</ele>
      </trkpt>
      <trkpt lat="50.56942" lon="3.22267">
        <ele>42.0</ele>
      </trkpt>
      <trkpt lat="50.57009" lon="3.22365">
        <ele>45.0</ele>
      </trkpt>
      <trkpt lat="50.57047" lon="3.22666">
        <ele>47.0</ele>
      </trkpt>
      <trkpt lat="50.5707" lon="3.23197">
        <ele>43.0</ele>
      </trkpt>
      <trkpt lat="50.57039" lon="3.23619">
        <ele>45.0</ele>
      </trkpt>
      <trkpt lat="50.56744" lon="3.2377">
        <ele>43.0</ele>
      </trkpt>
      <trkpt lat="50.56603" lon="3.23848">
        <ele>42.0</ele>
      </trkpt>
      <trkpt lat="50.56526" lon="3.23923">
        <ele>44.0</ele>
      </trkpt>
      <trkpt lat="50.56482" lon="3.23955">
        <ele>45.0</ele>
      </trkpt>
      <trkpt lat="50.56376" lon="3.2407">
        <ele>50.0</ele>
      </trkpt>
      <trkpt lat="50.56452" lon="3.24211">
        <ele>51.0</ele>
      </trkpt>
      <trkpt lat="50.56551" lon="3.2435">
        <ele>49.0</ele>
      </trkpt>
      <trkpt lat="50.56716" lon="3.24346">
        <ele>46.0</ele>
      </trkpt>
      <trkpt lat="50.57032" lon="3.24232">
        <ele>46.0</ele>
      </trkpt>
      <trkpt lat="50.57236" lon="3.24198">
        <ele>47.0</ele>
      </trkpt>
      <trkpt lat="50.57302" lon="3.24422">
        <ele>48.0</ele>
      </trkpt>
      <trkpt lat="50.57113" lon="3.251">
        <ele>48.0</ele>
      </trkpt>
      <trkpt lat="50.57107" lon="3.25154">
        <ele>48.0</ele>
      </trkpt>
      <trkpt lat="50.57068" lon="3.25318">
        <ele>48.0</ele>
      </trkpt>
      <trkpt lat="50.57012" lon="3.25468">
        <ele>47.0</ele>
      </trkpt>
      <trkpt lat="50.56982" lon="3.25611">
        <ele>46.0</ele>
      </trkpt>
      <trkpt lat="50.56889" lon="3.26016">
        <ele>45.0</ele>
      </trkpt>
      <trkpt lat="50.56838" lon="3.26192">
        <ele>45.0</ele>
      </trkpt>
      <trkpt lat="50.56805" lon="3.2629">
        <ele>45.0</ele>
      </trkpt>
      <trkpt lat="50.56771" lon="3.26418">
        <ele>44.0</ele>
      </trkpt>
      <trkpt lat="50.56759" lon="3.2652">
        <ele>43.0</ele>
      </trkpt>
      <trkpt lat="50.56832" lon="3.26567">
        <ele>43.0</ele>
      </trkpt>
      <trkpt lat="50.56924" lon="3.26561">
        <ele>43.0</ele>
      </trkpt>
      <trkpt lat="50.56954" lon="3.26589">
        <ele>43.0</ele>
      </trkpt>
      <trkpt lat="50.56957" lon="3.26644">
        <ele>43.0</ele>
      </trkpt>
      <trkpt lat="50.56956" lon="3.26767">
        <ele>45.0</ele>
      </trkpt>
      <trkpt lat="50.56982" lon="3.26801">
        <ele>47.0</ele>
      </trkpt>
      <trkpt lat="50.57073" lon="3.26837">
        <ele>51.0</ele>
      </trkpt>
      <trkpt lat="50.57137" lon="3.26883">
        <ele>54.0</ele>
      </trkpt>
      <trkpt lat="50.572" lon="3.26902">
        <ele>55.0</ele>
      </trkpt>
      <trkpt lat="50.57262" lon="3.26893">
        <ele>55.0</ele>
      </trkpt>
      <trkpt lat="50.57332" lon="3.26889">
        <ele>55.0</ele>
      </trkpt>
      <trkpt lat="50.57423" lon="3.26909">
        <ele>54.0</ele>
      </trkpt>
      <trkpt lat="50.57475" lon="3.26948">
        <ele>53.0</ele>
      </trkpt>
      <trkpt lat="50.57534" lon="3.27007">
        <ele>52.0</ele>
      </trkpt>
      <trkpt lat="50.57671" lon="3.27066">
        <ele>50.0</ele>
      </trkpt>
      <trkpt lat="50.57751" lon="3.27085">
        <ele>50.0</ele>
      </trkpt>
      <trkpt lat="50.57799" lon="3.27109">
        <ele>50.0</ele>
      </trkpt>
      <trkpt lat="50.57916" lon="3.27152">
        <ele>49.0</ele>
      </trkpt>
      <trkpt lat="50.57981" lon="3.27145">
        <ele>49.0</ele>
      </trkpt>
      <trkpt lat="50.58063" lon="3.27123">
        <ele>49.0</ele>
      </trkpt>
      <trkpt lat="50.58193" lon="3.27165">
        <ele>49.0</ele>
      </trkpt>
      <trkpt lat="50.58358" lon="3.27213">
        <ele>50.0</ele>
      </trkpt>
      <trkpt lat="50.58587" lon="3.27205">
        <ele>52.0</ele>
      </trkpt>
      <trkpt lat="50.58553" lon="3.26779">
        <ele>52.0</ele>
      </trkpt>
      <trkpt lat="50.58528" lon="3.2649">
        <ele>50.0</ele>
      </trkpt>
      <trkpt lat="50.58356" lon="3.25856">
        <ele>51.0</ele>
      </trkpt>
      <trkpt lat="50.58461" lon="3.25733">
        <ele>51.0</ele>
      </trkpt>
      <trkpt lat="50.58888" lon="3.2554">
        <ele>51.0</ele>
      </trkpt>
      <trkpt lat="50.59022" lon="3.25497">
        <ele>51.0</ele>
      </trkpt>
      <trkpt lat="50.59153" lon="3.25603">
        <ele>50.0</ele>
      </trkpt>
      <trkpt lat="50.5928" lon="3.25509">
        <ele>50.0</ele>
      </trkpt>
      <trkpt lat="50.59354" lon="3.25466">
        <ele>50.0</ele>
      </trkpt>
      <trkpt lat="50.59363" lon="3.25405">
        <ele>50.0</ele>
      </trkpt>
      <trkpt lat="50.59364" lon="3.25309">
        <ele>49.0</ele>
      </trkpt>
      <trkpt lat="50.59437" lon="3.25289">
        <ele>49.0</ele>
      </trkpt>
      <trkpt lat="50.5947" lon="3.25233">
        <ele>48.0</ele>
      </trkpt>
      <trkpt lat="50.59453" lon="3.25105">
        <ele>48.0</ele>
      </trkpt>
      <trkpt lat="50.59398" lon="3.25015">
        <ele>48.0</ele>
      </trkpt>
      <trkpt lat="50.59424" lon="3.24897">
        <ele>47.0</ele>
      </trkpt>
      <trkpt lat="50.59389" lon="3.24772">
        <ele>47.0</ele>
      </trkpt>
      <trkpt lat="50.59438" lon="3.24691">
        <ele>47.0</ele>
      </trkpt>
      <trkpt lat="50.59413" lon="3.24595">
        <ele>48.0</ele>
      </trkpt>
      <trkpt lat="50.59415" lon="3.24388">
        <ele>49.0</ele>
      </trkpt>
      <trkpt lat="50.59519" lon="3.24238">
        <ele>46.0</ele>
      </trkpt>
      <trkpt lat="50.59625" lon="3.23804">
        <ele>45.0</ele>
      </trkpt>
      <trkpt lat="50.5962" lon="3.23583">
        <ele>46.0</ele>
      </trkpt>
      <trkpt lat="50.59482" lon="3.23418">
        <ele>46.0</ele>
      </trkpt>
      <trkpt lat="50.59349" lon="3.23278">
        <ele>46.0</ele>
      </trkpt>
      <trkpt lat="50.59" lon="3.22998">
        <ele>48.0</ele>
      </trkpt>
      <trkpt lat="50.58912" lon="3.2291">
        <ele>49.0</ele>
      </trkpt>
      <trkpt lat="50.59042" lon="3.22894">
        <ele>49.0</ele>
      </trkpt>
      <trkpt lat="50.59085" lon="3.2284">
        <ele>49.0</ele>
      </trkpt>
      <trkpt lat="50.59148" lon="3.22719">
        <ele>48.0</ele>
      </trkpt>
      <trkpt lat="50.59204" lon="3.22335">
        <ele>48.0</ele>
      </trkpt>
      <trkpt lat="50.59259" lon="3.2182">
        <ele>45.0</ele>
      </trkpt>
      <trkpt lat="50.59301" lon="3.21473">
        <ele>44.0</ele>
      </trkpt>
      <trkpt lat="50.59493" lon="3.21229">
        <ele>44.0</ele>
      </trkpt>
      <trkpt lat="50.59583" lon="3.21111">
        <ele>44.0</ele>
      </trkpt>
      <trkpt lat="50.59631" lon="3.20827">
        <ele>44.0</ele>
      </trkpt>
      <trkpt lat="50.59659" lon="3.20608">
        <ele>42.0</ele>
      </trkpt>
      <trkpt lat="50.5967" lon="3.20479">
        <ele>40.0</ele>
      </trkpt>
      <trkpt lat="50.59798" lon="3.20489">
        <ele>38.0</ele>
      </trkpt>
      <trkpt lat="50.59886" lon="3.2051">
        <ele>35.0</ele>
      </trkpt>
      <trkpt lat="50.60006" lon="3.20551">
        <ele>31.0</ele>
      </trkpt>
      <trkpt lat="50.60129" lon="3.20641">
        <ele>32.0</ele>
      </trkpt>
      <trkpt lat="50.60389" lon="3.20688">
        <ele>33.0</ele>
      </trkpt>
      <trkpt lat="50.60516" lon="3.20712">
        <ele>34.0</ele>
      </trkpt>
      <trkpt lat="50.60537" lon="3.20715">
        <ele>34.0</ele>
      </trkpt>
      <trkpt lat="50.60734" lon="3.20766">
        <ele>38.0</ele>
      </trkpt>
      <trkpt lat="50.60908" lon="3.20848">
        <ele>38.0</ele>
      </trkpt>
      <trkpt lat="50.60998" lon="3.20902">
        <ele>36.0</ele>
      </trkpt>
      <trkpt lat="50.61057" lon="3.20911">
        <ele>34.0</ele>
      </trkpt>
      <trkpt lat="50.61233" lon="3.20762">
        <ele>30.0</ele>
      </trkpt>
      <trkpt lat="50.61255" lon="3.20781">
        <ele>30.0</ele>
      </trkpt>
      <trkpt lat="50.61236" lon="3.20777">
        <ele>30.0</ele>
      </trkpt>
      <trkpt lat="50.61242" lon="3.20772">
        <ele>29.0</ele>
      </trkpt>
      <trkpt lat="50.61267" lon="3.20796">
        <ele>29.0</ele>
      </trkpt>
      <trkpt lat="50.61331" lon="3.20916">
        <ele>27.0</ele>
      </trkpt>
      <trkpt lat="50.61371" lon="3.20923">
        <ele>26.0</ele>
      </trkpt>
      <trkpt lat="50.61412" lon="3.20992">
        <ele>25.0</ele>
      </trkpt>
      <trkpt lat="50.61478" lon="3.2103">
        <ele>25.0</ele>
      </trkpt>
      <trkpt lat="50.61559" lon="3.21015">
        <ele>25.0</ele>
      </trkpt>
      <trkpt lat="50.61595" lon="3.21037">
        <ele>25.0</ele>
      </trkpt>
      <trkpt lat="50.61654" lon="3.2111">
        <ele>26.0</ele>
      </trkpt>
      <trkpt lat="50.61738" lon="3.21155">
        <ele>26.0</ele>
      </trkpt>
      <trkpt lat="50.61839" lon="3.21246">
        <ele>25.0</ele>
      </trkpt>
      <trkpt lat="50.61878" lon="3.2136">
        <ele>24.0</ele>
      </trkpt>
      <trkpt lat="50.61947" lon="3.21402">
        <ele>23.0</ele>
      </trkpt>
      <trkpt lat="50.62232" lon="3.21555">
        <ele>24.0</ele>
      </trkpt>
      <trkpt lat="50.62691" lon="3.21809">
        <ele>22.0</ele>
      </trkpt>
      <trkpt lat="50.62827" lon="3.22068">
        <ele>23.0</ele>
      </trkpt>
      <trkpt lat="50.6295" lon="3.21948">
        <ele>25.0</ele>
      </trkpt>
      <trkpt lat="50.63005" lon="3.21871">
        <ele>26.0</ele>
      </trkpt>
      <trkpt lat="50.6312" lon="3.21834">
        <ele>26.0</ele>
      </trkpt>
      <trkpt lat="50.63181" lon="3.2178">
        <ele>26.0</ele>
      </trkpt>
      <trkpt lat="50.63496" lon="3.21562">
        <ele>27.0</ele>
      </trkpt>
      <trkpt lat="50.63724" lon="3.21249">
        <ele>27.0</ele>
      </trkpt>
      <trkpt lat="50.63779" lon="3.21287">
        <ele>27.0</ele>
      </trkpt>
      <trkpt lat="50.6384" lon="3.21105">
        <ele>27.0</ele>
      </trkpt>
      <trkpt lat="50.63915" lon="3.20929">
        <ele>27.0</ele>
      </trkpt>
      <trkpt lat="50.63961" lon="3.2077">
        <ele>27.0</ele>
      </trkpt>
      <trkpt lat="50.6402" lon="3.20618">
        <ele>25.0</ele>
      </trkpt>
      <trkpt lat="50.64122" lon="3.20598">
        <ele>25.0</ele>
      </trkpt>
      <trkpt lat="50.64233" lon="3.20433">
        <ele>27.0</ele>
      </trkpt>
      <trkpt lat="50.64312" lon="3.20516">
        <ele>29.0</ele>
      </trkpt>
      <trkpt lat="50.64384" lon="3.20487">
        <ele>29.0</ele>
      </trkpt>
      <trkpt lat="50.64449" lon="3.20316">
        <ele>28.0</ele>
      </trkpt>
      <trkpt lat="50.64548" lon="3.20224">
        <ele>29.0</ele>
      </trkpt>
      <trkpt lat="50.64553" lon="3.20066">
        <ele>29.0</ele>
      </trkpt>
      <trkpt lat="50.64601" lon="3.19704">
        <ele>26.0</ele>
      </trkpt>
      <trkpt lat="50.64596" lon="3.19618">
        <ele>26.0</ele>
      </trkpt>
      <trkpt lat="50.64573" lon="3.19536">
        <ele>26.0</ele>
      </trkpt>
      <trkpt lat="50.64608" lon="3.19514">
        <ele>26.0</ele>
      </trkpt>
      <trkpt lat="50.64643" lon="3.19547">
        <ele>26.0</ele>
      </trkpt>
      <trkpt lat="50.64668" lon="3.19567">
        <ele>26.0</ele>
      </trkpt>
      <trkpt lat="50.64717" lon="3.19561">
        <ele>26.0</ele>
      </trkpt>
      <trkpt lat="50.64866" lon="3.19684">
        <ele>27.0</ele>
      </trkpt>
      <trkpt lat="50.64933" lon="3.19744">
        <ele>28.0</ele>
      </trkpt>
      <trkpt lat="50.64941" lon="3.19754">
        <ele>28.0</ele>
      </trkpt>
      <trkpt lat="50.64952" lon="3.19742">
        <ele>28.0</ele>
      </trkpt>
      <trkpt lat="50.64957" lon="3.19691">
        <ele>28.0</ele>
      </trkpt>
      <trkpt lat="50.65012" lon="3.19557">
        <ele>29.0</ele>
      </trkpt>
      <trkpt lat="50.65132" lon="3.19332">
        <ele>32.0</ele>
      </trkpt>
      <trkpt lat="50.65234" lon="3.19145">
        <ele>33.0</ele>
      </trkpt>
      <trkpt lat="50.65286" lon="3.1909">
        <ele>34.0</ele>
      </trkpt>
      <trkpt lat="50.65359" lon="3.19057">
        <ele>35.0</ele>
      </trkpt>
      <trkpt lat="50.654" lon="3.19011">
        <ele>35.0</ele>
      </trkpt>
      <trkpt lat="50.65438" lon="3.1892">
        <ele>36.0</ele>
      </trkpt>
      <trkpt lat="50.65505" lon="3.18854">
        <ele>38.0</ele>
      </trkpt>
      <trkpt lat="50.65665" lon="3.18733">
        <ele>43.0</ele>
      </trkpt>
      <trkpt lat="50.6605" lon="3.18449">
        <ele>49.0</ele>
      </trkpt>
      <trkpt lat="50.6625" lon="3.183">
        <ele>50.0</ele>
      </trkpt>
      <trkpt lat="50.66404" lon="3.18195">
        <ele>49.0</ele>
      </trkpt>
      <trkpt lat="50.66447" lon="3.18208">
        <ele>49.0</ele>
      </trkpt>
      <trkpt lat="50.66538" lon="3.18287">
        <ele>49.0</ele>
      </trkpt>
      <trkpt lat="50.66822" lon="3.18548">
        <ele>41.0</ele>
      </trkpt>
      <trkpt lat="50.66965" lon="3.18684">
        <ele>40.0</ele>
      </trkpt>
      <trkpt lat="50.66983" lon="3.18713">
        <ele>40.0</ele>
      </trkpt>
      <trkpt lat="50.66997" lon="3.18725">
        <ele>40.0</ele>
      </trkpt>
      <trkpt lat="50.67088" lon="3.18874">
        <ele>40.0</ele>
      </trkpt>
      <trkpt lat="50.67242" lon="3.19116">
        <ele>40.0</ele>
      </trkpt>
      <trkpt lat="50.67367" lon="3.19315">
        <ele>37.0</ele>
      </trkpt>
      <trkpt lat="50.67528" lon="3.19573">
        <ele>36.0</ele>
      </trkpt>
      <trkpt lat="50.67731" lon="3.19894">
        <ele>37.0</ele>
      </trkpt>
      <trkpt lat="50.67939" lon="3.20212">
        <ele>32.0</ele>
      </trkpt>
      <trkpt lat="50.67899" lon="3.20244">
        <ele>31.0</ele>
      </trkpt>
      <trkpt lat="50.67821" lon="3.20342">
        <ele>31.0</ele>
      </trkpt>
      <trkpt lat="50.67853" lon="3.20452">
        <ele>30.0</ele>
      </trkpt>
      <trkpt lat="50.67775" lon="3.20416">
        <ele>30.0</ele>
      </trkpt>
      <trkpt lat="50.6773" lon="3.20494">
        <ele>29.0</ele>
      </trkpt>
      <trkpt lat="50.67863" lon="3.20647">
        <ele>29.0</ele>
      </trkpt>
      <trkpt lat="50.67868" lon="3.20553">
        <ele>30.0</ele>
      </trkpt>
      <trkpt lat="50.67735" lon="3.2044">
        <ele>32.0</ele>
      </trkpt>
      <trkpt lat="50.67805" lon="3.20628">
        <ele>31.0</ele>
      </trkpt>
    </trkseg>
  </trk>
</gpx>