<?xml version="1.0" encoding="UTF-8"?>
<gpx xmlns="http://www.topografix.com/GPX/1/0" xmlns:xsi="http://www.w3.org/2001/XMLSchema-instance" xsi:schemaLocation="http://www.topografix.com/GPX/1/0 http://www.topografix.com/GPX/1/0/gpx.xsd" version="1.0" creator="GPSBabel - https://www.gpsbabel.org">
  <time>2026-03-10T09:19:41.725000Z</time>
  <bounds minlat="50.75359" maxlat="51.21469" minlon="3.50079" maxlon="4.38191" />
  <trk>
    <trkseg>
      <trkpt lat="51.21469" lon="4.38191">
        <ele>8.0</ele>
      </trkpt>
      <trkpt lat="51.21279" lon="4.37904">
        <ele>-1.0</ele>
      </trkpt>
      <trkpt lat="51.20746" lon="4.36641">
        <ele>2.0</ele>
      </trkpt>
      <trkpt lat="51.20337" lon="4.35396">
        <ele>4.0</ele>
      </trkpt>
      <trkpt lat="51.20199" lon="4.34956">
        <ele>3.0</ele>
      </trkpt>
      <trkpt lat="51.20157" lon="4.34785">
        <ele>5.0</ele>
      </trkpt>
      <trkpt lat="51.20174" lon="4.34521">
        <ele>8.0</ele>
      </trkpt>
      <trkpt lat="51.20214" lon="4.34221">
        <ele>9.0</ele>
      </trkpt>
      <trkpt lat="51.20164" lon="4.33789">
        <ele>10.0</ele>
      </trkpt>
      <trkpt lat="51.19979" lon="4.33367">
        <ele>10.0</ele>
      </trkpt>
      <trkpt lat="51.19834" lon="4.32959">
        <ele>8.0</ele>
      </trkpt>
      <trkpt lat="51.19677" lon="4.32769">
        <ele>7.0</ele>
      </trkpt>
      <trkpt lat="51.19413" lon="4.32461">
        <ele>6.0</ele>
      </trkpt>
      <trkpt lat="51.19268" lon="4.3233">
        <ele>2.0</ele>
      </trkpt>
      <trkpt lat="51.19193" lon="4.32147">
        <ele>3.0</ele>
      </trkpt>
      <trkpt lat="51.19306" lon="4.31932">
        <ele>5.0</ele>
      </trkpt>
      <trkpt lat="51.19256" lon="4.31294">
        <ele>5.0</ele>
      </trkpt>
      <trkpt lat="51.19131" lon="4.30711">
        <ele>7.0</ele>
      </trkpt>
      <trkpt lat="51.18705" lon="4.29803">
        <ele>10.0</ele>
      </trkpt>
      <trkpt lat="51.18501" lon="4.29807">
        <ele>9.0</ele>
      </trkpt>
      <trkpt lat="51.1825" lon="4.29941">
        <ele>8.0</ele>
      </trkpt>
      <trkpt lat="51.18069" lon="4.30162">
        <ele>7.0</ele>
      </trkpt>
      <trkpt lat="51.18044" lon="4.30775">
        <ele>6.0</ele>
      </trkpt>
      <trkpt lat="51.18141" lon="4.31065">
        <ele>7.0</ele>
      </trkpt>
      <trkpt lat="51.18032" lon="4.31581">
        <ele>2.0</ele>
      </trkpt>
      <trkpt lat="51.17926" lon="4.31738">
        <ele>6.0</ele>
      </trkpt>
      <trkpt lat="51.17639" lon="4.31582">
        <ele>8.0</ele>
      </trkpt>
      <trkpt lat="51.17342" lon="4.31424">
        <ele>8.0</ele>
      </trkpt>
      <trkpt lat="51.16974" lon="4.31193">
        <ele>7.0</ele>
      </trkpt>
      <trkpt lat="51.16672" lon="4.31006">
        <ele>7.0</ele>
      </trkpt>
      <trkpt lat="51.165" lon="4.30879">
        <ele>6.0</ele>
      </trkpt>
      <trkpt lat="51.16228" lon="4.30604">
        <ele>4.0</ele>
      </trkpt>
      <trkpt lat="51.1592" lon="4.30335">
        <ele>6.0</ele>
      </trkpt>
      <trkpt lat="51.15773" lon="4.30278">
        <ele>7.0</ele>
      </trkpt>
      <trkpt lat="51.15552" lon="4.30086">
        <ele>7.0</ele>
      </trkpt>
      <trkpt lat="51.15246" lon="4.30005">
        <ele>8.0</ele>
      </trkpt>
      <trkpt lat="51.14888" lon="4.29909">
        <ele>8.0</ele>
      </trkpt>
      <trkpt lat="51.14514" lon="4.29739">
        <ele>7.0</ele>
      </trkpt>
      <trkpt lat="51.14419" lon="4.29702">
        <ele>7.0</ele>
      </trkpt>
      <trkpt lat="51.14099" lon="4.29111">
        <ele>8.0</ele>
      </trkpt>
      <trkpt lat="51.13783" lon="4.28577">
        <ele>9.0</ele>
      </trkpt>
      <trkpt lat="51.13304" lon="4.2775">
        <ele>11.0</ele>
      </trkpt>
      <trkpt lat="51.13144" lon="4.27286">
        <ele>13.0</ele>
      </trkpt>
      <trkpt lat="51.13064" lon="4.26977">
        <ele>18.0</ele>
      </trkpt>
      <trkpt lat="51.12985" lon="4.2675">
        <ele>21.0</ele>
      </trkpt>
      <trkpt lat="51.12969" lon="4.26163">
        <ele>24.0</ele>
      </trkpt>
      <trkpt lat="51.12961" lon="4.25904">
        <ele>25.0</ele>
      </trkpt>
      <trkpt lat="51.1298" lon="4.25432">
        <ele>23.0</ele>
      </trkpt>
      <trkpt lat="51.12876" lon="4.24784">
        <ele>21.0</ele>
      </trkpt>
      <trkpt lat="51.1286" lon="4.2402">
        <ele>16.0</ele>
      </trkpt>
      <trkpt lat="51.12889" lon="4.22923">
        <ele>14.0</ele>
      </trkpt>
      <trkpt lat="51.12905" lon="4.22452">
        <ele>13.0</ele>
      </trkpt>
      <trkpt lat="51.129" lon="4.22117">
        <ele>12.0</ele>
      </trkpt>
      <trkpt lat="51.13071" lon="4.21973">
        <ele>9.0</ele>
      </trkpt>
      <trkpt lat="51.13312" lon="4.21529">
        <ele>12.0</ele>
      </trkpt>
      <trkpt lat="51.13395" lon="4.21136">
        <ele>11.0</ele>
      </trkpt>
      <trkpt lat="51.13458" lon="4.1914">
        <ele>20.0</ele>
      </trkpt>
      <trkpt lat="51.13518" lon="4.18731">
        <ele>23.0</ele>
      </trkpt>
      <trkpt lat="51.13831" lon="4.17355">
        <ele>24.0</ele>
      </trkpt>
      <trkpt lat="51.14104" lon="4.16919">
        <ele>29.0</ele>
      </trkpt>
      <trkpt lat="51.1495" lon="4.1615">
        <ele>25.0</ele>
      </trkpt>
      <trkpt lat="51.15395" lon="4.15675">
        <ele>23.0</ele>
      </trkpt>
      <trkpt lat="51.15599" lon="4.15456">
        <ele>22.0</ele>
      </trkpt>
      <trkpt lat="51.15783" lon="4.15249">
        <ele>22.0</ele>
      </trkpt>
      <trkpt lat="51.15933" lon="4.14988">
        <ele>21.0</ele>
      </trkpt>
      <trkpt lat="51.1617" lon="4.14526">
        <ele>19.0</ele>
      </trkpt>
      <trkpt lat="51.16285" lon="4.14212">
        <ele>20.0</ele>
      </trkpt>
      <trkpt lat="51.1654" lon="4.13815">
        <ele>20.0</ele>
      </trkpt>
      <trkpt lat="51.1668" lon="4.13725">
        <ele>17.0</ele>
      </trkpt>
      <trkpt lat="51.16848" lon="4.13828">
        <ele>16.0</ele>
      </trkpt>
      <trkpt lat="51.16936" lon="4.13866">
        <ele>16.0</ele>
      </trkpt>
      <trkpt lat="51.16947" lon="4.13826">
        <ele>15.0</ele>
      </trkpt>
      <trkpt lat="51.1683" lon="4.13478">
        <ele>14.0</ele>
      </trkpt>
      <trkpt lat="51.16731" lon="4.13194">
        <ele>15.0</ele>
      </trkpt>
      <trkpt lat="51.16358" lon="4.1221">
        <ele>14.0</ele>
      </trkpt>
      <trkpt lat="51.16148" lon="4.11609">
        <ele>14.0</ele>
      </trkpt>
      <trkpt lat="51.16131" lon="4.115">
        <ele>16.0</ele>
      </trkpt>
      <trkpt lat="51.16087" lon="4.11454">
        <ele>16.0</ele>
      </trkpt>
      <trkpt lat="51.15951" lon="4.11045">
        <ele>14.0</ele>
      </trkpt>
      <trkpt lat="51.15908" lon="4.10904">
        <ele>16.0</ele>
      </trkpt>
      <trkpt lat="51.15821" lon="4.10818">
        <ele>16.0</ele>
      </trkpt>
      <trkpt lat="51.15723" lon="4.10816">
        <ele>15.0</ele>
      </trkpt>
      <trkpt lat="51.15644" lon="4.10887">
        <ele>15.0</ele>
      </trkpt>
      <trkpt lat="51.15561" lon="4.11153">
        <ele>15.0</ele>
      </trkpt>
      <trkpt lat="51.1549" lon="4.11305">
        <ele>15.0</ele>
      </trkpt>
      <trkpt lat="51.15453" lon="4.1134">
        <ele>15.0</ele>
      </trkpt>
      <trkpt lat="51.15388" lon="4.114">
        <ele>15.0</ele>
      </trkpt>
      <trkpt lat="51.1519" lon="4.11673">
        <ele>18.0</ele>
      </trkpt>
      <trkpt lat="51.14613" lon="4.12796">
        <ele>23.0</ele>
      </trkpt>
      <trkpt lat="51.14416" lon="4.13174">
        <ele>26.0</ele>
      </trkpt>
      <trkpt lat="51.14299" lon="4.13249">
        <ele>27.0</ele>
      </trkpt>
      <trkpt lat="51.1412" lon="4.13321">
        <ele>27.0</ele>
      </trkpt>
      <trkpt lat="51.13834" lon="4.13393">
        <ele>26.0</ele>
      </trkpt>
      <trkpt lat="51.13598" lon="4.12946">
        <ele>29.0</ele>
      </trkpt>
      <trkpt lat="51.1337" lon="4.12907">
        <ele>31.0</ele>
      </trkpt>
      <trkpt lat="51.13011" lon="4.13148">
        <ele>28.0</ele>
      </trkpt>
      <trkpt lat="51.13012" lon="4.13476">
        <ele>28.0</ele>
      </trkpt>
      <trkpt lat="51.13074" lon="4.13883">
        <ele>28.0</ele>
      </trkpt>
      <trkpt lat="51.13211" lon="4.14474">
        <ele>29.0</ele>
      </trkpt>
      <trkpt lat="51.1307" lon="4.14525">
        <ele>27.0</ele>
      </trkpt>
      <trkpt lat="51.12575" lon="4.14513">
        <ele>27.0</ele>
      </trkpt>
      <trkpt lat="51.11672" lon="4.14342">
        <ele>16.0</ele>
      </trkpt>
      <trkpt lat="51.11296" lon="4.14291">
        <ele>8.0</ele>
      </trkpt>
      <trkpt lat="51.10957" lon="4.14237">
        <ele>2.0</ele>
      </trkpt>
      <trkpt lat="51.10683" lon="4.14344">
        <ele>3.0</ele>
      </trkpt>
      <trkpt lat="51.10132" lon="4.14686">
        <ele>3.0</ele>
      </trkpt>
      <trkpt lat="51.10091" lon="4.14339">
        <ele>3.0</ele>
      </trkpt>
      <trkpt lat="51.10054" lon="4.14033">
        <ele>4.0</ele>
      </trkpt>
      <trkpt lat="51.09998" lon="4.1384">
        <ele>5.0</ele>
      </trkpt>
      <trkpt lat="51.09878" lon="4.13828">
        <ele>5.0</ele>
      </trkpt>
      <trkpt lat="51.09827" lon="4.13751">
        <ele>5.0</ele>
      </trkpt>
      <trkpt lat="51.09618" lon="4.13592">
        <ele>5.0</ele>
      </trkpt>
      <trkpt lat="51.09416" lon="4.13585">
        <ele>6.0</ele>
      </trkpt>
      <trkpt lat="51.09282" lon="4.13654">
        <ele>5.0</ele>
      </trkpt>
      <trkpt lat="51.09081" lon="4.13603">
        <ele>5.0</ele>
      </trkpt>
      <trkpt lat="51.08861" lon="4.13668">
        <ele>4.0</ele>
      </trkpt>
      <trkpt lat="51.0867" lon="4.13775">
        <ele>4.0</ele>
      </trkpt>
      <trkpt lat="51.08537" lon="4.13448">
        <ele>4.0</ele>
      </trkpt>
      <trkpt lat="51.08272" lon="4.13244">
        <ele>1.0</ele>
      </trkpt>
      <trkpt lat="51.08303" lon="4.13562">
        <ele>2.0</ele>
      </trkpt>
      <trkpt lat="51.08319" lon="4.13924">
        <ele>2.0</ele>
      </trkpt>
      <trkpt lat="51.08231" lon="4.14152">
        <ele>2.0</ele>
      </trkpt>
      <trkpt lat="51.07878" lon="4.14505">
        <ele>1.0</ele>
      </trkpt>
      <trkpt lat="51.07526" lon="4.14878">
        <ele>1.0</ele>
      </trkpt>
      <trkpt lat="51.07232" lon="4.15008">
        <ele>1.0</ele>
      </trkpt>
      <trkpt lat="51.07027" lon="4.15074">
        <ele>1.0</ele>
      </trkpt>
      <trkpt lat="51.06868" lon="4.15091">
        <ele>1.0</ele>
      </trkpt>
      <trkpt lat="51.06757" lon="4.15274">
        <ele>1.0</ele>
      </trkpt>
      <trkpt lat="51.06669" lon="4.15527">
        <ele>1.0</ele>
      </trkpt>
      <trkpt lat="51.0652" lon="4.15488">
        <ele>2.0</ele>
      </trkpt>
      <trkpt lat="51.06281" lon="4.15227">
        <ele>3.0</ele>
      </trkpt>
      <trkpt lat="51.06219" lon="4.14954">
        <ele>3.0</ele>
      </trkpt>
      <trkpt lat="51.06231" lon="4.1473">
        <ele>2.0</ele>
      </trkpt>
      <trkpt lat="51.06267" lon="4.14399">
        <ele>1.0</ele>
      </trkpt>
      <trkpt lat="51.06257" lon="4.13712">
      </trkpt>
      <trkpt lat="51.06164" lon="4.13012">
        <ele>1.0</ele>
      </trkpt>
      <trkpt lat="51.06086" lon="4.12505">
        <ele>3.0</ele>
      </trkpt>
      <trkpt lat="51.05985" lon="4.12301">
        <ele>3.0</ele>
      </trkpt>
      <trkpt lat="51.04526" lon="4.12122">
        <ele>4.0</ele>
      </trkpt>
      <trkpt lat="51.0424" lon="4.12223">
        <ele>10.0</ele>
      </trkpt>
      <trkpt lat="51.0384" lon="4.1258">
        <ele>6.0</ele>
      </trkpt>
      <trkpt lat="51.03736" lon="4.12501">
        <ele>4.0</ele>
      </trkpt>
      <trkpt lat="51.03644" lon="4.12111">
        <ele>2.0</ele>
      </trkpt>
      <trkpt lat="51.03583" lon="4.11752">
        <ele>2.0</ele>
      </trkpt>
      <trkpt lat="51.03462" lon="4.11385">
        <ele>1.0</ele>
      </trkpt>
      <trkpt lat="51.03289" lon="4.10849">
        <ele>3.0</ele>
      </trkpt>
      <trkpt lat="51.03272" lon="4.10593">
        <ele>6.0</ele>
      </trkpt>
      <trkpt lat="51.03325" lon="4.10178">
        <ele>2.0</ele>
      </trkpt>
      <trkpt lat="51.03335" lon="4.0987">
        <ele>3.0</ele>
      </trkpt>
      <trkpt lat="51.0336" lon="4.09345">
        <ele>2.0</ele>
      </trkpt>
      <trkpt lat="51.03361" lon="4.08909">
        <ele>4.0</ele>
      </trkpt>
      <trkpt lat="51.03276" lon="4.08477">
        <ele>3.0</ele>
      </trkpt>
      <trkpt lat="51.03204" lon="4.08315">
        <ele>3.0</ele>
      </trkpt>
      <trkpt lat="51.03187" lon="4.08116">
        <ele>4.0</ele>
      </trkpt>
      <trkpt lat="51.03114" lon="4.07618">
        <ele>4.0</ele>
      </trkpt>
      <trkpt lat="51.03091" lon="4.07277">
        <ele>2.0</ele>
      </trkpt>
      <trkpt lat="51.03092" lon="4.07172">
        <ele>2.0</ele>
      </trkpt>
      <trkpt lat="51.03023" lon="4.06809">
        <ele>3.0</ele>
      </trkpt>
      <trkpt lat="51.02875" lon="4.06454">
        <ele>5.0</ele>
      </trkpt>
      <trkpt lat="51.02701" lon="4.06072">
        <ele>6.0</ele>
      </trkpt>
      <trkpt lat="51.02318" lon="4.05068">
        <ele>6.0</ele>
      </trkpt>
      <trkpt lat="51.02053" lon="4.04439">
        <ele>3.0</ele>
      </trkpt>
      <trkpt lat="51.01682" lon="4.0391">
        <ele>3.0</ele>
      </trkpt>
      <trkpt lat="51.01272" lon="4.0317">
        <ele>4.0</ele>
      </trkpt>
      <trkpt lat="51.00883" lon="4.02313">
        <ele>5.0</ele>
      </trkpt>
      <trkpt lat="51.0059" lon="4.0177">
        <ele>7.0</ele>
      </trkpt>
      <trkpt lat="51.00501" lon="4.01507">
        <ele>9.0</ele>
      </trkpt>
      <trkpt lat="51.00411" lon="4.01269">
        <ele>8.0</ele>
      </trkpt>
      <trkpt lat="51.00241" lon="4.00372">
        <ele>8.0</ele>
      </trkpt>
      <trkpt lat="51.00189" lon="3.99249">
        <ele>9.0</ele>
      </trkpt>
      <trkpt lat="51.00179" lon="3.98989">
        <ele>10.0</ele>
      </trkpt>
      <trkpt lat="51.00268" lon="3.98571">
        <ele>6.0</ele>
      </trkpt>
      <trkpt lat="51.00458" lon="3.97873">
        <ele>8.0</ele>
      </trkpt>
      <trkpt lat="51.00622" lon="3.97542">
        <ele>6.0</ele>
      </trkpt>
      <trkpt lat="51.00773" lon="3.97236">
        <ele>6.0</ele>
      </trkpt>
      <trkpt lat="51.00832" lon="3.9688">
        <ele>6.0</ele>
      </trkpt>
      <trkpt lat="51.00803" lon="3.96479">
        <ele>6.0</ele>
      </trkpt>
      <trkpt lat="51.00437" lon="3.96775">
        <ele>6.0</ele>
      </trkpt>
      <trkpt lat="51.00208" lon="3.96913">
        <ele>8.0</ele>
      </trkpt>
      <trkpt lat="51.00065" lon="3.96995">
        <ele>8.0</ele>
      </trkpt>
      <trkpt lat="50.99581" lon="3.97229">
        <ele>9.0</ele>
      </trkpt>
      <trkpt lat="50.98972" lon="3.9739">
        <ele>9.0</ele>
      </trkpt>
      <trkpt lat="50.98186" lon="3.97349">
        <ele>9.0</ele>
      </trkpt>
      <trkpt lat="50.97986" lon="3.97438">
        <ele>11.0</ele>
      </trkpt>
      <trkpt lat="50.97648" lon="3.97499">
        <ele>13.0</ele>
      </trkpt>
      <trkpt lat="50.97193" lon="3.97525">
        <ele>14.0</ele>
      </trkpt>
      <trkpt lat="50.96682" lon="3.97734">
        <ele>23.0</ele>
      </trkpt>
      <trkpt lat="50.96462" lon="3.97722">
        <ele>30.0</ele>
      </trkpt>
      <trkpt lat="50.96265" lon="3.97717">
        <ele>32.0</ele>
      </trkpt>
      <trkpt lat="50.9604" lon="3.97671">
        <ele>32.0</ele>
      </trkpt>
      <trkpt lat="50.95882" lon="3.97639">
        <ele>29.0</ele>
      </trkpt>
      <trkpt lat="50.95497" lon="3.97973">
        <ele>25.0</ele>
      </trkpt>
      <trkpt lat="50.94988" lon="3.98412">
        <ele>15.0</ele>
      </trkpt>
      <trkpt lat="50.94445" lon="3.9902">
        <ele>15.0</ele>
      </trkpt>
      <trkpt lat="50.94269" lon="3.99247">
        <ele>19.0</ele>
      </trkpt>
      <trkpt lat="50.94152" lon="3.99175">
        <ele>22.0</ele>
      </trkpt>
      <trkpt lat="50.93979" lon="3.98744">
        <ele>27.0</ele>
      </trkpt>
      <trkpt lat="50.93807" lon="3.98127">
        <ele>23.0</ele>
      </trkpt>
      <trkpt lat="50.9361" lon="3.98081">
        <ele>27.0</ele>
      </trkpt>
      <trkpt lat="50.93496" lon="3.97826">
        <ele>25.0</ele>
      </trkpt>
      <trkpt lat="50.93383" lon="3.97675">
        <ele>23.0</ele>
      </trkpt>
      <trkpt lat="50.93337" lon="3.97552">
        <ele>24.0</ele>
      </trkpt>
      <trkpt lat="50.93183" lon="3.97533">
        <ele>24.0</ele>
      </trkpt>
      <trkpt lat="50.93009" lon="3.97454">
        <ele>24.0</ele>
      </trkpt>
      <trkpt lat="50.92776" lon="3.97341">
        <ele>25.0</ele>
      </trkpt>
      <trkpt lat="50.92596" lon="3.97316">
        <ele>29.0</ele>
      </trkpt>
      <trkpt lat="50.92463" lon="3.97285">
        <ele>28.0</ele>
      </trkpt>
      <trkpt lat="50.92391" lon="3.97073">
        <ele>26.0</ele>
      </trkpt>
      <trkpt lat="50.92304" lon="3.9687">
        <ele>25.0</ele>
      </trkpt>
      <trkpt lat="50.92231" lon="3.96811">
        <ele>24.0</ele>
      </trkpt>
      <trkpt lat="50.92139" lon="3.96898">
        <ele>27.0</ele>
      </trkpt>
      <trkpt lat="50.9198" lon="3.96941">
        <ele>32.0</ele>
      </trkpt>
      <trkpt lat="50.91886" lon="3.96963">
        <ele>35.0</ele>
      </trkpt>
      <trkpt lat="50.91833" lon="3.97214">
        <ele>44.0</ele>
      </trkpt>
      <trkpt lat="50.91509" lon="3.97206">
        <ele>51.0</ele>
      </trkpt>
      <trkpt lat="50.91261" lon="3.97266">
        <ele>52.0</ele>
      </trkpt>
      <trkpt lat="50.91093" lon="3.9732">
        <ele>46.0</ele>
      </trkpt>
      <trkpt lat="50.90969" lon="3.9732">
        <ele>42.0</ele>
      </trkpt>
      <trkpt lat="50.90897" lon="3.97372">
        <ele>39.0</ele>
      </trkpt>
      <trkpt lat="50.90988" lon="3.97877">
        <ele>45.0</ele>
      </trkpt>
      <trkpt lat="50.9099" lon="3.98316">
        <ele>46.0</ele>
      </trkpt>
      <trkpt lat="50.91015" lon="3.98692">
        <ele>42.0</ele>
      </trkpt>
      <trkpt lat="50.91019" lon="3.98974">
        <ele>41.0</ele>
      </trkpt>
      <trkpt lat="50.9098" lon="3.99198">
        <ele>40.0</ele>
      </trkpt>
      <trkpt lat="50.90868" lon="3.99596">
        <ele>44.0</ele>
      </trkpt>
      <trkpt lat="50.90611" lon="3.9999">
        <ele>43.0</ele>
      </trkpt>
      <trkpt lat="50.90468" lon="4.00295">
        <ele>40.0</ele>
      </trkpt>
      <trkpt lat="50.90378" lon="4.00435">
        <ele>36.0</ele>
      </trkpt>
      <trkpt lat="50.90173" lon="4.0069">
        <ele>34.0</ele>
      </trkpt>
      <trkpt lat="50.90171" lon="4.00884">
        <ele>32.0</ele>
      </trkpt>
      <trkpt lat="50.90064" lon="4.01552">
        <ele>33.0</ele>
      </trkpt>
      <trkpt lat="50.899" lon="4.02294">
        <ele>23.0</ele>
      </trkpt>
      <trkpt lat="50.89821" lon="4.02416">
        <ele>21.0</ele>
      </trkpt>
      <trkpt lat="50.89565" lon="4.02656">
        <ele>21.0</ele>
      </trkpt>
      <trkpt lat="50.89469" lon="4.0251">
        <ele>21.0</ele>
      </trkpt>
      <trkpt lat="50.89351" lon="4.02322">
        <ele>25.0</ele>
      </trkpt>
      <trkpt lat="50.88798" lon="4.02211">
        <ele>28.0</ele>
      </trkpt>
      <trkpt lat="50.88623" lon="4.02099">
        <ele>24.0</ele>
      </trkpt>
      <trkpt lat="50.88317" lon="4.02184">
        <ele>24.0</ele>
      </trkpt>
      <trkpt lat="50.88057" lon="4.02161">
        <ele>26.0</ele>
      </trkpt>
      <trkpt lat="50.87923" lon="4.01962">
        <ele>26.0</ele>
      </trkpt>
      <trkpt lat="50.87455" lon="4.01948">
        <ele>33.0</ele>
      </trkpt>
      <trkpt lat="50.87322" lon="4.01837">
        <ele>33.0</ele>
      </trkpt>
      <trkpt lat="50.87135" lon="4.01828">
        <ele>28.0</ele>
      </trkpt>
      <trkpt lat="50.87071" lon="4.01774">
        <ele>24.0</ele>
      </trkpt>
      <trkpt lat="50.87013" lon="4.0165">
        <ele>23.0</ele>
      </trkpt>
      <trkpt lat="50.86932" lon="4.01278">
        <ele>22.0</ele>
      </trkpt>
      <trkpt lat="50.87005" lon="4.00663">
        <ele>23.0</ele>
      </trkpt>
      <trkpt lat="50.87334" lon="4.00366">
        <ele>27.0</ele>
      </trkpt>
      <trkpt lat="50.87406" lon="4.00253">
        <ele>31.0</ele>
      </trkpt>
      <trkpt lat="50.87492" lon="3.99508">
        <ele>41.0</ele>
      </trkpt>
      <trkpt lat="50.87495" lon="3.98964">
        <ele>51.0</ele>
      </trkpt>
      <trkpt lat="50.87501" lon="3.98644">
        <ele>58.0</ele>
      </trkpt>
      <trkpt lat="50.87581" lon="3.98057">
        <ele>62.0</ele>
      </trkpt>
      <trkpt lat="50.876" lon="3.97851">
        <ele>66.0</ele>
      </trkpt>
      <trkpt lat="50.87742" lon="3.97684">
        <ele>65.0</ele>
      </trkpt>
      <trkpt lat="50.87902" lon="3.97884">
        <ele>66.0</ele>
      </trkpt>
      <trkpt lat="50.88125" lon="3.9827">
        <ele>64.0</ele>
      </trkpt>
      <trkpt lat="50.88266" lon="3.98622">
        <ele>57.0</ele>
      </trkpt>
      <trkpt lat="50.88406" lon="3.98995">
        <ele>47.0</ele>
      </trkpt>
      <trkpt lat="50.88437" lon="3.99278">
        <ele>41.0</ele>
      </trkpt>
      <trkpt lat="50.8864" lon="3.99359">
        <ele>38.0</ele>
      </trkpt>
      <trkpt lat="50.88715" lon="3.99217">
        <ele>38.0</ele>
      </trkpt>
      <trkpt lat="50.88968" lon="3.99074">
        <ele>47.0</ele>
      </trkpt>
      <trkpt lat="50.88898" lon="3.98721">
        <ele>53.0</ele>
      </trkpt>
      <trkpt lat="50.88756" lon="3.98538">
        <ele>56.0</ele>
      </trkpt>
      <trkpt lat="50.88607" lon="3.98074">
        <ele>62.0</ele>
      </trkpt>
      <trkpt lat="50.88421" lon="3.97724">
        <ele>67.0</ele>
      </trkpt>
      <trkpt lat="50.87944" lon="3.97394">
        <ele>67.0</ele>
      </trkpt>
      <trkpt lat="50.87328" lon="3.96683">
        <ele>68.0</ele>
      </trkpt>
      <trkpt lat="50.87191" lon="3.96384">
        <ele>68.0</ele>
      </trkpt>
      <trkpt lat="50.87098" lon="3.96048">
        <ele>72.0</ele>
      </trkpt>
      <trkpt lat="50.87504" lon="3.95833">
        <ele>68.0</ele>
      </trkpt>
      <trkpt lat="50.87876" lon="3.95615">
        <ele>58.0</ele>
      </trkpt>
      <trkpt lat="50.88166" lon="3.95425">
        <ele>58.0</ele>
      </trkpt>
      <trkpt lat="50.8831" lon="3.9528">
        <ele>53.0</ele>
      </trkpt>
      <trkpt lat="50.88484" lon="3.95066">
        <ele>44.0</ele>
      </trkpt>
      <trkpt lat="50.88643" lon="3.9498">
        <ele>35.0</ele>
      </trkpt>
      <trkpt lat="50.88796" lon="3.94687">
        <ele>34.0</ele>
      </trkpt>
      <trkpt lat="50.88998" lon="3.9446">
        <ele>40.0</ele>
      </trkpt>
      <trkpt lat="50.89092" lon="3.94045">
        <ele>49.0</ele>
      </trkpt>
      <trkpt lat="50.89089" lon="3.9399">
        <ele>50.0</ele>
      </trkpt>
      <trkpt lat="50.89131" lon="3.93874">
        <ele>52.0</ele>
      </trkpt>
      <trkpt lat="50.89224" lon="3.93788">
        <ele>55.0</ele>
      </trkpt>
      <trkpt lat="50.8931" lon="3.93547">
        <ele>58.0</ele>
      </trkpt>
      <trkpt lat="50.89521" lon="3.93201">
        <ele>63.0</ele>
      </trkpt>
      <trkpt lat="50.89597" lon="3.93029">
        <ele>61.0</ele>
      </trkpt>
      <trkpt lat="50.89681" lon="3.92414">
        <ele>64.0</ele>
      </trkpt>
      <trkpt lat="50.89496" lon="3.91603">
        <ele>66.0</ele>
      </trkpt>
      <trkpt lat="50.89372" lon="3.91374">
        <ele>62.0</ele>
      </trkpt>
      <trkpt lat="50.89194" lon="3.90959">
        <ele>60.0</ele>
      </trkpt>
      <trkpt lat="50.89035" lon="3.90518">
        <ele>59.0</ele>
      </trkpt>
      <trkpt lat="50.89009" lon="3.90298">
        <ele>59.0</ele>
      </trkpt>
      <trkpt lat="50.88748" lon="3.8976">
        <ele>64.0</ele>
      </trkpt>
      <trkpt lat="50.88513" lon="3.89574">
        <ele>61.0</ele>
      </trkpt>
      <trkpt lat="50.88449" lon="3.89374">
        <ele>63.0</ele>
      </trkpt>
      <trkpt lat="50.88507" lon="3.89247">
        <ele>63.0</ele>
      </trkpt>
      <trkpt lat="50.88678" lon="3.89153">
        <ele>59.0</ele>
      </trkpt>
      <trkpt lat="50.88484" lon="3.88783">
        <ele>61.0</ele>
      </trkpt>
      <trkpt lat="50.88361" lon="3.88397">
        <ele>65.0</ele>
      </trkpt>
      <trkpt lat="50.88273" lon="3.88099">
        <ele>66.0</ele>
      </trkpt>
      <trkpt lat="50.88086" lon="3.87618">
        <ele>70.0</ele>
      </trkpt>
      <trkpt lat="50.87955" lon="3.87265">
        <ele>71.0</ele>
      </trkpt>
      <trkpt lat="50.87842" lon="3.86826">
        <ele>75.0</ele>
      </trkpt>
      <trkpt lat="50.87689" lon="3.85515">
        <ele>80.0</ele>
      </trkpt>
      <trkpt lat="50.8767" lon="3.85165">
        <ele>82.0</ele>
      </trkpt>
      <trkpt lat="50.87558" lon="3.84529">
        <ele>81.0</ele>
      </trkpt>
      <trkpt lat="50.87447" lon="3.83903">
        <ele>75.0</ele>
      </trkpt>
      <trkpt lat="50.87352" lon="3.83485">
        <ele>81.0</ele>
      </trkpt>
      <trkpt lat="50.87253" lon="3.83187">
        <ele>82.0</ele>
      </trkpt>
      <trkpt lat="50.87334" lon="3.82985">
        <ele>79.0</ele>
      </trkpt>
      <trkpt lat="50.87362" lon="3.82777">
        <ele>78.0</ele>
      </trkpt>
      <trkpt lat="50.87289" lon="3.82526">
        <ele>72.0</ele>
      </trkpt>
      <trkpt lat="50.87194" lon="3.82245">
        <ele>61.0</ele>
      </trkpt>
      <trkpt lat="50.87253" lon="3.82006">
        <ele>58.0</ele>
      </trkpt>
      <trkpt lat="50.87209" lon="3.81669">
        <ele>58.0</ele>
      </trkpt>
      <trkpt lat="50.87077" lon="3.81583">
        <ele>60.0</ele>
      </trkpt>
      <trkpt lat="50.86891" lon="3.81557">
        <ele>60.0</ele>
      </trkpt>
      <trkpt lat="50.8669" lon="3.81518">
        <ele>62.0</ele>
      </trkpt>
      <trkpt lat="50.86589" lon="3.81649">
        <ele>67.0</ele>
      </trkpt>
      <trkpt lat="50.86518" lon="3.81402">
        <ele>68.0</ele>
      </trkpt>
      <trkpt lat="50.86608" lon="3.81322">
        <ele>66.0</ele>
      </trkpt>
      <trkpt lat="50.8677" lon="3.81374">
        <ele>64.0</ele>
      </trkpt>
      <trkpt lat="50.86855" lon="3.81391">
        <ele>63.0</ele>
      </trkpt>
      <trkpt lat="50.86933" lon="3.81154">
        <ele>63.0</ele>
      </trkpt>
      <trkpt lat="50.87003" lon="3.81048">
        <ele>62.0</ele>
      </trkpt>
      <trkpt lat="50.87248" lon="3.80993">
        <ele>54.0</ele>
      </trkpt>
      <trkpt lat="50.87334" lon="3.80999">
        <ele>51.0</ele>
      </trkpt>
      <trkpt lat="50.87546" lon="3.80938">
        <ele>50.0</ele>
      </trkpt>
      <trkpt lat="50.88076" lon="3.80752">
        <ele>56.0</ele>
      </trkpt>
      <trkpt lat="50.88586" lon="3.80854">
        <ele>47.0</ele>
      </trkpt>
      <trkpt lat="50.89029" lon="3.81037">
        <ele>46.0</ele>
      </trkpt>
      <trkpt lat="50.88992" lon="3.80923">
        <ele>47.0</ele>
      </trkpt>
      <trkpt lat="50.88852" lon="3.80722">
        <ele>49.0</ele>
      </trkpt>
      <trkpt lat="50.88746" lon="3.80429">
        <ele>45.0</ele>
      </trkpt>
      <trkpt lat="50.88779" lon="3.80312">
        <ele>44.0</ele>
      </trkpt>
      <trkpt lat="50.8882" lon="3.80165">
        <ele>44.0</ele>
      </trkpt>
      <trkpt lat="50.8875" lon="3.79958">
        <ele>46.0</ele>
      </trkpt>
      <trkpt lat="50.88632" lon="3.79849">
        <ele>46.0</ele>
      </trkpt>
      <trkpt lat="50.88548" lon="3.79524">
        <ele>49.0</ele>
      </trkpt>
      <trkpt lat="50.88409" lon="3.79033">
        <ele>55.0</ele>
      </trkpt>
      <trkpt lat="50.88322" lon="3.78639">
        <ele>50.0</ele>
      </trkpt>
      <trkpt lat="50.88213" lon="3.78295">
        <ele>45.0</ele>
      </trkpt>
      <trkpt lat="50.88319" lon="3.7817">
        <ele>43.0</ele>
      </trkpt>
      <trkpt lat="50.88357" lon="3.78034">
        <ele>42.0</ele>
      </trkpt>
      <trkpt lat="50.88245" lon="3.7772">
        <ele>45.0</ele>
      </trkpt>
      <trkpt lat="50.88142" lon="3.77457">
        <ele>45.0</ele>
      </trkpt>
      <trkpt lat="50.88021" lon="3.77177">
        <ele>41.0</ele>
      </trkpt>
      <trkpt lat="50.87765" lon="3.76526">
        <ele>34.0</ele>
      </trkpt>
      <trkpt lat="50.87687" lon="3.76269">
        <ele>34.0</ele>
      </trkpt>
      <trkpt lat="50.87755" lon="3.76148">
        <ele>38.0</ele>
      </trkpt>
      <trkpt lat="50.87958" lon="3.7608">
        <ele>45.0</ele>
      </trkpt>
      <trkpt lat="50.88144" lon="3.75987">
        <ele>43.0</ele>
      </trkpt>
      <trkpt lat="50.88199" lon="3.76008">
        <ele>39.0</ele>
      </trkpt>
      <trkpt lat="50.88261" lon="3.76039">
        <ele>35.0</ele>
      </trkpt>
      <trkpt lat="50.88364" lon="3.76098">
        <ele>31.0</ele>
      </trkpt>
      <trkpt lat="50.88461" lon="3.7622">
        <ele>29.0</ele>
      </trkpt>
      <trkpt lat="50.88561" lon="3.76348">
        <ele>36.0</ele>
      </trkpt>
      <trkpt lat="50.88606" lon="3.76056">
        <ele>39.0</ele>
      </trkpt>
      <trkpt lat="50.88737" lon="3.75645">
        <ele>38.0</ele>
      </trkpt>
      <trkpt lat="50.88841" lon="3.75428">
        <ele>43.0</ele>
      </trkpt>
      <trkpt lat="50.88871" lon="3.75196">
        <ele>45.0</ele>
      </trkpt>
      <trkpt lat="50.88912" lon="3.7493">
        <ele>50.0</ele>
      </trkpt>
      <trkpt lat="50.8927" lon="3.73923">
        <ele>51.0</ele>
      </trkpt>
      <trkpt lat="50.89383" lon="3.73623">
        <ele>49.0</ele>
      </trkpt>
      <trkpt lat="50.89402" lon="3.73479">
        <ele>49.0</ele>
      </trkpt>
      <trkpt lat="50.89208" lon="3.72081">
        <ele>47.0</ele>
      </trkpt>
      <trkpt lat="50.88994" lon="3.7066">
        <ele>40.0</ele>
      </trkpt>
      <trkpt lat="50.88772" lon="3.7025">
        <ele>31.0</ele>
      </trkpt>
      <trkpt lat="50.88563" lon="3.69231">
        <ele>14.0</ele>
      </trkpt>
      <trkpt lat="50.88522" lon="3.68774">
        <ele>10.0</ele>
      </trkpt>
      <trkpt lat="50.88469" lon="3.68539">
        <ele>10.0</ele>
      </trkpt>
      <trkpt lat="50.88401" lon="3.68339">
        <ele>11.0</ele>
      </trkpt>
      <trkpt lat="50.8764" lon="3.66891">
        <ele>10.0</ele>
      </trkpt>
      <trkpt lat="50.86868" lon="3.65316">
        <ele>12.0</ele>
      </trkpt>
      <trkpt lat="50.86235" lon="3.63714">
        <ele>10.0</ele>
      </trkpt>
      <trkpt lat="50.85995" lon="3.63422">
        <ele>10.0</ele>
      </trkpt>
      <trkpt lat="50.85861" lon="3.63202">
        <ele>10.0</ele>
      </trkpt>
      <trkpt lat="50.85883" lon="3.62843">
        <ele>11.0</ele>
      </trkpt>
      <trkpt lat="50.85809" lon="3.62348">
        <ele>12.0</ele>
      </trkpt>
      <trkpt lat="50.85556" lon="3.62282">
        <ele>7.0</ele>
      </trkpt>
      <trkpt lat="50.85173" lon="3.61956">
        <ele>6.0</ele>
      </trkpt>
      <trkpt lat="50.85065" lon="3.61769">
        <ele>7.0</ele>
      </trkpt>
      <trkpt lat="50.84768" lon="3.61472">
        <ele>9.0</ele>
      </trkpt>
      <trkpt lat="50.84546" lon="3.6118">
        <ele>10.0</ele>
      </trkpt>
      <trkpt lat="50.84559" lon="3.61001">
        <ele>11.0</ele>
      </trkpt>
      <trkpt lat="50.84497" lon="3.60741">
        <ele>12.0</ele>
      </trkpt>
      <trkpt lat="50.8454" lon="3.60621">
        <ele>12.0</ele>
      </trkpt>
      <trkpt lat="50.84623" lon="3.60435">
        <ele>12.0</ele>
      </trkpt>
      <trkpt lat="50.84601" lon="3.60252">
        <ele>13.0</ele>
      </trkpt>
      <trkpt lat="50.84523" lon="3.60232">
        <ele>15.0</ele>
      </trkpt>
      <trkpt lat="50.84277" lon="3.604">
        <ele>13.0</ele>
      </trkpt>
      <trkpt lat="50.84224" lon="3.60309">
        <ele>12.0</ele>
      </trkpt>
      <trkpt lat="50.84206" lon="3.60202">
        <ele>11.0</ele>
      </trkpt>
      <trkpt lat="50.84194" lon="3.60152">
        <ele>11.0</ele>
      </trkpt>
      <trkpt lat="50.8418" lon="3.60188">
        <ele>11.0</ele>
      </trkpt>
      <trkpt lat="50.84016" lon="3.60282">
        <ele>10.0</ele>
      </trkpt>
      <trkpt lat="50.83815" lon="3.60417">
        <ele>13.0</ele>
      </trkpt>
      <trkpt lat="50.83753" lon="3.60706">
        <ele>13.0</ele>
      </trkpt>
      <trkpt lat="50.83675" lon="3.60698">
        <ele>12.0</ele>
      </trkpt>
      <trkpt lat="50.83532" lon="3.6068">
        <ele>12.0</ele>
      </trkpt>
      <trkpt lat="50.834" lon="3.60596">
        <ele>15.0</ele>
      </trkpt>
      <trkpt lat="50.83343" lon="3.604">
        <ele>15.0</ele>
      </trkpt>
      <trkpt lat="50.83305" lon="3.60204">
        <ele>13.0</ele>
      </trkpt>
      <trkpt lat="50.83275" lon="3.60128">
        <ele>11.0</ele>
      </trkpt>
      <trkpt lat="50.83072" lon="3.59674">
        <ele>11.0</ele>
      </trkpt>
      <trkpt lat="50.82706" lon="3.58956">
        <ele>10.0</ele>
      </trkpt>
      <trkpt lat="50.81865" lon="3.57461">
        <ele>10.0</ele>
      </trkpt>
      <trkpt lat="50.81442" lon="3.56576">
        <ele>12.0</ele>
      </trkpt>
      <trkpt lat="50.81192" lon="3.55943">
        <ele>15.0</ele>
      </trkpt>
      <trkpt lat="50.80717" lon="3.54891">
        <ele>14.0</ele>
      </trkpt>
      <trkpt lat="50.80307" lon="3.53859">
        <ele>14.0</ele>
      </trkpt>
      <trkpt lat="50.79747" lon="3.52631">
        <ele>15.0</ele>
      </trkpt>
      <trkpt lat="50.79473" lon="3.51893">
        <ele>14.0</ele>
      </trkpt>
      <trkpt lat="50.79329" lon="3.51099">
        <ele>11.0</ele>
      </trkpt>
      <trkpt lat="50.7923" lon="3.50749">
        <ele>11.0</ele>
      </trkpt>
      <trkpt lat="50.79237" lon="3.50679">
        <ele>11.0</ele>
      </trkpt>
      <trkpt lat="50.79207" lon="3.50663">
        <ele>11.0</ele>
      </trkpt>
      <trkpt lat="50.79166" lon="3.5071">
        <ele>11.0</ele>
      </trkpt>
      <trkpt lat="50.79081" lon="3.50817">
        <ele>12.0</ele>
      </trkpt>
      <trkpt lat="50.78981" lon="3.50996">
        <ele>16.0</ele>
      </trkpt>
      <trkpt lat="50.78838" lon="3.51118">
        <ele>14.0</ele>
      </trkpt>
      <trkpt lat="50.78902" lon="3.51295">
        <ele>14.0</ele>
      </trkpt>
      <trkpt lat="50.78991" lon="3.51516">
        <ele>14.0</ele>
      </trkpt>
      <trkpt lat="50.79105" lon="3.51836">
        <ele>14.0</ele>
      </trkpt>
      <trkpt lat="50.79063" lon="3.52226">
        <ele>14.0</ele>
      </trkpt>
      <trkpt lat="50.78994" lon="3.52439">
        <ele>12.0</ele>
      </trkpt>
      <trkpt lat="50.78908" lon="3.52417">
        <ele>12.0</ele>
      </trkpt>
      <trkpt lat="50.78825" lon="3.52435">
        <ele>11.0</ele>
      </trkpt>
      <trkpt lat="50.78668" lon="3.52417">
        <ele>11.0</ele>
      </trkpt>
      <trkpt lat="50.78573" lon="3.52483">
        <ele>12.0</ele>
      </trkpt>
      <trkpt lat="50.78441" lon="3.5252">
        <ele>17.0</ele>
      </trkpt>
      <trkpt lat="50.78349" lon="3.52531">
        <ele>21.0</ele>
      </trkpt>
      <trkpt lat="50.78272" lon="3.52611">
        <ele>28.0</ele>
      </trkpt>
      <trkpt lat="50.78228" lon="3.52621">
        <ele>31.0</ele>
      </trkpt>
      <trkpt lat="50.78056" lon="3.5257">
        <ele>43.0</ele>
      </trkpt>
      <trkpt lat="50.77993" lon="3.5258">
        <ele>51.0</ele>
      </trkpt>
      <trkpt lat="50.77895" lon="3.52552">
        <ele>62.0</ele>
      </trkpt>
      <trkpt lat="50.77797" lon="3.52514">
        <ele>72.0</ele>
      </trkpt>
      <trkpt lat="50.77688" lon="3.52536">
        <ele>79.0</ele>
      </trkpt>
      <trkpt lat="50.77538" lon="3.52602">
        <ele>81.0</ele>
      </trkpt>
      <trkpt lat="50.77459" lon="3.52661">
        <ele>82.0</ele>
      </trkpt>
      <trkpt lat="50.77369" lon="3.52748">
        <ele>83.0</ele>
      </trkpt>
      <trkpt lat="50.77269" lon="3.52782">
        <ele>85.0</ele>
      </trkpt>
      <trkpt lat="50.7712" lon="3.52889">
        <ele>93.0</ele>
      </trkpt>
      <trkpt lat="50.77018" lon="3.52981">
        <ele>99.0</ele>
      </trkpt>
      <trkpt lat="50.76917" lon="3.53092">
        <ele>103.0</ele>
      </trkpt>
      <trkpt lat="50.76866" lon="3.52997">
        <ele>104.0</ele>
      </trkpt>
      <trkpt lat="50.76729" lon="3.5303">
        <ele>106.0</ele>
      </trkpt>
      <trkpt lat="50.76549" lon="3.53166">
        <ele>112.0</ele>
      </trkpt>
      <trkpt lat="50.76456" lon="3.53732">
        <ele>123.0</ele>
      </trkpt>
      <trkpt lat="50.7654" lon="3.54281">
        <ele>121.0</ele>
      </trkpt>
      <trkpt lat="50.76487" lon="3.54919">
        <ele>109.0</ele>
      </trkpt>
      <trkpt lat="50.76345" lon="3.55586">
        <ele>116.0</ele>
      </trkpt>
      <trkpt lat="50.76312" lon="3.55775">
        <ele>117.0</ele>
      </trkpt>
      <trkpt lat="50.76306" lon="3.56046">
        <ele>116.0</ele>
      </trkpt>
      <trkpt lat="50.76272" lon="3.56422">
        <ele>120.0</ele>
      </trkpt>
      <trkpt lat="50.76221" lon="3.5659">
        <ele>126.0</ele>
      </trkpt>
      <trkpt lat="50.76134" lon="3.5672">
        <ele>130.0</ele>
      </trkpt>
      <trkpt lat="50.76112" lon="3.56918">
        <ele>142.0</ele>
      </trkpt>
      <trkpt lat="50.76026" lon="3.57113">
        <ele>156.0</ele>
      </trkpt>
      <trkpt lat="50.75938" lon="3.57519">
        <ele>155.0</ele>
      </trkpt>
      <trkpt lat="50.76011" lon="3.57681">
        <ele>140.0</ele>
      </trkpt>
      <trkpt lat="50.76163" lon="3.57806">
        <ele>121.0</ele>
      </trkpt>
      <trkpt lat="50.7647" lon="3.5851">
        <ele>117.0</ele>
      </trkpt>
      <trkpt lat="50.76498" lon="3.58719">
        <ele>120.0</ele>
      </trkpt>
      <trkpt lat="50.76737" lon="3.58922">
        <ele>119.0</ele>
      </trkpt>
      <trkpt lat="50.77076" lon="3.59047">
        <ele>109.0</ele>
      </trkpt>
      <trkpt lat="50.77366" lon="3.58975">
        <ele>104.0</ele>
      </trkpt>
      <trkpt lat="50.77588" lon="3.58962">
        <ele>97.0</ele>
      </trkpt>
      <trkpt lat="50.77912" lon="3.59024">
        <ele>88.0</ele>
      </trkpt>
      <trkpt lat="50.78293" lon="3.58976">
        <ele>90.0</ele>
      </trkpt>
      <trkpt lat="50.7948" lon="3.59117">
        <ele>92.0</ele>
      </trkpt>
      <trkpt lat="50.79875" lon="3.59184">
        <ele>82.0</ele>
      </trkpt>
      <trkpt lat="50.80352" lon="3.59512">
        <ele>64.0</ele>
      </trkpt>
      <trkpt lat="50.81179" lon="3.6024">
        <ele>48.0</ele>
      </trkpt>
      <trkpt lat="50.8147" lon="3.60368">
        <ele>44.0</ele>
      </trkpt>
      <trkpt lat="50.82334" lon="3.60389">
        <ele>16.0</ele>
      </trkpt>
      <trkpt lat="50.82279" lon="3.60684">
        <ele>14.0</ele>
      </trkpt>
      <trkpt lat="50.82143" lon="3.61113">
        <ele>16.0</ele>
      </trkpt>
      <trkpt lat="50.82105" lon="3.61322">
        <ele>17.0</ele>
      </trkpt>
      <trkpt lat="50.82082" lon="3.61519">
        <ele>18.0</ele>
      </trkpt>
      <trkpt lat="50.81913" lon="3.61751">
        <ele>21.0</ele>
      </trkpt>
      <trkpt lat="50.81744" lon="3.61938">
        <ele>21.0</ele>
      </trkpt>
      <trkpt lat="50.81699" lon="3.62059">
        <ele>21.0</ele>
      </trkpt>
      <trkpt lat="50.81694" lon="3.62299">
        <ele>21.0</ele>
      </trkpt>
      <trkpt lat="50.81586" lon="3.62771">
        <ele>21.0</ele>
      </trkpt>
      <trkpt lat="50.81674" lon="3.62987">
        <ele>20.0</ele>
      </trkpt>
      <trkpt lat="50.8164" lon="3.63147">
        <ele>19.0</ele>
      </trkpt>
      <trkpt lat="50.81713" lon="3.63414">
        <ele>19.0</ele>
      </trkpt>
      <trkpt lat="50.81769" lon="3.63651">
        <ele>19.0</ele>
      </trkpt>
      <trkpt lat="50.81831" lon="3.6396">
        <ele>21.0</ele>
      </trkpt>
      <trkpt lat="50.81924" lon="3.64058">
        <ele>20.0</ele>
      </trkpt>
      <trkpt lat="50.82348" lon="3.64036">
        <ele>49.0</ele>
      </trkpt>
      <trkpt lat="50.82487" lon="3.63827">
        <ele>68.0</ele>
      </trkpt>
      <trkpt lat="50.82758" lon="3.63678">
        <ele>80.0</ele>
      </trkpt>
      <trkpt lat="50.82861" lon="3.63523">
        <ele>81.0</ele>
      </trkpt>
      <trkpt lat="50.8295" lon="3.64374">
        <ele>83.0</ele>
      </trkpt>
      <trkpt lat="50.83075" lon="3.64588">
        <ele>87.0</ele>
      </trkpt>
      <trkpt lat="50.83083" lon="3.65065">
        <ele>92.0</ele>
      </trkpt>
      <trkpt lat="50.83437" lon="3.65204">
        <ele>84.0</ele>
      </trkpt>
      <trkpt lat="50.8367" lon="3.65007">
        <ele>79.0</ele>
      </trkpt>
      <trkpt lat="50.83848" lon="3.64397">
        <ele>70.0</ele>
      </trkpt>
      <trkpt lat="50.83935" lon="3.64279">
        <ele>63.0</ele>
      </trkpt>
      <trkpt lat="50.83976" lon="3.63976">
        <ele>50.0</ele>
      </trkpt>
      <trkpt lat="50.84073" lon="3.63659">
        <ele>33.0</ele>
      </trkpt>
      <trkpt lat="50.84165" lon="3.63668">
        <ele>30.0</ele>
      </trkpt>
      <trkpt lat="50.84219" lon="3.63969">
        <ele>43.0</ele>
      </trkpt>
      <trkpt lat="50.84315" lon="3.64407">
        <ele>63.0</ele>
      </trkpt>
      <trkpt lat="50.84404" lon="3.64509">
        <ele>70.0</ele>
      </trkpt>
      <trkpt lat="50.84535" lon="3.64279">
        <ele>67.0</ele>
      </trkpt>
      <trkpt lat="50.84569" lon="3.64283">
        <ele>66.0</ele>
      </trkpt>
      <trkpt lat="50.84668" lon="3.64336">
        <ele>65.0</ele>
      </trkpt>
      <trkpt lat="50.84767" lon="3.64225">
        <ele>65.0</ele>
      </trkpt>
      <trkpt lat="50.84833" lon="3.643">
        <ele>64.0</ele>
      </trkpt>
      <trkpt lat="50.84857" lon="3.64355">
        <ele>62.0</ele>
      </trkpt>
      <trkpt lat="50.85102" lon="3.64618">
        <ele>60.0</ele>
      </trkpt>
      <trkpt lat="50.85266" lon="3.64847">
        <ele>62.0</ele>
      </trkpt>
      <trkpt lat="50.85529" lon="3.65227">
        <ele>60.0</ele>
      </trkpt>
      <trkpt lat="50.85561" lon="3.65463">
        <ele>55.0</ele>
      </trkpt>
      <trkpt lat="50.85478" lon="3.65518">
        <ele>55.0</ele>
      </trkpt>
      <trkpt lat="50.8557" lon="3.65821">
        <ele>51.0</ele>
      </trkpt>
      <trkpt lat="50.85612" lon="3.66296">
        <ele>38.0</ele>
      </trkpt>
      <trkpt lat="50.85649" lon="3.66567">
        <ele>32.0</ele>
      </trkpt>
      <trkpt lat="50.85464" lon="3.66944">
        <ele>26.0</ele>
      </trkpt>
      <trkpt lat="50.85417" lon="3.67095">
        <ele>26.0</ele>
      </trkpt>
      <trkpt lat="50.85363" lon="3.67181">
        <ele>28.0</ele>
      </trkpt>
      <trkpt lat="50.84959" lon="3.66931">
        <ele>42.0</ele>
      </trkpt>
      <trkpt lat="50.84586" lon="3.66646">
        <ele>59.0</ele>
      </trkpt>
      <trkpt lat="50.84341" lon="3.66394">
        <ele>67.0</ele>
      </trkpt>
      <trkpt lat="50.84238" lon="3.66363">
        <ele>68.0</ele>
      </trkpt>
      <trkpt lat="50.84067" lon="3.66661">
        <ele>58.0</ele>
      </trkpt>
      <trkpt lat="50.83933" lon="3.66786">
        <ele>72.0</ele>
      </trkpt>
      <trkpt lat="50.83718" lon="3.66998">
        <ele>78.0</ele>
      </trkpt>
      <trkpt lat="50.83532" lon="3.67258">
        <ele>79.0</ele>
      </trkpt>
      <trkpt lat="50.83697" lon="3.67491">
        <ele>74.0</ele>
      </trkpt>
      <trkpt lat="50.83786" lon="3.67564">
        <ele>73.0</ele>
      </trkpt>
      <trkpt lat="50.83818" lon="3.67714">
        <ele>75.0</ele>
      </trkpt>
      <trkpt lat="50.83973" lon="3.67839">
        <ele>75.0</ele>
      </trkpt>
      <trkpt lat="50.84427" lon="3.67971">
        <ele>77.0</ele>
      </trkpt>
      <trkpt lat="50.8457" lon="3.68023">
        <ele>76.0</ele>
      </trkpt>
      <trkpt lat="50.84779" lon="3.67957">
        <ele>70.0</ele>
      </trkpt>
      <trkpt lat="50.85044" lon="3.67852">
        <ele>60.0</ele>
      </trkpt>
      <trkpt lat="50.85386" lon="3.67709">
        <ele>56.0</ele>
      </trkpt>
      <trkpt lat="50.85475" lon="3.67694">
        <ele>55.0</ele>
      </trkpt>
      <trkpt lat="50.85589" lon="3.6783">
        <ele>53.0</ele>
      </trkpt>
      <trkpt lat="50.85845" lon="3.67775">
        <ele>47.0</ele>
      </trkpt>
      <trkpt lat="50.86094" lon="3.67857">
        <ele>47.0</ele>
      </trkpt>
      <trkpt lat="50.86215" lon="3.67875">
        <ele>46.0</ele>
      </trkpt>
      <trkpt lat="50.8631" lon="3.68045">
        <ele>42.0</ele>
      </trkpt>
      <trkpt lat="50.86393" lon="3.68151">
        <ele>38.0</ele>
      </trkpt>
      <trkpt lat="50.86757" lon="3.68619">
        <ele>22.0</ele>
      </trkpt>
      <trkpt lat="50.86766" lon="3.6907">
        <ele>16.0</ele>
      </trkpt>
      <trkpt lat="50.86751" lon="3.69342">
        <ele>17.0</ele>
      </trkpt>
      <trkpt lat="50.86353" lon="3.69431">
        <ele>17.0</ele>
      </trkpt>
      <trkpt lat="50.86063" lon="3.69629">
        <ele>20.0</ele>
      </trkpt>
      <trkpt lat="50.85818" lon="3.70012">
        <ele>26.0</ele>
      </trkpt>
      <trkpt lat="50.85898" lon="3.7014">
        <ele>34.0</ele>
      </trkpt>
      <trkpt lat="50.86008" lon="3.70306">
        <ele>49.0</ele>
      </trkpt>
      <trkpt lat="50.86065" lon="3.70507">
        <ele>56.0</ele>
      </trkpt>
      <trkpt lat="50.86007" lon="3.70785">
        <ele>61.0</ele>
      </trkpt>
      <trkpt lat="50.85995" lon="3.71019">
        <ele>63.0</ele>
      </trkpt>
      <trkpt lat="50.85942" lon="3.71315">
        <ele>67.0</ele>
      </trkpt>
      <trkpt lat="50.85755" lon="3.71547">
        <ele>67.0</ele>
      </trkpt>
      <trkpt lat="50.85503" lon="3.71861">
        <ele>68.0</ele>
      </trkpt>
      <trkpt lat="50.85316" lon="3.71839">
        <ele>64.0</ele>
      </trkpt>
      <trkpt lat="50.85169" lon="3.71929">
        <ele>56.0</ele>
      </trkpt>
      <trkpt lat="50.84982" lon="3.72085">
        <ele>44.0</ele>
      </trkpt>
      <trkpt lat="50.84712" lon="3.72065">
        <ele>46.0</ele>
      </trkpt>
      <trkpt lat="50.84386" lon="3.72164">
        <ele>58.0</ele>
      </trkpt>
      <trkpt lat="50.84181" lon="3.72258">
        <ele>75.0</ele>
      </trkpt>
      <trkpt lat="50.8397" lon="3.72439">
        <ele>82.0</ele>
      </trkpt>
      <trkpt lat="50.83852" lon="3.72486">
        <ele>85.0</ele>
      </trkpt>
      <trkpt lat="50.83673" lon="3.72758">
        <ele>90.0</ele>
      </trkpt>
      <trkpt lat="50.83353" lon="3.73185">
        <ele>100.0</ele>
      </trkpt>
      <trkpt lat="50.83025" lon="3.73262">
        <ele>99.0</ele>
      </trkpt>
      <trkpt lat="50.83056" lon="3.73409">
        <ele>101.0</ele>
      </trkpt>
      <trkpt lat="50.83087" lon="3.73593">
        <ele>101.0</ele>
      </trkpt>
      <trkpt lat="50.83116" lon="3.73763">
        <ele>98.0</ele>
      </trkpt>
      <trkpt lat="50.8313" lon="3.73843">
        <ele>96.0</ele>
      </trkpt>
      <trkpt lat="50.83145" lon="3.7406">
        <ele>90.0</ele>
      </trkpt>
      <trkpt lat="50.83088" lon="3.74362">
        <ele>87.0</ele>
      </trkpt>
      <trkpt lat="50.83247" lon="3.7513">
        <ele>67.0</ele>
      </trkpt>
      <trkpt lat="50.83299" lon="3.7553">
        <ele>54.0</ele>
      </trkpt>
      <trkpt lat="50.83355" lon="3.75965">
        <ele>42.0</ele>
      </trkpt>
      <trkpt lat="50.83357" lon="3.76268">
        <ele>33.0</ele>
      </trkpt>
      <trkpt lat="50.83362" lon="3.76494">
        <ele>30.0</ele>
      </trkpt>
      <trkpt lat="50.83394" lon="3.76612">
        <ele>29.0</ele>
      </trkpt>
      <trkpt lat="50.83378" lon="3.76899">
        <ele>29.0</ele>
      </trkpt>
      <trkpt lat="50.8341" lon="3.77144">
        <ele>36.0</ele>
      </trkpt>
      <trkpt lat="50.83314" lon="3.77725">
        <ele>66.0</ele>
      </trkpt>
      <trkpt lat="50.83237" lon="3.78011">
        <ele>88.0</ele>
      </trkpt>
      <trkpt lat="50.83115" lon="3.78434">
        <ele>88.0</ele>
      </trkpt>
      <trkpt lat="50.83157" lon="3.78688">
        <ele>88.0</ele>
      </trkpt>
      <trkpt lat="50.83282" lon="3.79043">
        <ele>91.0</ele>
      </trkpt>
      <trkpt lat="50.83341" lon="3.79341">
        <ele>93.0</ele>
      </trkpt>
      <trkpt lat="50.83327" lon="3.7962">
        <ele>94.0</ele>
      </trkpt>
      <trkpt lat="50.8327" lon="3.79881">
        <ele>94.0</ele>
      </trkpt>
      <trkpt lat="50.83085" lon="3.80243">
        <ele>91.0</ele>
      </trkpt>
      <trkpt lat="50.82814" lon="3.80538">
        <ele>91.0</ele>
      </trkpt>
      <trkpt lat="50.82699" lon="3.80367">
        <ele>91.0</ele>
      </trkpt>
      <trkpt lat="50.82449" lon="3.80267">
        <ele>91.0</ele>
      </trkpt>
      <trkpt lat="50.82185" lon="3.8024">
        <ele>87.0</ele>
      </trkpt>
      <trkpt lat="50.81883" lon="3.80098">
        <ele>80.0</ele>
      </trkpt>
      <trkpt lat="50.81633" lon="3.80003">
        <ele>80.0</ele>
      </trkpt>
      <trkpt lat="50.812" lon="3.7975">
        <ele>62.0</ele>
      </trkpt>
      <trkpt lat="50.80866" lon="3.78652">
        <ele>51.0</ele>
      </trkpt>
      <trkpt lat="50.80638" lon="3.77357">
        <ele>39.0</ele>
      </trkpt>
      <trkpt lat="50.80619" lon="3.77243">
        <ele>37.0</ele>
      </trkpt>
      <trkpt lat="50.80515" lon="3.7678">
        <ele>38.0</ele>
      </trkpt>
      <trkpt lat="50.80396" lon="3.76581">
        <ele>41.0</ele>
      </trkpt>
      <trkpt lat="50.8032" lon="3.76433">
        <ele>42.0</ele>
      </trkpt>
      <trkpt lat="50.80292" lon="3.76362">
        <ele>40.0</ele>
      </trkpt>
      <trkpt lat="50.8034" lon="3.76286">
        <ele>39.0</ele>
      </trkpt>
      <trkpt lat="50.8037" lon="3.76257">
        <ele>38.0</ele>
      </trkpt>
      <trkpt lat="50.80433" lon="3.7624">
        <ele>37.0</ele>
      </trkpt>
      <trkpt lat="50.80484" lon="3.76195">
        <ele>36.0</ele>
      </trkpt>
      <trkpt lat="50.80563" lon="3.76181">
        <ele>37.0</ele>
      </trkpt>
      <trkpt lat="50.80659" lon="3.76111">
        <ele>39.0</ele>
      </trkpt>
      <trkpt lat="50.80829" lon="3.76087">
        <ele>43.0</ele>
      </trkpt>
      <trkpt lat="50.81031" lon="3.75971">
        <ele>44.0</ele>
      </trkpt>
      <trkpt lat="50.813" lon="3.75663">
        <ele>58.0</ele>
      </trkpt>
      <trkpt lat="50.81406" lon="3.75475">
        <ele>79.0</ele>
      </trkpt>
      <trkpt lat="50.81551" lon="3.75278">
        <ele>89.0</ele>
      </trkpt>
      <trkpt lat="50.81704" lon="3.75145">
        <ele>93.0</ele>
      </trkpt>
      <trkpt lat="50.81636" lon="3.75042">
        <ele>95.0</ele>
      </trkpt>
      <trkpt lat="50.81587" lon="3.74907">
        <ele>98.0</ele>
      </trkpt>
      <trkpt lat="50.81526" lon="3.74771">
        <ele>98.0</ele>
      </trkpt>
      <trkpt lat="50.81461" lon="3.74669">
        <ele>97.0</ele>
      </trkpt>
      <trkpt lat="50.814" lon="3.7453">
        <ele>98.0</ele>
      </trkpt>
      <trkpt lat="50.81327" lon="3.74337">
        <ele>99.0</ele>
      </trkpt>
      <trkpt lat="50.81263" lon="3.74161">
        <ele>99.0</ele>
      </trkpt>
      <trkpt lat="50.81195" lon="3.74006">
        <ele>99.0</ele>
      </trkpt>
      <trkpt lat="50.81239" lon="3.73762">
        <ele>100.0</ele>
      </trkpt>
      <trkpt lat="50.81327" lon="3.73577">
        <ele>102.0</ele>
      </trkpt>
      <trkpt lat="50.81401" lon="3.7325">
        <ele>102.0</ele>
      </trkpt>
      <trkpt lat="50.81508" lon="3.72971">
        <ele>99.0</ele>
      </trkpt>
      <trkpt lat="50.81686" lon="3.72663">
        <ele>89.0</ele>
      </trkpt>
      <trkpt lat="50.81819" lon="3.71885">
        <ele>73.0</ele>
      </trkpt>
      <trkpt lat="50.81871" lon="3.71529">
        <ele>68.0</ele>
      </trkpt>
      <trkpt lat="50.81968" lon="3.71131">
        <ele>76.0</ele>
      </trkpt>
      <trkpt lat="50.81977" lon="3.70842">
        <ele>86.0</ele>
      </trkpt>
      <trkpt lat="50.81947" lon="3.70528">
        <ele>95.0</ele>
      </trkpt>
      <trkpt lat="50.81984" lon="3.70194">
        <ele>97.0</ele>
      </trkpt>
      <trkpt lat="50.82017" lon="3.69901">
        <ele>97.0</ele>
      </trkpt>
      <trkpt lat="50.82063" lon="3.6962">
        <ele>98.0</ele>
      </trkpt>
      <trkpt lat="50.82172" lon="3.69345">
        <ele>94.0</ele>
      </trkpt>
      <trkpt lat="50.82279" lon="3.69211">
        <ele>94.0</ele>
      </trkpt>
      <trkpt lat="50.82388" lon="3.68964">
        <ele>98.0</ele>
      </trkpt>
      <trkpt lat="50.82493" lon="3.68754">
        <ele>100.0</ele>
      </trkpt>
      <trkpt lat="50.82476" lon="3.68548">
        <ele>98.0</ele>
      </trkpt>
      <trkpt lat="50.82296" lon="3.68589">
        <ele>93.0</ele>
      </trkpt>
      <trkpt lat="50.82177" lon="3.68585">
        <ele>88.0</ele>
      </trkpt>
      <trkpt lat="50.82077" lon="3.68475">
        <ele>80.0</ele>
      </trkpt>
      <trkpt lat="50.81877" lon="3.68258">
        <ele>69.0</ele>
      </trkpt>
      <trkpt lat="50.81687" lon="3.68147">
        <ele>57.0</ele>
      </trkpt>
      <trkpt lat="50.81471" lon="3.68111">
        <ele>38.0</ele>
      </trkpt>
      <trkpt lat="50.81305" lon="3.67985">
        <ele>31.0</ele>
      </trkpt>
      <trkpt lat="50.81203" lon="3.68095">
        <ele>30.0</ele>
      </trkpt>
      <trkpt lat="50.81065" lon="3.68153">
        <ele>32.0</ele>
      </trkpt>
      <trkpt lat="50.80894" lon="3.67943">
        <ele>37.0</ele>
      </trkpt>
      <trkpt lat="50.80802" lon="3.68035">
        <ele>39.0</ele>
      </trkpt>
      <trkpt lat="50.80735" lon="3.6799">
        <ele>40.0</ele>
      </trkpt>
      <trkpt lat="50.8068" lon="3.67906">
        <ele>41.0</ele>
      </trkpt>
      <trkpt lat="50.80617" lon="3.67866">
        <ele>42.0</ele>
      </trkpt>
      <trkpt lat="50.80535" lon="3.67767">
        <ele>43.0</ele>
      </trkpt>
      <trkpt lat="50.80286" lon="3.67609">
        <ele>44.0</ele>
      </trkpt>
      <trkpt lat="50.80022" lon="3.6751">
        <ele>42.0</ele>
      </trkpt>
      <trkpt lat="50.79801" lon="3.67442">
        <ele>45.0</ele>
      </trkpt>
      <trkpt lat="50.79745" lon="3.67336">
        <ele>45.0</ele>
      </trkpt>
      <trkpt lat="50.7964" lon="3.67205">
        <ele>40.0</ele>
      </trkpt>
      <trkpt lat="50.79626" lon="3.67126">
        <ele>37.0</ele>
      </trkpt>
      <trkpt lat="50.79629" lon="3.66963">
        <ele>32.0</ele>
      </trkpt>
      <trkpt lat="50.79571" lon="3.66896">
        <ele>32.0</ele>
      </trkpt>
      <trkpt lat="50.79589" lon="3.66697">
        <ele>34.0</ele>
      </trkpt>
      <trkpt lat="50.79457" lon="3.66491">
        <ele>37.0</ele>
      </trkpt>
      <trkpt lat="50.79337" lon="3.66488">
        <ele>37.0</ele>
      </trkpt>
      <trkpt lat="50.79202" lon="3.66309">
        <ele>40.0</ele>
      </trkpt>
      <trkpt lat="50.78961" lon="3.65773">
        <ele>49.0</ele>
      </trkpt>
      <trkpt lat="50.78712" lon="3.65219">
        <ele>60.0</ele>
      </trkpt>
      <trkpt lat="50.78521" lon="3.65431">
        <ele>55.0</ele>
      </trkpt>
      <trkpt lat="50.78343" lon="3.65676">
        <ele>53.0</ele>
      </trkpt>
      <trkpt lat="50.78259" lon="3.65638">
        <ele>63.0</ele>
      </trkpt>
      <trkpt lat="50.78229" lon="3.65727">
        <ele>73.0</ele>
      </trkpt>
      <trkpt lat="50.7788" lon="3.65993">
        <ele>96.0</ele>
      </trkpt>
      <trkpt lat="50.77668" lon="3.6629">
        <ele>107.0</ele>
      </trkpt>
      <trkpt lat="50.77341" lon="3.66159">
        <ele>115.0</ele>
      </trkpt>
      <trkpt lat="50.77187" lon="3.65987">
        <ele>110.0</ele>
      </trkpt>
      <trkpt lat="50.77113" lon="3.64819">
        <ele>99.0</ele>
      </trkpt>
      <trkpt lat="50.77182" lon="3.64471">
        <ele>105.0</ele>
      </trkpt>
      <trkpt lat="50.77129" lon="3.64229">
        <ele>104.0</ele>
      </trkpt>
      <trkpt lat="50.77111" lon="3.64068">
        <ele>98.0</ele>
      </trkpt>
      <trkpt lat="50.77124" lon="3.63777">
        <ele>94.0</ele>
      </trkpt>
      <trkpt lat="50.77021" lon="3.62887">
        <ele>91.0</ele>
      </trkpt>
      <trkpt lat="50.7685" lon="3.62209">
        <ele>90.0</ele>
      </trkpt>
      <trkpt lat="50.76756" lon="3.62034">
        <ele>92.0</ele>
      </trkpt>
      <trkpt lat="50.76674" lon="3.61793">
        <ele>98.0</ele>
      </trkpt>
      <trkpt lat="50.76668" lon="3.61601">
        <ele>98.0</ele>
      </trkpt>
      <trkpt lat="50.76656" lon="3.61168">
        <ele>105.0</ele>
      </trkpt>
      <trkpt lat="50.76608" lon="3.60816">
        <ele>106.0</ele>
      </trkpt>
      <trkpt lat="50.76653" lon="3.60463">
        <ele>106.0</ele>
      </trkpt>
      <trkpt lat="50.76568" lon="3.60431">
        <ele>102.0</ele>
      </trkpt>
      <trkpt lat="50.76342" lon="3.60311">
        <ele>95.0</ele>
      </trkpt>
      <trkpt lat="50.76077" lon="3.60379">
        <ele>82.0</ele>
      </trkpt>
      <trkpt lat="50.75736" lon="3.6053">
        <ele>60.0</ele>
      </trkpt>
      <trkpt lat="50.75669" lon="3.60357">
        <ele>50.0</ele>
      </trkpt>
      <trkpt lat="50.75663" lon="3.60161">
        <ele>41.0</ele>
      </trkpt>
      <trkpt lat="50.75675" lon="3.60139">
        <ele>41.0</ele>
      </trkpt>
      <trkpt lat="50.75661" lon="3.60125">
        <ele>41.0</ele>
      </trkpt>
      <trkpt lat="50.75547" lon="3.59994">
        <ele>42.0</ele>
      </trkpt>
      <trkpt lat="50.75463" lon="3.59789">
        <ele>40.0</ele>
      </trkpt>
      <trkpt lat="50.75431" lon="3.59478">
        <ele>46.0</ele>
      </trkpt>
      <trkpt lat="50.75395" lon="3.59276">
        <ele>48.0</ele>
      </trkpt>
      <trkpt lat="50.7576" lon="3.5877">
        <ele>72.0</ele>
      </trkpt>
      <trkpt lat="50.75888" lon="3.58715">
        <ele>91.0</ele>
      </trkpt>
      <trkpt lat="50.76191" lon="3.58727">
        <ele>115.0</ele>
      </trkpt>
      <trkpt lat="50.76487" lon="3.58713">
        <ele>118.0</ele>
      </trkpt>
      <trkpt lat="50.7647" lon="3.5851">
        <ele>118.0</ele>
      </trkpt>
      <trkpt lat="50.76288" lon="3.5806">
        <ele>114.0</ele>
      </trkpt>
      <trkpt lat="50.76002" lon="3.57675">
        <ele>134.0</ele>
      </trkpt>
      <trkpt lat="50.75924" lon="3.57461">
        <ele>152.0</ele>
      </trkpt>
      <trkpt lat="50.76047" lon="3.57069">
        <ele>159.0</ele>
      </trkpt>
      <trkpt lat="50.76115" lon="3.56895">
        <ele>144.0</ele>
      </trkpt>
      <trkpt lat="50.76141" lon="3.56699">
        <ele>132.0</ele>
      </trkpt>
      <trkpt lat="50.76237" lon="3.56567">
        <ele>127.0</ele>
      </trkpt>
      <trkpt lat="50.76277" lon="3.56362">
        <ele>122.0</ele>
      </trkpt>
      <trkpt lat="50.7631" lon="3.56006">
        <ele>116.0</ele>
      </trkpt>
      <trkpt lat="50.76319" lon="3.55698">
        <ele>116.0</ele>
      </trkpt>
      <trkpt lat="50.76378" lon="3.55431">
        <ele>115.0</ele>
      </trkpt>
      <trkpt lat="50.76572" lon="3.54413">
        <ele>112.0</ele>
      </trkpt>
      <trkpt lat="50.76456" lon="3.53823">
        <ele>125.0</ele>
      </trkpt>
      <trkpt lat="50.76497" lon="3.533">
        <ele>118.0</ele>
      </trkpt>
      <trkpt lat="50.76618" lon="3.5308">
        <ele>111.0</ele>
      </trkpt>
      <trkpt lat="50.76879" lon="3.52952">
        <ele>107.0</ele>
      </trkpt>
      <trkpt lat="50.7726" lon="3.5254">
        <ele>86.0</ele>
      </trkpt>
      <trkpt lat="50.77893" lon="3.5197">
        <ele>44.0</ele>
      </trkpt>
      <trkpt lat="50.78227" lon="3.51746">
        <ele>18.0</ele>
      </trkpt>
      <trkpt lat="50.78521" lon="3.51376">
        <ele>13.0</ele>
      </trkpt>
      <trkpt lat="50.78724" lon="3.51194">
        <ele>13.0</ele>
      </trkpt>
      <trkpt lat="50.78852" lon="3.51172">
        <ele>13.0</ele>
      </trkpt>
      <trkpt lat="50.78954" lon="3.51421">
        <ele>14.0</ele>
      </trkpt>
      <trkpt lat="50.79033" lon="3.51617">
        <ele>14.0</ele>
      </trkpt>
      <trkpt lat="50.79097" lon="3.51894">
        <ele>14.0</ele>
      </trkpt>
      <trkpt lat="50.79039" lon="3.52384">
        <ele>13.0</ele>
      </trkpt>
      <trkpt lat="50.7897" lon="3.52425">
        <ele>12.0</ele>
      </trkpt>
      <trkpt lat="50.78867" lon="3.52423">
        <ele>11.0</ele>
      </trkpt>
      <trkpt lat="50.78721" lon="3.52482">
        <ele>12.0</ele>
      </trkpt>
      <trkpt lat="50.7865" lon="3.52414">
        <ele>11.0</ele>
      </trkpt>
      <trkpt lat="50.78505" lon="3.52506">
        <ele>14.0</ele>
      </trkpt>
      <trkpt lat="50.78395" lon="3.5251">
        <ele>19.0</ele>
      </trkpt>
      <trkpt lat="50.7829" lon="3.52589">
        <ele>26.0</ele>
      </trkpt>
      <trkpt lat="50.7826" lon="3.52625">
        <ele>30.0</ele>
      </trkpt>
      <trkpt lat="50.78142" lon="3.52581">
        <ele>36.0</ele>
      </trkpt>
      <trkpt lat="50.78024" lon="3.52578">
        <ele>47.0</ele>
      </trkpt>
      <trkpt lat="50.77927" lon="3.52566">
        <ele>58.0</ele>
      </trkpt>
      <trkpt lat="50.77862" lon="3.52529">
        <ele>66.0</ele>
      </trkpt>
      <trkpt lat="50.77753" lon="3.5252">
        <ele>75.0</ele>
      </trkpt>
      <trkpt lat="50.77662" lon="3.52556">
        <ele>81.0</ele>
      </trkpt>
      <trkpt lat="50.77509" lon="3.52619">
        <ele>82.0</ele>
      </trkpt>
      <trkpt lat="50.77412" lon="3.52712">
        <ele>82.0</ele>
      </trkpt>
      <trkpt lat="50.77316" lon="3.52767">
        <ele>83.0</ele>
      </trkpt>
      <trkpt lat="50.77157" lon="3.52852">
        <ele>90.0</ele>
      </trkpt>
      <trkpt lat="50.77049" lon="3.52958">
        <ele>97.0</ele>
      </trkpt>
      <trkpt lat="50.76947" lon="3.5306">
        <ele>102.0</ele>
      </trkpt>
      <trkpt lat="50.76857" lon="3.53061">
        <ele>103.0</ele>
      </trkpt>
      <trkpt lat="50.76781" lon="3.53246">
        <ele>99.0</ele>
      </trkpt>
      <trkpt lat="50.76619" lon="3.54265">
        <ele>111.0</ele>
      </trkpt>
      <trkpt lat="50.76646" lon="3.54532">
        <ele>109.0</ele>
      </trkpt>
      <trkpt lat="50.76757" lon="3.54632">
        <ele>102.0</ele>
      </trkpt>
      <trkpt lat="50.76867" lon="3.54745">
        <ele>96.0</ele>
      </trkpt>
      <trkpt lat="50.77044" lon="3.54712">
        <ele>90.0</ele>
      </trkpt>
      <trkpt lat="50.77177" lon="3.54603">
        <ele>84.0</ele>
      </trkpt>
      <trkpt lat="50.77301" lon="3.54559">
        <ele>81.0</ele>
      </trkpt>
      <trkpt lat="50.77392" lon="3.54544">
        <ele>82.0</ele>
      </trkpt>
      <trkpt lat="50.77602" lon="3.5453">
        <ele>72.0</ele>
      </trkpt>
      <trkpt lat="50.77658" lon="3.54586">
        <ele>65.0</ele>
      </trkpt>
      <trkpt lat="50.77701" lon="3.5463">
        <ele>59.0</ele>
      </trkpt>
      <trkpt lat="50.77927" lon="3.54453">
        <ele>42.0</ele>
      </trkpt>
      <trkpt lat="50.78119" lon="3.54385">
        <ele>30.0</ele>
      </trkpt>
      <trkpt lat="50.78273" lon="3.54465">
        <ele>35.0</ele>
      </trkpt>
      <trkpt lat="50.78218" lon="3.5476">
        <ele>57.0</ele>
      </trkpt>
      <trkpt lat="50.78215" lon="3.54896">
        <ele>68.0</ele>
      </trkpt>
      <trkpt lat="50.78294" lon="3.54882">
        <ele>73.0</ele>
      </trkpt>
      <trkpt lat="50.78357" lon="3.54834">
        <ele>71.0</ele>
      </trkpt>
      <trkpt lat="50.78485" lon="3.54869">
        <ele>66.0</ele>
      </trkpt>
      <trkpt lat="50.78626" lon="3.54856">
        <ele>55.0</ele>
      </trkpt>
      <trkpt lat="50.78693" lon="3.54847">
        <ele>48.0</ele>
      </trkpt>
      <trkpt lat="50.78778" lon="3.54681">
        <ele>39.0</ele>
      </trkpt>
      <trkpt lat="50.78876" lon="3.5449">
        <ele>27.0</ele>
      </trkpt>
      <trkpt lat="50.78949" lon="3.54669">
        <ele>21.0</ele>
      </trkpt>
      <trkpt lat="50.79033" lon="3.55156">
        <ele>19.0</ele>
      </trkpt>
      <trkpt lat="50.79004" lon="3.55853">
        <ele>26.0</ele>
      </trkpt>
      <trkpt lat="50.79188" lon="3.56171">
        <ele>22.0</ele>
      </trkpt>
      <trkpt lat="50.79531" lon="3.55946">
        <ele>16.0</ele>
      </trkpt>
      <trkpt lat="50.79815" lon="3.55667">
        <ele>14.0</ele>
      </trkpt>
      <trkpt lat="50.79922" lon="3.55635">
        <ele>12.0</ele>
      </trkpt>
      <trkpt lat="50.80007" lon="3.55634">
        <ele>11.0</ele>
      </trkpt>
      <trkpt lat="50.80065" lon="3.55651">
        <ele>10.0</ele>
      </trkpt>
      <trkpt lat="50.80216" lon="3.55623">
        <ele>10.0</ele>
      </trkpt>
      <trkpt lat="50.8035" lon="3.55639">
        <ele>10.0</ele>
      </trkpt>
      <trkpt lat="50.80536" lon="3.55794">
        <ele>11.0</ele>
      </trkpt>
      <trkpt lat="50.80616" lon="3.55899">
        <ele>11.0</ele>
      </trkpt>
      <trkpt lat="50.80729" lon="3.56053">
        <ele>11.0</ele>
      </trkpt>
      <trkpt lat="50.80843" lon="3.56153">
        <ele>11.0</ele>
      </trkpt>
      <trkpt lat="50.80906" lon="3.56098">
        <ele>11.0</ele>
      </trkpt>
      <trkpt lat="50.81148" lon="3.56386">
        <ele>11.0</ele>
      </trkpt>
      <trkpt lat="50.81365" lon="3.56437">
        <ele>14.0</ele>
      </trkpt>
      <trkpt lat="50.81458" lon="3.56666">
        <ele>12.0</ele>
      </trkpt>
      <trkpt lat="50.8138" lon="3.57032">
        <ele>10.0</ele>
      </trkpt>
      <trkpt lat="50.8128" lon="3.57213">
        <ele>13.0</ele>
      </trkpt>
      <trkpt lat="50.81178" lon="3.57574">
        <ele>33.0</ele>
      </trkpt>
      <trkpt lat="50.81059" lon="3.58203">
        <ele>73.0</ele>
      </trkpt>
      <trkpt lat="50.81071" lon="3.58866">
        <ele>73.0</ele>
      </trkpt>
      <trkpt lat="50.81104" lon="3.59255">
        <ele>75.0</ele>
      </trkpt>
      <trkpt lat="50.81132" lon="3.59383">
        <ele>75.0</ele>
      </trkpt>
      <trkpt lat="50.81188" lon="3.59486">
        <ele>75.0</ele>
      </trkpt>
      <trkpt lat="50.81243" lon="3.59564">
        <ele>73.0</ele>
      </trkpt>
      <trkpt lat="50.81284" lon="3.5964">
        <ele>70.0</ele>
      </trkpt>
      <trkpt lat="50.81353" lon="3.59742">
        <ele>65.0</ele>
      </trkpt>
      <trkpt lat="50.81395" lon="3.59819">
        <ele>61.0</ele>
      </trkpt>
      <trkpt lat="50.81449" lon="3.59841">
        <ele>58.0</ele>
      </trkpt>
      <trkpt lat="50.81502" lon="3.59806">
        <ele>55.0</ele>
      </trkpt>
      <trkpt lat="50.81567" lon="3.59841">
        <ele>48.0</ele>
      </trkpt>
      <trkpt lat="50.81671" lon="3.59876">
        <ele>36.0</ele>
      </trkpt>
      <trkpt lat="50.81755" lon="3.59876">
        <ele>29.0</ele>
      </trkpt>
      <trkpt lat="50.81802" lon="3.59899">
        <ele>26.0</ele>
      </trkpt>
      <trkpt lat="50.81848" lon="3.5985">
        <ele>23.0</ele>
      </trkpt>
      <trkpt lat="50.81902" lon="3.59819">
        <ele>20.0</ele>
      </trkpt>
      <trkpt lat="50.82043" lon="3.60005">
        <ele>16.0</ele>
      </trkpt>
      <trkpt lat="50.82176" lon="3.6023">
        <ele>14.0</ele>
      </trkpt>
      <trkpt lat="50.81967" lon="3.60364">
        <ele>18.0</ele>
      </trkpt>
      <trkpt lat="50.81307" lon="3.60297">
        <ele>48.0</ele>
      </trkpt>
      <trkpt lat="50.81045" lon="3.60136">
        <ele>43.0</ele>
      </trkpt>
      <trkpt lat="50.80785" lon="3.60554">
        <ele>31.0</ele>
      </trkpt>
      <trkpt lat="50.80516" lon="3.60855">
        <ele>42.0</ele>
      </trkpt>
      <trkpt lat="50.80547" lon="3.61051">
        <ele>39.0</ele>
      </trkpt>
      <trkpt lat="50.80458" lon="3.61289">
        <ele>50.0</ele>
      </trkpt>
      <trkpt lat="50.80588" lon="3.61504">
        <ele>49.0</ele>
      </trkpt>
      <trkpt lat="50.80736" lon="3.61721">
        <ele>42.0</ele>
      </trkpt>
      <trkpt lat="50.8076" lon="3.61815">
        <ele>39.0</ele>
      </trkpt>
      <trkpt lat="50.80761" lon="3.62174">
        <ele>36.0</ele>
      </trkpt>
      <trkpt lat="50.80684" lon="3.62267">
        <ele>34.0</ele>
      </trkpt>
      <trkpt lat="50.80507" lon="3.62202">
        <ele>31.0</ele>
      </trkpt>
      <trkpt lat="50.80326" lon="3.62224">
        <ele>30.0</ele>
      </trkpt>
      <trkpt lat="50.80078" lon="3.62138">
        <ele>33.0</ele>
      </trkpt>
      <trkpt lat="50.79935" lon="3.62112">
        <ele>34.0</ele>
      </trkpt>
      <trkpt lat="50.79651" lon="3.62129">
        <ele>36.0</ele>
      </trkpt>
      <trkpt lat="50.79583" lon="3.62233">
        <ele>36.0</ele>
      </trkpt>
      <trkpt lat="50.79402" lon="3.62283">
        <ele>35.0</ele>
      </trkpt>
      <trkpt lat="50.79485" lon="3.6252">
        <ele>34.0</ele>
      </trkpt>
      <trkpt lat="50.79523" lon="3.62803">
        <ele>46.0</ele>
      </trkpt>
      <trkpt lat="50.79591" lon="3.63176">
        <ele>71.0</ele>
      </trkpt>
      <trkpt lat="50.79549" lon="3.63568">
        <ele>78.0</ele>
      </trkpt>
      <trkpt lat="50.79571" lon="3.63716">
        <ele>78.0</ele>
      </trkpt>
      <trkpt lat="50.79548" lon="3.6393">
        <ele>81.0</ele>
      </trkpt>
      <trkpt lat="50.79528" lon="3.64211">
        <ele>83.0</ele>
      </trkpt>
      <trkpt lat="50.7927" lon="3.64216">
        <ele>81.0</ele>
      </trkpt>
      <trkpt lat="50.79007" lon="3.64135">
        <ele>80.0</ele>
      </trkpt>
      <trkpt lat="50.78751" lon="3.63934">
        <ele>79.0</ele>
      </trkpt>
      <trkpt lat="50.78614" lon="3.63907">
        <ele>80.0</ele>
      </trkpt>
      <trkpt lat="50.78465" lon="3.64006">
        <ele>81.0</ele>
      </trkpt>
      <trkpt lat="50.78263" lon="3.64001">
        <ele>87.0</ele>
      </trkpt>
      <trkpt lat="50.78088" lon="3.63967">
        <ele>94.0</ele>
      </trkpt>
      <trkpt lat="50.77728" lon="3.63701">
        <ele>93.0</ele>
      </trkpt>
      <trkpt lat="50.77563" lon="3.63631">
        <ele>102.0</ele>
      </trkpt>
      <trkpt lat="50.77227" lon="3.63415">
        <ele>103.0</ele>
      </trkpt>
      <trkpt lat="50.77044" lon="3.62991">
        <ele>91.0</ele>
      </trkpt>
      <trkpt lat="50.76857" lon="3.6223">
        <ele>90.0</ele>
      </trkpt>
      <trkpt lat="50.76762" lon="3.62049">
        <ele>91.0</ele>
      </trkpt>
      <trkpt lat="50.76676" lon="3.618">
        <ele>97.0</ele>
      </trkpt>
      <trkpt lat="50.76666" lon="3.61653">
        <ele>98.0</ele>
      </trkpt>
      <trkpt lat="50.76658" lon="3.61223">
        <ele>104.0</ele>
      </trkpt>
      <trkpt lat="50.76608" lon="3.60845">
        <ele>106.0</ele>
      </trkpt>
      <trkpt lat="50.76645" lon="3.60491">
        <ele>107.0</ele>
      </trkpt>
      <trkpt lat="50.76603" lon="3.6044">
        <ele>103.0</ele>
      </trkpt>
      <trkpt lat="50.76406" lon="3.60323">
        <ele>97.0</ele>
      </trkpt>
      <trkpt lat="50.76097" lon="3.60368">
        <ele>83.0</ele>
      </trkpt>
      <trkpt lat="50.75754" lon="3.60528">
        <ele>63.0</ele>
      </trkpt>
      <trkpt lat="50.75668" lon="3.60346">
        <ele>51.0</ele>
      </trkpt>
      <trkpt lat="50.75664" lon="3.60156">
        <ele>41.0</ele>
      </trkpt>
      <trkpt lat="50.75675" lon="3.60139">
        <ele>41.0</ele>
      </trkpt>
      <trkpt lat="50.75659" lon="3.60121">
        <ele>41.0</ele>
      </trkpt>
      <trkpt lat="50.75534" lon="3.59996">
        <ele>42.0</ele>
      </trkpt>
      <trkpt lat="50.75456" lon="3.59774">
        <ele>40.0</ele>
      </trkpt>
      <trkpt lat="50.75428" lon="3.59468">
        <ele>46.0</ele>
      </trkpt>
      <trkpt lat="50.75456" lon="3.5928">
        <ele>50.0</ele>
      </trkpt>
      <trkpt lat="50.75695" lon="3.59134">
        <ele>64.0</ele>
      </trkpt>
      <trkpt lat="50.7587" lon="3.58888">
        <ele>83.0</ele>
      </trkpt>
      <trkpt lat="50.76014" lon="3.58724">
        <ele>105.0</ele>
      </trkpt>
      <trkpt lat="50.76333" lon="3.58686">
        <ele>116.0</ele>
      </trkpt>
      <trkpt lat="50.76487" lon="3.58663">
        <ele>118.0</ele>
      </trkpt>
      <trkpt lat="50.76457" lon="3.58458">
        <ele>117.0</ele>
      </trkpt>
      <trkpt lat="50.76136" lon="3.5776">
        <ele>118.0</ele>
      </trkpt>
      <trkpt lat="50.75987" lon="3.57659">
        <ele>138.0</ele>
      </trkpt>
      <trkpt lat="50.75921" lon="3.57422">
        <ele>155.0</ele>
      </trkpt>
      <trkpt lat="50.76092" lon="3.56983">
        <ele>154.0</ele>
      </trkpt>
      <trkpt lat="50.76118" lon="3.56862">
        <ele>142.0</ele>
      </trkpt>
      <trkpt lat="50.76153" lon="3.56672">
        <ele>131.0</ele>
      </trkpt>
      <trkpt lat="50.7625" lon="3.56546">
        <ele>127.0</ele>
      </trkpt>
      <trkpt lat="50.76281" lon="3.56319">
        <ele>120.0</ele>
      </trkpt>
      <trkpt lat="50.76317" lon="3.55917">
        <ele>115.0</ele>
      </trkpt>
      <trkpt lat="50.76323" lon="3.55686">
        <ele>117.0</ele>
      </trkpt>
      <trkpt lat="50.76459" lon="3.55046">
        <ele>110.0</ele>
      </trkpt>
      <trkpt lat="50.76542" lon="3.54289">
        <ele>114.0</ele>
      </trkpt>
      <trkpt lat="50.76456" lon="3.53732">
        <ele>127.0</ele>
      </trkpt>
      <trkpt lat="50.76541" lon="3.53183">
        <ele>116.0</ele>
      </trkpt>
      <trkpt lat="50.76708" lon="3.5304">
        <ele>106.0</ele>
      </trkpt>
      <trkpt lat="50.7692" lon="3.52925">
        <ele>106.0</ele>
      </trkpt>
      <trkpt lat="50.77601" lon="3.52164">
        <ele>68.0</ele>
      </trkpt>
      <trkpt lat="50.78087" lon="3.51851">
        <ele>27.0</ele>
      </trkpt>
      <trkpt lat="50.78359" lon="3.51558">
        <ele>14.0</ele>
      </trkpt>
      <trkpt lat="50.7855" lon="3.51348">
        <ele>13.0</ele>
      </trkpt>
      <trkpt lat="50.78784" lon="3.51161">
        <ele>13.0</ele>
      </trkpt>
      <trkpt lat="50.78901" lon="3.51292">
        <ele>13.0</ele>
      </trkpt>
      <trkpt lat="50.78972" lon="3.51469">
        <ele>14.0</ele>
      </trkpt>
      <trkpt lat="50.79106" lon="3.51793">
        <ele>13.0</ele>
      </trkpt>
      <trkpt lat="50.79087" lon="3.52053">
        <ele>14.0</ele>
      </trkpt>
      <trkpt lat="50.79022" lon="3.52459">
        <ele>13.0</ele>
      </trkpt>
      <trkpt lat="50.78922" lon="3.52416">
        <ele>12.0</ele>
      </trkpt>
      <trkpt lat="50.78833" lon="3.52433">
        <ele>11.0</ele>
      </trkpt>
      <trkpt lat="50.78675" lon="3.52424">
        <ele>11.0</ele>
      </trkpt>
      <trkpt lat="50.78592" lon="3.52468">
        <ele>12.0</ele>
      </trkpt>
      <trkpt lat="50.78451" lon="3.52518">
        <ele>16.0</ele>
      </trkpt>
      <trkpt lat="50.78366" lon="3.52518">
        <ele>20.0</ele>
      </trkpt>
      <trkpt lat="50.78274" lon="3.52609">
        <ele>28.0</ele>
      </trkpt>
      <trkpt lat="50.7824" lon="3.52625">
        <ele>31.0</ele>
      </trkpt>
      <trkpt lat="50.78079" lon="3.52569">
        <ele>41.0</ele>
      </trkpt>
      <trkpt lat="50.78001" lon="3.52581">
        <ele>50.0</ele>
      </trkpt>
      <trkpt lat="50.77902" lon="3.52557">
        <ele>62.0</ele>
      </trkpt>
      <trkpt lat="50.77808" lon="3.52516">
        <ele>70.0</ele>
      </trkpt>
      <trkpt lat="50.77701" lon="3.52532">
        <ele>78.0</ele>
      </trkpt>
      <trkpt lat="50.77551" lon="3.52597">
        <ele>81.0</ele>
      </trkpt>
      <trkpt lat="50.77475" lon="3.52645">
        <ele>82.0</ele>
      </trkpt>
      <trkpt lat="50.77374" lon="3.52744">
        <ele>83.0</ele>
      </trkpt>
      <trkpt lat="50.77276" lon="3.52778">
        <ele>84.0</ele>
      </trkpt>
      <trkpt lat="50.7713" lon="3.52877">
        <ele>93.0</ele>
      </trkpt>
      <trkpt lat="50.77029" lon="3.52978">
        <ele>99.0</ele>
      </trkpt>
      <trkpt lat="50.7692" lon="3.53089">
        <ele>103.0</ele>
      </trkpt>
      <trkpt lat="50.7682" lon="3.53097">
        <ele>102.0</ele>
      </trkpt>
      <trkpt lat="50.76733" lon="3.53543">
        <ele>98.0</ele>
      </trkpt>
      <trkpt lat="50.76595" lon="3.54444">
        <ele>112.0</ele>
      </trkpt>
      <trkpt lat="50.76694" lon="3.54556">
        <ele>106.0</ele>
      </trkpt>
      <trkpt lat="50.76777" lon="3.54656">
        <ele>100.0</ele>
      </trkpt>
      <trkpt lat="50.76904" lon="3.54744">
        <ele>94.0</ele>
      </trkpt>
      <trkpt lat="50.77089" lon="3.54682">
        <ele>87.0</ele>
      </trkpt>
      <trkpt lat="50.77254" lon="3.54562">
        <ele>81.0</ele>
      </trkpt>
      <trkpt lat="50.77319" lon="3.54567">
        <ele>81.0</ele>
      </trkpt>
      <trkpt lat="50.77485" lon="3.54537">
        <ele>80.0</ele>
      </trkpt>
      <trkpt lat="50.77627" lon="3.54538">
        <ele>69.0</ele>
      </trkpt>
      <trkpt lat="50.77682" lon="3.54627">
        <ele>61.0</ele>
      </trkpt>
      <trkpt lat="50.77853" lon="3.54514">
        <ele>50.0</ele>
      </trkpt>
      <trkpt lat="50.77998" lon="3.54423">
        <ele>37.0</ele>
      </trkpt>
      <trkpt lat="50.78187" lon="3.54393">
        <ele>31.0</ele>
      </trkpt>
      <trkpt lat="50.78254" lon="3.54584">
        <ele>42.0</ele>
      </trkpt>
      <trkpt lat="50.78209" lon="3.5487">
        <ele>65.0</ele>
      </trkpt>
      <trkpt lat="50.78259" lon="3.54889">
        <ele>70.0</ele>
      </trkpt>
      <trkpt lat="50.78316" lon="3.54865">
        <ele>73.0</ele>
      </trkpt>
      <trkpt lat="50.78406" lon="3.54833">
        <ele>69.0</ele>
      </trkpt>
      <trkpt lat="50.78563" lon="3.54875">
        <ele>61.0</ele>
      </trkpt>
      <trkpt lat="50.78649" lon="3.54854">
        <ele>52.0</ele>
      </trkpt>
      <trkpt lat="50.78708" lon="3.54833">
        <ele>46.0</ele>
      </trkpt>
      <trkpt lat="50.78839" lon="3.54547">
        <ele>32.0</ele>
      </trkpt>
      <trkpt lat="50.78906" lon="3.5436">
        <ele>23.0</ele>
      </trkpt>
      <trkpt lat="50.7894" lon="3.54167">
        <ele>18.0</ele>
      </trkpt>
      <trkpt lat="50.78818" lon="3.53754">
        <ele>15.0</ele>
      </trkpt>
      <trkpt lat="50.78828" lon="3.53618">
        <ele>14.0</ele>
      </trkpt>
      <trkpt lat="50.78933" lon="3.53428">
        <ele>13.0</ele>
      </trkpt>
      <trkpt lat="50.78987" lon="3.53055">
        <ele>12.0</ele>
      </trkpt>
      <trkpt lat="50.7903" lon="3.52747">
        <ele>12.0</ele>
      </trkpt>
      <trkpt lat="50.79036" lon="3.52628">
        <ele>12.0</ele>
      </trkpt>
      <trkpt lat="50.79229" lon="3.52307">
        <ele>13.0</ele>
      </trkpt>
      <trkpt lat="50.7931" lon="3.52224">
        <ele>14.0</ele>
      </trkpt>
      <trkpt lat="50.79406" lon="3.52001">
        <ele>15.0</ele>
      </trkpt>
      <trkpt lat="50.79418" lon="3.51586">
        <ele>13.0</ele>
      </trkpt>
      <trkpt lat="50.79286" lon="3.50918">
        <ele>11.0</ele>
      </trkpt>
      <trkpt lat="50.79226" lon="3.50729">
        <ele>11.0</ele>
      </trkpt>
      <trkpt lat="50.79236" lon="3.50657">
        <ele>11.0</ele>
      </trkpt>
      <trkpt lat="50.79395" lon="3.50484">
        <ele>12.0</ele>
      </trkpt>
      <trkpt lat="50.79811" lon="3.50086">
        <ele>13.0</ele>
      </trkpt>
      <trkpt lat="50.7989" lon="3.5017">
        <ele>13.0</ele>
      </trkpt>
      <trkpt lat="50.80041" lon="3.50566">
        <ele>15.0</ele>
      </trkpt>
      <trkpt lat="50.80252" lon="3.51091">
        <ele>14.0</ele>
      </trkpt>
      <trkpt lat="50.80577" lon="3.51616">
        <ele>15.0</ele>
      </trkpt>
      <trkpt lat="50.81234" lon="3.52658">
        <ele>16.0</ele>
      </trkpt>
      <trkpt lat="50.81512" lon="3.53242">
        <ele>14.0</ele>
      </trkpt>
      <trkpt lat="50.81934" lon="3.54049">
        <ele>13.0</ele>
      </trkpt>
      <trkpt lat="50.8205" lon="3.54093">
        <ele>14.0</ele>
      </trkpt>
      <trkpt lat="50.82283" lon="3.54044">
        <ele>14.0</ele>
      </trkpt>
      <trkpt lat="50.82451" lon="3.54156">
        <ele>14.0</ele>
      </trkpt>
      <trkpt lat="50.82637" lon="3.54583">
        <ele>15.0</ele>
      </trkpt>
      <trkpt lat="50.82707" lon="3.54726">
        <ele>16.0</ele>
      </trkpt>
      <trkpt lat="50.8276" lon="3.55127">
        <ele>17.0</ele>
      </trkpt>
      <trkpt lat="50.82814" lon="3.55355">
        <ele>18.0</ele>
      </trkpt>
      <trkpt lat="50.82897" lon="3.55502">
        <ele>18.0</ele>
      </trkpt>
      <trkpt lat="50.83071" lon="3.55695">
        <ele>19.0</ele>
      </trkpt>
      <trkpt lat="50.83205" lon="3.55865">
        <ele>19.0</ele>
      </trkpt>
      <trkpt lat="50.83332" lon="3.56222">
        <ele>19.0</ele>
      </trkpt>
      <trkpt lat="50.83353" lon="3.56432">
        <ele>18.0</ele>
      </trkpt>
      <trkpt lat="50.83523" lon="3.5678">
        <ele>19.0</ele>
      </trkpt>
      <trkpt lat="50.83795" lon="3.57569">
        <ele>12.0</ele>
      </trkpt>
      <trkpt lat="50.84051" lon="3.59244">
        <ele>9.0</ele>
      </trkpt>
    </trkseg>
  </trk>
</gpx>