<?xml version="1.0" encoding="UTF-8"?>
<gpx xmlns="http://www.topografix.com/GPX/1/0" xmlns:xsi="http://www.w3.org/2001/XMLSchema-instance" xsi:schemaLocation="http://www.topografix.com/GPX/1/0 http://www.topografix.com/GPX/1/0/gpx.xsd" version="1.0" creator="GPSBabel - https://www.gpsbabel.org">
  <time>2026-01-28T06:23:28.825000Z</time>
  <bounds minlat="43.1248" maxlat="43.38282" minlon="11.2546" maxlon="11.48492" />
  <trk>
    <trkseg>
      <trkpt lat="43.30354" lon="11.31259">
        <ele>259.0</ele>
      </trkpt>
      <trkpt lat="43.30326" lon="11.31169">
        <ele>262.0</ele>
      </trkpt>
      <trkpt lat="43.30283" lon="11.31129">
        <ele>265.0</ele>
      </trkpt>
      <trkpt lat="43.30245" lon="11.31125">
        <ele>267.0</ele>
      </trkpt>
      <trkpt lat="43.30161" lon="11.31158">
        <ele>268.0</ele>
      </trkpt>
      <trkpt lat="43.30125" lon="11.31146">
        <ele>266.0</ele>
      </trkpt>
      <trkpt lat="43.30011" lon="11.30934">
        <ele>258.0</ele>
      </trkpt>
      <trkpt lat="43.29965" lon="11.30894">
        <ele>253.0</ele>
      </trkpt>
      <trkpt lat="43.2972" lon="11.30891">
        <ele>240.0</ele>
      </trkpt>
      <trkpt lat="43.29696" lon="11.30874">
        <ele>239.0</ele>
      </trkpt>
      <trkpt lat="43.29522" lon="11.30835">
        <ele>238.0</ele>
      </trkpt>
      <trkpt lat="43.29327" lon="11.30677">
        <ele>239.0</ele>
      </trkpt>
      <trkpt lat="43.29293" lon="11.30685">
        <ele>242.0</ele>
      </trkpt>
      <trkpt lat="43.29222" lon="11.30753">
        <ele>252.0</ele>
      </trkpt>
      <trkpt lat="43.29195" lon="11.30755">
        <ele>255.0</ele>
      </trkpt>
      <trkpt lat="43.29187" lon="11.30721">
        <ele>257.0</ele>
      </trkpt>
      <trkpt lat="43.29234" lon="11.30652">
        <ele>260.0</ele>
      </trkpt>
      <trkpt lat="43.29238" lon="11.30621">
        <ele>262.0</ele>
      </trkpt>
      <trkpt lat="43.29185" lon="11.30523">
        <ele>266.0</ele>
      </trkpt>
      <trkpt lat="43.29189" lon="11.30426">
        <ele>269.0</ele>
      </trkpt>
      <trkpt lat="43.29139" lon="11.30384">
        <ele>271.0</ele>
      </trkpt>
      <trkpt lat="43.28996" lon="11.30394">
        <ele>270.0</ele>
      </trkpt>
      <trkpt lat="43.28897" lon="11.30339">
        <ele>267.0</ele>
      </trkpt>
      <trkpt lat="43.28851" lon="11.30339">
        <ele>265.0</ele>
      </trkpt>
      <trkpt lat="43.28754" lon="11.30385">
        <ele>260.0</ele>
      </trkpt>
      <trkpt lat="43.28704" lon="11.30451">
        <ele>258.0</ele>
      </trkpt>
      <trkpt lat="43.28661" lon="11.30472">
        <ele>256.0</ele>
      </trkpt>
      <trkpt lat="43.28448" lon="11.30372">
        <ele>251.0</ele>
      </trkpt>
      <trkpt lat="43.28247" lon="11.30342">
        <ele>259.0</ele>
      </trkpt>
      <trkpt lat="43.28219" lon="11.30267">
        <ele>258.0</ele>
      </trkpt>
      <trkpt lat="43.28187" lon="11.29979">
        <ele>251.0</ele>
      </trkpt>
      <trkpt lat="43.28125" lon="11.29871">
        <ele>247.0</ele>
      </trkpt>
      <trkpt lat="43.27974" lon="11.29779">
        <ele>237.0</ele>
      </trkpt>
      <trkpt lat="43.27866" lon="11.29599">
        <ele>236.0</ele>
      </trkpt>
      <trkpt lat="43.27798" lon="11.29536">
        <ele>238.0</ele>
      </trkpt>
      <trkpt lat="43.27623" lon="11.29462">
        <ele>245.0</ele>
      </trkpt>
      <trkpt lat="43.2744" lon="11.29476">
        <ele>253.0</ele>
      </trkpt>
      <trkpt lat="43.27335" lon="11.29468">
        <ele>256.0</ele>
      </trkpt>
      <trkpt lat="43.27128" lon="11.29355">
        <ele>255.0</ele>
      </trkpt>
      <trkpt lat="43.27073" lon="11.29203">
        <ele>254.0</ele>
      </trkpt>
      <trkpt lat="43.27048" lon="11.2917">
        <ele>253.0</ele>
      </trkpt>
      <trkpt lat="43.26873" lon="11.29082">
        <ele>252.0</ele>
      </trkpt>
      <trkpt lat="43.26781" lon="11.28994">
        <ele>252.0</ele>
      </trkpt>
      <trkpt lat="43.26637" lon="11.28911">
        <ele>249.0</ele>
      </trkpt>
      <trkpt lat="43.26356" lon="11.28787">
        <ele>247.0</ele>
      </trkpt>
      <trkpt lat="43.26212" lon="11.28693">
        <ele>245.0</ele>
      </trkpt>
      <trkpt lat="43.26054" lon="11.28687">
        <ele>243.0</ele>
      </trkpt>
      <trkpt lat="43.26033" lon="11.28659">
        <ele>244.0</ele>
      </trkpt>
      <trkpt lat="43.26002" lon="11.28658">
        <ele>245.0</ele>
      </trkpt>
      <trkpt lat="43.25861" lon="11.28538">
        <ele>248.0</ele>
      </trkpt>
      <trkpt lat="43.25644" lon="11.28512">
        <ele>249.0</ele>
      </trkpt>
      <trkpt lat="43.25563" lon="11.28485">
        <ele>250.0</ele>
      </trkpt>
      <trkpt lat="43.25363" lon="11.2822">
        <ele>240.0</ele>
      </trkpt>
      <trkpt lat="43.25268" lon="11.27956">
        <ele>226.0</ele>
      </trkpt>
      <trkpt lat="43.25047" lon="11.27644">
        <ele>213.0</ele>
      </trkpt>
      <trkpt lat="43.24947" lon="11.27535">
        <ele>206.0</ele>
      </trkpt>
      <trkpt lat="43.24752" lon="11.27369">
        <ele>207.0</ele>
      </trkpt>
      <trkpt lat="43.23919" lon="11.26586">
        <ele>185.0</ele>
      </trkpt>
      <trkpt lat="43.23545" lon="11.25466">
        <ele>182.0</ele>
      </trkpt>
      <trkpt lat="43.23435" lon="11.25466">
        <ele>182.0</ele>
      </trkpt>
      <trkpt lat="43.23057" lon="11.25548">
        <ele>182.0</ele>
      </trkpt>
      <trkpt lat="43.22804" lon="11.25565">
        <ele>181.0</ele>
      </trkpt>
      <trkpt lat="43.22139" lon="11.26204">
        <ele>181.0</ele>
      </trkpt>
      <trkpt lat="43.22083" lon="11.26272">
        <ele>181.0</ele>
      </trkpt>
      <trkpt lat="43.21945" lon="11.26554">
        <ele>180.0</ele>
      </trkpt>
      <trkpt lat="43.21768" lon="11.2685">
        <ele>179.0</ele>
      </trkpt>
      <trkpt lat="43.21976" lon="11.2741">
        <ele>184.0</ele>
      </trkpt>
      <trkpt lat="43.21986" lon="11.27474">
        <ele>188.0</ele>
      </trkpt>
      <trkpt lat="43.22015" lon="11.27517">
        <ele>190.0</ele>
      </trkpt>
      <trkpt lat="43.22034" lon="11.27579">
        <ele>193.0</ele>
      </trkpt>
      <trkpt lat="43.22269" lon="11.28597">
        <ele>212.0</ele>
      </trkpt>
      <trkpt lat="43.22004" lon="11.28953">
        <ele>204.0</ele>
      </trkpt>
      <trkpt lat="43.22015" lon="11.29089">
        <ele>208.0</ele>
      </trkpt>
      <trkpt lat="43.22043" lon="11.29146">
        <ele>210.0</ele>
      </trkpt>
      <trkpt lat="43.22036" lon="11.29251">
        <ele>214.0</ele>
      </trkpt>
      <trkpt lat="43.21998" lon="11.29319">
        <ele>218.0</ele>
      </trkpt>
      <trkpt lat="43.2193" lon="11.29371">
        <ele>221.0</ele>
      </trkpt>
      <trkpt lat="43.21844" lon="11.29536">
        <ele>228.0</ele>
      </trkpt>
      <trkpt lat="43.21819" lon="11.29715">
        <ele>236.0</ele>
      </trkpt>
      <trkpt lat="43.21838" lon="11.29771">
        <ele>240.0</ele>
      </trkpt>
      <trkpt lat="43.21837" lon="11.29804">
        <ele>243.0</ele>
      </trkpt>
      <trkpt lat="43.21815" lon="11.29808">
        <ele>246.0</ele>
      </trkpt>
      <trkpt lat="43.21724" lon="11.29737">
        <ele>253.0</ele>
      </trkpt>
      <trkpt lat="43.21684" lon="11.29799">
        <ele>256.0</ele>
      </trkpt>
      <trkpt lat="43.21659" lon="11.29794">
        <ele>257.0</ele>
      </trkpt>
      <trkpt lat="43.21631" lon="11.29763">
        <ele>259.0</ele>
      </trkpt>
      <trkpt lat="43.2161" lon="11.29773">
        <ele>261.0</ele>
      </trkpt>
      <trkpt lat="43.21475" lon="11.29999">
        <ele>276.0</ele>
      </trkpt>
      <trkpt lat="43.21425" lon="11.3013">
        <ele>288.0</ele>
      </trkpt>
      <trkpt lat="43.21437" lon="11.30143">
        <ele>290.0</ele>
      </trkpt>
      <trkpt lat="43.21481" lon="11.30085">
        <ele>295.0</ele>
      </trkpt>
      <trkpt lat="43.2152" lon="11.30078">
        <ele>298.0</ele>
      </trkpt>
      <trkpt lat="43.21536" lon="11.30093">
        <ele>300.0</ele>
      </trkpt>
      <trkpt lat="43.21533" lon="11.30152">
        <ele>303.0</ele>
      </trkpt>
      <trkpt lat="43.21542" lon="11.30173">
        <ele>305.0</ele>
      </trkpt>
      <trkpt lat="43.21596" lon="11.30175">
        <ele>309.0</ele>
      </trkpt>
      <trkpt lat="43.2168" lon="11.30223">
        <ele>315.0</ele>
      </trkpt>
      <trkpt lat="43.21681" lon="11.30249">
        <ele>317.0</ele>
      </trkpt>
      <trkpt lat="43.21663" lon="11.30274">
        <ele>319.0</ele>
      </trkpt>
      <trkpt lat="43.21601" lon="11.30286">
        <ele>322.0</ele>
      </trkpt>
      <trkpt lat="43.21532" lon="11.30327">
        <ele>329.0</ele>
      </trkpt>
      <trkpt lat="43.2151" lon="11.30357">
        <ele>332.0</ele>
      </trkpt>
      <trkpt lat="43.21496" lon="11.30561">
        <ele>342.0</ele>
      </trkpt>
      <trkpt lat="43.21534" lon="11.30701">
        <ele>347.0</ele>
      </trkpt>
      <trkpt lat="43.2154" lon="11.30823">
        <ele>350.0</ele>
      </trkpt>
      <trkpt lat="43.21578" lon="11.31005">
        <ele>354.0</ele>
      </trkpt>
      <trkpt lat="43.21637" lon="11.31062">
        <ele>357.0</ele>
      </trkpt>
      <trkpt lat="43.2178" lon="11.31137">
        <ele>361.0</ele>
      </trkpt>
      <trkpt lat="43.218" lon="11.31195">
        <ele>366.0</ele>
      </trkpt>
      <trkpt lat="43.21796" lon="11.31372">
        <ele>370.0</ele>
      </trkpt>
      <trkpt lat="43.21782" lon="11.31462">
        <ele>370.0</ele>
      </trkpt>
      <trkpt lat="43.21814" lon="11.31645">
        <ele>369.0</ele>
      </trkpt>
      <trkpt lat="43.21761" lon="11.31832">
        <ele>367.0</ele>
      </trkpt>
      <trkpt lat="43.21771" lon="11.32088">
        <ele>368.0</ele>
      </trkpt>
      <trkpt lat="43.21754" lon="11.32131">
        <ele>367.0</ele>
      </trkpt>
      <trkpt lat="43.21727" lon="11.32142">
        <ele>366.0</ele>
      </trkpt>
      <trkpt lat="43.21702" lon="11.32134">
        <ele>365.0</ele>
      </trkpt>
      <trkpt lat="43.21661" lon="11.3209">
        <ele>364.0</ele>
      </trkpt>
      <trkpt lat="43.21639" lon="11.32089">
        <ele>363.0</ele>
      </trkpt>
      <trkpt lat="43.21629" lon="11.32126">
        <ele>361.0</ele>
      </trkpt>
      <trkpt lat="43.21645" lon="11.32205">
        <ele>358.0</ele>
      </trkpt>
      <trkpt lat="43.21706" lon="11.32307">
        <ele>351.0</ele>
      </trkpt>
      <trkpt lat="43.21833" lon="11.32402">
        <ele>338.0</ele>
      </trkpt>
      <trkpt lat="43.21852" lon="11.32445">
        <ele>334.0</ele>
      </trkpt>
      <trkpt lat="43.21914" lon="11.32715">
        <ele>316.0</ele>
      </trkpt>
      <trkpt lat="43.21986" lon="11.32822">
        <ele>308.0</ele>
      </trkpt>
      <trkpt lat="43.22037" lon="11.32934">
        <ele>301.0</ele>
      </trkpt>
      <trkpt lat="43.22229" lon="11.33144">
        <ele>288.0</ele>
      </trkpt>
      <trkpt lat="43.22058" lon="11.33392">
        <ele>278.0</ele>
      </trkpt>
      <trkpt lat="43.22" lon="11.33602">
        <ele>277.0</ele>
      </trkpt>
      <trkpt lat="43.21829" lon="11.33629">
        <ele>277.0</ele>
      </trkpt>
      <trkpt lat="43.21771" lon="11.33588">
        <ele>278.0</ele>
      </trkpt>
      <trkpt lat="43.21696" lon="11.33572">
        <ele>279.0</ele>
      </trkpt>
      <trkpt lat="43.21683" lon="11.33582">
        <ele>280.0</ele>
      </trkpt>
      <trkpt lat="43.21672" lon="11.33697">
        <ele>277.0</ele>
      </trkpt>
      <trkpt lat="43.2164" lon="11.33835">
        <ele>272.0</ele>
      </trkpt>
      <trkpt lat="43.21615" lon="11.34209">
        <ele>272.0</ele>
      </trkpt>
      <trkpt lat="43.21635" lon="11.34339">
        <ele>271.0</ele>
      </trkpt>
      <trkpt lat="43.2169" lon="11.34483">
        <ele>266.0</ele>
      </trkpt>
      <trkpt lat="43.21715" lon="11.34519">
        <ele>262.0</ele>
      </trkpt>
      <trkpt lat="43.2188" lon="11.34652">
        <ele>248.0</ele>
      </trkpt>
      <trkpt lat="43.21908" lon="11.34751">
        <ele>241.0</ele>
      </trkpt>
      <trkpt lat="43.2197" lon="11.34895">
        <ele>231.0</ele>
      </trkpt>
      <trkpt lat="43.21819" lon="11.35098">
        <ele>213.0</ele>
      </trkpt>
      <trkpt lat="43.21744" lon="11.35169">
        <ele>206.0</ele>
      </trkpt>
      <trkpt lat="43.21733" lon="11.35205">
        <ele>209.0</ele>
      </trkpt>
      <trkpt lat="43.21744" lon="11.35313">
        <ele>217.0</ele>
      </trkpt>
      <trkpt lat="43.21651" lon="11.35515">
        <ele>230.0</ele>
      </trkpt>
      <trkpt lat="43.21631" lon="11.35529">
        <ele>233.0</ele>
      </trkpt>
      <trkpt lat="43.21427" lon="11.35553">
        <ele>239.0</ele>
      </trkpt>
      <trkpt lat="43.21367" lon="11.35596">
        <ele>244.0</ele>
      </trkpt>
      <trkpt lat="43.21328" lon="11.35661">
        <ele>248.0</ele>
      </trkpt>
      <trkpt lat="43.21324" lon="11.35707">
        <ele>248.0</ele>
      </trkpt>
      <trkpt lat="43.21353" lon="11.35876">
        <ele>245.0</ele>
      </trkpt>
      <trkpt lat="43.21464" lon="11.35978">
        <ele>245.0</ele>
      </trkpt>
      <trkpt lat="43.2149" lon="11.36033">
        <ele>245.0</ele>
      </trkpt>
      <trkpt lat="43.21466" lon="11.36097">
        <ele>243.0</ele>
      </trkpt>
      <trkpt lat="43.2136" lon="11.36259">
        <ele>231.0</ele>
      </trkpt>
      <trkpt lat="43.21284" lon="11.36506">
        <ele>212.0</ele>
      </trkpt>
      <trkpt lat="43.21294" lon="11.3659">
        <ele>203.0</ele>
      </trkpt>
      <trkpt lat="43.21365" lon="11.36742">
        <ele>197.0</ele>
      </trkpt>
      <trkpt lat="43.21364" lon="11.37135">
        <ele>220.0</ele>
      </trkpt>
      <trkpt lat="43.21342" lon="11.3714">
        <ele>223.0</ele>
      </trkpt>
      <trkpt lat="43.21324" lon="11.37123">
        <ele>223.0</ele>
      </trkpt>
      <trkpt lat="43.21258" lon="11.36993">
        <ele>225.0</ele>
      </trkpt>
      <trkpt lat="43.21196" lon="11.36907">
        <ele>228.0</ele>
      </trkpt>
      <trkpt lat="43.2114" lon="11.36874">
        <ele>230.0</ele>
      </trkpt>
      <trkpt lat="43.20966" lon="11.36824">
        <ele>238.0</ele>
      </trkpt>
      <trkpt lat="43.20723" lon="11.37165">
        <ele>258.0</ele>
      </trkpt>
      <trkpt lat="43.2066" lon="11.37272">
        <ele>262.0</ele>
      </trkpt>
      <trkpt lat="43.20546" lon="11.37366">
        <ele>262.0</ele>
      </trkpt>
      <trkpt lat="43.20393" lon="11.37402">
        <ele>255.0</ele>
      </trkpt>
      <trkpt lat="43.20338" lon="11.37444">
        <ele>253.0</ele>
      </trkpt>
      <trkpt lat="43.20189" lon="11.37487">
        <ele>261.0</ele>
      </trkpt>
      <trkpt lat="43.20101" lon="11.37542">
        <ele>261.0</ele>
      </trkpt>
      <trkpt lat="43.2001" lon="11.37499">
        <ele>258.0</ele>
      </trkpt>
      <trkpt lat="43.19923" lon="11.37614">
        <ele>247.0</ele>
      </trkpt>
      <trkpt lat="43.19831" lon="11.37646">
        <ele>239.0</ele>
      </trkpt>
      <trkpt lat="43.19768" lon="11.3771">
        <ele>237.0</ele>
      </trkpt>
      <trkpt lat="43.19526" lon="11.37862">
        <ele>234.0</ele>
      </trkpt>
      <trkpt lat="43.19488" lon="11.37907">
        <ele>234.0</ele>
      </trkpt>
      <trkpt lat="43.19462" lon="11.37967">
        <ele>233.0</ele>
      </trkpt>
      <trkpt lat="43.19443" lon="11.38111">
        <ele>232.0</ele>
      </trkpt>
      <trkpt lat="43.19363" lon="11.38329">
        <ele>228.0</ele>
      </trkpt>
      <trkpt lat="43.19252" lon="11.38391">
        <ele>226.0</ele>
      </trkpt>
      <trkpt lat="43.19178" lon="11.38398">
        <ele>223.0</ele>
      </trkpt>
      <trkpt lat="43.19107" lon="11.38494">
        <ele>223.0</ele>
      </trkpt>
      <trkpt lat="43.19018" lon="11.38558">
        <ele>224.0</ele>
      </trkpt>
      <trkpt lat="43.18864" lon="11.38595">
        <ele>220.0</ele>
      </trkpt>
      <trkpt lat="43.18734" lon="11.38523">
        <ele>232.0</ele>
      </trkpt>
      <trkpt lat="43.1855" lon="11.3854">
        <ele>253.0</ele>
      </trkpt>
      <trkpt lat="43.18416" lon="11.38394">
        <ele>269.0</ele>
      </trkpt>
      <trkpt lat="43.18083" lon="11.38266">
        <ele>266.0</ele>
      </trkpt>
      <trkpt lat="43.18011" lon="11.38335">
        <ele>266.0</ele>
      </trkpt>
      <trkpt lat="43.1788" lon="11.3841">
        <ele>271.0</ele>
      </trkpt>
      <trkpt lat="43.17753" lon="11.38538">
        <ele>272.0</ele>
      </trkpt>
      <trkpt lat="43.17727" lon="11.38574">
        <ele>272.0</ele>
      </trkpt>
      <trkpt lat="43.17642" lon="11.38774">
        <ele>272.0</ele>
      </trkpt>
      <trkpt lat="43.17612" lon="11.38814">
        <ele>273.0</ele>
      </trkpt>
      <trkpt lat="43.17409" lon="11.38914">
        <ele>276.0</ele>
      </trkpt>
      <trkpt lat="43.17299" lon="11.39065">
        <ele>287.0</ele>
      </trkpt>
      <trkpt lat="43.17195" lon="11.39119">
        <ele>291.0</ele>
      </trkpt>
      <trkpt lat="43.17113" lon="11.39129">
        <ele>300.0</ele>
      </trkpt>
      <trkpt lat="43.16927" lon="11.39007">
        <ele>294.0</ele>
      </trkpt>
      <trkpt lat="43.16701" lon="11.38986">
        <ele>275.0</ele>
      </trkpt>
      <trkpt lat="43.16666" lon="11.39002">
        <ele>273.0</ele>
      </trkpt>
      <trkpt lat="43.16629" lon="11.39051">
        <ele>273.0</ele>
      </trkpt>
      <trkpt lat="43.16586" lon="11.3908">
        <ele>273.0</ele>
      </trkpt>
      <trkpt lat="43.16187" lon="11.3918">
        <ele>280.0</ele>
      </trkpt>
      <trkpt lat="43.16143" lon="11.39288">
        <ele>281.0</ele>
      </trkpt>
      <trkpt lat="43.15961" lon="11.39384">
        <ele>275.0</ele>
      </trkpt>
      <trkpt lat="43.15917" lon="11.3943">
        <ele>275.0</ele>
      </trkpt>
      <trkpt lat="43.15881" lon="11.39494">
        <ele>274.0</ele>
      </trkpt>
      <trkpt lat="43.1587" lon="11.39559">
        <ele>274.0</ele>
      </trkpt>
      <trkpt lat="43.15867" lon="11.39756">
        <ele>275.0</ele>
      </trkpt>
      <trkpt lat="43.15893" lon="11.39902">
        <ele>278.0</ele>
      </trkpt>
      <trkpt lat="43.15886" lon="11.3995">
        <ele>280.0</ele>
      </trkpt>
      <trkpt lat="43.15869" lon="11.39964">
        <ele>280.0</ele>
      </trkpt>
      <trkpt lat="43.15807" lon="11.39965">
        <ele>283.0</ele>
      </trkpt>
      <trkpt lat="43.15729" lon="11.40019">
        <ele>288.0</ele>
      </trkpt>
      <trkpt lat="43.15655" lon="11.39999">
        <ele>293.0</ele>
      </trkpt>
      <trkpt lat="43.15633" lon="11.40013">
        <ele>293.0</ele>
      </trkpt>
      <trkpt lat="43.15629" lon="11.40041">
        <ele>292.0</ele>
      </trkpt>
      <trkpt lat="43.15669" lon="11.40142">
        <ele>289.0</ele>
      </trkpt>
      <trkpt lat="43.15671" lon="11.40178">
        <ele>287.0</ele>
      </trkpt>
      <trkpt lat="43.15639" lon="11.40415">
        <ele>281.0</ele>
      </trkpt>
      <trkpt lat="43.15614" lon="11.40458">
        <ele>279.0</ele>
      </trkpt>
      <trkpt lat="43.15579" lon="11.40486">
        <ele>279.0</ele>
      </trkpt>
      <trkpt lat="43.15462" lon="11.40523">
        <ele>281.0</ele>
      </trkpt>
      <trkpt lat="43.15403" lon="11.40563">
        <ele>283.0</ele>
      </trkpt>
      <trkpt lat="43.15333" lon="11.40577">
        <ele>284.0</ele>
      </trkpt>
      <trkpt lat="43.15228" lon="11.40657">
        <ele>284.0</ele>
      </trkpt>
      <trkpt lat="43.15071" lon="11.40681">
        <ele>284.0</ele>
      </trkpt>
      <trkpt lat="43.15023" lon="11.40668">
        <ele>284.0</ele>
      </trkpt>
      <trkpt lat="43.14987" lon="11.40626">
        <ele>285.0</ele>
      </trkpt>
      <trkpt lat="43.14963" lon="11.4062">
        <ele>285.0</ele>
      </trkpt>
      <trkpt lat="43.14918" lon="11.40666">
        <ele>285.0</ele>
      </trkpt>
      <trkpt lat="43.1484" lon="11.40702">
        <ele>283.0</ele>
      </trkpt>
      <trkpt lat="43.14794" lon="11.40808">
        <ele>280.0</ele>
      </trkpt>
      <trkpt lat="43.14762" lon="11.41018">
        <ele>270.0</ele>
      </trkpt>
      <trkpt lat="43.14736" lon="11.41055">
        <ele>267.0</ele>
      </trkpt>
      <trkpt lat="43.14676" lon="11.41098">
        <ele>263.0</ele>
      </trkpt>
      <trkpt lat="43.14626" lon="11.41177">
        <ele>259.0</ele>
      </trkpt>
      <trkpt lat="43.14601" lon="11.41227">
        <ele>255.0</ele>
      </trkpt>
      <trkpt lat="43.14575" lon="11.41329">
        <ele>250.0</ele>
      </trkpt>
      <trkpt lat="43.14523" lon="11.41423">
        <ele>244.0</ele>
      </trkpt>
      <trkpt lat="43.14523" lon="11.41459">
        <ele>243.0</ele>
      </trkpt>
      <trkpt lat="43.14572" lon="11.41549">
        <ele>239.0</ele>
      </trkpt>
      <trkpt lat="43.14579" lon="11.41606">
        <ele>237.0</ele>
      </trkpt>
      <trkpt lat="43.14567" lon="11.41713">
        <ele>231.0</ele>
      </trkpt>
      <trkpt lat="43.14537" lon="11.41822">
        <ele>223.0</ele>
      </trkpt>
      <trkpt lat="43.14533" lon="11.41922">
        <ele>217.0</ele>
      </trkpt>
      <trkpt lat="43.14515" lon="11.42006">
        <ele>213.0</ele>
      </trkpt>
      <trkpt lat="43.14515" lon="11.421">
        <ele>208.0</ele>
      </trkpt>
      <trkpt lat="43.14494" lon="11.42149">
        <ele>205.0</ele>
      </trkpt>
      <trkpt lat="43.1441" lon="11.42183">
        <ele>202.0</ele>
      </trkpt>
      <trkpt lat="43.1425" lon="11.42141">
        <ele>196.0</ele>
      </trkpt>
      <trkpt lat="43.14151" lon="11.42167">
        <ele>191.0</ele>
      </trkpt>
      <trkpt lat="43.14031" lon="11.42075">
        <ele>196.0</ele>
      </trkpt>
      <trkpt lat="43.13947" lon="11.42083">
        <ele>199.0</ele>
      </trkpt>
      <trkpt lat="43.13832" lon="11.4214">
        <ele>205.0</ele>
      </trkpt>
      <trkpt lat="43.13759" lon="11.42244">
        <ele>208.0</ele>
      </trkpt>
      <trkpt lat="43.1367" lon="11.42283">
        <ele>210.0</ele>
      </trkpt>
      <trkpt lat="43.13599" lon="11.42408">
        <ele>219.0</ele>
      </trkpt>
      <trkpt lat="43.13385" lon="11.42632">
        <ele>243.0</ele>
      </trkpt>
      <trkpt lat="43.13342" lon="11.4265">
        <ele>249.0</ele>
      </trkpt>
      <trkpt lat="43.13115" lon="11.42667">
        <ele>249.0</ele>
      </trkpt>
      <trkpt lat="43.12963" lon="11.42844">
        <ele>247.0</ele>
      </trkpt>
      <trkpt lat="43.12888" lon="11.43083">
        <ele>252.0</ele>
      </trkpt>
      <trkpt lat="43.12859" lon="11.43249">
        <ele>257.0</ele>
      </trkpt>
      <trkpt lat="43.1288" lon="11.43401">
        <ele>257.0</ele>
      </trkpt>
      <trkpt lat="43.12974" lon="11.43582">
        <ele>252.0</ele>
      </trkpt>
      <trkpt lat="43.12993" lon="11.43647">
        <ele>249.0</ele>
      </trkpt>
      <trkpt lat="43.13012" lon="11.44172">
        <ele>253.0</ele>
      </trkpt>
      <trkpt lat="43.12992" lon="11.44223">
        <ele>253.0</ele>
      </trkpt>
      <trkpt lat="43.12905" lon="11.44333">
        <ele>251.0</ele>
      </trkpt>
      <trkpt lat="43.12723" lon="11.44515">
        <ele>242.0</ele>
      </trkpt>
      <trkpt lat="43.12674" lon="11.44649">
        <ele>238.0</ele>
      </trkpt>
      <trkpt lat="43.12483" lon="11.44855">
        <ele>238.0</ele>
      </trkpt>
      <trkpt lat="43.12481" lon="11.44881">
        <ele>238.0</ele>
      </trkpt>
      <trkpt lat="43.12575" lon="11.44918">
        <ele>236.0</ele>
      </trkpt>
      <trkpt lat="43.12611" lon="11.44953">
        <ele>235.0</ele>
      </trkpt>
      <trkpt lat="43.12665" lon="11.45127">
        <ele>230.0</ele>
      </trkpt>
      <trkpt lat="43.12679" lon="11.45402">
        <ele>210.0</ele>
      </trkpt>
      <trkpt lat="43.12697" lon="11.45457">
        <ele>205.0</ele>
      </trkpt>
      <trkpt lat="43.1272" lon="11.4549">
        <ele>199.0</ele>
      </trkpt>
      <trkpt lat="43.12837" lon="11.45549">
        <ele>179.0</ele>
      </trkpt>
      <trkpt lat="43.1286" lon="11.45576">
        <ele>172.0</ele>
      </trkpt>
      <trkpt lat="43.13" lon="11.45824">
        <ele>162.0</ele>
      </trkpt>
      <trkpt lat="43.13049" lon="11.46062">
        <ele>145.0</ele>
      </trkpt>
      <trkpt lat="43.131" lon="11.46086">
        <ele>144.0</ele>
      </trkpt>
      <trkpt lat="43.1314" lon="11.46148">
        <ele>146.0</ele>
      </trkpt>
      <trkpt lat="43.13192" lon="11.46165">
        <ele>147.0</ele>
      </trkpt>
      <trkpt lat="43.13295" lon="11.46392">
        <ele>147.0</ele>
      </trkpt>
      <trkpt lat="43.1351" lon="11.47522">
        <ele>139.0</ele>
      </trkpt>
      <trkpt lat="43.13672" lon="11.48207">
        <ele>145.0</ele>
      </trkpt>
      <trkpt lat="43.1368" lon="11.48339">
        <ele>146.0</ele>
      </trkpt>
      <trkpt lat="43.1382" lon="11.48335">
        <ele>146.0</ele>
      </trkpt>
      <trkpt lat="43.1389" lon="11.48316">
        <ele>145.0</ele>
      </trkpt>
      <trkpt lat="43.14151" lon="11.48133">
        <ele>142.0</ele>
      </trkpt>
      <trkpt lat="43.14268" lon="11.47978">
        <ele>144.0</ele>
      </trkpt>
      <trkpt lat="43.14318" lon="11.47748">
        <ele>144.0</ele>
      </trkpt>
      <trkpt lat="43.14425" lon="11.47623">
        <ele>146.0</ele>
      </trkpt>
      <trkpt lat="43.1456" lon="11.47617">
        <ele>148.0</ele>
      </trkpt>
      <trkpt lat="43.14921" lon="11.47482">
        <ele>147.0</ele>
      </trkpt>
      <trkpt lat="43.1504" lon="11.47407">
        <ele>149.0</ele>
      </trkpt>
      <trkpt lat="43.15171" lon="11.47285">
        <ele>145.0</ele>
      </trkpt>
      <trkpt lat="43.15233" lon="11.47254">
        <ele>142.0</ele>
      </trkpt>
      <trkpt lat="43.15776" lon="11.47127">
        <ele>147.0</ele>
      </trkpt>
      <trkpt lat="43.1589" lon="11.47046">
        <ele>147.0</ele>
      </trkpt>
      <trkpt lat="43.16067" lon="11.46883">
        <ele>147.0</ele>
      </trkpt>
      <trkpt lat="43.16295" lon="11.46826">
        <ele>147.0</ele>
      </trkpt>
      <trkpt lat="43.16575" lon="11.46639">
        <ele>145.0</ele>
      </trkpt>
      <trkpt lat="43.16637" lon="11.46555">
        <ele>146.0</ele>
      </trkpt>
      <trkpt lat="43.16699" lon="11.4651">
        <ele>148.0</ele>
      </trkpt>
      <trkpt lat="43.1675" lon="11.46506">
        <ele>148.0</ele>
      </trkpt>
      <trkpt lat="43.1686" lon="11.46561">
        <ele>149.0</ele>
      </trkpt>
      <trkpt lat="43.16963" lon="11.46572">
        <ele>149.0</ele>
      </trkpt>
      <trkpt lat="43.17803" lon="11.46243">
        <ele>151.0</ele>
      </trkpt>
      <trkpt lat="43.17935" lon="11.46278">
        <ele>155.0</ele>
      </trkpt>
      <trkpt lat="43.17974" lon="11.46273">
        <ele>156.0</ele>
      </trkpt>
      <trkpt lat="43.18007" lon="11.46244">
        <ele>157.0</ele>
      </trkpt>
      <trkpt lat="43.18075" lon="11.46109">
        <ele>158.0</ele>
      </trkpt>
      <trkpt lat="43.1838" lon="11.45798">
        <ele>160.0</ele>
      </trkpt>
      <trkpt lat="43.18583" lon="11.45552">
        <ele>165.0</ele>
      </trkpt>
      <trkpt lat="43.18651" lon="11.45496">
        <ele>169.0</ele>
      </trkpt>
      <trkpt lat="43.1881" lon="11.45407">
        <ele>178.0</ele>
      </trkpt>
      <trkpt lat="43.18966" lon="11.45402">
        <ele>176.0</ele>
      </trkpt>
      <trkpt lat="43.19069" lon="11.45343">
        <ele>173.0</ele>
      </trkpt>
      <trkpt lat="43.19123" lon="11.45333">
        <ele>170.0</ele>
      </trkpt>
      <trkpt lat="43.19157" lon="11.45355">
        <ele>168.0</ele>
      </trkpt>
      <trkpt lat="43.19214" lon="11.45482">
        <ele>166.0</ele>
      </trkpt>
      <trkpt lat="43.19258" lon="11.45503">
        <ele>165.0</ele>
      </trkpt>
      <trkpt lat="43.1929" lon="11.45492">
        <ele>164.0</ele>
      </trkpt>
      <trkpt lat="43.19314" lon="11.45448">
        <ele>163.0</ele>
      </trkpt>
      <trkpt lat="43.1927" lon="11.4528">
        <ele>159.0</ele>
      </trkpt>
      <trkpt lat="43.19505" lon="11.44866">
        <ele>159.0</ele>
      </trkpt>
      <trkpt lat="43.19582" lon="11.4455">
        <ele>160.0</ele>
      </trkpt>
      <trkpt lat="43.19616" lon="11.44475">
        <ele>158.0</ele>
      </trkpt>
      <trkpt lat="43.19662" lon="11.44429">
        <ele>157.0</ele>
      </trkpt>
      <trkpt lat="43.19863" lon="11.44329">
        <ele>157.0</ele>
      </trkpt>
      <trkpt lat="43.20278" lon="11.44277">
        <ele>156.0</ele>
      </trkpt>
      <trkpt lat="43.20418" lon="11.44126">
        <ele>157.0</ele>
      </trkpt>
      <trkpt lat="43.20739" lon="11.43925">
        <ele>157.0</ele>
      </trkpt>
      <trkpt lat="43.20759" lon="11.43897">
        <ele>157.0</ele>
      </trkpt>
      <trkpt lat="43.20826" lon="11.43709">
        <ele>157.0</ele>
      </trkpt>
      <trkpt lat="43.20864" lon="11.43556">
        <ele>158.0</ele>
      </trkpt>
      <trkpt lat="43.2086" lon="11.43384">
        <ele>162.0</ele>
      </trkpt>
      <trkpt lat="43.20914" lon="11.43233">
        <ele>164.0</ele>
      </trkpt>
      <trkpt lat="43.20939" lon="11.43205">
        <ele>165.0</ele>
      </trkpt>
      <trkpt lat="43.21302" lon="11.43189">
        <ele>165.0</ele>
      </trkpt>
      <trkpt lat="43.21426" lon="11.43221">
        <ele>163.0</ele>
      </trkpt>
      <trkpt lat="43.21508" lon="11.43262">
        <ele>162.0</ele>
      </trkpt>
      <trkpt lat="43.2153" lon="11.43277">
        <ele>161.0</ele>
      </trkpt>
      <trkpt lat="43.21554" lon="11.43337">
        <ele>160.0</ele>
      </trkpt>
      <trkpt lat="43.21582" lon="11.43345">
        <ele>159.0</ele>
      </trkpt>
      <trkpt lat="43.21599" lon="11.4333">
        <ele>159.0</ele>
      </trkpt>
      <trkpt lat="43.21623" lon="11.43264">
        <ele>159.0</ele>
      </trkpt>
      <trkpt lat="43.22226" lon="11.42777">
        <ele>160.0</ele>
      </trkpt>
      <trkpt lat="43.2237" lon="11.42632">
        <ele>162.0</ele>
      </trkpt>
      <trkpt lat="43.22503" lon="11.42472">
        <ele>161.0</ele>
      </trkpt>
      <trkpt lat="43.22627" lon="11.42374">
        <ele>162.0</ele>
      </trkpt>
      <trkpt lat="43.22828" lon="11.42355">
        <ele>163.0</ele>
      </trkpt>
      <trkpt lat="43.2286" lon="11.42377">
        <ele>163.0</ele>
      </trkpt>
      <trkpt lat="43.22915" lon="11.42814">
        <ele>161.0</ele>
      </trkpt>
      <trkpt lat="43.22906" lon="11.42858">
        <ele>161.0</ele>
      </trkpt>
      <trkpt lat="43.22871" lon="11.42904">
        <ele>161.0</ele>
      </trkpt>
      <trkpt lat="43.22993" lon="11.42841">
        <ele>164.0</ele>
      </trkpt>
      <trkpt lat="43.23065" lon="11.42855">
        <ele>167.0</ele>
      </trkpt>
      <trkpt lat="43.23725" lon="11.42309">
        <ele>167.0</ele>
      </trkpt>
      <trkpt lat="43.23751" lon="11.4235">
        <ele>167.0</ele>
      </trkpt>
      <trkpt lat="43.2382" lon="11.42349">
        <ele>167.0</ele>
      </trkpt>
      <trkpt lat="43.23858" lon="11.42458">
        <ele>167.0</ele>
      </trkpt>
      <trkpt lat="43.23929" lon="11.42519">
        <ele>167.0</ele>
      </trkpt>
      <trkpt lat="43.24049" lon="11.42518">
        <ele>165.0</ele>
      </trkpt>
      <trkpt lat="43.24067" lon="11.4253">
        <ele>165.0</ele>
      </trkpt>
      <trkpt lat="43.24286" lon="11.42801">
        <ele>173.0</ele>
      </trkpt>
      <trkpt lat="43.24409" lon="11.42768">
        <ele>179.0</ele>
      </trkpt>
      <trkpt lat="43.24457" lon="11.42782">
        <ele>186.0</ele>
      </trkpt>
      <trkpt lat="43.2453" lon="11.42897">
        <ele>198.0</ele>
      </trkpt>
      <trkpt lat="43.24587" lon="11.43023">
        <ele>212.0</ele>
      </trkpt>
      <trkpt lat="43.24598" lon="11.43127">
        <ele>215.0</ele>
      </trkpt>
      <trkpt lat="43.24613" lon="11.43167">
        <ele>218.0</ele>
      </trkpt>
      <trkpt lat="43.24716" lon="11.43225">
        <ele>214.0</ele>
      </trkpt>
      <trkpt lat="43.24786" lon="11.43343">
        <ele>207.0</ele>
      </trkpt>
      <trkpt lat="43.2491" lon="11.43394">
        <ele>198.0</ele>
      </trkpt>
      <trkpt lat="43.25023" lon="11.43532">
        <ele>189.0</ele>
      </trkpt>
      <trkpt lat="43.2501" lon="11.43628">
        <ele>180.0</ele>
      </trkpt>
      <trkpt lat="43.25065" lon="11.43941">
        <ele>172.0</ele>
      </trkpt>
      <trkpt lat="43.25017" lon="11.44001">
        <ele>173.0</ele>
      </trkpt>
      <trkpt lat="43.24937" lon="11.44051">
        <ele>173.0</ele>
      </trkpt>
      <trkpt lat="43.24816" lon="11.44198">
        <ele>174.0</ele>
      </trkpt>
      <trkpt lat="43.24842" lon="11.44299">
        <ele>181.0</ele>
      </trkpt>
      <trkpt lat="43.24836" lon="11.44368">
        <ele>188.0</ele>
      </trkpt>
      <trkpt lat="43.24885" lon="11.44526">
        <ele>203.0</ele>
      </trkpt>
      <trkpt lat="43.2484" lon="11.44637">
        <ele>216.0</ele>
      </trkpt>
      <trkpt lat="43.24845" lon="11.44827">
        <ele>229.0</ele>
      </trkpt>
      <trkpt lat="43.24799" lon="11.44989">
        <ele>230.0</ele>
      </trkpt>
      <trkpt lat="43.24784" lon="11.45291">
        <ele>226.0</ele>
      </trkpt>
      <trkpt lat="43.24751" lon="11.45375">
        <ele>229.0</ele>
      </trkpt>
      <trkpt lat="43.24759" lon="11.45497">
        <ele>236.0</ele>
      </trkpt>
      <trkpt lat="43.24793" lon="11.45575">
        <ele>243.0</ele>
      </trkpt>
      <trkpt lat="43.24906" lon="11.45604">
        <ele>250.0</ele>
      </trkpt>
      <trkpt lat="43.24958" lon="11.4566">
        <ele>255.0</ele>
      </trkpt>
      <trkpt lat="43.25133" lon="11.45756">
        <ele>263.0</ele>
      </trkpt>
      <trkpt lat="43.25185" lon="11.45738">
        <ele>264.0</ele>
      </trkpt>
      <trkpt lat="43.25255" lon="11.45786">
        <ele>261.0</ele>
      </trkpt>
      <trkpt lat="43.25276" lon="11.45821">
        <ele>256.0</ele>
      </trkpt>
      <trkpt lat="43.25275" lon="11.45927">
        <ele>249.0</ele>
      </trkpt>
      <trkpt lat="43.25347" lon="11.45993">
        <ele>243.0</ele>
      </trkpt>
      <trkpt lat="43.25384" lon="11.46079">
        <ele>238.0</ele>
      </trkpt>
      <trkpt lat="43.25442" lon="11.46167">
        <ele>235.0</ele>
      </trkpt>
      <trkpt lat="43.25544" lon="11.46173">
        <ele>232.0</ele>
      </trkpt>
      <trkpt lat="43.25671" lon="11.46226">
        <ele>237.0</ele>
      </trkpt>
      <trkpt lat="43.25714" lon="11.46208">
        <ele>240.0</ele>
      </trkpt>
      <trkpt lat="43.25788" lon="11.46139">
        <ele>242.0</ele>
      </trkpt>
      <trkpt lat="43.25822" lon="11.4614">
        <ele>244.0</ele>
      </trkpt>
      <trkpt lat="43.25888" lon="11.46189">
        <ele>246.0</ele>
      </trkpt>
      <trkpt lat="43.25992" lon="11.46317">
        <ele>249.0</ele>
      </trkpt>
      <trkpt lat="43.2606" lon="11.46362">
        <ele>252.0</ele>
      </trkpt>
      <trkpt lat="43.26143" lon="11.46553">
        <ele>249.0</ele>
      </trkpt>
      <trkpt lat="43.26206" lon="11.46632">
        <ele>248.0</ele>
      </trkpt>
      <trkpt lat="43.26313" lon="11.46833">
        <ele>248.0</ele>
      </trkpt>
      <trkpt lat="43.26359" lon="11.46986">
        <ele>252.0</ele>
      </trkpt>
      <trkpt lat="43.26377" lon="11.47118">
        <ele>262.0</ele>
      </trkpt>
      <trkpt lat="43.26445" lon="11.472">
        <ele>272.0</ele>
      </trkpt>
      <trkpt lat="43.26489" lon="11.47315">
        <ele>275.0</ele>
      </trkpt>
      <trkpt lat="43.26536" lon="11.47354">
        <ele>276.0</ele>
      </trkpt>
      <trkpt lat="43.26548" lon="11.47386">
        <ele>276.0</ele>
      </trkpt>
      <trkpt lat="43.26655" lon="11.47443">
        <ele>276.0</ele>
      </trkpt>
      <trkpt lat="43.26656" lon="11.47491">
        <ele>275.0</ele>
      </trkpt>
      <trkpt lat="43.26692" lon="11.47493">
        <ele>275.0</ele>
      </trkpt>
      <trkpt lat="43.26777" lon="11.47553">
        <ele>271.0</ele>
      </trkpt>
      <trkpt lat="43.26871" lon="11.4767">
        <ele>265.0</ele>
      </trkpt>
      <trkpt lat="43.26975" lon="11.47847">
        <ele>260.0</ele>
      </trkpt>
      <trkpt lat="43.27046" lon="11.47877">
        <ele>261.0</ele>
      </trkpt>
      <trkpt lat="43.27108" lon="11.48066">
        <ele>267.0</ele>
      </trkpt>
      <trkpt lat="43.27141" lon="11.48121">
        <ele>274.0</ele>
      </trkpt>
      <trkpt lat="43.2726" lon="11.48169">
        <ele>289.0</ele>
      </trkpt>
      <trkpt lat="43.27258" lon="11.48195">
        <ele>292.0</ele>
      </trkpt>
      <trkpt lat="43.27194" lon="11.48228">
        <ele>298.0</ele>
      </trkpt>
      <trkpt lat="43.27181" lon="11.48281">
        <ele>302.0</ele>
      </trkpt>
      <trkpt lat="43.27197" lon="11.48299">
        <ele>305.0</ele>
      </trkpt>
      <trkpt lat="43.27245" lon="11.48298">
        <ele>308.0</ele>
      </trkpt>
      <trkpt lat="43.27314" lon="11.4833">
        <ele>312.0</ele>
      </trkpt>
      <trkpt lat="43.27319" lon="11.48351">
        <ele>315.0</ele>
      </trkpt>
      <trkpt lat="43.27288" lon="11.48399">
        <ele>318.0</ele>
      </trkpt>
      <trkpt lat="43.27305" lon="11.48445">
        <ele>321.0</ele>
      </trkpt>
      <trkpt lat="43.27391" lon="11.48449">
        <ele>325.0</ele>
      </trkpt>
      <trkpt lat="43.27493" lon="11.48492">
        <ele>332.0</ele>
      </trkpt>
      <trkpt lat="43.27549" lon="11.48449">
        <ele>332.0</ele>
      </trkpt>
      <trkpt lat="43.27757" lon="11.48345">
        <ele>323.0</ele>
      </trkpt>
      <trkpt lat="43.27979" lon="11.48395">
        <ele>313.0</ele>
      </trkpt>
      <trkpt lat="43.28074" lon="11.48376">
        <ele>308.0</ele>
      </trkpt>
      <trkpt lat="43.28133" lon="11.48309">
        <ele>305.0</ele>
      </trkpt>
      <trkpt lat="43.28185" lon="11.48214">
        <ele>303.0</ele>
      </trkpt>
      <trkpt lat="43.28271" lon="11.47995">
        <ele>291.0</ele>
      </trkpt>
      <trkpt lat="43.28282" lon="11.47849">
        <ele>284.0</ele>
      </trkpt>
      <trkpt lat="43.28255" lon="11.47671">
        <ele>276.0</ele>
      </trkpt>
      <trkpt lat="43.28258" lon="11.47567">
        <ele>273.0</ele>
      </trkpt>
      <trkpt lat="43.28201" lon="11.47429">
        <ele>270.0</ele>
      </trkpt>
      <trkpt lat="43.28162" lon="11.47237">
        <ele>267.0</ele>
      </trkpt>
      <trkpt lat="43.28072" lon="11.46931">
        <ele>262.0</ele>
      </trkpt>
      <trkpt lat="43.28125" lon="11.46558">
        <ele>257.0</ele>
      </trkpt>
      <trkpt lat="43.28114" lon="11.46461">
        <ele>255.0</ele>
      </trkpt>
      <trkpt lat="43.28063" lon="11.46341">
        <ele>253.0</ele>
      </trkpt>
      <trkpt lat="43.27899" lon="11.46073">
        <ele>256.0</ele>
      </trkpt>
      <trkpt lat="43.27784" lon="11.45768">
        <ele>256.0</ele>
      </trkpt>
      <trkpt lat="43.27774" lon="11.45731">
        <ele>254.0</ele>
      </trkpt>
      <trkpt lat="43.27778" lon="11.4566">
        <ele>250.0</ele>
      </trkpt>
      <trkpt lat="43.27832" lon="11.45514">
        <ele>243.0</ele>
      </trkpt>
      <trkpt lat="43.27918" lon="11.45366">
        <ele>238.0</ele>
      </trkpt>
      <trkpt lat="43.27913" lon="11.45237">
        <ele>235.0</ele>
      </trkpt>
      <trkpt lat="43.27924" lon="11.45129">
        <ele>234.0</ele>
      </trkpt>
      <trkpt lat="43.27954" lon="11.45032">
        <ele>233.0</ele>
      </trkpt>
      <trkpt lat="43.27967" lon="11.4492">
        <ele>232.0</ele>
      </trkpt>
      <trkpt lat="43.28042" lon="11.44828">
        <ele>230.0</ele>
      </trkpt>
      <trkpt lat="43.28046" lon="11.44608">
        <ele>224.0</ele>
      </trkpt>
      <trkpt lat="43.28105" lon="11.44526">
        <ele>217.0</ele>
      </trkpt>
      <trkpt lat="43.28183" lon="11.44334">
        <ele>207.0</ele>
      </trkpt>
      <trkpt lat="43.28284" lon="11.44195">
        <ele>197.0</ele>
      </trkpt>
      <trkpt lat="43.28465" lon="11.44085">
        <ele>182.0</ele>
      </trkpt>
      <trkpt lat="43.28458" lon="11.43892">
        <ele>182.0</ele>
      </trkpt>
      <trkpt lat="43.28574" lon="11.43553">
        <ele>180.0</ele>
      </trkpt>
      <trkpt lat="43.28585" lon="11.43409">
        <ele>180.0</ele>
      </trkpt>
      <trkpt lat="43.28659" lon="11.43135">
        <ele>181.0</ele>
      </trkpt>
      <trkpt lat="43.28742" lon="11.42963">
        <ele>183.0</ele>
      </trkpt>
      <trkpt lat="43.28763" lon="11.42773">
        <ele>186.0</ele>
      </trkpt>
      <trkpt lat="43.28879" lon="11.42621">
        <ele>193.0</ele>
      </trkpt>
      <trkpt lat="43.28845" lon="11.42365">
        <ele>207.0</ele>
      </trkpt>
      <trkpt lat="43.28851" lon="11.42335">
        <ele>213.0</ele>
      </trkpt>
      <trkpt lat="43.28928" lon="11.42232">
        <ele>213.0</ele>
      </trkpt>
      <trkpt lat="43.29037" lon="11.42033">
        <ele>204.0</ele>
      </trkpt>
      <trkpt lat="43.29225" lon="11.41594">
        <ele>205.0</ele>
      </trkpt>
      <trkpt lat="43.29276" lon="11.41391">
        <ele>203.0</ele>
      </trkpt>
      <trkpt lat="43.29342" lon="11.41218">
        <ele>196.0</ele>
      </trkpt>
      <trkpt lat="43.29371" lon="11.41154">
        <ele>191.0</ele>
      </trkpt>
      <trkpt lat="43.29405" lon="11.41129">
        <ele>190.0</ele>
      </trkpt>
      <trkpt lat="43.29411" lon="11.4107">
        <ele>189.0</ele>
      </trkpt>
      <trkpt lat="43.29517" lon="11.40827">
        <ele>188.0</ele>
      </trkpt>
      <trkpt lat="43.29776" lon="11.41301">
        <ele>192.0</ele>
      </trkpt>
      <trkpt lat="43.29886" lon="11.41747">
        <ele>201.0</ele>
      </trkpt>
      <trkpt lat="43.29876" lon="11.41996">
        <ele>212.0</ele>
      </trkpt>
      <trkpt lat="43.2989" lon="11.42072">
        <ele>213.0</ele>
      </trkpt>
      <trkpt lat="43.30127" lon="11.42369">
        <ele>216.0</ele>
      </trkpt>
      <trkpt lat="43.30171" lon="11.42481">
        <ele>211.0</ele>
      </trkpt>
      <trkpt lat="43.30207" lon="11.42488">
        <ele>209.0</ele>
      </trkpt>
      <trkpt lat="43.30255" lon="11.42469">
        <ele>207.0</ele>
      </trkpt>
      <trkpt lat="43.30299" lon="11.42501">
        <ele>204.0</ele>
      </trkpt>
      <trkpt lat="43.30384" lon="11.42783">
        <ele>199.0</ele>
      </trkpt>
      <trkpt lat="43.30473" lon="11.42807">
        <ele>199.0</ele>
      </trkpt>
      <trkpt lat="43.30585" lon="11.4279">
        <ele>196.0</ele>
      </trkpt>
      <trkpt lat="43.30646" lon="11.42763">
        <ele>192.0</ele>
      </trkpt>
      <trkpt lat="43.30656" lon="11.4271">
        <ele>191.0</ele>
      </trkpt>
      <trkpt lat="43.30694" lon="11.42661">
        <ele>191.0</ele>
      </trkpt>
      <trkpt lat="43.30787" lon="11.42485">
        <ele>191.0</ele>
      </trkpt>
      <trkpt lat="43.30968" lon="11.42295">
        <ele>198.0</ele>
      </trkpt>
      <trkpt lat="43.30996" lon="11.42288">
        <ele>208.0</ele>
      </trkpt>
      <trkpt lat="43.31489" lon="11.42816">
        <ele>219.0</ele>
      </trkpt>
      <trkpt lat="43.31782" lon="11.42898">
        <ele>219.0</ele>
      </trkpt>
      <trkpt lat="43.32279" lon="11.43074">
        <ele>221.0</ele>
      </trkpt>
      <trkpt lat="43.32285" lon="11.42991">
        <ele>222.0</ele>
      </trkpt>
      <trkpt lat="43.32341" lon="11.42774">
        <ele>219.0</ele>
      </trkpt>
      <trkpt lat="43.32318" lon="11.42624">
        <ele>211.0</ele>
      </trkpt>
      <trkpt lat="43.32342" lon="11.42606">
        <ele>209.0</ele>
      </trkpt>
      <trkpt lat="43.32429" lon="11.42618">
        <ele>203.0</ele>
      </trkpt>
      <trkpt lat="43.32575" lon="11.42529">
        <ele>197.0</ele>
      </trkpt>
      <trkpt lat="43.32611" lon="11.42481">
        <ele>196.0</ele>
      </trkpt>
      <trkpt lat="43.32619" lon="11.42404">
        <ele>196.0</ele>
      </trkpt>
      <trkpt lat="43.32597" lon="11.4231">
        <ele>198.0</ele>
      </trkpt>
      <trkpt lat="43.32592" lon="11.42189">
        <ele>201.0</ele>
      </trkpt>
      <trkpt lat="43.32543" lon="11.41905">
        <ele>217.0</ele>
      </trkpt>
      <trkpt lat="43.32549" lon="11.41875">
        <ele>220.0</ele>
      </trkpt>
      <trkpt lat="43.32589" lon="11.41837">
        <ele>227.0</ele>
      </trkpt>
      <trkpt lat="43.32592" lon="11.4181">
        <ele>230.0</ele>
      </trkpt>
      <trkpt lat="43.32546" lon="11.41472">
        <ele>249.0</ele>
      </trkpt>
      <trkpt lat="43.32535" lon="11.41311">
        <ele>252.0</ele>
      </trkpt>
      <trkpt lat="43.32597" lon="11.41038">
        <ele>245.0</ele>
      </trkpt>
      <trkpt lat="43.3258" lon="11.40985">
        <ele>241.0</ele>
      </trkpt>
      <trkpt lat="43.32582" lon="11.40893">
        <ele>235.0</ele>
      </trkpt>
      <trkpt lat="43.32558" lon="11.40685">
        <ele>226.0</ele>
      </trkpt>
      <trkpt lat="43.32506" lon="11.40549">
        <ele>219.0</ele>
      </trkpt>
      <trkpt lat="43.32494" lon="11.40451">
        <ele>216.0</ele>
      </trkpt>
      <trkpt lat="43.32516" lon="11.39999">
        <ele>232.0</ele>
      </trkpt>
      <trkpt lat="43.32508" lon="11.39794">
        <ele>243.0</ele>
      </trkpt>
      <trkpt lat="43.32568" lon="11.39584">
        <ele>250.0</ele>
      </trkpt>
      <trkpt lat="43.32568" lon="11.39466">
        <ele>254.0</ele>
      </trkpt>
      <trkpt lat="43.32501" lon="11.39255">
        <ele>260.0</ele>
      </trkpt>
      <trkpt lat="43.32455" lon="11.39257">
        <ele>261.0</ele>
      </trkpt>
      <trkpt lat="43.32169" lon="11.39173">
        <ele>256.0</ele>
      </trkpt>
      <trkpt lat="43.32016" lon="11.3909">
        <ele>249.0</ele>
      </trkpt>
      <trkpt lat="43.31945" lon="11.38767">
        <ele>234.0</ele>
      </trkpt>
      <trkpt lat="43.31902" lon="11.38717">
        <ele>230.0</ele>
      </trkpt>
      <trkpt lat="43.31916" lon="11.38658">
        <ele>228.0</ele>
      </trkpt>
      <trkpt lat="43.32005" lon="11.3859">
        <ele>222.0</ele>
      </trkpt>
      <trkpt lat="43.32012" lon="11.38508">
        <ele>218.0</ele>
      </trkpt>
      <trkpt lat="43.32077" lon="11.38398">
        <ele>212.0</ele>
      </trkpt>
      <trkpt lat="43.3203" lon="11.38105">
        <ele>199.0</ele>
      </trkpt>
      <trkpt lat="43.32058" lon="11.37869">
        <ele>199.0</ele>
      </trkpt>
      <trkpt lat="43.32042" lon="11.37695">
        <ele>207.0</ele>
      </trkpt>
      <trkpt lat="43.32048" lon="11.37612">
        <ele>210.0</ele>
      </trkpt>
      <trkpt lat="43.32097" lon="11.37603">
        <ele>209.0</ele>
      </trkpt>
      <trkpt lat="43.32154" lon="11.377">
        <ele>208.0</ele>
      </trkpt>
      <trkpt lat="43.32234" lon="11.37714">
        <ele>211.0</ele>
      </trkpt>
      <trkpt lat="43.32263" lon="11.37685">
        <ele>214.0</ele>
      </trkpt>
      <trkpt lat="43.32313" lon="11.37594">
        <ele>221.0</ele>
      </trkpt>
      <trkpt lat="43.32401" lon="11.37592">
        <ele>228.0</ele>
      </trkpt>
      <trkpt lat="43.32409" lon="11.37604">
        <ele>237.0</ele>
      </trkpt>
      <trkpt lat="43.32387" lon="11.37668">
        <ele>248.0</ele>
      </trkpt>
      <trkpt lat="43.32415" lon="11.37682">
        <ele>254.0</ele>
      </trkpt>
      <trkpt lat="43.32561" lon="11.37526">
        <ele>252.0</ele>
      </trkpt>
      <trkpt lat="43.32703" lon="11.37486">
        <ele>255.0</ele>
      </trkpt>
      <trkpt lat="43.32805" lon="11.37496">
        <ele>259.0</ele>
      </trkpt>
      <trkpt lat="43.32869" lon="11.37584">
        <ele>268.0</ele>
      </trkpt>
      <trkpt lat="43.32933" lon="11.37568">
        <ele>272.0</ele>
      </trkpt>
      <trkpt lat="43.33051" lon="11.37592">
        <ele>276.0</ele>
      </trkpt>
      <trkpt lat="43.33145" lon="11.37551">
        <ele>277.0</ele>
      </trkpt>
      <trkpt lat="43.3324" lon="11.3739">
        <ele>276.0</ele>
      </trkpt>
      <trkpt lat="43.33334" lon="11.3735">
        <ele>275.0</ele>
      </trkpt>
      <trkpt lat="43.33564" lon="11.37314">
        <ele>280.0</ele>
      </trkpt>
      <trkpt lat="43.33707" lon="11.37245">
        <ele>288.0</ele>
      </trkpt>
      <trkpt lat="43.33727" lon="11.37196">
        <ele>291.0</ele>
      </trkpt>
      <trkpt lat="43.33783" lon="11.3716">
        <ele>294.0</ele>
      </trkpt>
      <trkpt lat="43.33796" lon="11.37162">
        <ele>295.0</ele>
      </trkpt>
      <trkpt lat="43.33813" lon="11.37198">
        <ele>297.0</ele>
      </trkpt>
      <trkpt lat="43.33834" lon="11.37186">
        <ele>298.0</ele>
      </trkpt>
      <trkpt lat="43.33971" lon="11.37087">
        <ele>296.0</ele>
      </trkpt>
      <trkpt lat="43.34053" lon="11.36999">
        <ele>290.0</ele>
      </trkpt>
      <trkpt lat="43.34242" lon="11.36848">
        <ele>288.0</ele>
      </trkpt>
      <trkpt lat="43.34552" lon="11.36214">
        <ele>276.0</ele>
      </trkpt>
      <trkpt lat="43.34532" lon="11.3611">
        <ele>270.0</ele>
      </trkpt>
      <trkpt lat="43.34575" lon="11.36027">
        <ele>268.0</ele>
      </trkpt>
      <trkpt lat="43.34574" lon="11.36">
        <ele>268.0</ele>
      </trkpt>
      <trkpt lat="43.34535" lon="11.3598">
        <ele>269.0</ele>
      </trkpt>
      <trkpt lat="43.3445" lon="11.35981">
        <ele>275.0</ele>
      </trkpt>
      <trkpt lat="43.34379" lon="11.35875">
        <ele>279.0</ele>
      </trkpt>
      <trkpt lat="43.34051" lon="11.35749">
        <ele>265.0</ele>
      </trkpt>
      <trkpt lat="43.33976" lon="11.35705">
        <ele>263.0</ele>
      </trkpt>
      <trkpt lat="43.33957" lon="11.35709">
        <ele>264.0</ele>
      </trkpt>
      <trkpt lat="43.33919" lon="11.35763">
        <ele>265.0</ele>
      </trkpt>
      <trkpt lat="43.33817" lon="11.35848">
        <ele>266.0</ele>
      </trkpt>
      <trkpt lat="43.33783" lon="11.35853">
        <ele>268.0</ele>
      </trkpt>
      <trkpt lat="43.33772" lon="11.35662">
        <ele>280.0</ele>
      </trkpt>
      <trkpt lat="43.33754" lon="11.3559">
        <ele>285.0</ele>
      </trkpt>
      <trkpt lat="43.33704" lon="11.35509">
        <ele>288.0</ele>
      </trkpt>
      <trkpt lat="43.33696" lon="11.35441">
        <ele>291.0</ele>
      </trkpt>
      <trkpt lat="43.3357" lon="11.35183">
        <ele>304.0</ele>
      </trkpt>
      <trkpt lat="43.33501" lon="11.35132">
        <ele>303.0</ele>
      </trkpt>
      <trkpt lat="43.33468" lon="11.3506">
        <ele>301.0</ele>
      </trkpt>
      <trkpt lat="43.33427" lon="11.34801">
        <ele>307.0</ele>
      </trkpt>
      <trkpt lat="43.33383" lon="11.34655">
        <ele>313.0</ele>
      </trkpt>
      <trkpt lat="43.33396" lon="11.34515">
        <ele>313.0</ele>
      </trkpt>
      <trkpt lat="43.33361" lon="11.34454">
        <ele>314.0</ele>
      </trkpt>
      <trkpt lat="43.33521" lon="11.34517">
        <ele>318.0</ele>
      </trkpt>
      <trkpt lat="43.33743" lon="11.34712">
        <ele>292.0</ele>
      </trkpt>
      <trkpt lat="43.33913" lon="11.34793">
        <ele>281.0</ele>
      </trkpt>
      <trkpt lat="43.33967" lon="11.3487">
        <ele>275.0</ele>
      </trkpt>
      <trkpt lat="43.34197" lon="11.34773">
        <ele>285.0</ele>
      </trkpt>
      <trkpt lat="43.34265" lon="11.34978">
        <ele>312.0</ele>
      </trkpt>
      <trkpt lat="43.34278" lon="11.34952">
        <ele>315.0</ele>
      </trkpt>
      <trkpt lat="43.34301" lon="11.34941">
        <ele>318.0</ele>
      </trkpt>
      <trkpt lat="43.34319" lon="11.34883">
        <ele>321.0</ele>
      </trkpt>
      <trkpt lat="43.34404" lon="11.34857">
        <ele>325.0</ele>
      </trkpt>
      <trkpt lat="43.34487" lon="11.34876">
        <ele>328.0</ele>
      </trkpt>
      <trkpt lat="43.34559" lon="11.34843">
        <ele>329.0</ele>
      </trkpt>
      <trkpt lat="43.34585" lon="11.34818">
        <ele>329.0</ele>
      </trkpt>
      <trkpt lat="43.34631" lon="11.34725">
        <ele>328.0</ele>
      </trkpt>
      <trkpt lat="43.34762" lon="11.34677">
        <ele>325.0</ele>
      </trkpt>
      <trkpt lat="43.34817" lon="11.3463">
        <ele>322.0</ele>
      </trkpt>
      <trkpt lat="43.34865" lon="11.34556">
        <ele>320.0</ele>
      </trkpt>
      <trkpt lat="43.3496" lon="11.34474">
        <ele>318.0</ele>
      </trkpt>
      <trkpt lat="43.35015" lon="11.3435">
        <ele>318.0</ele>
      </trkpt>
      <trkpt lat="43.35022" lon="11.34295">
        <ele>322.0</ele>
      </trkpt>
      <trkpt lat="43.3496" lon="11.3413">
        <ele>341.0</ele>
      </trkpt>
      <trkpt lat="43.35006" lon="11.34061">
        <ele>342.0</ele>
      </trkpt>
      <trkpt lat="43.35018" lon="11.33973">
        <ele>338.0</ele>
      </trkpt>
      <trkpt lat="43.35094" lon="11.33875">
        <ele>334.0</ele>
      </trkpt>
      <trkpt lat="43.35174" lon="11.33569">
        <ele>335.0</ele>
      </trkpt>
      <trkpt lat="43.35229" lon="11.33454">
        <ele>337.0</ele>
      </trkpt>
      <trkpt lat="43.3524" lon="11.33377">
        <ele>336.0</ele>
      </trkpt>
      <trkpt lat="43.35291" lon="11.33263">
        <ele>330.0</ele>
      </trkpt>
      <trkpt lat="43.35289" lon="11.33115">
        <ele>326.0</ele>
      </trkpt>
      <trkpt lat="43.35244" lon="11.32904">
        <ele>336.0</ele>
      </trkpt>
      <trkpt lat="43.3532" lon="11.32785">
        <ele>338.0</ele>
      </trkpt>
      <trkpt lat="43.35385" lon="11.32731">
        <ele>340.0</ele>
      </trkpt>
      <trkpt lat="43.35443" lon="11.3262">
        <ele>339.0</ele>
      </trkpt>
      <trkpt lat="43.35477" lon="11.32497">
        <ele>336.0</ele>
      </trkpt>
      <trkpt lat="43.35511" lon="11.32449">
        <ele>337.0</ele>
      </trkpt>
      <trkpt lat="43.35572" lon="11.32312">
        <ele>338.0</ele>
      </trkpt>
      <trkpt lat="43.35646" lon="11.32115">
        <ele>338.0</ele>
      </trkpt>
      <trkpt lat="43.35695" lon="11.32036">
        <ele>338.0</ele>
      </trkpt>
      <trkpt lat="43.35746" lon="11.3196">
        <ele>342.0</ele>
      </trkpt>
      <trkpt lat="43.3589" lon="11.31871">
        <ele>346.0</ele>
      </trkpt>
      <trkpt lat="43.35927" lon="11.31832">
        <ele>348.0</ele>
      </trkpt>
      <trkpt lat="43.35932" lon="11.31668">
        <ele>348.0</ele>
      </trkpt>
      <trkpt lat="43.35938" lon="11.31743">
        <ele>346.0</ele>
      </trkpt>
      <trkpt lat="43.35989" lon="11.31879">
        <ele>341.0</ele>
      </trkpt>
      <trkpt lat="43.35986" lon="11.3195">
        <ele>337.0</ele>
      </trkpt>
      <trkpt lat="43.36015" lon="11.32005">
        <ele>333.0</ele>
      </trkpt>
      <trkpt lat="43.35999" lon="11.32026">
        <ele>331.0</ele>
      </trkpt>
      <trkpt lat="43.3596" lon="11.32007">
        <ele>329.0</ele>
      </trkpt>
      <trkpt lat="43.35958" lon="11.32045">
        <ele>326.0</ele>
      </trkpt>
      <trkpt lat="43.36006" lon="11.32097">
        <ele>322.0</ele>
      </trkpt>
      <trkpt lat="43.36083" lon="11.32113">
        <ele>316.0</ele>
      </trkpt>
      <trkpt lat="43.36089" lon="11.322">
        <ele>313.0</ele>
      </trkpt>
      <trkpt lat="43.36122" lon="11.32289">
        <ele>311.0</ele>
      </trkpt>
      <trkpt lat="43.36263" lon="11.32467">
        <ele>310.0</ele>
      </trkpt>
      <trkpt lat="43.36332" lon="11.32597">
        <ele>310.0</ele>
      </trkpt>
      <trkpt lat="43.36364" lon="11.32693">
        <ele>308.0</ele>
      </trkpt>
      <trkpt lat="43.36358" lon="11.32735">
        <ele>305.0</ele>
      </trkpt>
      <trkpt lat="43.36232" lon="11.32869">
        <ele>296.0</ele>
      </trkpt>
      <trkpt lat="43.36232" lon="11.32904">
        <ele>293.0</ele>
      </trkpt>
      <trkpt lat="43.3625" lon="11.32916">
        <ele>291.0</ele>
      </trkpt>
      <trkpt lat="43.36281" lon="11.32876">
        <ele>289.0</ele>
      </trkpt>
      <trkpt lat="43.36308" lon="11.32871">
        <ele>287.0</ele>
      </trkpt>
      <trkpt lat="43.36401" lon="11.33028">
        <ele>278.0</ele>
      </trkpt>
      <trkpt lat="43.36562" lon="11.33045">
        <ele>267.0</ele>
      </trkpt>
      <trkpt lat="43.36614" lon="11.33235">
        <ele>255.0</ele>
      </trkpt>
      <trkpt lat="43.36664" lon="11.33321">
        <ele>252.0</ele>
      </trkpt>
      <trkpt lat="43.36909" lon="11.33382">
        <ele>257.0</ele>
      </trkpt>
      <trkpt lat="43.37329" lon="11.33587">
        <ele>290.0</ele>
      </trkpt>
      <trkpt lat="43.37495" lon="11.3361">
        <ele>295.0</ele>
      </trkpt>
      <trkpt lat="43.37593" lon="11.33651">
        <ele>296.0</ele>
      </trkpt>
      <trkpt lat="43.37714" lon="11.33739">
        <ele>301.0</ele>
      </trkpt>
      <trkpt lat="43.37797" lon="11.33882">
        <ele>310.0</ele>
      </trkpt>
      <trkpt lat="43.37847" lon="11.33931">
        <ele>315.0</ele>
      </trkpt>
      <trkpt lat="43.38044" lon="11.34083">
        <ele>335.0</ele>
      </trkpt>
      <trkpt lat="43.38161" lon="11.34119">
        <ele>348.0</ele>
      </trkpt>
      <trkpt lat="43.38282" lon="11.34211">
        <ele>353.0</ele>
      </trkpt>
      <trkpt lat="43.38152" lon="11.34302">
        <ele>354.0</ele>
      </trkpt>
      <trkpt lat="43.38039" lon="11.34435">
        <ele>354.0</ele>
      </trkpt>
      <trkpt lat="43.37961" lon="11.34676">
        <ele>353.0</ele>
      </trkpt>
      <trkpt lat="43.379" lon="11.34774">
        <ele>351.0</ele>
      </trkpt>
      <trkpt lat="43.37821" lon="11.34856">
        <ele>349.0</ele>
      </trkpt>
      <trkpt lat="43.37553" lon="11.35041">
        <ele>343.0</ele>
      </trkpt>
      <trkpt lat="43.37462" lon="11.35113">
        <ele>342.0</ele>
      </trkpt>
      <trkpt lat="43.37416" lon="11.35168">
        <ele>341.0</ele>
      </trkpt>
      <trkpt lat="43.37359" lon="11.35366">
        <ele>345.0</ele>
      </trkpt>
      <trkpt lat="43.3737" lon="11.35735">
        <ele>356.0</ele>
      </trkpt>
      <trkpt lat="43.37323" lon="11.35885">
        <ele>360.0</ele>
      </trkpt>
      <trkpt lat="43.37303" lon="11.35913">
        <ele>362.0</ele>
      </trkpt>
      <trkpt lat="43.37224" lon="11.35959">
        <ele>361.0</ele>
      </trkpt>
      <trkpt lat="43.3719" lon="11.35937">
        <ele>359.0</ele>
      </trkpt>
      <trkpt lat="43.37052" lon="11.35961">
        <ele>356.0</ele>
      </trkpt>
      <trkpt lat="43.36968" lon="11.3601">
        <ele>350.0</ele>
      </trkpt>
      <trkpt lat="43.36929" lon="11.36004">
        <ele>349.0</ele>
      </trkpt>
      <trkpt lat="43.36191" lon="11.3671">
        <ele>325.0</ele>
      </trkpt>
      <trkpt lat="43.36058" lon="11.36762">
        <ele>320.0</ele>
      </trkpt>
      <trkpt lat="43.35746" lon="11.36933">
        <ele>304.0</ele>
      </trkpt>
      <trkpt lat="43.35385" lon="11.36976">
        <ele>285.0</ele>
      </trkpt>
      <trkpt lat="43.35242" lon="11.36812">
        <ele>278.0</ele>
      </trkpt>
      <trkpt lat="43.35137" lon="11.36754">
        <ele>268.0</ele>
      </trkpt>
      <trkpt lat="43.34783" lon="11.36748">
        <ele>228.0</ele>
      </trkpt>
      <trkpt lat="43.34841" lon="11.37053">
        <ele>230.0</ele>
      </trkpt>
      <trkpt lat="43.34792" lon="11.37386">
        <ele>242.0</ele>
      </trkpt>
      <trkpt lat="43.34762" lon="11.37503">
        <ele>248.0</ele>
      </trkpt>
      <trkpt lat="43.3476" lon="11.37661">
        <ele>253.0</ele>
      </trkpt>
      <trkpt lat="43.3477" lon="11.37718">
        <ele>255.0</ele>
      </trkpt>
      <trkpt lat="43.34939" lon="11.38115">
        <ele>259.0</ele>
      </trkpt>
      <trkpt lat="43.34944" lon="11.38151">
        <ele>259.0</ele>
      </trkpt>
      <trkpt lat="43.34933" lon="11.38181">
        <ele>260.0</ele>
      </trkpt>
      <trkpt lat="43.34915" lon="11.38183">
        <ele>260.0</ele>
      </trkpt>
      <trkpt lat="43.34843" lon="11.38096">
        <ele>261.0</ele>
      </trkpt>
      <trkpt lat="43.34808" lon="11.38085">
        <ele>262.0</ele>
      </trkpt>
      <trkpt lat="43.34758" lon="11.38152">
        <ele>263.0</ele>
      </trkpt>
      <trkpt lat="43.34752" lon="11.38194">
        <ele>263.0</ele>
      </trkpt>
      <trkpt lat="43.34805" lon="11.3841">
        <ele>265.0</ele>
      </trkpt>
      <trkpt lat="43.34851" lon="11.38496">
        <ele>270.0</ele>
      </trkpt>
      <trkpt lat="43.34897" lon="11.3854">
        <ele>274.0</ele>
      </trkpt>
      <trkpt lat="43.35096" lon="11.38662">
        <ele>291.0</ele>
      </trkpt>
      <trkpt lat="43.35088" lon="11.3869">
        <ele>294.0</ele>
      </trkpt>
      <trkpt lat="43.35036" lon="11.38707">
        <ele>294.0</ele>
      </trkpt>
      <trkpt lat="43.34935" lon="11.38847">
        <ele>295.0</ele>
      </trkpt>
      <trkpt lat="43.34865" lon="11.39051">
        <ele>305.0</ele>
      </trkpt>
      <trkpt lat="43.34869" lon="11.39113">
        <ele>308.0</ele>
      </trkpt>
      <trkpt lat="43.3499" lon="11.39265">
        <ele>307.0</ele>
      </trkpt>
      <trkpt lat="43.35027" lon="11.39373">
        <ele>307.0</ele>
      </trkpt>
      <trkpt lat="43.35048" lon="11.39539">
        <ele>307.0</ele>
      </trkpt>
      <trkpt lat="43.35025" lon="11.3982">
        <ele>310.0</ele>
      </trkpt>
      <trkpt lat="43.34842" lon="11.39897">
        <ele>309.0</ele>
      </trkpt>
      <trkpt lat="43.34811" lon="11.39849">
        <ele>307.0</ele>
      </trkpt>
      <trkpt lat="43.34687" lon="11.39886">
        <ele>304.0</ele>
      </trkpt>
      <trkpt lat="43.34536" lon="11.40106">
        <ele>302.0</ele>
      </trkpt>
      <trkpt lat="43.34493" lon="11.40128">
        <ele>301.0</ele>
      </trkpt>
      <trkpt lat="43.34416" lon="11.40137">
        <ele>296.0</ele>
      </trkpt>
      <trkpt lat="43.34341" lon="11.40178">
        <ele>291.0</ele>
      </trkpt>
      <trkpt lat="43.34316" lon="11.40216">
        <ele>290.0</ele>
      </trkpt>
      <trkpt lat="43.3429" lon="11.40325">
        <ele>288.0</ele>
      </trkpt>
      <trkpt lat="43.34227" lon="11.40349">
        <ele>287.0</ele>
      </trkpt>
      <trkpt lat="43.34089" lon="11.40526">
        <ele>287.0</ele>
      </trkpt>
      <trkpt lat="43.3397" lon="11.40603">
        <ele>288.0</ele>
      </trkpt>
      <trkpt lat="43.33909" lon="11.407">
        <ele>289.0</ele>
      </trkpt>
      <trkpt lat="43.33829" lon="11.40778">
        <ele>290.0</ele>
      </trkpt>
      <trkpt lat="43.33808" lon="11.40785">
        <ele>290.0</ele>
      </trkpt>
      <trkpt lat="43.33723" lon="11.40706">
        <ele>291.0</ele>
      </trkpt>
      <trkpt lat="43.33636" lon="11.40668">
        <ele>292.0</ele>
      </trkpt>
      <trkpt lat="43.33597" lon="11.40681">
        <ele>293.0</ele>
      </trkpt>
      <trkpt lat="43.33541" lon="11.40737">
        <ele>294.0</ele>
      </trkpt>
      <trkpt lat="43.33429" lon="11.40747">
        <ele>294.0</ele>
      </trkpt>
      <trkpt lat="43.33407" lon="11.40602">
        <ele>289.0</ele>
      </trkpt>
      <trkpt lat="43.3342" lon="11.40418">
        <ele>284.0</ele>
      </trkpt>
      <trkpt lat="43.33409" lon="11.40402">
        <ele>281.0</ele>
      </trkpt>
      <trkpt lat="43.33186" lon="11.40518">
        <ele>277.0</ele>
      </trkpt>
      <trkpt lat="43.33035" lon="11.40562">
        <ele>272.0</ele>
      </trkpt>
      <trkpt lat="43.32958" lon="11.40611">
        <ele>266.0</ele>
      </trkpt>
      <trkpt lat="43.32597" lon="11.41041">
        <ele>243.0</ele>
      </trkpt>
      <trkpt lat="43.3258" lon="11.40985">
        <ele>239.0</ele>
      </trkpt>
      <trkpt lat="43.32582" lon="11.40893">
        <ele>234.0</ele>
      </trkpt>
      <trkpt lat="43.32558" lon="11.40685">
        <ele>226.0</ele>
      </trkpt>
      <trkpt lat="43.32506" lon="11.40549">
        <ele>219.0</ele>
      </trkpt>
      <trkpt lat="43.32494" lon="11.40451">
        <ele>216.0</ele>
      </trkpt>
      <trkpt lat="43.32516" lon="11.39999">
        <ele>232.0</ele>
      </trkpt>
      <trkpt lat="43.32508" lon="11.39794">
        <ele>243.0</ele>
      </trkpt>
      <trkpt lat="43.32568" lon="11.39584">
        <ele>250.0</ele>
      </trkpt>
      <trkpt lat="43.32562" lon="11.39434">
        <ele>256.0</ele>
      </trkpt>
      <trkpt lat="43.32501" lon="11.39255">
        <ele>260.0</ele>
      </trkpt>
      <trkpt lat="43.32455" lon="11.39257">
        <ele>261.0</ele>
      </trkpt>
      <trkpt lat="43.32169" lon="11.39173">
        <ele>256.0</ele>
      </trkpt>
      <trkpt lat="43.32016" lon="11.3909">
        <ele>249.0</ele>
      </trkpt>
      <trkpt lat="43.31945" lon="11.38767">
        <ele>234.0</ele>
      </trkpt>
      <trkpt lat="43.31902" lon="11.38717">
        <ele>230.0</ele>
      </trkpt>
      <trkpt lat="43.31916" lon="11.38658">
        <ele>228.0</ele>
      </trkpt>
      <trkpt lat="43.32005" lon="11.3859">
        <ele>222.0</ele>
      </trkpt>
      <trkpt lat="43.32012" lon="11.38508">
        <ele>218.0</ele>
      </trkpt>
      <trkpt lat="43.32077" lon="11.38398">
        <ele>212.0</ele>
      </trkpt>
      <trkpt lat="43.3203" lon="11.38105">
        <ele>199.0</ele>
      </trkpt>
      <trkpt lat="43.32058" lon="11.37869">
        <ele>199.0</ele>
      </trkpt>
      <trkpt lat="43.32042" lon="11.37695">
        <ele>207.0</ele>
      </trkpt>
      <trkpt lat="43.32048" lon="11.37612">
        <ele>210.0</ele>
      </trkpt>
      <trkpt lat="43.32097" lon="11.37603">
        <ele>209.0</ele>
      </trkpt>
      <trkpt lat="43.32154" lon="11.377">
        <ele>208.0</ele>
      </trkpt>
      <trkpt lat="43.32234" lon="11.37714">
        <ele>211.0</ele>
      </trkpt>
      <trkpt lat="43.32263" lon="11.37685">
        <ele>214.0</ele>
      </trkpt>
      <trkpt lat="43.32313" lon="11.37594">
        <ele>221.0</ele>
      </trkpt>
      <trkpt lat="43.32401" lon="11.37592">
        <ele>228.0</ele>
      </trkpt>
      <trkpt lat="43.32409" lon="11.37604">
        <ele>237.0</ele>
      </trkpt>
      <trkpt lat="43.32387" lon="11.37668">
        <ele>248.0</ele>
      </trkpt>
      <trkpt lat="43.32415" lon="11.37682">
        <ele>254.0</ele>
      </trkpt>
      <trkpt lat="43.32561" lon="11.37526">
        <ele>252.0</ele>
      </trkpt>
      <trkpt lat="43.32703" lon="11.37486">
        <ele>255.0</ele>
      </trkpt>
      <trkpt lat="43.32805" lon="11.37496">
        <ele>259.0</ele>
      </trkpt>
      <trkpt lat="43.32869" lon="11.37584">
        <ele>268.0</ele>
      </trkpt>
      <trkpt lat="43.32933" lon="11.37568">
        <ele>272.0</ele>
      </trkpt>
      <trkpt lat="43.32995" lon="11.37589">
        <ele>274.0</ele>
      </trkpt>
      <trkpt lat="43.33066" lon="11.37587">
        <ele>276.0</ele>
      </trkpt>
      <trkpt lat="43.33145" lon="11.37551">
        <ele>277.0</ele>
      </trkpt>
      <trkpt lat="43.3324" lon="11.3739">
        <ele>276.0</ele>
      </trkpt>
      <trkpt lat="43.33334" lon="11.3735">
        <ele>275.0</ele>
      </trkpt>
      <trkpt lat="43.33564" lon="11.37314">
        <ele>280.0</ele>
      </trkpt>
      <trkpt lat="43.33707" lon="11.37245">
        <ele>286.0</ele>
      </trkpt>
      <trkpt lat="43.33727" lon="11.37196">
        <ele>290.0</ele>
      </trkpt>
      <trkpt lat="43.33783" lon="11.3716">
        <ele>293.0</ele>
      </trkpt>
      <trkpt lat="43.33796" lon="11.37162">
        <ele>295.0</ele>
      </trkpt>
      <trkpt lat="43.33813" lon="11.37198">
        <ele>297.0</ele>
      </trkpt>
      <trkpt lat="43.33971" lon="11.37087">
        <ele>296.0</ele>
      </trkpt>
      <trkpt lat="43.34053" lon="11.36999">
        <ele>290.0</ele>
      </trkpt>
      <trkpt lat="43.34242" lon="11.36848">
        <ele>288.0</ele>
      </trkpt>
      <trkpt lat="43.34552" lon="11.36214">
        <ele>276.0</ele>
      </trkpt>
      <trkpt lat="43.34532" lon="11.3611">
        <ele>270.0</ele>
      </trkpt>
      <trkpt lat="43.34574" lon="11.36034">
        <ele>268.0</ele>
      </trkpt>
      <trkpt lat="43.34574" lon="11.36">
        <ele>268.0</ele>
      </trkpt>
      <trkpt lat="43.34521" lon="11.35976">
        <ele>270.0</ele>
      </trkpt>
      <trkpt lat="43.34464" lon="11.35989">
        <ele>274.0</ele>
      </trkpt>
      <trkpt lat="43.34379" lon="11.35875">
        <ele>279.0</ele>
      </trkpt>
      <trkpt lat="43.34051" lon="11.35749">
        <ele>264.0</ele>
      </trkpt>
      <trkpt lat="43.33976" lon="11.35705">
        <ele>263.0</ele>
      </trkpt>
      <trkpt lat="43.33957" lon="11.35709">
        <ele>264.0</ele>
      </trkpt>
      <trkpt lat="43.33919" lon="11.35763">
        <ele>265.0</ele>
      </trkpt>
      <trkpt lat="43.33817" lon="11.35848">
        <ele>266.0</ele>
      </trkpt>
      <trkpt lat="43.33783" lon="11.35853">
        <ele>268.0</ele>
      </trkpt>
      <trkpt lat="43.33772" lon="11.35662">
        <ele>280.0</ele>
      </trkpt>
      <trkpt lat="43.33754" lon="11.3559">
        <ele>285.0</ele>
      </trkpt>
      <trkpt lat="43.33704" lon="11.35509">
        <ele>288.0</ele>
      </trkpt>
      <trkpt lat="43.33696" lon="11.35441">
        <ele>291.0</ele>
      </trkpt>
      <trkpt lat="43.3357" lon="11.35183">
        <ele>304.0</ele>
      </trkpt>
      <trkpt lat="43.33501" lon="11.35132">
        <ele>303.0</ele>
      </trkpt>
      <trkpt lat="43.33468" lon="11.3506">
        <ele>301.0</ele>
      </trkpt>
      <trkpt lat="43.33427" lon="11.34801">
        <ele>307.0</ele>
      </trkpt>
      <trkpt lat="43.33383" lon="11.34655">
        <ele>313.0</ele>
      </trkpt>
      <trkpt lat="43.33396" lon="11.34515">
        <ele>313.0</ele>
      </trkpt>
      <trkpt lat="43.33361" lon="11.34454">
        <ele>314.0</ele>
      </trkpt>
      <trkpt lat="43.33521" lon="11.34517">
        <ele>318.0</ele>
      </trkpt>
      <trkpt lat="43.33743" lon="11.34712">
        <ele>292.0</ele>
      </trkpt>
      <trkpt lat="43.33913" lon="11.34793">
        <ele>281.0</ele>
      </trkpt>
      <trkpt lat="43.33967" lon="11.3487">
        <ele>275.0</ele>
      </trkpt>
      <trkpt lat="43.34197" lon="11.34773">
        <ele>285.0</ele>
      </trkpt>
      <trkpt lat="43.34265" lon="11.34978">
        <ele>312.0</ele>
      </trkpt>
      <trkpt lat="43.34278" lon="11.34952">
        <ele>315.0</ele>
      </trkpt>
      <trkpt lat="43.34298" lon="11.34946">
        <ele>317.0</ele>
      </trkpt>
      <trkpt lat="43.34307" lon="11.34903">
        <ele>319.0</ele>
      </trkpt>
      <trkpt lat="43.34331" lon="11.34876">
        <ele>321.0</ele>
      </trkpt>
      <trkpt lat="43.34404" lon="11.34857">
        <ele>325.0</ele>
      </trkpt>
      <trkpt lat="43.34475" lon="11.34878">
        <ele>328.0</ele>
      </trkpt>
      <trkpt lat="43.34559" lon="11.34843">
        <ele>329.0</ele>
      </trkpt>
      <trkpt lat="43.34585" lon="11.34818">
        <ele>329.0</ele>
      </trkpt>
      <trkpt lat="43.34631" lon="11.34725">
        <ele>328.0</ele>
      </trkpt>
      <trkpt lat="43.34734" lon="11.34691">
        <ele>326.0</ele>
      </trkpt>
      <trkpt lat="43.34801" lon="11.34645">
        <ele>324.0</ele>
      </trkpt>
      <trkpt lat="43.34865" lon="11.34556">
        <ele>319.0</ele>
      </trkpt>
      <trkpt lat="43.3496" lon="11.34474">
        <ele>318.0</ele>
      </trkpt>
      <trkpt lat="43.34993" lon="11.34412">
        <ele>318.0</ele>
      </trkpt>
      <trkpt lat="43.35022" lon="11.34295">
        <ele>322.0</ele>
      </trkpt>
      <trkpt lat="43.3496" lon="11.3413">
        <ele>341.0</ele>
      </trkpt>
      <trkpt lat="43.35006" lon="11.34061">
        <ele>342.0</ele>
      </trkpt>
      <trkpt lat="43.35018" lon="11.33973">
        <ele>338.0</ele>
      </trkpt>
      <trkpt lat="43.35087" lon="11.33888">
        <ele>334.0</ele>
      </trkpt>
      <trkpt lat="43.35113" lon="11.33819">
        <ele>334.0</ele>
      </trkpt>
      <trkpt lat="43.35174" lon="11.33569">
        <ele>335.0</ele>
      </trkpt>
      <trkpt lat="43.35229" lon="11.33454">
        <ele>337.0</ele>
      </trkpt>
      <trkpt lat="43.3524" lon="11.33377">
        <ele>336.0</ele>
      </trkpt>
      <trkpt lat="43.35291" lon="11.33263">
        <ele>330.0</ele>
      </trkpt>
      <trkpt lat="43.35289" lon="11.33115">
        <ele>326.0</ele>
      </trkpt>
      <trkpt lat="43.35244" lon="11.32904">
        <ele>336.0</ele>
      </trkpt>
      <trkpt lat="43.35215" lon="11.32874">
        <ele>336.0</ele>
      </trkpt>
      <trkpt lat="43.35144" lon="11.32834">
        <ele>337.0</ele>
      </trkpt>
      <trkpt lat="43.35018" lon="11.32845">
        <ele>332.0</ele>
      </trkpt>
      <trkpt lat="43.34906" lon="11.3279">
        <ele>322.0</ele>
      </trkpt>
      <trkpt lat="43.35062" lon="11.3259">
        <ele>308.0</ele>
      </trkpt>
      <trkpt lat="43.35056" lon="11.32546">
        <ele>308.0</ele>
      </trkpt>
      <trkpt lat="43.34983" lon="11.32509">
        <ele>308.0</ele>
      </trkpt>
      <trkpt lat="43.34809" lon="11.32469">
        <ele>306.0</ele>
      </trkpt>
      <trkpt lat="43.34709" lon="11.32482">
        <ele>306.0</ele>
      </trkpt>
      <trkpt lat="43.34649" lon="11.3245">
        <ele>310.0</ele>
      </trkpt>
      <trkpt lat="43.34513" lon="11.32219">
        <ele>323.0</ele>
      </trkpt>
      <trkpt lat="43.34312" lon="11.32071">
        <ele>327.0</ele>
      </trkpt>
      <trkpt lat="43.34164" lon="11.3189">
        <ele>338.0</ele>
      </trkpt>
      <trkpt lat="43.34126" lon="11.31797">
        <ele>349.0</ele>
      </trkpt>
      <trkpt lat="43.34103" lon="11.31589">
        <ele>360.0</ele>
      </trkpt>
      <trkpt lat="43.34045" lon="11.31621">
        <ele>356.0</ele>
      </trkpt>
      <trkpt lat="43.338" lon="11.31637">
        <ele>343.0</ele>
      </trkpt>
      <trkpt lat="43.3369" lon="11.31675">
        <ele>324.0</ele>
      </trkpt>
      <trkpt lat="43.33582" lon="11.31755">
        <ele>311.0</ele>
      </trkpt>
      <trkpt lat="43.33457" lon="11.31915">
        <ele>296.0</ele>
      </trkpt>
      <trkpt lat="43.33396" lon="11.31911">
        <ele>292.0</ele>
      </trkpt>
      <trkpt lat="43.33347" lon="11.31986">
        <ele>291.0</ele>
      </trkpt>
      <trkpt lat="43.33329" lon="11.31988">
        <ele>289.0</ele>
      </trkpt>
      <trkpt lat="43.33252" lon="11.31938">
        <ele>290.0</ele>
      </trkpt>
      <trkpt lat="43.33239" lon="11.3191">
        <ele>292.0</ele>
      </trkpt>
      <trkpt lat="43.33245" lon="11.3186">
        <ele>293.0</ele>
      </trkpt>
      <trkpt lat="43.33331" lon="11.31534">
        <ele>306.0</ele>
      </trkpt>
      <trkpt lat="43.33343" lon="11.31242">
        <ele>316.0</ele>
      </trkpt>
      <trkpt lat="43.3344" lon="11.31001">
        <ele>329.0</ele>
      </trkpt>
      <trkpt lat="43.33416" lon="11.30971">
        <ele>332.0</ele>
      </trkpt>
      <trkpt lat="43.33275" lon="11.31135">
        <ele>342.0</ele>
      </trkpt>
      <trkpt lat="43.33219" lon="11.31243">
        <ele>346.0</ele>
      </trkpt>
      <trkpt lat="43.3319" lon="11.31176">
        <ele>346.0</ele>
      </trkpt>
      <trkpt lat="43.33119" lon="11.31146">
        <ele>346.0</ele>
      </trkpt>
      <trkpt lat="43.33036" lon="11.31046">
        <ele>345.0</ele>
      </trkpt>
      <trkpt lat="43.33002" lon="11.31033">
        <ele>345.0</ele>
      </trkpt>
      <trkpt lat="43.32833" lon="11.31135">
        <ele>344.0</ele>
      </trkpt>
      <trkpt lat="43.32613" lon="11.31226">
        <ele>342.0</ele>
      </trkpt>
      <trkpt lat="43.32553" lon="11.31274">
        <ele>344.0</ele>
      </trkpt>
      <trkpt lat="43.32328" lon="11.31302">
        <ele>342.0</ele>
      </trkpt>
      <trkpt lat="43.32255" lon="11.3127">
        <ele>342.0</ele>
      </trkpt>
      <trkpt lat="43.32174" lon="11.31276">
        <ele>342.0</ele>
      </trkpt>
      <trkpt lat="43.32139" lon="11.31289">
        <ele>341.0</ele>
      </trkpt>
      <trkpt lat="43.32101" lon="11.31341">
        <ele>340.0</ele>
      </trkpt>
      <trkpt lat="43.32045" lon="11.31381">
        <ele>339.0</ele>
      </trkpt>
      <trkpt lat="43.31964" lon="11.31348">
        <ele>336.0</ele>
      </trkpt>
      <trkpt lat="43.31848" lon="11.31343">
        <ele>333.0</ele>
      </trkpt>
      <trkpt lat="43.31789" lon="11.31383">
        <ele>330.0</ele>
      </trkpt>
      <trkpt lat="43.31618" lon="11.31407">
        <ele>319.0</ele>
      </trkpt>
      <trkpt lat="43.31637" lon="11.31438">
        <ele>318.0</ele>
      </trkpt>
      <trkpt lat="43.31811" lon="11.31502">
        <ele>308.0</ele>
      </trkpt>
      <trkpt lat="43.31946" lon="11.31582">
        <ele>299.0</ele>
      </trkpt>
      <trkpt lat="43.32043" lon="11.31596">
        <ele>291.0</ele>
      </trkpt>
      <trkpt lat="43.32223" lon="11.31678">
        <ele>281.0</ele>
      </trkpt>
      <trkpt lat="43.3221" lon="11.31696">
        <ele>281.0</ele>
      </trkpt>
      <trkpt lat="43.32044" lon="11.31659">
        <ele>277.0</ele>
      </trkpt>
      <trkpt lat="43.31949" lon="11.31679">
        <ele>274.0</ele>
      </trkpt>
      <trkpt lat="43.31823" lon="11.31651">
        <ele>270.0</ele>
      </trkpt>
      <trkpt lat="43.31715" lon="11.31667">
        <ele>268.0</ele>
      </trkpt>
      <trkpt lat="43.31612" lon="11.31619">
        <ele>266.0</ele>
      </trkpt>
      <trkpt lat="43.31499" lon="11.31657">
        <ele>263.0</ele>
      </trkpt>
      <trkpt lat="43.31441" lon="11.31693">
        <ele>260.0</ele>
      </trkpt>
      <trkpt lat="43.3141" lon="11.3173">
        <ele>257.0</ele>
      </trkpt>
      <trkpt lat="43.31414" lon="11.31788">
        <ele>254.0</ele>
      </trkpt>
      <trkpt lat="43.31571" lon="11.32033">
        <ele>260.0</ele>
      </trkpt>
      <trkpt lat="43.31698" lon="11.32333">
        <ele>278.0</ele>
      </trkpt>
      <trkpt lat="43.31834" lon="11.32565">
        <ele>285.0</ele>
      </trkpt>
      <trkpt lat="43.31908" lon="11.32757">
        <ele>303.0</ele>
      </trkpt>
      <trkpt lat="43.31928" lon="11.32789">
        <ele>306.0</ele>
      </trkpt>
      <trkpt lat="43.3194" lon="11.32785">
        <ele>307.0</ele>
      </trkpt>
      <trkpt lat="43.3196" lon="11.32825">
        <ele>310.0</ele>
      </trkpt>
      <trkpt lat="43.32005" lon="11.33029">
        <ele>328.0</ele>
      </trkpt>
      <trkpt lat="43.31921" lon="11.33018">
        <ele>341.0</ele>
      </trkpt>
      <trkpt lat="43.31879" lon="11.33076">
        <ele>341.0</ele>
      </trkpt>
      <trkpt lat="43.31912" lon="11.33124">
        <ele>340.0</ele>
      </trkpt>
      <trkpt lat="43.31923" lon="11.33181">
        <ele>340.0</ele>
      </trkpt>
      <trkpt lat="43.31912" lon="11.33271">
        <ele>338.0</ele>
      </trkpt>
      <trkpt lat="43.31839" lon="11.33216">
        <ele>331.0</ele>
      </trkpt>
    </trkseg>
  </trk>
</gpx>