<?xml version="1.0" encoding="UTF-8"?>
<gpx xmlns="http://www.topografix.com/GPX/1/0" xmlns:xsi="http://www.w3.org/2001/XMLSchema-instance" xsi:schemaLocation="http://www.topografix.com/GPX/1/0 http://www.topografix.com/GPX/1/0/gpx.xsd" version="1.0" creator="GPSBabel - https://www.gpsbabel.org">
  <time>2026-05-15T08:01:24.680000Z</time>
  <bounds minlat="44.50468" maxlat="44.86498" minlon="7.24292" maxlon="7.53567" />
  <trk>
    <trkseg>
      <trkpt lat="44.66365" lon="7.50514">
        <ele>317.0</ele>
      </trkpt>
      <trkpt lat="44.66753" lon="7.50883">
        <ele>312.0</ele>
      </trkpt>
      <trkpt lat="44.67867" lon="7.51945">
        <ele>303.0</ele>
      </trkpt>
      <trkpt lat="44.6841" lon="7.52463">
        <ele>294.0</ele>
      </trkpt>
      <trkpt lat="44.68788" lon="7.52804">
        <ele>289.0</ele>
      </trkpt>
      <trkpt lat="44.68927" lon="7.52858">
        <ele>287.0</ele>
      </trkpt>
      <trkpt lat="44.69211" lon="7.52825">
        <ele>283.0</ele>
      </trkpt>
      <trkpt lat="44.69617" lon="7.52725">
        <ele>279.0</ele>
      </trkpt>
      <trkpt lat="44.70311" lon="7.52565">
        <ele>274.0</ele>
      </trkpt>
      <trkpt lat="44.71067" lon="7.52464">
        <ele>271.0</ele>
      </trkpt>
      <trkpt lat="44.71491" lon="7.52501">
        <ele>268.0</ele>
      </trkpt>
      <trkpt lat="44.71955" lon="7.52577">
        <ele>267.0</ele>
      </trkpt>
      <trkpt lat="44.72079" lon="7.52594">
        <ele>266.0</ele>
      </trkpt>
      <trkpt lat="44.72866" lon="7.52594">
        <ele>265.0</ele>
      </trkpt>
      <trkpt lat="44.73273" lon="7.52601">
        <ele>262.0</ele>
      </trkpt>
      <trkpt lat="44.73405" lon="7.5269">
        <ele>262.0</ele>
      </trkpt>
      <trkpt lat="44.73486" lon="7.52738">
        <ele>262.0</ele>
      </trkpt>
      <trkpt lat="44.73625" lon="7.5275">
        <ele>262.0</ele>
      </trkpt>
      <trkpt lat="44.73743" lon="7.52754">
        <ele>260.0</ele>
      </trkpt>
      <trkpt lat="44.73856" lon="7.52698">
        <ele>259.0</ele>
      </trkpt>
      <trkpt lat="44.74032" lon="7.5268">
        <ele>259.0</ele>
      </trkpt>
      <trkpt lat="44.7422" lon="7.52678">
        <ele>259.0</ele>
      </trkpt>
      <trkpt lat="44.74371" lon="7.52733">
        <ele>259.0</ele>
      </trkpt>
      <trkpt lat="44.75" lon="7.53149">
        <ele>258.0</ele>
      </trkpt>
      <trkpt lat="44.75329" lon="7.53286">
        <ele>258.0</ele>
      </trkpt>
      <trkpt lat="44.7557" lon="7.53387">
        <ele>258.0</ele>
      </trkpt>
      <trkpt lat="44.75837" lon="7.53497">
        <ele>256.0</ele>
      </trkpt>
      <trkpt lat="44.75865" lon="7.53517">
        <ele>255.0</ele>
      </trkpt>
      <trkpt lat="44.75909" lon="7.53543">
        <ele>254.0</ele>
      </trkpt>
      <trkpt lat="44.75912" lon="7.53561">
        <ele>254.0</ele>
      </trkpt>
      <trkpt lat="44.75928" lon="7.53564">
        <ele>254.0</ele>
      </trkpt>
      <trkpt lat="44.75934" lon="7.53549">
        <ele>254.0</ele>
      </trkpt>
      <trkpt lat="44.75932" lon="7.53528">
        <ele>253.0</ele>
      </trkpt>
      <trkpt lat="44.7601" lon="7.53364">
        <ele>253.0</ele>
      </trkpt>
      <trkpt lat="44.76124" lon="7.53243">
        <ele>253.0</ele>
      </trkpt>
      <trkpt lat="44.7621" lon="7.53195">
        <ele>253.0</ele>
      </trkpt>
      <trkpt lat="44.76293" lon="7.53173">
        <ele>253.0</ele>
      </trkpt>
      <trkpt lat="44.76431" lon="7.53222">
        <ele>254.0</ele>
      </trkpt>
      <trkpt lat="44.76443" lon="7.53144">
        <ele>254.0</ele>
      </trkpt>
      <trkpt lat="44.7657" lon="7.53094">
        <ele>254.0</ele>
      </trkpt>
      <trkpt lat="44.76693" lon="7.53029">
        <ele>252.0</ele>
      </trkpt>
      <trkpt lat="44.76723" lon="7.52996">
        <ele>252.0</ele>
      </trkpt>
      <trkpt lat="44.76802" lon="7.52957">
        <ele>251.0</ele>
      </trkpt>
      <trkpt lat="44.76913" lon="7.52799">
        <ele>249.0</ele>
      </trkpt>
      <trkpt lat="44.77512" lon="7.51917">
        <ele>249.0</ele>
      </trkpt>
      <trkpt lat="44.77833" lon="7.51451">
        <ele>251.0</ele>
      </trkpt>
      <trkpt lat="44.77888" lon="7.51378">
        <ele>250.0</ele>
      </trkpt>
      <trkpt lat="44.78015" lon="7.51195">
        <ele>249.0</ele>
      </trkpt>
      <trkpt lat="44.78081" lon="7.51105">
        <ele>249.0</ele>
      </trkpt>
      <trkpt lat="44.781" lon="7.51081">
        <ele>249.0</ele>
      </trkpt>
      <trkpt lat="44.78104" lon="7.51067">
        <ele>250.0</ele>
      </trkpt>
      <trkpt lat="44.78149" lon="7.50884">
        <ele>252.0</ele>
      </trkpt>
      <trkpt lat="44.78212" lon="7.50664">
        <ele>255.0</ele>
      </trkpt>
      <trkpt lat="44.78182" lon="7.50502">
        <ele>256.0</ele>
      </trkpt>
      <trkpt lat="44.78167" lon="7.50283">
        <ele>255.0</ele>
      </trkpt>
      <trkpt lat="44.78178" lon="7.50095">
        <ele>255.0</ele>
      </trkpt>
      <trkpt lat="44.78133" lon="7.50019">
        <ele>255.0</ele>
      </trkpt>
      <trkpt lat="44.78202" lon="7.49778">
        <ele>255.0</ele>
      </trkpt>
      <trkpt lat="44.78237" lon="7.49686">
        <ele>255.0</ele>
      </trkpt>
      <trkpt lat="44.78248" lon="7.49648">
        <ele>256.0</ele>
      </trkpt>
      <trkpt lat="44.78241" lon="7.49625">
        <ele>256.0</ele>
      </trkpt>
      <trkpt lat="44.78316" lon="7.49254">
        <ele>256.0</ele>
      </trkpt>
      <trkpt lat="44.78345" lon="7.49233">
        <ele>257.0</ele>
      </trkpt>
      <trkpt lat="44.78333" lon="7.49194">
        <ele>257.0</ele>
      </trkpt>
      <trkpt lat="44.78437" lon="7.48778">
        <ele>259.0</ele>
      </trkpt>
      <trkpt lat="44.78467" lon="7.48665">
        <ele>259.0</ele>
      </trkpt>
      <trkpt lat="44.78482" lon="7.48532">
        <ele>258.0</ele>
      </trkpt>
      <trkpt lat="44.78493" lon="7.48409">
        <ele>258.0</ele>
      </trkpt>
      <trkpt lat="44.78523" lon="7.47976">
        <ele>259.0</ele>
      </trkpt>
      <trkpt lat="44.78526" lon="7.47092">
        <ele>260.0</ele>
      </trkpt>
      <trkpt lat="44.78529" lon="7.46541">
        <ele>261.0</ele>
      </trkpt>
      <trkpt lat="44.78617" lon="7.46225">
        <ele>260.0</ele>
      </trkpt>
      <trkpt lat="44.78734" lon="7.45887">
        <ele>262.0</ele>
      </trkpt>
      <trkpt lat="44.78918" lon="7.45179">
        <ele>265.0</ele>
      </trkpt>
      <trkpt lat="44.78969" lon="7.44721">
        <ele>266.0</ele>
      </trkpt>
      <trkpt lat="44.79014" lon="7.44248">
        <ele>266.0</ele>
      </trkpt>
      <trkpt lat="44.7894" lon="7.43798">
        <ele>266.0</ele>
      </trkpt>
      <trkpt lat="44.78889" lon="7.43585">
        <ele>267.0</ele>
      </trkpt>
      <trkpt lat="44.78843" lon="7.43213">
        <ele>269.0</ele>
      </trkpt>
      <trkpt lat="44.78842" lon="7.42885">
        <ele>271.0</ele>
      </trkpt>
      <trkpt lat="44.78826" lon="7.42685">
        <ele>272.0</ele>
      </trkpt>
      <trkpt lat="44.78758" lon="7.42279">
        <ele>272.0</ele>
      </trkpt>
      <trkpt lat="44.78701" lon="7.41965">
        <ele>272.0</ele>
      </trkpt>
      <trkpt lat="44.78637" lon="7.41601">
        <ele>274.0</ele>
      </trkpt>
      <trkpt lat="44.7859" lon="7.41225">
        <ele>275.0</ele>
      </trkpt>
      <trkpt lat="44.78501" lon="7.40403">
        <ele>278.0</ele>
      </trkpt>
      <trkpt lat="44.78478" lon="7.3979">
        <ele>282.0</ele>
      </trkpt>
      <trkpt lat="44.78453" lon="7.39385">
        <ele>286.0</ele>
      </trkpt>
      <trkpt lat="44.78396" lon="7.39075">
        <ele>287.0</ele>
      </trkpt>
      <trkpt lat="44.78344" lon="7.38817">
        <ele>289.0</ele>
      </trkpt>
      <trkpt lat="44.78271" lon="7.38452">
        <ele>292.0</ele>
      </trkpt>
      <trkpt lat="44.78238" lon="7.38288">
        <ele>294.0</ele>
      </trkpt>
      <trkpt lat="44.78244" lon="7.38211">
        <ele>295.0</ele>
      </trkpt>
      <trkpt lat="44.7827" lon="7.38139">
        <ele>295.0</ele>
      </trkpt>
      <trkpt lat="44.78351" lon="7.37989">
        <ele>296.0</ele>
      </trkpt>
      <trkpt lat="44.78416" lon="7.3776">
        <ele>299.0</ele>
      </trkpt>
      <trkpt lat="44.7843" lon="7.3774">
        <ele>300.0</ele>
      </trkpt>
      <trkpt lat="44.78435" lon="7.37731">
        <ele>301.0</ele>
      </trkpt>
      <trkpt lat="44.78459" lon="7.37703">
        <ele>301.0</ele>
      </trkpt>
      <trkpt lat="44.78549" lon="7.37663">
        <ele>301.0</ele>
      </trkpt>
      <trkpt lat="44.78601" lon="7.37634">
        <ele>301.0</ele>
      </trkpt>
      <trkpt lat="44.78627" lon="7.37596">
        <ele>302.0</ele>
      </trkpt>
      <trkpt lat="44.78646" lon="7.37509">
        <ele>302.0</ele>
      </trkpt>
      <trkpt lat="44.78829" lon="7.37545">
        <ele>303.0</ele>
      </trkpt>
      <trkpt lat="44.78894" lon="7.37551">
        <ele>303.0</ele>
      </trkpt>
      <trkpt lat="44.79064" lon="7.37526">
        <ele>305.0</ele>
      </trkpt>
      <trkpt lat="44.79277" lon="7.37492">
        <ele>306.0</ele>
      </trkpt>
      <trkpt lat="44.79572" lon="7.37446">
        <ele>306.0</ele>
      </trkpt>
      <trkpt lat="44.79924" lon="7.37392">
        <ele>308.0</ele>
      </trkpt>
      <trkpt lat="44.80264" lon="7.37338">
        <ele>309.0</ele>
      </trkpt>
      <trkpt lat="44.80444" lon="7.3731">
        <ele>310.0</ele>
      </trkpt>
      <trkpt lat="44.80617" lon="7.37283">
        <ele>310.0</ele>
      </trkpt>
      <trkpt lat="44.80871" lon="7.37242">
        <ele>311.0</ele>
      </trkpt>
      <trkpt lat="44.81216" lon="7.37189">
        <ele>310.0</ele>
      </trkpt>
      <trkpt lat="44.81608" lon="7.37128">
        <ele>311.0</ele>
      </trkpt>
      <trkpt lat="44.81653" lon="7.37131">
        <ele>311.0</ele>
      </trkpt>
      <trkpt lat="44.81677" lon="7.3714">
        <ele>311.0</ele>
      </trkpt>
      <trkpt lat="44.81709" lon="7.37118">
        <ele>311.0</ele>
      </trkpt>
      <trkpt lat="44.81973" lon="7.37071">
        <ele>311.0</ele>
      </trkpt>
      <trkpt lat="44.82262" lon="7.37027">
        <ele>312.0</ele>
      </trkpt>
      <trkpt lat="44.82508" lon="7.36946">
        <ele>311.0</ele>
      </trkpt>
      <trkpt lat="44.82934" lon="7.36776">
        <ele>313.0</ele>
      </trkpt>
      <trkpt lat="44.83067" lon="7.36677">
        <ele>314.0</ele>
      </trkpt>
      <trkpt lat="44.83409" lon="7.36238">
        <ele>314.0</ele>
      </trkpt>
      <trkpt lat="44.8361" lon="7.35981">
        <ele>319.0</ele>
      </trkpt>
      <trkpt lat="44.8407" lon="7.35455">
        <ele>325.0</ele>
      </trkpt>
      <trkpt lat="44.84087" lon="7.35445">
        <ele>328.0</ele>
      </trkpt>
      <trkpt lat="44.84188" lon="7.35301">
        <ele>330.0</ele>
      </trkpt>
      <trkpt lat="44.8433" lon="7.35155">
        <ele>331.0</ele>
      </trkpt>
      <trkpt lat="44.84365" lon="7.35135">
        <ele>332.0</ele>
      </trkpt>
      <trkpt lat="44.84386" lon="7.35104">
        <ele>332.0</ele>
      </trkpt>
      <trkpt lat="44.84441" lon="7.35006">
        <ele>333.0</ele>
      </trkpt>
      <trkpt lat="44.84652" lon="7.34757">
        <ele>335.0</ele>
      </trkpt>
      <trkpt lat="44.84801" lon="7.3457">
        <ele>339.0</ele>
      </trkpt>
      <trkpt lat="44.84827" lon="7.34497">
        <ele>341.0</ele>
      </trkpt>
      <trkpt lat="44.84876" lon="7.34391">
        <ele>344.0</ele>
      </trkpt>
      <trkpt lat="44.84928" lon="7.34247">
        <ele>346.0</ele>
      </trkpt>
      <trkpt lat="44.84981" lon="7.34147">
        <ele>347.0</ele>
      </trkpt>
      <trkpt lat="44.85012" lon="7.3406">
        <ele>347.0</ele>
      </trkpt>
      <trkpt lat="44.85043" lon="7.3396">
        <ele>345.0</ele>
      </trkpt>
      <trkpt lat="44.85073" lon="7.33881">
        <ele>345.0</ele>
      </trkpt>
      <trkpt lat="44.85098" lon="7.33849">
        <ele>345.0</ele>
      </trkpt>
      <trkpt lat="44.85108" lon="7.33825">
        <ele>346.0</ele>
      </trkpt>
      <trkpt lat="44.85099" lon="7.33779">
        <ele>346.0</ele>
      </trkpt>
      <trkpt lat="44.85142" lon="7.33643">
        <ele>347.0</ele>
      </trkpt>
      <trkpt lat="44.85148" lon="7.33496">
        <ele>347.0</ele>
      </trkpt>
      <trkpt lat="44.852" lon="7.33297">
        <ele>348.0</ele>
      </trkpt>
      <trkpt lat="44.85353" lon="7.33068">
        <ele>352.0</ele>
      </trkpt>
      <trkpt lat="44.854" lon="7.32994">
        <ele>354.0</ele>
      </trkpt>
      <trkpt lat="44.85474" lon="7.3288">
        <ele>355.0</ele>
      </trkpt>
      <trkpt lat="44.85651" lon="7.32486">
        <ele>356.0</ele>
      </trkpt>
      <trkpt lat="44.85666" lon="7.32474">
        <ele>357.0</ele>
      </trkpt>
      <trkpt lat="44.85698" lon="7.32383">
        <ele>357.0</ele>
      </trkpt>
      <trkpt lat="44.85816" lon="7.32188">
        <ele>359.0</ele>
      </trkpt>
      <trkpt lat="44.85909" lon="7.32046">
        <ele>360.0</ele>
      </trkpt>
      <trkpt lat="44.85954" lon="7.31891">
        <ele>361.0</ele>
      </trkpt>
      <trkpt lat="44.8605" lon="7.31668">
        <ele>363.0</ele>
      </trkpt>
      <trkpt lat="44.86107" lon="7.31555">
        <ele>366.0</ele>
      </trkpt>
      <trkpt lat="44.86191" lon="7.31258">
        <ele>370.0</ele>
      </trkpt>
      <trkpt lat="44.86256" lon="7.31059">
        <ele>377.0</ele>
      </trkpt>
      <trkpt lat="44.86315" lon="7.30957">
        <ele>382.0</ele>
      </trkpt>
      <trkpt lat="44.86384" lon="7.30763">
        <ele>386.0</ele>
      </trkpt>
      <trkpt lat="44.86411" lon="7.30617">
        <ele>391.0</ele>
      </trkpt>
      <trkpt lat="44.86446" lon="7.30444">
        <ele>393.0</ele>
      </trkpt>
      <trkpt lat="44.86472" lon="7.30218">
        <ele>401.0</ele>
      </trkpt>
      <trkpt lat="44.86486" lon="7.30089">
        <ele>404.0</ele>
      </trkpt>
      <trkpt lat="44.86355" lon="7.30006">
        <ele>404.0</ele>
      </trkpt>
      <trkpt lat="44.86304" lon="7.30062">
        <ele>404.0</ele>
      </trkpt>
      <trkpt lat="44.86101" lon="7.30241">
        <ele>401.0</ele>
      </trkpt>
      <trkpt lat="44.858" lon="7.30394">
        <ele>392.0</ele>
      </trkpt>
      <trkpt lat="44.85532" lon="7.30364">
        <ele>382.0</ele>
      </trkpt>
      <trkpt lat="44.8536" lon="7.30338">
        <ele>378.0</ele>
      </trkpt>
      <trkpt lat="44.85171" lon="7.30342">
        <ele>376.0</ele>
      </trkpt>
      <trkpt lat="44.84893" lon="7.30493">
        <ele>377.0</ele>
      </trkpt>
      <trkpt lat="44.84474" lon="7.30757">
        <ele>367.0</ele>
      </trkpt>
      <trkpt lat="44.84325" lon="7.30754">
        <ele>361.0</ele>
      </trkpt>
      <trkpt lat="44.84238" lon="7.30702">
        <ele>359.0</ele>
      </trkpt>
      <trkpt lat="44.84112" lon="7.30682">
        <ele>359.0</ele>
      </trkpt>
      <trkpt lat="44.83989" lon="7.30669">
        <ele>361.0</ele>
      </trkpt>
      <trkpt lat="44.83973" lon="7.30669">
        <ele>362.0</ele>
      </trkpt>
      <trkpt lat="44.83965" lon="7.30675">
        <ele>362.0</ele>
      </trkpt>
      <trkpt lat="44.83827" lon="7.30547">
        <ele>363.0</ele>
      </trkpt>
      <trkpt lat="44.83703" lon="7.30487">
        <ele>363.0</ele>
      </trkpt>
      <trkpt lat="44.83618" lon="7.3047">
        <ele>363.0</ele>
      </trkpt>
      <trkpt lat="44.83466" lon="7.30489">
        <ele>364.0</ele>
      </trkpt>
      <trkpt lat="44.83255" lon="7.30608">
        <ele>366.0</ele>
      </trkpt>
      <trkpt lat="44.83234" lon="7.30616">
        <ele>367.0</ele>
      </trkpt>
      <trkpt lat="44.83228" lon="7.30646">
        <ele>367.0</ele>
      </trkpt>
      <trkpt lat="44.83139" lon="7.30794">
        <ele>367.0</ele>
      </trkpt>
      <trkpt lat="44.83002" lon="7.30992">
        <ele>369.0</ele>
      </trkpt>
      <trkpt lat="44.82885" lon="7.31119">
        <ele>370.0</ele>
      </trkpt>
      <trkpt lat="44.82762" lon="7.31191">
        <ele>370.0</ele>
      </trkpt>
      <trkpt lat="44.82664" lon="7.31211">
        <ele>370.0</ele>
      </trkpt>
      <trkpt lat="44.82592" lon="7.31215">
        <ele>371.0</ele>
      </trkpt>
      <trkpt lat="44.82559" lon="7.31228">
        <ele>371.0</ele>
      </trkpt>
      <trkpt lat="44.82549" lon="7.31228">
        <ele>372.0</ele>
      </trkpt>
      <trkpt lat="44.82517" lon="7.31205">
        <ele>372.0</ele>
      </trkpt>
      <trkpt lat="44.82451" lon="7.31167">
        <ele>373.0</ele>
      </trkpt>
      <trkpt lat="44.82279" lon="7.31011">
        <ele>375.0</ele>
      </trkpt>
      <trkpt lat="44.82153" lon="7.30823">
        <ele>381.0</ele>
      </trkpt>
      <trkpt lat="44.82119" lon="7.30774">
        <ele>383.0</ele>
      </trkpt>
      <trkpt lat="44.81897" lon="7.30448">
        <ele>388.0</ele>
      </trkpt>
      <trkpt lat="44.81869" lon="7.30374">
        <ele>391.0</ele>
      </trkpt>
      <trkpt lat="44.81862" lon="7.30357">
        <ele>391.0</ele>
      </trkpt>
      <trkpt lat="44.81837" lon="7.30351">
        <ele>392.0</ele>
      </trkpt>
      <trkpt lat="44.81794" lon="7.30303">
        <ele>393.0</ele>
      </trkpt>
      <trkpt lat="44.81603" lon="7.30021">
        <ele>398.0</ele>
      </trkpt>
      <trkpt lat="44.81545" lon="7.29915">
        <ele>401.0</ele>
      </trkpt>
      <trkpt lat="44.81465" lon="7.29716">
        <ele>406.0</ele>
      </trkpt>
      <trkpt lat="44.8145" lon="7.29621">
        <ele>409.0</ele>
      </trkpt>
      <trkpt lat="44.81453" lon="7.29599">
        <ele>410.0</ele>
      </trkpt>
      <trkpt lat="44.8145" lon="7.29585">
        <ele>410.0</ele>
      </trkpt>
      <trkpt lat="44.81425" lon="7.29579">
        <ele>411.0</ele>
      </trkpt>
      <trkpt lat="44.81317" lon="7.29483">
        <ele>413.0</ele>
      </trkpt>
      <trkpt lat="44.81058" lon="7.29176">
        <ele>419.0</ele>
      </trkpt>
      <trkpt lat="44.80901" lon="7.28974">
        <ele>421.0</ele>
      </trkpt>
      <trkpt lat="44.80868" lon="7.28867">
        <ele>419.0</ele>
      </trkpt>
      <trkpt lat="44.80868" lon="7.28828">
        <ele>416.0</ele>
      </trkpt>
      <trkpt lat="44.80857" lon="7.28812">
        <ele>415.0</ele>
      </trkpt>
      <trkpt lat="44.80818" lon="7.28822">
        <ele>413.0</ele>
      </trkpt>
      <trkpt lat="44.8068" lon="7.28757">
        <ele>409.0</ele>
      </trkpt>
      <trkpt lat="44.80642" lon="7.28748">
        <ele>410.0</ele>
      </trkpt>
      <trkpt lat="44.80627" lon="7.28738">
        <ele>410.0</ele>
      </trkpt>
      <trkpt lat="44.80596" lon="7.28747">
        <ele>411.0</ele>
      </trkpt>
      <trkpt lat="44.80294" lon="7.2884">
        <ele>412.0</ele>
      </trkpt>
      <trkpt lat="44.80183" lon="7.28857">
        <ele>412.0</ele>
      </trkpt>
      <trkpt lat="44.79975" lon="7.2888">
        <ele>412.0</ele>
      </trkpt>
      <trkpt lat="44.79852" lon="7.28831">
        <ele>412.0</ele>
      </trkpt>
      <trkpt lat="44.79759" lon="7.2881">
        <ele>413.0</ele>
      </trkpt>
      <trkpt lat="44.7966" lon="7.28805">
        <ele>416.0</ele>
      </trkpt>
      <trkpt lat="44.79582" lon="7.28713">
        <ele>421.0</ele>
      </trkpt>
      <trkpt lat="44.79549" lon="7.28644">
        <ele>426.0</ele>
      </trkpt>
      <trkpt lat="44.79545" lon="7.28549">
        <ele>429.0</ele>
      </trkpt>
      <trkpt lat="44.7947" lon="7.28299">
        <ele>435.0</ele>
      </trkpt>
      <trkpt lat="44.79423" lon="7.28144">
        <ele>444.0</ele>
      </trkpt>
      <trkpt lat="44.79357" lon="7.27961">
        <ele>452.0</ele>
      </trkpt>
      <trkpt lat="44.79239" lon="7.27623">
        <ele>469.0</ele>
      </trkpt>
      <trkpt lat="44.79106" lon="7.27528">
        <ele>480.0</ele>
      </trkpt>
      <trkpt lat="44.78912" lon="7.2746">
        <ele>496.0</ele>
      </trkpt>
      <trkpt lat="44.78713" lon="7.27373">
        <ele>520.0</ele>
      </trkpt>
      <trkpt lat="44.78629" lon="7.27243">
        <ele>535.0</ele>
      </trkpt>
      <trkpt lat="44.78615" lon="7.27154">
        <ele>544.0</ele>
      </trkpt>
      <trkpt lat="44.78565" lon="7.27148">
        <ele>550.0</ele>
      </trkpt>
      <trkpt lat="44.78519" lon="7.27076">
        <ele>555.0</ele>
      </trkpt>
      <trkpt lat="44.78492" lon="7.26984">
        <ele>565.0</ele>
      </trkpt>
      <trkpt lat="44.78488" lon="7.26854">
        <ele>580.0</ele>
      </trkpt>
      <trkpt lat="44.78538" lon="7.26839">
        <ele>591.0</ele>
      </trkpt>
      <trkpt lat="44.78564" lon="7.26834">
        <ele>595.0</ele>
      </trkpt>
      <trkpt lat="44.78545" lon="7.26774">
        <ele>599.0</ele>
      </trkpt>
      <trkpt lat="44.78434" lon="7.26839">
        <ele>607.0</ele>
      </trkpt>
      <trkpt lat="44.78386" lon="7.26866">
        <ele>616.0</ele>
      </trkpt>
      <trkpt lat="44.78332" lon="7.26841">
        <ele>622.0</ele>
      </trkpt>
      <trkpt lat="44.7829" lon="7.26709">
        <ele>629.0</ele>
      </trkpt>
      <trkpt lat="44.78298" lon="7.26677">
        <ele>636.0</ele>
      </trkpt>
      <trkpt lat="44.78348" lon="7.26756">
        <ele>642.0</ele>
      </trkpt>
      <trkpt lat="44.78378" lon="7.26754">
        <ele>648.0</ele>
      </trkpt>
      <trkpt lat="44.78408" lon="7.26673">
        <ele>655.0</ele>
      </trkpt>
      <trkpt lat="44.78379" lon="7.26664">
        <ele>661.0</ele>
      </trkpt>
      <trkpt lat="44.78354" lon="7.26629">
        <ele>667.0</ele>
      </trkpt>
      <trkpt lat="44.78326" lon="7.26491">
        <ele>679.0</ele>
      </trkpt>
      <trkpt lat="44.78237" lon="7.26272">
        <ele>700.0</ele>
      </trkpt>
      <trkpt lat="44.78207" lon="7.26167">
        <ele>716.0</ele>
      </trkpt>
      <trkpt lat="44.78282" lon="7.26195">
        <ele>726.0</ele>
      </trkpt>
      <trkpt lat="44.78236" lon="7.26121">
        <ele>736.0</ele>
      </trkpt>
      <trkpt lat="44.78143" lon="7.2601">
        <ele>750.0</ele>
      </trkpt>
      <trkpt lat="44.78055" lon="7.2586">
        <ele>766.0</ele>
      </trkpt>
      <trkpt lat="44.78075" lon="7.25838">
        <ele>775.0</ele>
      </trkpt>
      <trkpt lat="44.78151" lon="7.25895">
        <ele>785.0</ele>
      </trkpt>
      <trkpt lat="44.78149" lon="7.25759">
        <ele>794.0</ele>
      </trkpt>
      <trkpt lat="44.78134" lon="7.25699">
        <ele>802.0</ele>
      </trkpt>
      <trkpt lat="44.78221" lon="7.25619">
        <ele>811.0</ele>
      </trkpt>
      <trkpt lat="44.78243" lon="7.25462">
        <ele>822.0</ele>
      </trkpt>
      <trkpt lat="44.78296" lon="7.25368">
        <ele>835.0</ele>
      </trkpt>
      <trkpt lat="44.78294" lon="7.25344">
        <ele>841.0</ele>
      </trkpt>
      <trkpt lat="44.7816" lon="7.25262">
        <ele>853.0</ele>
      </trkpt>
      <trkpt lat="44.78104" lon="7.25256">
        <ele>865.0</ele>
      </trkpt>
      <trkpt lat="44.77997" lon="7.25268">
        <ele>877.0</ele>
      </trkpt>
      <trkpt lat="44.77946" lon="7.25254">
        <ele>888.0</ele>
      </trkpt>
      <trkpt lat="44.77818" lon="7.25291">
        <ele>897.0</ele>
      </trkpt>
      <trkpt lat="44.77725" lon="7.25317">
        <ele>908.0</ele>
      </trkpt>
      <trkpt lat="44.77719" lon="7.25272">
        <ele>916.0</ele>
      </trkpt>
      <trkpt lat="44.77765" lon="7.25092">
        <ele>932.0</ele>
      </trkpt>
      <trkpt lat="44.77749" lon="7.25071">
        <ele>941.0</ele>
      </trkpt>
      <trkpt lat="44.77678" lon="7.2511">
        <ele>950.0</ele>
      </trkpt>
      <trkpt lat="44.7764" lon="7.25084">
        <ele>959.0</ele>
      </trkpt>
      <trkpt lat="44.77654" lon="7.25058">
        <ele>962.0</ele>
      </trkpt>
      <trkpt lat="44.77609" lon="7.25057">
        <ele>965.0</ele>
      </trkpt>
      <trkpt lat="44.77537" lon="7.25095">
        <ele>972.0</ele>
      </trkpt>
      <trkpt lat="44.77452" lon="7.25041">
        <ele>984.0</ele>
      </trkpt>
      <trkpt lat="44.77382" lon="7.25023">
        <ele>997.0</ele>
      </trkpt>
      <trkpt lat="44.77385" lon="7.25004">
        <ele>1002.0</ele>
      </trkpt>
      <trkpt lat="44.77479" lon="7.24988">
        <ele>1011.0</ele>
      </trkpt>
      <trkpt lat="44.77479" lon="7.24921">
        <ele>1017.0</ele>
      </trkpt>
      <trkpt lat="44.77428" lon="7.2478">
        <ele>1030.0</ele>
      </trkpt>
      <trkpt lat="44.77407" lon="7.24594">
        <ele>1046.0</ele>
      </trkpt>
      <trkpt lat="44.7739" lon="7.24593">
        <ele>1053.0</ele>
      </trkpt>
      <trkpt lat="44.77377" lon="7.24717">
        <ele>1062.0</ele>
      </trkpt>
      <trkpt lat="44.7732" lon="7.24845">
        <ele>1075.0</ele>
      </trkpt>
      <trkpt lat="44.77314" lon="7.24768">
        <ele>1084.0</ele>
      </trkpt>
      <trkpt lat="44.7732" lon="7.2467">
        <ele>1097.0</ele>
      </trkpt>
      <trkpt lat="44.77301" lon="7.24673">
        <ele>1103.0</ele>
      </trkpt>
      <trkpt lat="44.77238" lon="7.24766">
        <ele>1112.0</ele>
      </trkpt>
      <trkpt lat="44.77185" lon="7.24736">
        <ele>1119.0</ele>
      </trkpt>
      <trkpt lat="44.77197" lon="7.24714">
        <ele>1123.0</ele>
      </trkpt>
      <trkpt lat="44.77243" lon="7.24651">
        <ele>1130.0</ele>
      </trkpt>
      <trkpt lat="44.7724" lon="7.24588">
        <ele>1140.0</ele>
      </trkpt>
      <trkpt lat="44.77215" lon="7.24633">
        <ele>1146.0</ele>
      </trkpt>
      <trkpt lat="44.77122" lon="7.24558">
        <ele>1156.0</ele>
      </trkpt>
      <trkpt lat="44.77159" lon="7.24554">
        <ele>1167.0</ele>
      </trkpt>
      <trkpt lat="44.77131" lon="7.2448">
        <ele>1175.0</ele>
      </trkpt>
      <trkpt lat="44.77091" lon="7.2442">
        <ele>1185.0</ele>
      </trkpt>
      <trkpt lat="44.77039" lon="7.24454">
        <ele>1193.0</ele>
      </trkpt>
      <trkpt lat="44.769" lon="7.24437">
        <ele>1207.0</ele>
      </trkpt>
      <trkpt lat="44.76782" lon="7.24385">
        <ele>1216.0</ele>
      </trkpt>
      <trkpt lat="44.76737" lon="7.2438">
        <ele>1221.0</ele>
      </trkpt>
      <trkpt lat="44.76631" lon="7.24364">
        <ele>1228.0</ele>
      </trkpt>
      <trkpt lat="44.76355" lon="7.24526">
        <ele>1246.0</ele>
      </trkpt>
      <trkpt lat="44.76377" lon="7.24569">
        <ele>1252.0</ele>
      </trkpt>
      <trkpt lat="44.7641" lon="7.24725">
        <ele>1252.0</ele>
      </trkpt>
      <trkpt lat="44.76381" lon="7.24812">
        <ele>1249.0</ele>
      </trkpt>
      <trkpt lat="44.76351" lon="7.24837">
        <ele>1246.0</ele>
      </trkpt>
      <trkpt lat="44.76246" lon="7.24844">
        <ele>1244.0</ele>
      </trkpt>
      <trkpt lat="44.76045" lon="7.2477">
        <ele>1239.0</ele>
      </trkpt>
      <trkpt lat="44.75959" lon="7.24735">
        <ele>1226.0</ele>
      </trkpt>
      <trkpt lat="44.75894" lon="7.24674">
        <ele>1217.0</ele>
      </trkpt>
      <trkpt lat="44.75796" lon="7.24641">
        <ele>1205.0</ele>
      </trkpt>
      <trkpt lat="44.75713" lon="7.24632">
        <ele>1193.0</ele>
      </trkpt>
      <trkpt lat="44.75624" lon="7.24654">
        <ele>1182.0</ele>
      </trkpt>
      <trkpt lat="44.75538" lon="7.24635">
        <ele>1168.0</ele>
      </trkpt>
      <trkpt lat="44.75476" lon="7.24613">
        <ele>1159.0</ele>
      </trkpt>
      <trkpt lat="44.75398" lon="7.24505">
        <ele>1150.0</ele>
      </trkpt>
      <trkpt lat="44.75303" lon="7.24415">
        <ele>1142.0</ele>
      </trkpt>
      <trkpt lat="44.7527" lon="7.24339">
        <ele>1134.0</ele>
      </trkpt>
      <trkpt lat="44.75205" lon="7.2433">
        <ele>1122.0</ele>
      </trkpt>
      <trkpt lat="44.75147" lon="7.24343">
        <ele>1109.0</ele>
      </trkpt>
      <trkpt lat="44.75092" lon="7.24304">
        <ele>1097.0</ele>
      </trkpt>
      <trkpt lat="44.75032" lon="7.24315">
        <ele>1084.0</ele>
      </trkpt>
      <trkpt lat="44.75055" lon="7.24376">
        <ele>1076.0</ele>
      </trkpt>
      <trkpt lat="44.75059" lon="7.24451">
        <ele>1069.0</ele>
      </trkpt>
      <trkpt lat="44.75097" lon="7.24515">
        <ele>1062.0</ele>
      </trkpt>
      <trkpt lat="44.75122" lon="7.24584">
        <ele>1058.0</ele>
      </trkpt>
      <trkpt lat="44.75198" lon="7.2461">
        <ele>1052.0</ele>
      </trkpt>
      <trkpt lat="44.75213" lon="7.24642">
        <ele>1046.0</ele>
      </trkpt>
      <trkpt lat="44.7512" lon="7.24648">
        <ele>1037.0</ele>
      </trkpt>
      <trkpt lat="44.74943" lon="7.24621">
        <ele>1020.0</ele>
      </trkpt>
      <trkpt lat="44.74904" lon="7.2458">
        <ele>1007.0</ele>
      </trkpt>
      <trkpt lat="44.74919" lon="7.24649">
        <ele>1001.0</ele>
      </trkpt>
      <trkpt lat="44.74971" lon="7.24725">
        <ele>995.0</ele>
      </trkpt>
      <trkpt lat="44.75026" lon="7.24805">
        <ele>988.0</ele>
      </trkpt>
      <trkpt lat="44.75085" lon="7.24869">
        <ele>978.0</ele>
      </trkpt>
      <trkpt lat="44.7512" lon="7.24907">
        <ele>973.0</ele>
      </trkpt>
      <trkpt lat="44.752" lon="7.24909">
        <ele>963.0</ele>
      </trkpt>
      <trkpt lat="44.75228" lon="7.25012">
        <ele>952.0</ele>
      </trkpt>
      <trkpt lat="44.75313" lon="7.25061">
        <ele>935.0</ele>
      </trkpt>
      <trkpt lat="44.7534" lon="7.25159">
        <ele>923.0</ele>
      </trkpt>
      <trkpt lat="44.75312" lon="7.25197">
        <ele>915.0</ele>
      </trkpt>
      <trkpt lat="44.75299" lon="7.25262">
        <ele>907.0</ele>
      </trkpt>
      <trkpt lat="44.75338" lon="7.25292">
        <ele>902.0</ele>
      </trkpt>
      <trkpt lat="44.75351" lon="7.25344">
        <ele>898.0</ele>
      </trkpt>
      <trkpt lat="44.75382" lon="7.2537">
        <ele>895.0</ele>
      </trkpt>
      <trkpt lat="44.75362" lon="7.25396">
        <ele>890.0</ele>
      </trkpt>
      <trkpt lat="44.753" lon="7.25333">
        <ele>886.0</ele>
      </trkpt>
      <trkpt lat="44.75292" lon="7.25364">
        <ele>882.0</ele>
      </trkpt>
      <trkpt lat="44.75359" lon="7.25507">
        <ele>875.0</ele>
      </trkpt>
      <trkpt lat="44.75441" lon="7.25588">
        <ele>870.0</ele>
      </trkpt>
      <trkpt lat="44.75509" lon="7.25642">
        <ele>864.0</ele>
      </trkpt>
      <trkpt lat="44.7548" lon="7.25644">
        <ele>858.0</ele>
      </trkpt>
      <trkpt lat="44.75411" lon="7.25617">
        <ele>849.0</ele>
      </trkpt>
      <trkpt lat="44.75318" lon="7.2561">
        <ele>835.0</ele>
      </trkpt>
      <trkpt lat="44.75299" lon="7.25626">
        <ele>825.0</ele>
      </trkpt>
      <trkpt lat="44.75285" lon="7.25706">
        <ele>813.0</ele>
      </trkpt>
      <trkpt lat="44.75279" lon="7.25751">
        <ele>804.0</ele>
      </trkpt>
      <trkpt lat="44.75304" lon="7.25784">
        <ele>796.0</ele>
      </trkpt>
      <trkpt lat="44.7535" lon="7.25752">
        <ele>793.0</ele>
      </trkpt>
      <trkpt lat="44.75375" lon="7.25796">
        <ele>792.0</ele>
      </trkpt>
      <trkpt lat="44.75424" lon="7.25788">
        <ele>791.0</ele>
      </trkpt>
      <trkpt lat="44.75438" lon="7.25807">
        <ele>791.0</ele>
      </trkpt>
      <trkpt lat="44.75366" lon="7.2583">
        <ele>786.0</ele>
      </trkpt>
      <trkpt lat="44.75326" lon="7.25872">
        <ele>780.0</ele>
      </trkpt>
      <trkpt lat="44.7526" lon="7.25911">
        <ele>772.0</ele>
      </trkpt>
      <trkpt lat="44.75186" lon="7.25901">
        <ele>761.0</ele>
      </trkpt>
      <trkpt lat="44.75165" lon="7.25868">
        <ele>755.0</ele>
      </trkpt>
      <trkpt lat="44.75169" lon="7.25903">
        <ele>751.0</ele>
      </trkpt>
      <trkpt lat="44.75219" lon="7.25999">
        <ele>743.0</ele>
      </trkpt>
      <trkpt lat="44.75296" lon="7.25981">
        <ele>739.0</ele>
      </trkpt>
      <trkpt lat="44.75313" lon="7.26006">
        <ele>736.0</ele>
      </trkpt>
      <trkpt lat="44.75262" lon="7.26061">
        <ele>732.0</ele>
      </trkpt>
      <trkpt lat="44.75192" lon="7.26192">
        <ele>712.0</ele>
      </trkpt>
      <trkpt lat="44.75138" lon="7.26258">
        <ele>697.0</ele>
      </trkpt>
      <trkpt lat="44.75124" lon="7.26307">
        <ele>689.0</ele>
      </trkpt>
      <trkpt lat="44.75147" lon="7.26446">
        <ele>677.0</ele>
      </trkpt>
      <trkpt lat="44.75079" lon="7.26567">
        <ele>664.0</ele>
      </trkpt>
      <trkpt lat="44.74997" lon="7.26698">
        <ele>647.0</ele>
      </trkpt>
      <trkpt lat="44.74988" lon="7.2679">
        <ele>635.0</ele>
      </trkpt>
      <trkpt lat="44.74919" lon="7.27005">
        <ele>619.0</ele>
      </trkpt>
      <trkpt lat="44.74929" lon="7.27098">
        <ele>609.0</ele>
      </trkpt>
      <trkpt lat="44.74987" lon="7.27265">
        <ele>597.0</ele>
      </trkpt>
      <trkpt lat="44.75075" lon="7.27515">
        <ele>578.0</ele>
      </trkpt>
      <trkpt lat="44.7515" lon="7.27739">
        <ele>559.0</ele>
      </trkpt>
      <trkpt lat="44.75174" lon="7.27984">
        <ele>547.0</ele>
      </trkpt>
      <trkpt lat="44.7521" lon="7.28254">
        <ele>529.0</ele>
      </trkpt>
      <trkpt lat="44.75296" lon="7.28612">
        <ele>504.0</ele>
      </trkpt>
      <trkpt lat="44.75389" lon="7.28798">
        <ele>496.0</ele>
      </trkpt>
      <trkpt lat="44.75387" lon="7.2888">
        <ele>492.0</ele>
      </trkpt>
      <trkpt lat="44.75285" lon="7.29081">
        <ele>487.0</ele>
      </trkpt>
      <trkpt lat="44.75262" lon="7.29189">
        <ele>481.0</ele>
      </trkpt>
      <trkpt lat="44.75326" lon="7.29906">
        <ele>459.0</ele>
      </trkpt>
      <trkpt lat="44.75388" lon="7.30411">
        <ele>422.0</ele>
      </trkpt>
      <trkpt lat="44.75496" lon="7.30572">
        <ele>410.0</ele>
      </trkpt>
      <trkpt lat="44.75556" lon="7.30673">
        <ele>403.0</ele>
      </trkpt>
      <trkpt lat="44.75712" lon="7.30947">
        <ele>393.0</ele>
      </trkpt>
      <trkpt lat="44.75729" lon="7.3117">
        <ele>385.0</ele>
      </trkpt>
      <trkpt lat="44.75726" lon="7.31268">
        <ele>383.0</ele>
      </trkpt>
      <trkpt lat="44.75727" lon="7.31371">
        <ele>380.0</ele>
      </trkpt>
      <trkpt lat="44.75642" lon="7.31403">
        <ele>377.0</ele>
      </trkpt>
      <trkpt lat="44.75538" lon="7.3147">
        <ele>376.0</ele>
      </trkpt>
      <trkpt lat="44.75363" lon="7.31627">
        <ele>382.0</ele>
      </trkpt>
      <trkpt lat="44.75289" lon="7.31683">
        <ele>384.0</ele>
      </trkpt>
      <trkpt lat="44.75213" lon="7.31713">
        <ele>386.0</ele>
      </trkpt>
      <trkpt lat="44.75059" lon="7.31721">
        <ele>388.0</ele>
      </trkpt>
      <trkpt lat="44.74785" lon="7.31745">
        <ele>392.0</ele>
      </trkpt>
      <trkpt lat="44.74526" lon="7.3191">
        <ele>396.0</ele>
      </trkpt>
      <trkpt lat="44.74365" lon="7.32025">
        <ele>402.0</ele>
      </trkpt>
      <trkpt lat="44.74166" lon="7.32162">
        <ele>399.0</ele>
      </trkpt>
      <trkpt lat="44.74057" lon="7.32221">
        <ele>398.0</ele>
      </trkpt>
      <trkpt lat="44.73682" lon="7.32292">
        <ele>397.0</ele>
      </trkpt>
      <trkpt lat="44.73523" lon="7.32322">
        <ele>396.0</ele>
      </trkpt>
      <trkpt lat="44.73131" lon="7.32511">
        <ele>390.0</ele>
      </trkpt>
      <trkpt lat="44.72958" lon="7.32594">
        <ele>381.0</ele>
      </trkpt>
      <trkpt lat="44.72889" lon="7.32607">
        <ele>377.0</ele>
      </trkpt>
      <trkpt lat="44.72847" lon="7.32606">
        <ele>375.0</ele>
      </trkpt>
      <trkpt lat="44.7281" lon="7.32596">
        <ele>373.0</ele>
      </trkpt>
      <trkpt lat="44.72785" lon="7.32565">
        <ele>371.0</ele>
      </trkpt>
      <trkpt lat="44.72757" lon="7.32431">
        <ele>371.0</ele>
      </trkpt>
      <trkpt lat="44.72712" lon="7.32311">
        <ele>372.0</ele>
      </trkpt>
      <trkpt lat="44.72684" lon="7.32257">
        <ele>374.0</ele>
      </trkpt>
      <trkpt lat="44.72684" lon="7.32243">
        <ele>374.0</ele>
      </trkpt>
      <trkpt lat="44.72676" lon="7.32238">
        <ele>375.0</ele>
      </trkpt>
      <trkpt lat="44.72648" lon="7.32243">
        <ele>375.0</ele>
      </trkpt>
      <trkpt lat="44.72541" lon="7.32229">
        <ele>378.0</ele>
      </trkpt>
      <trkpt lat="44.72497" lon="7.32223">
        <ele>379.0</ele>
      </trkpt>
      <trkpt lat="44.72395" lon="7.32211">
        <ele>378.0</ele>
      </trkpt>
      <trkpt lat="44.72337" lon="7.322">
        <ele>377.0</ele>
      </trkpt>
      <trkpt lat="44.72232" lon="7.32145">
        <ele>377.0</ele>
      </trkpt>
      <trkpt lat="44.72138" lon="7.32129">
        <ele>378.0</ele>
      </trkpt>
      <trkpt lat="44.72022" lon="7.3218">
        <ele>378.0</ele>
      </trkpt>
      <trkpt lat="44.71929" lon="7.32185">
        <ele>378.0</ele>
      </trkpt>
      <trkpt lat="44.71842" lon="7.32135">
        <ele>378.0</ele>
      </trkpt>
      <trkpt lat="44.71745" lon="7.32121">
        <ele>379.0</ele>
      </trkpt>
      <trkpt lat="44.7161" lon="7.32063">
        <ele>383.0</ele>
      </trkpt>
      <trkpt lat="44.71561" lon="7.32002">
        <ele>386.0</ele>
      </trkpt>
      <trkpt lat="44.71518" lon="7.31877">
        <ele>389.0</ele>
      </trkpt>
      <trkpt lat="44.71443" lon="7.31753">
        <ele>393.0</ele>
      </trkpt>
      <trkpt lat="44.71274" lon="7.31578">
        <ele>400.0</ele>
      </trkpt>
      <trkpt lat="44.71191" lon="7.31439">
        <ele>406.0</ele>
      </trkpt>
      <trkpt lat="44.7113" lon="7.31387">
        <ele>409.0</ele>
      </trkpt>
      <trkpt lat="44.71063" lon="7.31311">
        <ele>412.0</ele>
      </trkpt>
      <trkpt lat="44.71001" lon="7.31213">
        <ele>416.0</ele>
      </trkpt>
      <trkpt lat="44.70825" lon="7.31037">
        <ele>425.0</ele>
      </trkpt>
      <trkpt lat="44.70702" lon="7.30794">
        <ele>438.0</ele>
      </trkpt>
      <trkpt lat="44.7068" lon="7.30771">
        <ele>443.0</ele>
      </trkpt>
      <trkpt lat="44.70533" lon="7.30661">
        <ele>450.0</ele>
      </trkpt>
      <trkpt lat="44.70407" lon="7.30608">
        <ele>461.0</ele>
      </trkpt>
      <trkpt lat="44.70307" lon="7.30541">
        <ele>474.0</ele>
      </trkpt>
      <trkpt lat="44.70303" lon="7.30531">
        <ele>476.0</ele>
      </trkpt>
      <trkpt lat="44.70307" lon="7.30509">
        <ele>477.0</ele>
      </trkpt>
      <trkpt lat="44.70318" lon="7.30497">
        <ele>478.0</ele>
      </trkpt>
      <trkpt lat="44.70349" lon="7.30507">
        <ele>479.0</ele>
      </trkpt>
      <trkpt lat="44.70408" lon="7.30489">
        <ele>481.0</ele>
      </trkpt>
      <trkpt lat="44.7041" lon="7.30474">
        <ele>483.0</ele>
      </trkpt>
      <trkpt lat="44.70391" lon="7.30474">
        <ele>484.0</ele>
      </trkpt>
      <trkpt lat="44.70301" lon="7.30459">
        <ele>487.0</ele>
      </trkpt>
      <trkpt lat="44.70273" lon="7.30419">
        <ele>491.0</ele>
      </trkpt>
      <trkpt lat="44.70215" lon="7.3045">
        <ele>493.0</ele>
      </trkpt>
      <trkpt lat="44.70111" lon="7.30456">
        <ele>499.0</ele>
      </trkpt>
      <trkpt lat="44.70092" lon="7.30442">
        <ele>503.0</ele>
      </trkpt>
      <trkpt lat="44.70091" lon="7.30349">
        <ele>507.0</ele>
      </trkpt>
      <trkpt lat="44.70108" lon="7.3018">
        <ele>522.0</ele>
      </trkpt>
      <trkpt lat="44.70103" lon="7.30124">
        <ele>538.0</ele>
      </trkpt>
      <trkpt lat="44.70096" lon="7.30124">
        <ele>543.0</ele>
      </trkpt>
      <trkpt lat="44.70056" lon="7.30238">
        <ele>542.0</ele>
      </trkpt>
      <trkpt lat="44.70042" lon="7.30292">
        <ele>540.0</ele>
      </trkpt>
      <trkpt lat="44.70015" lon="7.30356">
        <ele>537.0</ele>
      </trkpt>
      <trkpt lat="44.69959" lon="7.30411">
        <ele>537.0</ele>
      </trkpt>
      <trkpt lat="44.69938" lon="7.304">
        <ele>537.0</ele>
      </trkpt>
      <trkpt lat="44.69921" lon="7.30371">
        <ele>538.0</ele>
      </trkpt>
      <trkpt lat="44.69922" lon="7.30337">
        <ele>538.0</ele>
      </trkpt>
      <trkpt lat="44.69933" lon="7.3034">
        <ele>538.0</ele>
      </trkpt>
      <trkpt lat="44.69951" lon="7.30394">
        <ele>539.0</ele>
      </trkpt>
      <trkpt lat="44.69964" lon="7.30394">
        <ele>542.0</ele>
      </trkpt>
      <trkpt lat="44.69997" lon="7.30351">
        <ele>546.0</ele>
      </trkpt>
      <trkpt lat="44.69993" lon="7.30336">
        <ele>549.0</ele>
      </trkpt>
      <trkpt lat="44.69976" lon="7.30343">
        <ele>551.0</ele>
      </trkpt>
      <trkpt lat="44.69958" lon="7.3035">
        <ele>553.0</ele>
      </trkpt>
      <trkpt lat="44.69939" lon="7.30308">
        <ele>557.0</ele>
      </trkpt>
      <trkpt lat="44.69939" lon="7.30234">
        <ele>562.0</ele>
      </trkpt>
      <trkpt lat="44.69935" lon="7.30222">
        <ele>563.0</ele>
      </trkpt>
      <trkpt lat="44.69924" lon="7.30221">
        <ele>564.0</ele>
      </trkpt>
      <trkpt lat="44.69883" lon="7.30261">
        <ele>565.0</ele>
      </trkpt>
      <trkpt lat="44.6984" lon="7.30214">
        <ele>567.0</ele>
      </trkpt>
      <trkpt lat="44.69776" lon="7.30206">
        <ele>569.0</ele>
      </trkpt>
      <trkpt lat="44.69732" lon="7.30203">
        <ele>572.0</ele>
      </trkpt>
      <trkpt lat="44.69729" lon="7.30189">
        <ele>573.0</ele>
      </trkpt>
      <trkpt lat="44.69772" lon="7.30188">
        <ele>574.0</ele>
      </trkpt>
      <trkpt lat="44.69808" lon="7.30189">
        <ele>577.0</ele>
      </trkpt>
      <trkpt lat="44.6976" lon="7.30173">
        <ele>578.0</ele>
      </trkpt>
      <trkpt lat="44.69666" lon="7.30155">
        <ele>578.0</ele>
      </trkpt>
      <trkpt lat="44.69654" lon="7.30145">
        <ele>578.0</ele>
      </trkpt>
      <trkpt lat="44.6966" lon="7.30122">
        <ele>579.0</ele>
      </trkpt>
      <trkpt lat="44.69709" lon="7.30093">
        <ele>584.0</ele>
      </trkpt>
      <trkpt lat="44.69741" lon="7.30075">
        <ele>591.0</ele>
      </trkpt>
      <trkpt lat="44.69757" lon="7.30035">
        <ele>597.0</ele>
      </trkpt>
      <trkpt lat="44.69746" lon="7.30009">
        <ele>601.0</ele>
      </trkpt>
      <trkpt lat="44.69699" lon="7.29987">
        <ele>607.0</ele>
      </trkpt>
      <trkpt lat="44.69608" lon="7.29873">
        <ele>618.0</ele>
      </trkpt>
      <trkpt lat="44.69595" lon="7.29767">
        <ele>622.0</ele>
      </trkpt>
      <trkpt lat="44.69626" lon="7.29734">
        <ele>618.0</ele>
      </trkpt>
      <trkpt lat="44.69662" lon="7.29721">
        <ele>613.0</ele>
      </trkpt>
      <trkpt lat="44.69594" lon="7.29647">
        <ele>605.0</ele>
      </trkpt>
      <trkpt lat="44.69461" lon="7.29499">
        <ele>598.0</ele>
      </trkpt>
      <trkpt lat="44.69385" lon="7.29373">
        <ele>593.0</ele>
      </trkpt>
      <trkpt lat="44.69328" lon="7.29166">
        <ele>591.0</ele>
      </trkpt>
      <trkpt lat="44.69262" lon="7.29122">
        <ele>589.0</ele>
      </trkpt>
      <trkpt lat="44.69221" lon="7.29027">
        <ele>587.0</ele>
      </trkpt>
      <trkpt lat="44.69113" lon="7.28844">
        <ele>585.0</ele>
      </trkpt>
      <trkpt lat="44.6899" lon="7.28632">
        <ele>587.0</ele>
      </trkpt>
      <trkpt lat="44.68968" lon="7.28504">
        <ele>591.0</ele>
      </trkpt>
      <trkpt lat="44.68956" lon="7.28367">
        <ele>595.0</ele>
      </trkpt>
      <trkpt lat="44.6892" lon="7.281">
        <ele>602.0</ele>
      </trkpt>
      <trkpt lat="44.68897" lon="7.28061">
        <ele>606.0</ele>
      </trkpt>
      <trkpt lat="44.68846" lon="7.27976">
        <ele>609.0</ele>
      </trkpt>
      <trkpt lat="44.6875" lon="7.27874">
        <ele>609.0</ele>
      </trkpt>
      <trkpt lat="44.68708" lon="7.27728">
        <ele>610.0</ele>
      </trkpt>
      <trkpt lat="44.6866" lon="7.27684">
        <ele>611.0</ele>
      </trkpt>
      <trkpt lat="44.68546" lon="7.27634">
        <ele>611.0</ele>
      </trkpt>
      <trkpt lat="44.68457" lon="7.27656">
        <ele>610.0</ele>
      </trkpt>
      <trkpt lat="44.68367" lon="7.27701">
        <ele>609.0</ele>
      </trkpt>
      <trkpt lat="44.68231" lon="7.27682">
        <ele>606.0</ele>
      </trkpt>
      <trkpt lat="44.68107" lon="7.27671">
        <ele>602.0</ele>
      </trkpt>
      <trkpt lat="44.68022" lon="7.27662">
        <ele>602.0</ele>
      </trkpt>
      <trkpt lat="44.67895" lon="7.27657">
        <ele>603.0</ele>
      </trkpt>
      <trkpt lat="44.67852" lon="7.2772">
        <ele>602.0</ele>
      </trkpt>
      <trkpt lat="44.67809" lon="7.27789">
        <ele>602.0</ele>
      </trkpt>
      <trkpt lat="44.67757" lon="7.27867">
        <ele>600.0</ele>
      </trkpt>
      <trkpt lat="44.6773" lon="7.2786">
        <ele>598.0</ele>
      </trkpt>
      <trkpt lat="44.67709" lon="7.27869">
        <ele>597.0</ele>
      </trkpt>
      <trkpt lat="44.67711" lon="7.27894">
        <ele>596.0</ele>
      </trkpt>
      <trkpt lat="44.67676" lon="7.27987">
        <ele>594.0</ele>
      </trkpt>
      <trkpt lat="44.67552" lon="7.2818">
        <ele>590.0</ele>
      </trkpt>
      <trkpt lat="44.67421" lon="7.28335">
        <ele>584.0</ele>
      </trkpt>
      <trkpt lat="44.67074" lon="7.28645">
        <ele>578.0</ele>
      </trkpt>
      <trkpt lat="44.6702" lon="7.28695">
        <ele>574.0</ele>
      </trkpt>
      <trkpt lat="44.66963" lon="7.28818">
        <ele>574.0</ele>
      </trkpt>
      <trkpt lat="44.66885" lon="7.29144">
        <ele>571.0</ele>
      </trkpt>
      <trkpt lat="44.66775" lon="7.29459">
        <ele>567.0</ele>
      </trkpt>
      <trkpt lat="44.66667" lon="7.2972">
        <ele>563.0</ele>
      </trkpt>
      <trkpt lat="44.66635" lon="7.29795">
        <ele>560.0</ele>
      </trkpt>
      <trkpt lat="44.66479" lon="7.29977">
        <ele>554.0</ele>
      </trkpt>
      <trkpt lat="44.66301" lon="7.3014">
        <ele>545.0</ele>
      </trkpt>
      <trkpt lat="44.66037" lon="7.30356">
        <ele>535.0</ele>
      </trkpt>
      <trkpt lat="44.65529" lon="7.30738">
        <ele>516.0</ele>
      </trkpt>
      <trkpt lat="44.65447" lon="7.30815">
        <ele>507.0</ele>
      </trkpt>
      <trkpt lat="44.65403" lon="7.30882">
        <ele>503.0</ele>
      </trkpt>
      <trkpt lat="44.65332" lon="7.31016">
        <ele>500.0</ele>
      </trkpt>
      <trkpt lat="44.65215" lon="7.31233">
        <ele>494.0</ele>
      </trkpt>
      <trkpt lat="44.64946" lon="7.31734">
        <ele>485.0</ele>
      </trkpt>
      <trkpt lat="44.64853" lon="7.31946">
        <ele>480.0</ele>
      </trkpt>
      <trkpt lat="44.64815" lon="7.32124">
        <ele>479.0</ele>
      </trkpt>
      <trkpt lat="44.64764" lon="7.32383">
        <ele>476.0</ele>
      </trkpt>
      <trkpt lat="44.64751" lon="7.32412">
        <ele>473.0</ele>
      </trkpt>
      <trkpt lat="44.64751" lon="7.3243">
        <ele>472.0</ele>
      </trkpt>
      <trkpt lat="44.64765" lon="7.32447">
        <ele>472.0</ele>
      </trkpt>
      <trkpt lat="44.64769" lon="7.32506">
        <ele>470.0</ele>
      </trkpt>
      <trkpt lat="44.64754" lon="7.32542">
        <ele>469.0</ele>
      </trkpt>
      <trkpt lat="44.64649" lon="7.32645">
        <ele>467.0</ele>
      </trkpt>
      <trkpt lat="44.64464" lon="7.32829">
        <ele>463.0</ele>
      </trkpt>
      <trkpt lat="44.64284" lon="7.32989">
        <ele>458.0</ele>
      </trkpt>
      <trkpt lat="44.64111" lon="7.33081">
        <ele>458.0</ele>
      </trkpt>
      <trkpt lat="44.6394" lon="7.33167">
        <ele>459.0</ele>
      </trkpt>
      <trkpt lat="44.63717" lon="7.33294">
        <ele>463.0</ele>
      </trkpt>
      <trkpt lat="44.63647" lon="7.33371">
        <ele>466.0</ele>
      </trkpt>
      <trkpt lat="44.63541" lon="7.33552">
        <ele>470.0</ele>
      </trkpt>
      <trkpt lat="44.63396" lon="7.33795">
        <ele>473.0</ele>
      </trkpt>
      <trkpt lat="44.63266" lon="7.34014">
        <ele>469.0</ele>
      </trkpt>
      <trkpt lat="44.63207" lon="7.34159">
        <ele>465.0</ele>
      </trkpt>
      <trkpt lat="44.63181" lon="7.3426">
        <ele>464.0</ele>
      </trkpt>
      <trkpt lat="44.63091" lon="7.34589">
        <ele>464.0</ele>
      </trkpt>
      <trkpt lat="44.62948" lon="7.34941">
        <ele>463.0</ele>
      </trkpt>
      <trkpt lat="44.62801" lon="7.35321">
        <ele>459.0</ele>
      </trkpt>
      <trkpt lat="44.6279" lon="7.35516">
        <ele>463.0</ele>
      </trkpt>
      <trkpt lat="44.62831" lon="7.35919">
        <ele>465.0</ele>
      </trkpt>
      <trkpt lat="44.6284" lon="7.36002">
        <ele>464.0</ele>
      </trkpt>
      <trkpt lat="44.62844" lon="7.36233">
        <ele>458.0</ele>
      </trkpt>
      <trkpt lat="44.62823" lon="7.36398">
        <ele>452.0</ele>
      </trkpt>
      <trkpt lat="44.62787" lon="7.36772">
        <ele>442.0</ele>
      </trkpt>
      <trkpt lat="44.62803" lon="7.36877">
        <ele>435.0</ele>
      </trkpt>
      <trkpt lat="44.62832" lon="7.3699">
        <ele>427.0</ele>
      </trkpt>
      <trkpt lat="44.62833" lon="7.37037">
        <ele>422.0</ele>
      </trkpt>
      <trkpt lat="44.62841" lon="7.37117">
        <ele>419.0</ele>
      </trkpt>
      <trkpt lat="44.62889" lon="7.37425">
        <ele>406.0</ele>
      </trkpt>
      <trkpt lat="44.6295" lon="7.3771">
        <ele>391.0</ele>
      </trkpt>
      <trkpt lat="44.63003" lon="7.38232">
        <ele>377.0</ele>
      </trkpt>
      <trkpt lat="44.62789" lon="7.3876">
        <ele>371.0</ele>
      </trkpt>
      <trkpt lat="44.62746" lon="7.3902">
        <ele>367.0</ele>
      </trkpt>
      <trkpt lat="44.62769" lon="7.39555">
        <ele>361.0</ele>
      </trkpt>
      <trkpt lat="44.62902" lon="7.39984">
        <ele>353.0</ele>
      </trkpt>
      <trkpt lat="44.6293" lon="7.40274">
        <ele>350.0</ele>
      </trkpt>
      <trkpt lat="44.62982" lon="7.41053">
        <ele>345.0</ele>
      </trkpt>
      <trkpt lat="44.63159" lon="7.41706">
        <ele>339.0</ele>
      </trkpt>
      <trkpt lat="44.63377" lon="7.42186">
        <ele>332.0</ele>
      </trkpt>
      <trkpt lat="44.63451" lon="7.4254">
        <ele>329.0</ele>
      </trkpt>
      <trkpt lat="44.6345" lon="7.42874">
        <ele>327.0</ele>
      </trkpt>
      <trkpt lat="44.63477" lon="7.43079">
        <ele>324.0</ele>
      </trkpt>
      <trkpt lat="44.63513" lon="7.43297">
        <ele>321.0</ele>
      </trkpt>
      <trkpt lat="44.63624" lon="7.43611">
        <ele>321.0</ele>
      </trkpt>
      <trkpt lat="44.63831" lon="7.4424">
        <ele>317.0</ele>
      </trkpt>
      <trkpt lat="44.63919" lon="7.44472">
        <ele>315.0</ele>
      </trkpt>
      <trkpt lat="44.64119" lon="7.44748">
        <ele>313.0</ele>
      </trkpt>
      <trkpt lat="44.64206" lon="7.44933">
        <ele>312.0</ele>
      </trkpt>
      <trkpt lat="44.64276" lon="7.45116">
        <ele>309.0</ele>
      </trkpt>
      <trkpt lat="44.64291" lon="7.45249">
        <ele>307.0</ele>
      </trkpt>
      <trkpt lat="44.6425" lon="7.45546">
        <ele>306.0</ele>
      </trkpt>
      <trkpt lat="44.64243" lon="7.45715">
        <ele>308.0</ele>
      </trkpt>
      <trkpt lat="44.6424" lon="7.46076">
        <ele>311.0</ele>
      </trkpt>
      <trkpt lat="44.64275" lon="7.46331">
        <ele>314.0</ele>
      </trkpt>
      <trkpt lat="44.64284" lon="7.46425">
        <ele>316.0</ele>
      </trkpt>
      <trkpt lat="44.6428" lon="7.46427">
        <ele>316.0</ele>
      </trkpt>
      <trkpt lat="44.6427" lon="7.4642">
        <ele>316.0</ele>
      </trkpt>
      <trkpt lat="44.64127" lon="7.46298">
        <ele>318.0</ele>
      </trkpt>
      <trkpt lat="44.64066" lon="7.46283">
        <ele>319.0</ele>
      </trkpt>
      <trkpt lat="44.64015" lon="7.46257">
        <ele>319.0</ele>
      </trkpt>
      <trkpt lat="44.6395" lon="7.46173">
        <ele>318.0</ele>
      </trkpt>
      <trkpt lat="44.63851" lon="7.4608">
        <ele>317.0</ele>
      </trkpt>
      <trkpt lat="44.63715" lon="7.45944">
        <ele>316.0</ele>
      </trkpt>
      <trkpt lat="44.63704" lon="7.45944">
        <ele>316.0</ele>
      </trkpt>
      <trkpt lat="44.63616" lon="7.45866">
        <ele>316.0</ele>
      </trkpt>
      <trkpt lat="44.63533" lon="7.45862">
        <ele>317.0</ele>
      </trkpt>
      <trkpt lat="44.63474" lon="7.45848">
        <ele>318.0</ele>
      </trkpt>
      <trkpt lat="44.63278" lon="7.45751">
        <ele>319.0</ele>
      </trkpt>
      <trkpt lat="44.63195" lon="7.45706">
        <ele>319.0</ele>
      </trkpt>
      <trkpt lat="44.63097" lon="7.4562">
        <ele>320.0</ele>
      </trkpt>
      <trkpt lat="44.62972" lon="7.45493">
        <ele>321.0</ele>
      </trkpt>
      <trkpt lat="44.627" lon="7.45302">
        <ele>324.0</ele>
      </trkpt>
      <trkpt lat="44.62579" lon="7.45188">
        <ele>326.0</ele>
      </trkpt>
      <trkpt lat="44.624" lon="7.44958">
        <ele>329.0</ele>
      </trkpt>
      <trkpt lat="44.62221" lon="7.44637">
        <ele>332.0</ele>
      </trkpt>
      <trkpt lat="44.62068" lon="7.4433">
        <ele>338.0</ele>
      </trkpt>
      <trkpt lat="44.61962" lon="7.44225">
        <ele>342.0</ele>
      </trkpt>
      <trkpt lat="44.61897" lon="7.44088">
        <ele>346.0</ele>
      </trkpt>
      <trkpt lat="44.61895" lon="7.44028">
        <ele>347.0</ele>
      </trkpt>
      <trkpt lat="44.61888" lon="7.44013">
        <ele>347.0</ele>
      </trkpt>
      <trkpt lat="44.61839" lon="7.43891">
        <ele>348.0</ele>
      </trkpt>
      <trkpt lat="44.61756" lon="7.4361">
        <ele>351.0</ele>
      </trkpt>
      <trkpt lat="44.61682" lon="7.43389">
        <ele>356.0</ele>
      </trkpt>
      <trkpt lat="44.61597" lon="7.43258">
        <ele>359.0</ele>
      </trkpt>
      <trkpt lat="44.61445" lon="7.43177">
        <ele>360.0</ele>
      </trkpt>
      <trkpt lat="44.61372" lon="7.43036">
        <ele>363.0</ele>
      </trkpt>
      <trkpt lat="44.61319" lon="7.42951">
        <ele>365.0</ele>
      </trkpt>
      <trkpt lat="44.61265" lon="7.42848">
        <ele>367.0</ele>
      </trkpt>
      <trkpt lat="44.61248" lon="7.42746">
        <ele>369.0</ele>
      </trkpt>
      <trkpt lat="44.61205" lon="7.42698">
        <ele>370.0</ele>
      </trkpt>
      <trkpt lat="44.61141" lon="7.4269">
        <ele>371.0</ele>
      </trkpt>
      <trkpt lat="44.61084" lon="7.42598">
        <ele>374.0</ele>
      </trkpt>
      <trkpt lat="44.61057" lon="7.42563">
        <ele>376.0</ele>
      </trkpt>
      <trkpt lat="44.61048" lon="7.42543">
        <ele>377.0</ele>
      </trkpt>
      <trkpt lat="44.61003" lon="7.42387">
        <ele>383.0</ele>
      </trkpt>
      <trkpt lat="44.60924" lon="7.4235">
        <ele>388.0</ele>
      </trkpt>
      <trkpt lat="44.60889" lon="7.42274">
        <ele>393.0</ele>
      </trkpt>
      <trkpt lat="44.60863" lon="7.42197">
        <ele>395.0</ele>
      </trkpt>
      <trkpt lat="44.60808" lon="7.42032">
        <ele>395.0</ele>
      </trkpt>
      <trkpt lat="44.60789" lon="7.41995">
        <ele>395.0</ele>
      </trkpt>
      <trkpt lat="44.6076" lon="7.41933">
        <ele>396.0</ele>
      </trkpt>
      <trkpt lat="44.60729" lon="7.41888">
        <ele>398.0</ele>
      </trkpt>
      <trkpt lat="44.60661" lon="7.41807">
        <ele>400.0</ele>
      </trkpt>
      <trkpt lat="44.60569" lon="7.4169">
        <ele>405.0</ele>
      </trkpt>
      <trkpt lat="44.60503" lon="7.41601">
        <ele>410.0</ele>
      </trkpt>
      <trkpt lat="44.60435" lon="7.41526">
        <ele>416.0</ele>
      </trkpt>
      <trkpt lat="44.60374" lon="7.41488">
        <ele>421.0</ele>
      </trkpt>
      <trkpt lat="44.60309" lon="7.41315">
        <ele>425.0</ele>
      </trkpt>
      <trkpt lat="44.60303" lon="7.41081">
        <ele>430.0</ele>
      </trkpt>
      <trkpt lat="44.60266" lon="7.40947">
        <ele>434.0</ele>
      </trkpt>
      <trkpt lat="44.602" lon="7.40875">
        <ele>438.0</ele>
      </trkpt>
      <trkpt lat="44.60199" lon="7.4082">
        <ele>442.0</ele>
      </trkpt>
      <trkpt lat="44.60108" lon="7.40694">
        <ele>448.0</ele>
      </trkpt>
      <trkpt lat="44.60014" lon="7.40628">
        <ele>453.0</ele>
      </trkpt>
      <trkpt lat="44.59993" lon="7.40575">
        <ele>458.0</ele>
      </trkpt>
      <trkpt lat="44.59988" lon="7.40501">
        <ele>462.0</ele>
      </trkpt>
      <trkpt lat="44.59965" lon="7.4042">
        <ele>465.0</ele>
      </trkpt>
      <trkpt lat="44.59912" lon="7.40335">
        <ele>470.0</ele>
      </trkpt>
      <trkpt lat="44.59927" lon="7.40313">
        <ele>473.0</ele>
      </trkpt>
      <trkpt lat="44.6" lon="7.40332">
        <ele>477.0</ele>
      </trkpt>
      <trkpt lat="44.60013" lon="7.40311">
        <ele>480.0</ele>
      </trkpt>
      <trkpt lat="44.59993" lon="7.4031">
        <ele>481.0</ele>
      </trkpt>
      <trkpt lat="44.59917" lon="7.40205">
        <ele>488.0</ele>
      </trkpt>
      <trkpt lat="44.59837" lon="7.40059">
        <ele>502.0</ele>
      </trkpt>
      <trkpt lat="44.59777" lon="7.3997">
        <ele>513.0</ele>
      </trkpt>
      <trkpt lat="44.59759" lon="7.3984">
        <ele>524.0</ele>
      </trkpt>
      <trkpt lat="44.59708" lon="7.39684">
        <ele>531.0</ele>
      </trkpt>
      <trkpt lat="44.59708" lon="7.39661">
        <ele>534.0</ele>
      </trkpt>
      <trkpt lat="44.59719" lon="7.39665">
        <ele>535.0</ele>
      </trkpt>
      <trkpt lat="44.5979" lon="7.39774">
        <ele>542.0</ele>
      </trkpt>
      <trkpt lat="44.59876" lon="7.39892">
        <ele>551.0</ele>
      </trkpt>
      <trkpt lat="44.59959" lon="7.39974">
        <ele>557.0</ele>
      </trkpt>
      <trkpt lat="44.5997" lon="7.39996">
        <ele>560.0</ele>
      </trkpt>
      <trkpt lat="44.59947" lon="7.3992">
        <ele>563.0</ele>
      </trkpt>
      <trkpt lat="44.59893" lon="7.39778">
        <ele>571.0</ele>
      </trkpt>
      <trkpt lat="44.59854" lon="7.39722">
        <ele>579.0</ele>
      </trkpt>
      <trkpt lat="44.59846" lon="7.39653">
        <ele>586.0</ele>
      </trkpt>
      <trkpt lat="44.59858" lon="7.396">
        <ele>590.0</ele>
      </trkpt>
      <trkpt lat="44.59843" lon="7.39536">
        <ele>595.0</ele>
      </trkpt>
      <trkpt lat="44.59881" lon="7.39323">
        <ele>602.0</ele>
      </trkpt>
      <trkpt lat="44.59899" lon="7.39323">
        <ele>607.0</ele>
      </trkpt>
      <trkpt lat="44.59925" lon="7.39506">
        <ele>616.0</ele>
      </trkpt>
      <trkpt lat="44.59943" lon="7.39511">
        <ele>622.0</ele>
      </trkpt>
      <trkpt lat="44.6001" lon="7.39368">
        <ele>632.0</ele>
      </trkpt>
      <trkpt lat="44.59993" lon="7.3922">
        <ele>642.0</ele>
      </trkpt>
      <trkpt lat="44.59934" lon="7.39066">
        <ele>652.0</ele>
      </trkpt>
      <trkpt lat="44.59982" lon="7.39086">
        <ele>660.0</ele>
      </trkpt>
      <trkpt lat="44.60034" lon="7.39192">
        <ele>667.0</ele>
      </trkpt>
      <trkpt lat="44.60042" lon="7.39172">
        <ele>671.0</ele>
      </trkpt>
      <trkpt lat="44.6002" lon="7.38942">
        <ele>690.0</ele>
      </trkpt>
      <trkpt lat="44.59996" lon="7.38915">
        <ele>696.0</ele>
      </trkpt>
      <trkpt lat="44.60027" lon="7.3892">
        <ele>700.0</ele>
      </trkpt>
      <trkpt lat="44.6007" lon="7.38982">
        <ele>704.0</ele>
      </trkpt>
      <trkpt lat="44.60122" lon="7.3897">
        <ele>710.0</ele>
      </trkpt>
      <trkpt lat="44.60106" lon="7.38961">
        <ele>713.0</ele>
      </trkpt>
      <trkpt lat="44.60075" lon="7.3894">
        <ele>715.0</ele>
      </trkpt>
      <trkpt lat="44.60046" lon="7.38807">
        <ele>721.0</ele>
      </trkpt>
      <trkpt lat="44.60055" lon="7.3879">
        <ele>725.0</ele>
      </trkpt>
      <trkpt lat="44.60094" lon="7.38894">
        <ele>731.0</ele>
      </trkpt>
      <trkpt lat="44.60099" lon="7.38873">
        <ele>735.0</ele>
      </trkpt>
      <trkpt lat="44.60104" lon="7.3876">
        <ele>744.0</ele>
      </trkpt>
      <trkpt lat="44.6012" lon="7.38739">
        <ele>750.0</ele>
      </trkpt>
      <trkpt lat="44.60137" lon="7.38792">
        <ele>756.0</ele>
      </trkpt>
      <trkpt lat="44.60207" lon="7.38779">
        <ele>765.0</ele>
      </trkpt>
      <trkpt lat="44.60247" lon="7.38751">
        <ele>772.0</ele>
      </trkpt>
      <trkpt lat="44.6027" lon="7.38738">
        <ele>778.0</ele>
      </trkpt>
      <trkpt lat="44.60228" lon="7.38734">
        <ele>782.0</ele>
      </trkpt>
      <trkpt lat="44.60171" lon="7.38702">
        <ele>792.0</ele>
      </trkpt>
      <trkpt lat="44.60172" lon="7.38649">
        <ele>797.0</ele>
      </trkpt>
      <trkpt lat="44.60148" lon="7.38589">
        <ele>802.0</ele>
      </trkpt>
      <trkpt lat="44.60107" lon="7.38477">
        <ele>811.0</ele>
      </trkpt>
      <trkpt lat="44.59904" lon="7.3844">
        <ele>816.0</ele>
      </trkpt>
      <trkpt lat="44.59807" lon="7.38416">
        <ele>818.0</ele>
      </trkpt>
      <trkpt lat="44.59772" lon="7.38339">
        <ele>818.0</ele>
      </trkpt>
      <trkpt lat="44.59717" lon="7.38307">
        <ele>815.0</ele>
      </trkpt>
      <trkpt lat="44.59739" lon="7.38245">
        <ele>810.0</ele>
      </trkpt>
      <trkpt lat="44.59742" lon="7.38187">
        <ele>804.0</ele>
      </trkpt>
      <trkpt lat="44.59602" lon="7.38133">
        <ele>795.0</ele>
      </trkpt>
      <trkpt lat="44.59584" lon="7.38182">
        <ele>792.0</ele>
      </trkpt>
      <trkpt lat="44.5955" lon="7.38211">
        <ele>791.0</ele>
      </trkpt>
      <trkpt lat="44.59569" lon="7.38177">
        <ele>789.0</ele>
      </trkpt>
      <trkpt lat="44.59571" lon="7.38121">
        <ele>784.0</ele>
      </trkpt>
      <trkpt lat="44.59629" lon="7.38101">
        <ele>777.0</ele>
      </trkpt>
      <trkpt lat="44.59691" lon="7.38087">
        <ele>768.0</ele>
      </trkpt>
      <trkpt lat="44.59827" lon="7.38108">
        <ele>757.0</ele>
      </trkpt>
      <trkpt lat="44.59848" lon="7.38052">
        <ele>752.0</ele>
      </trkpt>
      <trkpt lat="44.59808" lon="7.38027">
        <ele>748.0</ele>
      </trkpt>
      <trkpt lat="44.59609" lon="7.37924">
        <ele>735.0</ele>
      </trkpt>
      <trkpt lat="44.59484" lon="7.37849">
        <ele>726.0</ele>
      </trkpt>
      <trkpt lat="44.59395" lon="7.37786">
        <ele>723.0</ele>
      </trkpt>
      <trkpt lat="44.59341" lon="7.37893">
        <ele>723.0</ele>
      </trkpt>
      <trkpt lat="44.59055" lon="7.38035">
        <ele>719.0</ele>
      </trkpt>
      <trkpt lat="44.58985" lon="7.38105">
        <ele>710.0</ele>
      </trkpt>
      <trkpt lat="44.58883" lon="7.38062">
        <ele>701.0</ele>
      </trkpt>
      <trkpt lat="44.588" lon="7.38048">
        <ele>693.0</ele>
      </trkpt>
      <trkpt lat="44.58759" lon="7.37922">
        <ele>689.0</ele>
      </trkpt>
      <trkpt lat="44.58743" lon="7.37869">
        <ele>685.0</ele>
      </trkpt>
      <trkpt lat="44.58737" lon="7.37929">
        <ele>684.0</ele>
      </trkpt>
      <trkpt lat="44.58663" lon="7.3812">
        <ele>679.0</ele>
      </trkpt>
      <trkpt lat="44.58642" lon="7.38225">
        <ele>668.0</ele>
      </trkpt>
      <trkpt lat="44.58609" lon="7.38265">
        <ele>661.0</ele>
      </trkpt>
      <trkpt lat="44.58411" lon="7.3825">
        <ele>655.0</ele>
      </trkpt>
      <trkpt lat="44.58118" lon="7.38386">
        <ele>645.0</ele>
      </trkpt>
      <trkpt lat="44.57941" lon="7.38455">
        <ele>636.0</ele>
      </trkpt>
      <trkpt lat="44.57835" lon="7.38486">
        <ele>630.0</ele>
      </trkpt>
      <trkpt lat="44.57681" lon="7.38617">
        <ele>626.0</ele>
      </trkpt>
      <trkpt lat="44.57568" lon="7.386">
        <ele>622.0</ele>
      </trkpt>
      <trkpt lat="44.57454" lon="7.38647">
        <ele>615.0</ele>
      </trkpt>
      <trkpt lat="44.57308" lon="7.38628">
        <ele>605.0</ele>
      </trkpt>
      <trkpt lat="44.57355" lon="7.38673">
        <ele>599.0</ele>
      </trkpt>
      <trkpt lat="44.57369" lon="7.38708">
        <ele>593.0</ele>
      </trkpt>
      <trkpt lat="44.57314" lon="7.38692">
        <ele>592.0</ele>
      </trkpt>
      <trkpt lat="44.57385" lon="7.38709">
        <ele>592.0</ele>
      </trkpt>
      <trkpt lat="44.5732" lon="7.38659">
        <ele>592.0</ele>
      </trkpt>
      <trkpt lat="44.57137" lon="7.38626">
        <ele>590.0</ele>
      </trkpt>
      <trkpt lat="44.56883" lon="7.38639">
        <ele>579.0</ele>
      </trkpt>
      <trkpt lat="44.56837" lon="7.3862">
        <ele>572.0</ele>
      </trkpt>
      <trkpt lat="44.56817" lon="7.3883">
        <ele>570.0</ele>
      </trkpt>
      <trkpt lat="44.56793" lon="7.38994">
        <ele>568.0</ele>
      </trkpt>
      <trkpt lat="44.56646" lon="7.39288">
        <ele>566.0</ele>
      </trkpt>
      <trkpt lat="44.56466" lon="7.39633">
        <ele>562.0</ele>
      </trkpt>
      <trkpt lat="44.56376" lon="7.39853">
        <ele>557.0</ele>
      </trkpt>
      <trkpt lat="44.56361" lon="7.39856">
        <ele>555.0</ele>
      </trkpt>
      <trkpt lat="44.56296" lon="7.39767">
        <ele>554.0</ele>
      </trkpt>
      <trkpt lat="44.56243" lon="7.39696">
        <ele>553.0</ele>
      </trkpt>
      <trkpt lat="44.56221" lon="7.39675">
        <ele>552.0</ele>
      </trkpt>
      <trkpt lat="44.56202" lon="7.39719">
        <ele>551.0</ele>
      </trkpt>
      <trkpt lat="44.56128" lon="7.39803">
        <ele>549.0</ele>
      </trkpt>
      <trkpt lat="44.56112" lon="7.39845">
        <ele>547.0</ele>
      </trkpt>
      <trkpt lat="44.56083" lon="7.39969">
        <ele>545.0</ele>
      </trkpt>
      <trkpt lat="44.56066" lon="7.40034">
        <ele>543.0</ele>
      </trkpt>
      <trkpt lat="44.56026" lon="7.40345">
        <ele>544.0</ele>
      </trkpt>
      <trkpt lat="44.56065" lon="7.40563">
        <ele>550.0</ele>
      </trkpt>
      <trkpt lat="44.5609" lon="7.40805">
        <ele>551.0</ele>
      </trkpt>
      <trkpt lat="44.55906" lon="7.41358">
        <ele>542.0</ele>
      </trkpt>
      <trkpt lat="44.5587" lon="7.41566">
        <ele>541.0</ele>
      </trkpt>
      <trkpt lat="44.55821" lon="7.42064">
        <ele>536.0</ele>
      </trkpt>
      <trkpt lat="44.55729" lon="7.42396">
        <ele>530.0</ele>
      </trkpt>
      <trkpt lat="44.55643" lon="7.42672">
        <ele>521.0</ele>
      </trkpt>
      <trkpt lat="44.55454" lon="7.43402">
        <ele>514.0</ele>
      </trkpt>
      <trkpt lat="44.554" lon="7.43509">
        <ele>509.0</ele>
      </trkpt>
      <trkpt lat="44.5527" lon="7.43575">
        <ele>508.0</ele>
      </trkpt>
      <trkpt lat="44.55118" lon="7.43385">
        <ele>512.0</ele>
      </trkpt>
      <trkpt lat="44.5504" lon="7.43366">
        <ele>515.0</ele>
      </trkpt>
      <trkpt lat="44.54874" lon="7.43363">
        <ele>519.0</ele>
      </trkpt>
      <trkpt lat="44.54778" lon="7.4333">
        <ele>521.0</ele>
      </trkpt>
      <trkpt lat="44.54653" lon="7.43223">
        <ele>520.0</ele>
      </trkpt>
      <trkpt lat="44.54536" lon="7.43174">
        <ele>522.0</ele>
      </trkpt>
      <trkpt lat="44.54392" lon="7.43171">
        <ele>526.0</ele>
      </trkpt>
      <trkpt lat="44.54266" lon="7.4317">
        <ele>528.0</ele>
      </trkpt>
      <trkpt lat="44.54139" lon="7.43168">
        <ele>529.0</ele>
      </trkpt>
      <trkpt lat="44.54052" lon="7.43167">
        <ele>531.0</ele>
      </trkpt>
      <trkpt lat="44.53929" lon="7.43157">
        <ele>534.0</ele>
      </trkpt>
      <trkpt lat="44.53756" lon="7.43113">
        <ele>543.0</ele>
      </trkpt>
      <trkpt lat="44.5363" lon="7.43114">
        <ele>547.0</ele>
      </trkpt>
      <trkpt lat="44.53482" lon="7.4309">
        <ele>548.0</ele>
      </trkpt>
      <trkpt lat="44.53312" lon="7.4307">
        <ele>550.0</ele>
      </trkpt>
      <trkpt lat="44.53249" lon="7.43046">
        <ele>552.0</ele>
      </trkpt>
      <trkpt lat="44.5305" lon="7.42962">
        <ele>557.0</ele>
      </trkpt>
      <trkpt lat="44.52927" lon="7.42998">
        <ele>562.0</ele>
      </trkpt>
      <trkpt lat="44.52861" lon="7.43083">
        <ele>565.0</ele>
      </trkpt>
      <trkpt lat="44.52767" lon="7.43183">
        <ele>567.0</ele>
      </trkpt>
      <trkpt lat="44.5234" lon="7.43421">
        <ele>575.0</ele>
      </trkpt>
      <trkpt lat="44.51915" lon="7.43613">
        <ele>586.0</ele>
      </trkpt>
      <trkpt lat="44.51632" lon="7.4379">
        <ele>594.0</ele>
      </trkpt>
      <trkpt lat="44.51533" lon="7.4399">
        <ele>607.0</ele>
      </trkpt>
      <trkpt lat="44.51459" lon="7.44146">
        <ele>614.0</ele>
      </trkpt>
      <trkpt lat="44.51399" lon="7.44313">
        <ele>610.0</ele>
      </trkpt>
      <trkpt lat="44.51416" lon="7.44381">
        <ele>603.0</ele>
      </trkpt>
      <trkpt lat="44.51397" lon="7.44373">
        <ele>600.0</ele>
      </trkpt>
      <trkpt lat="44.5138" lon="7.44276">
        <ele>596.0</ele>
      </trkpt>
      <trkpt lat="44.51342" lon="7.4425">
        <ele>594.0</ele>
      </trkpt>
      <trkpt lat="44.51211" lon="7.44283">
        <ele>590.0</ele>
      </trkpt>
      <trkpt lat="44.51192" lon="7.44307">
        <ele>587.0</ele>
      </trkpt>
      <trkpt lat="44.51291" lon="7.44306">
        <ele>584.0</ele>
      </trkpt>
      <trkpt lat="44.51298" lon="7.44334">
        <ele>582.0</ele>
      </trkpt>
      <trkpt lat="44.51181" lon="7.44367">
        <ele>575.0</ele>
      </trkpt>
      <trkpt lat="44.51007" lon="7.44318">
        <ele>564.0</ele>
      </trkpt>
      <trkpt lat="44.5086" lon="7.443">
        <ele>554.0</ele>
      </trkpt>
      <trkpt lat="44.50821" lon="7.4432">
        <ele>549.0</ele>
      </trkpt>
      <trkpt lat="44.50894" lon="7.44434">
        <ele>545.0</ele>
      </trkpt>
      <trkpt lat="44.50882" lon="7.4451">
        <ele>541.0</ele>
      </trkpt>
      <trkpt lat="44.50724" lon="7.44718">
        <ele>532.0</ele>
      </trkpt>
      <trkpt lat="44.50626" lon="7.44992">
        <ele>523.0</ele>
      </trkpt>
      <trkpt lat="44.50626" lon="7.45118">
        <ele>520.0</ele>
      </trkpt>
      <trkpt lat="44.50606" lon="7.45158">
        <ele>520.0</ele>
      </trkpt>
      <trkpt lat="44.50468" lon="7.45356">
        <ele>519.0</ele>
      </trkpt>
      <trkpt lat="44.50653" lon="7.45603">
        <ele>517.0</ele>
      </trkpt>
      <trkpt lat="44.50883" lon="7.46169">
        <ele>514.0</ele>
      </trkpt>
      <trkpt lat="44.51005" lon="7.46568">
        <ele>506.0</ele>
      </trkpt>
      <trkpt lat="44.51077" lon="7.47202">
        <ele>502.0</ele>
      </trkpt>
      <trkpt lat="44.51103" lon="7.47265">
        <ele>501.0</ele>
      </trkpt>
      <trkpt lat="44.51156" lon="7.47271">
        <ele>499.0</ele>
      </trkpt>
      <trkpt lat="44.51233" lon="7.47271">
        <ele>497.0</ele>
      </trkpt>
      <trkpt lat="44.5133" lon="7.47271">
        <ele>495.0</ele>
      </trkpt>
      <trkpt lat="44.51394" lon="7.47273">
        <ele>496.0</ele>
      </trkpt>
      <trkpt lat="44.51433" lon="7.47279">
        <ele>498.0</ele>
      </trkpt>
      <trkpt lat="44.51476" lon="7.47279">
        <ele>500.0</ele>
      </trkpt>
      <trkpt lat="44.51535" lon="7.47278">
        <ele>500.0</ele>
      </trkpt>
      <trkpt lat="44.51639" lon="7.47277">
        <ele>499.0</ele>
      </trkpt>
      <trkpt lat="44.51646" lon="7.47288">
        <ele>498.0</ele>
      </trkpt>
      <trkpt lat="44.51656" lon="7.47279">
        <ele>498.0</ele>
      </trkpt>
      <trkpt lat="44.51735" lon="7.47262">
        <ele>497.0</ele>
      </trkpt>
      <trkpt lat="44.5189" lon="7.4724">
        <ele>495.0</ele>
      </trkpt>
      <trkpt lat="44.51958" lon="7.47268">
        <ele>493.0</ele>
      </trkpt>
      <trkpt lat="44.51991" lon="7.4731">
        <ele>492.0</ele>
      </trkpt>
      <trkpt lat="44.51995" lon="7.47328">
        <ele>492.0</ele>
      </trkpt>
      <trkpt lat="44.51998" lon="7.47337">
        <ele>492.0</ele>
      </trkpt>
      <trkpt lat="44.52049" lon="7.47518">
        <ele>491.0</ele>
      </trkpt>
      <trkpt lat="44.52071" lon="7.47625">
        <ele>490.0</ele>
      </trkpt>
      <trkpt lat="44.52087" lon="7.47705">
        <ele>489.0</ele>
      </trkpt>
      <trkpt lat="44.52098" lon="7.47834">
        <ele>488.0</ele>
      </trkpt>
      <trkpt lat="44.52137" lon="7.47874">
        <ele>488.0</ele>
      </trkpt>
      <trkpt lat="44.52213" lon="7.4791">
        <ele>487.0</ele>
      </trkpt>
      <trkpt lat="44.52359" lon="7.47979">
        <ele>486.0</ele>
      </trkpt>
      <trkpt lat="44.52578" lon="7.48083">
        <ele>482.0</ele>
      </trkpt>
      <trkpt lat="44.52597" lon="7.48111">
        <ele>480.0</ele>
      </trkpt>
      <trkpt lat="44.52614" lon="7.48119">
        <ele>479.0</ele>
      </trkpt>
      <trkpt lat="44.52641" lon="7.48111">
        <ele>479.0</ele>
      </trkpt>
      <trkpt lat="44.53045" lon="7.48303">
        <ele>474.0</ele>
      </trkpt>
      <trkpt lat="44.53211" lon="7.48381">
        <ele>470.0</ele>
      </trkpt>
      <trkpt lat="44.5354" lon="7.48538">
        <ele>466.0</ele>
      </trkpt>
      <trkpt lat="44.53631" lon="7.4858">
        <ele>465.0</ele>
      </trkpt>
      <trkpt lat="44.53782" lon="7.48652">
        <ele>462.0</ele>
      </trkpt>
      <trkpt lat="44.53903" lon="7.48709">
        <ele>460.0</ele>
      </trkpt>
      <trkpt lat="44.54192" lon="7.48846">
        <ele>456.0</ele>
      </trkpt>
      <trkpt lat="44.54328" lon="7.4891">
        <ele>452.0</ele>
      </trkpt>
      <trkpt lat="44.54419" lon="7.48953">
        <ele>451.0</ele>
      </trkpt>
      <trkpt lat="44.54551" lon="7.49015">
        <ele>450.0</ele>
      </trkpt>
      <trkpt lat="44.54714" lon="7.49093">
        <ele>449.0</ele>
      </trkpt>
      <trkpt lat="44.5481" lon="7.49139">
        <ele>447.0</ele>
      </trkpt>
      <trkpt lat="44.55023" lon="7.49194">
        <ele>444.0</ele>
      </trkpt>
      <trkpt lat="44.55469" lon="7.49081">
        <ele>442.0</ele>
      </trkpt>
      <trkpt lat="44.55561" lon="7.49057">
        <ele>442.0</ele>
      </trkpt>
      <trkpt lat="44.55693" lon="7.48982">
        <ele>442.0</ele>
      </trkpt>
      <trkpt lat="44.55799" lon="7.48909">
        <ele>442.0</ele>
      </trkpt>
      <trkpt lat="44.55847" lon="7.48879">
        <ele>443.0</ele>
      </trkpt>
      <trkpt lat="44.55938" lon="7.48818">
        <ele>444.0</ele>
      </trkpt>
      <trkpt lat="44.5608" lon="7.48721">
        <ele>448.0</ele>
      </trkpt>
      <trkpt lat="44.562" lon="7.48641">
        <ele>452.0</ele>
      </trkpt>
      <trkpt lat="44.5626" lon="7.48604">
        <ele>454.0</ele>
      </trkpt>
      <trkpt lat="44.56316" lon="7.48606">
        <ele>456.0</ele>
      </trkpt>
      <trkpt lat="44.56349" lon="7.48572">
        <ele>457.0</ele>
      </trkpt>
      <trkpt lat="44.56431" lon="7.48494">
        <ele>457.0</ele>
      </trkpt>
      <trkpt lat="44.56503" lon="7.48431">
        <ele>457.0</ele>
      </trkpt>
      <trkpt lat="44.56649" lon="7.48305">
        <ele>453.0</ele>
      </trkpt>
      <trkpt lat="44.56766" lon="7.48202">
        <ele>452.0</ele>
      </trkpt>
      <trkpt lat="44.56788" lon="7.48183">
        <ele>452.0</ele>
      </trkpt>
      <trkpt lat="44.56795" lon="7.48171">
        <ele>452.0</ele>
      </trkpt>
      <trkpt lat="44.56828" lon="7.48154">
        <ele>452.0</ele>
      </trkpt>
      <trkpt lat="44.56916" lon="7.48126">
        <ele>452.0</ele>
      </trkpt>
      <trkpt lat="44.57353" lon="7.48185">
        <ele>448.0</ele>
      </trkpt>
      <trkpt lat="44.57956" lon="7.48273">
        <ele>441.0</ele>
      </trkpt>
      <trkpt lat="44.58319" lon="7.48319">
        <ele>437.0</ele>
      </trkpt>
      <trkpt lat="44.58399" lon="7.48332">
        <ele>436.0</ele>
      </trkpt>
      <trkpt lat="44.58428" lon="7.4836">
        <ele>436.0</ele>
      </trkpt>
      <trkpt lat="44.58495" lon="7.48342">
        <ele>436.0</ele>
      </trkpt>
      <trkpt lat="44.58905" lon="7.48399">
        <ele>433.0</ele>
      </trkpt>
      <trkpt lat="44.59043" lon="7.48417">
        <ele>430.0</ele>
      </trkpt>
      <trkpt lat="44.59287" lon="7.48453">
        <ele>426.0</ele>
      </trkpt>
      <trkpt lat="44.59333" lon="7.48425">
        <ele>426.0</ele>
      </trkpt>
      <trkpt lat="44.59352" lon="7.48341">
        <ele>426.0</ele>
      </trkpt>
      <trkpt lat="44.59395" lon="7.48301">
        <ele>426.0</ele>
      </trkpt>
      <trkpt lat="44.59506" lon="7.48301">
        <ele>426.0</ele>
      </trkpt>
      <trkpt lat="44.59557" lon="7.48298">
        <ele>426.0</ele>
      </trkpt>
      <trkpt lat="44.59818" lon="7.48312">
        <ele>426.0</ele>
      </trkpt>
      <trkpt lat="44.59869" lon="7.48286">
        <ele>425.0</ele>
      </trkpt>
      <trkpt lat="44.59971" lon="7.48279">
        <ele>424.0</ele>
      </trkpt>
      <trkpt lat="44.60127" lon="7.48304">
        <ele>422.0</ele>
      </trkpt>
      <trkpt lat="44.6032" lon="7.48337">
        <ele>421.0</ele>
      </trkpt>
      <trkpt lat="44.60498" lon="7.4837">
        <ele>420.0</ele>
      </trkpt>
      <trkpt lat="44.60694" lon="7.48438">
        <ele>416.0</ele>
      </trkpt>
      <trkpt lat="44.60876" lon="7.48518">
        <ele>409.0</ele>
      </trkpt>
      <trkpt lat="44.61145" lon="7.48637">
        <ele>402.0</ele>
      </trkpt>
      <trkpt lat="44.61151" lon="7.48654">
        <ele>401.0</ele>
      </trkpt>
      <trkpt lat="44.61164" lon="7.48661">
        <ele>400.0</ele>
      </trkpt>
      <trkpt lat="44.6119" lon="7.48658">
        <ele>400.0</ele>
      </trkpt>
      <trkpt lat="44.61469" lon="7.4878">
        <ele>400.0</ele>
      </trkpt>
      <trkpt lat="44.61567" lon="7.48825">
        <ele>399.0</ele>
      </trkpt>
      <trkpt lat="44.61655" lon="7.48696">
        <ele>399.0</ele>
      </trkpt>
      <trkpt lat="44.61719" lon="7.48633">
        <ele>400.0</ele>
      </trkpt>
      <trkpt lat="44.61717" lon="7.48577">
        <ele>402.0</ele>
      </trkpt>
      <trkpt lat="44.61838" lon="7.48619">
        <ele>402.0</ele>
      </trkpt>
      <trkpt lat="44.6188" lon="7.4864">
        <ele>400.0</ele>
      </trkpt>
      <trkpt lat="44.61949" lon="7.48672">
        <ele>398.0</ele>
      </trkpt>
      <trkpt lat="44.62085" lon="7.4874">
        <ele>397.0</ele>
      </trkpt>
      <trkpt lat="44.62162" lon="7.48787">
        <ele>397.0</ele>
      </trkpt>
      <trkpt lat="44.62225" lon="7.48814">
        <ele>396.0</ele>
      </trkpt>
      <trkpt lat="44.62319" lon="7.48897">
        <ele>395.0</ele>
      </trkpt>
      <trkpt lat="44.62366" lon="7.48861">
        <ele>396.0</ele>
      </trkpt>
      <trkpt lat="44.62419" lon="7.48814">
        <ele>399.0</ele>
      </trkpt>
      <trkpt lat="44.62544" lon="7.48794">
        <ele>402.0</ele>
      </trkpt>
      <trkpt lat="44.62602" lon="7.48764">
        <ele>404.0</ele>
      </trkpt>
      <trkpt lat="44.62707" lon="7.48757">
        <ele>408.0</ele>
      </trkpt>
      <trkpt lat="44.62813" lon="7.48689">
        <ele>411.0</ele>
      </trkpt>
      <trkpt lat="44.62895" lon="7.48683">
        <ele>415.0</ele>
      </trkpt>
      <trkpt lat="44.62927" lon="7.48663">
        <ele>417.0</ele>
      </trkpt>
      <trkpt lat="44.62952" lon="7.48732">
        <ele>420.0</ele>
      </trkpt>
      <trkpt lat="44.62987" lon="7.48723">
        <ele>422.0</ele>
      </trkpt>
      <trkpt lat="44.63029" lon="7.48712">
        <ele>423.0</ele>
      </trkpt>
      <trkpt lat="44.63187" lon="7.48715">
        <ele>426.0</ele>
      </trkpt>
      <trkpt lat="44.63207" lon="7.4873">
        <ele>426.0</ele>
      </trkpt>
      <trkpt lat="44.6325" lon="7.48822">
        <ele>426.0</ele>
      </trkpt>
      <trkpt lat="44.63294" lon="7.48795">
        <ele>426.0</ele>
      </trkpt>
      <trkpt lat="44.63353" lon="7.48711">
        <ele>426.0</ele>
      </trkpt>
      <trkpt lat="44.63392" lon="7.4872">
        <ele>426.0</ele>
      </trkpt>
      <trkpt lat="44.63457" lon="7.48727">
        <ele>426.0</ele>
      </trkpt>
      <trkpt lat="44.63539" lon="7.4874">
        <ele>424.0</ele>
      </trkpt>
      <trkpt lat="44.63606" lon="7.48768">
        <ele>422.0</ele>
      </trkpt>
      <trkpt lat="44.63723" lon="7.48778">
        <ele>418.0</ele>
      </trkpt>
      <trkpt lat="44.63827" lon="7.48764">
        <ele>414.0</ele>
      </trkpt>
      <trkpt lat="44.63872" lon="7.48802">
        <ele>412.0</ele>
      </trkpt>
      <trkpt lat="44.63963" lon="7.48834">
        <ele>406.0</ele>
      </trkpt>
      <trkpt lat="44.63964" lon="7.48867">
        <ele>401.0</ele>
      </trkpt>
      <trkpt lat="44.63869" lon="7.48919">
        <ele>393.0</ele>
      </trkpt>
      <trkpt lat="44.63843" lon="7.4898">
        <ele>390.0</ele>
      </trkpt>
      <trkpt lat="44.63794" lon="7.49007">
        <ele>388.0</ele>
      </trkpt>
      <trkpt lat="44.63825" lon="7.49097">
        <ele>384.0</ele>
      </trkpt>
      <trkpt lat="44.63846" lon="7.49164">
        <ele>379.0</ele>
      </trkpt>
      <trkpt lat="44.63876" lon="7.49195">
        <ele>374.0</ele>
      </trkpt>
      <trkpt lat="44.63921" lon="7.49233">
        <ele>369.0</ele>
      </trkpt>
      <trkpt lat="44.64064" lon="7.49492">
        <ele>363.0</ele>
      </trkpt>
      <trkpt lat="44.64145" lon="7.49646">
        <ele>357.0</ele>
      </trkpt>
      <trkpt lat="44.64146" lon="7.4966">
        <ele>355.0</ele>
      </trkpt>
      <trkpt lat="44.64159" lon="7.49661">
        <ele>354.0</ele>
      </trkpt>
      <trkpt lat="44.64162" lon="7.49646">
        <ele>353.0</ele>
      </trkpt>
      <trkpt lat="44.64163" lon="7.49631">
        <ele>353.0</ele>
      </trkpt>
      <trkpt lat="44.6422" lon="7.49539">
        <ele>352.0</ele>
      </trkpt>
      <trkpt lat="44.64275" lon="7.49453">
        <ele>352.0</ele>
      </trkpt>
      <trkpt lat="44.64339" lon="7.4936">
        <ele>352.0</ele>
      </trkpt>
    </trkseg>
  </trk>
</gpx>