<?xml version="1.0" encoding="UTF-8"?>
<gpx xmlns="http://www.topografix.com/GPX/1/0" xmlns:xsi="http://www.w3.org/2001/XMLSchema-instance" xsi:schemaLocation="http://www.topografix.com/GPX/1/0 http://www.topografix.com/GPX/1/0/gpx.xsd" version="1.0" creator="GPSBabel - https://www.gpsbabel.org">
  <time>2026-05-15T08:01:06.773000Z</time>
  <bounds minlat="45.67402" maxlat="46.27906" minlon="12.97209" maxlon="13.20264" />
  <trk>
    <trkseg>
      <trkpt lat="45.67402" lon="13.05347">
        <ele>1.0</ele>
      </trkpt>
      <trkpt lat="45.67554" lon="13.05192">
        <ele>1.0</ele>
      </trkpt>
      <trkpt lat="45.68312" lon="13.04387">
        <ele>1.0</ele>
      </trkpt>
      <trkpt lat="45.68358" lon="13.04337">
        <ele>2.0</ele>
      </trkpt>
      <trkpt lat="45.68757" lon="13.04025">
        <ele>-1.0</ele>
      </trkpt>
      <trkpt lat="45.69329" lon="13.03653">
        <ele>-1.0</ele>
      </trkpt>
      <trkpt lat="45.69905" lon="13.03284">
      </trkpt>
      <trkpt lat="45.70182" lon="13.0296">
        <ele>-1.0</ele>
      </trkpt>
      <trkpt lat="45.70804" lon="13.02121">
        <ele>-2.0</ele>
      </trkpt>
      <trkpt lat="45.70906" lon="13.0194">
        <ele>-1.0</ele>
      </trkpt>
      <trkpt lat="45.70949" lon="13.01902">
        <ele>-1.0</ele>
      </trkpt>
      <trkpt lat="45.70987" lon="13.01891">
        <ele>-1.0</ele>
      </trkpt>
      <trkpt lat="45.71062" lon="13.01844">
      </trkpt>
      <trkpt lat="45.71161" lon="13.01778">
        <ele>1.0</ele>
      </trkpt>
      <trkpt lat="45.71203" lon="13.01726">
        <ele>1.0</ele>
      </trkpt>
      <trkpt lat="45.71261" lon="13.01618">
        <ele>1.0</ele>
      </trkpt>
      <trkpt lat="45.71361" lon="13.01447">
        <ele>1.0</ele>
      </trkpt>
      <trkpt lat="45.71437" lon="13.01335">
        <ele>1.0</ele>
      </trkpt>
      <trkpt lat="45.7154" lon="13.013">
        <ele>1.0</ele>
      </trkpt>
      <trkpt lat="45.71574" lon="13.01295">
        <ele>1.0</ele>
      </trkpt>
      <trkpt lat="45.71662" lon="13.01285">
        <ele>1.0</ele>
      </trkpt>
      <trkpt lat="45.7178" lon="13.01275">
        <ele>1.0</ele>
      </trkpt>
      <trkpt lat="45.71844" lon="13.01289">
        <ele>2.0</ele>
      </trkpt>
      <trkpt lat="45.71893" lon="13.01304">
        <ele>3.0</ele>
      </trkpt>
      <trkpt lat="45.71975" lon="13.01323">
        <ele>3.0</ele>
      </trkpt>
      <trkpt lat="45.72102" lon="13.01286">
        <ele>3.0</ele>
      </trkpt>
      <trkpt lat="45.72162" lon="13.01258">
        <ele>4.0</ele>
      </trkpt>
      <trkpt lat="45.72195" lon="13.01223">
        <ele>4.0</ele>
      </trkpt>
      <trkpt lat="45.72289" lon="13.01045">
        <ele>4.0</ele>
      </trkpt>
      <trkpt lat="45.72329" lon="13.00946">
        <ele>4.0</ele>
      </trkpt>
      <trkpt lat="45.72325" lon="13.00913">
        <ele>3.0</ele>
      </trkpt>
      <trkpt lat="45.72257" lon="13.00879">
        <ele>3.0</ele>
      </trkpt>
      <trkpt lat="45.72245" lon="13.00846">
        <ele>3.0</ele>
      </trkpt>
      <trkpt lat="45.72257" lon="13.00761">
        <ele>3.0</ele>
      </trkpt>
      <trkpt lat="45.7229" lon="13.00713">
        <ele>3.0</ele>
      </trkpt>
      <trkpt lat="45.726" lon="13.00406">
        <ele>3.0</ele>
      </trkpt>
      <trkpt lat="45.7291" lon="13.00492">
        <ele>3.0</ele>
      </trkpt>
      <trkpt lat="45.7332" lon="13.00777">
        <ele>3.0</ele>
      </trkpt>
      <trkpt lat="45.73396" lon="13.00782">
        <ele>3.0</ele>
      </trkpt>
      <trkpt lat="45.73581" lon="13.00719">
        <ele>3.0</ele>
      </trkpt>
      <trkpt lat="45.73857" lon="13.00597">
        <ele>3.0</ele>
      </trkpt>
      <trkpt lat="45.74138" lon="13.0047">
        <ele>4.0</ele>
      </trkpt>
      <trkpt lat="45.74363" lon="13.00368">
        <ele>4.0</ele>
      </trkpt>
      <trkpt lat="45.7451" lon="13.00296">
        <ele>3.0</ele>
      </trkpt>
      <trkpt lat="45.74725" lon="13.00027">
        <ele>5.0</ele>
      </trkpt>
      <trkpt lat="45.74779" lon="12.99966">
        <ele>5.0</ele>
      </trkpt>
      <trkpt lat="45.74894" lon="12.99907">
        <ele>5.0</ele>
      </trkpt>
      <trkpt lat="45.74986" lon="12.99868">
        <ele>5.0</ele>
      </trkpt>
      <trkpt lat="45.75096" lon="12.99824">
        <ele>5.0</ele>
      </trkpt>
      <trkpt lat="45.75518" lon="12.99899">
        <ele>5.0</ele>
      </trkpt>
      <trkpt lat="45.75607" lon="12.99894">
        <ele>5.0</ele>
      </trkpt>
      <trkpt lat="45.75876" lon="12.998">
        <ele>5.0</ele>
      </trkpt>
      <trkpt lat="45.76183" lon="12.99717">
        <ele>4.0</ele>
      </trkpt>
      <trkpt lat="45.76264" lon="12.99728">
        <ele>4.0</ele>
      </trkpt>
      <trkpt lat="45.76343" lon="12.99781">
        <ele>4.0</ele>
      </trkpt>
      <trkpt lat="45.764" lon="12.99807">
        <ele>5.0</ele>
      </trkpt>
      <trkpt lat="45.76514" lon="12.99808">
        <ele>7.0</ele>
      </trkpt>
      <trkpt lat="45.76598" lon="12.99793">
        <ele>8.0</ele>
      </trkpt>
      <trkpt lat="45.76633" lon="12.99778">
        <ele>8.0</ele>
      </trkpt>
      <trkpt lat="45.76778" lon="12.997">
        <ele>7.0</ele>
      </trkpt>
      <trkpt lat="45.7688" lon="12.99644">
        <ele>8.0</ele>
      </trkpt>
      <trkpt lat="45.7694" lon="12.99612">
        <ele>9.0</ele>
      </trkpt>
      <trkpt lat="45.76992" lon="12.99602">
        <ele>9.0</ele>
      </trkpt>
      <trkpt lat="45.77018" lon="12.99692">
        <ele>7.0</ele>
      </trkpt>
      <trkpt lat="45.77058" lon="12.99818">
        <ele>4.0</ele>
      </trkpt>
      <trkpt lat="45.77071" lon="12.99833">
        <ele>4.0</ele>
      </trkpt>
      <trkpt lat="45.77087" lon="12.99839">
        <ele>4.0</ele>
      </trkpt>
      <trkpt lat="45.7711" lon="12.99833">
        <ele>5.0</ele>
      </trkpt>
      <trkpt lat="45.77157" lon="12.99805">
        <ele>6.0</ele>
      </trkpt>
      <trkpt lat="45.772" lon="12.99782">
        <ele>7.0</ele>
      </trkpt>
      <trkpt lat="45.77299" lon="12.99735">
        <ele>7.0</ele>
      </trkpt>
      <trkpt lat="45.7734" lon="12.99715">
        <ele>7.0</ele>
      </trkpt>
      <trkpt lat="45.77388" lon="12.99692">
        <ele>7.0</ele>
      </trkpt>
      <trkpt lat="45.77481" lon="12.99648">
        <ele>7.0</ele>
      </trkpt>
      <trkpt lat="45.77521" lon="12.99613">
        <ele>8.0</ele>
      </trkpt>
      <trkpt lat="45.77568" lon="12.99594">
        <ele>9.0</ele>
      </trkpt>
      <trkpt lat="45.77597" lon="12.99619">
        <ele>9.0</ele>
      </trkpt>
      <trkpt lat="45.77636" lon="12.99648">
        <ele>9.0</ele>
      </trkpt>
      <trkpt lat="45.77641" lon="12.99667">
        <ele>9.0</ele>
      </trkpt>
      <trkpt lat="45.77648" lon="12.9967">
        <ele>9.0</ele>
      </trkpt>
      <trkpt lat="45.77705" lon="12.99687">
        <ele>9.0</ele>
      </trkpt>
      <trkpt lat="45.77739" lon="12.99685">
        <ele>8.0</ele>
      </trkpt>
      <trkpt lat="45.77785" lon="12.99651">
        <ele>8.0</ele>
      </trkpt>
      <trkpt lat="45.77871" lon="12.99577">
        <ele>7.0</ele>
      </trkpt>
      <trkpt lat="45.77934" lon="12.99524">
        <ele>6.0</ele>
      </trkpt>
      <trkpt lat="45.77968" lon="12.99532">
        <ele>6.0</ele>
      </trkpt>
      <trkpt lat="45.78029" lon="12.99541">
        <ele>6.0</ele>
      </trkpt>
      <trkpt lat="45.7812" lon="12.99487">
        <ele>6.0</ele>
      </trkpt>
      <trkpt lat="45.7828" lon="12.99395">
        <ele>6.0</ele>
      </trkpt>
      <trkpt lat="45.78427" lon="12.99308">
        <ele>4.0</ele>
      </trkpt>
      <trkpt lat="45.78639" lon="12.99202">
        <ele>4.0</ele>
      </trkpt>
      <trkpt lat="45.78734" lon="12.99186">
        <ele>5.0</ele>
      </trkpt>
      <trkpt lat="45.78922" lon="12.9916">
        <ele>5.0</ele>
      </trkpt>
      <trkpt lat="45.792" lon="12.99122">
        <ele>4.0</ele>
      </trkpt>
      <trkpt lat="45.79403" lon="12.99097">
        <ele>5.0</ele>
      </trkpt>
      <trkpt lat="45.7948" lon="12.99135">
        <ele>6.0</ele>
      </trkpt>
      <trkpt lat="45.7971" lon="12.99302">
        <ele>6.0</ele>
      </trkpt>
      <trkpt lat="45.79878" lon="12.99424">
        <ele>5.0</ele>
      </trkpt>
      <trkpt lat="45.80224" lon="12.9966">
        <ele>6.0</ele>
      </trkpt>
      <trkpt lat="45.80304" lon="12.99676">
        <ele>6.0</ele>
      </trkpt>
      <trkpt lat="45.80453" lon="12.99652">
        <ele>7.0</ele>
      </trkpt>
      <trkpt lat="45.80629" lon="12.99617">
        <ele>8.0</ele>
      </trkpt>
      <trkpt lat="45.80812" lon="12.99579">
        <ele>8.0</ele>
      </trkpt>
      <trkpt lat="45.80891" lon="12.9958">
        <ele>8.0</ele>
      </trkpt>
      <trkpt lat="45.8092" lon="12.99584">
        <ele>7.0</ele>
      </trkpt>
      <trkpt lat="45.80989" lon="12.99623">
        <ele>7.0</ele>
      </trkpt>
      <trkpt lat="45.81019" lon="12.99702">
        <ele>7.0</ele>
      </trkpt>
      <trkpt lat="45.81071" lon="12.99755">
        <ele>7.0</ele>
      </trkpt>
      <trkpt lat="45.81133" lon="12.99781">
        <ele>7.0</ele>
      </trkpt>
      <trkpt lat="45.8124" lon="12.99954">
        <ele>8.0</ele>
      </trkpt>
      <trkpt lat="45.81299" lon="13.00019">
        <ele>8.0</ele>
      </trkpt>
      <trkpt lat="45.81376" lon="13.00065">
        <ele>8.0</ele>
      </trkpt>
      <trkpt lat="45.81536" lon="13.00072">
        <ele>8.0</ele>
      </trkpt>
      <trkpt lat="45.81609" lon="13.0007">
        <ele>8.0</ele>
      </trkpt>
      <trkpt lat="45.81813" lon="13.00064">
        <ele>8.0</ele>
      </trkpt>
      <trkpt lat="45.81927" lon="13.00031">
        <ele>6.0</ele>
      </trkpt>
      <trkpt lat="45.8216" lon="12.99866">
        <ele>5.0</ele>
      </trkpt>
      <trkpt lat="45.82319" lon="12.99673">
        <ele>5.0</ele>
      </trkpt>
      <trkpt lat="45.82441" lon="12.99358">
        <ele>5.0</ele>
      </trkpt>
      <trkpt lat="45.82511" lon="12.99259">
        <ele>6.0</ele>
      </trkpt>
      <trkpt lat="45.82681" lon="12.99198">
        <ele>9.0</ele>
      </trkpt>
      <trkpt lat="45.82778" lon="12.99175">
        <ele>11.0</ele>
      </trkpt>
      <trkpt lat="45.82919" lon="12.99317">
        <ele>11.0</ele>
      </trkpt>
      <trkpt lat="45.83117" lon="12.99536">
        <ele>9.0</ele>
      </trkpt>
      <trkpt lat="45.83222" lon="12.99639">
        <ele>8.0</ele>
      </trkpt>
      <trkpt lat="45.83365" lon="12.99662">
        <ele>8.0</ele>
      </trkpt>
      <trkpt lat="45.83502" lon="12.99632">
        <ele>8.0</ele>
      </trkpt>
      <trkpt lat="45.8356" lon="12.99653">
        <ele>7.0</ele>
      </trkpt>
      <trkpt lat="45.83761" lon="12.99926">
        <ele>6.0</ele>
      </trkpt>
      <trkpt lat="45.83801" lon="13.00027">
        <ele>6.0</ele>
      </trkpt>
      <trkpt lat="45.83788" lon="13.00087">
        <ele>7.0</ele>
      </trkpt>
      <trkpt lat="45.83818" lon="13.00131">
        <ele>7.0</ele>
      </trkpt>
      <trkpt lat="45.83908" lon="13.00206">
        <ele>7.0</ele>
      </trkpt>
      <trkpt lat="45.84198" lon="13.00945">
        <ele>6.0</ele>
      </trkpt>
      <trkpt lat="45.84575" lon="13.01957">
        <ele>7.0</ele>
      </trkpt>
      <trkpt lat="45.8485" lon="13.0272">
        <ele>7.0</ele>
      </trkpt>
      <trkpt lat="45.84866" lon="13.02802">
        <ele>7.0</ele>
      </trkpt>
      <trkpt lat="45.8493" lon="13.03382">
        <ele>7.0</ele>
      </trkpt>
      <trkpt lat="45.84945" lon="13.03479">
        <ele>7.0</ele>
      </trkpt>
      <trkpt lat="45.85034" lon="13.03791">
        <ele>5.0</ele>
      </trkpt>
      <trkpt lat="45.85035" lon="13.0408">
        <ele>6.0</ele>
      </trkpt>
      <trkpt lat="45.85028" lon="13.04452">
        <ele>6.0</ele>
      </trkpt>
      <trkpt lat="45.851" lon="13.04654">
        <ele>6.0</ele>
      </trkpt>
      <trkpt lat="45.85124" lon="13.04705">
        <ele>6.0</ele>
      </trkpt>
      <trkpt lat="45.85278" lon="13.05039">
        <ele>8.0</ele>
      </trkpt>
      <trkpt lat="45.85357" lon="13.05214">
        <ele>10.0</ele>
      </trkpt>
      <trkpt lat="45.85419" lon="13.05397">
        <ele>9.0</ele>
      </trkpt>
      <trkpt lat="45.85421" lon="13.05422">
        <ele>8.0</ele>
      </trkpt>
      <trkpt lat="45.85462" lon="13.05549">
        <ele>8.0</ele>
      </trkpt>
      <trkpt lat="45.85499" lon="13.05612">
        <ele>8.0</ele>
      </trkpt>
      <trkpt lat="45.85576" lon="13.05678">
        <ele>8.0</ele>
      </trkpt>
      <trkpt lat="45.85651" lon="13.05598">
        <ele>8.0</ele>
      </trkpt>
      <trkpt lat="45.85715" lon="13.05538">
        <ele>9.0</ele>
      </trkpt>
      <trkpt lat="45.85969" lon="13.05303">
        <ele>10.0</ele>
      </trkpt>
      <trkpt lat="45.86202" lon="13.0509">
        <ele>10.0</ele>
      </trkpt>
      <trkpt lat="45.86738" lon="13.04593">
        <ele>11.0</ele>
      </trkpt>
      <trkpt lat="45.86896" lon="13.04448">
        <ele>11.0</ele>
      </trkpt>
      <trkpt lat="45.8703" lon="13.04326">
        <ele>11.0</ele>
      </trkpt>
      <trkpt lat="45.87132" lon="13.0426">
        <ele>12.0</ele>
      </trkpt>
      <trkpt lat="45.8719" lon="13.04257">
        <ele>12.0</ele>
      </trkpt>
      <trkpt lat="45.87239" lon="13.04216">
        <ele>12.0</ele>
      </trkpt>
      <trkpt lat="45.87316" lon="13.04179">
        <ele>12.0</ele>
      </trkpt>
      <trkpt lat="45.87387" lon="13.04161">
        <ele>13.0</ele>
      </trkpt>
      <trkpt lat="45.87453" lon="13.04156">
        <ele>14.0</ele>
      </trkpt>
      <trkpt lat="45.87527" lon="13.04152">
        <ele>14.0</ele>
      </trkpt>
      <trkpt lat="45.8766" lon="13.04094">
        <ele>14.0</ele>
      </trkpt>
      <trkpt lat="45.87786" lon="13.0404">
        <ele>14.0</ele>
      </trkpt>
      <trkpt lat="45.87792" lon="13.04047">
        <ele>14.0</ele>
      </trkpt>
      <trkpt lat="45.8783" lon="13.04161">
        <ele>14.0</ele>
      </trkpt>
      <trkpt lat="45.87972" lon="13.0465">
        <ele>13.0</ele>
      </trkpt>
      <trkpt lat="45.88059" lon="13.04926">
        <ele>11.0</ele>
      </trkpt>
      <trkpt lat="45.88141" lon="13.05141">
        <ele>9.0</ele>
      </trkpt>
      <trkpt lat="45.88194" lon="13.05303">
        <ele>11.0</ele>
      </trkpt>
      <trkpt lat="45.88229" lon="13.05473">
        <ele>12.0</ele>
      </trkpt>
      <trkpt lat="45.88266" lon="13.05743">
        <ele>12.0</ele>
      </trkpt>
      <trkpt lat="45.8831" lon="13.06058">
        <ele>12.0</ele>
      </trkpt>
      <trkpt lat="45.88428" lon="13.069">
        <ele>12.0</ele>
      </trkpt>
      <trkpt lat="45.8844" lon="13.06988">
        <ele>13.0</ele>
      </trkpt>
      <trkpt lat="45.88329" lon="13.07168">
        <ele>12.0</ele>
      </trkpt>
      <trkpt lat="45.88224" lon="13.07355">
        <ele>12.0</ele>
      </trkpt>
      <trkpt lat="45.8808" lon="13.07608">
        <ele>11.0</ele>
      </trkpt>
      <trkpt lat="45.87834" lon="13.08037">
        <ele>11.0</ele>
      </trkpt>
      <trkpt lat="45.87789" lon="13.08202">
        <ele>11.0</ele>
      </trkpt>
      <trkpt lat="45.87767" lon="13.08519">
        <ele>11.0</ele>
      </trkpt>
      <trkpt lat="45.87657" lon="13.08798">
        <ele>11.0</ele>
      </trkpt>
      <trkpt lat="45.87498" lon="13.08796">
        <ele>11.0</ele>
      </trkpt>
      <trkpt lat="45.8729" lon="13.08804">
        <ele>11.0</ele>
      </trkpt>
      <trkpt lat="45.87249" lon="13.08748">
        <ele>12.0</ele>
      </trkpt>
      <trkpt lat="45.8722" lon="13.08718">
        <ele>12.0</ele>
      </trkpt>
      <trkpt lat="45.87111" lon="13.08771">
        <ele>12.0</ele>
      </trkpt>
      <trkpt lat="45.86986" lon="13.08833">
        <ele>12.0</ele>
      </trkpt>
      <trkpt lat="45.86953" lon="13.09049">
        <ele>12.0</ele>
      </trkpt>
      <trkpt lat="45.86975" lon="13.09471">
        <ele>9.0</ele>
      </trkpt>
      <trkpt lat="45.86959" lon="13.09654">
        <ele>9.0</ele>
      </trkpt>
      <trkpt lat="45.86897" lon="13.1008">
        <ele>10.0</ele>
      </trkpt>
      <trkpt lat="45.86812" lon="13.10525">
        <ele>8.0</ele>
      </trkpt>
      <trkpt lat="45.86883" lon="13.11144">
        <ele>11.0</ele>
      </trkpt>
      <trkpt lat="45.87198" lon="13.11419">
        <ele>10.0</ele>
      </trkpt>
      <trkpt lat="45.87363" lon="13.11559">
        <ele>10.0</ele>
      </trkpt>
      <trkpt lat="45.87449" lon="13.11636">
        <ele>10.0</ele>
      </trkpt>
      <trkpt lat="45.8762" lon="13.11777">
        <ele>11.0</ele>
      </trkpt>
      <trkpt lat="45.87722" lon="13.1178">
        <ele>12.0</ele>
      </trkpt>
      <trkpt lat="45.87894" lon="13.11951">
        <ele>13.0</ele>
      </trkpt>
      <trkpt lat="45.88216" lon="13.12089">
        <ele>12.0</ele>
      </trkpt>
      <trkpt lat="45.88416" lon="13.12209">
        <ele>12.0</ele>
      </trkpt>
      <trkpt lat="45.88567" lon="13.12255">
        <ele>14.0</ele>
      </trkpt>
      <trkpt lat="45.88693" lon="13.1224">
        <ele>14.0</ele>
      </trkpt>
      <trkpt lat="45.88739" lon="13.12274">
        <ele>14.0</ele>
      </trkpt>
      <trkpt lat="45.88964" lon="13.12601">
        <ele>13.0</ele>
      </trkpt>
      <trkpt lat="45.89075" lon="13.12733">
        <ele>13.0</ele>
      </trkpt>
      <trkpt lat="45.89481" lon="13.13013">
        <ele>13.0</ele>
      </trkpt>
      <trkpt lat="45.9" lon="13.13401">
        <ele>14.0</ele>
      </trkpt>
      <trkpt lat="45.90155" lon="13.13488">
        <ele>16.0</ele>
      </trkpt>
      <trkpt lat="45.91106" lon="13.13708">
        <ele>19.0</ele>
      </trkpt>
      <trkpt lat="45.91289" lon="13.13742">
        <ele>20.0</ele>
      </trkpt>
      <trkpt lat="45.91495" lon="13.1388">
        <ele>20.0</ele>
      </trkpt>
      <trkpt lat="45.91687" lon="13.13965">
        <ele>21.0</ele>
      </trkpt>
      <trkpt lat="45.91778" lon="13.14045">
        <ele>23.0</ele>
      </trkpt>
      <trkpt lat="45.91884" lon="13.14042">
        <ele>24.0</ele>
      </trkpt>
      <trkpt lat="45.92082" lon="13.14008">
        <ele>25.0</ele>
      </trkpt>
      <trkpt lat="45.92115" lon="13.13993">
        <ele>26.0</ele>
      </trkpt>
      <trkpt lat="45.9219" lon="13.14006">
        <ele>26.0</ele>
      </trkpt>
      <trkpt lat="45.922" lon="13.14005">
        <ele>26.0</ele>
      </trkpt>
      <trkpt lat="45.92202" lon="13.13974">
        <ele>26.0</ele>
      </trkpt>
      <trkpt lat="45.92256" lon="13.13705">
        <ele>24.0</ele>
      </trkpt>
      <trkpt lat="45.92406" lon="13.13365">
        <ele>23.0</ele>
      </trkpt>
      <trkpt lat="45.9263" lon="13.12865">
        <ele>24.0</ele>
      </trkpt>
      <trkpt lat="45.92698" lon="13.1271">
        <ele>25.0</ele>
      </trkpt>
      <trkpt lat="45.92768" lon="13.12513">
        <ele>26.0</ele>
      </trkpt>
      <trkpt lat="45.928" lon="13.12305">
        <ele>26.0</ele>
      </trkpt>
      <trkpt lat="45.9286" lon="13.12095">
        <ele>27.0</ele>
      </trkpt>
      <trkpt lat="45.92961" lon="13.11977">
        <ele>27.0</ele>
      </trkpt>
      <trkpt lat="45.92977" lon="13.11965">
        <ele>27.0</ele>
      </trkpt>
      <trkpt lat="45.92981" lon="13.11962">
        <ele>27.0</ele>
      </trkpt>
      <trkpt lat="45.93027" lon="13.11982">
        <ele>27.0</ele>
      </trkpt>
      <trkpt lat="45.9305" lon="13.12003">
        <ele>27.0</ele>
      </trkpt>
      <trkpt lat="45.93061" lon="13.12007">
        <ele>27.0</ele>
      </trkpt>
      <trkpt lat="45.93064" lon="13.11996">
        <ele>27.0</ele>
      </trkpt>
      <trkpt lat="45.93061" lon="13.11987">
        <ele>27.0</ele>
      </trkpt>
      <trkpt lat="45.93034" lon="13.11834">
        <ele>27.0</ele>
      </trkpt>
      <trkpt lat="45.93054" lon="13.11685">
        <ele>27.0</ele>
      </trkpt>
      <trkpt lat="45.93138" lon="13.11463">
        <ele>26.0</ele>
      </trkpt>
      <trkpt lat="45.93194" lon="13.11203">
        <ele>26.0</ele>
      </trkpt>
      <trkpt lat="45.93236" lon="13.10976">
        <ele>29.0</ele>
      </trkpt>
      <trkpt lat="45.93361" lon="13.10298">
        <ele>28.0</ele>
      </trkpt>
      <trkpt lat="45.93417" lon="13.09992">
        <ele>28.0</ele>
      </trkpt>
      <trkpt lat="45.93469" lon="13.09694">
        <ele>28.0</ele>
      </trkpt>
      <trkpt lat="45.93434" lon="13.095">
        <ele>29.0</ele>
      </trkpt>
      <trkpt lat="45.93471" lon="13.09381">
        <ele>29.0</ele>
      </trkpt>
      <trkpt lat="45.93484" lon="13.09352">
        <ele>29.0</ele>
      </trkpt>
      <trkpt lat="45.93493" lon="13.09345">
        <ele>29.0</ele>
      </trkpt>
      <trkpt lat="45.9349" lon="13.09328">
        <ele>29.0</ele>
      </trkpt>
      <trkpt lat="45.93509" lon="13.09284">
        <ele>29.0</ele>
      </trkpt>
      <trkpt lat="45.93582" lon="13.09142">
        <ele>29.0</ele>
      </trkpt>
      <trkpt lat="45.93635" lon="13.07995">
        <ele>26.0</ele>
      </trkpt>
      <trkpt lat="45.93653" lon="13.07577">
        <ele>26.0</ele>
      </trkpt>
      <trkpt lat="45.93653" lon="13.07487">
        <ele>28.0</ele>
      </trkpt>
      <trkpt lat="45.93676" lon="13.07462">
        <ele>28.0</ele>
      </trkpt>
      <trkpt lat="45.93673" lon="13.07429">
        <ele>29.0</ele>
      </trkpt>
      <trkpt lat="45.93667" lon="13.07322">
        <ele>29.0</ele>
      </trkpt>
      <trkpt lat="45.9368" lon="13.07104">
        <ele>29.0</ele>
      </trkpt>
      <trkpt lat="45.93758" lon="13.07058">
        <ele>29.0</ele>
      </trkpt>
      <trkpt lat="45.93789" lon="13.07015">
        <ele>29.0</ele>
      </trkpt>
      <trkpt lat="45.93845" lon="13.06909">
        <ele>29.0</ele>
      </trkpt>
      <trkpt lat="45.93933" lon="13.06678">
        <ele>29.0</ele>
      </trkpt>
      <trkpt lat="45.94112" lon="13.06208">
        <ele>30.0</ele>
      </trkpt>
      <trkpt lat="45.94218" lon="13.05928">
        <ele>33.0</ele>
      </trkpt>
      <trkpt lat="45.94339" lon="13.05606">
        <ele>32.0</ele>
      </trkpt>
      <trkpt lat="45.94321" lon="13.055">
        <ele>32.0</ele>
      </trkpt>
      <trkpt lat="45.94279" lon="13.05369">
        <ele>31.0</ele>
      </trkpt>
      <trkpt lat="45.94252" lon="13.05204">
        <ele>31.0</ele>
      </trkpt>
      <trkpt lat="45.94241" lon="13.05108">
        <ele>31.0</ele>
      </trkpt>
      <trkpt lat="45.94248" lon="13.05076">
        <ele>31.0</ele>
      </trkpt>
      <trkpt lat="45.94309" lon="13.04979">
        <ele>31.0</ele>
      </trkpt>
      <trkpt lat="45.94321" lon="13.04934">
        <ele>31.0</ele>
      </trkpt>
      <trkpt lat="45.94311" lon="13.04854">
        <ele>31.0</ele>
      </trkpt>
      <trkpt lat="45.9432" lon="13.0483">
        <ele>31.0</ele>
      </trkpt>
      <trkpt lat="45.94387" lon="13.04777">
        <ele>31.0</ele>
      </trkpt>
      <trkpt lat="45.9437" lon="13.04572">
        <ele>31.0</ele>
      </trkpt>
      <trkpt lat="45.94339" lon="13.04274">
        <ele>31.0</ele>
      </trkpt>
      <trkpt lat="45.94291" lon="13.03829">
        <ele>32.0</ele>
      </trkpt>
      <trkpt lat="45.94274" lon="13.03654">
        <ele>32.0</ele>
      </trkpt>
      <trkpt lat="45.94277" lon="13.03465">
        <ele>31.0</ele>
      </trkpt>
      <trkpt lat="45.94324" lon="13.02634">
        <ele>30.0</ele>
      </trkpt>
      <trkpt lat="45.94335" lon="13.02488">
        <ele>30.0</ele>
      </trkpt>
      <trkpt lat="45.94349" lon="13.02433">
        <ele>31.0</ele>
      </trkpt>
      <trkpt lat="45.94377" lon="13.02407">
        <ele>31.0</ele>
      </trkpt>
      <trkpt lat="45.94531" lon="13.02322">
        <ele>32.0</ele>
      </trkpt>
      <trkpt lat="45.94604" lon="13.02248">
        <ele>32.0</ele>
      </trkpt>
      <trkpt lat="45.94626" lon="13.02229">
        <ele>32.0</ele>
      </trkpt>
      <trkpt lat="45.94626" lon="13.02212">
        <ele>32.0</ele>
      </trkpt>
      <trkpt lat="45.94702" lon="13.01728">
        <ele>31.0</ele>
      </trkpt>
      <trkpt lat="45.94749" lon="13.01453">
        <ele>33.0</ele>
      </trkpt>
      <trkpt lat="45.94792" lon="13.01191">
        <ele>34.0</ele>
      </trkpt>
      <trkpt lat="45.94797" lon="13.01043">
        <ele>35.0</ele>
      </trkpt>
      <trkpt lat="45.94827" lon="13.0102">
        <ele>35.0</ele>
      </trkpt>
      <trkpt lat="45.94857" lon="13.0081">
        <ele>35.0</ele>
      </trkpt>
      <trkpt lat="45.94898" lon="13.00739">
        <ele>34.0</ele>
      </trkpt>
      <trkpt lat="45.94998" lon="13.00656">
        <ele>33.0</ele>
      </trkpt>
      <trkpt lat="45.9528" lon="13.00068">
        <ele>32.0</ele>
      </trkpt>
      <trkpt lat="45.95425" lon="12.99756">
        <ele>35.0</ele>
      </trkpt>
      <trkpt lat="45.95634" lon="12.99311">
        <ele>37.0</ele>
      </trkpt>
      <trkpt lat="45.95723" lon="12.99119">
        <ele>37.0</ele>
      </trkpt>
      <trkpt lat="45.95799" lon="12.98957">
        <ele>37.0</ele>
      </trkpt>
      <trkpt lat="45.95952" lon="12.98632">
        <ele>38.0</ele>
      </trkpt>
      <trkpt lat="45.95997" lon="12.98533">
        <ele>39.0</ele>
      </trkpt>
      <trkpt lat="45.96043" lon="12.98331">
        <ele>39.0</ele>
      </trkpt>
      <trkpt lat="45.96047" lon="12.98287">
        <ele>39.0</ele>
      </trkpt>
      <trkpt lat="45.96051" lon="12.98276">
        <ele>39.0</ele>
      </trkpt>
      <trkpt lat="45.96055" lon="12.9822">
        <ele>39.0</ele>
      </trkpt>
      <trkpt lat="45.96076" lon="12.98087">
        <ele>40.0</ele>
      </trkpt>
      <trkpt lat="45.96091" lon="12.97982">
        <ele>41.0</ele>
      </trkpt>
      <trkpt lat="45.96124" lon="12.97977">
        <ele>41.0</ele>
      </trkpt>
      <trkpt lat="45.96196" lon="12.9797">
        <ele>41.0</ele>
      </trkpt>
      <trkpt lat="45.96304" lon="12.97935">
        <ele>41.0</ele>
      </trkpt>
      <trkpt lat="45.96311" lon="12.97944">
        <ele>41.0</ele>
      </trkpt>
      <trkpt lat="45.96322" lon="12.97946">
        <ele>41.0</ele>
      </trkpt>
      <trkpt lat="45.96333" lon="12.9792">
        <ele>41.0</ele>
      </trkpt>
      <trkpt lat="45.96396" lon="12.97882">
        <ele>41.0</ele>
      </trkpt>
      <trkpt lat="45.96544" lon="12.97802">
        <ele>41.0</ele>
      </trkpt>
      <trkpt lat="45.96661" lon="12.97737">
        <ele>42.0</ele>
      </trkpt>
      <trkpt lat="45.96717" lon="12.97706">
        <ele>42.0</ele>
      </trkpt>
      <trkpt lat="45.9686" lon="12.97636">
        <ele>42.0</ele>
      </trkpt>
      <trkpt lat="45.96896" lon="12.97643">
        <ele>42.0</ele>
      </trkpt>
      <trkpt lat="45.96915" lon="12.97632">
        <ele>42.0</ele>
      </trkpt>
      <trkpt lat="45.9693" lon="12.97596">
        <ele>42.0</ele>
      </trkpt>
      <trkpt lat="45.97216" lon="12.97435">
        <ele>43.0</ele>
      </trkpt>
      <trkpt lat="45.97508" lon="12.97257">
        <ele>45.0</ele>
      </trkpt>
      <trkpt lat="45.97592" lon="12.97213">
        <ele>45.0</ele>
      </trkpt>
      <trkpt lat="45.97653" lon="12.9731">
        <ele>45.0</ele>
      </trkpt>
      <trkpt lat="45.97744" lon="12.97483">
        <ele>46.0</ele>
      </trkpt>
      <trkpt lat="45.97752" lon="12.97561">
        <ele>46.0</ele>
      </trkpt>
      <trkpt lat="45.97754" lon="12.97709">
        <ele>47.0</ele>
      </trkpt>
      <trkpt lat="45.97732" lon="12.98522">
        <ele>46.0</ele>
      </trkpt>
      <trkpt lat="45.97745" lon="12.98592">
        <ele>46.0</ele>
      </trkpt>
      <trkpt lat="45.9822" lon="12.99277">
        <ele>47.0</ele>
      </trkpt>
      <trkpt lat="45.98462" lon="12.99899">
        <ele>50.0</ele>
      </trkpt>
      <trkpt lat="45.98752" lon="13.00717">
        <ele>53.0</ele>
      </trkpt>
      <trkpt lat="45.9884" lon="13.00966">
        <ele>56.0</ele>
      </trkpt>
      <trkpt lat="45.98924" lon="13.01231">
        <ele>57.0</ele>
      </trkpt>
      <trkpt lat="45.99014" lon="13.01544">
        <ele>57.0</ele>
      </trkpt>
      <trkpt lat="45.99105" lon="13.01719">
        <ele>55.0</ele>
      </trkpt>
      <trkpt lat="45.99184" lon="13.01817">
        <ele>56.0</ele>
      </trkpt>
      <trkpt lat="45.99319" lon="13.01961">
        <ele>58.0</ele>
      </trkpt>
      <trkpt lat="45.99442" lon="13.02074">
        <ele>60.0</ele>
      </trkpt>
      <trkpt lat="45.99476" lon="13.02131">
        <ele>61.0</ele>
      </trkpt>
      <trkpt lat="45.99559" lon="13.02324">
        <ele>63.0</ele>
      </trkpt>
      <trkpt lat="45.99596" lon="13.0244">
        <ele>63.0</ele>
      </trkpt>
      <trkpt lat="45.9964" lon="13.02624">
        <ele>63.0</ele>
      </trkpt>
      <trkpt lat="45.99693" lon="13.02714">
        <ele>63.0</ele>
      </trkpt>
      <trkpt lat="45.99768" lon="13.02921">
        <ele>64.0</ele>
      </trkpt>
      <trkpt lat="45.99939" lon="13.0359">
        <ele>64.0</ele>
      </trkpt>
      <trkpt lat="46.0016" lon="13.04403">
        <ele>65.0</ele>
      </trkpt>
      <trkpt lat="46.00446" lon="13.04833">
        <ele>64.0</ele>
      </trkpt>
      <trkpt lat="46.00707" lon="13.05418">
        <ele>65.0</ele>
      </trkpt>
      <trkpt lat="46.00847" lon="13.05777">
        <ele>65.0</ele>
      </trkpt>
      <trkpt lat="46.01005" lon="13.06052">
        <ele>66.0</ele>
      </trkpt>
      <trkpt lat="46.01091" lon="13.06276">
        <ele>68.0</ele>
      </trkpt>
      <trkpt lat="46.01201" lon="13.06565">
        <ele>69.0</ele>
      </trkpt>
      <trkpt lat="46.01192" lon="13.0673">
        <ele>69.0</ele>
      </trkpt>
      <trkpt lat="46.01195" lon="13.06849">
        <ele>69.0</ele>
      </trkpt>
      <trkpt lat="46.01134" lon="13.07013">
        <ele>69.0</ele>
      </trkpt>
      <trkpt lat="46.01143" lon="13.07118">
        <ele>69.0</ele>
      </trkpt>
      <trkpt lat="46.0128" lon="13.07602">
        <ele>69.0</ele>
      </trkpt>
      <trkpt lat="46.01381" lon="13.08172">
        <ele>71.0</ele>
      </trkpt>
      <trkpt lat="46.01462" lon="13.09267">
        <ele>71.0</ele>
      </trkpt>
      <trkpt lat="46.01435" lon="13.09506">
        <ele>71.0</ele>
      </trkpt>
      <trkpt lat="46.01454" lon="13.09649">
        <ele>71.0</ele>
      </trkpt>
      <trkpt lat="46.01602" lon="13.10122">
        <ele>71.0</ele>
      </trkpt>
      <trkpt lat="46.01623" lon="13.10303">
        <ele>71.0</ele>
      </trkpt>
      <trkpt lat="46.01637" lon="13.10447">
        <ele>71.0</ele>
      </trkpt>
      <trkpt lat="46.01663" lon="13.10582">
        <ele>72.0</ele>
      </trkpt>
      <trkpt lat="46.01637" lon="13.10637">
        <ele>73.0</ele>
      </trkpt>
      <trkpt lat="46.01577" lon="13.10744">
        <ele>73.0</ele>
      </trkpt>
      <trkpt lat="46.01606" lon="13.10809">
        <ele>73.0</ele>
      </trkpt>
      <trkpt lat="46.01653" lon="13.10869">
        <ele>73.0</ele>
      </trkpt>
      <trkpt lat="46.0172" lon="13.10991">
        <ele>73.0</ele>
      </trkpt>
      <trkpt lat="46.01797" lon="13.11116">
        <ele>73.0</ele>
      </trkpt>
      <trkpt lat="46.01876" lon="13.11263">
        <ele>73.0</ele>
      </trkpt>
      <trkpt lat="46.02087" lon="13.11194">
        <ele>74.0</ele>
      </trkpt>
      <trkpt lat="46.02196" lon="13.11247">
        <ele>75.0</ele>
      </trkpt>
      <trkpt lat="46.02282" lon="13.11339">
        <ele>77.0</ele>
      </trkpt>
      <trkpt lat="46.02428" lon="13.11394">
        <ele>80.0</ele>
      </trkpt>
      <trkpt lat="46.02487" lon="13.11416">
        <ele>83.0</ele>
      </trkpt>
      <trkpt lat="46.02554" lon="13.1143">
        <ele>86.0</ele>
      </trkpt>
      <trkpt lat="46.02622" lon="13.11395">
        <ele>87.0</ele>
      </trkpt>
      <trkpt lat="46.02644" lon="13.11364">
        <ele>86.0</ele>
      </trkpt>
      <trkpt lat="46.02761" lon="13.11327">
        <ele>85.0</ele>
      </trkpt>
      <trkpt lat="46.0275" lon="13.11216">
        <ele>84.0</ele>
      </trkpt>
      <trkpt lat="46.02734" lon="13.11135">
        <ele>83.0</ele>
      </trkpt>
      <trkpt lat="46.02738" lon="13.11062">
        <ele>82.0</ele>
      </trkpt>
      <trkpt lat="46.02724" lon="13.1086">
        <ele>82.0</ele>
      </trkpt>
      <trkpt lat="46.02619" lon="13.10597">
        <ele>81.0</ele>
      </trkpt>
      <trkpt lat="46.02576" lon="13.10474">
        <ele>81.0</ele>
      </trkpt>
      <trkpt lat="46.02902" lon="13.10342">
        <ele>82.0</ele>
      </trkpt>
      <trkpt lat="46.0317" lon="13.1024">
        <ele>81.0</ele>
      </trkpt>
      <trkpt lat="46.0361" lon="13.10073">
        <ele>84.0</ele>
      </trkpt>
      <trkpt lat="46.03762" lon="13.10017">
        <ele>84.0</ele>
      </trkpt>
      <trkpt lat="46.04029" lon="13.09931">
        <ele>85.0</ele>
      </trkpt>
      <trkpt lat="46.04224" lon="13.09866">
        <ele>87.0</ele>
      </trkpt>
      <trkpt lat="46.04455" lon="13.09639">
        <ele>88.0</ele>
      </trkpt>
      <trkpt lat="46.04809" lon="13.09227">
        <ele>91.0</ele>
      </trkpt>
      <trkpt lat="46.04903" lon="13.09093">
        <ele>91.0</ele>
      </trkpt>
      <trkpt lat="46.04989" lon="13.08967">
        <ele>91.0</ele>
      </trkpt>
      <trkpt lat="46.0515" lon="13.0885">
        <ele>93.0</ele>
      </trkpt>
      <trkpt lat="46.05439" lon="13.08645">
        <ele>96.0</ele>
      </trkpt>
      <trkpt lat="46.05508" lon="13.08597">
        <ele>97.0</ele>
      </trkpt>
      <trkpt lat="46.05572" lon="13.08559">
        <ele>98.0</ele>
      </trkpt>
      <trkpt lat="46.05669" lon="13.08542">
        <ele>98.0</ele>
      </trkpt>
      <trkpt lat="46.05695" lon="13.0854">
        <ele>98.0</ele>
      </trkpt>
      <trkpt lat="46.05622" lon="13.08268">
        <ele>97.0</ele>
      </trkpt>
      <trkpt lat="46.05584" lon="13.07944">
        <ele>97.0</ele>
      </trkpt>
      <trkpt lat="46.05562" lon="13.07456">
        <ele>98.0</ele>
      </trkpt>
      <trkpt lat="46.05533" lon="13.06834">
        <ele>100.0</ele>
      </trkpt>
      <trkpt lat="46.05443" lon="13.06246">
        <ele>99.0</ele>
      </trkpt>
      <trkpt lat="46.05363" lon="13.0574">
        <ele>98.0</ele>
      </trkpt>
      <trkpt lat="46.05355" lon="13.05533">
        <ele>97.0</ele>
      </trkpt>
      <trkpt lat="46.05356" lon="13.0551">
        <ele>97.0</ele>
      </trkpt>
      <trkpt lat="46.0534" lon="13.05497">
        <ele>97.0</ele>
      </trkpt>
      <trkpt lat="46.05282" lon="13.05321">
        <ele>97.0</ele>
      </trkpt>
      <trkpt lat="46.05162" lon="13.04942">
        <ele>98.0</ele>
      </trkpt>
      <trkpt lat="46.05072" lon="13.04664">
        <ele>98.0</ele>
      </trkpt>
      <trkpt lat="46.05027" lon="13.04464">
        <ele>97.0</ele>
      </trkpt>
      <trkpt lat="46.04998" lon="13.04224">
        <ele>96.0</ele>
      </trkpt>
      <trkpt lat="46.04986" lon="13.04172">
        <ele>97.0</ele>
      </trkpt>
      <trkpt lat="46.04986" lon="13.04105">
        <ele>97.0</ele>
      </trkpt>
      <trkpt lat="46.04996" lon="13.04086">
        <ele>97.0</ele>
      </trkpt>
      <trkpt lat="46.05053" lon="13.04062">
        <ele>97.0</ele>
      </trkpt>
      <trkpt lat="46.05122" lon="13.04039">
        <ele>96.0</ele>
      </trkpt>
      <trkpt lat="46.05239" lon="13.04065">
        <ele>96.0</ele>
      </trkpt>
      <trkpt lat="46.05367" lon="13.04048">
        <ele>96.0</ele>
      </trkpt>
      <trkpt lat="46.05539" lon="13.03669">
        <ele>95.0</ele>
      </trkpt>
      <trkpt lat="46.05596" lon="13.03536">
        <ele>95.0</ele>
      </trkpt>
      <trkpt lat="46.0571" lon="13.03418">
        <ele>95.0</ele>
      </trkpt>
      <trkpt lat="46.05989" lon="13.03207">
        <ele>97.0</ele>
      </trkpt>
      <trkpt lat="46.06005" lon="13.03147">
        <ele>98.0</ele>
      </trkpt>
      <trkpt lat="46.06017" lon="13.03042">
        <ele>99.0</ele>
      </trkpt>
      <trkpt lat="46.06009" lon="13.02908">
        <ele>99.0</ele>
      </trkpt>
      <trkpt lat="46.06006" lon="13.02842">
        <ele>99.0</ele>
      </trkpt>
      <trkpt lat="46.06136" lon="13.02773">
        <ele>99.0</ele>
      </trkpt>
      <trkpt lat="46.06245" lon="13.02762">
        <ele>99.0</ele>
      </trkpt>
      <trkpt lat="46.06337" lon="13.02717">
        <ele>99.0</ele>
      </trkpt>
      <trkpt lat="46.06605" lon="13.0266">
        <ele>100.0</ele>
      </trkpt>
      <trkpt lat="46.06763" lon="13.02612">
        <ele>104.0</ele>
      </trkpt>
      <trkpt lat="46.06856" lon="13.02545">
        <ele>106.0</ele>
      </trkpt>
      <trkpt lat="46.06973" lon="13.02486">
        <ele>107.0</ele>
      </trkpt>
      <trkpt lat="46.0701" lon="13.02451">
        <ele>108.0</ele>
      </trkpt>
      <trkpt lat="46.07135" lon="13.02401">
        <ele>108.0</ele>
      </trkpt>
      <trkpt lat="46.07241" lon="13.02334">
        <ele>108.0</ele>
      </trkpt>
      <trkpt lat="46.07602" lon="13.02112">
        <ele>109.0</ele>
      </trkpt>
      <trkpt lat="46.07888" lon="13.01889">
        <ele>115.0</ele>
      </trkpt>
      <trkpt lat="46.08082" lon="13.01843">
        <ele>117.0</ele>
      </trkpt>
      <trkpt lat="46.08331" lon="13.01717">
        <ele>118.0</ele>
      </trkpt>
      <trkpt lat="46.08582" lon="13.01662">
        <ele>121.0</ele>
      </trkpt>
      <trkpt lat="46.08882" lon="13.01596">
        <ele>122.0</ele>
      </trkpt>
      <trkpt lat="46.09078" lon="13.01491">
        <ele>122.0</ele>
      </trkpt>
      <trkpt lat="46.09402" lon="13.01292">
        <ele>126.0</ele>
      </trkpt>
      <trkpt lat="46.09475" lon="13.01208">
        <ele>127.0</ele>
      </trkpt>
      <trkpt lat="46.09536" lon="13.0116">
        <ele>127.0</ele>
      </trkpt>
      <trkpt lat="46.09578" lon="13.01147">
        <ele>127.0</ele>
      </trkpt>
      <trkpt lat="46.10037" lon="13.00981">
        <ele>130.0</ele>
      </trkpt>
      <trkpt lat="46.10193" lon="13.00887">
        <ele>133.0</ele>
      </trkpt>
      <trkpt lat="46.10614" lon="13.00572">
        <ele>137.0</ele>
      </trkpt>
      <trkpt lat="46.10822" lon="13.00588">
        <ele>141.0</ele>
      </trkpt>
      <trkpt lat="46.10884" lon="13.00577">
        <ele>143.0</ele>
      </trkpt>
      <trkpt lat="46.11054" lon="13.00398">
        <ele>145.0</ele>
      </trkpt>
      <trkpt lat="46.11116" lon="13.00357">
        <ele>145.0</ele>
      </trkpt>
      <trkpt lat="46.11176" lon="13.00363">
        <ele>144.0</ele>
      </trkpt>
      <trkpt lat="46.11185" lon="13.00498">
        <ele>141.0</ele>
      </trkpt>
      <trkpt lat="46.11177" lon="13.00551">
        <ele>139.0</ele>
      </trkpt>
      <trkpt lat="46.11167" lon="13.00592">
        <ele>136.0</ele>
      </trkpt>
      <trkpt lat="46.11167" lon="13.00632">
        <ele>134.0</ele>
      </trkpt>
      <trkpt lat="46.11194" lon="13.00752">
        <ele>129.0</ele>
      </trkpt>
      <trkpt lat="46.11256" lon="13.01151">
        <ele>124.0</ele>
      </trkpt>
      <trkpt lat="46.11243" lon="13.0147">
        <ele>123.0</ele>
      </trkpt>
      <trkpt lat="46.11247" lon="13.01532">
        <ele>123.0</ele>
      </trkpt>
      <trkpt lat="46.11246" lon="13.01702">
        <ele>124.0</ele>
      </trkpt>
      <trkpt lat="46.11299" lon="13.01851">
        <ele>125.0</ele>
      </trkpt>
      <trkpt lat="46.11299" lon="13.02033">
        <ele>128.0</ele>
      </trkpt>
      <trkpt lat="46.11294" lon="13.02145">
        <ele>130.0</ele>
      </trkpt>
      <trkpt lat="46.11291" lon="13.02202">
        <ele>133.0</ele>
      </trkpt>
      <trkpt lat="46.11278" lon="13.02272">
        <ele>137.0</ele>
      </trkpt>
      <trkpt lat="46.11245" lon="13.02388">
        <ele>142.0</ele>
      </trkpt>
      <trkpt lat="46.11234" lon="13.02429">
        <ele>146.0</ele>
      </trkpt>
      <trkpt lat="46.11238" lon="13.02493">
        <ele>147.0</ele>
      </trkpt>
      <trkpt lat="46.11237" lon="13.02581">
        <ele>147.0</ele>
      </trkpt>
      <trkpt lat="46.11217" lon="13.02785">
        <ele>147.0</ele>
      </trkpt>
      <trkpt lat="46.11197" lon="13.02896">
        <ele>147.0</ele>
      </trkpt>
      <trkpt lat="46.1109" lon="13.0342">
        <ele>146.0</ele>
      </trkpt>
      <trkpt lat="46.11056" lon="13.03574">
        <ele>147.0</ele>
      </trkpt>
      <trkpt lat="46.11043" lon="13.03616">
        <ele>147.0</ele>
      </trkpt>
      <trkpt lat="46.11019" lon="13.03677">
        <ele>147.0</ele>
      </trkpt>
      <trkpt lat="46.10982" lon="13.03755">
        <ele>147.0</ele>
      </trkpt>
      <trkpt lat="46.10857" lon="13.03986">
        <ele>145.0</ele>
      </trkpt>
      <trkpt lat="46.10817" lon="13.04068">
        <ele>145.0</ele>
      </trkpt>
      <trkpt lat="46.1077" lon="13.04218">
        <ele>146.0</ele>
      </trkpt>
      <trkpt lat="46.10755" lon="13.04294">
        <ele>146.0</ele>
      </trkpt>
      <trkpt lat="46.10697" lon="13.04638">
        <ele>144.0</ele>
      </trkpt>
      <trkpt lat="46.10674" lon="13.04768">
        <ele>144.0</ele>
      </trkpt>
      <trkpt lat="46.10625" lon="13.05062">
        <ele>145.0</ele>
      </trkpt>
      <trkpt lat="46.10622" lon="13.0511">
        <ele>145.0</ele>
      </trkpt>
      <trkpt lat="46.10625" lon="13.05154">
        <ele>145.0</ele>
      </trkpt>
      <trkpt lat="46.10679" lon="13.05391">
        <ele>146.0</ele>
      </trkpt>
      <trkpt lat="46.10768" lon="13.05754">
        <ele>147.0</ele>
      </trkpt>
      <trkpt lat="46.1078" lon="13.05822">
        <ele>149.0</ele>
      </trkpt>
      <trkpt lat="46.10796" lon="13.05985">
        <ele>150.0</ele>
      </trkpt>
      <trkpt lat="46.10877" lon="13.06862">
        <ele>155.0</ele>
      </trkpt>
      <trkpt lat="46.10929" lon="13.07133">
        <ele>157.0</ele>
      </trkpt>
      <trkpt lat="46.11039" lon="13.07667">
        <ele>160.0</ele>
      </trkpt>
      <trkpt lat="46.11077" lon="13.07843">
        <ele>161.0</ele>
      </trkpt>
      <trkpt lat="46.1108" lon="13.07889">
        <ele>161.0</ele>
      </trkpt>
      <trkpt lat="46.11062" lon="13.08044">
        <ele>162.0</ele>
      </trkpt>
      <trkpt lat="46.1105" lon="13.08161">
        <ele>164.0</ele>
      </trkpt>
      <trkpt lat="46.11057" lon="13.08216">
        <ele>164.0</ele>
      </trkpt>
      <trkpt lat="46.111" lon="13.08399">
        <ele>166.0</ele>
      </trkpt>
      <trkpt lat="46.11117" lon="13.08514">
        <ele>166.0</ele>
      </trkpt>
      <trkpt lat="46.11124" lon="13.08611">
        <ele>167.0</ele>
      </trkpt>
      <trkpt lat="46.11126" lon="13.08681">
        <ele>167.0</ele>
      </trkpt>
      <trkpt lat="46.11119" lon="13.08725">
        <ele>167.0</ele>
      </trkpt>
      <trkpt lat="46.11102" lon="13.08762">
        <ele>168.0</ele>
      </trkpt>
      <trkpt lat="46.11031" lon="13.08873">
        <ele>169.0</ele>
      </trkpt>
      <trkpt lat="46.11117" lon="13.0897">
        <ele>170.0</ele>
      </trkpt>
      <trkpt lat="46.1115" lon="13.08986">
        <ele>172.0</ele>
      </trkpt>
      <trkpt lat="46.11271" lon="13.08997">
        <ele>177.0</ele>
      </trkpt>
      <trkpt lat="46.11332" lon="13.09019">
        <ele>181.0</ele>
      </trkpt>
      <trkpt lat="46.11357" lon="13.09053">
        <ele>185.0</ele>
      </trkpt>
      <trkpt lat="46.11372" lon="13.09161">
        <ele>189.0</ele>
      </trkpt>
      <trkpt lat="46.11381" lon="13.09276">
        <ele>195.0</ele>
      </trkpt>
      <trkpt lat="46.11395" lon="13.09488">
        <ele>195.0</ele>
      </trkpt>
      <trkpt lat="46.11482" lon="13.09918">
        <ele>208.0</ele>
      </trkpt>
      <trkpt lat="46.11578" lon="13.10176">
        <ele>206.0</ele>
      </trkpt>
      <trkpt lat="46.11605" lon="13.10286">
        <ele>199.0</ele>
      </trkpt>
      <trkpt lat="46.11639" lon="13.10867">
        <ele>194.0</ele>
      </trkpt>
      <trkpt lat="46.11657" lon="13.11229">
        <ele>189.0</ele>
      </trkpt>
      <trkpt lat="46.11663" lon="13.1136">
        <ele>190.0</ele>
      </trkpt>
      <trkpt lat="46.11649" lon="13.1166">
        <ele>200.0</ele>
      </trkpt>
      <trkpt lat="46.11649" lon="13.11757">
        <ele>210.0</ele>
      </trkpt>
      <trkpt lat="46.11697" lon="13.11835">
        <ele>216.0</ele>
      </trkpt>
      <trkpt lat="46.11862" lon="13.1201">
        <ele>233.0</ele>
      </trkpt>
      <trkpt lat="46.11872" lon="13.12065">
        <ele>237.0</ele>
      </trkpt>
      <trkpt lat="46.11879" lon="13.12172">
        <ele>241.0</ele>
      </trkpt>
      <trkpt lat="46.11937" lon="13.12292">
        <ele>247.0</ele>
      </trkpt>
      <trkpt lat="46.11971" lon="13.12321">
        <ele>250.0</ele>
      </trkpt>
      <trkpt lat="46.11977" lon="13.12428">
        <ele>254.0</ele>
      </trkpt>
      <trkpt lat="46.12001" lon="13.12538">
        <ele>254.0</ele>
      </trkpt>
      <trkpt lat="46.12" lon="13.12625">
        <ele>253.0</ele>
      </trkpt>
      <trkpt lat="46.12049" lon="13.12757">
        <ele>250.0</ele>
      </trkpt>
      <trkpt lat="46.12071" lon="13.12853">
        <ele>248.0</ele>
      </trkpt>
      <trkpt lat="46.12058" lon="13.12932">
        <ele>247.0</ele>
      </trkpt>
      <trkpt lat="46.12029" lon="13.13015">
        <ele>245.0</ele>
      </trkpt>
      <trkpt lat="46.1203" lon="13.13048">
        <ele>244.0</ele>
      </trkpt>
      <trkpt lat="46.12048" lon="13.13093">
        <ele>242.0</ele>
      </trkpt>
      <trkpt lat="46.1209" lon="13.13518">
        <ele>231.0</ele>
      </trkpt>
      <trkpt lat="46.12093" lon="13.13928">
        <ele>223.0</ele>
      </trkpt>
      <trkpt lat="46.12134" lon="13.141">
        <ele>218.0</ele>
      </trkpt>
      <trkpt lat="46.12182" lon="13.14245">
        <ele>215.0</ele>
      </trkpt>
      <trkpt lat="46.1222" lon="13.14529">
        <ele>215.0</ele>
      </trkpt>
      <trkpt lat="46.12215" lon="13.14662">
        <ele>218.0</ele>
      </trkpt>
      <trkpt lat="46.12172" lon="13.14964">
        <ele>225.0</ele>
      </trkpt>
      <trkpt lat="46.12204" lon="13.15218">
        <ele>233.0</ele>
      </trkpt>
      <trkpt lat="46.12226" lon="13.15316">
        <ele>234.0</ele>
      </trkpt>
      <trkpt lat="46.12226" lon="13.15334">
        <ele>234.0</ele>
      </trkpt>
      <trkpt lat="46.12231" lon="13.15344">
        <ele>233.0</ele>
      </trkpt>
      <trkpt lat="46.12244" lon="13.15419">
        <ele>233.0</ele>
      </trkpt>
      <trkpt lat="46.12238" lon="13.15612">
        <ele>226.0</ele>
      </trkpt>
      <trkpt lat="46.12183" lon="13.15819">
        <ele>218.0</ele>
      </trkpt>
      <trkpt lat="46.12197" lon="13.16012">
        <ele>212.0</ele>
      </trkpt>
      <trkpt lat="46.12237" lon="13.16229">
        <ele>205.0</ele>
      </trkpt>
      <trkpt lat="46.12452" lon="13.16714">
        <ele>200.0</ele>
      </trkpt>
      <trkpt lat="46.12504" lon="13.16873">
        <ele>197.0</ele>
      </trkpt>
      <trkpt lat="46.1252" lon="13.17041">
        <ele>193.0</ele>
      </trkpt>
      <trkpt lat="46.12488" lon="13.17134">
        <ele>189.0</ele>
      </trkpt>
      <trkpt lat="46.12364" lon="13.17255">
        <ele>182.0</ele>
      </trkpt>
      <trkpt lat="46.12335" lon="13.17399">
        <ele>177.0</ele>
      </trkpt>
      <trkpt lat="46.12323" lon="13.17663">
        <ele>171.0</ele>
      </trkpt>
      <trkpt lat="46.1235" lon="13.17981">
        <ele>166.0</ele>
      </trkpt>
      <trkpt lat="46.12343" lon="13.18001">
        <ele>165.0</ele>
      </trkpt>
      <trkpt lat="46.12347" lon="13.18027">
        <ele>165.0</ele>
      </trkpt>
      <trkpt lat="46.12358" lon="13.18048">
        <ele>165.0</ele>
      </trkpt>
      <trkpt lat="46.12412" lon="13.18418">
        <ele>164.0</ele>
      </trkpt>
      <trkpt lat="46.12428" lon="13.18634">
        <ele>164.0</ele>
      </trkpt>
      <trkpt lat="46.1242" lon="13.18673">
        <ele>164.0</ele>
      </trkpt>
      <trkpt lat="46.12409" lon="13.18691">
        <ele>164.0</ele>
      </trkpt>
      <trkpt lat="46.1242" lon="13.18715">
        <ele>164.0</ele>
      </trkpt>
      <trkpt lat="46.12435" lon="13.1871">
        <ele>164.0</ele>
      </trkpt>
      <trkpt lat="46.12438" lon="13.18686">
        <ele>164.0</ele>
      </trkpt>
      <trkpt lat="46.12484" lon="13.18612">
        <ele>164.0</ele>
      </trkpt>
      <trkpt lat="46.12498" lon="13.18587">
        <ele>164.0</ele>
      </trkpt>
      <trkpt lat="46.12586" lon="13.18346">
        <ele>164.0</ele>
      </trkpt>
      <trkpt lat="46.12713" lon="13.18036">
        <ele>171.0</ele>
      </trkpt>
      <trkpt lat="46.12846" lon="13.17715">
        <ele>184.0</ele>
      </trkpt>
      <trkpt lat="46.12907" lon="13.17591">
        <ele>191.0</ele>
      </trkpt>
      <trkpt lat="46.12976" lon="13.17525">
        <ele>194.0</ele>
      </trkpt>
      <trkpt lat="46.13152" lon="13.17489">
        <ele>198.0</ele>
      </trkpt>
      <trkpt lat="46.13248" lon="13.17459">
        <ele>200.0</ele>
      </trkpt>
      <trkpt lat="46.1329" lon="13.17396">
        <ele>200.0</ele>
      </trkpt>
      <trkpt lat="46.1333" lon="13.17317">
        <ele>199.0</ele>
      </trkpt>
      <trkpt lat="46.13373" lon="13.17232">
        <ele>196.0</ele>
      </trkpt>
      <trkpt lat="46.13514" lon="13.171">
        <ele>192.0</ele>
      </trkpt>
      <trkpt lat="46.13684" lon="13.16967">
        <ele>186.0</ele>
      </trkpt>
      <trkpt lat="46.13714" lon="13.169">
        <ele>185.0</ele>
      </trkpt>
      <trkpt lat="46.13764" lon="13.16768">
        <ele>183.0</ele>
      </trkpt>
      <trkpt lat="46.13842" lon="13.16658">
        <ele>182.0</ele>
      </trkpt>
      <trkpt lat="46.13933" lon="13.16574">
        <ele>181.0</ele>
      </trkpt>
      <trkpt lat="46.13964" lon="13.16516">
        <ele>180.0</ele>
      </trkpt>
      <trkpt lat="46.14021" lon="13.16394">
        <ele>179.0</ele>
      </trkpt>
      <trkpt lat="46.14326" lon="13.16091">
        <ele>181.0</ele>
      </trkpt>
      <trkpt lat="46.1491" lon="13.15522">
        <ele>181.0</ele>
      </trkpt>
      <trkpt lat="46.15007" lon="13.15376">
        <ele>180.0</ele>
      </trkpt>
      <trkpt lat="46.15111" lon="13.15154">
        <ele>178.0</ele>
      </trkpt>
      <trkpt lat="46.15321" lon="13.14406">
        <ele>181.0</ele>
      </trkpt>
      <trkpt lat="46.15485" lon="13.13908">
        <ele>181.0</ele>
      </trkpt>
      <trkpt lat="46.15583" lon="13.13735">
        <ele>179.0</ele>
      </trkpt>
      <trkpt lat="46.15769" lon="13.13528">
        <ele>180.0</ele>
      </trkpt>
      <trkpt lat="46.15973" lon="13.13403">
        <ele>189.0</ele>
      </trkpt>
      <trkpt lat="46.16095" lon="13.13363">
        <ele>194.0</ele>
      </trkpt>
      <trkpt lat="46.16528" lon="13.13359">
        <ele>191.0</ele>
      </trkpt>
      <trkpt lat="46.16727" lon="13.13366">
        <ele>198.0</ele>
      </trkpt>
      <trkpt lat="46.16879" lon="13.13331">
        <ele>196.0</ele>
      </trkpt>
      <trkpt lat="46.17019" lon="13.13258">
        <ele>190.0</ele>
      </trkpt>
      <trkpt lat="46.17129" lon="13.13188">
        <ele>185.0</ele>
      </trkpt>
      <trkpt lat="46.17245" lon="13.13113">
        <ele>186.0</ele>
      </trkpt>
      <trkpt lat="46.1734" lon="13.13047">
        <ele>187.0</ele>
      </trkpt>
      <trkpt lat="46.17703" lon="13.12816">
        <ele>189.0</ele>
      </trkpt>
      <trkpt lat="46.17722" lon="13.12813">
        <ele>189.0</ele>
      </trkpt>
      <trkpt lat="46.1776" lon="13.12779">
        <ele>189.0</ele>
      </trkpt>
      <trkpt lat="46.18833" lon="13.12085">
        <ele>178.0</ele>
      </trkpt>
      <trkpt lat="46.19046" lon="13.12021">
        <ele>169.0</ele>
      </trkpt>
      <trkpt lat="46.19187" lon="13.12029">
        <ele>166.0</ele>
      </trkpt>
      <trkpt lat="46.19827" lon="13.1217">
        <ele>171.0</ele>
      </trkpt>
      <trkpt lat="46.19951" lon="13.12152">
        <ele>173.0</ele>
      </trkpt>
      <trkpt lat="46.20143" lon="13.12039">
        <ele>175.0</ele>
      </trkpt>
      <trkpt lat="46.20202" lon="13.11973">
        <ele>175.0</ele>
      </trkpt>
      <trkpt lat="46.20241" lon="13.11926">
        <ele>175.0</ele>
      </trkpt>
      <trkpt lat="46.20267" lon="13.11934">
        <ele>175.0</ele>
      </trkpt>
      <trkpt lat="46.20414" lon="13.12204">
        <ele>177.0</ele>
      </trkpt>
      <trkpt lat="46.20431" lon="13.12252">
        <ele>179.0</ele>
      </trkpt>
      <trkpt lat="46.20457" lon="13.1234">
        <ele>183.0</ele>
      </trkpt>
      <trkpt lat="46.20476" lon="13.1236">
        <ele>185.0</ele>
      </trkpt>
      <trkpt lat="46.20632" lon="13.12452">
        <ele>192.0</ele>
      </trkpt>
      <trkpt lat="46.20692" lon="13.12488">
        <ele>197.0</ele>
      </trkpt>
      <trkpt lat="46.2076" lon="13.12549">
        <ele>200.0</ele>
      </trkpt>
      <trkpt lat="46.20888" lon="13.12545">
        <ele>205.0</ele>
      </trkpt>
      <trkpt lat="46.20994" lon="13.12515">
        <ele>212.0</ele>
      </trkpt>
      <trkpt lat="46.21009" lon="13.12513">
        <ele>216.0</ele>
      </trkpt>
      <trkpt lat="46.21018" lon="13.12522">
        <ele>217.0</ele>
      </trkpt>
      <trkpt lat="46.21034" lon="13.12569">
        <ele>217.0</ele>
      </trkpt>
      <trkpt lat="46.21035" lon="13.12574">
        <ele>218.0</ele>
      </trkpt>
      <trkpt lat="46.21041" lon="13.12574">
        <ele>218.0</ele>
      </trkpt>
      <trkpt lat="46.21041" lon="13.12567">
        <ele>218.0</ele>
      </trkpt>
      <trkpt lat="46.2115" lon="13.12477">
        <ele>220.0</ele>
      </trkpt>
      <trkpt lat="46.21231" lon="13.12317">
        <ele>218.0</ele>
      </trkpt>
      <trkpt lat="46.21245" lon="13.1214">
        <ele>214.0</ele>
      </trkpt>
      <trkpt lat="46.21246" lon="13.12037">
        <ele>208.0</ele>
      </trkpt>
      <trkpt lat="46.21293" lon="13.11766">
        <ele>201.0</ele>
      </trkpt>
      <trkpt lat="46.21353" lon="13.11601">
        <ele>199.0</ele>
      </trkpt>
      <trkpt lat="46.21365" lon="13.11489">
        <ele>198.0</ele>
      </trkpt>
      <trkpt lat="46.21393" lon="13.11251">
        <ele>198.0</ele>
      </trkpt>
      <trkpt lat="46.21484" lon="13.11142">
        <ele>203.0</ele>
      </trkpt>
      <trkpt lat="46.21505" lon="13.11117">
        <ele>205.0</ele>
      </trkpt>
      <trkpt lat="46.21529" lon="13.11063">
        <ele>208.0</ele>
      </trkpt>
      <trkpt lat="46.21562" lon="13.11041">
        <ele>211.0</ele>
      </trkpt>
      <trkpt lat="46.21587" lon="13.11034">
        <ele>213.0</ele>
      </trkpt>
      <trkpt lat="46.21687" lon="13.1093">
        <ele>223.0</ele>
      </trkpt>
      <trkpt lat="46.21765" lon="13.10974">
        <ele>229.0</ele>
      </trkpt>
      <trkpt lat="46.21832" lon="13.11015">
        <ele>232.0</ele>
      </trkpt>
      <trkpt lat="46.21903" lon="13.11147">
        <ele>232.0</ele>
      </trkpt>
      <trkpt lat="46.22053" lon="13.11291">
        <ele>227.0</ele>
      </trkpt>
      <trkpt lat="46.22154" lon="13.11377">
        <ele>219.0</ele>
      </trkpt>
      <trkpt lat="46.22235" lon="13.11423">
        <ele>215.0</ele>
      </trkpt>
      <trkpt lat="46.22324" lon="13.1146">
        <ele>212.0</ele>
      </trkpt>
      <trkpt lat="46.22353" lon="13.11687">
        <ele>206.0</ele>
      </trkpt>
      <trkpt lat="46.22329" lon="13.11799">
        <ele>201.0</ele>
      </trkpt>
      <trkpt lat="46.22351" lon="13.11855">
        <ele>200.0</ele>
      </trkpt>
      <trkpt lat="46.22382" lon="13.11906">
        <ele>199.0</ele>
      </trkpt>
      <trkpt lat="46.22358" lon="13.12015">
        <ele>199.0</ele>
      </trkpt>
      <trkpt lat="46.2233" lon="13.12171">
        <ele>197.0</ele>
      </trkpt>
      <trkpt lat="46.22314" lon="13.12352">
        <ele>195.0</ele>
      </trkpt>
      <trkpt lat="46.22244" lon="13.12448">
        <ele>194.0</ele>
      </trkpt>
      <trkpt lat="46.22094" lon="13.12656">
        <ele>194.0</ele>
      </trkpt>
      <trkpt lat="46.21924" lon="13.12771">
        <ele>198.0</ele>
      </trkpt>
      <trkpt lat="46.21569" lon="13.1289">
        <ele>200.0</ele>
      </trkpt>
      <trkpt lat="46.21369" lon="13.12883">
        <ele>201.0</ele>
      </trkpt>
      <trkpt lat="46.21308" lon="13.12925">
        <ele>199.0</ele>
      </trkpt>
      <trkpt lat="46.21325" lon="13.13054">
        <ele>196.0</ele>
      </trkpt>
      <trkpt lat="46.21273" lon="13.13139">
        <ele>194.0</ele>
      </trkpt>
      <trkpt lat="46.21207" lon="13.13185">
        <ele>192.0</ele>
      </trkpt>
      <trkpt lat="46.21166" lon="13.13215">
        <ele>191.0</ele>
      </trkpt>
      <trkpt lat="46.21151" lon="13.13279">
        <ele>190.0</ele>
      </trkpt>
      <trkpt lat="46.21121" lon="13.1338">
        <ele>189.0</ele>
      </trkpt>
      <trkpt lat="46.21077" lon="13.13505">
        <ele>187.0</ele>
      </trkpt>
      <trkpt lat="46.21064" lon="13.13592">
        <ele>187.0</ele>
      </trkpt>
      <trkpt lat="46.2105" lon="13.13631">
        <ele>187.0</ele>
      </trkpt>
      <trkpt lat="46.20903" lon="13.13875">
        <ele>188.0</ele>
      </trkpt>
      <trkpt lat="46.20999" lon="13.14058">
        <ele>189.0</ele>
      </trkpt>
      <trkpt lat="46.21092" lon="13.14237">
        <ele>187.0</ele>
      </trkpt>
      <trkpt lat="46.21111" lon="13.1428">
        <ele>187.0</ele>
      </trkpt>
      <trkpt lat="46.21169" lon="13.14433">
        <ele>189.0</ele>
      </trkpt>
      <trkpt lat="46.2135" lon="13.14939">
        <ele>191.0</ele>
      </trkpt>
      <trkpt lat="46.21374" lon="13.15174">
        <ele>193.0</ele>
      </trkpt>
      <trkpt lat="46.21397" lon="13.15496">
        <ele>196.0</ele>
      </trkpt>
      <trkpt lat="46.21465" lon="13.16001">
        <ele>196.0</ele>
      </trkpt>
      <trkpt lat="46.21536" lon="13.1627">
        <ele>194.0</ele>
      </trkpt>
      <trkpt lat="46.21791" lon="13.16789">
        <ele>195.0</ele>
      </trkpt>
      <trkpt lat="46.22018" lon="13.17652">
        <ele>193.0</ele>
      </trkpt>
      <trkpt lat="46.22044" lon="13.17774">
        <ele>192.0</ele>
      </trkpt>
      <trkpt lat="46.22049" lon="13.17847">
        <ele>193.0</ele>
      </trkpt>
      <trkpt lat="46.22039" lon="13.17919">
        <ele>193.0</ele>
      </trkpt>
      <trkpt lat="46.22041" lon="13.17949">
        <ele>194.0</ele>
      </trkpt>
      <trkpt lat="46.22035" lon="13.17995">
        <ele>194.0</ele>
      </trkpt>
      <trkpt lat="46.21934" lon="13.18632">
        <ele>197.0</ele>
      </trkpt>
      <trkpt lat="46.21802" lon="13.1942">
        <ele>205.0</ele>
      </trkpt>
      <trkpt lat="46.21752" lon="13.19712">
        <ele>210.0</ele>
      </trkpt>
      <trkpt lat="46.21706" lon="13.19975">
        <ele>212.0</ele>
      </trkpt>
      <trkpt lat="46.21682" lon="13.20133">
        <ele>214.0</ele>
      </trkpt>
      <trkpt lat="46.21736" lon="13.20249">
        <ele>216.0</ele>
      </trkpt>
      <trkpt lat="46.21761" lon="13.20253">
        <ele>218.0</ele>
      </trkpt>
      <trkpt lat="46.21796" lon="13.20264">
        <ele>218.0</ele>
      </trkpt>
      <trkpt lat="46.21843" lon="13.20245">
        <ele>219.0</ele>
      </trkpt>
      <trkpt lat="46.21898" lon="13.20238">
        <ele>221.0</ele>
      </trkpt>
      <trkpt lat="46.21915" lon="13.20224">
        <ele>222.0</ele>
      </trkpt>
      <trkpt lat="46.21957" lon="13.20167">
        <ele>224.0</ele>
      </trkpt>
      <trkpt lat="46.21979" lon="13.20138">
        <ele>225.0</ele>
      </trkpt>
      <trkpt lat="46.22076" lon="13.1996">
        <ele>235.0</ele>
      </trkpt>
      <trkpt lat="46.22131" lon="13.19936">
        <ele>241.0</ele>
      </trkpt>
      <trkpt lat="46.22179" lon="13.19887">
        <ele>247.0</ele>
      </trkpt>
      <trkpt lat="46.22261" lon="13.19838">
        <ele>258.0</ele>
      </trkpt>
      <trkpt lat="46.22293" lon="13.19854">
        <ele>263.0</ele>
      </trkpt>
      <trkpt lat="46.22375" lon="13.19765">
        <ele>270.0</ele>
      </trkpt>
      <trkpt lat="46.22487" lon="13.19697">
        <ele>275.0</ele>
      </trkpt>
      <trkpt lat="46.22553" lon="13.19619">
        <ele>276.0</ele>
      </trkpt>
      <trkpt lat="46.22707" lon="13.19481">
        <ele>270.0</ele>
      </trkpt>
      <trkpt lat="46.22763" lon="13.194">
        <ele>269.0</ele>
      </trkpt>
      <trkpt lat="46.22799" lon="13.19389">
        <ele>270.0</ele>
      </trkpt>
      <trkpt lat="46.22889" lon="13.19391">
        <ele>270.0</ele>
      </trkpt>
      <trkpt lat="46.22925" lon="13.19281">
        <ele>264.0</ele>
      </trkpt>
      <trkpt lat="46.2295" lon="13.19246">
        <ele>259.0</ele>
      </trkpt>
      <trkpt lat="46.22978" lon="13.19193">
        <ele>254.0</ele>
      </trkpt>
      <trkpt lat="46.23031" lon="13.19168">
        <ele>249.0</ele>
      </trkpt>
      <trkpt lat="46.23053" lon="13.19108">
        <ele>244.0</ele>
      </trkpt>
      <trkpt lat="46.23032" lon="13.189">
        <ele>234.0</ele>
      </trkpt>
      <trkpt lat="46.22964" lon="13.18801">
        <ele>224.0</ele>
      </trkpt>
      <trkpt lat="46.2297" lon="13.1874">
        <ele>218.0</ele>
      </trkpt>
      <trkpt lat="46.23003" lon="13.18734">
        <ele>215.0</ele>
      </trkpt>
      <trkpt lat="46.23055" lon="13.18761">
        <ele>212.0</ele>
      </trkpt>
      <trkpt lat="46.23073" lon="13.18713">
        <ele>210.0</ele>
      </trkpt>
      <trkpt lat="46.23097" lon="13.18508">
        <ele>207.0</ele>
      </trkpt>
      <trkpt lat="46.23176" lon="13.18337">
        <ele>208.0</ele>
      </trkpt>
      <trkpt lat="46.23185" lon="13.18219">
        <ele>208.0</ele>
      </trkpt>
      <trkpt lat="46.23198" lon="13.18065">
        <ele>208.0</ele>
      </trkpt>
      <trkpt lat="46.23163" lon="13.17968">
        <ele>207.0</ele>
      </trkpt>
      <trkpt lat="46.23143" lon="13.17801">
        <ele>205.0</ele>
      </trkpt>
      <trkpt lat="46.23102" lon="13.17638">
        <ele>201.0</ele>
      </trkpt>
      <trkpt lat="46.23014" lon="13.17522">
        <ele>197.0</ele>
      </trkpt>
      <trkpt lat="46.2293" lon="13.17397">
        <ele>192.0</ele>
      </trkpt>
      <trkpt lat="46.22914" lon="13.17362">
        <ele>191.0</ele>
      </trkpt>
      <trkpt lat="46.22936" lon="13.17336">
        <ele>191.0</ele>
      </trkpt>
      <trkpt lat="46.23008" lon="13.17206">
        <ele>191.0</ele>
      </trkpt>
      <trkpt lat="46.23256" lon="13.16741">
        <ele>193.0</ele>
      </trkpt>
      <trkpt lat="46.2338" lon="13.16469">
        <ele>194.0</ele>
      </trkpt>
      <trkpt lat="46.23525" lon="13.15998">
        <ele>197.0</ele>
      </trkpt>
      <trkpt lat="46.23604" lon="13.15833">
        <ele>199.0</ele>
      </trkpt>
      <trkpt lat="46.23708" lon="13.15736">
        <ele>204.0</ele>
      </trkpt>
      <trkpt lat="46.23836" lon="13.15596">
        <ele>206.0</ele>
      </trkpt>
      <trkpt lat="46.2391" lon="13.15563">
        <ele>207.0</ele>
      </trkpt>
      <trkpt lat="46.23974" lon="13.15538">
        <ele>210.0</ele>
      </trkpt>
      <trkpt lat="46.24024" lon="13.15511">
        <ele>212.0</ele>
      </trkpt>
      <trkpt lat="46.24142" lon="13.15451">
        <ele>215.0</ele>
      </trkpt>
      <trkpt lat="46.24235" lon="13.15406">
        <ele>216.0</ele>
      </trkpt>
      <trkpt lat="46.24269" lon="13.15392">
        <ele>216.0</ele>
      </trkpt>
      <trkpt lat="46.24351" lon="13.15379">
        <ele>217.0</ele>
      </trkpt>
      <trkpt lat="46.24378" lon="13.15394">
        <ele>218.0</ele>
      </trkpt>
      <trkpt lat="46.24388" lon="13.15415">
        <ele>218.0</ele>
      </trkpt>
      <trkpt lat="46.24413" lon="13.15425">
        <ele>218.0</ele>
      </trkpt>
      <trkpt lat="46.24485" lon="13.15525">
        <ele>220.0</ele>
      </trkpt>
      <trkpt lat="46.24527" lon="13.15559">
        <ele>222.0</ele>
      </trkpt>
      <trkpt lat="46.24604" lon="13.1555">
        <ele>223.0</ele>
      </trkpt>
      <trkpt lat="46.24702" lon="13.15614">
        <ele>227.0</ele>
      </trkpt>
      <trkpt lat="46.24802" lon="13.15785">
        <ele>233.0</ele>
      </trkpt>
      <trkpt lat="46.24838" lon="13.15865">
        <ele>237.0</ele>
      </trkpt>
      <trkpt lat="46.24887" lon="13.15942">
        <ele>242.0</ele>
      </trkpt>
      <trkpt lat="46.24891" lon="13.15954">
        <ele>245.0</ele>
      </trkpt>
      <trkpt lat="46.24889" lon="13.15969">
        <ele>246.0</ele>
      </trkpt>
      <trkpt lat="46.24862" lon="13.15995">
        <ele>248.0</ele>
      </trkpt>
      <trkpt lat="46.24844" lon="13.16011">
        <ele>252.0</ele>
      </trkpt>
      <trkpt lat="46.24843" lon="13.16024">
        <ele>254.0</ele>
      </trkpt>
      <trkpt lat="46.24853" lon="13.16033">
        <ele>255.0</ele>
      </trkpt>
      <trkpt lat="46.24875" lon="13.1603">
        <ele>257.0</ele>
      </trkpt>
      <trkpt lat="46.249" lon="13.16037">
        <ele>261.0</ele>
      </trkpt>
      <trkpt lat="46.24908" lon="13.16048">
        <ele>262.0</ele>
      </trkpt>
      <trkpt lat="46.24905" lon="13.16062">
        <ele>263.0</ele>
      </trkpt>
      <trkpt lat="46.2488" lon="13.16069">
        <ele>264.0</ele>
      </trkpt>
      <trkpt lat="46.24867" lon="13.16078">
        <ele>265.0</ele>
      </trkpt>
      <trkpt lat="46.24868" lon="13.16097">
        <ele>267.0</ele>
      </trkpt>
      <trkpt lat="46.24882" lon="13.16103">
        <ele>267.0</ele>
      </trkpt>
      <trkpt lat="46.24903" lon="13.16117">
        <ele>269.0</ele>
      </trkpt>
      <trkpt lat="46.2494" lon="13.16154">
        <ele>271.0</ele>
      </trkpt>
      <trkpt lat="46.24985" lon="13.16175">
        <ele>274.0</ele>
      </trkpt>
      <trkpt lat="46.25018" lon="13.16209">
        <ele>279.0</ele>
      </trkpt>
      <trkpt lat="46.25063" lon="13.16263">
        <ele>292.0</ele>
      </trkpt>
      <trkpt lat="46.25073" lon="13.16265">
        <ele>296.0</ele>
      </trkpt>
      <trkpt lat="46.25086" lon="13.16267">
        <ele>299.0</ele>
      </trkpt>
      <trkpt lat="46.25091" lon="13.16277">
        <ele>300.0</ele>
      </trkpt>
      <trkpt lat="46.25091" lon="13.16289">
        <ele>302.0</ele>
      </trkpt>
      <trkpt lat="46.25082" lon="13.16297">
        <ele>304.0</ele>
      </trkpt>
      <trkpt lat="46.25071" lon="13.16292">
        <ele>306.0</ele>
      </trkpt>
      <trkpt lat="46.25051" lon="13.1629">
        <ele>310.0</ele>
      </trkpt>
      <trkpt lat="46.25035" lon="13.16296">
        <ele>313.0</ele>
      </trkpt>
      <trkpt lat="46.25028" lon="13.16303">
        <ele>314.0</ele>
      </trkpt>
      <trkpt lat="46.25029" lon="13.16318">
        <ele>316.0</ele>
      </trkpt>
      <trkpt lat="46.25076" lon="13.16416">
        <ele>321.0</ele>
      </trkpt>
      <trkpt lat="46.25088" lon="13.16435">
        <ele>327.0</ele>
      </trkpt>
      <trkpt lat="46.25124" lon="13.16449">
        <ele>333.0</ele>
      </trkpt>
      <trkpt lat="46.25153" lon="13.16486">
        <ele>337.0</ele>
      </trkpt>
      <trkpt lat="46.25166" lon="13.16499">
        <ele>341.0</ele>
      </trkpt>
      <trkpt lat="46.25197" lon="13.165">
        <ele>344.0</ele>
      </trkpt>
      <trkpt lat="46.25209" lon="13.16504">
        <ele>347.0</ele>
      </trkpt>
      <trkpt lat="46.25225" lon="13.16523">
        <ele>350.0</ele>
      </trkpt>
      <trkpt lat="46.2523" lon="13.16546">
        <ele>353.0</ele>
      </trkpt>
      <trkpt lat="46.25229" lon="13.16563">
        <ele>355.0</ele>
      </trkpt>
      <trkpt lat="46.25194" lon="13.1662">
        <ele>360.0</ele>
      </trkpt>
      <trkpt lat="46.2519" lon="13.16638">
        <ele>363.0</ele>
      </trkpt>
      <trkpt lat="46.25209" lon="13.16694">
        <ele>368.0</ele>
      </trkpt>
      <trkpt lat="46.25219" lon="13.1671">
        <ele>371.0</ele>
      </trkpt>
      <trkpt lat="46.25233" lon="13.16718">
        <ele>373.0</ele>
      </trkpt>
      <trkpt lat="46.25259" lon="13.16741">
        <ele>377.0</ele>
      </trkpt>
      <trkpt lat="46.25273" lon="13.16744">
        <ele>379.0</ele>
      </trkpt>
      <trkpt lat="46.25306" lon="13.16746">
        <ele>383.0</ele>
      </trkpt>
      <trkpt lat="46.2532" lon="13.16719">
        <ele>386.0</ele>
      </trkpt>
      <trkpt lat="46.25337" lon="13.16668">
        <ele>387.0</ele>
      </trkpt>
      <trkpt lat="46.25464" lon="13.16576">
        <ele>380.0</ele>
      </trkpt>
      <trkpt lat="46.25473" lon="13.16557">
        <ele>377.0</ele>
      </trkpt>
      <trkpt lat="46.25467" lon="13.16547">
        <ele>375.0</ele>
      </trkpt>
      <trkpt lat="46.25416" lon="13.16534">
        <ele>370.0</ele>
      </trkpt>
      <trkpt lat="46.25371" lon="13.16532">
        <ele>364.0</ele>
      </trkpt>
      <trkpt lat="46.2544" lon="13.1647">
        <ele>357.0</ele>
      </trkpt>
      <trkpt lat="46.25538" lon="13.16391">
        <ele>349.0</ele>
      </trkpt>
      <trkpt lat="46.2554" lon="13.16327">
        <ele>345.0</ele>
      </trkpt>
      <trkpt lat="46.25596" lon="13.1627">
        <ele>340.0</ele>
      </trkpt>
      <trkpt lat="46.25604" lon="13.16256">
        <ele>338.0</ele>
      </trkpt>
      <trkpt lat="46.25584" lon="13.16243">
        <ele>336.0</ele>
      </trkpt>
      <trkpt lat="46.25529" lon="13.1624">
        <ele>332.0</ele>
      </trkpt>
      <trkpt lat="46.25532" lon="13.16219">
        <ele>330.0</ele>
      </trkpt>
      <trkpt lat="46.2559" lon="13.16187">
        <ele>326.0</ele>
      </trkpt>
      <trkpt lat="46.25627" lon="13.16123">
        <ele>320.0</ele>
      </trkpt>
      <trkpt lat="46.25622" lon="13.16093">
        <ele>316.0</ele>
      </trkpt>
      <trkpt lat="46.25604" lon="13.1609">
        <ele>314.0</ele>
      </trkpt>
      <trkpt lat="46.25575" lon="13.1614">
        <ele>310.0</ele>
      </trkpt>
      <trkpt lat="46.25559" lon="13.16139">
        <ele>309.0</ele>
      </trkpt>
      <trkpt lat="46.25561" lon="13.16112">
        <ele>308.0</ele>
      </trkpt>
      <trkpt lat="46.2559" lon="13.16055">
        <ele>307.0</ele>
      </trkpt>
      <trkpt lat="46.25619" lon="13.16036">
        <ele>306.0</ele>
      </trkpt>
      <trkpt lat="46.25649" lon="13.16073">
        <ele>305.0</ele>
      </trkpt>
      <trkpt lat="46.25707" lon="13.16158">
        <ele>301.0</ele>
      </trkpt>
      <trkpt lat="46.25722" lon="13.1614">
        <ele>297.0</ele>
      </trkpt>
      <trkpt lat="46.25724" lon="13.16075">
        <ele>294.0</ele>
      </trkpt>
      <trkpt lat="46.25728" lon="13.15985">
        <ele>284.0</ele>
      </trkpt>
      <trkpt lat="46.25748" lon="13.15928">
        <ele>279.0</ele>
      </trkpt>
      <trkpt lat="46.25807" lon="13.1585">
        <ele>274.0</ele>
      </trkpt>
      <trkpt lat="46.2586" lon="13.15812">
        <ele>269.0</ele>
      </trkpt>
      <trkpt lat="46.25886" lon="13.1577">
        <ele>266.0</ele>
      </trkpt>
      <trkpt lat="46.25916" lon="13.15738">
        <ele>266.0</ele>
      </trkpt>
      <trkpt lat="46.25997" lon="13.15613">
        <ele>268.0</ele>
      </trkpt>
      <trkpt lat="46.26" lon="13.15605">
        <ele>269.0</ele>
      </trkpt>
      <trkpt lat="46.26008" lon="13.1551">
        <ele>270.0</ele>
      </trkpt>
      <trkpt lat="46.26105" lon="13.1531">
        <ele>271.0</ele>
      </trkpt>
      <trkpt lat="46.2613" lon="13.15264">
        <ele>272.0</ele>
      </trkpt>
      <trkpt lat="46.2617" lon="13.15215">
        <ele>272.0</ele>
      </trkpt>
      <trkpt lat="46.26261" lon="13.15156">
        <ele>271.0</ele>
      </trkpt>
      <trkpt lat="46.26398" lon="13.15139">
        <ele>273.0</ele>
      </trkpt>
      <trkpt lat="46.2646" lon="13.15128">
        <ele>276.0</ele>
      </trkpt>
      <trkpt lat="46.26472" lon="13.15131">
        <ele>276.0</ele>
      </trkpt>
      <trkpt lat="46.26506" lon="13.15156">
        <ele>276.0</ele>
      </trkpt>
      <trkpt lat="46.26522" lon="13.15158">
        <ele>276.0</ele>
      </trkpt>
      <trkpt lat="46.26537" lon="13.15149">
        <ele>276.0</ele>
      </trkpt>
      <trkpt lat="46.26567" lon="13.15108">
        <ele>275.0</ele>
      </trkpt>
      <trkpt lat="46.26623" lon="13.15032">
        <ele>275.0</ele>
      </trkpt>
      <trkpt lat="46.26762" lon="13.14926">
        <ele>275.0</ele>
      </trkpt>
      <trkpt lat="46.26877" lon="13.14853">
        <ele>274.0</ele>
      </trkpt>
      <trkpt lat="46.27085" lon="13.14678">
        <ele>270.0</ele>
      </trkpt>
      <trkpt lat="46.27137" lon="13.14648">
        <ele>268.0</ele>
      </trkpt>
      <trkpt lat="46.2721" lon="13.14579">
        <ele>266.0</ele>
      </trkpt>
      <trkpt lat="46.27298" lon="13.1451">
        <ele>258.0</ele>
      </trkpt>
      <trkpt lat="46.27432" lon="13.14444">
        <ele>252.0</ele>
      </trkpt>
      <trkpt lat="46.27438" lon="13.14433">
        <ele>251.0</ele>
      </trkpt>
      <trkpt lat="46.27475" lon="13.14412">
        <ele>252.0</ele>
      </trkpt>
      <trkpt lat="46.27509" lon="13.14386">
        <ele>254.0</ele>
      </trkpt>
      <trkpt lat="46.27529" lon="13.1436">
        <ele>256.0</ele>
      </trkpt>
      <trkpt lat="46.2754" lon="13.14308">
        <ele>257.0</ele>
      </trkpt>
      <trkpt lat="46.27539" lon="13.14279">
        <ele>257.0</ele>
      </trkpt>
      <trkpt lat="46.27522" lon="13.14277">
        <ele>255.0</ele>
      </trkpt>
      <trkpt lat="46.27506" lon="13.14269">
        <ele>253.0</ele>
      </trkpt>
      <trkpt lat="46.27475" lon="13.14226">
        <ele>249.0</ele>
      </trkpt>
      <trkpt lat="46.27467" lon="13.14211">
        <ele>247.0</ele>
      </trkpt>
      <trkpt lat="46.27463" lon="13.14193">
        <ele>246.0</ele>
      </trkpt>
      <trkpt lat="46.27462" lon="13.1416">
        <ele>243.0</ele>
      </trkpt>
      <trkpt lat="46.27457" lon="13.14133">
        <ele>241.0</ele>
      </trkpt>
      <trkpt lat="46.27444" lon="13.14078">
        <ele>237.0</ele>
      </trkpt>
      <trkpt lat="46.27452" lon="13.13997">
        <ele>232.0</ele>
      </trkpt>
      <trkpt lat="46.27454" lon="13.13987">
        <ele>229.0</ele>
      </trkpt>
      <trkpt lat="46.2745" lon="13.1395">
        <ele>226.0</ele>
      </trkpt>
      <trkpt lat="46.27428" lon="13.1387">
        <ele>221.0</ele>
      </trkpt>
      <trkpt lat="46.27446" lon="13.13759">
        <ele>218.0</ele>
      </trkpt>
      <trkpt lat="46.27478" lon="13.13684">
        <ele>216.0</ele>
      </trkpt>
      <trkpt lat="46.27524" lon="13.13611">
        <ele>215.0</ele>
      </trkpt>
      <trkpt lat="46.27628" lon="13.13507">
        <ele>215.0</ele>
      </trkpt>
      <trkpt lat="46.2763" lon="13.13499">
        <ele>215.0</ele>
      </trkpt>
      <trkpt lat="46.27646" lon="13.13485">
        <ele>215.0</ele>
      </trkpt>
      <trkpt lat="46.2768" lon="13.13444">
        <ele>215.0</ele>
      </trkpt>
      <trkpt lat="46.27754" lon="13.13357">
        <ele>213.0</ele>
      </trkpt>
      <trkpt lat="46.27772" lon="13.13309">
        <ele>211.0</ele>
      </trkpt>
      <trkpt lat="46.27779" lon="13.13274">
        <ele>210.0</ele>
      </trkpt>
      <trkpt lat="46.27772" lon="13.13215">
        <ele>209.0</ele>
      </trkpt>
      <trkpt lat="46.27773" lon="13.13191">
        <ele>208.0</ele>
      </trkpt>
      <trkpt lat="46.27788" lon="13.1315">
        <ele>207.0</ele>
      </trkpt>
      <trkpt lat="46.27831" lon="13.13034">
        <ele>204.0</ele>
      </trkpt>
      <trkpt lat="46.27881" lon="13.12952">
        <ele>201.0</ele>
      </trkpt>
      <trkpt lat="46.27902" lon="13.12907">
        <ele>199.0</ele>
      </trkpt>
      <trkpt lat="46.27905" lon="13.12845">
        <ele>197.0</ele>
      </trkpt>
      <trkpt lat="46.279" lon="13.12756">
        <ele>194.0</ele>
      </trkpt>
      <trkpt lat="46.27901" lon="13.12636">
        <ele>195.0</ele>
      </trkpt>
      <trkpt lat="46.27856" lon="13.12652">
        <ele>196.0</ele>
      </trkpt>
      <trkpt lat="46.27744" lon="13.12705">
        <ele>198.0</ele>
      </trkpt>
      <trkpt lat="46.27606" lon="13.12778">
        <ele>197.0</ele>
      </trkpt>
      <trkpt lat="46.27535" lon="13.12816">
        <ele>196.0</ele>
      </trkpt>
      <trkpt lat="46.27466" lon="13.12851">
        <ele>196.0</ele>
      </trkpt>
      <trkpt lat="46.27443" lon="13.12855">
        <ele>196.0</ele>
      </trkpt>
      <trkpt lat="46.27436" lon="13.12856">
        <ele>196.0</ele>
      </trkpt>
      <trkpt lat="46.27421" lon="13.12869">
        <ele>196.0</ele>
      </trkpt>
      <trkpt lat="46.27383" lon="13.12876">
        <ele>196.0</ele>
      </trkpt>
      <trkpt lat="46.27336" lon="13.12885">
        <ele>194.0</ele>
      </trkpt>
      <trkpt lat="46.27249" lon="13.12918">
        <ele>193.0</ele>
      </trkpt>
      <trkpt lat="46.27189" lon="13.12941">
        <ele>191.0</ele>
      </trkpt>
      <trkpt lat="46.27184" lon="13.12939">
        <ele>191.0</ele>
      </trkpt>
      <trkpt lat="46.27179" lon="13.12948">
        <ele>191.0</ele>
      </trkpt>
      <trkpt lat="46.27183" lon="13.12963">
        <ele>191.0</ele>
      </trkpt>
      <trkpt lat="46.27194" lon="13.13092">
        <ele>191.0</ele>
      </trkpt>
      <trkpt lat="46.26915" lon="13.13001">
        <ele>189.0</ele>
      </trkpt>
      <trkpt lat="46.26691" lon="13.12974">
        <ele>188.0</ele>
      </trkpt>
      <trkpt lat="46.2647" lon="13.12977">
        <ele>185.0</ele>
      </trkpt>
      <trkpt lat="46.26412" lon="13.12973">
        <ele>185.0</ele>
      </trkpt>
      <trkpt lat="46.26391" lon="13.12924">
        <ele>184.0</ele>
      </trkpt>
      <trkpt lat="46.26362" lon="13.12884">
        <ele>184.0</ele>
      </trkpt>
      <trkpt lat="46.26219" lon="13.12771">
        <ele>183.0</ele>
      </trkpt>
      <trkpt lat="46.26002" lon="13.12517">
        <ele>182.0</ele>
      </trkpt>
      <trkpt lat="46.2561" lon="13.11972">
        <ele>182.0</ele>
      </trkpt>
      <trkpt lat="46.25391" lon="13.11769">
        <ele>181.0</ele>
      </trkpt>
      <trkpt lat="46.25223" lon="13.11595">
        <ele>178.0</ele>
      </trkpt>
      <trkpt lat="46.25222" lon="13.11575">
        <ele>177.0</ele>
      </trkpt>
      <trkpt lat="46.2522" lon="13.11558">
        <ele>177.0</ele>
      </trkpt>
      <trkpt lat="46.25205" lon="13.11552">
        <ele>176.0</ele>
      </trkpt>
      <trkpt lat="46.25194" lon="13.11566">
        <ele>176.0</ele>
      </trkpt>
      <trkpt lat="46.25166" lon="13.11577">
        <ele>176.0</ele>
      </trkpt>
      <trkpt lat="46.2507" lon="13.11592">
        <ele>177.0</ele>
      </trkpt>
      <trkpt lat="46.24812" lon="13.11619">
        <ele>177.0</ele>
      </trkpt>
      <trkpt lat="46.24518" lon="13.11649">
        <ele>177.0</ele>
      </trkpt>
      <trkpt lat="46.24278" lon="13.11653">
        <ele>177.0</ele>
      </trkpt>
      <trkpt lat="46.24166" lon="13.11629">
        <ele>176.0</ele>
      </trkpt>
      <trkpt lat="46.23756" lon="13.11579">
        <ele>174.0</ele>
      </trkpt>
      <trkpt lat="46.23713" lon="13.11563">
        <ele>172.0</ele>
      </trkpt>
      <trkpt lat="46.23712" lon="13.11521">
        <ele>172.0</ele>
      </trkpt>
      <trkpt lat="46.2375" lon="13.11299">
        <ele>174.0</ele>
      </trkpt>
      <trkpt lat="46.23631" lon="13.11295">
        <ele>173.0</ele>
      </trkpt>
      <trkpt lat="46.23519" lon="13.11348">
        <ele>172.0</ele>
      </trkpt>
      <trkpt lat="46.23484" lon="13.11346">
        <ele>171.0</ele>
      </trkpt>
      <trkpt lat="46.23378" lon="13.11237">
        <ele>169.0</ele>
      </trkpt>
      <trkpt lat="46.23247" lon="13.11105">
        <ele>171.0</ele>
      </trkpt>
      <trkpt lat="46.22846" lon="13.10827">
        <ele>172.0</ele>
      </trkpt>
      <trkpt lat="46.22789" lon="13.10814">
        <ele>172.0</ele>
      </trkpt>
      <trkpt lat="46.2276" lon="13.10839">
        <ele>173.0</ele>
      </trkpt>
      <trkpt lat="46.22676" lon="13.10951">
        <ele>174.0</ele>
      </trkpt>
      <trkpt lat="46.22529" lon="13.10884">
        <ele>177.0</ele>
      </trkpt>
      <trkpt lat="46.22432" lon="13.10834">
        <ele>176.0</ele>
      </trkpt>
      <trkpt lat="46.22292" lon="13.10847">
        <ele>174.0</ele>
      </trkpt>
      <trkpt lat="46.22132" lon="13.10673">
        <ele>173.0</ele>
      </trkpt>
      <trkpt lat="46.21944" lon="13.106">
        <ele>169.0</ele>
      </trkpt>
      <trkpt lat="46.21683" lon="13.10403">
        <ele>167.0</ele>
      </trkpt>
      <trkpt lat="46.21524" lon="13.10241">
        <ele>168.0</ele>
      </trkpt>
      <trkpt lat="46.2134" lon="13.10152">
        <ele>168.0</ele>
      </trkpt>
      <trkpt lat="46.21297" lon="13.10151">
        <ele>168.0</ele>
      </trkpt>
      <trkpt lat="46.21268" lon="13.10175">
        <ele>167.0</ele>
      </trkpt>
      <trkpt lat="46.21155" lon="13.10352">
        <ele>165.0</ele>
      </trkpt>
      <trkpt lat="46.21087" lon="13.10444">
        <ele>165.0</ele>
      </trkpt>
      <trkpt lat="46.20876" lon="13.1068">
        <ele>168.0</ele>
      </trkpt>
      <trkpt lat="46.20818" lon="13.10721">
        <ele>174.0</ele>
      </trkpt>
      <trkpt lat="46.20788" lon="13.10787">
        <ele>176.0</ele>
      </trkpt>
      <trkpt lat="46.2069" lon="13.11065">
        <ele>177.0</ele>
      </trkpt>
      <trkpt lat="46.20642" lon="13.11167">
        <ele>178.0</ele>
      </trkpt>
      <trkpt lat="46.20563" lon="13.11316">
        <ele>178.0</ele>
      </trkpt>
      <trkpt lat="46.20323" lon="13.11773">
        <ele>176.0</ele>
      </trkpt>
      <trkpt lat="46.2026" lon="13.11877">
        <ele>176.0</ele>
      </trkpt>
      <trkpt lat="46.20246" lon="13.11878">
        <ele>175.0</ele>
      </trkpt>
      <trkpt lat="46.20237" lon="13.11893">
        <ele>175.0</ele>
      </trkpt>
      <trkpt lat="46.20238" lon="13.11911">
        <ele>175.0</ele>
      </trkpt>
      <trkpt lat="46.20256" lon="13.11925">
        <ele>175.0</ele>
      </trkpt>
      <trkpt lat="46.20339" lon="13.12063">
        <ele>174.0</ele>
      </trkpt>
      <trkpt lat="46.20422" lon="13.12224">
        <ele>178.0</ele>
      </trkpt>
      <trkpt lat="46.20452" lon="13.12328">
        <ele>182.0</ele>
      </trkpt>
      <trkpt lat="46.20465" lon="13.1235">
        <ele>184.0</ele>
      </trkpt>
      <trkpt lat="46.20589" lon="13.12432">
        <ele>189.0</ele>
      </trkpt>
      <trkpt lat="46.20672" lon="13.12475">
        <ele>195.0</ele>
      </trkpt>
    </trkseg>
  </trk>
</gpx>