<?xml version="1.0" encoding="UTF-8"?>
<gpx xmlns="http://www.topografix.com/GPX/1/0" xmlns:xsi="http://www.w3.org/2001/XMLSchema-instance" xsi:schemaLocation="http://www.topografix.com/GPX/1/0 http://www.topografix.com/GPX/1/0/gpx.xsd" version="1.0" creator="GPSBabel - https://www.gpsbabel.org">
  <time>2025-12-11T11:28:41.290000Z</time>
  <bounds minlat="44.13265" maxlat="44.49308" minlon="10.81435" maxlon="12.3052" />
  <trk>
    <trkseg>
      <trkpt lat="44.2544" lon="12.3052">
        <ele>-3.0</ele>
      </trkpt>
      <trkpt lat="44.25453" lon="12.30196">
        <ele>-3.0</ele>
      </trkpt>
      <trkpt lat="44.25675" lon="12.29057">
      </trkpt>
      <trkpt lat="44.25811" lon="12.28205">
        <ele>1.0</ele>
      </trkpt>
      <trkpt lat="44.25709" lon="12.27864">
        <ele>2.0</ele>
      </trkpt>
      <trkpt lat="44.25671" lon="12.27437">
        <ele>3.0</ele>
      </trkpt>
      <trkpt lat="44.25672" lon="12.26658">
        <ele>5.0</ele>
      </trkpt>
      <trkpt lat="44.25759" lon="12.26047">
        <ele>8.0</ele>
      </trkpt>
      <trkpt lat="44.25837" lon="12.25451">
        <ele>7.0</ele>
      </trkpt>
      <trkpt lat="44.25805" lon="12.25345">
        <ele>7.0</ele>
      </trkpt>
      <trkpt lat="44.26057" lon="12.24222">
        <ele>6.0</ele>
      </trkpt>
      <trkpt lat="44.26592" lon="12.23441">
        <ele>1.0</ele>
      </trkpt>
      <trkpt lat="44.26738" lon="12.23226">
        <ele>1.0</ele>
      </trkpt>
      <trkpt lat="44.27756" lon="12.21489">
        <ele>3.0</ele>
      </trkpt>
      <trkpt lat="44.27848" lon="12.2137">
        <ele>2.0</ele>
      </trkpt>
      <trkpt lat="44.27867" lon="12.21344">
        <ele>2.0</ele>
      </trkpt>
      <trkpt lat="44.27884" lon="12.21327">
        <ele>2.0</ele>
      </trkpt>
      <trkpt lat="44.27876" lon="12.21306">
        <ele>2.0</ele>
      </trkpt>
      <trkpt lat="44.27855" lon="12.21318">
        <ele>2.0</ele>
      </trkpt>
      <trkpt lat="44.27422" lon="12.21332">
        <ele>5.0</ele>
      </trkpt>
      <trkpt lat="44.27381" lon="12.21243">
        <ele>6.0</ele>
      </trkpt>
      <trkpt lat="44.27386" lon="12.20998">
        <ele>5.0</ele>
      </trkpt>
      <trkpt lat="44.27393" lon="12.20645">
        <ele>5.0</ele>
      </trkpt>
      <trkpt lat="44.27424" lon="12.20153">
        <ele>5.0</ele>
      </trkpt>
      <trkpt lat="44.27602" lon="12.19616">
        <ele>3.0</ele>
      </trkpt>
      <trkpt lat="44.27891" lon="12.19398">
        <ele>2.0</ele>
      </trkpt>
      <trkpt lat="44.28168" lon="12.19097">
        <ele>4.0</ele>
      </trkpt>
      <trkpt lat="44.28637" lon="12.18087">
        <ele>5.0</ele>
      </trkpt>
      <trkpt lat="44.2886" lon="12.17693">
        <ele>8.0</ele>
      </trkpt>
      <trkpt lat="44.29324" lon="12.16615">
        <ele>8.0</ele>
      </trkpt>
      <trkpt lat="44.29373" lon="12.1614">
        <ele>6.0</ele>
      </trkpt>
      <trkpt lat="44.29394" lon="12.1545">
        <ele>9.0</ele>
      </trkpt>
      <trkpt lat="44.29724" lon="12.14948">
        <ele>10.0</ele>
      </trkpt>
      <trkpt lat="44.30032" lon="12.14594">
        <ele>9.0</ele>
      </trkpt>
      <trkpt lat="44.2972" lon="12.14508">
        <ele>9.0</ele>
      </trkpt>
      <trkpt lat="44.28872" lon="12.14115">
        <ele>7.0</ele>
      </trkpt>
      <trkpt lat="44.28841" lon="12.13418">
        <ele>7.0</ele>
      </trkpt>
      <trkpt lat="44.28993" lon="12.13018">
        <ele>8.0</ele>
      </trkpt>
      <trkpt lat="44.29337" lon="12.12188">
        <ele>8.0</ele>
      </trkpt>
      <trkpt lat="44.29717" lon="12.112">
        <ele>10.0</ele>
      </trkpt>
      <trkpt lat="44.29801" lon="12.11032">
        <ele>12.0</ele>
      </trkpt>
      <trkpt lat="44.30353" lon="12.09633">
        <ele>9.0</ele>
      </trkpt>
      <trkpt lat="44.30756" lon="12.08672">
        <ele>7.0</ele>
      </trkpt>
      <trkpt lat="44.31112" lon="12.08064">
        <ele>7.0</ele>
      </trkpt>
      <trkpt lat="44.31261" lon="12.08041">
        <ele>7.0</ele>
      </trkpt>
      <trkpt lat="44.31607" lon="12.0824">
        <ele>8.0</ele>
      </trkpt>
      <trkpt lat="44.32082" lon="12.07687">
        <ele>7.0</ele>
      </trkpt>
      <trkpt lat="44.32024" lon="12.06578">
        <ele>8.0</ele>
      </trkpt>
      <trkpt lat="44.32329" lon="12.06166">
        <ele>9.0</ele>
      </trkpt>
      <trkpt lat="44.32546" lon="12.05271">
        <ele>8.0</ele>
      </trkpt>
      <trkpt lat="44.32875" lon="12.0393">
        <ele>11.0</ele>
      </trkpt>
      <trkpt lat="44.32824" lon="12.03741">
        <ele>11.0</ele>
      </trkpt>
      <trkpt lat="44.32856" lon="12.03515">
        <ele>12.0</ele>
      </trkpt>
      <trkpt lat="44.33039" lon="12.03076">
        <ele>11.0</ele>
      </trkpt>
      <trkpt lat="44.33679" lon="12.02286">
        <ele>10.0</ele>
      </trkpt>
      <trkpt lat="44.34145" lon="12.01752">
        <ele>11.0</ele>
      </trkpt>
      <trkpt lat="44.34322" lon="12.01691">
        <ele>12.0</ele>
      </trkpt>
      <trkpt lat="44.34556" lon="12.01482">
        <ele>9.0</ele>
      </trkpt>
      <trkpt lat="44.34928" lon="12.0067">
        <ele>10.0</ele>
      </trkpt>
      <trkpt lat="44.35372" lon="12.00926">
        <ele>11.0</ele>
      </trkpt>
      <trkpt lat="44.35484" lon="12.00882">
        <ele>11.0</ele>
      </trkpt>
      <trkpt lat="44.35768" lon="12.00359">
        <ele>11.0</ele>
      </trkpt>
      <trkpt lat="44.35899" lon="12.00171">
        <ele>10.0</ele>
      </trkpt>
      <trkpt lat="44.36383" lon="11.99512">
        <ele>10.0</ele>
      </trkpt>
      <trkpt lat="44.36688" lon="11.99013">
        <ele>11.0</ele>
      </trkpt>
      <trkpt lat="44.3698" lon="11.9824">
        <ele>13.0</ele>
      </trkpt>
      <trkpt lat="44.3709" lon="11.97875">
        <ele>13.0</ele>
      </trkpt>
      <trkpt lat="44.37114" lon="11.97697">
        <ele>13.0</ele>
      </trkpt>
      <trkpt lat="44.3726" lon="11.9731">
        <ele>13.0</ele>
      </trkpt>
      <trkpt lat="44.37535" lon="11.96891">
        <ele>11.0</ele>
      </trkpt>
      <trkpt lat="44.37896" lon="11.96139">
        <ele>11.0</ele>
      </trkpt>
      <trkpt lat="44.38246" lon="11.95287">
        <ele>11.0</ele>
      </trkpt>
      <trkpt lat="44.38307" lon="11.95224">
        <ele>11.0</ele>
      </trkpt>
      <trkpt lat="44.38332" lon="11.95203">
        <ele>11.0</ele>
      </trkpt>
      <trkpt lat="44.38329" lon="11.9511">
        <ele>12.0</ele>
      </trkpt>
      <trkpt lat="44.38358" lon="11.95003">
        <ele>13.0</ele>
      </trkpt>
      <trkpt lat="44.38414" lon="11.94824">
        <ele>14.0</ele>
      </trkpt>
      <trkpt lat="44.38461" lon="11.94617">
        <ele>15.0</ele>
      </trkpt>
      <trkpt lat="44.38472" lon="11.94546">
        <ele>15.0</ele>
      </trkpt>
      <trkpt lat="44.38449" lon="11.94497">
        <ele>16.0</ele>
      </trkpt>
      <trkpt lat="44.38341" lon="11.94319">
        <ele>16.0</ele>
      </trkpt>
      <trkpt lat="44.38289" lon="11.94209">
        <ele>18.0</ele>
      </trkpt>
      <trkpt lat="44.38224" lon="11.94162">
        <ele>18.0</ele>
      </trkpt>
      <trkpt lat="44.38203" lon="11.94127">
        <ele>18.0</ele>
      </trkpt>
      <trkpt lat="44.38234" lon="11.94021">
        <ele>18.0</ele>
      </trkpt>
      <trkpt lat="44.38303" lon="11.93847">
        <ele>17.0</ele>
      </trkpt>
      <trkpt lat="44.38301" lon="11.93823">
        <ele>17.0</ele>
      </trkpt>
      <trkpt lat="44.38154" lon="11.93711">
        <ele>17.0</ele>
      </trkpt>
      <trkpt lat="44.38183" lon="11.93613">
        <ele>17.0</ele>
      </trkpt>
      <trkpt lat="44.38315" lon="11.93327">
        <ele>16.0</ele>
      </trkpt>
      <trkpt lat="44.384" lon="11.9312">
        <ele>16.0</ele>
      </trkpt>
      <trkpt lat="44.3849" lon="11.92883">
        <ele>15.0</ele>
      </trkpt>
      <trkpt lat="44.38564" lon="11.92664">
        <ele>14.0</ele>
      </trkpt>
      <trkpt lat="44.3865" lon="11.92459">
        <ele>15.0</ele>
      </trkpt>
      <trkpt lat="44.38847" lon="11.9196">
        <ele>14.0</ele>
      </trkpt>
      <trkpt lat="44.39344" lon="11.90675">
        <ele>14.0</ele>
      </trkpt>
      <trkpt lat="44.3964" lon="11.89923">
        <ele>14.0</ele>
      </trkpt>
      <trkpt lat="44.39824" lon="11.89444">
        <ele>15.0</ele>
      </trkpt>
      <trkpt lat="44.39866" lon="11.89403">
        <ele>16.0</ele>
      </trkpt>
      <trkpt lat="44.39859" lon="11.89365">
        <ele>16.0</ele>
      </trkpt>
      <trkpt lat="44.39748" lon="11.893">
        <ele>16.0</ele>
      </trkpt>
      <trkpt lat="44.39299" lon="11.8895">
        <ele>15.0</ele>
      </trkpt>
      <trkpt lat="44.38979" lon="11.88697">
        <ele>16.0</ele>
      </trkpt>
      <trkpt lat="44.38745" lon="11.88666">
        <ele>18.0</ele>
      </trkpt>
      <trkpt lat="44.38557" lon="11.88521">
        <ele>19.0</ele>
      </trkpt>
      <trkpt lat="44.3844" lon="11.88372">
        <ele>19.0</ele>
      </trkpt>
      <trkpt lat="44.38548" lon="11.88186">
        <ele>17.0</ele>
      </trkpt>
      <trkpt lat="44.38817" lon="11.87562">
        <ele>15.0</ele>
      </trkpt>
      <trkpt lat="44.38482" lon="11.87295">
        <ele>15.0</ele>
      </trkpt>
      <trkpt lat="44.38142" lon="11.87037">
        <ele>16.0</ele>
      </trkpt>
      <trkpt lat="44.37807" lon="11.86773">
        <ele>17.0</ele>
      </trkpt>
      <trkpt lat="44.37337" lon="11.86411">
        <ele>19.0</ele>
      </trkpt>
      <trkpt lat="44.37092" lon="11.86174">
        <ele>19.0</ele>
      </trkpt>
      <trkpt lat="44.36867" lon="11.85851">
        <ele>21.0</ele>
      </trkpt>
      <trkpt lat="44.36794" lon="11.85692">
        <ele>21.0</ele>
      </trkpt>
      <trkpt lat="44.36726" lon="11.85536">
        <ele>21.0</ele>
      </trkpt>
      <trkpt lat="44.36663" lon="11.85411">
        <ele>21.0</ele>
      </trkpt>
      <trkpt lat="44.36593" lon="11.85316">
        <ele>22.0</ele>
      </trkpt>
      <trkpt lat="44.36508" lon="11.85236">
        <ele>22.0</ele>
      </trkpt>
      <trkpt lat="44.36403" lon="11.85147">
        <ele>23.0</ele>
      </trkpt>
      <trkpt lat="44.36298" lon="11.85057">
        <ele>24.0</ele>
      </trkpt>
      <trkpt lat="44.36234" lon="11.85004">
        <ele>24.0</ele>
      </trkpt>
      <trkpt lat="44.36077" lon="11.84872">
        <ele>24.0</ele>
      </trkpt>
      <trkpt lat="44.36002" lon="11.84809">
        <ele>25.0</ele>
      </trkpt>
      <trkpt lat="44.35916" lon="11.84736">
        <ele>25.0</ele>
      </trkpt>
      <trkpt lat="44.35909" lon="11.84661">
        <ele>25.0</ele>
      </trkpt>
      <trkpt lat="44.35891" lon="11.84578">
        <ele>25.0</ele>
      </trkpt>
      <trkpt lat="44.35862" lon="11.8453">
        <ele>25.0</ele>
      </trkpt>
      <trkpt lat="44.35869" lon="11.8446">
        <ele>25.0</ele>
      </trkpt>
      <trkpt lat="44.35908" lon="11.8434">
        <ele>26.0</ele>
      </trkpt>
      <trkpt lat="44.36005" lon="11.8434">
        <ele>26.0</ele>
      </trkpt>
      <trkpt lat="44.36051" lon="11.84338">
        <ele>26.0</ele>
      </trkpt>
      <trkpt lat="44.36132" lon="11.84225">
        <ele>26.0</ele>
      </trkpt>
      <trkpt lat="44.36168" lon="11.84149">
        <ele>26.0</ele>
      </trkpt>
      <trkpt lat="44.36306" lon="11.83693">
        <ele>26.0</ele>
      </trkpt>
      <trkpt lat="44.36458" lon="11.83295">
        <ele>23.0</ele>
      </trkpt>
      <trkpt lat="44.36601" lon="11.82986">
        <ele>23.0</ele>
      </trkpt>
      <trkpt lat="44.36649" lon="11.82799">
        <ele>21.0</ele>
      </trkpt>
      <trkpt lat="44.36697" lon="11.82677">
        <ele>21.0</ele>
      </trkpt>
      <trkpt lat="44.37034" lon="11.81831">
        <ele>21.0</ele>
      </trkpt>
      <trkpt lat="44.37264" lon="11.81323">
        <ele>22.0</ele>
      </trkpt>
      <trkpt lat="44.37629" lon="11.8159">
        <ele>20.0</ele>
      </trkpt>
      <trkpt lat="44.37915" lon="11.81805">
        <ele>20.0</ele>
      </trkpt>
      <trkpt lat="44.38112" lon="11.82085">
        <ele>19.0</ele>
      </trkpt>
      <trkpt lat="44.3832" lon="11.8225">
        <ele>21.0</ele>
      </trkpt>
      <trkpt lat="44.38676" lon="11.82374">
        <ele>19.0</ele>
      </trkpt>
      <trkpt lat="44.38801" lon="11.82429">
        <ele>20.0</ele>
      </trkpt>
      <trkpt lat="44.38917" lon="11.82541">
        <ele>21.0</ele>
      </trkpt>
      <trkpt lat="44.38952" lon="11.82557">
        <ele>21.0</ele>
      </trkpt>
      <trkpt lat="44.38975" lon="11.82472">
        <ele>21.0</ele>
      </trkpt>
      <trkpt lat="44.39103" lon="11.82147">
        <ele>20.0</ele>
      </trkpt>
      <trkpt lat="44.39242" lon="11.81807">
        <ele>20.0</ele>
      </trkpt>
      <trkpt lat="44.39394" lon="11.81431">
        <ele>19.0</ele>
      </trkpt>
      <trkpt lat="44.39554" lon="11.80944">
        <ele>22.0</ele>
      </trkpt>
      <trkpt lat="44.39758" lon="11.80416">
        <ele>17.0</ele>
      </trkpt>
      <trkpt lat="44.39911" lon="11.80025">
        <ele>14.0</ele>
      </trkpt>
      <trkpt lat="44.40068" lon="11.7965">
        <ele>16.0</ele>
      </trkpt>
      <trkpt lat="44.40593" lon="11.78342">
        <ele>17.0</ele>
      </trkpt>
      <trkpt lat="44.40725" lon="11.78016">
        <ele>19.0</ele>
      </trkpt>
      <trkpt lat="44.40755" lon="11.77974">
        <ele>20.0</ele>
      </trkpt>
      <trkpt lat="44.40756" lon="11.77952">
        <ele>20.0</ele>
      </trkpt>
      <trkpt lat="44.40943" lon="11.77434">
        <ele>20.0</ele>
      </trkpt>
      <trkpt lat="44.41234" lon="11.76692">
        <ele>20.0</ele>
      </trkpt>
      <trkpt lat="44.41361" lon="11.76384">
        <ele>21.0</ele>
      </trkpt>
      <trkpt lat="44.41783" lon="11.76683">
        <ele>20.0</ele>
      </trkpt>
      <trkpt lat="44.42236" lon="11.77041">
        <ele>18.0</ele>
      </trkpt>
      <trkpt lat="44.42366" lon="11.77104">
        <ele>15.0</ele>
      </trkpt>
      <trkpt lat="44.42768" lon="11.75818">
        <ele>18.0</ele>
      </trkpt>
      <trkpt lat="44.42985" lon="11.74578">
        <ele>16.0</ele>
      </trkpt>
      <trkpt lat="44.42945" lon="11.73764">
        <ele>19.0</ele>
      </trkpt>
      <trkpt lat="44.42844" lon="11.71945">
        <ele>22.0</ele>
      </trkpt>
      <trkpt lat="44.42768" lon="11.70742">
        <ele>24.0</ele>
      </trkpt>
      <trkpt lat="44.42732" lon="11.69997">
        <ele>27.0</ele>
      </trkpt>
      <trkpt lat="44.42689" lon="11.69994">
        <ele>27.0</ele>
      </trkpt>
      <trkpt lat="44.42738" lon="11.69712">
        <ele>26.0</ele>
      </trkpt>
      <trkpt lat="44.42851" lon="11.69325">
        <ele>29.0</ele>
      </trkpt>
      <trkpt lat="44.42983" lon="11.68981">
        <ele>29.0</ele>
      </trkpt>
      <trkpt lat="44.42856" lon="11.68827">
        <ele>28.0</ele>
      </trkpt>
      <trkpt lat="44.42835" lon="11.68708">
        <ele>28.0</ele>
      </trkpt>
      <trkpt lat="44.42947" lon="11.6819">
        <ele>31.0</ele>
      </trkpt>
      <trkpt lat="44.43016" lon="11.6787">
        <ele>33.0</ele>
      </trkpt>
      <trkpt lat="44.43089" lon="11.67535">
        <ele>33.0</ele>
      </trkpt>
      <trkpt lat="44.43116" lon="11.67532">
        <ele>34.0</ele>
      </trkpt>
      <trkpt lat="44.4325" lon="11.67581">
        <ele>35.0</ele>
      </trkpt>
      <trkpt lat="44.43283" lon="11.67494">
        <ele>35.0</ele>
      </trkpt>
      <trkpt lat="44.43346" lon="11.67203">
        <ele>33.0</ele>
      </trkpt>
      <trkpt lat="44.43451" lon="11.66717">
        <ele>34.0</ele>
      </trkpt>
      <trkpt lat="44.43595" lon="11.66047">
        <ele>35.0</ele>
      </trkpt>
      <trkpt lat="44.43659" lon="11.65733">
        <ele>35.0</ele>
      </trkpt>
      <trkpt lat="44.43671" lon="11.65537">
        <ele>35.0</ele>
      </trkpt>
      <trkpt lat="44.43607" lon="11.65449">
        <ele>35.0</ele>
      </trkpt>
      <trkpt lat="44.43572" lon="11.6539">
        <ele>35.0</ele>
      </trkpt>
      <trkpt lat="44.43714" lon="11.64851">
        <ele>35.0</ele>
      </trkpt>
      <trkpt lat="44.43817" lon="11.64477">
        <ele>34.0</ele>
      </trkpt>
      <trkpt lat="44.44078" lon="11.6395">
        <ele>32.0</ele>
      </trkpt>
      <trkpt lat="44.44172" lon="11.63717">
        <ele>33.0</ele>
      </trkpt>
      <trkpt lat="44.44289" lon="11.63424">
        <ele>34.0</ele>
      </trkpt>
      <trkpt lat="44.44277" lon="11.63379">
        <ele>34.0</ele>
      </trkpt>
      <trkpt lat="44.44056" lon="11.63159">
        <ele>37.0</ele>
      </trkpt>
      <trkpt lat="44.43703" lon="11.62841">
        <ele>37.0</ele>
      </trkpt>
      <trkpt lat="44.43785" lon="11.62597">
        <ele>38.0</ele>
      </trkpt>
      <trkpt lat="44.43887" lon="11.62295">
        <ele>39.0</ele>
      </trkpt>
      <trkpt lat="44.43966" lon="11.62097">
        <ele>40.0</ele>
      </trkpt>
      <trkpt lat="44.44007" lon="11.61998">
        <ele>41.0</ele>
      </trkpt>
      <trkpt lat="44.44003" lon="11.6196">
        <ele>41.0</ele>
      </trkpt>
      <trkpt lat="44.44008" lon="11.61926">
        <ele>41.0</ele>
      </trkpt>
      <trkpt lat="44.44019" lon="11.61688">
        <ele>41.0</ele>
      </trkpt>
      <trkpt lat="44.44023" lon="11.61376">
        <ele>41.0</ele>
      </trkpt>
      <trkpt lat="44.44086" lon="11.61153">
        <ele>40.0</ele>
      </trkpt>
      <trkpt lat="44.44132" lon="11.60933">
        <ele>40.0</ele>
      </trkpt>
      <trkpt lat="44.44158" lon="11.60916">
        <ele>40.0</ele>
      </trkpt>
      <trkpt lat="44.44166" lon="11.60914">
        <ele>40.0</ele>
      </trkpt>
      <trkpt lat="44.44174" lon="11.60907">
        <ele>40.0</ele>
      </trkpt>
      <trkpt lat="44.4418" lon="11.60898">
        <ele>40.0</ele>
      </trkpt>
      <trkpt lat="44.44184" lon="11.60883">
        <ele>40.0</ele>
      </trkpt>
      <trkpt lat="44.44184" lon="11.60871">
        <ele>40.0</ele>
      </trkpt>
      <trkpt lat="44.44181" lon="11.60857">
        <ele>40.0</ele>
      </trkpt>
      <trkpt lat="44.44175" lon="11.60847">
        <ele>40.0</ele>
      </trkpt>
      <trkpt lat="44.44167" lon="11.6084">
        <ele>40.0</ele>
      </trkpt>
      <trkpt lat="44.4413" lon="11.60778">
        <ele>40.0</ele>
      </trkpt>
      <trkpt lat="44.44088" lon="11.60565">
        <ele>40.0</ele>
      </trkpt>
      <trkpt lat="44.44103" lon="11.60516">
        <ele>40.0</ele>
      </trkpt>
      <trkpt lat="44.44106" lon="11.60504">
        <ele>40.0</ele>
      </trkpt>
      <trkpt lat="44.44107" lon="11.60492">
        <ele>40.0</ele>
      </trkpt>
      <trkpt lat="44.44105" lon="11.60479">
        <ele>40.0</ele>
      </trkpt>
      <trkpt lat="44.441" lon="11.60468">
        <ele>40.0</ele>
      </trkpt>
      <trkpt lat="44.44092" lon="11.60459">
        <ele>40.0</ele>
      </trkpt>
      <trkpt lat="44.44044" lon="11.60134">
        <ele>40.0</ele>
      </trkpt>
      <trkpt lat="44.44008" lon="11.59661">
        <ele>43.0</ele>
      </trkpt>
      <trkpt lat="44.44033" lon="11.59549">
        <ele>43.0</ele>
      </trkpt>
      <trkpt lat="44.44114" lon="11.59299">
        <ele>42.0</ele>
      </trkpt>
      <trkpt lat="44.44219" lon="11.58975">
        <ele>39.0</ele>
      </trkpt>
      <trkpt lat="44.4423" lon="11.58813">
        <ele>40.0</ele>
      </trkpt>
      <trkpt lat="44.44206" lon="11.58646">
        <ele>41.0</ele>
      </trkpt>
      <trkpt lat="44.44031" lon="11.58101">
        <ele>41.0</ele>
      </trkpt>
      <trkpt lat="44.44038" lon="11.57872">
        <ele>40.0</ele>
      </trkpt>
      <trkpt lat="44.44105" lon="11.57421">
        <ele>40.0</ele>
      </trkpt>
      <trkpt lat="44.44203" lon="11.56675">
        <ele>40.0</ele>
      </trkpt>
      <trkpt lat="44.44257" lon="11.56418">
        <ele>43.0</ele>
      </trkpt>
      <trkpt lat="44.44335" lon="11.56219">
        <ele>43.0</ele>
      </trkpt>
      <trkpt lat="44.44979" lon="11.54872">
        <ele>38.0</ele>
      </trkpt>
      <trkpt lat="44.45447" lon="11.5389">
        <ele>39.0</ele>
      </trkpt>
      <trkpt lat="44.45656" lon="11.53474">
        <ele>40.0</ele>
      </trkpt>
      <trkpt lat="44.46037" lon="11.52531">
        <ele>38.0</ele>
      </trkpt>
      <trkpt lat="44.46289" lon="11.51799">
        <ele>37.0</ele>
      </trkpt>
      <trkpt lat="44.46491" lon="11.51146">
        <ele>43.0</ele>
      </trkpt>
      <trkpt lat="44.46523" lon="11.51042">
        <ele>44.0</ele>
      </trkpt>
      <trkpt lat="44.4656" lon="11.50927">
        <ele>43.0</ele>
      </trkpt>
      <trkpt lat="44.46626" lon="11.50756">
        <ele>41.0</ele>
      </trkpt>
      <trkpt lat="44.46751" lon="11.50465">
        <ele>38.0</ele>
      </trkpt>
      <trkpt lat="44.46817" lon="11.5026">
        <ele>38.0</ele>
      </trkpt>
      <trkpt lat="44.46973" lon="11.4961">
        <ele>39.0</ele>
      </trkpt>
      <trkpt lat="44.47108" lon="11.4932">
        <ele>39.0</ele>
      </trkpt>
      <trkpt lat="44.47199" lon="11.49108">
        <ele>41.0</ele>
      </trkpt>
      <trkpt lat="44.47149" lon="11.48723">
        <ele>41.0</ele>
      </trkpt>
      <trkpt lat="44.47116" lon="11.48526">
        <ele>38.0</ele>
      </trkpt>
      <trkpt lat="44.47174" lon="11.48254">
        <ele>38.0</ele>
      </trkpt>
      <trkpt lat="44.47411" lon="11.47648">
        <ele>41.0</ele>
      </trkpt>
      <trkpt lat="44.47498" lon="11.4743">
        <ele>42.0</ele>
      </trkpt>
      <trkpt lat="44.47537" lon="11.47089">
        <ele>43.0</ele>
      </trkpt>
      <trkpt lat="44.47693" lon="11.46626">
        <ele>47.0</ele>
      </trkpt>
      <trkpt lat="44.4798" lon="11.46067">
        <ele>48.0</ele>
      </trkpt>
      <trkpt lat="44.48026" lon="11.46037">
        <ele>47.0</ele>
      </trkpt>
      <trkpt lat="44.48086" lon="11.45936">
        <ele>47.0</ele>
      </trkpt>
      <trkpt lat="44.48208" lon="11.45816">
        <ele>47.0</ele>
      </trkpt>
      <trkpt lat="44.48354" lon="11.45487">
        <ele>47.0</ele>
      </trkpt>
      <trkpt lat="44.48358" lon="11.45084">
        <ele>46.0</ele>
      </trkpt>
      <trkpt lat="44.48326" lon="11.4496">
        <ele>46.0</ele>
      </trkpt>
      <trkpt lat="44.48238" lon="11.44761">
        <ele>45.0</ele>
      </trkpt>
      <trkpt lat="44.48233" lon="11.44292">
        <ele>41.0</ele>
      </trkpt>
      <trkpt lat="44.48235" lon="11.44093">
        <ele>42.0</ele>
      </trkpt>
      <trkpt lat="44.4821" lon="11.43943">
        <ele>44.0</ele>
      </trkpt>
      <trkpt lat="44.48136" lon="11.43624">
        <ele>45.0</ele>
      </trkpt>
      <trkpt lat="44.48141" lon="11.43501">
        <ele>47.0</ele>
      </trkpt>
      <trkpt lat="44.48291" lon="11.43016">
        <ele>50.0</ele>
      </trkpt>
      <trkpt lat="44.48297" lon="11.429">
        <ele>49.0</ele>
      </trkpt>
      <trkpt lat="44.4826" lon="11.42753">
        <ele>48.0</ele>
      </trkpt>
      <trkpt lat="44.48233" lon="11.42572">
        <ele>49.0</ele>
      </trkpt>
      <trkpt lat="44.48248" lon="11.42157">
        <ele>50.0</ele>
      </trkpt>
      <trkpt lat="44.48268" lon="11.42111">
        <ele>50.0</ele>
      </trkpt>
      <trkpt lat="44.48347" lon="11.42148">
        <ele>50.0</ele>
      </trkpt>
      <trkpt lat="44.4841" lon="11.42152">
        <ele>50.0</ele>
      </trkpt>
      <trkpt lat="44.48703" lon="11.42321">
        <ele>47.0</ele>
      </trkpt>
      <trkpt lat="44.4884" lon="11.42415">
        <ele>45.0</ele>
      </trkpt>
      <trkpt lat="44.48879" lon="11.42454">
        <ele>45.0</ele>
      </trkpt>
      <trkpt lat="44.48901" lon="11.42394">
        <ele>46.0</ele>
      </trkpt>
      <trkpt lat="44.48902" lon="11.4225">
        <ele>47.0</ele>
      </trkpt>
      <trkpt lat="44.48957" lon="11.4198">
        <ele>47.0</ele>
      </trkpt>
      <trkpt lat="44.49031" lon="11.41759">
        <ele>48.0</ele>
      </trkpt>
      <trkpt lat="44.49077" lon="11.41723">
        <ele>49.0</ele>
      </trkpt>
      <trkpt lat="44.4907" lon="11.41658">
        <ele>48.0</ele>
      </trkpt>
      <trkpt lat="44.49162" lon="11.41399">
        <ele>45.0</ele>
      </trkpt>
      <trkpt lat="44.49229" lon="11.41371">
        <ele>45.0</ele>
      </trkpt>
      <trkpt lat="44.49302" lon="11.41328">
        <ele>46.0</ele>
      </trkpt>
      <trkpt lat="44.4928" lon="11.41221">
        <ele>47.0</ele>
      </trkpt>
      <trkpt lat="44.49203" lon="11.41217">
        <ele>48.0</ele>
      </trkpt>
      <trkpt lat="44.49109" lon="11.41129">
        <ele>50.0</ele>
      </trkpt>
      <trkpt lat="44.48718" lon="11.40844">
        <ele>49.0</ele>
      </trkpt>
      <trkpt lat="44.48663" lon="11.40691">
        <ele>50.0</ele>
      </trkpt>
      <trkpt lat="44.48642" lon="11.40653">
        <ele>50.0</ele>
      </trkpt>
      <trkpt lat="44.48545" lon="11.4059">
        <ele>50.0</ele>
      </trkpt>
      <trkpt lat="44.48429" lon="11.40592">
        <ele>50.0</ele>
      </trkpt>
      <trkpt lat="44.48019" lon="11.40161">
        <ele>53.0</ele>
      </trkpt>
      <trkpt lat="44.47531" lon="11.39748">
        <ele>61.0</ele>
      </trkpt>
      <trkpt lat="44.475" lon="11.39682">
        <ele>62.0</ele>
      </trkpt>
      <trkpt lat="44.47448" lon="11.39686">
        <ele>62.0</ele>
      </trkpt>
      <trkpt lat="44.47272" lon="11.39561">
        <ele>65.0</ele>
      </trkpt>
      <trkpt lat="44.47062" lon="11.39469">
        <ele>67.0</ele>
      </trkpt>
      <trkpt lat="44.46997" lon="11.39399">
        <ele>69.0</ele>
      </trkpt>
      <trkpt lat="44.46974" lon="11.3931">
        <ele>72.0</ele>
      </trkpt>
      <trkpt lat="44.46922" lon="11.39305">
        <ele>73.0</ele>
      </trkpt>
      <trkpt lat="44.46873" lon="11.39322">
        <ele>71.0</ele>
      </trkpt>
      <trkpt lat="44.46787" lon="11.39239">
        <ele>69.0</ele>
      </trkpt>
      <trkpt lat="44.46698" lon="11.3912">
        <ele>69.0</ele>
      </trkpt>
      <trkpt lat="44.46642" lon="11.38855">
        <ele>71.0</ele>
      </trkpt>
      <trkpt lat="44.46615" lon="11.38723">
        <ele>70.0</ele>
      </trkpt>
      <trkpt lat="44.46503" lon="11.38583">
        <ele>70.0</ele>
      </trkpt>
      <trkpt lat="44.46339" lon="11.38551">
        <ele>71.0</ele>
      </trkpt>
      <trkpt lat="44.46106" lon="11.38298">
        <ele>77.0</ele>
      </trkpt>
      <trkpt lat="44.46113" lon="11.3817">
        <ele>73.0</ele>
      </trkpt>
      <trkpt lat="44.46188" lon="11.37985">
        <ele>70.0</ele>
      </trkpt>
      <trkpt lat="44.46197" lon="11.37954">
        <ele>71.0</ele>
      </trkpt>
      <trkpt lat="44.46173" lon="11.37923">
        <ele>72.0</ele>
      </trkpt>
      <trkpt lat="44.46087" lon="11.378">
        <ele>73.0</ele>
      </trkpt>
      <trkpt lat="44.46008" lon="11.37669">
        <ele>72.0</ele>
      </trkpt>
      <trkpt lat="44.45993" lon="11.37535">
        <ele>74.0</ele>
      </trkpt>
      <trkpt lat="44.45998" lon="11.37476">
        <ele>75.0</ele>
      </trkpt>
      <trkpt lat="44.45952" lon="11.37455">
        <ele>75.0</ele>
      </trkpt>
      <trkpt lat="44.4587" lon="11.37383">
        <ele>75.0</ele>
      </trkpt>
      <trkpt lat="44.45502" lon="11.37237">
        <ele>78.0</ele>
      </trkpt>
      <trkpt lat="44.45325" lon="11.37039">
        <ele>83.0</ele>
      </trkpt>
      <trkpt lat="44.45317" lon="11.36992">
        <ele>82.0</ele>
      </trkpt>
      <trkpt lat="44.45303" lon="11.36964">
        <ele>81.0</ele>
      </trkpt>
      <trkpt lat="44.45272" lon="11.36951">
        <ele>81.0</ele>
      </trkpt>
      <trkpt lat="44.4509" lon="11.36602">
        <ele>93.0</ele>
      </trkpt>
      <trkpt lat="44.44913" lon="11.36391">
        <ele>100.0</ele>
      </trkpt>
      <trkpt lat="44.44818" lon="11.36267">
        <ele>103.0</ele>
      </trkpt>
      <trkpt lat="44.44785" lon="11.36227">
        <ele>104.0</ele>
      </trkpt>
      <trkpt lat="44.44679" lon="11.36018">
        <ele>104.0</ele>
      </trkpt>
      <trkpt lat="44.44508" lon="11.35578">
        <ele>100.0</ele>
      </trkpt>
      <trkpt lat="44.44465" lon="11.3548">
        <ele>101.0</ele>
      </trkpt>
      <trkpt lat="44.44425" lon="11.35396">
        <ele>101.0</ele>
      </trkpt>
      <trkpt lat="44.44394" lon="11.35386">
        <ele>101.0</ele>
      </trkpt>
      <trkpt lat="44.44364" lon="11.35364">
        <ele>101.0</ele>
      </trkpt>
      <trkpt lat="44.44314" lon="11.35251">
        <ele>99.0</ele>
      </trkpt>
      <trkpt lat="44.44224" lon="11.35179">
        <ele>99.0</ele>
      </trkpt>
      <trkpt lat="44.44125" lon="11.35205">
        <ele>101.0</ele>
      </trkpt>
      <trkpt lat="44.44005" lon="11.35206">
        <ele>101.0</ele>
      </trkpt>
      <trkpt lat="44.43979" lon="11.352">
        <ele>101.0</ele>
      </trkpt>
      <trkpt lat="44.43965" lon="11.3522">
        <ele>101.0</ele>
      </trkpt>
      <trkpt lat="44.43481" lon="11.35174">
        <ele>103.0</ele>
      </trkpt>
      <trkpt lat="44.43204" lon="11.35105">
        <ele>107.0</ele>
      </trkpt>
      <trkpt lat="44.42736" lon="11.3489">
        <ele>109.0</ele>
      </trkpt>
      <trkpt lat="44.42566" lon="11.34718">
        <ele>113.0</ele>
      </trkpt>
      <trkpt lat="44.42333" lon="11.34527">
        <ele>116.0</ele>
      </trkpt>
      <trkpt lat="44.41862" lon="11.34538">
        <ele>119.0</ele>
      </trkpt>
      <trkpt lat="44.41338" lon="11.34583">
        <ele>125.0</ele>
      </trkpt>
      <trkpt lat="44.41081" lon="11.34458">
        <ele>126.0</ele>
      </trkpt>
      <trkpt lat="44.40938" lon="11.34352">
        <ele>129.0</ele>
      </trkpt>
      <trkpt lat="44.40623" lon="11.34127">
        <ele>128.0</ele>
      </trkpt>
      <trkpt lat="44.40112" lon="11.33809">
        <ele>134.0</ele>
      </trkpt>
      <trkpt lat="44.39908" lon="11.33766">
        <ele>137.0</ele>
      </trkpt>
      <trkpt lat="44.39883" lon="11.33726">
        <ele>139.0</ele>
      </trkpt>
      <trkpt lat="44.39872" lon="11.33682">
        <ele>143.0</ele>
      </trkpt>
      <trkpt lat="44.39884" lon="11.33537">
        <ele>153.0</ele>
      </trkpt>
      <trkpt lat="44.39877" lon="11.33498">
        <ele>157.0</ele>
      </trkpt>
      <trkpt lat="44.39487" lon="11.33243">
        <ele>162.0</ele>
      </trkpt>
      <trkpt lat="44.39412" lon="11.33178">
        <ele>166.0</ele>
      </trkpt>
      <trkpt lat="44.39321" lon="11.33003">
        <ele>168.0</ele>
      </trkpt>
      <trkpt lat="44.39051" lon="11.32827">
        <ele>186.0</ele>
      </trkpt>
      <trkpt lat="44.38996" lon="11.32761">
        <ele>196.0</ele>
      </trkpt>
      <trkpt lat="44.39062" lon="11.32773">
        <ele>201.0</ele>
      </trkpt>
      <trkpt lat="44.39098" lon="11.32763">
        <ele>206.0</ele>
      </trkpt>
      <trkpt lat="44.39015" lon="11.32621">
        <ele>216.0</ele>
      </trkpt>
      <trkpt lat="44.38961" lon="11.32664">
        <ele>222.0</ele>
      </trkpt>
      <trkpt lat="44.38874" lon="11.32717">
        <ele>228.0</ele>
      </trkpt>
      <trkpt lat="44.3882" lon="11.32743">
        <ele>234.0</ele>
      </trkpt>
      <trkpt lat="44.38806" lon="11.32657">
        <ele>241.0</ele>
      </trkpt>
      <trkpt lat="44.3885" lon="11.32549">
        <ele>250.0</ele>
      </trkpt>
      <trkpt lat="44.38872" lon="11.32434">
        <ele>255.0</ele>
      </trkpt>
      <trkpt lat="44.38867" lon="11.32313">
        <ele>260.0</ele>
      </trkpt>
      <trkpt lat="44.38914" lon="11.32232">
        <ele>264.0</ele>
      </trkpt>
      <trkpt lat="44.38962" lon="11.32141">
        <ele>268.0</ele>
      </trkpt>
      <trkpt lat="44.39023" lon="11.32096">
        <ele>272.0</ele>
      </trkpt>
      <trkpt lat="44.39081" lon="11.32022">
        <ele>275.0</ele>
      </trkpt>
      <trkpt lat="44.39125" lon="11.31932">
        <ele>278.0</ele>
      </trkpt>
      <trkpt lat="44.39217" lon="11.31789">
        <ele>287.0</ele>
      </trkpt>
      <trkpt lat="44.39266" lon="11.31708">
        <ele>295.0</ele>
      </trkpt>
      <trkpt lat="44.39293" lon="11.31627">
        <ele>299.0</ele>
      </trkpt>
      <trkpt lat="44.39302" lon="11.31527">
        <ele>302.0</ele>
      </trkpt>
      <trkpt lat="44.39326" lon="11.31409">
        <ele>306.0</ele>
      </trkpt>
      <trkpt lat="44.39342" lon="11.31204">
        <ele>310.0</ele>
      </trkpt>
      <trkpt lat="44.39314" lon="11.31069">
        <ele>312.0</ele>
      </trkpt>
      <trkpt lat="44.39234" lon="11.30984">
        <ele>314.0</ele>
      </trkpt>
      <trkpt lat="44.39366" lon="11.30835">
        <ele>316.0</ele>
      </trkpt>
      <trkpt lat="44.39357" lon="11.30746">
        <ele>311.0</ele>
      </trkpt>
      <trkpt lat="44.39332" lon="11.30645">
        <ele>300.0</ele>
      </trkpt>
      <trkpt lat="44.39335" lon="11.30555">
        <ele>291.0</ele>
      </trkpt>
      <trkpt lat="44.39348" lon="11.30427">
        <ele>282.0</ele>
      </trkpt>
      <trkpt lat="44.39347" lon="11.30295">
        <ele>274.0</ele>
      </trkpt>
      <trkpt lat="44.39331" lon="11.30176">
        <ele>271.0</ele>
      </trkpt>
      <trkpt lat="44.39294" lon="11.30067">
        <ele>268.0</ele>
      </trkpt>
      <trkpt lat="44.39293" lon="11.29832">
        <ele>253.0</ele>
      </trkpt>
      <trkpt lat="44.3925" lon="11.29698">
        <ele>247.0</ele>
      </trkpt>
      <trkpt lat="44.39133" lon="11.29553">
        <ele>242.0</ele>
      </trkpt>
      <trkpt lat="44.39112" lon="11.29441">
        <ele>235.0</ele>
      </trkpt>
      <trkpt lat="44.39126" lon="11.29327">
        <ele>228.0</ele>
      </trkpt>
      <trkpt lat="44.39165" lon="11.2931">
        <ele>222.0</ele>
      </trkpt>
      <trkpt lat="44.39209" lon="11.29323">
        <ele>216.0</ele>
      </trkpt>
      <trkpt lat="44.39253" lon="11.29419">
        <ele>206.0</ele>
      </trkpt>
      <trkpt lat="44.39299" lon="11.29465">
        <ele>195.0</ele>
      </trkpt>
      <trkpt lat="44.39385" lon="11.29405">
        <ele>179.0</ele>
      </trkpt>
      <trkpt lat="44.3942" lon="11.29297">
        <ele>167.0</ele>
      </trkpt>
      <trkpt lat="44.39407" lon="11.29172">
        <ele>159.0</ele>
      </trkpt>
      <trkpt lat="44.39417" lon="11.29058">
        <ele>151.0</ele>
      </trkpt>
      <trkpt lat="44.39416" lon="11.28934">
        <ele>139.0</ele>
      </trkpt>
      <trkpt lat="44.39407" lon="11.28845">
        <ele>128.0</ele>
      </trkpt>
      <trkpt lat="44.39517" lon="11.28724">
        <ele>115.0</ele>
      </trkpt>
      <trkpt lat="44.39562" lon="11.28502">
        <ele>108.0</ele>
      </trkpt>
      <trkpt lat="44.39543" lon="11.28202">
        <ele>105.0</ele>
      </trkpt>
      <trkpt lat="44.39548" lon="11.28032">
        <ele>106.0</ele>
      </trkpt>
      <trkpt lat="44.39538" lon="11.27972">
        <ele>109.0</ele>
      </trkpt>
      <trkpt lat="44.39509" lon="11.27949">
        <ele>111.0</ele>
      </trkpt>
      <trkpt lat="44.3942" lon="11.27884">
        <ele>116.0</ele>
      </trkpt>
      <trkpt lat="44.39399" lon="11.27835">
        <ele>120.0</ele>
      </trkpt>
      <trkpt lat="44.39408" lon="11.2781">
        <ele>121.0</ele>
      </trkpt>
      <trkpt lat="44.39467" lon="11.27753">
        <ele>127.0</ele>
      </trkpt>
      <trkpt lat="44.3952" lon="11.27683">
        <ele>137.0</ele>
      </trkpt>
      <trkpt lat="44.39502" lon="11.27505">
        <ele>147.0</ele>
      </trkpt>
      <trkpt lat="44.39423" lon="11.27412">
        <ele>136.0</ele>
      </trkpt>
      <trkpt lat="44.39404" lon="11.2734">
        <ele>125.0</ele>
      </trkpt>
      <trkpt lat="44.39379" lon="11.27235">
        <ele>116.0</ele>
      </trkpt>
      <trkpt lat="44.39357" lon="11.27172">
        <ele>113.0</ele>
      </trkpt>
      <trkpt lat="44.39366" lon="11.27077">
        <ele>110.0</ele>
      </trkpt>
      <trkpt lat="44.39345" lon="11.2684">
        <ele>103.0</ele>
      </trkpt>
      <trkpt lat="44.39326" lon="11.26539">
        <ele>100.0</ele>
      </trkpt>
      <trkpt lat="44.39312" lon="11.26367">
        <ele>103.0</ele>
      </trkpt>
      <trkpt lat="44.39289" lon="11.26179">
        <ele>106.0</ele>
      </trkpt>
      <trkpt lat="44.39285" lon="11.26055">
        <ele>105.0</ele>
      </trkpt>
      <trkpt lat="44.39266" lon="11.25938">
        <ele>104.0</ele>
      </trkpt>
      <trkpt lat="44.39228" lon="11.25824">
        <ele>104.0</ele>
      </trkpt>
      <trkpt lat="44.39199" lon="11.25803">
        <ele>104.0</ele>
      </trkpt>
      <trkpt lat="44.3915" lon="11.25816">
        <ele>104.0</ele>
      </trkpt>
      <trkpt lat="44.39099" lon="11.25713">
        <ele>105.0</ele>
      </trkpt>
      <trkpt lat="44.39072" lon="11.25602">
        <ele>107.0</ele>
      </trkpt>
      <trkpt lat="44.39058" lon="11.25499">
        <ele>108.0</ele>
      </trkpt>
      <trkpt lat="44.39023" lon="11.25396">
        <ele>110.0</ele>
      </trkpt>
      <trkpt lat="44.39004" lon="11.25297">
        <ele>113.0</ele>
      </trkpt>
      <trkpt lat="44.38994" lon="11.25192">
        <ele>117.0</ele>
      </trkpt>
      <trkpt lat="44.38981" lon="11.2508">
        <ele>119.0</ele>
      </trkpt>
      <trkpt lat="44.38956" lon="11.24976">
        <ele>116.0</ele>
      </trkpt>
      <trkpt lat="44.38906" lon="11.24802">
        <ele>112.0</ele>
      </trkpt>
      <trkpt lat="44.38864" lon="11.24734">
        <ele>111.0</ele>
      </trkpt>
      <trkpt lat="44.39038" lon="11.24628">
        <ele>112.0</ele>
      </trkpt>
      <trkpt lat="44.39105" lon="11.24617">
        <ele>116.0</ele>
      </trkpt>
      <trkpt lat="44.39097" lon="11.24563">
        <ele>118.0</ele>
      </trkpt>
      <trkpt lat="44.38984" lon="11.24525">
        <ele>124.0</ele>
      </trkpt>
      <trkpt lat="44.38885" lon="11.24417">
        <ele>134.0</ele>
      </trkpt>
      <trkpt lat="44.38825" lon="11.24361">
        <ele>136.0</ele>
      </trkpt>
      <trkpt lat="44.38755" lon="11.24245">
        <ele>128.0</ele>
      </trkpt>
      <trkpt lat="44.38736" lon="11.24079">
        <ele>129.0</ele>
      </trkpt>
      <trkpt lat="44.38712" lon="11.23993">
        <ele>131.0</ele>
      </trkpt>
      <trkpt lat="44.38566" lon="11.2375">
        <ele>126.0</ele>
      </trkpt>
      <trkpt lat="44.38402" lon="11.23613">
        <ele>125.0</ele>
      </trkpt>
      <trkpt lat="44.38276" lon="11.23516">
        <ele>124.0</ele>
      </trkpt>
      <trkpt lat="44.38129" lon="11.23365">
        <ele>125.0</ele>
      </trkpt>
      <trkpt lat="44.37899" lon="11.23139">
        <ele>125.0</ele>
      </trkpt>
      <trkpt lat="44.37811" lon="11.2306">
        <ele>122.0</ele>
      </trkpt>
      <trkpt lat="44.37735" lon="11.22976">
        <ele>120.0</ele>
      </trkpt>
      <trkpt lat="44.37677" lon="11.22864">
        <ele>118.0</ele>
      </trkpt>
      <trkpt lat="44.37637" lon="11.22758">
        <ele>117.0</ele>
      </trkpt>
      <trkpt lat="44.37576" lon="11.22638">
        <ele>117.0</ele>
      </trkpt>
      <trkpt lat="44.37494" lon="11.2254">
        <ele>117.0</ele>
      </trkpt>
      <trkpt lat="44.37402" lon="11.22432">
        <ele>118.0</ele>
      </trkpt>
      <trkpt lat="44.37326" lon="11.2233">
        <ele>122.0</ele>
      </trkpt>
      <trkpt lat="44.37245" lon="11.22251">
        <ele>123.0</ele>
      </trkpt>
      <trkpt lat="44.37176" lon="11.2216">
        <ele>120.0</ele>
      </trkpt>
      <trkpt lat="44.37089" lon="11.22019">
        <ele>115.0</ele>
      </trkpt>
      <trkpt lat="44.37053" lon="11.21893">
        <ele>113.0</ele>
      </trkpt>
      <trkpt lat="44.37039" lon="11.21779">
        <ele>119.0</ele>
      </trkpt>
      <trkpt lat="44.3701" lon="11.21699">
        <ele>125.0</ele>
      </trkpt>
      <trkpt lat="44.36946" lon="11.2161">
        <ele>127.0</ele>
      </trkpt>
      <trkpt lat="44.36877" lon="11.21512">
        <ele>123.0</ele>
      </trkpt>
      <trkpt lat="44.36837" lon="11.21456">
        <ele>121.0</ele>
      </trkpt>
      <trkpt lat="44.36777" lon="11.21405">
        <ele>123.0</ele>
      </trkpt>
      <trkpt lat="44.36685" lon="11.21379">
        <ele>127.0</ele>
      </trkpt>
      <trkpt lat="44.36612" lon="11.21339">
        <ele>127.0</ele>
      </trkpt>
      <trkpt lat="44.36566" lon="11.21248">
        <ele>126.0</ele>
      </trkpt>
      <trkpt lat="44.36531" lon="11.21127">
        <ele>124.0</ele>
      </trkpt>
      <trkpt lat="44.36485" lon="11.20996">
        <ele>121.0</ele>
      </trkpt>
      <trkpt lat="44.36425" lon="11.20878">
        <ele>120.0</ele>
      </trkpt>
      <trkpt lat="44.36374" lon="11.20761">
        <ele>121.0</ele>
      </trkpt>
      <trkpt lat="44.36322" lon="11.20658">
        <ele>124.0</ele>
      </trkpt>
      <trkpt lat="44.36285" lon="11.20559">
        <ele>126.0</ele>
      </trkpt>
      <trkpt lat="44.36237" lon="11.20472">
        <ele>123.0</ele>
      </trkpt>
      <trkpt lat="44.3616" lon="11.20459">
        <ele>119.0</ele>
      </trkpt>
      <trkpt lat="44.3606" lon="11.20496">
        <ele>116.0</ele>
      </trkpt>
      <trkpt lat="44.35969" lon="11.20562">
        <ele>117.0</ele>
      </trkpt>
      <trkpt lat="44.35888" lon="11.20667">
        <ele>122.0</ele>
      </trkpt>
      <trkpt lat="44.35819" lon="11.20772">
        <ele>127.0</ele>
      </trkpt>
      <trkpt lat="44.35761" lon="11.20855">
        <ele>128.0</ele>
      </trkpt>
      <trkpt lat="44.35707" lon="11.20862">
        <ele>128.0</ele>
      </trkpt>
      <trkpt lat="44.35657" lon="11.2078">
        <ele>129.0</ele>
      </trkpt>
      <trkpt lat="44.35614" lon="11.20725">
        <ele>132.0</ele>
      </trkpt>
      <trkpt lat="44.35557" lon="11.20664">
        <ele>135.0</ele>
      </trkpt>
      <trkpt lat="44.355" lon="11.20646">
        <ele>138.0</ele>
      </trkpt>
      <trkpt lat="44.35421" lon="11.20636">
        <ele>140.0</ele>
      </trkpt>
      <trkpt lat="44.3533" lon="11.2061">
        <ele>142.0</ele>
      </trkpt>
      <trkpt lat="44.35233" lon="11.20595">
        <ele>144.0</ele>
      </trkpt>
      <trkpt lat="44.35133" lon="11.20587">
        <ele>144.0</ele>
      </trkpt>
      <trkpt lat="44.35037" lon="11.20599">
        <ele>139.0</ele>
      </trkpt>
      <trkpt lat="44.34945" lon="11.20576">
        <ele>135.0</ele>
      </trkpt>
      <trkpt lat="44.34849" lon="11.20529">
        <ele>137.0</ele>
      </trkpt>
      <trkpt lat="44.34756" lon="11.20497">
        <ele>139.0</ele>
      </trkpt>
      <trkpt lat="44.34676" lon="11.20507">
        <ele>138.0</ele>
      </trkpt>
      <trkpt lat="44.34604" lon="11.20475">
        <ele>137.0</ele>
      </trkpt>
      <trkpt lat="44.34549" lon="11.2047">
        <ele>139.0</ele>
      </trkpt>
      <trkpt lat="44.34517" lon="11.20522">
        <ele>142.0</ele>
      </trkpt>
      <trkpt lat="44.34483" lon="11.20617">
        <ele>145.0</ele>
      </trkpt>
      <trkpt lat="44.34426" lon="11.20659">
        <ele>142.0</ele>
      </trkpt>
      <trkpt lat="44.34356" lon="11.20679">
        <ele>137.0</ele>
      </trkpt>
      <trkpt lat="44.34238" lon="11.20549">
        <ele>132.0</ele>
      </trkpt>
      <trkpt lat="44.34163" lon="11.20447">
        <ele>130.0</ele>
      </trkpt>
      <trkpt lat="44.34126" lon="11.20395">
        <ele>132.0</ele>
      </trkpt>
      <trkpt lat="44.34067" lon="11.20318">
        <ele>135.0</ele>
      </trkpt>
      <trkpt lat="44.33951" lon="11.20286">
        <ele>139.0</ele>
      </trkpt>
      <trkpt lat="44.33767" lon="11.20337">
        <ele>148.0</ele>
      </trkpt>
      <trkpt lat="44.33714" lon="11.20309">
        <ele>153.0</ele>
      </trkpt>
      <trkpt lat="44.33695" lon="11.20229">
        <ele>157.0</ele>
      </trkpt>
      <trkpt lat="44.33638" lon="11.20159">
        <ele>161.0</ele>
      </trkpt>
      <trkpt lat="44.33571" lon="11.20097">
        <ele>164.0</ele>
      </trkpt>
      <trkpt lat="44.3352" lon="11.20022">
        <ele>161.0</ele>
      </trkpt>
      <trkpt lat="44.33546" lon="11.19785">
        <ele>150.0</ele>
      </trkpt>
      <trkpt lat="44.33519" lon="11.1967">
        <ele>148.0</ele>
      </trkpt>
      <trkpt lat="44.3349" lon="11.1955">
        <ele>147.0</ele>
      </trkpt>
      <trkpt lat="44.33459" lon="11.19431">
        <ele>144.0</ele>
      </trkpt>
      <trkpt lat="44.33427" lon="11.19297">
        <ele>140.0</ele>
      </trkpt>
      <trkpt lat="44.334" lon="11.19194">
        <ele>140.0</ele>
      </trkpt>
      <trkpt lat="44.33373" lon="11.19111">
        <ele>141.0</ele>
      </trkpt>
      <trkpt lat="44.3334" lon="11.1901">
        <ele>143.0</ele>
      </trkpt>
      <trkpt lat="44.33305" lon="11.18904">
        <ele>145.0</ele>
      </trkpt>
      <trkpt lat="44.33261" lon="11.18777">
        <ele>147.0</ele>
      </trkpt>
      <trkpt lat="44.33184" lon="11.18657">
        <ele>147.0</ele>
      </trkpt>
      <trkpt lat="44.33141" lon="11.18605">
        <ele>148.0</ele>
      </trkpt>
      <trkpt lat="44.33099" lon="11.1856">
        <ele>149.0</ele>
      </trkpt>
      <trkpt lat="44.3305" lon="11.18514">
        <ele>150.0</ele>
      </trkpt>
      <trkpt lat="44.32977" lon="11.18486">
        <ele>151.0</ele>
      </trkpt>
      <trkpt lat="44.32898" lon="11.18442">
        <ele>154.0</ele>
      </trkpt>
      <trkpt lat="44.3283" lon="11.18457">
        <ele>157.0</ele>
      </trkpt>
      <trkpt lat="44.32742" lon="11.18518">
        <ele>160.0</ele>
      </trkpt>
      <trkpt lat="44.32669" lon="11.18547">
        <ele>163.0</ele>
      </trkpt>
      <trkpt lat="44.32601" lon="11.18491">
        <ele>165.0</ele>
      </trkpt>
      <trkpt lat="44.32537" lon="11.18382">
        <ele>167.0</ele>
      </trkpt>
      <trkpt lat="44.32485" lon="11.18284">
        <ele>168.0</ele>
      </trkpt>
      <trkpt lat="44.3247" lon="11.1818">
        <ele>168.0</ele>
      </trkpt>
      <trkpt lat="44.32433" lon="11.18086">
        <ele>166.0</ele>
      </trkpt>
      <trkpt lat="44.32424" lon="11.17992">
        <ele>162.0</ele>
      </trkpt>
      <trkpt lat="44.32395" lon="11.17962">
        <ele>159.0</ele>
      </trkpt>
      <trkpt lat="44.32331" lon="11.17976">
        <ele>157.0</ele>
      </trkpt>
      <trkpt lat="44.32258" lon="11.18013">
        <ele>156.0</ele>
      </trkpt>
      <trkpt lat="44.32203" lon="11.18029">
        <ele>155.0</ele>
      </trkpt>
      <trkpt lat="44.32124" lon="11.1803">
        <ele>155.0</ele>
      </trkpt>
      <trkpt lat="44.32047" lon="11.17968">
        <ele>156.0</ele>
      </trkpt>
      <trkpt lat="44.31967" lon="11.17947">
        <ele>159.0</ele>
      </trkpt>
      <trkpt lat="44.31901" lon="11.17993">
        <ele>164.0</ele>
      </trkpt>
      <trkpt lat="44.31821" lon="11.1806">
        <ele>169.0</ele>
      </trkpt>
      <trkpt lat="44.31761" lon="11.18106">
        <ele>172.0</ele>
      </trkpt>
      <trkpt lat="44.31705" lon="11.18073">
        <ele>175.0</ele>
      </trkpt>
      <trkpt lat="44.31654" lon="11.17987">
        <ele>178.0</ele>
      </trkpt>
      <trkpt lat="44.31607" lon="11.17917">
        <ele>186.0</ele>
      </trkpt>
      <trkpt lat="44.3156" lon="11.1783">
        <ele>195.0</ele>
      </trkpt>
      <trkpt lat="44.31536" lon="11.17736">
        <ele>197.0</ele>
      </trkpt>
      <trkpt lat="44.31496" lon="11.17628">
        <ele>197.0</ele>
      </trkpt>
      <trkpt lat="44.31476" lon="11.1752">
        <ele>197.0</ele>
      </trkpt>
      <trkpt lat="44.31446" lon="11.17418">
        <ele>197.0</ele>
      </trkpt>
      <trkpt lat="44.31392" lon="11.17326">
        <ele>197.0</ele>
      </trkpt>
      <trkpt lat="44.31375" lon="11.17213">
        <ele>193.0</ele>
      </trkpt>
      <trkpt lat="44.31379" lon="11.17092">
        <ele>189.0</ele>
      </trkpt>
      <trkpt lat="44.31414" lon="11.16996">
        <ele>189.0</ele>
      </trkpt>
      <trkpt lat="44.3147" lon="11.16938">
        <ele>191.0</ele>
      </trkpt>
      <trkpt lat="44.31509" lon="11.16835">
        <ele>190.0</ele>
      </trkpt>
      <trkpt lat="44.31502" lon="11.16757">
        <ele>186.0</ele>
      </trkpt>
      <trkpt lat="44.31442" lon="11.16734">
        <ele>182.0</ele>
      </trkpt>
      <trkpt lat="44.31391" lon="11.16675">
        <ele>179.0</ele>
      </trkpt>
      <trkpt lat="44.31371" lon="11.16625">
        <ele>177.0</ele>
      </trkpt>
      <trkpt lat="44.31381" lon="11.16576">
        <ele>175.0</ele>
      </trkpt>
      <trkpt lat="44.31384" lon="11.16521">
        <ele>174.0</ele>
      </trkpt>
      <trkpt lat="44.31355" lon="11.16455">
        <ele>171.0</ele>
      </trkpt>
      <trkpt lat="44.3131" lon="11.16357">
        <ele>166.0</ele>
      </trkpt>
      <trkpt lat="44.31302" lon="11.16266">
        <ele>162.0</ele>
      </trkpt>
      <trkpt lat="44.31329" lon="11.16167">
        <ele>161.0</ele>
      </trkpt>
      <trkpt lat="44.31353" lon="11.16063">
        <ele>160.0</ele>
      </trkpt>
      <trkpt lat="44.31355" lon="11.15953">
        <ele>161.0</ele>
      </trkpt>
      <trkpt lat="44.31331" lon="11.15882">
        <ele>162.0</ele>
      </trkpt>
      <trkpt lat="44.31267" lon="11.15809">
        <ele>163.0</ele>
      </trkpt>
      <trkpt lat="44.31186" lon="11.15777">
        <ele>162.0</ele>
      </trkpt>
      <trkpt lat="44.31033" lon="11.1577">
        <ele>162.0</ele>
      </trkpt>
      <trkpt lat="44.30887" lon="11.15764">
        <ele>171.0</ele>
      </trkpt>
      <trkpt lat="44.30796" lon="11.15752">
        <ele>175.0</ele>
      </trkpt>
      <trkpt lat="44.30731" lon="11.15718">
        <ele>177.0</ele>
      </trkpt>
      <trkpt lat="44.30655" lon="11.15664">
        <ele>179.0</ele>
      </trkpt>
      <trkpt lat="44.30579" lon="11.15636">
        <ele>181.0</ele>
      </trkpt>
      <trkpt lat="44.30518" lon="11.15569">
        <ele>183.0</ele>
      </trkpt>
      <trkpt lat="44.30491" lon="11.15455">
        <ele>180.0</ele>
      </trkpt>
      <trkpt lat="44.30491" lon="11.15348">
        <ele>177.0</ele>
      </trkpt>
      <trkpt lat="44.30504" lon="11.1521">
        <ele>179.0</ele>
      </trkpt>
      <trkpt lat="44.30517" lon="11.15088">
        <ele>184.0</ele>
      </trkpt>
      <trkpt lat="44.30531" lon="11.14945">
        <ele>190.0</ele>
      </trkpt>
      <trkpt lat="44.30537" lon="11.14827">
        <ele>195.0</ele>
      </trkpt>
      <trkpt lat="44.30479" lon="11.14752">
        <ele>196.0</ele>
      </trkpt>
      <trkpt lat="44.30406" lon="11.14704">
        <ele>193.0</ele>
      </trkpt>
      <trkpt lat="44.30355" lon="11.14633">
        <ele>191.0</ele>
      </trkpt>
      <trkpt lat="44.30311" lon="11.14587">
        <ele>192.0</ele>
      </trkpt>
      <trkpt lat="44.30264" lon="11.14506">
        <ele>194.0</ele>
      </trkpt>
      <trkpt lat="44.30256" lon="11.14386">
        <ele>195.0</ele>
      </trkpt>
      <trkpt lat="44.30258" lon="11.14282">
        <ele>196.0</ele>
      </trkpt>
      <trkpt lat="44.30259" lon="11.14158">
        <ele>197.0</ele>
      </trkpt>
      <trkpt lat="44.30271" lon="11.14039">
        <ele>199.0</ele>
      </trkpt>
      <trkpt lat="44.30233" lon="11.13925">
        <ele>201.0</ele>
      </trkpt>
      <trkpt lat="44.30183" lon="11.13816">
        <ele>197.0</ele>
      </trkpt>
      <trkpt lat="44.30163" lon="11.13694">
        <ele>194.0</ele>
      </trkpt>
      <trkpt lat="44.30154" lon="11.13572">
        <ele>192.0</ele>
      </trkpt>
      <trkpt lat="44.30126" lon="11.13478">
        <ele>190.0</ele>
      </trkpt>
      <trkpt lat="44.30082" lon="11.13411">
        <ele>188.0</ele>
      </trkpt>
      <trkpt lat="44.30103" lon="11.13323">
        <ele>186.0</ele>
      </trkpt>
      <trkpt lat="44.30149" lon="11.13257">
        <ele>185.0</ele>
      </trkpt>
      <trkpt lat="44.30175" lon="11.13167">
        <ele>184.0</ele>
      </trkpt>
      <trkpt lat="44.30163" lon="11.13073">
        <ele>184.0</ele>
      </trkpt>
      <trkpt lat="44.30196" lon="11.12985">
        <ele>183.0</ele>
      </trkpt>
      <trkpt lat="44.30205" lon="11.12903">
        <ele>183.0</ele>
      </trkpt>
      <trkpt lat="44.30188" lon="11.12785">
        <ele>182.0</ele>
      </trkpt>
      <trkpt lat="44.30166" lon="11.12636">
        <ele>181.0</ele>
      </trkpt>
      <trkpt lat="44.30161" lon="11.12509">
        <ele>181.0</ele>
      </trkpt>
      <trkpt lat="44.30161" lon="11.124">
        <ele>183.0</ele>
      </trkpt>
      <trkpt lat="44.3011" lon="11.12303">
        <ele>186.0</ele>
      </trkpt>
      <trkpt lat="44.30046" lon="11.12205">
        <ele>184.0</ele>
      </trkpt>
      <trkpt lat="44.29986" lon="11.1211">
        <ele>181.0</ele>
      </trkpt>
      <trkpt lat="44.29926" lon="11.11997">
        <ele>180.0</ele>
      </trkpt>
      <trkpt lat="44.29863" lon="11.11897">
        <ele>180.0</ele>
      </trkpt>
      <trkpt lat="44.2973" lon="11.11808">
        <ele>182.0</ele>
      </trkpt>
      <trkpt lat="44.29658" lon="11.11773">
        <ele>184.0</ele>
      </trkpt>
      <trkpt lat="44.29596" lon="11.1172">
        <ele>186.0</ele>
      </trkpt>
      <trkpt lat="44.29563" lon="11.11635">
        <ele>188.0</ele>
      </trkpt>
      <trkpt lat="44.29498" lon="11.11611">
        <ele>188.0</ele>
      </trkpt>
      <trkpt lat="44.29432" lon="11.11647">
        <ele>187.0</ele>
      </trkpt>
      <trkpt lat="44.29357" lon="11.11642">
        <ele>186.0</ele>
      </trkpt>
      <trkpt lat="44.29279" lon="11.11627">
        <ele>186.0</ele>
      </trkpt>
      <trkpt lat="44.29217" lon="11.11628">
        <ele>186.0</ele>
      </trkpt>
      <trkpt lat="44.2915" lon="11.11588">
        <ele>188.0</ele>
      </trkpt>
      <trkpt lat="44.29088" lon="11.11535">
        <ele>190.0</ele>
      </trkpt>
      <trkpt lat="44.29037" lon="11.11493">
        <ele>192.0</ele>
      </trkpt>
      <trkpt lat="44.28988" lon="11.1145">
        <ele>193.0</ele>
      </trkpt>
      <trkpt lat="44.28958" lon="11.11357">
        <ele>195.0</ele>
      </trkpt>
      <trkpt lat="44.28939" lon="11.11262">
        <ele>196.0</ele>
      </trkpt>
      <trkpt lat="44.28885" lon="11.11228">
        <ele>196.0</ele>
      </trkpt>
      <trkpt lat="44.28839" lon="11.11204">
        <ele>196.0</ele>
      </trkpt>
      <trkpt lat="44.28775" lon="11.11205">
        <ele>196.0</ele>
      </trkpt>
      <trkpt lat="44.28717" lon="11.11221">
        <ele>196.0</ele>
      </trkpt>
      <trkpt lat="44.28664" lon="11.11234">
        <ele>196.0</ele>
      </trkpt>
      <trkpt lat="44.28562" lon="11.11255">
        <ele>196.0</ele>
      </trkpt>
      <trkpt lat="44.28491" lon="11.11237">
        <ele>198.0</ele>
      </trkpt>
      <trkpt lat="44.28421" lon="11.11201">
        <ele>199.0</ele>
      </trkpt>
      <trkpt lat="44.28355" lon="11.11165">
        <ele>199.0</ele>
      </trkpt>
      <trkpt lat="44.28312" lon="11.11085">
        <ele>199.0</ele>
      </trkpt>
      <trkpt lat="44.28242" lon="11.11061">
        <ele>200.0</ele>
      </trkpt>
      <trkpt lat="44.28042" lon="11.11022">
        <ele>204.0</ele>
      </trkpt>
      <trkpt lat="44.2796" lon="11.11024">
        <ele>201.0</ele>
      </trkpt>
      <trkpt lat="44.27909" lon="11.11034">
        <ele>199.0</ele>
      </trkpt>
      <trkpt lat="44.2784" lon="11.11059">
        <ele>197.0</ele>
      </trkpt>
      <trkpt lat="44.27633" lon="11.11172">
        <ele>193.0</ele>
      </trkpt>
      <trkpt lat="44.27496" lon="11.11216">
        <ele>194.0</ele>
      </trkpt>
      <trkpt lat="44.27405" lon="11.11216">
        <ele>194.0</ele>
      </trkpt>
      <trkpt lat="44.27316" lon="11.11199">
        <ele>195.0</ele>
      </trkpt>
      <trkpt lat="44.27227" lon="11.11179">
        <ele>195.0</ele>
      </trkpt>
      <trkpt lat="44.27138" lon="11.11159">
        <ele>196.0</ele>
      </trkpt>
      <trkpt lat="44.27063" lon="11.11143">
        <ele>196.0</ele>
      </trkpt>
      <trkpt lat="44.26974" lon="11.11124">
        <ele>197.0</ele>
      </trkpt>
      <trkpt lat="44.26885" lon="11.11103">
        <ele>198.0</ele>
      </trkpt>
      <trkpt lat="44.26796" lon="11.11084">
        <ele>200.0</ele>
      </trkpt>
      <trkpt lat="44.26707" lon="11.11063">
        <ele>202.0</ele>
      </trkpt>
      <trkpt lat="44.26633" lon="11.11034">
        <ele>203.0</ele>
      </trkpt>
      <trkpt lat="44.26549" lon="11.10986">
        <ele>203.0</ele>
      </trkpt>
      <trkpt lat="44.26467" lon="11.10933">
        <ele>202.0</ele>
      </trkpt>
      <trkpt lat="44.26386" lon="11.10878">
        <ele>203.0</ele>
      </trkpt>
      <trkpt lat="44.26304" lon="11.10823">
        <ele>204.0</ele>
      </trkpt>
      <trkpt lat="44.26225" lon="11.10769">
        <ele>205.0</ele>
      </trkpt>
      <trkpt lat="44.26147" lon="11.10716">
        <ele>206.0</ele>
      </trkpt>
      <trkpt lat="44.26073" lon="11.10668">
        <ele>206.0</ele>
      </trkpt>
      <trkpt lat="44.26004" lon="11.10622">
        <ele>206.0</ele>
      </trkpt>
      <trkpt lat="44.25924" lon="11.10568">
        <ele>207.0</ele>
      </trkpt>
      <trkpt lat="44.25833" lon="11.10521">
        <ele>209.0</ele>
      </trkpt>
      <trkpt lat="44.25756" lon="11.10486">
        <ele>210.0</ele>
      </trkpt>
      <trkpt lat="44.25664" lon="11.10446">
        <ele>209.0</ele>
      </trkpt>
      <trkpt lat="44.25569" lon="11.10402">
        <ele>208.0</ele>
      </trkpt>
      <trkpt lat="44.25488" lon="11.10327">
        <ele>210.0</ele>
      </trkpt>
      <trkpt lat="44.25434" lon="11.10251">
        <ele>212.0</ele>
      </trkpt>
      <trkpt lat="44.25319" lon="11.09978">
        <ele>213.0</ele>
      </trkpt>
      <trkpt lat="44.25252" lon="11.09882">
        <ele>213.0</ele>
      </trkpt>
      <trkpt lat="44.25155" lon="11.09802">
        <ele>214.0</ele>
      </trkpt>
      <trkpt lat="44.25032" lon="11.09707">
        <ele>217.0</ele>
      </trkpt>
      <trkpt lat="44.24948" lon="11.09667">
        <ele>219.0</ele>
      </trkpt>
      <trkpt lat="44.24855" lon="11.09629">
        <ele>221.0</ele>
      </trkpt>
      <trkpt lat="44.24794" lon="11.09598">
        <ele>225.0</ele>
      </trkpt>
      <trkpt lat="44.24677" lon="11.09474">
        <ele>228.0</ele>
      </trkpt>
      <trkpt lat="44.24613" lon="11.09384">
        <ele>224.0</ele>
      </trkpt>
      <trkpt lat="44.24556" lon="11.09303">
        <ele>223.0</ele>
      </trkpt>
      <trkpt lat="44.24487" lon="11.09207">
        <ele>228.0</ele>
      </trkpt>
      <trkpt lat="44.2442" lon="11.09111">
        <ele>231.0</ele>
      </trkpt>
      <trkpt lat="44.24343" lon="11.09021">
        <ele>227.0</ele>
      </trkpt>
      <trkpt lat="44.24269" lon="11.08964">
        <ele>224.0</ele>
      </trkpt>
      <trkpt lat="44.24198" lon="11.08911">
        <ele>224.0</ele>
      </trkpt>
      <trkpt lat="44.24147" lon="11.08863">
        <ele>224.0</ele>
      </trkpt>
      <trkpt lat="44.24089" lon="11.08782">
        <ele>224.0</ele>
      </trkpt>
      <trkpt lat="44.24038" lon="11.08655">
        <ele>224.0</ele>
      </trkpt>
      <trkpt lat="44.24015" lon="11.08507">
        <ele>225.0</ele>
      </trkpt>
      <trkpt lat="44.24012" lon="11.08356">
        <ele>226.0</ele>
      </trkpt>
      <trkpt lat="44.24009" lon="11.08232">
        <ele>227.0</ele>
      </trkpt>
      <trkpt lat="44.23993" lon="11.0753">
        <ele>228.0</ele>
      </trkpt>
      <trkpt lat="44.23977" lon="11.07381">
        <ele>230.36</ele>
      </trkpt>
      <trkpt lat="44.23928" lon="11.07248">
        <ele>232.86</ele>
      </trkpt>
      <trkpt lat="44.23833" lon="11.07024">
        <ele>237.21</ele>
      </trkpt>
      <trkpt lat="44.23223" lon="11.05472">
        <ele>266.75</ele>
      </trkpt>
      <trkpt lat="44.22931" lon="11.05063">
        <ele>271.0</ele>
      </trkpt>
      <trkpt lat="44.22849" lon="11.04966">
        <ele>257.0</ele>
      </trkpt>
      <trkpt lat="44.22809" lon="11.049">
        <ele>249.0</ele>
      </trkpt>
      <trkpt lat="44.22778" lon="11.04822">
        <ele>252.0</ele>
      </trkpt>
      <trkpt lat="44.22751" lon="11.04684">
        <ele>261.0</ele>
      </trkpt>
      <trkpt lat="44.22764" lon="11.04144">
        <ele>262.0</ele>
      </trkpt>
      <trkpt lat="44.2276" lon="11.04022">
        <ele>257.0</ele>
      </trkpt>
      <trkpt lat="44.22743" lon="11.03931">
        <ele>261.0</ele>
      </trkpt>
      <trkpt lat="44.22735" lon="11.03884">
        <ele>264.0</ele>
      </trkpt>
      <trkpt lat="44.22743" lon="11.0386">
        <ele>266.0</ele>
      </trkpt>
      <trkpt lat="44.22737" lon="11.03834">
        <ele>268.0</ele>
      </trkpt>
      <trkpt lat="44.22694" lon="11.03784">
        <ele>269.0</ele>
      </trkpt>
      <trkpt lat="44.22678" lon="11.03737">
        <ele>270.0</ele>
      </trkpt>
      <trkpt lat="44.22647" lon="11.03549">
        <ele>271.0</ele>
      </trkpt>
      <trkpt lat="44.22535" lon="11.03174">
        <ele>275.0</ele>
      </trkpt>
      <trkpt lat="44.22528" lon="11.02994">
        <ele>278.0</ele>
      </trkpt>
      <trkpt lat="44.22449" lon="11.02902">
        <ele>279.0</ele>
      </trkpt>
      <trkpt lat="44.22373" lon="11.02938">
        <ele>279.0</ele>
      </trkpt>
      <trkpt lat="44.22309" lon="11.02939">
        <ele>278.0</ele>
      </trkpt>
      <trkpt lat="44.22197" lon="11.02934">
        <ele>275.0</ele>
      </trkpt>
      <trkpt lat="44.22095" lon="11.0296">
        <ele>273.0</ele>
      </trkpt>
      <trkpt lat="44.21961" lon="11.02882">
        <ele>272.0</ele>
      </trkpt>
      <trkpt lat="44.21787" lon="11.02697">
        <ele>274.0</ele>
      </trkpt>
      <trkpt lat="44.21525" lon="11.02493">
        <ele>280.0</ele>
      </trkpt>
      <trkpt lat="44.21241" lon="11.02432">
        <ele>291.0</ele>
      </trkpt>
      <trkpt lat="44.21107" lon="11.02359">
        <ele>296.0</ele>
      </trkpt>
      <trkpt lat="44.21004" lon="11.02358">
        <ele>299.0</ele>
      </trkpt>
      <trkpt lat="44.20903" lon="11.02359">
        <ele>302.0</ele>
      </trkpt>
      <trkpt lat="44.20832" lon="11.02106">
        <ele>306.0</ele>
      </trkpt>
      <trkpt lat="44.20773" lon="11.01914">
        <ele>312.0</ele>
      </trkpt>
      <trkpt lat="44.20703" lon="11.0184">
        <ele>316.0</ele>
      </trkpt>
      <trkpt lat="44.20627" lon="11.01735">
        <ele>319.0</ele>
      </trkpt>
      <trkpt lat="44.20525" lon="11.016">
        <ele>320.0</ele>
      </trkpt>
      <trkpt lat="44.20436" lon="11.01412">
        <ele>323.0</ele>
      </trkpt>
      <trkpt lat="44.20379" lon="11.01399">
        <ele>325.0</ele>
      </trkpt>
      <trkpt lat="44.20249" lon="11.01463">
        <ele>327.0</ele>
      </trkpt>
      <trkpt lat="44.20116" lon="11.01398">
        <ele>325.0</ele>
      </trkpt>
      <trkpt lat="44.20025" lon="11.01195">
        <ele>323.0</ele>
      </trkpt>
      <trkpt lat="44.19928" lon="11.01078">
        <ele>325.0</ele>
      </trkpt>
      <trkpt lat="44.19941" lon="11.00901">
        <ele>325.0</ele>
      </trkpt>
      <trkpt lat="44.19942" lon="11.0079">
        <ele>325.0</ele>
      </trkpt>
      <trkpt lat="44.19772" lon="11.00683">
        <ele>323.0</ele>
      </trkpt>
      <trkpt lat="44.19647" lon="11.0065">
        <ele>321.0</ele>
      </trkpt>
      <trkpt lat="44.19456" lon="11.00481">
        <ele>317.0</ele>
      </trkpt>
      <trkpt lat="44.19303" lon="11.0044">
        <ele>313.0</ele>
      </trkpt>
      <trkpt lat="44.19263" lon="11.00453">
        <ele>312.0</ele>
      </trkpt>
      <trkpt lat="44.1916" lon="11.00415">
        <ele>308.0</ele>
      </trkpt>
      <trkpt lat="44.19099" lon="11.00364">
        <ele>307.0</ele>
      </trkpt>
      <trkpt lat="44.18856" lon="11.00017">
        <ele>313.0</ele>
      </trkpt>
      <trkpt lat="44.1874" lon="10.99851">
        <ele>321.0</ele>
      </trkpt>
      <trkpt lat="44.18664" lon="10.99721">
        <ele>329.0</ele>
      </trkpt>
      <trkpt lat="44.18605" lon="10.99504">
        <ele>330.0</ele>
      </trkpt>
      <trkpt lat="44.18525" lon="10.99212">
        <ele>330.0</ele>
      </trkpt>
      <trkpt lat="44.18376" lon="10.98997">
        <ele>328.0</ele>
      </trkpt>
      <trkpt lat="44.18342" lon="10.98929">
        <ele>327.0</ele>
      </trkpt>
      <trkpt lat="44.18276" lon="10.98754">
        <ele>329.0</ele>
      </trkpt>
      <trkpt lat="44.18234" lon="10.98691">
        <ele>330.0</ele>
      </trkpt>
      <trkpt lat="44.18219" lon="10.98658">
        <ele>331.0</ele>
      </trkpt>
      <trkpt lat="44.18222" lon="10.98634">
        <ele>331.0</ele>
      </trkpt>
      <trkpt lat="44.18205" lon="10.98602">
        <ele>331.0</ele>
      </trkpt>
      <trkpt lat="44.1812" lon="10.98242">
        <ele>329.0</ele>
      </trkpt>
      <trkpt lat="44.18026" lon="10.98046">
        <ele>328.0</ele>
      </trkpt>
      <trkpt lat="44.18098" lon="10.97889">
        <ele>329.0</ele>
      </trkpt>
      <trkpt lat="44.18205" lon="10.97582">
        <ele>331.0</ele>
      </trkpt>
      <trkpt lat="44.18296" lon="10.97316">
        <ele>335.0</ele>
      </trkpt>
      <trkpt lat="44.18348" lon="10.97013">
        <ele>343.0</ele>
      </trkpt>
      <trkpt lat="44.18553" lon="10.96704">
        <ele>357.0</ele>
      </trkpt>
      <trkpt lat="44.18695" lon="10.9644">
        <ele>369.0</ele>
      </trkpt>
      <trkpt lat="44.18906" lon="10.96114">
        <ele>379.0</ele>
      </trkpt>
      <trkpt lat="44.1901" lon="10.96112">
        <ele>385.0</ele>
      </trkpt>
      <trkpt lat="44.18941" lon="10.95925">
        <ele>389.0</ele>
      </trkpt>
      <trkpt lat="44.18903" lon="10.95758">
        <ele>390.0</ele>
      </trkpt>
      <trkpt lat="44.19017" lon="10.95659">
        <ele>391.0</ele>
      </trkpt>
      <trkpt lat="44.19017" lon="10.95524">
        <ele>393.0</ele>
      </trkpt>
      <trkpt lat="44.19055" lon="10.95429">
        <ele>399.0</ele>
      </trkpt>
      <trkpt lat="44.19141" lon="10.95386">
        <ele>404.0</ele>
      </trkpt>
      <trkpt lat="44.19111" lon="10.95368">
        <ele>406.0</ele>
      </trkpt>
      <trkpt lat="44.1903" lon="10.95346">
        <ele>408.0</ele>
      </trkpt>
      <trkpt lat="44.1903" lon="10.95327">
        <ele>410.0</ele>
      </trkpt>
      <trkpt lat="44.19188" lon="10.95277">
        <ele>418.0</ele>
      </trkpt>
      <trkpt lat="44.19244" lon="10.95223">
        <ele>427.0</ele>
      </trkpt>
      <trkpt lat="44.19163" lon="10.95269">
        <ele>429.0</ele>
      </trkpt>
      <trkpt lat="44.1912" lon="10.95237">
        <ele>431.0</ele>
      </trkpt>
      <trkpt lat="44.19136" lon="10.9517">
        <ele>438.0</ele>
      </trkpt>
      <trkpt lat="44.19191" lon="10.95153">
        <ele>444.0</ele>
      </trkpt>
      <trkpt lat="44.19237" lon="10.95025">
        <ele>454.0</ele>
      </trkpt>
      <trkpt lat="44.1943" lon="10.94705">
        <ele>480.0</ele>
      </trkpt>
      <trkpt lat="44.19469" lon="10.9451">
        <ele>505.0</ele>
      </trkpt>
      <trkpt lat="44.19446" lon="10.94473">
        <ele>510.0</ele>
      </trkpt>
      <trkpt lat="44.19403" lon="10.94163">
        <ele>515.0</ele>
      </trkpt>
      <trkpt lat="44.19231" lon="10.93967">
        <ele>528.0</ele>
      </trkpt>
      <trkpt lat="44.19145" lon="10.93957">
        <ele>535.0</ele>
      </trkpt>
      <trkpt lat="44.19122" lon="10.93904">
        <ele>538.0</ele>
      </trkpt>
      <trkpt lat="44.19112" lon="10.93845">
        <ele>541.0</ele>
      </trkpt>
      <trkpt lat="44.19037" lon="10.93744">
        <ele>546.0</ele>
      </trkpt>
      <trkpt lat="44.19062" lon="10.93728">
        <ele>549.0</ele>
      </trkpt>
      <trkpt lat="44.19134" lon="10.93805">
        <ele>553.0</ele>
      </trkpt>
      <trkpt lat="44.19167" lon="10.93803">
        <ele>556.0</ele>
      </trkpt>
      <trkpt lat="44.1923" lon="10.93761">
        <ele>560.0</ele>
      </trkpt>
      <trkpt lat="44.19318" lon="10.93782">
        <ele>565.0</ele>
      </trkpt>
      <trkpt lat="44.19412" lon="10.93709">
        <ele>569.0</ele>
      </trkpt>
      <trkpt lat="44.1962" lon="10.93721">
        <ele>576.0</ele>
      </trkpt>
      <trkpt lat="44.1974" lon="10.93687">
        <ele>587.0</ele>
      </trkpt>
      <trkpt lat="44.1981" lon="10.93601">
        <ele>594.0</ele>
      </trkpt>
      <trkpt lat="44.19841" lon="10.93486">
        <ele>601.0</ele>
      </trkpt>
      <trkpt lat="44.19931" lon="10.93483">
        <ele>608.0</ele>
      </trkpt>
      <trkpt lat="44.19875" lon="10.93424">
        <ele>612.0</ele>
      </trkpt>
      <trkpt lat="44.19819" lon="10.93365">
        <ele>617.0</ele>
      </trkpt>
      <trkpt lat="44.19709" lon="10.93365">
        <ele>621.0</ele>
      </trkpt>
      <trkpt lat="44.19591" lon="10.93278">
        <ele>629.0</ele>
      </trkpt>
      <trkpt lat="44.19616" lon="10.9324">
        <ele>634.0</ele>
      </trkpt>
      <trkpt lat="44.19709" lon="10.93186">
        <ele>639.0</ele>
      </trkpt>
      <trkpt lat="44.19734" lon="10.9312">
        <ele>644.0</ele>
      </trkpt>
      <trkpt lat="44.19529" lon="10.93067">
        <ele>651.0</ele>
      </trkpt>
      <trkpt lat="44.19334" lon="10.9297">
        <ele>655.0</ele>
      </trkpt>
      <trkpt lat="44.19174" lon="10.92684">
        <ele>661.0</ele>
      </trkpt>
      <trkpt lat="44.19227" lon="10.92325">
        <ele>665.0</ele>
      </trkpt>
      <trkpt lat="44.19174" lon="10.92194">
        <ele>671.0</ele>
      </trkpt>
      <trkpt lat="44.18993" lon="10.92223">
        <ele>679.0</ele>
      </trkpt>
      <trkpt lat="44.18823" lon="10.92099">
        <ele>683.0</ele>
      </trkpt>
      <trkpt lat="44.18785" lon="10.91887">
        <ele>688.0</ele>
      </trkpt>
      <trkpt lat="44.18718" lon="10.91739">
        <ele>696.0</ele>
      </trkpt>
      <trkpt lat="44.186" lon="10.9158">
        <ele>701.0</ele>
      </trkpt>
      <trkpt lat="44.18519" lon="10.91537">
        <ele>706.0</ele>
      </trkpt>
      <trkpt lat="44.1847" lon="10.91522">
        <ele>709.0</ele>
      </trkpt>
      <trkpt lat="44.18494" lon="10.91473">
        <ele>711.0</ele>
      </trkpt>
      <trkpt lat="44.18525" lon="10.9136">
        <ele>710.0</ele>
      </trkpt>
      <trkpt lat="44.18553" lon="10.9122">
        <ele>708.0</ele>
      </trkpt>
      <trkpt lat="44.18509" lon="10.9091">
        <ele>715.0</ele>
      </trkpt>
      <trkpt lat="44.18532" lon="10.90806">
        <ele>720.0</ele>
      </trkpt>
      <trkpt lat="44.1857" lon="10.90612">
        <ele>727.0</ele>
      </trkpt>
      <trkpt lat="44.18637" lon="10.90488">
        <ele>733.0</ele>
      </trkpt>
      <trkpt lat="44.188" lon="10.90442">
        <ele>742.0</ele>
      </trkpt>
      <trkpt lat="44.18938" lon="10.90348">
        <ele>749.0</ele>
      </trkpt>
      <trkpt lat="44.18991" lon="10.90148">
        <ele>755.0</ele>
      </trkpt>
      <trkpt lat="44.19158" lon="10.89827">
        <ele>775.0</ele>
      </trkpt>
      <trkpt lat="44.19228" lon="10.89727">
        <ele>783.0</ele>
      </trkpt>
      <trkpt lat="44.19166" lon="10.89528">
        <ele>788.0</ele>
      </trkpt>
      <trkpt lat="44.1921" lon="10.89383">
        <ele>792.0</ele>
      </trkpt>
      <trkpt lat="44.19225" lon="10.89162">
        <ele>797.0</ele>
      </trkpt>
      <trkpt lat="44.19308" lon="10.88973">
        <ele>805.0</ele>
      </trkpt>
      <trkpt lat="44.19266" lon="10.88771">
        <ele>808.0</ele>
      </trkpt>
      <trkpt lat="44.19154" lon="10.88543">
        <ele>811.0</ele>
      </trkpt>
      <trkpt lat="44.19091" lon="10.8857">
        <ele>806.0</ele>
      </trkpt>
      <trkpt lat="44.18971" lon="10.88407">
        <ele>796.0</ele>
      </trkpt>
      <trkpt lat="44.18862" lon="10.88397">
        <ele>791.0</ele>
      </trkpt>
      <trkpt lat="44.18705" lon="10.8831">
        <ele>786.0</ele>
      </trkpt>
      <trkpt lat="44.18538" lon="10.882">
        <ele>780.0</ele>
      </trkpt>
      <trkpt lat="44.18552" lon="10.88076">
        <ele>776.0</ele>
      </trkpt>
      <trkpt lat="44.18569" lon="10.87908">
        <ele>770.0</ele>
      </trkpt>
      <trkpt lat="44.18493" lon="10.87819">
        <ele>766.0</ele>
      </trkpt>
      <trkpt lat="44.18468" lon="10.87722">
        <ele>764.0</ele>
      </trkpt>
      <trkpt lat="44.18324" lon="10.87657">
        <ele>762.0</ele>
      </trkpt>
      <trkpt lat="44.18168" lon="10.87739">
        <ele>761.0</ele>
      </trkpt>
      <trkpt lat="44.18089" lon="10.87726">
        <ele>761.0</ele>
      </trkpt>
      <trkpt lat="44.18021" lon="10.87706">
        <ele>759.0</ele>
      </trkpt>
      <trkpt lat="44.17932" lon="10.87678">
        <ele>753.0</ele>
      </trkpt>
      <trkpt lat="44.17907" lon="10.87586">
        <ele>749.0</ele>
      </trkpt>
      <trkpt lat="44.17843" lon="10.87467">
        <ele>749.0</ele>
      </trkpt>
      <trkpt lat="44.17736" lon="10.87268">
        <ele>745.0</ele>
      </trkpt>
      <trkpt lat="44.17611" lon="10.87164">
        <ele>741.0</ele>
      </trkpt>
      <trkpt lat="44.17499" lon="10.87175">
        <ele>740.0</ele>
      </trkpt>
      <trkpt lat="44.1743" lon="10.87282">
        <ele>742.0</ele>
      </trkpt>
      <trkpt lat="44.17404" lon="10.87428">
        <ele>744.0</ele>
      </trkpt>
      <trkpt lat="44.17369" lon="10.87622">
        <ele>748.0</ele>
      </trkpt>
      <trkpt lat="44.17397" lon="10.87769">
        <ele>742.0</ele>
      </trkpt>
      <trkpt lat="44.17336" lon="10.87886">
        <ele>733.0</ele>
      </trkpt>
      <trkpt lat="44.17339" lon="10.88052">
        <ele>729.0</ele>
      </trkpt>
      <trkpt lat="44.17294" lon="10.8828">
        <ele>721.0</ele>
      </trkpt>
      <trkpt lat="44.17227" lon="10.88263">
        <ele>716.0</ele>
      </trkpt>
      <trkpt lat="44.17193" lon="10.88255">
        <ele>714.0</ele>
      </trkpt>
      <trkpt lat="44.17085" lon="10.8828">
        <ele>721.0</ele>
      </trkpt>
      <trkpt lat="44.17039" lon="10.88317">
        <ele>726.0</ele>
      </trkpt>
      <trkpt lat="44.16992" lon="10.88256">
        <ele>730.0</ele>
      </trkpt>
      <trkpt lat="44.16931" lon="10.88147">
        <ele>736.0</ele>
      </trkpt>
      <trkpt lat="44.16925" lon="10.88052">
        <ele>741.0</ele>
      </trkpt>
      <trkpt lat="44.16816" lon="10.87977">
        <ele>752.0</ele>
      </trkpt>
      <trkpt lat="44.16755" lon="10.87924">
        <ele>762.0</ele>
      </trkpt>
      <trkpt lat="44.16676" lon="10.87877">
        <ele>771.0</ele>
      </trkpt>
      <trkpt lat="44.16672" lon="10.87866">
        <ele>774.0</ele>
      </trkpt>
      <trkpt lat="44.16692" lon="10.87865">
        <ele>775.0</ele>
      </trkpt>
      <trkpt lat="44.16771" lon="10.87777">
        <ele>780.0</ele>
      </trkpt>
      <trkpt lat="44.16889" lon="10.87661">
        <ele>789.0</ele>
      </trkpt>
      <trkpt lat="44.16971" lon="10.87538">
        <ele>802.0</ele>
      </trkpt>
      <trkpt lat="44.17053" lon="10.87392">
        <ele>808.0</ele>
      </trkpt>
      <trkpt lat="44.17075" lon="10.87331">
        <ele>811.0</ele>
      </trkpt>
      <trkpt lat="44.17066" lon="10.87262">
        <ele>812.0</ele>
      </trkpt>
      <trkpt lat="44.17064" lon="10.87167">
        <ele>814.0</ele>
      </trkpt>
      <trkpt lat="44.17116" lon="10.87073">
        <ele>819.0</ele>
      </trkpt>
      <trkpt lat="44.1701" lon="10.87103">
        <ele>826.0</ele>
      </trkpt>
      <trkpt lat="44.17093" lon="10.87032">
        <ele>833.0</ele>
      </trkpt>
      <trkpt lat="44.17153" lon="10.86978">
        <ele>842.0</ele>
      </trkpt>
      <trkpt lat="44.17146" lon="10.86815">
        <ele>859.0</ele>
      </trkpt>
      <trkpt lat="44.1715" lon="10.86703">
        <ele>870.0</ele>
      </trkpt>
      <trkpt lat="44.17206" lon="10.86508">
        <ele>875.0</ele>
      </trkpt>
      <trkpt lat="44.17116" lon="10.86271">
        <ele>888.0</ele>
      </trkpt>
      <trkpt lat="44.17113" lon="10.86187">
        <ele>896.0</ele>
      </trkpt>
      <trkpt lat="44.17167" lon="10.86279">
        <ele>899.0</ele>
      </trkpt>
      <trkpt lat="44.17222" lon="10.86341">
        <ele>903.0</ele>
      </trkpt>
      <trkpt lat="44.17238" lon="10.86301">
        <ele>906.0</ele>
      </trkpt>
      <trkpt lat="44.17195" lon="10.86183">
        <ele>911.0</ele>
      </trkpt>
      <trkpt lat="44.17194" lon="10.86086">
        <ele>918.0</ele>
      </trkpt>
      <trkpt lat="44.17221" lon="10.85943">
        <ele>927.0</ele>
      </trkpt>
      <trkpt lat="44.1721" lon="10.85704">
        <ele>935.0</ele>
      </trkpt>
      <trkpt lat="44.17166" lon="10.85454">
        <ele>934.0</ele>
      </trkpt>
      <trkpt lat="44.17168" lon="10.85349">
        <ele>932.0</ele>
      </trkpt>
      <trkpt lat="44.17177" lon="10.85185">
        <ele>932.0</ele>
      </trkpt>
      <trkpt lat="44.17142" lon="10.85029">
        <ele>925.0</ele>
      </trkpt>
      <trkpt lat="44.17149" lon="10.84953">
        <ele>920.0</ele>
      </trkpt>
      <trkpt lat="44.17097" lon="10.84815">
        <ele>921.0</ele>
      </trkpt>
      <trkpt lat="44.17067" lon="10.84697">
        <ele>925.0</ele>
      </trkpt>
      <trkpt lat="44.17147" lon="10.84488">
        <ele>933.0</ele>
      </trkpt>
      <trkpt lat="44.17177" lon="10.84267">
        <ele>944.0</ele>
      </trkpt>
      <trkpt lat="44.17089" lon="10.84082">
        <ele>960.0</ele>
      </trkpt>
      <trkpt lat="44.17008" lon="10.83864">
        <ele>974.0</ele>
      </trkpt>
      <trkpt lat="44.16889" lon="10.83788">
        <ele>981.0</ele>
      </trkpt>
      <trkpt lat="44.16811" lon="10.83849">
        <ele>992.0</ele>
      </trkpt>
      <trkpt lat="44.16691" lon="10.8378">
        <ele>1005.0</ele>
      </trkpt>
      <trkpt lat="44.16513" lon="10.83677">
        <ele>1012.0</ele>
      </trkpt>
      <trkpt lat="44.1641" lon="10.83612">
        <ele>1015.0</ele>
      </trkpt>
      <trkpt lat="44.16375" lon="10.83525">
        <ele>1014.0</ele>
      </trkpt>
      <trkpt lat="44.16295" lon="10.83551">
        <ele>1013.0</ele>
      </trkpt>
      <trkpt lat="44.16187" lon="10.8358">
        <ele>1011.0</ele>
      </trkpt>
      <trkpt lat="44.16078" lon="10.83678">
        <ele>1008.0</ele>
      </trkpt>
      <trkpt lat="44.15955" lon="10.83727">
        <ele>1003.0</ele>
      </trkpt>
      <trkpt lat="44.15871" lon="10.83781">
        <ele>1003.0</ele>
      </trkpt>
      <trkpt lat="44.15828" lon="10.83839">
        <ele>1005.0</ele>
      </trkpt>
      <trkpt lat="44.15726" lon="10.83822">
        <ele>1005.0</ele>
      </trkpt>
      <trkpt lat="44.15649" lon="10.8382">
        <ele>1003.0</ele>
      </trkpt>
      <trkpt lat="44.15525" lon="10.8393">
        <ele>1008.0</ele>
      </trkpt>
      <trkpt lat="44.15446" lon="10.84022">
        <ele>1016.0</ele>
      </trkpt>
      <trkpt lat="44.15374" lon="10.84048">
        <ele>1021.0</ele>
      </trkpt>
      <trkpt lat="44.15354" lon="10.84128">
        <ele>1024.0</ele>
      </trkpt>
      <trkpt lat="44.1529" lon="10.84115">
        <ele>1031.0</ele>
      </trkpt>
      <trkpt lat="44.15302" lon="10.83869">
        <ele>1046.0</ele>
      </trkpt>
      <trkpt lat="44.15378" lon="10.83697">
        <ele>1055.0</ele>
      </trkpt>
      <trkpt lat="44.15413" lon="10.83616">
        <ele>1064.0</ele>
      </trkpt>
      <trkpt lat="44.15282" lon="10.83473">
        <ele>1076.0</ele>
      </trkpt>
      <trkpt lat="44.15261" lon="10.83419">
        <ele>1082.0</ele>
      </trkpt>
      <trkpt lat="44.15317" lon="10.83427">
        <ele>1085.0</ele>
      </trkpt>
      <trkpt lat="44.15353" lon="10.8342">
        <ele>1090.0</ele>
      </trkpt>
      <trkpt lat="44.15381" lon="10.83332">
        <ele>1100.0</ele>
      </trkpt>
      <trkpt lat="44.15392" lon="10.83291">
        <ele>1110.0</ele>
      </trkpt>
      <trkpt lat="44.15318" lon="10.83312">
        <ele>1123.0</ele>
      </trkpt>
      <trkpt lat="44.15344" lon="10.83233">
        <ele>1136.0</ele>
      </trkpt>
      <trkpt lat="44.15388" lon="10.83152">
        <ele>1142.0</ele>
      </trkpt>
      <trkpt lat="44.15489" lon="10.83036">
        <ele>1150.0</ele>
      </trkpt>
      <trkpt lat="44.15423" lon="10.82769">
        <ele>1162.0</ele>
      </trkpt>
      <trkpt lat="44.15394" lon="10.82597">
        <ele>1172.0</ele>
      </trkpt>
      <trkpt lat="44.15322" lon="10.82493">
        <ele>1177.0</ele>
      </trkpt>
      <trkpt lat="44.15288" lon="10.82391">
        <ele>1179.0</ele>
      </trkpt>
      <trkpt lat="44.15171" lon="10.82345">
        <ele>1181.0</ele>
      </trkpt>
      <trkpt lat="44.15108" lon="10.8239">
        <ele>1182.0</ele>
      </trkpt>
      <trkpt lat="44.15006" lon="10.82502">
        <ele>1185.0</ele>
      </trkpt>
      <trkpt lat="44.14957" lon="10.82481">
        <ele>1189.0</ele>
      </trkpt>
      <trkpt lat="44.14845" lon="10.82438">
        <ele>1197.0</ele>
      </trkpt>
      <trkpt lat="44.14805" lon="10.82452">
        <ele>1206.0</ele>
      </trkpt>
      <trkpt lat="44.1473" lon="10.82316">
        <ele>1221.0</ele>
      </trkpt>
      <trkpt lat="44.1467" lon="10.82269">
        <ele>1231.0</ele>
      </trkpt>
      <trkpt lat="44.14607" lon="10.82154">
        <ele>1243.0</ele>
      </trkpt>
      <trkpt lat="44.14545" lon="10.82103">
        <ele>1256.0</ele>
      </trkpt>
      <trkpt lat="44.14401" lon="10.81944">
        <ele>1279.0</ele>
      </trkpt>
      <trkpt lat="44.14254" lon="10.81962">
        <ele>1298.0</ele>
      </trkpt>
      <trkpt lat="44.1417" lon="10.82001">
        <ele>1318.0</ele>
      </trkpt>
      <trkpt lat="44.14098" lon="10.81923">
        <ele>1326.0</ele>
      </trkpt>
      <trkpt lat="44.14012" lon="10.81978">
        <ele>1331.0</ele>
      </trkpt>
      <trkpt lat="44.13958" lon="10.82063">
        <ele>1344.0</ele>
      </trkpt>
      <trkpt lat="44.13838" lon="10.8217">
        <ele>1366.0</ele>
      </trkpt>
      <trkpt lat="44.13794" lon="10.82076">
        <ele>1373.0</ele>
      </trkpt>
      <trkpt lat="44.13702" lon="10.81987">
        <ele>1384.0</ele>
      </trkpt>
      <trkpt lat="44.13561" lon="10.8212">
        <ele>1406.0</ele>
      </trkpt>
      <trkpt lat="44.13405" lon="10.82198">
        <ele>1421.0</ele>
      </trkpt>
      <trkpt lat="44.13356" lon="10.82145">
        <ele>1429.0</ele>
      </trkpt>
      <trkpt lat="44.13359" lon="10.82071">
        <ele>1432.0</ele>
      </trkpt>
      <trkpt lat="44.13378" lon="10.81791">
        <ele>1447.0</ele>
      </trkpt>
      <trkpt lat="44.13335" lon="10.81613">
        <ele>1461.0</ele>
      </trkpt>
      <trkpt lat="44.13349" lon="10.81494">
        <ele>1466.0</ele>
      </trkpt>
      <trkpt lat="44.13335" lon="10.81458">
        <ele>1468.0</ele>
      </trkpt>
      <trkpt lat="44.13265" lon="10.81435">
        <ele>1471.0</ele>
      </trkpt>
    </trkseg>
  </trk>
</gpx>