<?xml version="1.0" encoding="UTF-8"?>
<gpx xmlns="http://www.topografix.com/GPX/1/0" xmlns:xsi="http://www.w3.org/2001/XMLSchema-instance" xsi:schemaLocation="http://www.topografix.com/GPX/1/0 http://www.topografix.com/GPX/1/0/gpx.xsd" version="1.0" creator="GPSBabel - https://www.gpsbabel.org">
  <time>2025-12-11T11:29:22.407000Z</time>
  <bounds minlat="44.99701" maxlat="45.50703" minlon="8.91909" maxlon="9.16945" />
  <trk>
    <trkseg>
      <trkpt lat="44.99712" lon="9.06441">
        <ele>90.0</ele>
      </trkpt>
      <trkpt lat="44.99709" lon="9.06666">
        <ele>89.0</ele>
      </trkpt>
      <trkpt lat="44.9971" lon="9.06823">
        <ele>87.0</ele>
      </trkpt>
      <trkpt lat="44.99702" lon="9.06844">
        <ele>87.0</ele>
      </trkpt>
      <trkpt lat="44.99704" lon="9.06869">
        <ele>87.0</ele>
      </trkpt>
      <trkpt lat="44.99713" lon="9.06903">
        <ele>87.0</ele>
      </trkpt>
      <trkpt lat="44.9973" lon="9.07398">
        <ele>88.0</ele>
      </trkpt>
      <trkpt lat="44.99744" lon="9.07903">
        <ele>88.0</ele>
      </trkpt>
      <trkpt lat="44.99765" lon="9.08572">
        <ele>90.0</ele>
      </trkpt>
      <trkpt lat="44.99787" lon="9.08686">
        <ele>90.0</ele>
      </trkpt>
      <trkpt lat="44.99884" lon="9.09011">
        <ele>88.0</ele>
      </trkpt>
      <trkpt lat="44.99982" lon="9.09333">
        <ele>87.0</ele>
      </trkpt>
      <trkpt lat="45.0004" lon="9.09522">
        <ele>87.0</ele>
      </trkpt>
      <trkpt lat="45.00103" lon="9.09716">
        <ele>87.0</ele>
      </trkpt>
      <trkpt lat="45.00165" lon="9.09852">
        <ele>87.0</ele>
      </trkpt>
      <trkpt lat="45.00227" lon="9.09956">
        <ele>87.0</ele>
      </trkpt>
      <trkpt lat="45.00332" lon="9.10102">
        <ele>88.0</ele>
      </trkpt>
      <trkpt lat="45.00379" lon="9.10167">
        <ele>89.0</ele>
      </trkpt>
      <trkpt lat="45.00441" lon="9.10256">
        <ele>90.0</ele>
      </trkpt>
      <trkpt lat="45.00552" lon="9.10413">
        <ele>91.0</ele>
      </trkpt>
      <trkpt lat="45.00568" lon="9.10436">
        <ele>91.0</ele>
      </trkpt>
      <trkpt lat="45.00667" lon="9.10574">
        <ele>91.0</ele>
      </trkpt>
      <trkpt lat="45.00702" lon="9.10647">
        <ele>91.0</ele>
      </trkpt>
      <trkpt lat="45.00706" lon="9.10665">
        <ele>91.0</ele>
      </trkpt>
      <trkpt lat="45.00758" lon="9.10829">
        <ele>91.0</ele>
      </trkpt>
      <trkpt lat="45.00802" lon="9.10958">
        <ele>92.0</ele>
      </trkpt>
      <trkpt lat="45.00839" lon="9.11064">
        <ele>92.0</ele>
      </trkpt>
      <trkpt lat="45.00858" lon="9.11113">
        <ele>92.0</ele>
      </trkpt>
      <trkpt lat="45.00914" lon="9.11231">
        <ele>89.0</ele>
      </trkpt>
      <trkpt lat="45.00978" lon="9.11337">
        <ele>88.0</ele>
      </trkpt>
      <trkpt lat="45.0106" lon="9.11451">
        <ele>90.0</ele>
      </trkpt>
      <trkpt lat="45.01108" lon="9.11517">
        <ele>91.0</ele>
      </trkpt>
      <trkpt lat="45.01123" lon="9.11557">
        <ele>91.0</ele>
      </trkpt>
      <trkpt lat="45.01122" lon="9.11583">
        <ele>91.0</ele>
      </trkpt>
      <trkpt lat="45.01139" lon="9.11589">
        <ele>90.0</ele>
      </trkpt>
      <trkpt lat="45.01153" lon="9.11587">
        <ele>90.0</ele>
      </trkpt>
      <trkpt lat="45.01204" lon="9.11648">
        <ele>90.0</ele>
      </trkpt>
      <trkpt lat="45.01261" lon="9.11726">
        <ele>90.0</ele>
      </trkpt>
      <trkpt lat="45.01298" lon="9.11777">
        <ele>90.0</ele>
      </trkpt>
      <trkpt lat="45.01343" lon="9.11839">
        <ele>90.0</ele>
      </trkpt>
      <trkpt lat="45.01408" lon="9.11928">
        <ele>91.0</ele>
      </trkpt>
      <trkpt lat="45.01455" lon="9.11995">
        <ele>91.0</ele>
      </trkpt>
      <trkpt lat="45.01475" lon="9.12041">
        <ele>91.0</ele>
      </trkpt>
      <trkpt lat="45.01495" lon="9.12161">
        <ele>91.0</ele>
      </trkpt>
      <trkpt lat="45.01506" lon="9.12224">
        <ele>91.0</ele>
      </trkpt>
      <trkpt lat="45.01528" lon="9.12359">
        <ele>90.0</ele>
      </trkpt>
      <trkpt lat="45.01547" lon="9.12471">
        <ele>90.0</ele>
      </trkpt>
      <trkpt lat="45.01562" lon="9.12575">
        <ele>90.0</ele>
      </trkpt>
      <trkpt lat="45.01595" lon="9.12766">
        <ele>90.0</ele>
      </trkpt>
      <trkpt lat="45.01604" lon="9.12833">
        <ele>90.0</ele>
      </trkpt>
      <trkpt lat="45.016" lon="9.12855">
        <ele>90.0</ele>
      </trkpt>
      <trkpt lat="45.01605" lon="9.12873">
        <ele>90.0</ele>
      </trkpt>
      <trkpt lat="45.01625" lon="9.12948">
        <ele>89.0</ele>
      </trkpt>
      <trkpt lat="45.01636" lon="9.13019">
        <ele>89.0</ele>
      </trkpt>
      <trkpt lat="45.01641" lon="9.13053">
        <ele>88.0</ele>
      </trkpt>
      <trkpt lat="45.01642" lon="9.13063">
        <ele>88.0</ele>
      </trkpt>
      <trkpt lat="45.01657" lon="9.1309">
        <ele>88.0</ele>
      </trkpt>
      <trkpt lat="45.01705" lon="9.13178">
        <ele>88.0</ele>
      </trkpt>
      <trkpt lat="45.01731" lon="9.13221">
        <ele>88.0</ele>
      </trkpt>
      <trkpt lat="45.01754" lon="9.13246">
        <ele>87.0</ele>
      </trkpt>
      <trkpt lat="45.01761" lon="9.13262">
        <ele>87.0</ele>
      </trkpt>
      <trkpt lat="45.01771" lon="9.13271">
        <ele>87.0</ele>
      </trkpt>
      <trkpt lat="45.01784" lon="9.13261">
        <ele>87.0</ele>
      </trkpt>
      <trkpt lat="45.01805" lon="9.13232">
        <ele>87.0</ele>
      </trkpt>
      <trkpt lat="45.02124" lon="9.13022">
        <ele>85.0</ele>
      </trkpt>
      <trkpt lat="45.02331" lon="9.12888">
        <ele>84.0</ele>
      </trkpt>
      <trkpt lat="45.0238" lon="9.12865">
        <ele>83.0</ele>
      </trkpt>
      <trkpt lat="45.02464" lon="9.12856">
        <ele>83.0</ele>
      </trkpt>
      <trkpt lat="45.02711" lon="9.12906">
        <ele>82.0</ele>
      </trkpt>
      <trkpt lat="45.02839" lon="9.12933">
        <ele>81.0</ele>
      </trkpt>
      <trkpt lat="45.03198" lon="9.13011">
        <ele>79.0</ele>
      </trkpt>
      <trkpt lat="45.0324" lon="9.13037">
        <ele>78.0</ele>
      </trkpt>
      <trkpt lat="45.03255" lon="9.13049">
        <ele>78.0</ele>
      </trkpt>
      <trkpt lat="45.03299" lon="9.13072">
        <ele>78.0</ele>
      </trkpt>
      <trkpt lat="45.03488" lon="9.13096">
        <ele>78.0</ele>
      </trkpt>
      <trkpt lat="45.03875" lon="9.13185">
        <ele>78.0</ele>
      </trkpt>
      <trkpt lat="45.04081" lon="9.13213">
        <ele>75.0</ele>
      </trkpt>
      <trkpt lat="45.04187" lon="9.13225">
        <ele>74.0</ele>
      </trkpt>
      <trkpt lat="45.0452" lon="9.13288">
        <ele>77.0</ele>
      </trkpt>
      <trkpt lat="45.0505" lon="9.13409">
        <ele>73.0</ele>
      </trkpt>
      <trkpt lat="45.05764" lon="9.13561">
        <ele>69.0</ele>
      </trkpt>
      <trkpt lat="45.06341" lon="9.13689">
        <ele>66.0</ele>
      </trkpt>
      <trkpt lat="45.06606" lon="9.1373">
        <ele>65.0</ele>
      </trkpt>
      <trkpt lat="45.0664" lon="9.13717">
        <ele>65.0</ele>
      </trkpt>
      <trkpt lat="45.06716" lon="9.13659">
        <ele>65.0</ele>
      </trkpt>
      <trkpt lat="45.06955" lon="9.13372">
        <ele>65.0</ele>
      </trkpt>
      <trkpt lat="45.07605" lon="9.12589">
        <ele>66.0</ele>
      </trkpt>
      <trkpt lat="45.07797" lon="9.12356">
        <ele>66.0</ele>
      </trkpt>
      <trkpt lat="45.07905" lon="9.12278">
        <ele>66.0</ele>
      </trkpt>
      <trkpt lat="45.08132" lon="9.12237">
        <ele>66.0</ele>
      </trkpt>
      <trkpt lat="45.08436" lon="9.12182">
        <ele>64.0</ele>
      </trkpt>
      <trkpt lat="45.08631" lon="9.12146">
        <ele>62.0</ele>
      </trkpt>
      <trkpt lat="45.08975" lon="9.11979">
        <ele>61.0</ele>
      </trkpt>
      <trkpt lat="45.09063" lon="9.11936">
        <ele>62.0</ele>
      </trkpt>
      <trkpt lat="45.09078" lon="9.11924">
        <ele>63.0</ele>
      </trkpt>
      <trkpt lat="45.09096" lon="9.11917">
        <ele>63.0</ele>
      </trkpt>
      <trkpt lat="45.09121" lon="9.11897">
        <ele>63.0</ele>
      </trkpt>
      <trkpt lat="45.09155" lon="9.11891">
        <ele>63.0</ele>
      </trkpt>
      <trkpt lat="45.09311" lon="9.11813">
        <ele>63.0</ele>
      </trkpt>
      <trkpt lat="45.09637" lon="9.11675">
        <ele>63.0</ele>
      </trkpt>
      <trkpt lat="45.09851" lon="9.11638">
        <ele>62.0</ele>
      </trkpt>
      <trkpt lat="45.09996" lon="9.11618">
        <ele>62.0</ele>
      </trkpt>
      <trkpt lat="45.10254" lon="9.11576">
        <ele>65.0</ele>
      </trkpt>
      <trkpt lat="45.10312" lon="9.11545">
        <ele>63.0</ele>
      </trkpt>
      <trkpt lat="45.10342" lon="9.11537">
        <ele>62.0</ele>
      </trkpt>
      <trkpt lat="45.11061" lon="9.11438">
        <ele>64.0</ele>
      </trkpt>
      <trkpt lat="45.11098" lon="9.11449">
        <ele>65.0</ele>
      </trkpt>
      <trkpt lat="45.11172" lon="9.11449">
        <ele>65.0</ele>
      </trkpt>
      <trkpt lat="45.11597" lon="9.11388">
        <ele>62.0</ele>
      </trkpt>
      <trkpt lat="45.11767" lon="9.11364">
        <ele>63.0</ele>
      </trkpt>
      <trkpt lat="45.11895" lon="9.11394">
        <ele>61.0</ele>
      </trkpt>
      <trkpt lat="45.12042" lon="9.11521">
        <ele>60.0</ele>
      </trkpt>
      <trkpt lat="45.12219" lon="9.11698">
        <ele>61.0</ele>
      </trkpt>
      <trkpt lat="45.1236" lon="9.11844">
        <ele>62.0</ele>
      </trkpt>
      <trkpt lat="45.12453" lon="9.11901">
        <ele>63.0</ele>
      </trkpt>
      <trkpt lat="45.12648" lon="9.11932">
        <ele>63.0</ele>
      </trkpt>
      <trkpt lat="45.13037" lon="9.11948">
        <ele>62.0</ele>
      </trkpt>
      <trkpt lat="45.13385" lon="9.11963">
        <ele>62.0</ele>
      </trkpt>
      <trkpt lat="45.13696" lon="9.11977">
        <ele>62.0</ele>
      </trkpt>
      <trkpt lat="45.14003" lon="9.1199">
        <ele>62.0</ele>
      </trkpt>
      <trkpt lat="45.1419" lon="9.12015">
        <ele>62.0</ele>
      </trkpt>
      <trkpt lat="45.14216" lon="9.12035">
        <ele>62.0</ele>
      </trkpt>
      <trkpt lat="45.14228" lon="9.12046">
        <ele>62.0</ele>
      </trkpt>
      <trkpt lat="45.14237" lon="9.12047">
        <ele>62.0</ele>
      </trkpt>
      <trkpt lat="45.14251" lon="9.12037">
        <ele>62.0</ele>
      </trkpt>
      <trkpt lat="45.14325" lon="9.12009">
        <ele>62.0</ele>
      </trkpt>
      <trkpt lat="45.14601" lon="9.12012">
        <ele>61.0</ele>
      </trkpt>
      <trkpt lat="45.14682" lon="9.12034">
        <ele>60.0</ele>
      </trkpt>
      <trkpt lat="45.14694" lon="9.12025">
        <ele>60.0</ele>
      </trkpt>
      <trkpt lat="45.14849" lon="9.12022">
        <ele>60.0</ele>
      </trkpt>
      <trkpt lat="45.15061" lon="9.12045">
        <ele>62.0</ele>
      </trkpt>
      <trkpt lat="45.15205" lon="9.12138">
        <ele>63.0</ele>
      </trkpt>
      <trkpt lat="45.15326" lon="9.12285">
        <ele>62.0</ele>
      </trkpt>
      <trkpt lat="45.15425" lon="9.12369">
        <ele>61.0</ele>
      </trkpt>
      <trkpt lat="45.15446" lon="9.12406">
        <ele>61.0</ele>
      </trkpt>
      <trkpt lat="45.15483" lon="9.12438">
        <ele>61.0</ele>
      </trkpt>
      <trkpt lat="45.15514" lon="9.12507">
        <ele>61.0</ele>
      </trkpt>
      <trkpt lat="45.1561" lon="9.1264">
        <ele>61.0</ele>
      </trkpt>
      <trkpt lat="45.15797" lon="9.12875">
        <ele>60.0</ele>
      </trkpt>
      <trkpt lat="45.15835" lon="9.12928">
        <ele>60.0</ele>
      </trkpt>
      <trkpt lat="45.15962" lon="9.1309">
        <ele>62.0</ele>
      </trkpt>
      <trkpt lat="45.16188" lon="9.13373">
        <ele>62.0</ele>
      </trkpt>
      <trkpt lat="45.16374" lon="9.13612">
        <ele>61.0</ele>
      </trkpt>
      <trkpt lat="45.16384" lon="9.13633">
        <ele>62.0</ele>
      </trkpt>
      <trkpt lat="45.16414" lon="9.13649">
        <ele>62.0</ele>
      </trkpt>
      <trkpt lat="45.16479" lon="9.13731">
        <ele>63.0</ele>
      </trkpt>
      <trkpt lat="45.16702" lon="9.14018">
        <ele>61.0</ele>
      </trkpt>
      <trkpt lat="45.16849" lon="9.14235">
        <ele>61.0</ele>
      </trkpt>
      <trkpt lat="45.16929" lon="9.1434">
        <ele>62.0</ele>
      </trkpt>
      <trkpt lat="45.17123" lon="9.14489">
        <ele>62.0</ele>
      </trkpt>
      <trkpt lat="45.17175" lon="9.14521">
        <ele>63.0</ele>
      </trkpt>
      <trkpt lat="45.17255" lon="9.1456">
        <ele>63.0</ele>
      </trkpt>
      <trkpt lat="45.17452" lon="9.14619">
        <ele>64.0</ele>
      </trkpt>
      <trkpt lat="45.17654" lon="9.14634">
        <ele>64.0</ele>
      </trkpt>
      <trkpt lat="45.17685" lon="9.14657">
        <ele>64.0</ele>
      </trkpt>
      <trkpt lat="45.17702" lon="9.14654">
        <ele>64.0</ele>
      </trkpt>
      <trkpt lat="45.1778" lon="9.14643">
        <ele>64.0</ele>
      </trkpt>
      <trkpt lat="45.18215" lon="9.14667">
        <ele>64.0</ele>
      </trkpt>
      <trkpt lat="45.18232" lon="9.14688">
        <ele>65.0</ele>
      </trkpt>
      <trkpt lat="45.18252" lon="9.14693">
        <ele>65.0</ele>
      </trkpt>
      <trkpt lat="45.18273" lon="9.14703">
        <ele>66.0</ele>
      </trkpt>
      <trkpt lat="45.18437" lon="9.14712">
        <ele>69.0</ele>
      </trkpt>
      <trkpt lat="45.18689" lon="9.14728">
        <ele>73.0</ele>
      </trkpt>
      <trkpt lat="45.18709" lon="9.14726">
        <ele>75.0</ele>
      </trkpt>
      <trkpt lat="45.18723" lon="9.14726">
        <ele>76.0</ele>
      </trkpt>
      <trkpt lat="45.18733" lon="9.14701">
        <ele>76.0</ele>
      </trkpt>
      <trkpt lat="45.18723" lon="9.14673">
        <ele>76.0</ele>
      </trkpt>
      <trkpt lat="45.18718" lon="9.14639">
        <ele>76.0</ele>
      </trkpt>
      <trkpt lat="45.18733" lon="9.14534">
        <ele>76.0</ele>
      </trkpt>
      <trkpt lat="45.18759" lon="9.14298">
        <ele>75.0</ele>
      </trkpt>
      <trkpt lat="45.1878" lon="9.14184">
        <ele>74.0</ele>
      </trkpt>
      <trkpt lat="45.18797" lon="9.14016">
        <ele>74.0</ele>
      </trkpt>
      <trkpt lat="45.18811" lon="9.13893">
        <ele>74.0</ele>
      </trkpt>
      <trkpt lat="45.1886" lon="9.13555">
        <ele>68.0</ele>
      </trkpt>
      <trkpt lat="45.18887" lon="9.13422">
        <ele>66.0</ele>
      </trkpt>
      <trkpt lat="45.1899" lon="9.13319">
        <ele>66.0</ele>
      </trkpt>
      <trkpt lat="45.19122" lon="9.13214">
        <ele>68.0</ele>
      </trkpt>
      <trkpt lat="45.19185" lon="9.13185">
        <ele>68.0</ele>
      </trkpt>
      <trkpt lat="45.19222" lon="9.13181">
        <ele>67.0</ele>
      </trkpt>
      <trkpt lat="45.19292" lon="9.13097">
        <ele>66.0</ele>
      </trkpt>
      <trkpt lat="45.19411" lon="9.12916">
        <ele>65.0</ele>
      </trkpt>
      <trkpt lat="45.19438" lon="9.12819">
        <ele>65.0</ele>
      </trkpt>
      <trkpt lat="45.19444" lon="9.12652">
        <ele>67.0</ele>
      </trkpt>
      <trkpt lat="45.19459" lon="9.12493">
        <ele>68.0</ele>
      </trkpt>
      <trkpt lat="45.1947" lon="9.12379">
        <ele>68.0</ele>
      </trkpt>
      <trkpt lat="45.1948" lon="9.12275">
        <ele>68.0</ele>
      </trkpt>
      <trkpt lat="45.19497" lon="9.12164">
        <ele>69.0</ele>
      </trkpt>
      <trkpt lat="45.19556" lon="9.11812">
        <ele>72.0</ele>
      </trkpt>
      <trkpt lat="45.19688" lon="9.11186">
        <ele>74.0</ele>
      </trkpt>
      <trkpt lat="45.19752" lon="9.11003">
        <ele>74.0</ele>
      </trkpt>
      <trkpt lat="45.19842" lon="9.10718">
        <ele>74.0</ele>
      </trkpt>
      <trkpt lat="45.19883" lon="9.10601">
        <ele>75.0</ele>
      </trkpt>
      <trkpt lat="45.20231" lon="9.10271">
        <ele>76.0</ele>
      </trkpt>
      <trkpt lat="45.20383" lon="9.10008">
        <ele>77.0</ele>
      </trkpt>
      <trkpt lat="45.2061" lon="9.09612">
        <ele>77.0</ele>
      </trkpt>
      <trkpt lat="45.20799" lon="9.09283">
        <ele>76.0</ele>
      </trkpt>
      <trkpt lat="45.21229" lon="9.08536">
        <ele>78.0</ele>
      </trkpt>
      <trkpt lat="45.21499" lon="9.08032">
        <ele>79.0</ele>
      </trkpt>
      <trkpt lat="45.21685" lon="9.07747">
        <ele>82.0</ele>
      </trkpt>
      <trkpt lat="45.21707" lon="9.07746">
        <ele>83.0</ele>
      </trkpt>
      <trkpt lat="45.21822" lon="9.07868">
        <ele>82.0</ele>
      </trkpt>
      <trkpt lat="45.21955" lon="9.07628">
        <ele>82.0</ele>
      </trkpt>
      <trkpt lat="45.21986" lon="9.07578">
        <ele>82.0</ele>
      </trkpt>
      <trkpt lat="45.21995" lon="9.07564">
        <ele>82.0</ele>
      </trkpt>
      <trkpt lat="45.22068" lon="9.0751">
        <ele>82.0</ele>
      </trkpt>
      <trkpt lat="45.22189" lon="9.07442">
        <ele>82.0</ele>
      </trkpt>
      <trkpt lat="45.22328" lon="9.0729">
        <ele>81.0</ele>
      </trkpt>
      <trkpt lat="45.22562" lon="9.06849">
        <ele>82.0</ele>
      </trkpt>
      <trkpt lat="45.22634" lon="9.06747">
        <ele>82.0</ele>
      </trkpt>
      <trkpt lat="45.22744" lon="9.06526">
        <ele>83.0</ele>
      </trkpt>
      <trkpt lat="45.2281" lon="9.06398">
        <ele>84.0</ele>
      </trkpt>
      <trkpt lat="45.22892" lon="9.06064">
        <ele>84.0</ele>
      </trkpt>
      <trkpt lat="45.22933" lon="9.05842">
        <ele>82.0</ele>
      </trkpt>
      <trkpt lat="45.23026" lon="9.05659">
        <ele>86.0</ele>
      </trkpt>
      <trkpt lat="45.2308" lon="9.05479">
        <ele>86.0</ele>
      </trkpt>
      <trkpt lat="45.23127" lon="9.05394">
        <ele>85.0</ele>
      </trkpt>
      <trkpt lat="45.23232" lon="9.05332">
        <ele>85.0</ele>
      </trkpt>
      <trkpt lat="45.23327" lon="9.05204">
        <ele>85.0</ele>
      </trkpt>
      <trkpt lat="45.23452" lon="9.05045">
        <ele>84.0</ele>
      </trkpt>
      <trkpt lat="45.23511" lon="9.0496">
        <ele>85.0</ele>
      </trkpt>
      <trkpt lat="45.23638" lon="9.05061">
        <ele>86.0</ele>
      </trkpt>
      <trkpt lat="45.23685" lon="9.04909">
        <ele>87.0</ele>
      </trkpt>
      <trkpt lat="45.23687" lon="9.04554">
        <ele>87.0</ele>
      </trkpt>
      <trkpt lat="45.23695" lon="9.04443">
        <ele>87.0</ele>
      </trkpt>
      <trkpt lat="45.23744" lon="9.04278">
        <ele>86.0</ele>
      </trkpt>
      <trkpt lat="45.23841" lon="9.04143">
        <ele>85.0</ele>
      </trkpt>
      <trkpt lat="45.2399" lon="9.03957">
        <ele>86.0</ele>
      </trkpt>
      <trkpt lat="45.24109" lon="9.03954">
        <ele>88.0</ele>
      </trkpt>
      <trkpt lat="45.24183" lon="9.03807">
        <ele>87.0</ele>
      </trkpt>
      <trkpt lat="45.24238" lon="9.0384">
        <ele>86.0</ele>
      </trkpt>
      <trkpt lat="45.2441" lon="9.0371">
        <ele>88.0</ele>
      </trkpt>
      <trkpt lat="45.24497" lon="9.0364">
        <ele>89.0</ele>
      </trkpt>
      <trkpt lat="45.24794" lon="9.03471">
        <ele>87.0</ele>
      </trkpt>
      <trkpt lat="45.24846" lon="9.03372">
        <ele>88.0</ele>
      </trkpt>
      <trkpt lat="45.24902" lon="9.03245">
        <ele>90.0</ele>
      </trkpt>
      <trkpt lat="45.24971" lon="9.03102">
        <ele>93.0</ele>
      </trkpt>
      <trkpt lat="45.25068" lon="9.02979">
        <ele>93.0</ele>
      </trkpt>
      <trkpt lat="45.25159" lon="9.02913">
        <ele>90.0</ele>
      </trkpt>
      <trkpt lat="45.25303" lon="9.0276">
        <ele>90.0</ele>
      </trkpt>
      <trkpt lat="45.25396" lon="9.02699">
        <ele>93.0</ele>
      </trkpt>
      <trkpt lat="45.25476" lon="9.026">
        <ele>93.0</ele>
      </trkpt>
      <trkpt lat="45.25549" lon="9.02537">
        <ele>93.0</ele>
      </trkpt>
      <trkpt lat="45.25594" lon="9.02562">
        <ele>93.0</ele>
      </trkpt>
      <trkpt lat="45.25685" lon="9.02654">
        <ele>93.0</ele>
      </trkpt>
      <trkpt lat="45.25743" lon="9.02538">
        <ele>93.0</ele>
      </trkpt>
      <trkpt lat="45.25761" lon="9.02532">
        <ele>93.0</ele>
      </trkpt>
      <trkpt lat="45.25775" lon="9.02534">
        <ele>93.0</ele>
      </trkpt>
      <trkpt lat="45.25835" lon="9.02435">
        <ele>93.0</ele>
      </trkpt>
      <trkpt lat="45.25872" lon="9.02375">
        <ele>93.0</ele>
      </trkpt>
      <trkpt lat="45.25888" lon="9.02331">
        <ele>93.0</ele>
      </trkpt>
      <trkpt lat="45.25888" lon="9.02266">
        <ele>93.0</ele>
      </trkpt>
      <trkpt lat="45.25921" lon="9.02139">
        <ele>93.0</ele>
      </trkpt>
      <trkpt lat="45.25926" lon="9.02052">
        <ele>92.0</ele>
      </trkpt>
      <trkpt lat="45.25939" lon="9.0201">
        <ele>92.0</ele>
      </trkpt>
      <trkpt lat="45.25981" lon="9.0196">
        <ele>92.0</ele>
      </trkpt>
      <trkpt lat="45.26014" lon="9.01912">
        <ele>92.0</ele>
      </trkpt>
      <trkpt lat="45.26114" lon="9.0182">
        <ele>92.0</ele>
      </trkpt>
      <trkpt lat="45.26363" lon="9.01529">
        <ele>92.0</ele>
      </trkpt>
      <trkpt lat="45.2648" lon="9.01383">
        <ele>93.0</ele>
      </trkpt>
      <trkpt lat="45.26619" lon="9.01277">
        <ele>93.0</ele>
      </trkpt>
      <trkpt lat="45.2673" lon="9.0117">
        <ele>93.0</ele>
      </trkpt>
      <trkpt lat="45.26976" lon="9.0089">
        <ele>93.0</ele>
      </trkpt>
      <trkpt lat="45.27206" lon="9.00568">
        <ele>94.0</ele>
      </trkpt>
      <trkpt lat="45.2735" lon="9.0039">
        <ele>95.0</ele>
      </trkpt>
      <trkpt lat="45.27591" lon="9.00111">
        <ele>98.0</ele>
      </trkpt>
      <trkpt lat="45.27768" lon="8.99919">
        <ele>101.0</ele>
      </trkpt>
      <trkpt lat="45.27885" lon="8.99848">
        <ele>100.0</ele>
      </trkpt>
      <trkpt lat="45.27991" lon="8.9971">
        <ele>99.0</ele>
      </trkpt>
      <trkpt lat="45.28035" lon="8.99486">
        <ele>99.0</ele>
      </trkpt>
      <trkpt lat="45.28064" lon="8.99227">
        <ele>97.0</ele>
      </trkpt>
      <trkpt lat="45.28092" lon="8.99061">
        <ele>98.0</ele>
      </trkpt>
      <trkpt lat="45.28171" lon="8.98894">
        <ele>99.0</ele>
      </trkpt>
      <trkpt lat="45.28229" lon="8.98696">
        <ele>98.0</ele>
      </trkpt>
      <trkpt lat="45.28307" lon="8.98524">
        <ele>98.0</ele>
      </trkpt>
      <trkpt lat="45.28493" lon="8.98502">
        <ele>98.0</ele>
      </trkpt>
      <trkpt lat="45.28679" lon="8.98506">
        <ele>99.0</ele>
      </trkpt>
      <trkpt lat="45.28693" lon="8.98508">
        <ele>99.0</ele>
      </trkpt>
      <trkpt lat="45.28717" lon="8.98516">
        <ele>99.0</ele>
      </trkpt>
      <trkpt lat="45.28863" lon="8.98581">
        <ele>99.0</ele>
      </trkpt>
      <trkpt lat="45.29062" lon="8.98674">
        <ele>98.0</ele>
      </trkpt>
      <trkpt lat="45.29074" lon="8.98672">
        <ele>98.0</ele>
      </trkpt>
      <trkpt lat="45.29233" lon="8.98404">
        <ele>98.0</ele>
      </trkpt>
      <trkpt lat="45.29382" lon="8.98213">
        <ele>98.0</ele>
      </trkpt>
      <trkpt lat="45.29498" lon="8.98023">
        <ele>98.0</ele>
      </trkpt>
      <trkpt lat="45.29522" lon="8.9801">
        <ele>98.0</ele>
      </trkpt>
      <trkpt lat="45.29828" lon="8.98085">
        <ele>99.0</ele>
      </trkpt>
      <trkpt lat="45.29994" lon="8.98096">
        <ele>99.0</ele>
      </trkpt>
      <trkpt lat="45.30018" lon="8.98082">
        <ele>99.0</ele>
      </trkpt>
      <trkpt lat="45.3004" lon="8.98023">
        <ele>99.0</ele>
      </trkpt>
      <trkpt lat="45.30058" lon="8.97937">
        <ele>99.0</ele>
      </trkpt>
      <trkpt lat="45.3011" lon="8.97752">
        <ele>99.0</ele>
      </trkpt>
      <trkpt lat="45.30142" lon="8.97686">
        <ele>99.0</ele>
      </trkpt>
      <trkpt lat="45.30199" lon="8.97588">
        <ele>99.0</ele>
      </trkpt>
      <trkpt lat="45.30218" lon="8.97514">
        <ele>99.0</ele>
      </trkpt>
      <trkpt lat="45.30338" lon="8.97396">
        <ele>99.0</ele>
      </trkpt>
      <trkpt lat="45.30416" lon="8.97375">
        <ele>99.0</ele>
      </trkpt>
      <trkpt lat="45.30546" lon="8.97346">
        <ele>99.0</ele>
      </trkpt>
      <trkpt lat="45.30578" lon="8.97329">
        <ele>99.0</ele>
      </trkpt>
      <trkpt lat="45.3069" lon="8.97252">
        <ele>100.0</ele>
      </trkpt>
      <trkpt lat="45.30712" lon="8.97258">
        <ele>100.0</ele>
      </trkpt>
      <trkpt lat="45.30723" lon="8.97241">
        <ele>100.0</ele>
      </trkpt>
      <trkpt lat="45.30765" lon="8.97202">
        <ele>100.0</ele>
      </trkpt>
      <trkpt lat="45.30789" lon="8.97169">
        <ele>100.0</ele>
      </trkpt>
      <trkpt lat="45.30814" lon="8.97168">
        <ele>100.0</ele>
      </trkpt>
      <trkpt lat="45.30982" lon="8.97153">
        <ele>100.0</ele>
      </trkpt>
      <trkpt lat="45.30998" lon="8.97169">
        <ele>101.0</ele>
      </trkpt>
      <trkpt lat="45.31005" lon="8.97331">
        <ele>102.0</ele>
      </trkpt>
      <trkpt lat="45.3107" lon="8.97335">
        <ele>102.0</ele>
      </trkpt>
      <trkpt lat="45.31121" lon="8.97325">
        <ele>101.0</ele>
      </trkpt>
      <trkpt lat="45.31231" lon="8.97281">
        <ele>101.0</ele>
      </trkpt>
      <trkpt lat="45.31408" lon="8.9721">
        <ele>101.0</ele>
      </trkpt>
      <trkpt lat="45.31547" lon="8.97177">
        <ele>102.0</ele>
      </trkpt>
      <trkpt lat="45.31517" lon="8.97052">
        <ele>102.0</ele>
      </trkpt>
      <trkpt lat="45.31509" lon="8.96988">
        <ele>102.0</ele>
      </trkpt>
      <trkpt lat="45.31503" lon="8.96906">
        <ele>102.0</ele>
      </trkpt>
      <trkpt lat="45.31509" lon="8.9685">
        <ele>102.0</ele>
      </trkpt>
      <trkpt lat="45.31601" lon="8.96853">
        <ele>102.0</ele>
      </trkpt>
      <trkpt lat="45.31838" lon="8.96807">
        <ele>102.0</ele>
      </trkpt>
      <trkpt lat="45.32179" lon="8.96717">
        <ele>103.0</ele>
      </trkpt>
      <trkpt lat="45.32202" lon="8.96726">
        <ele>104.0</ele>
      </trkpt>
      <trkpt lat="45.32228" lon="8.96867">
        <ele>105.0</ele>
      </trkpt>
      <trkpt lat="45.32236" lon="8.96876">
        <ele>106.0</ele>
      </trkpt>
      <trkpt lat="45.32417" lon="8.9681">
        <ele>107.0</ele>
      </trkpt>
      <trkpt lat="45.32424" lon="8.96801">
        <ele>107.0</ele>
      </trkpt>
      <trkpt lat="45.32424" lon="8.96788">
        <ele>107.0</ele>
      </trkpt>
      <trkpt lat="45.32406" lon="8.96663">
        <ele>106.0</ele>
      </trkpt>
      <trkpt lat="45.32424" lon="8.96641">
        <ele>105.0</ele>
      </trkpt>
      <trkpt lat="45.32831" lon="8.96428">
        <ele>104.0</ele>
      </trkpt>
      <trkpt lat="45.33081" lon="8.96346">
        <ele>105.0</ele>
      </trkpt>
      <trkpt lat="45.33126" lon="8.96389">
        <ele>105.0</ele>
      </trkpt>
      <trkpt lat="45.33164" lon="8.96403">
        <ele>105.0</ele>
      </trkpt>
      <trkpt lat="45.33399" lon="8.96323">
        <ele>105.0</ele>
      </trkpt>
      <trkpt lat="45.33428" lon="8.96345">
        <ele>105.0</ele>
      </trkpt>
      <trkpt lat="45.33552" lon="8.9661">
        <ele>105.0</ele>
      </trkpt>
      <trkpt lat="45.3363" lon="8.96621">
        <ele>106.0</ele>
      </trkpt>
      <trkpt lat="45.33778" lon="8.96643">
        <ele>108.0</ele>
      </trkpt>
      <trkpt lat="45.33925" lon="8.96673">
        <ele>109.0</ele>
      </trkpt>
      <trkpt lat="45.34424" lon="8.96636">
        <ele>106.0</ele>
      </trkpt>
      <trkpt lat="45.34564" lon="8.96603">
        <ele>106.0</ele>
      </trkpt>
      <trkpt lat="45.34687" lon="8.96524">
        <ele>106.0</ele>
      </trkpt>
      <trkpt lat="45.35021" lon="8.96347">
        <ele>105.0</ele>
      </trkpt>
      <trkpt lat="45.35137" lon="8.96317">
        <ele>104.0</ele>
      </trkpt>
      <trkpt lat="45.35357" lon="8.96138">
        <ele>105.0</ele>
      </trkpt>
      <trkpt lat="45.35554" lon="8.95771">
        <ele>107.0</ele>
      </trkpt>
      <trkpt lat="45.35737" lon="8.95436">
        <ele>108.0</ele>
      </trkpt>
      <trkpt lat="45.35878" lon="8.95193">
        <ele>107.0</ele>
      </trkpt>
      <trkpt lat="45.35938" lon="8.95133">
        <ele>107.0</ele>
      </trkpt>
      <trkpt lat="45.36284" lon="8.94839">
        <ele>110.0</ele>
      </trkpt>
      <trkpt lat="45.3651" lon="8.94668">
        <ele>109.0</ele>
      </trkpt>
      <trkpt lat="45.36725" lon="8.94505">
        <ele>110.0</ele>
      </trkpt>
      <trkpt lat="45.36887" lon="8.94376">
        <ele>109.0</ele>
      </trkpt>
      <trkpt lat="45.37215" lon="8.94084">
        <ele>109.0</ele>
      </trkpt>
      <trkpt lat="45.37687" lon="8.93674">
        <ele>111.0</ele>
      </trkpt>
      <trkpt lat="45.37815" lon="8.93542">
        <ele>111.0</ele>
      </trkpt>
      <trkpt lat="45.38024" lon="8.93256">
        <ele>110.0</ele>
      </trkpt>
      <trkpt lat="45.38209" lon="8.93043">
        <ele>111.0</ele>
      </trkpt>
      <trkpt lat="45.38473" lon="8.92815">
        <ele>112.0</ele>
      </trkpt>
      <trkpt lat="45.3851" lon="8.92808">
        <ele>113.0</ele>
      </trkpt>
      <trkpt lat="45.38528" lon="8.92805">
        <ele>114.0</ele>
      </trkpt>
      <trkpt lat="45.38537" lon="8.92792">
        <ele>114.0</ele>
      </trkpt>
      <trkpt lat="45.3854" lon="8.92765">
        <ele>114.0</ele>
      </trkpt>
      <trkpt lat="45.38629" lon="8.92682">
        <ele>115.0</ele>
      </trkpt>
      <trkpt lat="45.38769" lon="8.92541">
        <ele>114.0</ele>
      </trkpt>
      <trkpt lat="45.38846" lon="8.92417">
        <ele>115.0</ele>
      </trkpt>
      <trkpt lat="45.38928" lon="8.92349">
        <ele>116.0</ele>
      </trkpt>
      <trkpt lat="45.38995" lon="8.92295">
        <ele>117.0</ele>
      </trkpt>
      <trkpt lat="45.39135" lon="8.92125">
        <ele>116.0</ele>
      </trkpt>
      <trkpt lat="45.39223" lon="8.92045">
        <ele>117.0</ele>
      </trkpt>
      <trkpt lat="45.39305" lon="8.91982">
        <ele>118.0</ele>
      </trkpt>
      <trkpt lat="45.39421" lon="8.91914">
        <ele>118.0</ele>
      </trkpt>
      <trkpt lat="45.39438" lon="8.91963">
        <ele>117.0</ele>
      </trkpt>
      <trkpt lat="45.3959" lon="8.92001">
        <ele>117.0</ele>
      </trkpt>
      <trkpt lat="45.39732" lon="8.92013">
        <ele>117.0</ele>
      </trkpt>
      <trkpt lat="45.39782" lon="8.9201">
        <ele>118.0</ele>
      </trkpt>
      <trkpt lat="45.39844" lon="8.92007">
        <ele>119.0</ele>
      </trkpt>
      <trkpt lat="45.39855" lon="8.92013">
        <ele>120.0</ele>
      </trkpt>
      <trkpt lat="45.3986" lon="8.92008">
        <ele>120.0</ele>
      </trkpt>
      <trkpt lat="45.39904" lon="8.91997">
        <ele>121.0</ele>
      </trkpt>
      <trkpt lat="45.39989" lon="8.91973">
        <ele>121.0</ele>
      </trkpt>
      <trkpt lat="45.40074" lon="8.91967">
        <ele>120.0</ele>
      </trkpt>
      <trkpt lat="45.40113" lon="8.91972">
        <ele>120.0</ele>
      </trkpt>
      <trkpt lat="45.40121" lon="8.91995">
        <ele>119.0</ele>
      </trkpt>
      <trkpt lat="45.40131" lon="8.92102">
        <ele>119.0</ele>
      </trkpt>
      <trkpt lat="45.40319" lon="8.92294">
        <ele>118.0</ele>
      </trkpt>
      <trkpt lat="45.40339" lon="8.92326">
        <ele>118.0</ele>
      </trkpt>
      <trkpt lat="45.4053" lon="8.92864">
        <ele>117.0</ele>
      </trkpt>
      <trkpt lat="45.40528" lon="8.92957">
        <ele>117.0</ele>
      </trkpt>
      <trkpt lat="45.40552" lon="8.92982">
        <ele>117.0</ele>
      </trkpt>
      <trkpt lat="45.40677" lon="8.92859">
        <ele>117.0</ele>
      </trkpt>
      <trkpt lat="45.40828" lon="8.92774">
        <ele>118.0</ele>
      </trkpt>
      <trkpt lat="45.40912" lon="8.92839">
        <ele>119.0</ele>
      </trkpt>
      <trkpt lat="45.41138" lon="8.93089">
        <ele>120.0</ele>
      </trkpt>
      <trkpt lat="45.41344" lon="8.93317">
        <ele>118.0</ele>
      </trkpt>
      <trkpt lat="45.41452" lon="8.93512">
        <ele>121.0</ele>
      </trkpt>
      <trkpt lat="45.41638" lon="8.94078">
        <ele>122.0</ele>
      </trkpt>
      <trkpt lat="45.41635" lon="8.94115">
        <ele>122.0</ele>
      </trkpt>
      <trkpt lat="45.41644" lon="8.94154">
        <ele>122.0</ele>
      </trkpt>
      <trkpt lat="45.41674" lon="8.94183">
        <ele>122.0</ele>
      </trkpt>
      <trkpt lat="45.41725" lon="8.94337">
        <ele>123.0</ele>
      </trkpt>
      <trkpt lat="45.42218" lon="8.95202">
        <ele>121.0</ele>
      </trkpt>
      <trkpt lat="45.42569" lon="8.95707">
        <ele>123.0</ele>
      </trkpt>
      <trkpt lat="45.4334" lon="8.96809">
        <ele>123.0</ele>
      </trkpt>
      <trkpt lat="45.43744" lon="8.97415">
        <ele>122.0</ele>
      </trkpt>
      <trkpt lat="45.43788" lon="8.97466">
        <ele>122.0</ele>
      </trkpt>
      <trkpt lat="45.43813" lon="8.97445">
        <ele>123.0</ele>
      </trkpt>
      <trkpt lat="45.43841" lon="8.97389">
        <ele>123.0</ele>
      </trkpt>
      <trkpt lat="45.44617" lon="8.97078">
        <ele>124.0</ele>
      </trkpt>
      <trkpt lat="45.45031" lon="8.97044">
        <ele>125.0</ele>
      </trkpt>
      <trkpt lat="45.45184" lon="8.97039">
        <ele>127.0</ele>
      </trkpt>
      <trkpt lat="45.45775" lon="8.96979">
        <ele>130.0</ele>
      </trkpt>
      <trkpt lat="45.46463" lon="8.96839">
        <ele>133.0</ele>
      </trkpt>
      <trkpt lat="45.46893" lon="8.96404">
        <ele>135.0</ele>
      </trkpt>
      <trkpt lat="45.47701" lon="8.95368">
        <ele>137.0</ele>
      </trkpt>
      <trkpt lat="45.47904" lon="8.95112">
        <ele>140.0</ele>
      </trkpt>
      <trkpt lat="45.47931" lon="8.95115">
        <ele>140.0</ele>
      </trkpt>
      <trkpt lat="45.4795" lon="8.95089">
        <ele>140.0</ele>
      </trkpt>
      <trkpt lat="45.47964" lon="8.95041">
        <ele>140.0</ele>
      </trkpt>
      <trkpt lat="45.48106" lon="8.94949">
        <ele>141.0</ele>
      </trkpt>
      <trkpt lat="45.48144" lon="8.94951">
        <ele>141.0</ele>
      </trkpt>
      <trkpt lat="45.48161" lon="8.94996">
        <ele>141.0</ele>
      </trkpt>
      <trkpt lat="45.48184" lon="8.95496">
        <ele>141.0</ele>
      </trkpt>
      <trkpt lat="45.48172" lon="8.95665">
        <ele>140.0</ele>
      </trkpt>
      <trkpt lat="45.48174" lon="8.95717">
        <ele>139.0</ele>
      </trkpt>
      <trkpt lat="45.48194" lon="8.95758">
        <ele>139.0</ele>
      </trkpt>
      <trkpt lat="45.48208" lon="8.96115">
        <ele>141.0</ele>
      </trkpt>
      <trkpt lat="45.4824" lon="8.96911">
        <ele>141.0</ele>
      </trkpt>
      <trkpt lat="45.48261" lon="8.97475">
        <ele>139.0</ele>
      </trkpt>
      <trkpt lat="45.48287" lon="8.97871">
        <ele>140.0</ele>
      </trkpt>
      <trkpt lat="45.48301" lon="8.97927">
        <ele>141.0</ele>
      </trkpt>
      <trkpt lat="45.48318" lon="8.97961">
        <ele>141.0</ele>
      </trkpt>
      <trkpt lat="45.4832" lon="8.98027">
        <ele>142.0</ele>
      </trkpt>
      <trkpt lat="45.48292" lon="8.98131">
        <ele>142.0</ele>
      </trkpt>
      <trkpt lat="45.48303" lon="8.98288">
        <ele>142.0</ele>
      </trkpt>
      <trkpt lat="45.48418" lon="8.98785">
        <ele>139.0</ele>
      </trkpt>
      <trkpt lat="45.48465" lon="8.98983">
        <ele>139.0</ele>
      </trkpt>
      <trkpt lat="45.48461" lon="8.99049">
        <ele>140.0</ele>
      </trkpt>
      <trkpt lat="45.48472" lon="8.99073">
        <ele>140.0</ele>
      </trkpt>
      <trkpt lat="45.48522" lon="8.99204">
        <ele>140.0</ele>
      </trkpt>
      <trkpt lat="45.48571" lon="8.99413">
        <ele>139.0</ele>
      </trkpt>
      <trkpt lat="45.48573" lon="8.99606">
        <ele>139.0</ele>
      </trkpt>
      <trkpt lat="45.48565" lon="8.99734">
        <ele>140.0</ele>
      </trkpt>
      <trkpt lat="45.48548" lon="8.99985">
        <ele>141.0</ele>
      </trkpt>
      <trkpt lat="45.48531" lon="9.00034">
        <ele>141.0</ele>
      </trkpt>
      <trkpt lat="45.48516" lon="9.00058">
        <ele>141.0</ele>
      </trkpt>
      <trkpt lat="45.48526" lon="9.00085">
        <ele>141.0</ele>
      </trkpt>
      <trkpt lat="45.48534" lon="9.00133">
        <ele>141.0</ele>
      </trkpt>
      <trkpt lat="45.48532" lon="9.00229">
        <ele>141.0</ele>
      </trkpt>
      <trkpt lat="45.48513" lon="9.00498">
        <ele>141.0</ele>
      </trkpt>
      <trkpt lat="45.48551" lon="9.00708">
        <ele>141.0</ele>
      </trkpt>
      <trkpt lat="45.48605" lon="9.00989">
        <ele>141.0</ele>
      </trkpt>
      <trkpt lat="45.48621" lon="9.01073">
        <ele>140.0</ele>
      </trkpt>
      <trkpt lat="45.48631" lon="9.01126">
        <ele>140.0</ele>
      </trkpt>
      <trkpt lat="45.48664" lon="9.01242">
        <ele>140.0</ele>
      </trkpt>
      <trkpt lat="45.48683" lon="9.01348">
        <ele>140.0</ele>
      </trkpt>
      <trkpt lat="45.4872" lon="9.0152">
        <ele>142.0</ele>
      </trkpt>
      <trkpt lat="45.48744" lon="9.0161">
        <ele>142.0</ele>
      </trkpt>
      <trkpt lat="45.48792" lon="9.01801">
        <ele>142.0</ele>
      </trkpt>
      <trkpt lat="45.4887" lon="9.02161">
        <ele>141.0</ele>
      </trkpt>
      <trkpt lat="45.48873" lon="9.02193">
        <ele>140.0</ele>
      </trkpt>
      <trkpt lat="45.48874" lon="9.02204">
        <ele>140.0</ele>
      </trkpt>
      <trkpt lat="45.48874" lon="9.02209">
        <ele>140.0</ele>
      </trkpt>
      <trkpt lat="45.48874" lon="9.02212">
        <ele>139.0</ele>
      </trkpt>
      <trkpt lat="45.48874" lon="9.02214">
        <ele>139.0</ele>
      </trkpt>
      <trkpt lat="45.48875" lon="9.02217">
        <ele>139.0</ele>
      </trkpt>
      <trkpt lat="45.48876" lon="9.02223">
        <ele>139.0</ele>
      </trkpt>
      <trkpt lat="45.48875" lon="9.0224">
        <ele>139.0</ele>
      </trkpt>
      <trkpt lat="45.48874" lon="9.02261">
        <ele>139.0</ele>
      </trkpt>
      <trkpt lat="45.48873" lon="9.0227">
        <ele>139.0</ele>
      </trkpt>
      <trkpt lat="45.48869" lon="9.02279">
        <ele>138.0</ele>
      </trkpt>
      <trkpt lat="45.48864" lon="9.02288">
        <ele>138.0</ele>
      </trkpt>
      <trkpt lat="45.48862" lon="9.02293">
        <ele>138.0</ele>
      </trkpt>
      <trkpt lat="45.48863" lon="9.02298">
        <ele>138.0</ele>
      </trkpt>
      <trkpt lat="45.48864" lon="9.02302">
        <ele>138.0</ele>
      </trkpt>
      <trkpt lat="45.48874" lon="9.0232">
        <ele>138.0</ele>
      </trkpt>
      <trkpt lat="45.48883" lon="9.02342">
        <ele>138.0</ele>
      </trkpt>
      <trkpt lat="45.48889" lon="9.02418">
        <ele>138.0</ele>
      </trkpt>
      <trkpt lat="45.4889" lon="9.02435">
        <ele>138.0</ele>
      </trkpt>
      <trkpt lat="45.48892" lon="9.02453">
        <ele>138.0</ele>
      </trkpt>
      <trkpt lat="45.48906" lon="9.02581">
        <ele>138.0</ele>
      </trkpt>
      <trkpt lat="45.48909" lon="9.02606">
        <ele>138.0</ele>
      </trkpt>
      <trkpt lat="45.48923" lon="9.02809">
        <ele>138.0</ele>
      </trkpt>
      <trkpt lat="45.48931" lon="9.0292">
        <ele>138.0</ele>
      </trkpt>
      <trkpt lat="45.48935" lon="9.02962">
        <ele>138.0</ele>
      </trkpt>
      <trkpt lat="45.48935" lon="9.02976">
        <ele>137.0</ele>
      </trkpt>
      <trkpt lat="45.48934" lon="9.02984">
        <ele>137.0</ele>
      </trkpt>
      <trkpt lat="45.48934" lon="9.02988">
        <ele>137.0</ele>
      </trkpt>
      <trkpt lat="45.48934" lon="9.02991">
        <ele>137.0</ele>
      </trkpt>
      <trkpt lat="45.48936" lon="9.02998">
        <ele>137.0</ele>
      </trkpt>
      <trkpt lat="45.48938" lon="9.03013">
        <ele>137.0</ele>
      </trkpt>
      <trkpt lat="45.48937" lon="9.03031">
        <ele>137.0</ele>
      </trkpt>
      <trkpt lat="45.48946" lon="9.0316">
        <ele>136.0</ele>
      </trkpt>
      <trkpt lat="45.48954" lon="9.03253">
        <ele>136.0</ele>
      </trkpt>
      <trkpt lat="45.48953" lon="9.03276">
        <ele>136.0</ele>
      </trkpt>
      <trkpt lat="45.48947" lon="9.03307">
        <ele>136.0</ele>
      </trkpt>
      <trkpt lat="45.48964" lon="9.03341">
        <ele>137.0</ele>
      </trkpt>
      <trkpt lat="45.48991" lon="9.03629">
        <ele>138.0</ele>
      </trkpt>
      <trkpt lat="45.48997" lon="9.03688">
        <ele>138.0</ele>
      </trkpt>
      <trkpt lat="45.4901" lon="9.03754">
        <ele>138.0</ele>
      </trkpt>
      <trkpt lat="45.49009" lon="9.03796">
        <ele>138.0</ele>
      </trkpt>
      <trkpt lat="45.49001" lon="9.03843">
        <ele>138.0</ele>
      </trkpt>
      <trkpt lat="45.49" lon="9.03899">
        <ele>138.0</ele>
      </trkpt>
      <trkpt lat="45.49036" lon="9.04154">
        <ele>139.0</ele>
      </trkpt>
      <trkpt lat="45.49054" lon="9.04278">
        <ele>138.0</ele>
      </trkpt>
      <trkpt lat="45.49192" lon="9.04673">
        <ele>137.0</ele>
      </trkpt>
      <trkpt lat="45.49471" lon="9.05419">
        <ele>138.0</ele>
      </trkpt>
      <trkpt lat="45.49609" lon="9.05726">
        <ele>139.0</ele>
      </trkpt>
      <trkpt lat="45.49708" lon="9.0594">
        <ele>137.0</ele>
      </trkpt>
      <trkpt lat="45.49782" lon="9.0611">
        <ele>136.0</ele>
      </trkpt>
      <trkpt lat="45.49804" lon="9.06231">
        <ele>135.0</ele>
      </trkpt>
      <trkpt lat="45.498" lon="9.06474">
        <ele>137.0</ele>
      </trkpt>
      <trkpt lat="45.4979" lon="9.06887">
        <ele>140.0</ele>
      </trkpt>
      <trkpt lat="45.49775" lon="9.07491">
        <ele>138.0</ele>
      </trkpt>
      <trkpt lat="45.49783" lon="9.07798">
        <ele>135.0</ele>
      </trkpt>
      <trkpt lat="45.49835" lon="9.08431">
        <ele>136.0</ele>
      </trkpt>
      <trkpt lat="45.49907" lon="9.08655">
        <ele>136.0</ele>
      </trkpt>
      <trkpt lat="45.49928" lon="9.08699">
        <ele>135.0</ele>
      </trkpt>
      <trkpt lat="45.50059" lon="9.08898">
        <ele>136.0</ele>
      </trkpt>
      <trkpt lat="45.50225" lon="9.09027">
        <ele>139.0</ele>
      </trkpt>
      <trkpt lat="45.50412" lon="9.09104">
        <ele>139.0</ele>
      </trkpt>
      <trkpt lat="45.50475" lon="9.09144">
        <ele>137.0</ele>
      </trkpt>
      <trkpt lat="45.50491" lon="9.09164">
        <ele>137.0</ele>
      </trkpt>
      <trkpt lat="45.50537" lon="9.09216">
        <ele>136.0</ele>
      </trkpt>
      <trkpt lat="45.50618" lon="9.09333">
        <ele>135.0</ele>
      </trkpt>
      <trkpt lat="45.50642" lon="9.09369">
        <ele>136.0</ele>
      </trkpt>
      <trkpt lat="45.50657" lon="9.09401">
        <ele>136.0</ele>
      </trkpt>
      <trkpt lat="45.50671" lon="9.09444">
        <ele>136.0</ele>
      </trkpt>
      <trkpt lat="45.50697" lon="9.09539">
        <ele>137.0</ele>
      </trkpt>
      <trkpt lat="45.50703" lon="9.09638">
        <ele>138.0</ele>
      </trkpt>
      <trkpt lat="45.50682" lon="9.09765">
        <ele>138.0</ele>
      </trkpt>
      <trkpt lat="45.50669" lon="9.09819">
        <ele>138.0</ele>
      </trkpt>
      <trkpt lat="45.5065" lon="9.09887">
        <ele>138.0</ele>
      </trkpt>
      <trkpt lat="45.50602" lon="9.10066">
        <ele>138.0</ele>
      </trkpt>
      <trkpt lat="45.50595" lon="9.10092">
        <ele>138.0</ele>
      </trkpt>
      <trkpt lat="45.50575" lon="9.10196">
        <ele>137.0</ele>
      </trkpt>
      <trkpt lat="45.50547" lon="9.10324">
        <ele>136.0</ele>
      </trkpt>
      <trkpt lat="45.50538" lon="9.10354">
        <ele>135.0</ele>
      </trkpt>
      <trkpt lat="45.5053" lon="9.10395">
        <ele>135.0</ele>
      </trkpt>
      <trkpt lat="45.50509" lon="9.10474">
        <ele>135.0</ele>
      </trkpt>
      <trkpt lat="45.50473" lon="9.10619">
        <ele>134.0</ele>
      </trkpt>
      <trkpt lat="45.5041" lon="9.10873">
        <ele>133.0</ele>
      </trkpt>
      <trkpt lat="45.50389" lon="9.10943">
        <ele>133.0</ele>
      </trkpt>
      <trkpt lat="45.50375" lon="9.10969">
        <ele>133.0</ele>
      </trkpt>
      <trkpt lat="45.50377" lon="9.10996">
        <ele>133.0</ele>
      </trkpt>
      <trkpt lat="45.50348" lon="9.11129">
        <ele>133.0</ele>
      </trkpt>
      <trkpt lat="45.50334" lon="9.11146">
        <ele>133.0</ele>
      </trkpt>
      <trkpt lat="45.50334" lon="9.11178">
        <ele>133.0</ele>
      </trkpt>
      <trkpt lat="45.50281" lon="9.11404">
        <ele>133.0</ele>
      </trkpt>
      <trkpt lat="45.50248" lon="9.11516">
        <ele>133.0</ele>
      </trkpt>
      <trkpt lat="45.50243" lon="9.11522">
        <ele>133.0</ele>
      </trkpt>
      <trkpt lat="45.50241" lon="9.1153">
        <ele>133.0</ele>
      </trkpt>
      <trkpt lat="45.50242" lon="9.11539">
        <ele>133.0</ele>
      </trkpt>
      <trkpt lat="45.50243" lon="9.11559">
        <ele>133.0</ele>
      </trkpt>
      <trkpt lat="45.50172" lon="9.11862">
        <ele>132.0</ele>
      </trkpt>
      <trkpt lat="45.50143" lon="9.11999">
        <ele>132.0</ele>
      </trkpt>
      <trkpt lat="45.50136" lon="9.12009">
        <ele>132.0</ele>
      </trkpt>
      <trkpt lat="45.50142" lon="9.12032">
        <ele>132.0</ele>
      </trkpt>
      <trkpt lat="45.50178" lon="9.12055">
        <ele>133.0</ele>
      </trkpt>
      <trkpt lat="45.50237" lon="9.1209">
        <ele>133.0</ele>
      </trkpt>
      <trkpt lat="45.50331" lon="9.12171">
        <ele>134.0</ele>
      </trkpt>
      <trkpt lat="45.50346" lon="9.12189">
        <ele>134.0</ele>
      </trkpt>
      <trkpt lat="45.50343" lon="9.12214">
        <ele>134.0</ele>
      </trkpt>
      <trkpt lat="45.50132" lon="9.1267">
        <ele>134.0</ele>
      </trkpt>
      <trkpt lat="45.50021" lon="9.12916">
        <ele>135.0</ele>
      </trkpt>
      <trkpt lat="45.49948" lon="9.13077">
        <ele>135.0</ele>
      </trkpt>
      <trkpt lat="45.49827" lon="9.13345">
        <ele>134.0</ele>
      </trkpt>
      <trkpt lat="45.49702" lon="9.1362">
        <ele>135.0</ele>
      </trkpt>
      <trkpt lat="45.49549" lon="9.13961">
        <ele>134.0</ele>
      </trkpt>
      <trkpt lat="45.49539" lon="9.13956">
        <ele>134.0</ele>
      </trkpt>
      <trkpt lat="45.49503" lon="9.13924">
        <ele>134.0</ele>
      </trkpt>
      <trkpt lat="45.49459" lon="9.13918">
        <ele>135.0</ele>
      </trkpt>
      <trkpt lat="45.49372" lon="9.14197">
        <ele>134.0</ele>
      </trkpt>
      <trkpt lat="45.49291" lon="9.14452">
        <ele>132.0</ele>
      </trkpt>
      <trkpt lat="45.49273" lon="9.14528">
        <ele>131.0</ele>
      </trkpt>
      <trkpt lat="45.49245" lon="9.14591">
        <ele>131.0</ele>
      </trkpt>
      <trkpt lat="45.49133" lon="9.14685">
        <ele>130.0</ele>
      </trkpt>
      <trkpt lat="45.49058" lon="9.14747">
        <ele>130.0</ele>
      </trkpt>
      <trkpt lat="45.48944" lon="9.14841">
        <ele>132.0</ele>
      </trkpt>
      <trkpt lat="45.48869" lon="9.14906">
        <ele>132.0</ele>
      </trkpt>
      <trkpt lat="45.48775" lon="9.14985">
        <ele>129.0</ele>
      </trkpt>
      <trkpt lat="45.48619" lon="9.15118">
        <ele>128.0</ele>
      </trkpt>
      <trkpt lat="45.4857" lon="9.1516">
        <ele>130.0</ele>
      </trkpt>
      <trkpt lat="45.48471" lon="9.15129">
        <ele>132.0</ele>
      </trkpt>
      <trkpt lat="45.48374" lon="9.14981">
        <ele>133.0</ele>
      </trkpt>
      <trkpt lat="45.48301" lon="9.14871">
        <ele>139.0</ele>
      </trkpt>
      <trkpt lat="45.48273" lon="9.14853">
        <ele>137.0</ele>
      </trkpt>
      <trkpt lat="45.48196" lon="9.14957">
        <ele>132.0</ele>
      </trkpt>
      <trkpt lat="45.48087" lon="9.15104">
        <ele>131.0</ele>
      </trkpt>
      <trkpt lat="45.48042" lon="9.15155">
        <ele>133.0</ele>
      </trkpt>
      <trkpt lat="45.47995" lon="9.1516">
        <ele>132.0</ele>
      </trkpt>
      <trkpt lat="45.47795" lon="9.15149">
        <ele>128.0</ele>
      </trkpt>
      <trkpt lat="45.47603" lon="9.1514">
        <ele>130.0</ele>
      </trkpt>
      <trkpt lat="45.47449" lon="9.15114">
        <ele>127.0</ele>
      </trkpt>
      <trkpt lat="45.47418" lon="9.15101">
        <ele>126.0</ele>
      </trkpt>
      <trkpt lat="45.47379" lon="9.15172">
        <ele>126.0</ele>
      </trkpt>
      <trkpt lat="45.47361" lon="9.15213">
        <ele>127.0</ele>
      </trkpt>
      <trkpt lat="45.47352" lon="9.15466">
        <ele>127.0</ele>
      </trkpt>
      <trkpt lat="45.47348" lon="9.15618">
        <ele>125.0</ele>
      </trkpt>
      <trkpt lat="45.47344" lon="9.15784">
        <ele>131.0</ele>
      </trkpt>
      <trkpt lat="45.47341" lon="9.15914">
        <ele>129.0</ele>
      </trkpt>
      <trkpt lat="45.47363" lon="9.15964">
        <ele>130.0</ele>
      </trkpt>
      <trkpt lat="45.47401" lon="9.15986">
        <ele>131.0</ele>
      </trkpt>
      <trkpt lat="45.47467" lon="9.15981">
        <ele>127.0</ele>
      </trkpt>
      <trkpt lat="45.47563" lon="9.15987">
        <ele>130.0</ele>
      </trkpt>
      <trkpt lat="45.47678" lon="9.15994">
        <ele>131.0</ele>
      </trkpt>
      <trkpt lat="45.47797" lon="9.16001">
        <ele>129.0</ele>
      </trkpt>
      <trkpt lat="45.47975" lon="9.16009">
        <ele>129.0</ele>
      </trkpt>
      <trkpt lat="45.48008" lon="9.16002">
        <ele>130.0</ele>
      </trkpt>
      <trkpt lat="45.48031" lon="9.15974">
        <ele>131.0</ele>
      </trkpt>
      <trkpt lat="45.48038" lon="9.15874">
        <ele>129.0</ele>
      </trkpt>
      <trkpt lat="45.48046" lon="9.15713">
        <ele>127.0</ele>
      </trkpt>
      <trkpt lat="45.481" lon="9.15613">
        <ele>129.0</ele>
      </trkpt>
      <trkpt lat="45.48123" lon="9.15559">
        <ele>130.0</ele>
      </trkpt>
      <trkpt lat="45.48213" lon="9.15439">
        <ele>131.0</ele>
      </trkpt>
      <trkpt lat="45.48278" lon="9.15379">
        <ele>129.0</ele>
      </trkpt>
      <trkpt lat="45.48366" lon="9.15511">
        <ele>129.0</ele>
      </trkpt>
      <trkpt lat="45.48395" lon="9.15568">
        <ele>130.0</ele>
      </trkpt>
      <trkpt lat="45.48383" lon="9.15604">
        <ele>132.0</ele>
      </trkpt>
      <trkpt lat="45.48385" lon="9.15633">
        <ele>133.0</ele>
      </trkpt>
      <trkpt lat="45.48398" lon="9.15665">
        <ele>134.0</ele>
      </trkpt>
      <trkpt lat="45.48421" lon="9.15683">
        <ele>135.0</ele>
      </trkpt>
      <trkpt lat="45.48447" lon="9.15681">
        <ele>135.0</ele>
      </trkpt>
      <trkpt lat="45.48469" lon="9.1567">
        <ele>135.0</ele>
      </trkpt>
      <trkpt lat="45.48577" lon="9.15836">
        <ele>136.0</ele>
      </trkpt>
      <trkpt lat="45.4859" lon="9.15856">
        <ele>134.0</ele>
      </trkpt>
      <trkpt lat="45.48597" lon="9.15889">
        <ele>133.0</ele>
      </trkpt>
      <trkpt lat="45.48443" lon="9.16093">
        <ele>133.0</ele>
      </trkpt>
      <trkpt lat="45.4842" lon="9.16123">
        <ele>133.0</ele>
      </trkpt>
      <trkpt lat="45.48259" lon="9.16337">
        <ele>132.0</ele>
      </trkpt>
      <trkpt lat="45.48243" lon="9.16358">
        <ele>131.0</ele>
      </trkpt>
      <trkpt lat="45.48185" lon="9.16434">
        <ele>130.0</ele>
      </trkpt>
      <trkpt lat="45.4807" lon="9.16583">
        <ele>129.0</ele>
      </trkpt>
      <trkpt lat="45.48055" lon="9.16603">
        <ele>127.0</ele>
      </trkpt>
      <trkpt lat="45.47941" lon="9.16751">
        <ele>126.0</ele>
      </trkpt>
      <trkpt lat="45.47853" lon="9.16868">
        <ele>130.0</ele>
      </trkpt>
      <trkpt lat="45.47805" lon="9.16932">
        <ele>132.0</ele>
      </trkpt>
      <trkpt lat="45.47797" lon="9.16942">
        <ele>133.0</ele>
      </trkpt>
      <trkpt lat="45.47852" lon="9.16869">
        <ele>132.0</ele>
      </trkpt>
      <trkpt lat="45.47869" lon="9.16847">
        <ele>130.0</ele>
      </trkpt>
      <trkpt lat="45.4806" lon="9.16597">
        <ele>128.0</ele>
      </trkpt>
      <trkpt lat="45.48077" lon="9.16574">
        <ele>128.0</ele>
      </trkpt>
      <trkpt lat="45.48185" lon="9.16434">
        <ele>129.0</ele>
      </trkpt>
      <trkpt lat="45.48246" lon="9.16354">
        <ele>130.0</ele>
      </trkpt>
      <trkpt lat="45.48339" lon="9.16228">
        <ele>132.0</ele>
      </trkpt>
      <trkpt lat="45.48438" lon="9.16099">
        <ele>133.0</ele>
      </trkpt>
      <trkpt lat="45.48593" lon="9.15894">
        <ele>133.0</ele>
      </trkpt>
      <trkpt lat="45.48614" lon="9.15868">
        <ele>132.0</ele>
      </trkpt>
      <trkpt lat="45.48759" lon="9.15677">
        <ele>130.0</ele>
      </trkpt>
      <trkpt lat="45.48765" lon="9.15668">
        <ele>129.0</ele>
      </trkpt>
      <trkpt lat="45.48787" lon="9.15636">
        <ele>129.0</ele>
      </trkpt>
      <trkpt lat="45.48798" lon="9.15616">
        <ele>129.0</ele>
      </trkpt>
      <trkpt lat="45.48837" lon="9.1553">
        <ele>130.0</ele>
      </trkpt>
      <trkpt lat="45.49" lon="9.1518">
        <ele>133.0</ele>
      </trkpt>
      <trkpt lat="45.49084" lon="9.14992">
        <ele>135.0</ele>
      </trkpt>
      <trkpt lat="45.49173" lon="9.14794">
        <ele>134.0</ele>
      </trkpt>
      <trkpt lat="45.4926" lon="9.14596">
        <ele>132.0</ele>
      </trkpt>
      <trkpt lat="45.49297" lon="9.14517">
        <ele>132.0</ele>
      </trkpt>
      <trkpt lat="45.49317" lon="9.14472">
        <ele>132.0</ele>
      </trkpt>
      <trkpt lat="45.49422" lon="9.14241">
        <ele>134.0</ele>
      </trkpt>
      <trkpt lat="45.49503" lon="9.14093">
        <ele>134.0</ele>
      </trkpt>
      <trkpt lat="45.49543" lon="9.1396">
        <ele>134.0</ele>
      </trkpt>
      <trkpt lat="45.49532" lon="9.1395">
        <ele>134.0</ele>
      </trkpt>
      <trkpt lat="45.49473" lon="9.13903">
        <ele>134.0</ele>
      </trkpt>
      <trkpt lat="45.49453" lon="9.13936">
        <ele>135.0</ele>
      </trkpt>
      <trkpt lat="45.49369" lon="9.14207">
        <ele>134.0</ele>
      </trkpt>
      <trkpt lat="45.49283" lon="9.14479">
        <ele>132.0</ele>
      </trkpt>
      <trkpt lat="45.4926" lon="9.14557">
        <ele>131.0</ele>
      </trkpt>
      <trkpt lat="45.49186" lon="9.1464">
        <ele>130.0</ele>
      </trkpt>
      <trkpt lat="45.49119" lon="9.14696">
        <ele>130.0</ele>
      </trkpt>
      <trkpt lat="45.49026" lon="9.14774">
        <ele>130.0</ele>
      </trkpt>
      <trkpt lat="45.48939" lon="9.14845">
        <ele>132.0</ele>
      </trkpt>
      <trkpt lat="45.48845" lon="9.14927">
        <ele>131.0</ele>
      </trkpt>
      <trkpt lat="45.48716" lon="9.15036">
        <ele>128.0</ele>
      </trkpt>
      <trkpt lat="45.48603" lon="9.15131">
        <ele>128.0</ele>
      </trkpt>
      <trkpt lat="45.48519" lon="9.15203">
        <ele>131.0</ele>
      </trkpt>
      <trkpt lat="45.48469" lon="9.15126">
        <ele>132.0</ele>
      </trkpt>
      <trkpt lat="45.48334" lon="9.14922">
        <ele>137.0</ele>
      </trkpt>
      <trkpt lat="45.48295" lon="9.14862">
        <ele>139.0</ele>
      </trkpt>
      <trkpt lat="45.48252" lon="9.14879">
        <ele>135.0</ele>
      </trkpt>
      <trkpt lat="45.48112" lon="9.1507">
        <ele>130.0</ele>
      </trkpt>
      <trkpt lat="45.48076" lon="9.15119">
        <ele>131.0</ele>
      </trkpt>
      <trkpt lat="45.48037" lon="9.15157">
        <ele>133.0</ele>
      </trkpt>
      <trkpt lat="45.47967" lon="9.15158">
        <ele>132.0</ele>
      </trkpt>
      <trkpt lat="45.47714" lon="9.15145">
        <ele>128.0</ele>
      </trkpt>
      <trkpt lat="45.47555" lon="9.15138">
        <ele>129.0</ele>
      </trkpt>
      <trkpt lat="45.47437" lon="9.15097">
        <ele>126.0</ele>
      </trkpt>
      <trkpt lat="45.47414" lon="9.1511">
        <ele>126.0</ele>
      </trkpt>
      <trkpt lat="45.47371" lon="9.15185">
        <ele>126.0</ele>
      </trkpt>
      <trkpt lat="45.47358" lon="9.15274">
        <ele>127.0</ele>
      </trkpt>
      <trkpt lat="45.47351" lon="9.15516">
        <ele>126.0</ele>
      </trkpt>
      <trkpt lat="45.47345" lon="9.15739">
        <ele>129.0</ele>
      </trkpt>
      <trkpt lat="45.47342" lon="9.15868">
        <ele>130.0</ele>
      </trkpt>
      <trkpt lat="45.47343" lon="9.15923">
        <ele>130.0</ele>
      </trkpt>
      <trkpt lat="45.47369" lon="9.15971">
        <ele>131.0</ele>
      </trkpt>
      <trkpt lat="45.47421" lon="9.15986">
        <ele>130.0</ele>
      </trkpt>
      <trkpt lat="45.47515" lon="9.15984">
        <ele>128.0</ele>
      </trkpt>
      <trkpt lat="45.47628" lon="9.15991">
        <ele>131.0</ele>
      </trkpt>
      <trkpt lat="45.47689" lon="9.15994">
        <ele>130.0</ele>
      </trkpt>
      <trkpt lat="45.47822" lon="9.16003">
        <ele>130.0</ele>
      </trkpt>
      <trkpt lat="45.47988" lon="9.16008">
        <ele>129.0</ele>
      </trkpt>
      <trkpt lat="45.48022" lon="9.15989">
        <ele>130.0</ele>
      </trkpt>
      <trkpt lat="45.48036" lon="9.15954">
        <ele>131.0</ele>
      </trkpt>
      <trkpt lat="45.48038" lon="9.15808">
        <ele>127.0</ele>
      </trkpt>
      <trkpt lat="45.48059" lon="9.15685">
        <ele>127.0</ele>
      </trkpt>
      <trkpt lat="45.48101" lon="9.1561">
        <ele>129.0</ele>
      </trkpt>
      <trkpt lat="45.4816" lon="9.1551">
        <ele>131.0</ele>
      </trkpt>
      <trkpt lat="45.48261" lon="9.15376">
        <ele>130.0</ele>
      </trkpt>
      <trkpt lat="45.48295" lon="9.15404">
        <ele>129.0</ele>
      </trkpt>
      <trkpt lat="45.48392" lon="9.15551">
        <ele>129.0</ele>
      </trkpt>
      <trkpt lat="45.48391" lon="9.15575">
        <ele>130.0</ele>
      </trkpt>
      <trkpt lat="45.48383" lon="9.15611">
        <ele>132.0</ele>
      </trkpt>
      <trkpt lat="45.4839" lon="9.1565">
        <ele>133.0</ele>
      </trkpt>
      <trkpt lat="45.48406" lon="9.15674">
        <ele>134.0</ele>
      </trkpt>
      <trkpt lat="45.48432" lon="9.15684">
        <ele>135.0</ele>
      </trkpt>
      <trkpt lat="45.48457" lon="9.15674">
        <ele>135.0</ele>
      </trkpt>
      <trkpt lat="45.48473" lon="9.15676">
        <ele>136.0</ele>
      </trkpt>
      <trkpt lat="45.48583" lon="9.15846">
        <ele>136.0</ele>
      </trkpt>
      <trkpt lat="45.48596" lon="9.15866">
        <ele>134.0</ele>
      </trkpt>
      <trkpt lat="45.48593" lon="9.15894">
        <ele>133.0</ele>
      </trkpt>
      <trkpt lat="45.48438" lon="9.16099">
        <ele>133.0</ele>
      </trkpt>
      <trkpt lat="45.48418" lon="9.16126">
        <ele>133.0</ele>
      </trkpt>
      <trkpt lat="45.48253" lon="9.16344">
        <ele>132.0</ele>
      </trkpt>
      <trkpt lat="45.48229" lon="9.16377">
        <ele>130.0</ele>
      </trkpt>
      <trkpt lat="45.48077" lon="9.16574">
        <ele>129.0</ele>
      </trkpt>
      <trkpt lat="45.4806" lon="9.16597">
        <ele>128.0</ele>
      </trkpt>
      <trkpt lat="45.48047" lon="9.16613">
        <ele>128.0</ele>
      </trkpt>
      <trkpt lat="45.47863" lon="9.16854">
        <ele>129.0</ele>
      </trkpt>
      <trkpt lat="45.47807" lon="9.16929">
        <ele>131.0</ele>
      </trkpt>
      <trkpt lat="45.47795" lon="9.16945">
        <ele>133.0</ele>
      </trkpt>
      <trkpt lat="45.4785" lon="9.16872">
        <ele>133.0</ele>
      </trkpt>
      <trkpt lat="45.47865" lon="9.16853">
        <ele>131.0</ele>
      </trkpt>
      <trkpt lat="45.48055" lon="9.16603">
        <ele>128.0</ele>
      </trkpt>
      <trkpt lat="45.48068" lon="9.16587">
        <ele>128.0</ele>
      </trkpt>
      <trkpt lat="45.4815" lon="9.1648">
        <ele>129.0</ele>
      </trkpt>
      <trkpt lat="45.48239" lon="9.16364">
        <ele>130.0</ele>
      </trkpt>
      <trkpt lat="45.48263" lon="9.16332">
        <ele>131.0</ele>
      </trkpt>
      <trkpt lat="45.4843" lon="9.1611">
        <ele>133.0</ele>
      </trkpt>
      <trkpt lat="45.48465" lon="9.16063">
        <ele>133.0</ele>
      </trkpt>
      <trkpt lat="45.48605" lon="9.15879">
        <ele>132.0</ele>
      </trkpt>
      <trkpt lat="45.48719" lon="9.15729">
        <ele>131.0</ele>
      </trkpt>
      <trkpt lat="45.48764" lon="9.1567">
        <ele>129.0</ele>
      </trkpt>
      <trkpt lat="45.48785" lon="9.15639">
        <ele>129.0</ele>
      </trkpt>
      <trkpt lat="45.48797" lon="9.15618">
        <ele>129.0</ele>
      </trkpt>
      <trkpt lat="45.48813" lon="9.15583">
        <ele>130.0</ele>
      </trkpt>
      <trkpt lat="45.48919" lon="9.15356">
        <ele>132.0</ele>
      </trkpt>
      <trkpt lat="45.49072" lon="9.15019">
        <ele>134.0</ele>
      </trkpt>
      <trkpt lat="45.49172" lon="9.14795">
        <ele>134.0</ele>
      </trkpt>
      <trkpt lat="45.49257" lon="9.14603">
        <ele>132.0</ele>
      </trkpt>
      <trkpt lat="45.49274" lon="9.14567">
        <ele>132.0</ele>
      </trkpt>
      <trkpt lat="45.49309" lon="9.14493">
        <ele>132.0</ele>
      </trkpt>
      <trkpt lat="45.49463" lon="9.14151">
        <ele>133.0</ele>
      </trkpt>
      <trkpt lat="45.49559" lon="9.13972">
        <ele>134.0</ele>
      </trkpt>
      <trkpt lat="45.49541" lon="9.13959">
        <ele>134.0</ele>
      </trkpt>
      <trkpt lat="45.49512" lon="9.13931">
        <ele>134.0</ele>
      </trkpt>
      <trkpt lat="45.49473" lon="9.13903">
        <ele>134.0</ele>
      </trkpt>
      <trkpt lat="45.49453" lon="9.13937">
        <ele>135.0</ele>
      </trkpt>
      <trkpt lat="45.49366" lon="9.14215">
        <ele>133.0</ele>
      </trkpt>
      <trkpt lat="45.49275" lon="9.14509">
        <ele>132.0</ele>
      </trkpt>
      <trkpt lat="45.49254" lon="9.1457">
        <ele>131.0</ele>
      </trkpt>
      <trkpt lat="45.49178" lon="9.14647">
        <ele>130.0</ele>
      </trkpt>
      <trkpt lat="45.49119" lon="9.14696">
        <ele>130.0</ele>
      </trkpt>
      <trkpt lat="45.49019" lon="9.1478">
        <ele>131.0</ele>
      </trkpt>
      <trkpt lat="45.48887" lon="9.14891">
        <ele>132.0</ele>
      </trkpt>
      <trkpt lat="45.48837" lon="9.14934">
        <ele>131.0</ele>
      </trkpt>
      <trkpt lat="45.48708" lon="9.15043">
        <ele>128.0</ele>
      </trkpt>
      <trkpt lat="45.48596" lon="9.15137">
        <ele>129.0</ele>
      </trkpt>
      <trkpt lat="45.48519" lon="9.15203">
        <ele>131.0</ele>
      </trkpt>
      <trkpt lat="45.48461" lon="9.15114">
        <ele>132.0</ele>
      </trkpt>
      <trkpt lat="45.48322" lon="9.14905">
        <ele>139.0</ele>
      </trkpt>
      <trkpt lat="45.48289" lon="9.14853">
        <ele>139.0</ele>
      </trkpt>
      <trkpt lat="45.48229" lon="9.14911">
        <ele>134.0</ele>
      </trkpt>
      <trkpt lat="45.48112" lon="9.1507">
        <ele>130.0</ele>
      </trkpt>
      <trkpt lat="45.4806" lon="9.15138">
        <ele>132.0</ele>
      </trkpt>
      <trkpt lat="45.48031" lon="9.15159">
        <ele>133.0</ele>
      </trkpt>
      <trkpt lat="45.47885" lon="9.15154">
        <ele>131.0</ele>
      </trkpt>
      <trkpt lat="45.47696" lon="9.15144">
        <ele>129.0</ele>
      </trkpt>
      <trkpt lat="45.47459" lon="9.15131">
        <ele>128.0</ele>
      </trkpt>
      <trkpt lat="45.47437" lon="9.15097">
        <ele>126.0</ele>
      </trkpt>
      <trkpt lat="45.47413" lon="9.15125">
        <ele>126.0</ele>
      </trkpt>
      <trkpt lat="45.47365" lon="9.15198">
        <ele>127.0</ele>
      </trkpt>
      <trkpt lat="45.47355" lon="9.15375">
        <ele>128.0</ele>
      </trkpt>
      <trkpt lat="45.47349" lon="9.15592">
        <ele>125.0</ele>
      </trkpt>
      <trkpt lat="45.47345" lon="9.15747">
        <ele>130.0</ele>
      </trkpt>
      <trkpt lat="45.47342" lon="9.15868">
        <ele>129.0</ele>
      </trkpt>
      <trkpt lat="45.47347" lon="9.15939">
        <ele>130.0</ele>
      </trkpt>
      <trkpt lat="45.47379" lon="9.15978">
        <ele>131.0</ele>
      </trkpt>
      <trkpt lat="45.47434" lon="9.15985">
        <ele>129.0</ele>
      </trkpt>
      <trkpt lat="45.47524" lon="9.15985">
        <ele>128.0</ele>
      </trkpt>
      <trkpt lat="45.47628" lon="9.15991">
        <ele>131.0</ele>
      </trkpt>
      <trkpt lat="45.47689" lon="9.15994">
        <ele>130.0</ele>
      </trkpt>
      <trkpt lat="45.47867" lon="9.16005">
        <ele>130.0</ele>
      </trkpt>
      <trkpt lat="45.47999" lon="9.16006">
        <ele>129.0</ele>
      </trkpt>
      <trkpt lat="45.48027" lon="9.15981">
        <ele>130.0</ele>
      </trkpt>
      <trkpt lat="45.48037" lon="9.15944">
        <ele>131.0</ele>
      </trkpt>
      <trkpt lat="45.48038" lon="9.15808">
        <ele>127.0</ele>
      </trkpt>
      <trkpt lat="45.48079" lon="9.15656">
        <ele>127.0</ele>
      </trkpt>
      <trkpt lat="45.48112" lon="9.15582">
        <ele>130.0</ele>
      </trkpt>
      <trkpt lat="45.48168" lon="9.15499">
        <ele>131.0</ele>
      </trkpt>
      <trkpt lat="45.48269" lon="9.15366">
        <ele>129.0</ele>
      </trkpt>
      <trkpt lat="45.48326" lon="9.15452">
        <ele>129.0</ele>
      </trkpt>
      <trkpt lat="45.48392" lon="9.15551">
        <ele>129.0</ele>
      </trkpt>
      <trkpt lat="45.48388" lon="9.15583">
        <ele>131.0</ele>
      </trkpt>
      <trkpt lat="45.48383" lon="9.15618">
        <ele>132.0</ele>
      </trkpt>
      <trkpt lat="45.48392" lon="9.15654">
        <ele>134.0</ele>
      </trkpt>
      <trkpt lat="45.48411" lon="9.15678">
        <ele>135.0</ele>
      </trkpt>
      <trkpt lat="45.48432" lon="9.15684">
        <ele>135.0</ele>
      </trkpt>
      <trkpt lat="45.48448" lon="9.1568">
        <ele>135.0</ele>
      </trkpt>
      <trkpt lat="45.48469" lon="9.1567">
        <ele>135.0</ele>
      </trkpt>
      <trkpt lat="45.48587" lon="9.15851">
        <ele>135.0</ele>
      </trkpt>
      <trkpt lat="45.48598" lon="9.15869">
        <ele>134.0</ele>
      </trkpt>
      <trkpt lat="45.48517" lon="9.15994">
        <ele>133.0</ele>
      </trkpt>
      <trkpt lat="45.48438" lon="9.16099">
        <ele>133.0</ele>
      </trkpt>
      <trkpt lat="45.48339" lon="9.16228">
        <ele>133.0</ele>
      </trkpt>
      <trkpt lat="45.48246" lon="9.16354">
        <ele>131.0</ele>
      </trkpt>
      <trkpt lat="45.48185" lon="9.16434">
        <ele>130.0</ele>
      </trkpt>
      <trkpt lat="45.4807" lon="9.16583">
        <ele>129.0</ele>
      </trkpt>
      <trkpt lat="45.48055" lon="9.16603">
        <ele>127.0</ele>
      </trkpt>
      <trkpt lat="45.48047" lon="9.16614">
        <ele>126.0</ele>
      </trkpt>
      <trkpt lat="45.47858" lon="9.16861">
        <ele>129.0</ele>
      </trkpt>
      <trkpt lat="45.47805" lon="9.16932">
        <ele>132.0</ele>
      </trkpt>
      <trkpt lat="45.47797" lon="9.16942">
        <ele>133.0</ele>
      </trkpt>
      <trkpt lat="45.47852" lon="9.16869">
        <ele>132.0</ele>
      </trkpt>
      <trkpt lat="45.47869" lon="9.16847">
        <ele>130.0</ele>
      </trkpt>
      <trkpt lat="45.48055" lon="9.16603">
        <ele>128.0</ele>
      </trkpt>
      <trkpt lat="45.4807" lon="9.16583">
        <ele>128.0</ele>
      </trkpt>
      <trkpt lat="45.48185" lon="9.16434">
        <ele>129.0</ele>
      </trkpt>
      <trkpt lat="45.48246" lon="9.16354">
        <ele>130.0</ele>
      </trkpt>
      <trkpt lat="45.48339" lon="9.16228">
        <ele>132.0</ele>
      </trkpt>
      <trkpt lat="45.4843" lon="9.1611">
        <ele>133.0</ele>
      </trkpt>
      <trkpt lat="45.48517" lon="9.15994">
        <ele>133.0</ele>
      </trkpt>
      <trkpt lat="45.48614" lon="9.15868">
        <ele>132.0</ele>
      </trkpt>
      <trkpt lat="45.48759" lon="9.15677">
        <ele>130.0</ele>
      </trkpt>
      <trkpt lat="45.48765" lon="9.15668">
        <ele>129.0</ele>
      </trkpt>
      <trkpt lat="45.48787" lon="9.15636">
        <ele>129.0</ele>
      </trkpt>
      <trkpt lat="45.48797" lon="9.15618">
        <ele>129.0</ele>
      </trkpt>
      <trkpt lat="45.48814" lon="9.1558">
        <ele>130.0</ele>
      </trkpt>
      <trkpt lat="45.49" lon="9.1518">
        <ele>133.0</ele>
      </trkpt>
      <trkpt lat="45.49084" lon="9.14992">
        <ele>135.0</ele>
      </trkpt>
      <trkpt lat="45.49173" lon="9.14794">
        <ele>134.0</ele>
      </trkpt>
      <trkpt lat="45.4926" lon="9.14596">
        <ele>132.0</ele>
      </trkpt>
      <trkpt lat="45.49274" lon="9.14567">
        <ele>132.0</ele>
      </trkpt>
      <trkpt lat="45.49314" lon="9.1448">
        <ele>132.0</ele>
      </trkpt>
      <trkpt lat="45.49426" lon="9.14232">
        <ele>134.0</ele>
      </trkpt>
      <trkpt lat="45.49503" lon="9.14093">
        <ele>134.0</ele>
      </trkpt>
      <trkpt lat="45.49543" lon="9.1396">
        <ele>134.0</ele>
      </trkpt>
      <trkpt lat="45.49536" lon="9.13953">
        <ele>134.0</ele>
      </trkpt>
      <trkpt lat="45.49473" lon="9.13904">
        <ele>134.0</ele>
      </trkpt>
      <trkpt lat="45.49453" lon="9.13936">
        <ele>135.0</ele>
      </trkpt>
      <trkpt lat="45.49369" lon="9.14207">
        <ele>134.0</ele>
      </trkpt>
      <trkpt lat="45.49283" lon="9.14479">
        <ele>132.0</ele>
      </trkpt>
      <trkpt lat="45.4926" lon="9.14557">
        <ele>131.0</ele>
      </trkpt>
      <trkpt lat="45.49234" lon="9.14598">
        <ele>131.0</ele>
      </trkpt>
      <trkpt lat="45.49128" lon="9.14689">
        <ele>130.0</ele>
      </trkpt>
      <trkpt lat="45.49026" lon="9.14774">
        <ele>130.0</ele>
      </trkpt>
      <trkpt lat="45.48939" lon="9.14845">
        <ele>132.0</ele>
      </trkpt>
      <trkpt lat="45.48845" lon="9.14927">
        <ele>131.0</ele>
      </trkpt>
      <trkpt lat="45.48716" lon="9.15036">
        <ele>128.0</ele>
      </trkpt>
      <trkpt lat="45.48611" lon="9.15125">
        <ele>128.0</ele>
      </trkpt>
      <trkpt lat="45.48527" lon="9.15196">
        <ele>131.0</ele>
      </trkpt>
      <trkpt lat="45.48469" lon="9.15126">
        <ele>132.0</ele>
      </trkpt>
      <trkpt lat="45.48334" lon="9.14922">
        <ele>137.0</ele>
      </trkpt>
      <trkpt lat="45.48295" lon="9.14862">
        <ele>139.0</ele>
      </trkpt>
      <trkpt lat="45.48264" lon="9.14864">
        <ele>136.0</ele>
      </trkpt>
      <trkpt lat="45.48153" lon="9.15016">
        <ele>131.0</ele>
      </trkpt>
      <trkpt lat="45.48076" lon="9.15119">
        <ele>131.0</ele>
      </trkpt>
      <trkpt lat="45.48037" lon="9.15157">
        <ele>133.0</ele>
      </trkpt>
      <trkpt lat="45.47967" lon="9.15158">
        <ele>132.0</ele>
      </trkpt>
      <trkpt lat="45.47714" lon="9.15145">
        <ele>128.0</ele>
      </trkpt>
      <trkpt lat="45.47574" lon="9.15139">
        <ele>130.0</ele>
      </trkpt>
      <trkpt lat="45.47443" lon="9.15106">
        <ele>126.0</ele>
      </trkpt>
      <trkpt lat="45.47414" lon="9.1511">
        <ele>126.0</ele>
      </trkpt>
      <trkpt lat="45.47371" lon="9.15185">
        <ele>126.0</ele>
      </trkpt>
      <trkpt lat="45.47358" lon="9.15274">
        <ele>127.0</ele>
      </trkpt>
      <trkpt lat="45.47351" lon="9.15516">
        <ele>126.0</ele>
      </trkpt>
      <trkpt lat="45.47345" lon="9.1573">
        <ele>128.0</ele>
      </trkpt>
      <trkpt lat="45.47342" lon="9.15836">
        <ele>130.0</ele>
      </trkpt>
      <trkpt lat="45.47343" lon="9.15923">
        <ele>130.0</ele>
      </trkpt>
      <trkpt lat="45.47369" lon="9.15971">
        <ele>131.0</ele>
      </trkpt>
      <trkpt lat="45.47421" lon="9.15986">
        <ele>130.0</ele>
      </trkpt>
      <trkpt lat="45.47474" lon="9.15981">
        <ele>127.0</ele>
      </trkpt>
      <trkpt lat="45.47575" lon="9.15987">
        <ele>131.0</ele>
      </trkpt>
      <trkpt lat="45.47687" lon="9.15994">
        <ele>131.0</ele>
      </trkpt>
      <trkpt lat="45.47822" lon="9.16003">
        <ele>130.0</ele>
      </trkpt>
      <trkpt lat="45.47988" lon="9.16008">
        <ele>129.0</ele>
      </trkpt>
      <trkpt lat="45.48022" lon="9.15989">
        <ele>130.0</ele>
      </trkpt>
      <trkpt lat="45.48034" lon="9.15962">
        <ele>131.0</ele>
      </trkpt>
      <trkpt lat="45.48038" lon="9.15858">
        <ele>128.0</ele>
      </trkpt>
      <trkpt lat="45.48059" lon="9.15685">
        <ele>127.0</ele>
      </trkpt>
      <trkpt lat="45.48101" lon="9.1561">
        <ele>129.0</ele>
      </trkpt>
      <trkpt lat="45.4816" lon="9.1551">
        <ele>131.0</ele>
      </trkpt>
      <trkpt lat="45.48261" lon="9.15376">
        <ele>130.0</ele>
      </trkpt>
      <trkpt lat="45.48281" lon="9.15383">
        <ele>129.0</ele>
      </trkpt>
      <trkpt lat="45.48379" lon="9.15532">
        <ele>129.0</ele>
      </trkpt>
      <trkpt lat="45.48391" lon="9.15575">
        <ele>130.0</ele>
      </trkpt>
      <trkpt lat="45.48383" lon="9.15611">
        <ele>132.0</ele>
      </trkpt>
      <trkpt lat="45.4839" lon="9.1565">
        <ele>133.0</ele>
      </trkpt>
      <trkpt lat="45.48402" lon="9.1567">
        <ele>134.0</ele>
      </trkpt>
      <trkpt lat="45.48426" lon="9.15684">
        <ele>135.0</ele>
      </trkpt>
      <trkpt lat="45.48452" lon="9.15678">
        <ele>135.0</ele>
      </trkpt>
      <trkpt lat="45.48473" lon="9.15676">
        <ele>136.0</ele>
      </trkpt>
      <trkpt lat="45.48583" lon="9.15846">
        <ele>136.0</ele>
      </trkpt>
      <trkpt lat="45.48596" lon="9.15866">
        <ele>134.0</ele>
      </trkpt>
      <trkpt lat="45.48595" lon="9.15891">
        <ele>133.0</ele>
      </trkpt>
      <trkpt lat="45.4844" lon="9.16096">
        <ele>133.0</ele>
      </trkpt>
      <trkpt lat="45.48418" lon="9.16126">
        <ele>133.0</ele>
      </trkpt>
      <trkpt lat="45.48253" lon="9.16344">
        <ele>132.0</ele>
      </trkpt>
      <trkpt lat="45.48229" lon="9.16377">
        <ele>130.0</ele>
      </trkpt>
      <trkpt lat="45.48077" lon="9.16574">
        <ele>129.0</ele>
      </trkpt>
      <trkpt lat="45.48062" lon="9.16595">
        <ele>128.0</ele>
      </trkpt>
      <trkpt lat="45.48047" lon="9.16614">
        <ele>126.0</ele>
      </trkpt>
      <trkpt lat="45.47863" lon="9.16854">
        <ele>129.0</ele>
      </trkpt>
      <trkpt lat="45.47807" lon="9.16929">
        <ele>131.0</ele>
      </trkpt>
      <trkpt lat="45.47794" lon="9.16945">
        <ele>133.0</ele>
      </trkpt>
      <trkpt lat="45.47807" lon="9.16929">
        <ele>133.0</ele>
      </trkpt>
      <trkpt lat="45.47863" lon="9.16854">
        <ele>131.0</ele>
      </trkpt>
      <trkpt lat="45.48054" lon="9.16605">
        <ele>128.0</ele>
      </trkpt>
      <trkpt lat="45.48068" lon="9.16587">
        <ele>128.0</ele>
      </trkpt>
      <trkpt lat="45.4815" lon="9.1648">
        <ele>129.0</ele>
      </trkpt>
      <trkpt lat="45.48239" lon="9.16364">
        <ele>130.0</ele>
      </trkpt>
      <trkpt lat="45.4826" lon="9.16336">
        <ele>131.0</ele>
      </trkpt>
      <trkpt lat="45.48423" lon="9.16119">
        <ele>133.0</ele>
      </trkpt>
      <trkpt lat="45.48465" lon="9.16063">
        <ele>133.0</ele>
      </trkpt>
      <trkpt lat="45.48605" lon="9.15879">
        <ele>132.0</ele>
      </trkpt>
      <trkpt lat="45.48719" lon="9.15729">
        <ele>131.0</ele>
      </trkpt>
      <trkpt lat="45.48764" lon="9.1567">
        <ele>129.0</ele>
      </trkpt>
      <trkpt lat="45.48777" lon="9.15652">
        <ele>129.0</ele>
      </trkpt>
      <trkpt lat="45.48795" lon="9.15621">
        <ele>129.0</ele>
      </trkpt>
      <trkpt lat="45.48813" lon="9.15583">
        <ele>130.0</ele>
      </trkpt>
      <trkpt lat="45.48919" lon="9.15356">
        <ele>132.0</ele>
      </trkpt>
      <trkpt lat="45.49072" lon="9.15019">
        <ele>134.0</ele>
      </trkpt>
      <trkpt lat="45.49168" lon="9.14804">
        <ele>134.0</ele>
      </trkpt>
      <trkpt lat="45.49214" lon="9.14701">
        <ele>133.0</ele>
      </trkpt>
      <trkpt lat="45.49272" lon="9.1457">
        <ele>132.0</ele>
      </trkpt>
      <trkpt lat="45.49309" lon="9.14493">
        <ele>132.0</ele>
      </trkpt>
      <trkpt lat="45.49463" lon="9.14151">
        <ele>133.0</ele>
      </trkpt>
      <trkpt lat="45.49559" lon="9.13972">
        <ele>134.0</ele>
      </trkpt>
      <trkpt lat="45.49543" lon="9.1396">
        <ele>134.0</ele>
      </trkpt>
      <trkpt lat="45.49532" lon="9.1395">
        <ele>134.0</ele>
      </trkpt>
      <trkpt lat="45.49473" lon="9.13903">
        <ele>134.0</ele>
      </trkpt>
      <trkpt lat="45.49453" lon="9.13937">
        <ele>135.0</ele>
      </trkpt>
      <trkpt lat="45.49366" lon="9.14215">
        <ele>133.0</ele>
      </trkpt>
      <trkpt lat="45.49275" lon="9.14509">
        <ele>132.0</ele>
      </trkpt>
      <trkpt lat="45.4926" lon="9.14557">
        <ele>131.0</ele>
      </trkpt>
      <trkpt lat="45.49186" lon="9.1464">
        <ele>130.0</ele>
      </trkpt>
      <trkpt lat="45.49119" lon="9.14696">
        <ele>130.0</ele>
      </trkpt>
      <trkpt lat="45.49019" lon="9.1478">
        <ele>131.0</ele>
      </trkpt>
      <trkpt lat="45.48887" lon="9.14891">
        <ele>132.0</ele>
      </trkpt>
      <trkpt lat="45.48837" lon="9.14934">
        <ele>131.0</ele>
      </trkpt>
      <trkpt lat="45.48716" lon="9.15036">
        <ele>128.0</ele>
      </trkpt>
      <trkpt lat="45.48603" lon="9.15131">
        <ele>128.0</ele>
      </trkpt>
      <trkpt lat="45.48519" lon="9.15203">
        <ele>131.0</ele>
      </trkpt>
      <trkpt lat="45.48461" lon="9.15114">
        <ele>132.0</ele>
      </trkpt>
      <trkpt lat="45.48322" lon="9.14905">
        <ele>139.0</ele>
      </trkpt>
      <trkpt lat="45.48295" lon="9.14862">
        <ele>139.0</ele>
      </trkpt>
      <trkpt lat="45.48252" lon="9.14879">
        <ele>135.0</ele>
      </trkpt>
      <trkpt lat="45.48112" lon="9.1507">
        <ele>130.0</ele>
      </trkpt>
      <trkpt lat="45.4806" lon="9.15138">
        <ele>132.0</ele>
      </trkpt>
      <trkpt lat="45.48031" lon="9.15159">
        <ele>133.0</ele>
      </trkpt>
      <trkpt lat="45.47885" lon="9.15154">
        <ele>131.0</ele>
      </trkpt>
      <trkpt lat="45.47714" lon="9.15145">
        <ele>128.0</ele>
      </trkpt>
      <trkpt lat="45.47555" lon="9.15138">
        <ele>129.0</ele>
      </trkpt>
      <trkpt lat="45.47437" lon="9.15097">
        <ele>126.0</ele>
      </trkpt>
      <trkpt lat="45.47413" lon="9.15125">
        <ele>126.0</ele>
      </trkpt>
      <trkpt lat="45.47365" lon="9.15198">
        <ele>127.0</ele>
      </trkpt>
      <trkpt lat="45.47355" lon="9.15375">
        <ele>128.0</ele>
      </trkpt>
      <trkpt lat="45.47351" lon="9.15516">
        <ele>126.0</ele>
      </trkpt>
      <trkpt lat="45.47345" lon="9.15739">
        <ele>129.0</ele>
      </trkpt>
      <trkpt lat="45.47342" lon="9.15868">
        <ele>129.0</ele>
      </trkpt>
      <trkpt lat="45.47347" lon="9.15939">
        <ele>130.0</ele>
      </trkpt>
      <trkpt lat="45.47379" lon="9.15978">
        <ele>131.0</ele>
      </trkpt>
      <trkpt lat="45.47421" lon="9.15986">
        <ele>130.0</ele>
      </trkpt>
      <trkpt lat="45.47515" lon="9.15984">
        <ele>128.0</ele>
      </trkpt>
      <trkpt lat="45.47628" lon="9.15991">
        <ele>131.0</ele>
      </trkpt>
      <trkpt lat="45.47689" lon="9.15994">
        <ele>130.0</ele>
      </trkpt>
      <trkpt lat="45.47867" lon="9.16005">
        <ele>130.0</ele>
      </trkpt>
      <trkpt lat="45.47999" lon="9.16006">
        <ele>129.0</ele>
      </trkpt>
      <trkpt lat="45.48022" lon="9.15989">
        <ele>130.0</ele>
      </trkpt>
      <trkpt lat="45.48036" lon="9.15954">
        <ele>131.0</ele>
      </trkpt>
      <trkpt lat="45.48038" lon="9.15808">
        <ele>127.0</ele>
      </trkpt>
      <trkpt lat="45.48079" lon="9.15656">
        <ele>127.0</ele>
      </trkpt>
      <trkpt lat="45.48112" lon="9.15582">
        <ele>130.0</ele>
      </trkpt>
      <trkpt lat="45.48168" lon="9.15499">
        <ele>131.0</ele>
      </trkpt>
      <trkpt lat="45.48261" lon="9.15376">
        <ele>130.0</ele>
      </trkpt>
      <trkpt lat="45.48295" lon="9.15404">
        <ele>129.0</ele>
      </trkpt>
      <trkpt lat="45.48392" lon="9.15551">
        <ele>129.0</ele>
      </trkpt>
      <trkpt lat="45.48388" lon="9.15583">
        <ele>131.0</ele>
      </trkpt>
      <trkpt lat="45.48383" lon="9.15618">
        <ele>132.0</ele>
      </trkpt>
      <trkpt lat="45.4839" lon="9.1565">
        <ele>133.0</ele>
      </trkpt>
      <trkpt lat="45.48406" lon="9.15674">
        <ele>134.0</ele>
      </trkpt>
      <trkpt lat="45.48432" lon="9.15684">
        <ele>135.0</ele>
      </trkpt>
      <trkpt lat="45.48457" lon="9.15674">
        <ele>135.0</ele>
      </trkpt>
      <trkpt lat="45.48492" lon="9.15706">
        <ele>136.0</ele>
      </trkpt>
      <trkpt lat="45.48587" lon="9.15851">
        <ele>135.0</ele>
      </trkpt>
      <trkpt lat="45.48596" lon="9.15866">
        <ele>134.0</ele>
      </trkpt>
      <trkpt lat="45.48593" lon="9.15894">
        <ele>133.0</ele>
      </trkpt>
      <trkpt lat="45.48438" lon="9.16099">
        <ele>133.0</ele>
      </trkpt>
      <trkpt lat="45.48339" lon="9.16228">
        <ele>133.0</ele>
      </trkpt>
      <trkpt lat="45.48246" lon="9.16354">
        <ele>131.0</ele>
      </trkpt>
      <trkpt lat="45.48185" lon="9.16434">
        <ele>130.0</ele>
      </trkpt>
      <trkpt lat="45.48077" lon="9.16574">
        <ele>129.0</ele>
      </trkpt>
      <trkpt lat="45.4806" lon="9.16597">
        <ele>127.0</ele>
      </trkpt>
      <trkpt lat="45.48047" lon="9.16614">
        <ele>126.0</ele>
      </trkpt>
    </trkseg>
  </trk>
</gpx>