<?xml version="1.0" encoding="UTF-8"?>
<gpx xmlns="http://www.topografix.com/GPX/1/0" xmlns:xsi="http://www.w3.org/2001/XMLSchema-instance" xsi:schemaLocation="http://www.topografix.com/GPX/1/0 http://www.topografix.com/GPX/1/0/gpx.xsd" version="1.0" creator="GPSBabel - https://www.gpsbabel.org">
  <time>2026-05-15T08:01:09.445000Z</time>
  <bounds minlat="46.09205" maxlat="46.13954" minlon="12.21495" maxlon="12.28105" />
  <trk>
    <trkseg>
      <trkpt lat="46.13954" lon="12.21622">
        <ele>395.0</ele>
      </trkpt>
      <trkpt lat="46.13939" lon="12.21512">
        <ele>392.0</ele>
      </trkpt>
      <trkpt lat="46.13854" lon="12.21531">
        <ele>386.0</ele>
      </trkpt>
      <trkpt lat="46.13829" lon="12.21593">
        <ele>384.0</ele>
      </trkpt>
      <trkpt lat="46.1383" lon="12.2167">
        <ele>384.0</ele>
      </trkpt>
      <trkpt lat="46.13805" lon="12.21691">
        <ele>385.0</ele>
      </trkpt>
      <trkpt lat="46.13796" lon="12.21752">
        <ele>385.0</ele>
      </trkpt>
      <trkpt lat="46.13771" lon="12.21764">
        <ele>385.0</ele>
      </trkpt>
      <trkpt lat="46.13744" lon="12.21754">
        <ele>385.0</ele>
      </trkpt>
      <trkpt lat="46.13722" lon="12.21771">
        <ele>384.0</ele>
      </trkpt>
      <trkpt lat="46.13532" lon="12.21989">
        <ele>375.0</ele>
      </trkpt>
      <trkpt lat="46.13521" lon="12.22064">
        <ele>372.0</ele>
      </trkpt>
      <trkpt lat="46.13549" lon="12.22156">
        <ele>368.0</ele>
      </trkpt>
      <trkpt lat="46.13623" lon="12.22118">
        <ele>365.0</ele>
      </trkpt>
      <trkpt lat="46.13634" lon="12.22132">
        <ele>364.0</ele>
      </trkpt>
      <trkpt lat="46.13516" lon="12.22221">
        <ele>359.0</ele>
      </trkpt>
      <trkpt lat="46.13465" lon="12.22209">
        <ele>354.0</ele>
      </trkpt>
      <trkpt lat="46.13444" lon="12.22124">
        <ele>350.0</ele>
      </trkpt>
      <trkpt lat="46.1343" lon="12.22004">
        <ele>344.0</ele>
      </trkpt>
      <trkpt lat="46.13471" lon="12.21915">
        <ele>341.0</ele>
      </trkpt>
      <trkpt lat="46.13314" lon="12.21724">
        <ele>348.0</ele>
      </trkpt>
      <trkpt lat="46.13265" lon="12.21723">
        <ele>351.0</ele>
      </trkpt>
      <trkpt lat="46.1323" lon="12.21696">
        <ele>354.0</ele>
      </trkpt>
      <trkpt lat="46.1309" lon="12.21505">
        <ele>363.0</ele>
      </trkpt>
      <trkpt lat="46.13055" lon="12.21495">
        <ele>367.0</ele>
      </trkpt>
      <trkpt lat="46.13005" lon="12.21519">
        <ele>370.0</ele>
      </trkpt>
      <trkpt lat="46.12919" lon="12.21575">
        <ele>377.0</ele>
      </trkpt>
      <trkpt lat="46.12882" lon="12.21627">
        <ele>384.0</ele>
      </trkpt>
      <trkpt lat="46.12808" lon="12.2165">
        <ele>387.0</ele>
      </trkpt>
      <trkpt lat="46.12725" lon="12.21711">
        <ele>394.0</ele>
      </trkpt>
      <trkpt lat="46.12706" lon="12.21753">
        <ele>396.0</ele>
      </trkpt>
      <trkpt lat="46.12705" lon="12.21791">
        <ele>398.0</ele>
      </trkpt>
      <trkpt lat="46.12834" lon="12.22061">
        <ele>405.0</ele>
      </trkpt>
      <trkpt lat="46.1284" lon="12.22209">
        <ele>407.0</ele>
      </trkpt>
      <trkpt lat="46.12914" lon="12.22341">
        <ele>408.0</ele>
      </trkpt>
      <trkpt lat="46.12921" lon="12.22486">
        <ele>409.0</ele>
      </trkpt>
      <trkpt lat="46.1297" lon="12.22707">
        <ele>412.0</ele>
      </trkpt>
      <trkpt lat="46.12923" lon="12.22759">
        <ele>414.0</ele>
      </trkpt>
      <trkpt lat="46.12745" lon="12.22829">
        <ele>412.0</ele>
      </trkpt>
      <trkpt lat="46.12717" lon="12.22948">
        <ele>413.0</ele>
      </trkpt>
      <trkpt lat="46.12701" lon="12.2312">
        <ele>416.0</ele>
      </trkpt>
      <trkpt lat="46.12672" lon="12.23263">
        <ele>420.0</ele>
      </trkpt>
      <trkpt lat="46.12671" lon="12.23377">
        <ele>424.0</ele>
      </trkpt>
      <trkpt lat="46.12648" lon="12.23518">
        <ele>427.0</ele>
      </trkpt>
      <trkpt lat="46.12588" lon="12.23666">
        <ele>429.0</ele>
      </trkpt>
      <trkpt lat="46.12539" lon="12.23746">
        <ele>429.0</ele>
      </trkpt>
      <trkpt lat="46.12462" lon="12.23828">
        <ele>430.0</ele>
      </trkpt>
      <trkpt lat="46.12432" lon="12.23887">
        <ele>431.0</ele>
      </trkpt>
      <trkpt lat="46.12404" lon="12.24007">
        <ele>433.0</ele>
      </trkpt>
      <trkpt lat="46.12392" lon="12.24284">
        <ele>431.0</ele>
      </trkpt>
      <trkpt lat="46.11931" lon="12.25168">
        <ele>472.0</ele>
      </trkpt>
      <trkpt lat="46.119" lon="12.25305">
        <ele>489.0</ele>
      </trkpt>
      <trkpt lat="46.11913" lon="12.25382">
        <ele>499.0</ele>
      </trkpt>
      <trkpt lat="46.11911" lon="12.25474">
        <ele>510.0</ele>
      </trkpt>
      <trkpt lat="46.11745" lon="12.25385">
        <ele>529.0</ele>
      </trkpt>
      <trkpt lat="46.11561" lon="12.25373">
        <ele>549.0</ele>
      </trkpt>
      <trkpt lat="46.11497" lon="12.25352">
        <ele>560.0</ele>
      </trkpt>
      <trkpt lat="46.11451" lon="12.25372">
        <ele>569.0</ele>
      </trkpt>
      <trkpt lat="46.11396" lon="12.25355">
        <ele>578.0</ele>
      </trkpt>
      <trkpt lat="46.11324" lon="12.25437">
        <ele>593.0</ele>
      </trkpt>
      <trkpt lat="46.11233" lon="12.25423">
        <ele>604.0</ele>
      </trkpt>
      <trkpt lat="46.11235" lon="12.25442">
        <ele>605.0</ele>
      </trkpt>
      <trkpt lat="46.11338" lon="12.25561">
        <ele>619.0</ele>
      </trkpt>
      <trkpt lat="46.1133" lon="12.25579">
        <ele>621.0</ele>
      </trkpt>
      <trkpt lat="46.11271" lon="12.25538">
        <ele>627.0</ele>
      </trkpt>
      <trkpt lat="46.11261" lon="12.25547">
        <ele>629.0</ele>
      </trkpt>
      <trkpt lat="46.11311" lon="12.25586">
        <ele>635.0</ele>
      </trkpt>
      <trkpt lat="46.11358" lon="12.25657">
        <ele>640.0</ele>
      </trkpt>
      <trkpt lat="46.11503" lon="12.25954">
        <ele>666.0</ele>
      </trkpt>
      <trkpt lat="46.1154" lon="12.26075">
        <ele>678.0</ele>
      </trkpt>
      <trkpt lat="46.11539" lon="12.261">
        <ele>684.0</ele>
      </trkpt>
      <trkpt lat="46.11524" lon="12.26101">
        <ele>686.0</ele>
      </trkpt>
      <trkpt lat="46.11464" lon="12.25999">
        <ele>691.0</ele>
      </trkpt>
      <trkpt lat="46.11353" lon="12.25943">
        <ele>701.0</ele>
      </trkpt>
      <trkpt lat="46.11258" lon="12.25809">
        <ele>715.0</ele>
      </trkpt>
      <trkpt lat="46.11241" lon="12.25811">
        <ele>717.0</ele>
      </trkpt>
      <trkpt lat="46.11241" lon="12.25828">
        <ele>718.0</ele>
      </trkpt>
      <trkpt lat="46.11283" lon="12.25888">
        <ele>721.0</ele>
      </trkpt>
      <trkpt lat="46.11313" lon="12.25999">
        <ele>731.0</ele>
      </trkpt>
      <trkpt lat="46.1136" lon="12.26103">
        <ele>744.0</ele>
      </trkpt>
      <trkpt lat="46.11368" lon="12.26207">
        <ele>756.0</ele>
      </trkpt>
      <trkpt lat="46.11456" lon="12.26403">
        <ele>772.0</ele>
      </trkpt>
      <trkpt lat="46.11487" lon="12.26506">
        <ele>785.0</ele>
      </trkpt>
      <trkpt lat="46.11484" lon="12.26536">
        <ele>790.0</ele>
      </trkpt>
      <trkpt lat="46.11397" lon="12.2651">
        <ele>798.0</ele>
      </trkpt>
      <trkpt lat="46.11274" lon="12.26417">
        <ele>813.0</ele>
      </trkpt>
      <trkpt lat="46.11227" lon="12.26404">
        <ele>819.0</ele>
      </trkpt>
      <trkpt lat="46.1111" lon="12.2641">
        <ele>833.0</ele>
      </trkpt>
      <trkpt lat="46.11092" lon="12.26387">
        <ele>837.0</ele>
      </trkpt>
      <trkpt lat="46.11083" lon="12.26307">
        <ele>843.0</ele>
      </trkpt>
      <trkpt lat="46.11064" lon="12.26287">
        <ele>846.0</ele>
      </trkpt>
      <trkpt lat="46.11021" lon="12.26277">
        <ele>852.0</ele>
      </trkpt>
      <trkpt lat="46.10955" lon="12.26317">
        <ele>862.0</ele>
      </trkpt>
      <trkpt lat="46.10895" lon="12.26267">
        <ele>868.0</ele>
      </trkpt>
      <trkpt lat="46.1086" lon="12.26215">
        <ele>878.0</ele>
      </trkpt>
      <trkpt lat="46.10638" lon="12.26185">
        <ele>901.0</ele>
      </trkpt>
      <trkpt lat="46.10628" lon="12.26211">
        <ele>903.0</ele>
      </trkpt>
      <trkpt lat="46.10637" lon="12.26253">
        <ele>906.0</ele>
      </trkpt>
      <trkpt lat="46.1067" lon="12.26335">
        <ele>911.0</ele>
      </trkpt>
      <trkpt lat="46.10722" lon="12.26394">
        <ele>917.0</ele>
      </trkpt>
      <trkpt lat="46.10842" lon="12.26768">
        <ele>934.0</ele>
      </trkpt>
      <trkpt lat="46.10841" lon="12.2683">
        <ele>940.0</ele>
      </trkpt>
      <trkpt lat="46.10817" lon="12.26875">
        <ele>942.0</ele>
      </trkpt>
      <trkpt lat="46.10764" lon="12.26905">
        <ele>946.0</ele>
      </trkpt>
      <trkpt lat="46.10605" lon="12.26918">
        <ele>959.0</ele>
      </trkpt>
      <trkpt lat="46.10424" lon="12.26799">
        <ele>975.0</ele>
      </trkpt>
      <trkpt lat="46.10377" lon="12.26785">
        <ele>982.0</ele>
      </trkpt>
      <trkpt lat="46.10343" lon="12.26794">
        <ele>986.0</ele>
      </trkpt>
      <trkpt lat="46.10209" lon="12.27001">
        <ele>994.0</ele>
      </trkpt>
      <trkpt lat="46.10163" lon="12.27243">
        <ele>1001.0</ele>
      </trkpt>
      <trkpt lat="46.10135" lon="12.27298">
        <ele>1004.0</ele>
      </trkpt>
      <trkpt lat="46.09921" lon="12.27453">
        <ele>1010.0</ele>
      </trkpt>
      <trkpt lat="46.09822" lon="12.27485">
        <ele>1011.0</ele>
      </trkpt>
      <trkpt lat="46.09665" lon="12.27499">
        <ele>1014.0</ele>
      </trkpt>
      <trkpt lat="46.09422" lon="12.27673">
        <ele>1022.0</ele>
      </trkpt>
      <trkpt lat="46.09352" lon="12.27739">
        <ele>1029.0</ele>
      </trkpt>
      <trkpt lat="46.09276" lon="12.27746">
        <ele>1033.0</ele>
      </trkpt>
      <trkpt lat="46.09243" lon="12.27768">
        <ele>1034.0</ele>
      </trkpt>
      <trkpt lat="46.09205" lon="12.279">
        <ele>1039.0</ele>
      </trkpt>
      <trkpt lat="46.09261" lon="12.28105">
        <ele>1047.0</ele>
      </trkpt>
    </trkseg>
  </trk>
</gpx>