<?xml version="1.0" encoding="UTF-8"?>
<gpx xmlns="http://www.topografix.com/GPX/1/0" xmlns:xsi="http://www.w3.org/2001/XMLSchema-instance" xsi:schemaLocation="http://www.topografix.com/GPX/1/0 http://www.topografix.com/GPX/1/0/gpx.xsd" version="1.0" creator="GPSBabel - https://www.gpsbabel.org">
  <time>2025-12-11T11:28:44.562000Z</time>
  <bounds minlat="43.90314" maxlat="44.76282" minlon="7.92052" maxlon="8.82704" />
  <trk>
    <trkseg>
      <trkpt lat="43.90314" lon="8.02766">
        <ele>34.0</ele>
      </trkpt>
      <trkpt lat="43.90338" lon="8.02731">
        <ele>34.0</ele>
      </trkpt>
      <trkpt lat="43.90473" lon="8.02729">
        <ele>34.0</ele>
      </trkpt>
      <trkpt lat="43.90588" lon="8.02706">
        <ele>34.0</ele>
      </trkpt>
      <trkpt lat="43.90641" lon="8.02713">
        <ele>34.0</ele>
      </trkpt>
      <trkpt lat="43.90771" lon="8.0266">
        <ele>35.0</ele>
      </trkpt>
      <trkpt lat="43.90942" lon="8.02691">
        <ele>42.0</ele>
      </trkpt>
      <trkpt lat="43.90988" lon="8.02746">
        <ele>41.0</ele>
      </trkpt>
      <trkpt lat="43.91055" lon="8.02771">
        <ele>40.0</ele>
      </trkpt>
      <trkpt lat="43.91168" lon="8.02763">
        <ele>39.0</ele>
      </trkpt>
      <trkpt lat="43.91222" lon="8.02721">
        <ele>39.0</ele>
      </trkpt>
      <trkpt lat="43.91326" lon="8.0268">
        <ele>39.0</ele>
      </trkpt>
      <trkpt lat="43.91359" lon="8.0268">
        <ele>39.0</ele>
      </trkpt>
      <trkpt lat="43.91412" lon="8.02722">
        <ele>40.0</ele>
      </trkpt>
      <trkpt lat="43.91607" lon="8.02582">
        <ele>36.0</ele>
      </trkpt>
      <trkpt lat="43.9174" lon="8.0261">
        <ele>36.0</ele>
      </trkpt>
      <trkpt lat="43.91983" lon="8.0253">
        <ele>41.0</ele>
      </trkpt>
      <trkpt lat="43.92277" lon="8.02498">
        <ele>46.0</ele>
      </trkpt>
      <trkpt lat="43.92303" lon="8.02483">
        <ele>45.0</ele>
      </trkpt>
      <trkpt lat="43.92511" lon="8.02239">
        <ele>44.0</ele>
      </trkpt>
      <trkpt lat="43.92618" lon="8.02093">
        <ele>46.0</ele>
      </trkpt>
      <trkpt lat="43.92672" lon="8.01996">
        <ele>48.0</ele>
      </trkpt>
      <trkpt lat="43.92714" lon="8.01963">
        <ele>48.0</ele>
      </trkpt>
      <trkpt lat="43.92766" lon="8.01957">
        <ele>49.0</ele>
      </trkpt>
      <trkpt lat="43.92878" lon="8.02049">
        <ele>50.0</ele>
      </trkpt>
      <trkpt lat="43.93067" lon="8.02137">
        <ele>59.0</ele>
      </trkpt>
      <trkpt lat="43.93144" lon="8.02142">
        <ele>59.0</ele>
      </trkpt>
      <trkpt lat="43.932" lon="8.02097">
        <ele>58.0</ele>
      </trkpt>
      <trkpt lat="43.93246" lon="8.0202">
        <ele>57.0</ele>
      </trkpt>
      <trkpt lat="43.93269" lon="8.01822">
        <ele>54.0</ele>
      </trkpt>
      <trkpt lat="43.93287" lon="8.01772">
        <ele>54.0</ele>
      </trkpt>
      <trkpt lat="43.93491" lon="8.01602">
        <ele>60.0</ele>
      </trkpt>
      <trkpt lat="43.9356" lon="8.01577">
        <ele>61.0</ele>
      </trkpt>
      <trkpt lat="43.93621" lon="8.01578">
        <ele>62.0</ele>
      </trkpt>
      <trkpt lat="43.9365" lon="8.01592">
        <ele>64.0</ele>
      </trkpt>
      <trkpt lat="43.93685" lon="8.01645">
        <ele>65.0</ele>
      </trkpt>
      <trkpt lat="43.93761" lon="8.01686">
        <ele>68.0</ele>
      </trkpt>
      <trkpt lat="43.93929" lon="8.01684">
        <ele>71.0</ele>
      </trkpt>
      <trkpt lat="43.94001" lon="8.01531">
        <ele>71.0</ele>
      </trkpt>
      <trkpt lat="43.94024" lon="8.01418">
        <ele>72.0</ele>
      </trkpt>
      <trkpt lat="43.94066" lon="8.01303">
        <ele>76.0</ele>
      </trkpt>
      <trkpt lat="43.94069" lon="8.01267">
        <ele>78.0</ele>
      </trkpt>
      <trkpt lat="43.94042" lon="8.0121">
        <ele>81.0</ele>
      </trkpt>
      <trkpt lat="43.94033" lon="8.01125">
        <ele>84.0</ele>
      </trkpt>
      <trkpt lat="43.94073" lon="8.01034">
        <ele>84.0</ele>
      </trkpt>
      <trkpt lat="43.94168" lon="8.00907">
        <ele>85.0</ele>
      </trkpt>
      <trkpt lat="43.94231" lon="8.00749">
        <ele>89.0</ele>
      </trkpt>
      <trkpt lat="43.94252" lon="8.00658">
        <ele>90.0</ele>
      </trkpt>
      <trkpt lat="43.94371" lon="8.00447">
        <ele>91.0</ele>
      </trkpt>
      <trkpt lat="43.944" lon="8.00439">
        <ele>92.0</ele>
      </trkpt>
      <trkpt lat="43.94436" lon="8.00455">
        <ele>94.0</ele>
      </trkpt>
      <trkpt lat="43.94494" lon="8.00433">
        <ele>96.0</ele>
      </trkpt>
      <trkpt lat="43.94576" lon="8.00358">
        <ele>93.0</ele>
      </trkpt>
      <trkpt lat="43.94646" lon="8.00261">
        <ele>89.0</ele>
      </trkpt>
      <trkpt lat="43.94713" lon="8.00233">
        <ele>89.0</ele>
      </trkpt>
      <trkpt lat="43.94984" lon="8.00275">
        <ele>90.0</ele>
      </trkpt>
      <trkpt lat="43.951" lon="8.00277">
        <ele>92.0</ele>
      </trkpt>
      <trkpt lat="43.95226" lon="8.00019">
        <ele>95.0</ele>
      </trkpt>
      <trkpt lat="43.95246" lon="7.99941">
        <ele>98.0</ele>
      </trkpt>
      <trkpt lat="43.95344" lon="7.9993">
        <ele>99.0</ele>
      </trkpt>
      <trkpt lat="43.95385" lon="7.99956">
        <ele>100.0</ele>
      </trkpt>
      <trkpt lat="43.95443" lon="7.99966">
        <ele>101.0</ele>
      </trkpt>
      <trkpt lat="43.95483" lon="7.99944">
        <ele>102.0</ele>
      </trkpt>
      <trkpt lat="43.95558" lon="7.99796">
        <ele>103.0</ele>
      </trkpt>
      <trkpt lat="43.95587" lon="7.99764">
        <ele>104.0</ele>
      </trkpt>
      <trkpt lat="43.95615" lon="7.9976">
        <ele>106.0</ele>
      </trkpt>
      <trkpt lat="43.95669" lon="7.998">
        <ele>112.0</ele>
      </trkpt>
      <trkpt lat="43.95722" lon="7.99779">
        <ele>116.0</ele>
      </trkpt>
      <trkpt lat="43.95746" lon="7.9973">
        <ele>118.0</ele>
      </trkpt>
      <trkpt lat="43.95778" lon="7.99537">
        <ele>114.0</ele>
      </trkpt>
      <trkpt lat="43.95834" lon="7.99382">
        <ele>110.0</ele>
      </trkpt>
      <trkpt lat="43.96029" lon="7.99166">
        <ele>113.0</ele>
      </trkpt>
      <trkpt lat="43.96096" lon="7.99114">
        <ele>116.0</ele>
      </trkpt>
      <trkpt lat="43.96202" lon="7.99094">
        <ele>119.0</ele>
      </trkpt>
      <trkpt lat="43.96271" lon="7.99109">
        <ele>123.0</ele>
      </trkpt>
      <trkpt lat="43.96299" lon="7.99157">
        <ele>125.0</ele>
      </trkpt>
      <trkpt lat="43.9632" lon="7.99149">
        <ele>127.0</ele>
      </trkpt>
      <trkpt lat="43.96312" lon="7.99004">
        <ele>130.0</ele>
      </trkpt>
      <trkpt lat="43.96327" lon="7.98945">
        <ele>130.0</ele>
      </trkpt>
      <trkpt lat="43.96374" lon="7.98865">
        <ele>130.0</ele>
      </trkpt>
      <trkpt lat="43.96549" lon="7.98688">
        <ele>132.0</ele>
      </trkpt>
      <trkpt lat="43.96664" lon="7.98605">
        <ele>137.0</ele>
      </trkpt>
      <trkpt lat="43.96743" lon="7.98491">
        <ele>141.0</ele>
      </trkpt>
      <trkpt lat="43.96746" lon="7.98396">
        <ele>143.0</ele>
      </trkpt>
      <trkpt lat="43.9676" lon="7.98369">
        <ele>144.0</ele>
      </trkpt>
      <trkpt lat="43.96862" lon="7.98299">
        <ele>144.0</ele>
      </trkpt>
      <trkpt lat="43.96938" lon="7.98271">
        <ele>144.0</ele>
      </trkpt>
      <trkpt lat="43.96979" lon="7.98182">
        <ele>144.0</ele>
      </trkpt>
      <trkpt lat="43.9706" lon="7.98119">
        <ele>144.0</ele>
      </trkpt>
      <trkpt lat="43.97147" lon="7.98001">
        <ele>145.0</ele>
      </trkpt>
      <trkpt lat="43.97178" lon="7.97994">
        <ele>145.0</ele>
      </trkpt>
      <trkpt lat="43.97251" lon="7.98015">
        <ele>146.0</ele>
      </trkpt>
      <trkpt lat="43.97257" lon="7.97989">
        <ele>146.0</ele>
      </trkpt>
      <trkpt lat="43.97236" lon="7.97941">
        <ele>146.0</ele>
      </trkpt>
      <trkpt lat="43.97244" lon="7.97907">
        <ele>148.0</ele>
      </trkpt>
      <trkpt lat="43.97297" lon="7.97878">
        <ele>152.0</ele>
      </trkpt>
      <trkpt lat="43.97333" lon="7.97831">
        <ele>155.0</ele>
      </trkpt>
      <trkpt lat="43.97363" lon="7.97769">
        <ele>161.0</ele>
      </trkpt>
      <trkpt lat="43.97366" lon="7.9772">
        <ele>163.0</ele>
      </trkpt>
      <trkpt lat="43.97395" lon="7.97645">
        <ele>165.0</ele>
      </trkpt>
      <trkpt lat="43.97512" lon="7.9754">
        <ele>172.0</ele>
      </trkpt>
      <trkpt lat="43.97609" lon="7.97274">
        <ele>179.0</ele>
      </trkpt>
      <trkpt lat="43.97647" lon="7.97227">
        <ele>182.0</ele>
      </trkpt>
      <trkpt lat="43.97798" lon="7.97114">
        <ele>188.0</ele>
      </trkpt>
      <trkpt lat="43.97905" lon="7.97114">
        <ele>194.0</ele>
      </trkpt>
      <trkpt lat="43.98189" lon="7.9728">
        <ele>215.0</ele>
      </trkpt>
      <trkpt lat="43.98245" lon="7.97289">
        <ele>224.0</ele>
      </trkpt>
      <trkpt lat="43.98315" lon="7.97264">
        <ele>228.0</ele>
      </trkpt>
      <trkpt lat="43.98375" lon="7.97196">
        <ele>233.0</ele>
      </trkpt>
      <trkpt lat="43.98442" lon="7.97088">
        <ele>239.0</ele>
      </trkpt>
      <trkpt lat="43.98486" lon="7.97049">
        <ele>243.0</ele>
      </trkpt>
      <trkpt lat="43.98552" lon="7.97027">
        <ele>249.0</ele>
      </trkpt>
      <trkpt lat="43.98737" lon="7.97012">
        <ele>260.0</ele>
      </trkpt>
      <trkpt lat="43.9891" lon="7.97106">
        <ele>270.0</ele>
      </trkpt>
      <trkpt lat="43.9913" lon="7.97083">
        <ele>289.0</ele>
      </trkpt>
      <trkpt lat="43.99191" lon="7.97117">
        <ele>292.0</ele>
      </trkpt>
      <trkpt lat="43.99285" lon="7.97249">
        <ele>296.49</ele>
      </trkpt>
      <trkpt lat="43.99575" lon="7.97515">
        <ele>299.5</ele>
      </trkpt>
      <trkpt lat="43.99767" lon="7.97569">
        <ele>301.2</ele>
      </trkpt>
      <trkpt lat="43.99953" lon="7.97522">
        <ele>302.83</ele>
      </trkpt>
      <trkpt lat="44.00885" lon="7.96835">
        <ele>311.97</ele>
      </trkpt>
      <trkpt lat="44.00986" lon="7.96745">
        <ele>313.01</ele>
      </trkpt>
      <trkpt lat="44.01084" lon="7.96621">
        <ele>314.16</ele>
      </trkpt>
      <trkpt lat="44.01636" lon="7.95852">
        <ele>320.92</ele>
      </trkpt>
      <trkpt lat="44.01849" lon="7.95582">
        <ele>323.42</ele>
      </trkpt>
      <trkpt lat="44.02073" lon="7.95235">
        <ele>326.32</ele>
      </trkpt>
      <trkpt lat="44.024" lon="7.94473">
        <ele>331.84</ele>
      </trkpt>
      <trkpt lat="44.02511" lon="7.94271">
        <ele>333.42</ele>
      </trkpt>
      <trkpt lat="44.02572" lon="7.94187">
        <ele>334.17</ele>
      </trkpt>
      <trkpt lat="44.02704" lon="7.94068">
        <ele>335.53</ele>
      </trkpt>
      <trkpt lat="44.02879" lon="7.93981">
        <ele>337.15</ele>
      </trkpt>
      <trkpt lat="44.02993" lon="7.93962">
        <ele>338.14</ele>
      </trkpt>
      <trkpt lat="44.03475" lon="7.9395">
        <ele>338.0</ele>
      </trkpt>
      <trkpt lat="44.03563" lon="7.93872">
        <ele>331.0</ele>
      </trkpt>
      <trkpt lat="44.03588" lon="7.93821">
        <ele>322.0</ele>
      </trkpt>
      <trkpt lat="44.03659" lon="7.93575">
        <ele>296.0</ele>
      </trkpt>
      <trkpt lat="44.03733" lon="7.9341">
        <ele>282.0</ele>
      </trkpt>
      <trkpt lat="44.03769" lon="7.93283">
        <ele>270.0</ele>
      </trkpt>
      <trkpt lat="44.03757" lon="7.93172">
        <ele>260.0</ele>
      </trkpt>
      <trkpt lat="44.03662" lon="7.92948">
        <ele>247.0</ele>
      </trkpt>
      <trkpt lat="44.03663" lon="7.92873">
        <ele>243.0</ele>
      </trkpt>
      <trkpt lat="44.03708" lon="7.92723">
        <ele>235.0</ele>
      </trkpt>
      <trkpt lat="44.03815" lon="7.92477">
        <ele>237.0</ele>
      </trkpt>
      <trkpt lat="44.03838" lon="7.92449">
        <ele>238.0</ele>
      </trkpt>
      <trkpt lat="44.03866" lon="7.92449">
        <ele>237.0</ele>
      </trkpt>
      <trkpt lat="44.03877" lon="7.92388">
        <ele>237.0</ele>
      </trkpt>
      <trkpt lat="44.03943" lon="7.92278">
        <ele>235.0</ele>
      </trkpt>
      <trkpt lat="44.0401" lon="7.92209">
        <ele>234.0</ele>
      </trkpt>
      <trkpt lat="44.0411" lon="7.9206">
        <ele>234.0</ele>
      </trkpt>
      <trkpt lat="44.04214" lon="7.92052">
        <ele>234.0</ele>
      </trkpt>
      <trkpt lat="44.04199" lon="7.92241">
        <ele>237.0</ele>
      </trkpt>
      <trkpt lat="44.04164" lon="7.92344">
        <ele>240.0</ele>
      </trkpt>
      <trkpt lat="44.04131" lon="7.92367">
        <ele>239.0</ele>
      </trkpt>
      <trkpt lat="44.04025" lon="7.92378">
        <ele>233.0</ele>
      </trkpt>
      <trkpt lat="44.03978" lon="7.9241">
        <ele>228.0</ele>
      </trkpt>
      <trkpt lat="44.03892" lon="7.92596">
        <ele>225.0</ele>
      </trkpt>
      <trkpt lat="44.0388" lon="7.92957">
        <ele>220.0</ele>
      </trkpt>
      <trkpt lat="44.03843" lon="7.93121">
        <ele>220.0</ele>
      </trkpt>
      <trkpt lat="44.03851" lon="7.93206">
        <ele>220.0</ele>
      </trkpt>
      <trkpt lat="44.03807" lon="7.93442">
        <ele>220.0</ele>
      </trkpt>
      <trkpt lat="44.03751" lon="7.9359">
        <ele>225.0</ele>
      </trkpt>
      <trkpt lat="44.03726" lon="7.93899">
        <ele>231.0</ele>
      </trkpt>
      <trkpt lat="44.03811" lon="7.94048">
        <ele>224.0</ele>
      </trkpt>
      <trkpt lat="44.03825" lon="7.941">
        <ele>221.0</ele>
      </trkpt>
      <trkpt lat="44.03835" lon="7.94453">
        <ele>209.0</ele>
      </trkpt>
      <trkpt lat="44.03944" lon="7.94624">
        <ele>205.0</ele>
      </trkpt>
      <trkpt lat="44.04071" lon="7.9479">
        <ele>201.0</ele>
      </trkpt>
      <trkpt lat="44.04142" lon="7.9492">
        <ele>199.0</ele>
      </trkpt>
      <trkpt lat="44.04269" lon="7.9533">
        <ele>196.0</ele>
      </trkpt>
      <trkpt lat="44.04325" lon="7.95775">
        <ele>202.0</ele>
      </trkpt>
      <trkpt lat="44.04343" lon="7.95831">
        <ele>203.0</ele>
      </trkpt>
      <trkpt lat="44.04421" lon="7.95949">
        <ele>198.0</ele>
      </trkpt>
      <trkpt lat="44.04437" lon="7.96113">
        <ele>191.0</ele>
      </trkpt>
      <trkpt lat="44.04457" lon="7.96183">
        <ele>190.0</ele>
      </trkpt>
      <trkpt lat="44.04682" lon="7.96408">
        <ele>175.0</ele>
      </trkpt>
      <trkpt lat="44.04922" lon="7.96739">
        <ele>173.0</ele>
      </trkpt>
      <trkpt lat="44.0496" lon="7.96825">
        <ele>172.0</ele>
      </trkpt>
      <trkpt lat="44.05068" lon="7.97212">
        <ele>168.0</ele>
      </trkpt>
      <trkpt lat="44.0529" lon="7.97611">
        <ele>167.0</ele>
      </trkpt>
      <trkpt lat="44.05301" lon="7.97659">
        <ele>165.0</ele>
      </trkpt>
      <trkpt lat="44.053" lon="7.97812">
        <ele>164.0</ele>
      </trkpt>
      <trkpt lat="44.05314" lon="7.97856">
        <ele>163.0</ele>
      </trkpt>
      <trkpt lat="44.05352" lon="7.97888">
        <ele>163.0</ele>
      </trkpt>
      <trkpt lat="44.05472" lon="7.97897">
        <ele>164.0</ele>
      </trkpt>
      <trkpt lat="44.05535" lon="7.97927">
        <ele>165.0</ele>
      </trkpt>
      <trkpt lat="44.05629" lon="7.98015">
        <ele>165.0</ele>
      </trkpt>
      <trkpt lat="44.05671" lon="7.98078">
        <ele>164.0</ele>
      </trkpt>
      <trkpt lat="44.05936" lon="7.9837">
        <ele>156.0</ele>
      </trkpt>
      <trkpt lat="44.05919" lon="7.98507">
        <ele>155.0</ele>
      </trkpt>
      <trkpt lat="44.05877" lon="7.98623">
        <ele>156.0</ele>
      </trkpt>
      <trkpt lat="44.05752" lon="7.98776">
        <ele>158.0</ele>
      </trkpt>
      <trkpt lat="44.05723" lon="7.98844">
        <ele>161.0</ele>
      </trkpt>
      <trkpt lat="44.05734" lon="7.98871">
        <ele>163.0</ele>
      </trkpt>
      <trkpt lat="44.05864" lon="7.98889">
        <ele>167.0</ele>
      </trkpt>
      <trkpt lat="44.05882" lon="7.98909">
        <ele>168.0</ele>
      </trkpt>
      <trkpt lat="44.06037" lon="7.9919">
        <ele>161.0</ele>
      </trkpt>
      <trkpt lat="44.06102" lon="7.99461">
        <ele>156.0</ele>
      </trkpt>
      <trkpt lat="44.06097" lon="7.99662">
        <ele>159.0</ele>
      </trkpt>
      <trkpt lat="44.06038" lon="7.99887">
        <ele>157.0</ele>
      </trkpt>
      <trkpt lat="44.05967" lon="8.00032">
        <ele>152.0</ele>
      </trkpt>
      <trkpt lat="44.05902" lon="8.00094">
        <ele>148.0</ele>
      </trkpt>
      <trkpt lat="44.05878" lon="8.00149">
        <ele>145.0</ele>
      </trkpt>
      <trkpt lat="44.05909" lon="8.00492">
        <ele>144.0</ele>
      </trkpt>
      <trkpt lat="44.05928" lon="8.00539">
        <ele>142.0</ele>
      </trkpt>
      <trkpt lat="44.05975" lon="8.0059">
        <ele>141.0</ele>
      </trkpt>
      <trkpt lat="44.05994" lon="8.00708">
        <ele>141.0</ele>
      </trkpt>
      <trkpt lat="44.06046" lon="8.00772">
        <ele>141.0</ele>
      </trkpt>
      <trkpt lat="44.06078" lon="8.00891">
        <ele>138.0</ele>
      </trkpt>
      <trkpt lat="44.06083" lon="8.00954">
        <ele>135.0</ele>
      </trkpt>
      <trkpt lat="44.06032" lon="8.01055">
        <ele>128.0</ele>
      </trkpt>
      <trkpt lat="44.0603" lon="8.01173">
        <ele>125.0</ele>
      </trkpt>
      <trkpt lat="44.05975" lon="8.0122">
        <ele>123.0</ele>
      </trkpt>
      <trkpt lat="44.05956" lon="8.01273">
        <ele>122.0</ele>
      </trkpt>
      <trkpt lat="44.05943" lon="8.01451">
        <ele>118.0</ele>
      </trkpt>
      <trkpt lat="44.05948" lon="8.01549">
        <ele>117.0</ele>
      </trkpt>
      <trkpt lat="44.05916" lon="8.01718">
        <ele>116.0</ele>
      </trkpt>
      <trkpt lat="44.05912" lon="8.01825">
        <ele>117.0</ele>
      </trkpt>
      <trkpt lat="44.05876" lon="8.01904">
        <ele>119.0</ele>
      </trkpt>
      <trkpt lat="44.05853" lon="8.01999">
        <ele>121.0</ele>
      </trkpt>
      <trkpt lat="44.05826" lon="8.02313">
        <ele>121.0</ele>
      </trkpt>
      <trkpt lat="44.0583" lon="8.02377">
        <ele>119.0</ele>
      </trkpt>
      <trkpt lat="44.0574" lon="8.02587">
        <ele>110.0</ele>
      </trkpt>
      <trkpt lat="44.05756" lon="8.02623">
        <ele>107.0</ele>
      </trkpt>
      <trkpt lat="44.05807" lon="8.03132">
        <ele>114.0</ele>
      </trkpt>
      <trkpt lat="44.0576" lon="8.03779">
        <ele>109.0</ele>
      </trkpt>
      <trkpt lat="44.05607" lon="8.04371">
        <ele>108.0</ele>
      </trkpt>
      <trkpt lat="44.05526" lon="8.04514">
        <ele>105.0</ele>
      </trkpt>
      <trkpt lat="44.05504" lon="8.04589">
        <ele>103.0</ele>
      </trkpt>
      <trkpt lat="44.05504" lon="8.04679">
        <ele>102.0</ele>
      </trkpt>
      <trkpt lat="44.05532" lon="8.04934">
        <ele>101.0</ele>
      </trkpt>
      <trkpt lat="44.05494" lon="8.05018">
        <ele>103.0</ele>
      </trkpt>
      <trkpt lat="44.05418" lon="8.05091">
        <ele>103.0</ele>
      </trkpt>
      <trkpt lat="44.05411" lon="8.05128">
        <ele>102.0</ele>
      </trkpt>
      <trkpt lat="44.0546" lon="8.05653">
        <ele>93.0</ele>
      </trkpt>
      <trkpt lat="44.05459" lon="8.05753">
        <ele>91.0</ele>
      </trkpt>
      <trkpt lat="44.05504" lon="8.05879">
        <ele>87.0</ele>
      </trkpt>
      <trkpt lat="44.05608" lon="8.06081">
        <ele>86.0</ele>
      </trkpt>
      <trkpt lat="44.05622" lon="8.06159">
        <ele>86.0</ele>
      </trkpt>
      <trkpt lat="44.05601" lon="8.06331">
        <ele>86.0</ele>
      </trkpt>
      <trkpt lat="44.05467" lon="8.06843">
        <ele>77.0</ele>
      </trkpt>
      <trkpt lat="44.0545" lon="8.06973">
        <ele>80.0</ele>
      </trkpt>
      <trkpt lat="44.05381" lon="8.07199">
        <ele>79.0</ele>
      </trkpt>
      <trkpt lat="44.05346" lon="8.07411">
        <ele>78.0</ele>
      </trkpt>
      <trkpt lat="44.05353" lon="8.07579">
        <ele>77.0</ele>
      </trkpt>
      <trkpt lat="44.05391" lon="8.07735">
        <ele>77.0</ele>
      </trkpt>
      <trkpt lat="44.05418" lon="8.07953">
        <ele>75.0</ele>
      </trkpt>
      <trkpt lat="44.05389" lon="8.0812">
        <ele>71.0</ele>
      </trkpt>
      <trkpt lat="44.05309" lon="8.08342">
        <ele>66.0</ele>
      </trkpt>
      <trkpt lat="44.05317" lon="8.08477">
        <ele>64.0</ele>
      </trkpt>
      <trkpt lat="44.05302" lon="8.08597">
        <ele>63.0</ele>
      </trkpt>
      <trkpt lat="44.0539" lon="8.09007">
        <ele>63.0</ele>
      </trkpt>
      <trkpt lat="44.05366" lon="8.0952">
        <ele>64.0</ele>
      </trkpt>
      <trkpt lat="44.05451" lon="8.10589">
        <ele>53.0</ele>
      </trkpt>
      <trkpt lat="44.05394" lon="8.11115">
        <ele>47.0</ele>
      </trkpt>
      <trkpt lat="44.05393" lon="8.11213">
        <ele>46.0</ele>
      </trkpt>
      <trkpt lat="44.05407" lon="8.11323">
        <ele>45.0</ele>
      </trkpt>
      <trkpt lat="44.05466" lon="8.11576">
        <ele>45.0</ele>
      </trkpt>
      <trkpt lat="44.05518" lon="8.11696">
        <ele>44.0</ele>
      </trkpt>
      <trkpt lat="44.05584" lon="8.11796">
        <ele>47.0</ele>
      </trkpt>
      <trkpt lat="44.05605" lon="8.11908">
        <ele>51.0</ele>
      </trkpt>
      <trkpt lat="44.05538" lon="8.12204">
        <ele>50.0</ele>
      </trkpt>
      <trkpt lat="44.05526" lon="8.12428">
        <ele>54.0</ele>
      </trkpt>
      <trkpt lat="44.05432" lon="8.1306">
        <ele>46.0</ele>
      </trkpt>
      <trkpt lat="44.05362" lon="8.13307">
        <ele>44.0</ele>
      </trkpt>
      <trkpt lat="44.05336" lon="8.13697">
        <ele>45.0</ele>
      </trkpt>
      <trkpt lat="44.05206" lon="8.14147">
        <ele>37.0</ele>
      </trkpt>
      <trkpt lat="44.05194" lon="8.14264">
        <ele>34.0</ele>
      </trkpt>
      <trkpt lat="44.05064" lon="8.14514">
        <ele>32.0</ele>
      </trkpt>
      <trkpt lat="44.05069" lon="8.14656">
        <ele>32.0</ele>
      </trkpt>
      <trkpt lat="44.0514" lon="8.14976">
        <ele>25.0</ele>
      </trkpt>
      <trkpt lat="44.05363" lon="8.15293">
        <ele>24.0</ele>
      </trkpt>
      <trkpt lat="44.0551" lon="8.156">
        <ele>23.0</ele>
      </trkpt>
      <trkpt lat="44.05599" lon="8.15673">
        <ele>23.0</ele>
      </trkpt>
      <trkpt lat="44.05623" lon="8.15738">
        <ele>23.0</ele>
      </trkpt>
      <trkpt lat="44.05663" lon="8.16002">
        <ele>23.0</ele>
      </trkpt>
      <trkpt lat="44.05675" lon="8.16322">
        <ele>24.0</ele>
      </trkpt>
      <trkpt lat="44.05738" lon="8.16494">
        <ele>22.0</ele>
      </trkpt>
      <trkpt lat="44.05751" lon="8.16573">
        <ele>22.0</ele>
      </trkpt>
      <trkpt lat="44.0571" lon="8.16839">
        <ele>21.0</ele>
      </trkpt>
      <trkpt lat="44.05654" lon="8.17089">
        <ele>18.0</ele>
      </trkpt>
      <trkpt lat="44.05655" lon="8.17257">
        <ele>18.0</ele>
      </trkpt>
      <trkpt lat="44.05695" lon="8.17397">
        <ele>17.0</ele>
      </trkpt>
      <trkpt lat="44.05682" lon="8.17402">
        <ele>16.0</ele>
      </trkpt>
      <trkpt lat="44.05683" lon="8.17422">
        <ele>16.0</ele>
      </trkpt>
      <trkpt lat="44.05687" lon="8.17434">
        <ele>16.0</ele>
      </trkpt>
      <trkpt lat="44.05682" lon="8.17402">
        <ele>15.0</ele>
      </trkpt>
      <trkpt lat="44.05695" lon="8.17397">
        <ele>15.0</ele>
      </trkpt>
      <trkpt lat="44.05815" lon="8.1783">
        <ele>12.0</ele>
      </trkpt>
      <trkpt lat="44.05964" lon="8.18069">
        <ele>12.0</ele>
      </trkpt>
      <trkpt lat="44.0593" lon="8.18139">
        <ele>12.0</ele>
      </trkpt>
      <trkpt lat="44.05789" lon="8.18305">
        <ele>12.0</ele>
      </trkpt>
      <trkpt lat="44.05705" lon="8.18436">
        <ele>11.0</ele>
      </trkpt>
      <trkpt lat="44.05566" lon="8.18657">
        <ele>11.0</ele>
      </trkpt>
      <trkpt lat="44.05543" lon="8.18715">
        <ele>11.0</ele>
      </trkpt>
      <trkpt lat="44.05519" lon="8.18736">
        <ele>11.0</ele>
      </trkpt>
      <trkpt lat="44.05463" lon="8.1886">
        <ele>11.0</ele>
      </trkpt>
      <trkpt lat="44.05444" lon="8.18948">
        <ele>11.0</ele>
      </trkpt>
      <trkpt lat="44.05404" lon="8.19541">
        <ele>7.0</ele>
      </trkpt>
      <trkpt lat="44.05354" lon="8.20073">
        <ele>6.0</ele>
      </trkpt>
      <trkpt lat="44.05243" lon="8.20577">
        <ele>6.0</ele>
      </trkpt>
      <trkpt lat="44.05144" lon="8.20784">
        <ele>6.0</ele>
      </trkpt>
      <trkpt lat="44.0511" lon="8.20925">
        <ele>7.0</ele>
      </trkpt>
      <trkpt lat="44.0531" lon="8.20992">
        <ele>7.0</ele>
      </trkpt>
      <trkpt lat="44.05335" lon="8.20885">
        <ele>7.0</ele>
      </trkpt>
      <trkpt lat="44.05373" lon="8.20868">
        <ele>6.0</ele>
      </trkpt>
      <trkpt lat="44.05756" lon="8.21078">
        <ele>3.0</ele>
      </trkpt>
      <trkpt lat="44.06125" lon="8.21188">
        <ele>4.0</ele>
      </trkpt>
      <trkpt lat="44.06771" lon="8.21476">
        <ele>2.0</ele>
      </trkpt>
      <trkpt lat="44.06946" lon="8.21583">
        <ele>2.0</ele>
      </trkpt>
      <trkpt lat="44.07197" lon="8.217">
        <ele>2.0</ele>
      </trkpt>
      <trkpt lat="44.07721" lon="8.21908">
        <ele>2.0</ele>
      </trkpt>
      <trkpt lat="44.07888" lon="8.22036">
        <ele>2.0</ele>
      </trkpt>
      <trkpt lat="44.08106" lon="8.22176">
        <ele>2.0</ele>
      </trkpt>
      <trkpt lat="44.082" lon="8.22246">
        <ele>3.0</ele>
      </trkpt>
      <trkpt lat="44.08203" lon="8.22264">
        <ele>3.0</ele>
      </trkpt>
      <trkpt lat="44.08215" lon="8.22256">
        <ele>3.0</ele>
      </trkpt>
      <trkpt lat="44.0825" lon="8.22283">
        <ele>3.0</ele>
      </trkpt>
      <trkpt lat="44.08462" lon="8.22516">
        <ele>4.0</ele>
      </trkpt>
      <trkpt lat="44.08992" lon="8.22804">
        <ele>6.0</ele>
      </trkpt>
      <trkpt lat="44.09112" lon="8.22905">
        <ele>7.0</ele>
      </trkpt>
      <trkpt lat="44.09303" lon="8.23011">
        <ele>7.0</ele>
      </trkpt>
      <trkpt lat="44.09379" lon="8.23073">
        <ele>7.0</ele>
      </trkpt>
      <trkpt lat="44.09586" lon="8.23137">
        <ele>8.0</ele>
      </trkpt>
      <trkpt lat="44.09682" lon="8.23185">
        <ele>9.0</ele>
      </trkpt>
      <trkpt lat="44.1012" lon="8.23613">
        <ele>14.0</ele>
      </trkpt>
      <trkpt lat="44.10121" lon="8.23628">
        <ele>16.0</ele>
      </trkpt>
      <trkpt lat="44.10258" lon="8.23735">
        <ele>18.0</ele>
      </trkpt>
      <trkpt lat="44.10374" lon="8.23865">
        <ele>17.0</ele>
      </trkpt>
      <trkpt lat="44.10454" lon="8.23904">
        <ele>17.0</ele>
      </trkpt>
      <trkpt lat="44.10549" lon="8.23891">
        <ele>17.0</ele>
      </trkpt>
      <trkpt lat="44.10624" lon="8.23852">
        <ele>16.0</ele>
      </trkpt>
      <trkpt lat="44.10664" lon="8.23862">
        <ele>13.0</ele>
      </trkpt>
      <trkpt lat="44.1081" lon="8.24039">
        <ele>6.0</ele>
      </trkpt>
      <trkpt lat="44.10972" lon="8.242">
        <ele>6.0</ele>
      </trkpt>
      <trkpt lat="44.11071" lon="8.24236">
        <ele>6.0</ele>
      </trkpt>
      <trkpt lat="44.11117" lon="8.24275">
        <ele>7.0</ele>
      </trkpt>
      <trkpt lat="44.11555" lon="8.24752">
        <ele>10.0</ele>
      </trkpt>
      <trkpt lat="44.11665" lon="8.24827">
        <ele>10.0</ele>
      </trkpt>
      <trkpt lat="44.11959" lon="8.24907">
        <ele>10.0</ele>
      </trkpt>
      <trkpt lat="44.12104" lon="8.25068">
        <ele>10.0</ele>
      </trkpt>
      <trkpt lat="44.12325" lon="8.25371">
        <ele>13.0</ele>
      </trkpt>
      <trkpt lat="44.12633" lon="8.25602">
        <ele>13.0</ele>
      </trkpt>
      <trkpt lat="44.12787" lon="8.25755">
        <ele>12.0</ele>
      </trkpt>
      <trkpt lat="44.13148" lon="8.26037">
        <ele>6.0</ele>
      </trkpt>
      <trkpt lat="44.13333" lon="8.26209">
        <ele>4.0</ele>
      </trkpt>
      <trkpt lat="44.13349" lon="8.26249">
        <ele>2.0</ele>
      </trkpt>
      <trkpt lat="44.13378" lon="8.26249">
        <ele>2.0</ele>
      </trkpt>
      <trkpt lat="44.13653" lon="8.26507">
        <ele>5.0</ele>
      </trkpt>
      <trkpt lat="44.1375" lon="8.26685">
        <ele>3.0</ele>
      </trkpt>
      <trkpt lat="44.13978" lon="8.26913">
        <ele>3.0</ele>
      </trkpt>
      <trkpt lat="44.14565" lon="8.27681">
        <ele>5.0</ele>
      </trkpt>
      <trkpt lat="44.146" lon="8.27716">
        <ele>5.0</ele>
      </trkpt>
      <trkpt lat="44.14756" lon="8.27786">
        <ele>7.0</ele>
      </trkpt>
      <trkpt lat="44.14794" lon="8.27831">
        <ele>9.0</ele>
      </trkpt>
      <trkpt lat="44.14852" lon="8.27971">
        <ele>11.0</ele>
      </trkpt>
      <trkpt lat="44.14885" lon="8.28088">
        <ele>12.0</ele>
      </trkpt>
      <trkpt lat="44.14976" lon="8.28221">
        <ele>13.0</ele>
      </trkpt>
      <trkpt lat="44.14996" lon="8.283">
        <ele>12.0</ele>
      </trkpt>
      <trkpt lat="44.15057" lon="8.28421">
        <ele>8.0</ele>
      </trkpt>
      <trkpt lat="44.15078" lon="8.28563">
        <ele>8.0</ele>
      </trkpt>
      <trkpt lat="44.15068" lon="8.28734">
        <ele>9.0</ele>
      </trkpt>
      <trkpt lat="44.15356" lon="8.29397">
        <ele>5.0</ele>
      </trkpt>
      <trkpt lat="44.15632" lon="8.30297">
        <ele>4.0</ele>
      </trkpt>
      <trkpt lat="44.15967" lon="8.31875">
        <ele>15.0</ele>
      </trkpt>
      <trkpt lat="44.16223" lon="8.33531">
        <ele>17.0</ele>
      </trkpt>
      <trkpt lat="44.16269" lon="8.33617">
        <ele>17.0</ele>
      </trkpt>
      <trkpt lat="44.16332" lon="8.33668">
        <ele>14.0</ele>
      </trkpt>
      <trkpt lat="44.16542" lon="8.33707">
        <ele>8.0</ele>
      </trkpt>
      <trkpt lat="44.16628" lon="8.33773">
        <ele>7.0</ele>
      </trkpt>
      <trkpt lat="44.16703" lon="8.33891">
        <ele>6.0</ele>
      </trkpt>
      <trkpt lat="44.16848" lon="8.34064">
        <ele>6.0</ele>
      </trkpt>
      <trkpt lat="44.16857" lon="8.34103">
        <ele>7.0</ele>
      </trkpt>
      <trkpt lat="44.16932" lon="8.34211">
        <ele>8.0</ele>
      </trkpt>
      <trkpt lat="44.17052" lon="8.34464">
        <ele>13.0</ele>
      </trkpt>
      <trkpt lat="44.17067" lon="8.3459">
        <ele>15.0</ele>
      </trkpt>
      <trkpt lat="44.1706" lon="8.34688">
        <ele>15.0</ele>
      </trkpt>
      <trkpt lat="44.17071" lon="8.34858">
        <ele>15.0</ele>
      </trkpt>
      <trkpt lat="44.17033" lon="8.34981">
        <ele>13.0</ele>
      </trkpt>
      <trkpt lat="44.17048" lon="8.35104">
        <ele>12.0</ele>
      </trkpt>
      <trkpt lat="44.17099" lon="8.35303">
        <ele>10.0</ele>
      </trkpt>
      <trkpt lat="44.17235" lon="8.35994">
        <ele>17.0</ele>
      </trkpt>
      <trkpt lat="44.17299" lon="8.36258">
        <ele>28.0</ele>
      </trkpt>
      <trkpt lat="44.17349" lon="8.3655">
        <ele>24.0</ele>
      </trkpt>
      <trkpt lat="44.1743" lon="8.3676">
        <ele>22.0</ele>
      </trkpt>
      <trkpt lat="44.17508" lon="8.3685">
        <ele>18.0</ele>
      </trkpt>
      <trkpt lat="44.17605" lon="8.36873">
        <ele>15.0</ele>
      </trkpt>
      <trkpt lat="44.17744" lon="8.37003">
        <ele>15.0</ele>
      </trkpt>
      <trkpt lat="44.17809" lon="8.37162">
        <ele>14.0</ele>
      </trkpt>
      <trkpt lat="44.1801" lon="8.38173">
        <ele>16.0</ele>
      </trkpt>
      <trkpt lat="44.18084" lon="8.38354">
        <ele>15.0</ele>
      </trkpt>
      <trkpt lat="44.18102" lon="8.38518">
        <ele>15.0</ele>
      </trkpt>
      <trkpt lat="44.18148" lon="8.38698">
        <ele>13.0</ele>
      </trkpt>
      <trkpt lat="44.18169" lon="8.39948">
        <ele>8.0</ele>
      </trkpt>
      <trkpt lat="44.18254" lon="8.40353">
        <ele>13.0</ele>
      </trkpt>
      <trkpt lat="44.18349" lon="8.40548">
        <ele>22.0</ele>
      </trkpt>
      <trkpt lat="44.18602" lon="8.40773">
        <ele>10.0</ele>
      </trkpt>
      <trkpt lat="44.1866" lon="8.40871">
        <ele>10.0</ele>
      </trkpt>
      <trkpt lat="44.18746" lon="8.40933">
        <ele>7.0</ele>
      </trkpt>
      <trkpt lat="44.18828" lon="8.4105">
        <ele>11.0</ele>
      </trkpt>
      <trkpt lat="44.19014" lon="8.41471">
        <ele>30.0</ele>
      </trkpt>
      <trkpt lat="44.19144" lon="8.41717">
        <ele>19.0</ele>
      </trkpt>
      <trkpt lat="44.19175" lon="8.4199">
        <ele>21.0</ele>
      </trkpt>
      <trkpt lat="44.1926" lon="8.42136">
        <ele>41.0</ele>
      </trkpt>
      <trkpt lat="44.19278" lon="8.42206">
        <ele>46.0</ele>
      </trkpt>
      <trkpt lat="44.1934" lon="8.42279">
        <ele>43.0</ele>
      </trkpt>
      <trkpt lat="44.19413" lon="8.42309">
        <ele>40.0</ele>
      </trkpt>
      <trkpt lat="44.19446" lon="8.42368">
        <ele>31.0</ele>
      </trkpt>
      <trkpt lat="44.19476" lon="8.42392">
        <ele>25.0</ele>
      </trkpt>
      <trkpt lat="44.1949" lon="8.42442">
        <ele>16.0</ele>
      </trkpt>
      <trkpt lat="44.19561" lon="8.42496">
        <ele>3.0</ele>
      </trkpt>
      <trkpt lat="44.19693" lon="8.42483">
        <ele>4.0</ele>
      </trkpt>
      <trkpt lat="44.19781" lon="8.42377">
        <ele>8.0</ele>
      </trkpt>
      <trkpt lat="44.19849" lon="8.4221">
        <ele>13.0</ele>
      </trkpt>
      <trkpt lat="44.19836" lon="8.42025">
        <ele>17.0</ele>
      </trkpt>
      <trkpt lat="44.19868" lon="8.41948">
        <ele>16.0</ele>
      </trkpt>
      <trkpt lat="44.19909" lon="8.41889">
        <ele>16.0</ele>
      </trkpt>
      <trkpt lat="44.19952" lon="8.41766">
        <ele>17.0</ele>
      </trkpt>
      <trkpt lat="44.20042" lon="8.41672">
        <ele>14.0</ele>
      </trkpt>
      <trkpt lat="44.20208" lon="8.41592">
        <ele>5.0</ele>
      </trkpt>
      <trkpt lat="44.20345" lon="8.41593">
        <ele>5.0</ele>
      </trkpt>
      <trkpt lat="44.20578" lon="8.41654">
        <ele>6.0</ele>
      </trkpt>
      <trkpt lat="44.20765" lon="8.41755">
        <ele>15.0</ele>
      </trkpt>
      <trkpt lat="44.20989" lon="8.41756">
        <ele>12.0</ele>
      </trkpt>
      <trkpt lat="44.21112" lon="8.41803">
        <ele>13.0</ele>
      </trkpt>
      <trkpt lat="44.21171" lon="8.41766">
        <ele>14.0</ele>
      </trkpt>
      <trkpt lat="44.21247" lon="8.41684">
        <ele>14.0</ele>
      </trkpt>
      <trkpt lat="44.21469" lon="8.41629">
        <ele>14.0</ele>
      </trkpt>
      <trkpt lat="44.21592" lon="8.4154">
        <ele>13.0</ele>
      </trkpt>
      <trkpt lat="44.21679" lon="8.41508">
        <ele>11.0</ele>
      </trkpt>
      <trkpt lat="44.21907" lon="8.41473">
        <ele>5.0</ele>
      </trkpt>
      <trkpt lat="44.2199" lon="8.41493">
        <ele>5.0</ele>
      </trkpt>
      <trkpt lat="44.2203" lon="8.41453">
        <ele>4.0</ele>
      </trkpt>
      <trkpt lat="44.22193" lon="8.41436">
        <ele>3.0</ele>
      </trkpt>
      <trkpt lat="44.22311" lon="8.41428">
        <ele>3.0</ele>
      </trkpt>
      <trkpt lat="44.22393" lon="8.41442">
        <ele>3.0</ele>
      </trkpt>
      <trkpt lat="44.22485" lon="8.41476">
        <ele>3.0</ele>
      </trkpt>
      <trkpt lat="44.22536" lon="8.41512">
        <ele>4.0</ele>
      </trkpt>
      <trkpt lat="44.2269" lon="8.41645">
        <ele>4.0</ele>
      </trkpt>
      <trkpt lat="44.22763" lon="8.41735">
        <ele>5.0</ele>
      </trkpt>
      <trkpt lat="44.22825" lon="8.41852">
        <ele>6.0</ele>
      </trkpt>
      <trkpt lat="44.22867" lon="8.42016">
        <ele>8.0</ele>
      </trkpt>
      <trkpt lat="44.22905" lon="8.42115">
        <ele>9.0</ele>
      </trkpt>
      <trkpt lat="44.23198" lon="8.42604">
        <ele>12.0</ele>
      </trkpt>
      <trkpt lat="44.23259" lon="8.4276">
        <ele>8.0</ele>
      </trkpt>
      <trkpt lat="44.23367" lon="8.42834">
        <ele>6.0</ele>
      </trkpt>
      <trkpt lat="44.23489" lon="8.43054">
        <ele>4.0</ele>
      </trkpt>
      <trkpt lat="44.23581" lon="8.43246">
        <ele>5.0</ele>
      </trkpt>
      <trkpt lat="44.23811" lon="8.43817">
        <ele>7.0</ele>
      </trkpt>
      <trkpt lat="44.23806" lon="8.43891">
        <ele>12.0</ele>
      </trkpt>
      <trkpt lat="44.2375" lon="8.43966">
        <ele>17.0</ele>
      </trkpt>
      <trkpt lat="44.23735" lon="8.44022">
        <ele>19.0</ele>
      </trkpt>
      <trkpt lat="44.23727" lon="8.44168">
        <ele>22.0</ele>
      </trkpt>
      <trkpt lat="44.23748" lon="8.44242">
        <ele>26.0</ele>
      </trkpt>
      <trkpt lat="44.2381" lon="8.44273">
        <ele>39.0</ele>
      </trkpt>
      <trkpt lat="44.23887" lon="8.44242">
        <ele>58.0</ele>
      </trkpt>
      <trkpt lat="44.23922" lon="8.44253">
        <ele>60.0</ele>
      </trkpt>
      <trkpt lat="44.23979" lon="8.44297">
        <ele>53.0</ele>
      </trkpt>
      <trkpt lat="44.24062" lon="8.44419">
        <ele>35.0</ele>
      </trkpt>
      <trkpt lat="44.24211" lon="8.44496">
        <ele>25.0</ele>
      </trkpt>
      <trkpt lat="44.24321" lon="8.44456">
        <ele>21.0</ele>
      </trkpt>
      <trkpt lat="44.2442" lon="8.44356">
        <ele>15.0</ele>
      </trkpt>
      <trkpt lat="44.24468" lon="8.4436">
        <ele>14.0</ele>
      </trkpt>
      <trkpt lat="44.24511" lon="8.44408">
        <ele>14.0</ele>
      </trkpt>
      <trkpt lat="44.24578" lon="8.44423">
        <ele>14.0</ele>
      </trkpt>
      <trkpt lat="44.24658" lon="8.44496">
        <ele>14.0</ele>
      </trkpt>
      <trkpt lat="44.24827" lon="8.44571">
        <ele>13.0</ele>
      </trkpt>
      <trkpt lat="44.25001" lon="8.4471">
        <ele>13.0</ele>
      </trkpt>
      <trkpt lat="44.25106" lon="8.44768">
        <ele>13.0</ele>
      </trkpt>
      <trkpt lat="44.25206" lon="8.44873">
        <ele>15.0</ele>
      </trkpt>
      <trkpt lat="44.25265" lon="8.45009">
        <ele>15.0</ele>
      </trkpt>
      <trkpt lat="44.25375" lon="8.45046">
        <ele>7.0</ele>
      </trkpt>
      <trkpt lat="44.25419" lon="8.45107">
        <ele>4.0</ele>
      </trkpt>
      <trkpt lat="44.25535" lon="8.45201">
        <ele>5.0</ele>
      </trkpt>
      <trkpt lat="44.25573" lon="8.45205">
        <ele>5.0</ele>
      </trkpt>
      <trkpt lat="44.25627" lon="8.45173">
        <ele>5.0</ele>
      </trkpt>
      <trkpt lat="44.25664" lon="8.45173">
        <ele>5.0</ele>
      </trkpt>
      <trkpt lat="44.25802" lon="8.45274">
        <ele>6.0</ele>
      </trkpt>
      <trkpt lat="44.25869" lon="8.45295">
        <ele>8.0</ele>
      </trkpt>
      <trkpt lat="44.25964" lon="8.45296">
        <ele>10.0</ele>
      </trkpt>
      <trkpt lat="44.26039" lon="8.45255">
        <ele>9.0</ele>
      </trkpt>
      <trkpt lat="44.26116" lon="8.45171">
        <ele>8.0</ele>
      </trkpt>
      <trkpt lat="44.26172" lon="8.45049">
        <ele>7.0</ele>
      </trkpt>
      <trkpt lat="44.26181" lon="8.44971">
        <ele>7.0</ele>
      </trkpt>
      <trkpt lat="44.2617" lon="8.44854">
        <ele>6.0</ele>
      </trkpt>
      <trkpt lat="44.26186" lon="8.4471">
        <ele>4.0</ele>
      </trkpt>
      <trkpt lat="44.26444" lon="8.44231">
        <ele>4.0</ele>
      </trkpt>
      <trkpt lat="44.26495" lon="8.44186">
        <ele>4.0</ele>
      </trkpt>
      <trkpt lat="44.26718" lon="8.44074">
        <ele>3.0</ele>
      </trkpt>
      <trkpt lat="44.26723" lon="8.44057">
        <ele>3.0</ele>
      </trkpt>
      <trkpt lat="44.26769" lon="8.44046">
        <ele>3.0</ele>
      </trkpt>
      <trkpt lat="44.27096" lon="8.4388">
        <ele>12.0</ele>
      </trkpt>
      <trkpt lat="44.27222" lon="8.43876">
        <ele>15.0</ele>
      </trkpt>
      <trkpt lat="44.27437" lon="8.43956">
        <ele>14.0</ele>
      </trkpt>
      <trkpt lat="44.28318" lon="8.44466">
        <ele>7.0</ele>
      </trkpt>
      <trkpt lat="44.28454" lon="8.44602">
        <ele>6.0</ele>
      </trkpt>
      <trkpt lat="44.2913" lon="8.45391">
        <ele>4.0</ele>
      </trkpt>
      <trkpt lat="44.29169" lon="8.45417">
        <ele>4.0</ele>
      </trkpt>
      <trkpt lat="44.29355" lon="8.45688">
        <ele>6.0</ele>
      </trkpt>
      <trkpt lat="44.29754" lon="8.46451">
        <ele>6.0</ele>
      </trkpt>
      <trkpt lat="44.29828" lon="8.46692">
        <ele>8.0</ele>
      </trkpt>
      <trkpt lat="44.29833" lon="8.46914">
        <ele>9.0</ele>
      </trkpt>
      <trkpt lat="44.30029" lon="8.47455">
        <ele>11.0</ele>
      </trkpt>
      <trkpt lat="44.30138" lon="8.47647">
        <ele>12.0</ele>
      </trkpt>
      <trkpt lat="44.30273" lon="8.48004">
        <ele>12.0</ele>
      </trkpt>
      <trkpt lat="44.30445" lon="8.47939">
        <ele>13.0</ele>
      </trkpt>
      <trkpt lat="44.30497" lon="8.48201">
        <ele>10.0</ele>
      </trkpt>
      <trkpt lat="44.30581" lon="8.48356">
        <ele>9.0</ele>
      </trkpt>
      <trkpt lat="44.30591" lon="8.48432">
        <ele>8.0</ele>
      </trkpt>
      <trkpt lat="44.30616" lon="8.4843">
        <ele>8.0</ele>
      </trkpt>
      <trkpt lat="44.30676" lon="8.48492">
        <ele>8.0</ele>
      </trkpt>
      <trkpt lat="44.30729" lon="8.4852">
        <ele>8.0</ele>
      </trkpt>
      <trkpt lat="44.30854" lon="8.48458">
        <ele>9.0</ele>
      </trkpt>
      <trkpt lat="44.30986" lon="8.48495">
        <ele>7.0</ele>
      </trkpt>
      <trkpt lat="44.31131" lon="8.48617">
        <ele>7.0</ele>
      </trkpt>
      <trkpt lat="44.31231" lon="8.48761">
        <ele>12.0</ele>
      </trkpt>
      <trkpt lat="44.31362" lon="8.48785">
        <ele>21.0</ele>
      </trkpt>
      <trkpt lat="44.31443" lon="8.48891">
        <ele>16.0</ele>
      </trkpt>
      <trkpt lat="44.31504" lon="8.49016">
        <ele>13.0</ele>
      </trkpt>
      <trkpt lat="44.31621" lon="8.49098">
        <ele>11.0</ele>
      </trkpt>
      <trkpt lat="44.31775" lon="8.49263">
        <ele>16.0</ele>
      </trkpt>
      <trkpt lat="44.31909" lon="8.49381">
        <ele>19.0</ele>
      </trkpt>
      <trkpt lat="44.31982" lon="8.49485">
        <ele>18.0</ele>
      </trkpt>
      <trkpt lat="44.32086" lon="8.4954">
        <ele>13.0</ele>
      </trkpt>
      <trkpt lat="44.32183" lon="8.49728">
        <ele>11.0</ele>
      </trkpt>
      <trkpt lat="44.32252" lon="8.49827">
        <ele>11.0</ele>
      </trkpt>
      <trkpt lat="44.32534" lon="8.49995">
        <ele>14.0</ele>
      </trkpt>
      <trkpt lat="44.32611" lon="8.50075">
        <ele>10.0</ele>
      </trkpt>
      <trkpt lat="44.32659" lon="8.50156">
        <ele>7.0</ele>
      </trkpt>
      <trkpt lat="44.32848" lon="8.50656">
        <ele>4.0</ele>
      </trkpt>
      <trkpt lat="44.33047" lon="8.51314">
        <ele>7.0</ele>
      </trkpt>
      <trkpt lat="44.33683" lon="8.50959">
        <ele>9.0</ele>
      </trkpt>
      <trkpt lat="44.33744" lon="8.50947">
        <ele>9.0</ele>
      </trkpt>
      <trkpt lat="44.33892" lon="8.51031">
        <ele>10.0</ele>
      </trkpt>
      <trkpt lat="44.33969" lon="8.51105">
        <ele>11.0</ele>
      </trkpt>
      <trkpt lat="44.34009" lon="8.51125">
        <ele>12.0</ele>
      </trkpt>
      <trkpt lat="44.34401" lon="8.51031">
        <ele>16.0</ele>
      </trkpt>
      <trkpt lat="44.34542" lon="8.51142">
        <ele>15.0</ele>
      </trkpt>
      <trkpt lat="44.34603" lon="8.51157">
        <ele>15.0</ele>
      </trkpt>
      <trkpt lat="44.3467" lon="8.51127">
        <ele>16.0</ele>
      </trkpt>
      <trkpt lat="44.34782" lon="8.51015">
        <ele>17.0</ele>
      </trkpt>
      <trkpt lat="44.3484" lon="8.51003">
        <ele>18.0</ele>
      </trkpt>
      <trkpt lat="44.34939" lon="8.51097">
        <ele>19.0</ele>
      </trkpt>
      <trkpt lat="44.3505" lon="8.51159">
        <ele>20.0</ele>
      </trkpt>
      <trkpt lat="44.35171" lon="8.51286">
        <ele>22.0</ele>
      </trkpt>
      <trkpt lat="44.3528" lon="8.51331">
        <ele>26.0</ele>
      </trkpt>
      <trkpt lat="44.35325" lon="8.513">
        <ele>28.0</ele>
      </trkpt>
      <trkpt lat="44.35377" lon="8.51118">
        <ele>32.0</ele>
      </trkpt>
      <trkpt lat="44.35414" lon="8.51068">
        <ele>33.0</ele>
      </trkpt>
      <trkpt lat="44.35479" lon="8.51022">
        <ele>35.0</ele>
      </trkpt>
      <trkpt lat="44.35531" lon="8.50893">
        <ele>36.0</ele>
      </trkpt>
      <trkpt lat="44.36059" lon="8.50469">
        <ele>45.0</ele>
      </trkpt>
      <trkpt lat="44.36134" lon="8.50465">
        <ele>49.0</ele>
      </trkpt>
      <trkpt lat="44.36308" lon="8.50556">
        <ele>56.0</ele>
      </trkpt>
      <trkpt lat="44.36456" lon="8.50601">
        <ele>60.0</ele>
      </trkpt>
      <trkpt lat="44.36627" lon="8.50511">
        <ele>64.0</ele>
      </trkpt>
      <trkpt lat="44.36732" lon="8.50525">
        <ele>67.0</ele>
      </trkpt>
      <trkpt lat="44.3684" lon="8.50592">
        <ele>70.0</ele>
      </trkpt>
      <trkpt lat="44.36937" lon="8.50583">
        <ele>72.0</ele>
      </trkpt>
      <trkpt lat="44.3705" lon="8.50612">
        <ele>74.0</ele>
      </trkpt>
      <trkpt lat="44.37156" lon="8.50619">
        <ele>77.0</ele>
      </trkpt>
      <trkpt lat="44.37283" lon="8.50571">
        <ele>81.0</ele>
      </trkpt>
      <trkpt lat="44.37354" lon="8.50569">
        <ele>84.0</ele>
      </trkpt>
      <trkpt lat="44.37414" lon="8.50598">
        <ele>88.0</ele>
      </trkpt>
      <trkpt lat="44.37436" lon="8.50571">
        <ele>90.0</ele>
      </trkpt>
      <trkpt lat="44.37465" lon="8.50488">
        <ele>94.0</ele>
      </trkpt>
      <trkpt lat="44.37607" lon="8.5049">
        <ele>98.0</ele>
      </trkpt>
      <trkpt lat="44.37672" lon="8.50465">
        <ele>101.0</ele>
      </trkpt>
      <trkpt lat="44.37863" lon="8.50437">
        <ele>103.0</ele>
      </trkpt>
      <trkpt lat="44.37981" lon="8.50354">
        <ele>107.0</ele>
      </trkpt>
      <trkpt lat="44.38128" lon="8.50389">
        <ele>113.0</ele>
      </trkpt>
      <trkpt lat="44.38217" lon="8.50392">
        <ele>116.0</ele>
      </trkpt>
      <trkpt lat="44.38289" lon="8.50367">
        <ele>119.0</ele>
      </trkpt>
      <trkpt lat="44.38358" lon="8.504">
        <ele>119.0</ele>
      </trkpt>
      <trkpt lat="44.38512" lon="8.50335">
        <ele>122.0</ele>
      </trkpt>
      <trkpt lat="44.38605" lon="8.50342">
        <ele>133.0</ele>
      </trkpt>
      <trkpt lat="44.38725" lon="8.50184">
        <ele>145.0</ele>
      </trkpt>
      <trkpt lat="44.38705" lon="8.50097">
        <ele>150.0</ele>
      </trkpt>
      <trkpt lat="44.38711" lon="8.50083">
        <ele>151.0</ele>
      </trkpt>
      <trkpt lat="44.38723" lon="8.50084">
        <ele>152.0</ele>
      </trkpt>
      <trkpt lat="44.38755" lon="8.50142">
        <ele>152.0</ele>
      </trkpt>
      <trkpt lat="44.38809" lon="8.50144">
        <ele>153.0</ele>
      </trkpt>
      <trkpt lat="44.38812" lon="8.50048">
        <ele>158.0</ele>
      </trkpt>
      <trkpt lat="44.38853" lon="8.4987">
        <ele>176.0</ele>
      </trkpt>
      <trkpt lat="44.38876" lon="8.49882">
        <ele>181.0</ele>
      </trkpt>
      <trkpt lat="44.38885" lon="8.50022">
        <ele>179.0</ele>
      </trkpt>
      <trkpt lat="44.38903" lon="8.50046">
        <ele>177.0</ele>
      </trkpt>
      <trkpt lat="44.38917" lon="8.50043">
        <ele>177.0</ele>
      </trkpt>
      <trkpt lat="44.39019" lon="8.49915">
        <ele>190.0</ele>
      </trkpt>
      <trkpt lat="44.39033" lon="8.49811">
        <ele>201.0</ele>
      </trkpt>
      <trkpt lat="44.39067" lon="8.49729">
        <ele>211.0</ele>
      </trkpt>
      <trkpt lat="44.39116" lon="8.49716">
        <ele>214.0</ele>
      </trkpt>
      <trkpt lat="44.39153" lon="8.49748">
        <ele>216.0</ele>
      </trkpt>
      <trkpt lat="44.39196" lon="8.49702">
        <ele>219.0</ele>
      </trkpt>
      <trkpt lat="44.39218" lon="8.49696">
        <ele>221.0</ele>
      </trkpt>
      <trkpt lat="44.39311" lon="8.49848">
        <ele>229.0</ele>
      </trkpt>
      <trkpt lat="44.39374" lon="8.49842">
        <ele>231.0</ele>
      </trkpt>
      <trkpt lat="44.39414" lon="8.49743">
        <ele>232.0</ele>
      </trkpt>
      <trkpt lat="44.3949" lon="8.49656">
        <ele>235.0</ele>
      </trkpt>
      <trkpt lat="44.39484" lon="8.49584">
        <ele>236.0</ele>
      </trkpt>
      <trkpt lat="44.39512" lon="8.4953">
        <ele>237.0</ele>
      </trkpt>
      <trkpt lat="44.39702" lon="8.49318">
        <ele>252.0</ele>
      </trkpt>
      <trkpt lat="44.39776" lon="8.49179">
        <ele>259.0</ele>
      </trkpt>
      <trkpt lat="44.39863" lon="8.4909">
        <ele>268.0</ele>
      </trkpt>
      <trkpt lat="44.3992" lon="8.49069">
        <ele>274.0</ele>
      </trkpt>
      <trkpt lat="44.40027" lon="8.49103">
        <ele>284.0</ele>
      </trkpt>
      <trkpt lat="44.40066" lon="8.49099">
        <ele>287.0</ele>
      </trkpt>
      <trkpt lat="44.4014" lon="8.49043">
        <ele>292.0</ele>
      </trkpt>
      <trkpt lat="44.40213" lon="8.4893">
        <ele>295.0</ele>
      </trkpt>
      <trkpt lat="44.40261" lon="8.48891">
        <ele>301.0</ele>
      </trkpt>
      <trkpt lat="44.40287" lon="8.48887">
        <ele>305.0</ele>
      </trkpt>
      <trkpt lat="44.40325" lon="8.48893">
        <ele>308.0</ele>
      </trkpt>
      <trkpt lat="44.40395" lon="8.48957">
        <ele>314.0</ele>
      </trkpt>
      <trkpt lat="44.40557" lon="8.49031">
        <ele>318.0</ele>
      </trkpt>
      <trkpt lat="44.4063" lon="8.49037">
        <ele>322.0</ele>
      </trkpt>
      <trkpt lat="44.40659" lon="8.49019">
        <ele>323.0</ele>
      </trkpt>
      <trkpt lat="44.40733" lon="8.48889">
        <ele>328.0</ele>
      </trkpt>
      <trkpt lat="44.40828" lon="8.48821">
        <ele>332.0</ele>
      </trkpt>
      <trkpt lat="44.40824" lon="8.48778">
        <ele>332.0</ele>
      </trkpt>
      <trkpt lat="44.40836" lon="8.4873">
        <ele>333.0</ele>
      </trkpt>
      <trkpt lat="44.40888" lon="8.48606">
        <ele>330.0</ele>
      </trkpt>
      <trkpt lat="44.40861" lon="8.48562">
        <ele>328.0</ele>
      </trkpt>
      <trkpt lat="44.40873" lon="8.48511">
        <ele>327.0</ele>
      </trkpt>
      <trkpt lat="44.4093" lon="8.48497">
        <ele>329.0</ele>
      </trkpt>
      <trkpt lat="44.40961" lon="8.48442">
        <ele>332.0</ele>
      </trkpt>
      <trkpt lat="44.41048" lon="8.48375">
        <ele>338.0</ele>
      </trkpt>
      <trkpt lat="44.41127" lon="8.48425">
        <ele>339.0</ele>
      </trkpt>
      <trkpt lat="44.41223" lon="8.48405">
        <ele>340.0</ele>
      </trkpt>
      <trkpt lat="44.41304" lon="8.48437">
        <ele>344.0</ele>
      </trkpt>
      <trkpt lat="44.4134" lon="8.48411">
        <ele>346.0</ele>
      </trkpt>
      <trkpt lat="44.41395" lon="8.48302">
        <ele>348.0</ele>
      </trkpt>
      <trkpt lat="44.41487" lon="8.48289">
        <ele>348.0</ele>
      </trkpt>
      <trkpt lat="44.41538" lon="8.48318">
        <ele>347.0</ele>
      </trkpt>
      <trkpt lat="44.4156" lon="8.48314">
        <ele>347.0</ele>
      </trkpt>
      <trkpt lat="44.41637" lon="8.48234">
        <ele>347.0</ele>
      </trkpt>
      <trkpt lat="44.41712" lon="8.4809">
        <ele>348.0</ele>
      </trkpt>
      <trkpt lat="44.41853" lon="8.47976">
        <ele>350.0</ele>
      </trkpt>
      <trkpt lat="44.41877" lon="8.4784">
        <ele>358.0</ele>
      </trkpt>
      <trkpt lat="44.41909" lon="8.47899">
        <ele>362.0</ele>
      </trkpt>
      <trkpt lat="44.42043" lon="8.47963">
        <ele>366.0</ele>
      </trkpt>
      <trkpt lat="44.42113" lon="8.47965">
        <ele>376.0</ele>
      </trkpt>
      <trkpt lat="44.4211" lon="8.47928">
        <ele>379.0</ele>
      </trkpt>
      <trkpt lat="44.42054" lon="8.4794">
        <ele>382.0</ele>
      </trkpt>
      <trkpt lat="44.41954" lon="8.47858">
        <ele>387.0</ele>
      </trkpt>
      <trkpt lat="44.41949" lon="8.47828">
        <ele>391.0</ele>
      </trkpt>
      <trkpt lat="44.41974" lon="8.47792">
        <ele>394.0</ele>
      </trkpt>
      <trkpt lat="44.42034" lon="8.47766">
        <ele>400.0</ele>
      </trkpt>
      <trkpt lat="44.42015" lon="8.47685">
        <ele>404.0</ele>
      </trkpt>
      <trkpt lat="44.42023" lon="8.47658">
        <ele>406.0</ele>
      </trkpt>
      <trkpt lat="44.42082" lon="8.47621">
        <ele>410.0</ele>
      </trkpt>
      <trkpt lat="44.42149" lon="8.47662">
        <ele>414.0</ele>
      </trkpt>
      <trkpt lat="44.42168" lon="8.47651">
        <ele>416.0</ele>
      </trkpt>
      <trkpt lat="44.42186" lon="8.47591">
        <ele>419.0</ele>
      </trkpt>
      <trkpt lat="44.42153" lon="8.47559">
        <ele>422.0</ele>
      </trkpt>
      <trkpt lat="44.42154" lon="8.47528">
        <ele>425.0</ele>
      </trkpt>
      <trkpt lat="44.42182" lon="8.47513">
        <ele>426.0</ele>
      </trkpt>
      <trkpt lat="44.42263" lon="8.47528">
        <ele>430.0</ele>
      </trkpt>
      <trkpt lat="44.42296" lon="8.47518">
        <ele>432.0</ele>
      </trkpt>
      <trkpt lat="44.42306" lon="8.47485">
        <ele>434.0</ele>
      </trkpt>
      <trkpt lat="44.42277" lon="8.47424">
        <ele>437.0</ele>
      </trkpt>
      <trkpt lat="44.42295" lon="8.47389">
        <ele>439.0</ele>
      </trkpt>
      <trkpt lat="44.42324" lon="8.47402">
        <ele>441.0</ele>
      </trkpt>
      <trkpt lat="44.4237" lon="8.47473">
        <ele>444.0</ele>
      </trkpt>
      <trkpt lat="44.42471" lon="8.47532">
        <ele>451.0</ele>
      </trkpt>
      <trkpt lat="44.42518" lon="8.4751">
        <ele>458.0</ele>
      </trkpt>
      <trkpt lat="44.42587" lon="8.47408">
        <ele>465.0</ele>
      </trkpt>
      <trkpt lat="44.42678" lon="8.4737">
        <ele>476.0</ele>
      </trkpt>
      <trkpt lat="44.4272" lon="8.47306">
        <ele>486.0</ele>
      </trkpt>
      <trkpt lat="44.42817" lon="8.47305">
        <ele>493.0</ele>
      </trkpt>
      <trkpt lat="44.42867" lon="8.47369">
        <ele>499.0</ele>
      </trkpt>
      <trkpt lat="44.42913" lon="8.47355">
        <ele>501.0</ele>
      </trkpt>
      <trkpt lat="44.43006" lon="8.47396">
        <ele>504.0</ele>
      </trkpt>
      <trkpt lat="44.43043" lon="8.47424">
        <ele>505.0</ele>
      </trkpt>
      <trkpt lat="44.43102" lon="8.47505">
        <ele>507.0</ele>
      </trkpt>
      <trkpt lat="44.43156" lon="8.47624">
        <ele>508.0</ele>
      </trkpt>
      <trkpt lat="44.43164" lon="8.47665">
        <ele>508.0</ele>
      </trkpt>
      <trkpt lat="44.43139" lon="8.47744">
        <ele>508.0</ele>
      </trkpt>
      <trkpt lat="44.43138" lon="8.47796">
        <ele>509.0</ele>
      </trkpt>
      <trkpt lat="44.4315" lon="8.47851">
        <ele>511.0</ele>
      </trkpt>
      <trkpt lat="44.43182" lon="8.47902">
        <ele>515.0</ele>
      </trkpt>
      <trkpt lat="44.43375" lon="8.4798">
        <ele>518.0</ele>
      </trkpt>
      <trkpt lat="44.43681" lon="8.48196">
        <ele>516.0</ele>
      </trkpt>
      <trkpt lat="44.44055" lon="8.48395">
        <ele>509.0</ele>
      </trkpt>
      <trkpt lat="44.44162" lon="8.48432">
        <ele>506.0</ele>
      </trkpt>
      <trkpt lat="44.44347" lon="8.48425">
        <ele>503.0</ele>
      </trkpt>
      <trkpt lat="44.44406" lon="8.4839">
        <ele>500.0</ele>
      </trkpt>
      <trkpt lat="44.44572" lon="8.48157">
        <ele>493.0</ele>
      </trkpt>
      <trkpt lat="44.44662" lon="8.47951">
        <ele>489.0</ele>
      </trkpt>
      <trkpt lat="44.44802" lon="8.47719">
        <ele>470.0</ele>
      </trkpt>
      <trkpt lat="44.44823" lon="8.47695">
        <ele>464.0</ele>
      </trkpt>
      <trkpt lat="44.4487" lon="8.47683">
        <ele>461.0</ele>
      </trkpt>
      <trkpt lat="44.45145" lon="8.47873">
        <ele>454.0</ele>
      </trkpt>
      <trkpt lat="44.45182" lon="8.47879">
        <ele>451.0</ele>
      </trkpt>
      <trkpt lat="44.45238" lon="8.4784">
        <ele>449.0</ele>
      </trkpt>
      <trkpt lat="44.45284" lon="8.47832">
        <ele>449.0</ele>
      </trkpt>
      <trkpt lat="44.45311" lon="8.47847">
        <ele>448.0</ele>
      </trkpt>
      <trkpt lat="44.45397" lon="8.47955">
        <ele>446.0</ele>
      </trkpt>
      <trkpt lat="44.45536" lon="8.48019">
        <ele>441.0</ele>
      </trkpt>
      <trkpt lat="44.45602" lon="8.47997">
        <ele>437.0</ele>
      </trkpt>
      <trkpt lat="44.45736" lon="8.48035">
        <ele>432.0</ele>
      </trkpt>
      <trkpt lat="44.45779" lon="8.47983">
        <ele>428.0</ele>
      </trkpt>
      <trkpt lat="44.45867" lon="8.47967">
        <ele>424.0</ele>
      </trkpt>
      <trkpt lat="44.45974" lon="8.48068">
        <ele>421.0</ele>
      </trkpt>
      <trkpt lat="44.46" lon="8.48133">
        <ele>420.0</ele>
      </trkpt>
      <trkpt lat="44.46026" lon="8.48159">
        <ele>419.0</ele>
      </trkpt>
      <trkpt lat="44.46147" lon="8.48221">
        <ele>414.0</ele>
      </trkpt>
      <trkpt lat="44.46277" lon="8.48249">
        <ele>408.0</ele>
      </trkpt>
      <trkpt lat="44.46334" lon="8.48279">
        <ele>404.0</ele>
      </trkpt>
      <trkpt lat="44.46399" lon="8.48286">
        <ele>403.0</ele>
      </trkpt>
      <trkpt lat="44.46453" lon="8.48261">
        <ele>402.0</ele>
      </trkpt>
      <trkpt lat="44.46538" lon="8.48251">
        <ele>399.0</ele>
      </trkpt>
      <trkpt lat="44.46677" lon="8.48388">
        <ele>390.0</ele>
      </trkpt>
      <trkpt lat="44.46801" lon="8.48466">
        <ele>387.0</ele>
      </trkpt>
      <trkpt lat="44.46995" lon="8.48417">
        <ele>384.0</ele>
      </trkpt>
      <trkpt lat="44.47105" lon="8.4843">
        <ele>380.0</ele>
      </trkpt>
      <trkpt lat="44.47459" lon="8.48725">
        <ele>372.0</ele>
      </trkpt>
      <trkpt lat="44.4756" lon="8.487">
        <ele>369.0</ele>
      </trkpt>
      <trkpt lat="44.47674" lon="8.48561">
        <ele>367.0</ele>
      </trkpt>
      <trkpt lat="44.4771" lon="8.48569">
        <ele>367.0</ele>
      </trkpt>
      <trkpt lat="44.47777" lon="8.48625">
        <ele>367.0</ele>
      </trkpt>
      <trkpt lat="44.47814" lon="8.48745">
        <ele>371.0</ele>
      </trkpt>
      <trkpt lat="44.47824" lon="8.48871">
        <ele>377.0</ele>
      </trkpt>
      <trkpt lat="44.47913" lon="8.48904">
        <ele>381.0</ele>
      </trkpt>
      <trkpt lat="44.47942" lon="8.4901">
        <ele>384.0</ele>
      </trkpt>
      <trkpt lat="44.47963" lon="8.49179">
        <ele>386.0</ele>
      </trkpt>
      <trkpt lat="44.4801" lon="8.4936">
        <ele>388.0</ele>
      </trkpt>
      <trkpt lat="44.48032" lon="8.494">
        <ele>388.0</ele>
      </trkpt>
      <trkpt lat="44.48133" lon="8.49494">
        <ele>385.0</ele>
      </trkpt>
      <trkpt lat="44.48163" lon="8.49542">
        <ele>384.0</ele>
      </trkpt>
      <trkpt lat="44.48215" lon="8.49659">
        <ele>384.0</ele>
      </trkpt>
      <trkpt lat="44.48268" lon="8.49834">
        <ele>384.0</ele>
      </trkpt>
      <trkpt lat="44.48343" lon="8.49988">
        <ele>384.0</ele>
      </trkpt>
      <trkpt lat="44.48357" lon="8.50118">
        <ele>384.0</ele>
      </trkpt>
      <trkpt lat="44.48389" lon="8.50171">
        <ele>384.0</ele>
      </trkpt>
      <trkpt lat="44.48406" lon="8.50243">
        <ele>385.0</ele>
      </trkpt>
      <trkpt lat="44.48413" lon="8.50386">
        <ele>388.0</ele>
      </trkpt>
      <trkpt lat="44.48476" lon="8.50415">
        <ele>390.0</ele>
      </trkpt>
      <trkpt lat="44.48521" lon="8.50364">
        <ele>390.0</ele>
      </trkpt>
      <trkpt lat="44.48649" lon="8.5052">
        <ele>388.0</ele>
      </trkpt>
      <trkpt lat="44.48677" lon="8.5051">
        <ele>389.0</ele>
      </trkpt>
      <trkpt lat="44.48714" lon="8.50466">
        <ele>390.0</ele>
      </trkpt>
      <trkpt lat="44.4875" lon="8.50472">
        <ele>392.0</ele>
      </trkpt>
      <trkpt lat="44.48894" lon="8.50598">
        <ele>397.0</ele>
      </trkpt>
      <trkpt lat="44.49003" lon="8.50863">
        <ele>402.0</ele>
      </trkpt>
      <trkpt lat="44.4902" lon="8.50948">
        <ele>407.0</ele>
      </trkpt>
      <trkpt lat="44.49202" lon="8.51227">
        <ele>415.0</ele>
      </trkpt>
      <trkpt lat="44.49261" lon="8.51354">
        <ele>418.0</ele>
      </trkpt>
      <trkpt lat="44.49298" lon="8.51485">
        <ele>424.0</ele>
      </trkpt>
      <trkpt lat="44.49388" lon="8.51511">
        <ele>430.0</ele>
      </trkpt>
      <trkpt lat="44.49406" lon="8.5153">
        <ele>431.0</ele>
      </trkpt>
      <trkpt lat="44.49432" lon="8.516">
        <ele>432.0</ele>
      </trkpt>
      <trkpt lat="44.49494" lon="8.51698">
        <ele>432.0</ele>
      </trkpt>
      <trkpt lat="44.49592" lon="8.51984">
        <ele>432.0</ele>
      </trkpt>
      <trkpt lat="44.49592" lon="8.52118">
        <ele>432.0</ele>
      </trkpt>
      <trkpt lat="44.49564" lon="8.52209">
        <ele>432.0</ele>
      </trkpt>
      <trkpt lat="44.49512" lon="8.5223">
        <ele>432.0</ele>
      </trkpt>
      <trkpt lat="44.49488" lon="8.52287">
        <ele>433.0</ele>
      </trkpt>
      <trkpt lat="44.49458" lon="8.52488">
        <ele>439.0</ele>
      </trkpt>
      <trkpt lat="44.49426" lon="8.52554">
        <ele>446.0</ele>
      </trkpt>
      <trkpt lat="44.49448" lon="8.52689">
        <ele>454.0</ele>
      </trkpt>
      <trkpt lat="44.49445" lon="8.52744">
        <ele>457.0</ele>
      </trkpt>
      <trkpt lat="44.49398" lon="8.52874">
        <ele>466.0</ele>
      </trkpt>
      <trkpt lat="44.49451" lon="8.53002">
        <ele>471.0</ele>
      </trkpt>
      <trkpt lat="44.49574" lon="8.53152">
        <ele>482.0</ele>
      </trkpt>
      <trkpt lat="44.49558" lon="8.53227">
        <ele>488.0</ele>
      </trkpt>
      <trkpt lat="44.49566" lon="8.53276">
        <ele>492.0</ele>
      </trkpt>
      <trkpt lat="44.49557" lon="8.53361">
        <ele>495.0</ele>
      </trkpt>
      <trkpt lat="44.49572" lon="8.53421">
        <ele>499.0</ele>
      </trkpt>
      <trkpt lat="44.49609" lon="8.53473">
        <ele>501.0</ele>
      </trkpt>
      <trkpt lat="44.49653" lon="8.53488">
        <ele>505.0</ele>
      </trkpt>
      <trkpt lat="44.49678" lon="8.53423">
        <ele>508.0</ele>
      </trkpt>
      <trkpt lat="44.49741" lon="8.53391">
        <ele>512.0</ele>
      </trkpt>
      <trkpt lat="44.49811" lon="8.53433">
        <ele>516.0</ele>
      </trkpt>
      <trkpt lat="44.49832" lon="8.53477">
        <ele>518.0</ele>
      </trkpt>
      <trkpt lat="44.49845" lon="8.53601">
        <ele>524.0</ele>
      </trkpt>
      <trkpt lat="44.4984" lon="8.53723">
        <ele>529.0</ele>
      </trkpt>
      <trkpt lat="44.49859" lon="8.5379">
        <ele>533.0</ele>
      </trkpt>
      <trkpt lat="44.4986" lon="8.53847">
        <ele>536.0</ele>
      </trkpt>
      <trkpt lat="44.49894" lon="8.53917">
        <ele>540.0</ele>
      </trkpt>
      <trkpt lat="44.49933" lon="8.54045">
        <ele>545.0</ele>
      </trkpt>
      <trkpt lat="44.49925" lon="8.54156">
        <ele>554.0</ele>
      </trkpt>
      <trkpt lat="44.49979" lon="8.54281">
        <ele>562.0</ele>
      </trkpt>
      <trkpt lat="44.50006" lon="8.5443">
        <ele>570.0</ele>
      </trkpt>
      <trkpt lat="44.49996" lon="8.54463">
        <ele>575.0</ele>
      </trkpt>
      <trkpt lat="44.49919" lon="8.54491">
        <ele>585.0</ele>
      </trkpt>
      <trkpt lat="44.49869" lon="8.54448">
        <ele>590.0</ele>
      </trkpt>
      <trkpt lat="44.49774" lon="8.5456">
        <ele>593.0</ele>
      </trkpt>
      <trkpt lat="44.49853" lon="8.54536">
        <ele>597.0</ele>
      </trkpt>
      <trkpt lat="44.49958" lon="8.54588">
        <ele>597.0</ele>
      </trkpt>
      <trkpt lat="44.49991" lon="8.54576">
        <ele>596.0</ele>
      </trkpt>
      <trkpt lat="44.50162" lon="8.54377">
        <ele>606.0</ele>
      </trkpt>
      <trkpt lat="44.50212" lon="8.54356">
        <ele>612.0</ele>
      </trkpt>
      <trkpt lat="44.50251" lon="8.54292">
        <ele>617.0</ele>
      </trkpt>
      <trkpt lat="44.5031" lon="8.54056">
        <ele>627.0</ele>
      </trkpt>
      <trkpt lat="44.50348" lon="8.53728">
        <ele>652.0</ele>
      </trkpt>
      <trkpt lat="44.50365" lon="8.53702">
        <ele>658.0</ele>
      </trkpt>
      <trkpt lat="44.5041" lon="8.53698">
        <ele>664.0</ele>
      </trkpt>
      <trkpt lat="44.50427" lon="8.53627">
        <ele>671.0</ele>
      </trkpt>
      <trkpt lat="44.5044" lon="8.53617">
        <ele>673.0</ele>
      </trkpt>
      <trkpt lat="44.50555" lon="8.53562">
        <ele>679.0</ele>
      </trkpt>
      <trkpt lat="44.5059" lon="8.53573">
        <ele>686.0</ele>
      </trkpt>
      <trkpt lat="44.50634" lon="8.53653">
        <ele>690.0</ele>
      </trkpt>
      <trkpt lat="44.50725" lon="8.53713">
        <ele>700.0</ele>
      </trkpt>
      <trkpt lat="44.50787" lon="8.53832">
        <ele>707.0</ele>
      </trkpt>
      <trkpt lat="44.50854" lon="8.53908">
        <ele>712.0</ele>
      </trkpt>
      <trkpt lat="44.50885" lon="8.53925">
        <ele>718.0</ele>
      </trkpt>
      <trkpt lat="44.51099" lon="8.53893">
        <ele>732.0</ele>
      </trkpt>
      <trkpt lat="44.51139" lon="8.53866">
        <ele>733.0</ele>
      </trkpt>
      <trkpt lat="44.51283" lon="8.53841">
        <ele>738.0</ele>
      </trkpt>
      <trkpt lat="44.51377" lon="8.53937">
        <ele>741.0</ele>
      </trkpt>
      <trkpt lat="44.51409" lon="8.53991">
        <ele>743.0</ele>
      </trkpt>
      <trkpt lat="44.51557" lon="8.54044">
        <ele>748.0</ele>
      </trkpt>
      <trkpt lat="44.51605" lon="8.53987">
        <ele>751.0</ele>
      </trkpt>
      <trkpt lat="44.51617" lon="8.53888">
        <ele>755.0</ele>
      </trkpt>
      <trkpt lat="44.51678" lon="8.53864">
        <ele>757.0</ele>
      </trkpt>
      <trkpt lat="44.51774" lon="8.53748">
        <ele>760.0</ele>
      </trkpt>
      <trkpt lat="44.51777" lon="8.53653">
        <ele>760.0</ele>
      </trkpt>
      <trkpt lat="44.51803" lon="8.53602">
        <ele>759.0</ele>
      </trkpt>
      <trkpt lat="44.51839" lon="8.53602">
        <ele>757.0</ele>
      </trkpt>
      <trkpt lat="44.51861" lon="8.53664">
        <ele>755.0</ele>
      </trkpt>
      <trkpt lat="44.51924" lon="8.53657">
        <ele>750.0</ele>
      </trkpt>
      <trkpt lat="44.51947" lon="8.53548">
        <ele>744.0</ele>
      </trkpt>
      <trkpt lat="44.51937" lon="8.53433">
        <ele>735.0</ele>
      </trkpt>
      <trkpt lat="44.51993" lon="8.53394">
        <ele>731.0</ele>
      </trkpt>
      <trkpt lat="44.51987" lon="8.53331">
        <ele>729.0</ele>
      </trkpt>
      <trkpt lat="44.52016" lon="8.53288">
        <ele>728.0</ele>
      </trkpt>
      <trkpt lat="44.52033" lon="8.53232">
        <ele>726.0</ele>
      </trkpt>
      <trkpt lat="44.52109" lon="8.53167">
        <ele>720.0</ele>
      </trkpt>
      <trkpt lat="44.5213" lon="8.53236">
        <ele>718.0</ele>
      </trkpt>
      <trkpt lat="44.52192" lon="8.53327">
        <ele>711.0</ele>
      </trkpt>
      <trkpt lat="44.52193" lon="8.53305">
        <ele>710.0</ele>
      </trkpt>
      <trkpt lat="44.5215" lon="8.53217">
        <ele>709.0</ele>
      </trkpt>
      <trkpt lat="44.52149" lon="8.53151">
        <ele>706.0</ele>
      </trkpt>
      <trkpt lat="44.52234" lon="8.53178">
        <ele>698.0</ele>
      </trkpt>
      <trkpt lat="44.52378" lon="8.53261">
        <ele>683.0</ele>
      </trkpt>
      <trkpt lat="44.52395" lon="8.53257">
        <ele>684.0</ele>
      </trkpt>
      <trkpt lat="44.5244" lon="8.53197">
        <ele>687.0</ele>
      </trkpt>
      <trkpt lat="44.52491" lon="8.53206">
        <ele>690.0</ele>
      </trkpt>
      <trkpt lat="44.52551" lon="8.53194">
        <ele>693.0</ele>
      </trkpt>
      <trkpt lat="44.52652" lon="8.53219">
        <ele>696.0</ele>
      </trkpt>
      <trkpt lat="44.52759" lon="8.53292">
        <ele>700.0</ele>
      </trkpt>
      <trkpt lat="44.52887" lon="8.53316">
        <ele>708.0</ele>
      </trkpt>
      <trkpt lat="44.52918" lon="8.53316">
        <ele>711.0</ele>
      </trkpt>
      <trkpt lat="44.53004" lon="8.53267">
        <ele>716.0</ele>
      </trkpt>
      <trkpt lat="44.53071" lon="8.53259">
        <ele>721.0</ele>
      </trkpt>
      <trkpt lat="44.53178" lon="8.53313">
        <ele>730.0</ele>
      </trkpt>
      <trkpt lat="44.53559" lon="8.53401">
        <ele>739.0</ele>
      </trkpt>
      <trkpt lat="44.53621" lon="8.53448">
        <ele>739.0</ele>
      </trkpt>
      <trkpt lat="44.53688" lon="8.5353">
        <ele>738.0</ele>
      </trkpt>
      <trkpt lat="44.53762" lon="8.53564">
        <ele>735.0</ele>
      </trkpt>
      <trkpt lat="44.53828" lon="8.53651">
        <ele>733.0</ele>
      </trkpt>
      <trkpt lat="44.5392" lon="8.53611">
        <ele>732.0</ele>
      </trkpt>
      <trkpt lat="44.53986" lon="8.53671">
        <ele>731.0</ele>
      </trkpt>
      <trkpt lat="44.541" lon="8.53682">
        <ele>727.0</ele>
      </trkpt>
      <trkpt lat="44.54141" lon="8.53589">
        <ele>725.0</ele>
      </trkpt>
      <trkpt lat="44.5431" lon="8.53367">
        <ele>707.0</ele>
      </trkpt>
      <trkpt lat="44.54369" lon="8.53205">
        <ele>696.0</ele>
      </trkpt>
      <trkpt lat="44.54409" lon="8.53189">
        <ele>695.0</ele>
      </trkpt>
      <trkpt lat="44.54431" lon="8.53079">
        <ele>697.0</ele>
      </trkpt>
      <trkpt lat="44.5447" lon="8.53075">
        <ele>698.0</ele>
      </trkpt>
      <trkpt lat="44.54507" lon="8.53032">
        <ele>699.0</ele>
      </trkpt>
      <trkpt lat="44.54636" lon="8.53031">
        <ele>701.0</ele>
      </trkpt>
      <trkpt lat="44.54667" lon="8.52999">
        <ele>703.0</ele>
      </trkpt>
      <trkpt lat="44.54682" lon="8.52883">
        <ele>702.0</ele>
      </trkpt>
      <trkpt lat="44.54676" lon="8.52753">
        <ele>698.0</ele>
      </trkpt>
      <trkpt lat="44.54688" lon="8.52538">
        <ele>700.0</ele>
      </trkpt>
      <trkpt lat="44.54711" lon="8.52479">
        <ele>701.0</ele>
      </trkpt>
      <trkpt lat="44.54772" lon="8.52419">
        <ele>704.0</ele>
      </trkpt>
      <trkpt lat="44.54873" lon="8.52284">
        <ele>714.0</ele>
      </trkpt>
      <trkpt lat="44.54881" lon="8.52084">
        <ele>722.0</ele>
      </trkpt>
      <trkpt lat="44.54925" lon="8.52004">
        <ele>727.0</ele>
      </trkpt>
      <trkpt lat="44.54943" lon="8.51778">
        <ele>728.0</ele>
      </trkpt>
      <trkpt lat="44.54969" lon="8.51694">
        <ele>729.0</ele>
      </trkpt>
      <trkpt lat="44.55064" lon="8.51531">
        <ele>731.0</ele>
      </trkpt>
      <trkpt lat="44.55099" lon="8.51443">
        <ele>731.0</ele>
      </trkpt>
      <trkpt lat="44.55081" lon="8.51338">
        <ele>729.0</ele>
      </trkpt>
      <trkpt lat="44.55137" lon="8.51208">
        <ele>724.0</ele>
      </trkpt>
      <trkpt lat="44.55204" lon="8.51115">
        <ele>721.0</ele>
      </trkpt>
      <trkpt lat="44.55232" lon="8.51091">
        <ele>719.0</ele>
      </trkpt>
      <trkpt lat="44.5528" lon="8.5108">
        <ele>717.0</ele>
      </trkpt>
      <trkpt lat="44.55356" lon="8.50997">
        <ele>715.0</ele>
      </trkpt>
      <trkpt lat="44.55365" lon="8.50889">
        <ele>712.0</ele>
      </trkpt>
      <trkpt lat="44.55391" lon="8.50801">
        <ele>707.0</ele>
      </trkpt>
      <trkpt lat="44.55384" lon="8.50741">
        <ele>704.0</ele>
      </trkpt>
      <trkpt lat="44.55441" lon="8.50742">
        <ele>700.0</ele>
      </trkpt>
      <trkpt lat="44.55469" lon="8.50703">
        <ele>698.0</ele>
      </trkpt>
      <trkpt lat="44.55505" lon="8.50622">
        <ele>694.0</ele>
      </trkpt>
      <trkpt lat="44.55504" lon="8.50537">
        <ele>687.0</ele>
      </trkpt>
      <trkpt lat="44.55557" lon="8.50489">
        <ele>682.0</ele>
      </trkpt>
      <trkpt lat="44.55563" lon="8.50424">
        <ele>679.0</ele>
      </trkpt>
      <trkpt lat="44.55591" lon="8.50474">
        <ele>675.0</ele>
      </trkpt>
      <trkpt lat="44.55551" lon="8.50523">
        <ele>671.0</ele>
      </trkpt>
      <trkpt lat="44.55547" lon="8.50546">
        <ele>669.0</ele>
      </trkpt>
      <trkpt lat="44.55595" lon="8.50602">
        <ele>667.0</ele>
      </trkpt>
      <trkpt lat="44.55667" lon="8.50733">
        <ele>661.0</ele>
      </trkpt>
      <trkpt lat="44.5566" lon="8.50815">
        <ele>660.0</ele>
      </trkpt>
      <trkpt lat="44.55724" lon="8.50986">
        <ele>659.0</ele>
      </trkpt>
      <trkpt lat="44.55722" lon="8.5104">
        <ele>658.0</ele>
      </trkpt>
      <trkpt lat="44.55751" lon="8.51051">
        <ele>657.0</ele>
      </trkpt>
      <trkpt lat="44.55776" lon="8.51087">
        <ele>656.0</ele>
      </trkpt>
      <trkpt lat="44.55789" lon="8.51148">
        <ele>655.0</ele>
      </trkpt>
      <trkpt lat="44.55832" lon="8.5121">
        <ele>654.0</ele>
      </trkpt>
      <trkpt lat="44.5589" lon="8.5135">
        <ele>651.0</ele>
      </trkpt>
      <trkpt lat="44.56075" lon="8.51443">
        <ele>649.0</ele>
      </trkpt>
      <trkpt lat="44.56118" lon="8.51592">
        <ele>650.0</ele>
      </trkpt>
      <trkpt lat="44.56158" lon="8.51599">
        <ele>650.0</ele>
      </trkpt>
      <trkpt lat="44.56189" lon="8.51643">
        <ele>649.0</ele>
      </trkpt>
      <trkpt lat="44.56198" lon="8.51714">
        <ele>648.0</ele>
      </trkpt>
      <trkpt lat="44.56227" lon="8.51794">
        <ele>646.0</ele>
      </trkpt>
      <trkpt lat="44.56359" lon="8.51783">
        <ele>644.0</ele>
      </trkpt>
      <trkpt lat="44.56438" lon="8.51805">
        <ele>643.0</ele>
      </trkpt>
      <trkpt lat="44.56569" lon="8.51786">
        <ele>642.0</ele>
      </trkpt>
      <trkpt lat="44.56652" lon="8.51827">
        <ele>639.0</ele>
      </trkpt>
      <trkpt lat="44.56748" lon="8.51812">
        <ele>636.0</ele>
      </trkpt>
      <trkpt lat="44.56816" lon="8.51819">
        <ele>634.0</ele>
      </trkpt>
      <trkpt lat="44.56929" lon="8.51791">
        <ele>625.0</ele>
      </trkpt>
      <trkpt lat="44.57093" lon="8.51854">
        <ele>619.0</ele>
      </trkpt>
      <trkpt lat="44.57312" lon="8.52005">
        <ele>623.0</ele>
      </trkpt>
      <trkpt lat="44.57325" lon="8.52096">
        <ele>626.0</ele>
      </trkpt>
      <trkpt lat="44.57359" lon="8.5217">
        <ele>628.0</ele>
      </trkpt>
      <trkpt lat="44.57396" lon="8.522">
        <ele>630.0</ele>
      </trkpt>
      <trkpt lat="44.57451" lon="8.52279">
        <ele>633.0</ele>
      </trkpt>
      <trkpt lat="44.57445" lon="8.52345">
        <ele>634.0</ele>
      </trkpt>
      <trkpt lat="44.57406" lon="8.52468">
        <ele>634.0</ele>
      </trkpt>
      <trkpt lat="44.57418" lon="8.52613">
        <ele>636.0</ele>
      </trkpt>
      <trkpt lat="44.57489" lon="8.52746">
        <ele>638.0</ele>
      </trkpt>
      <trkpt lat="44.5755" lon="8.52812">
        <ele>637.0</ele>
      </trkpt>
      <trkpt lat="44.5755" lon="8.52928">
        <ele>636.0</ele>
      </trkpt>
      <trkpt lat="44.57578" lon="8.53018">
        <ele>632.0</ele>
      </trkpt>
      <trkpt lat="44.57534" lon="8.53087">
        <ele>627.0</ele>
      </trkpt>
      <trkpt lat="44.5749" lon="8.53113">
        <ele>620.0</ele>
      </trkpt>
      <trkpt lat="44.57483" lon="8.53155">
        <ele>616.0</ele>
      </trkpt>
      <trkpt lat="44.57584" lon="8.53275">
        <ele>609.0</ele>
      </trkpt>
      <trkpt lat="44.57746" lon="8.53231">
        <ele>585.0</ele>
      </trkpt>
      <trkpt lat="44.57752" lon="8.53253">
        <ele>580.0</ele>
      </trkpt>
      <trkpt lat="44.57743" lon="8.5327">
        <ele>579.0</ele>
      </trkpt>
      <trkpt lat="44.57671" lon="8.53316">
        <ele>575.0</ele>
      </trkpt>
      <trkpt lat="44.57665" lon="8.53344">
        <ele>571.0</ele>
      </trkpt>
      <trkpt lat="44.57786" lon="8.53293">
        <ele>560.0</ele>
      </trkpt>
      <trkpt lat="44.57795" lon="8.53406">
        <ele>555.0</ele>
      </trkpt>
      <trkpt lat="44.57785" lon="8.53461">
        <ele>550.0</ele>
      </trkpt>
      <trkpt lat="44.57814" lon="8.53484">
        <ele>547.0</ele>
      </trkpt>
      <trkpt lat="44.57823" lon="8.53521">
        <ele>545.0</ele>
      </trkpt>
      <trkpt lat="44.57885" lon="8.53611">
        <ele>541.0</ele>
      </trkpt>
      <trkpt lat="44.57951" lon="8.53676">
        <ele>537.0</ele>
      </trkpt>
      <trkpt lat="44.57951" lon="8.53696">
        <ele>535.0</ele>
      </trkpt>
      <trkpt lat="44.57923" lon="8.53736">
        <ele>531.0</ele>
      </trkpt>
      <trkpt lat="44.57915" lon="8.53861">
        <ele>526.0</ele>
      </trkpt>
      <trkpt lat="44.57926" lon="8.53885">
        <ele>522.0</ele>
      </trkpt>
      <trkpt lat="44.57982" lon="8.53909">
        <ele>519.0</ele>
      </trkpt>
      <trkpt lat="44.57989" lon="8.53939">
        <ele>517.0</ele>
      </trkpt>
      <trkpt lat="44.57957" lon="8.53992">
        <ele>514.0</ele>
      </trkpt>
      <trkpt lat="44.57932" lon="8.53992">
        <ele>512.0</ele>
      </trkpt>
      <trkpt lat="44.57912" lon="8.54011">
        <ele>511.0</ele>
      </trkpt>
      <trkpt lat="44.57915" lon="8.54105">
        <ele>505.0</ele>
      </trkpt>
      <trkpt lat="44.57868" lon="8.54131">
        <ele>499.0</ele>
      </trkpt>
      <trkpt lat="44.57868" lon="8.54159">
        <ele>496.0</ele>
      </trkpt>
      <trkpt lat="44.57924" lon="8.54133">
        <ele>492.0</ele>
      </trkpt>
      <trkpt lat="44.57985" lon="8.54062">
        <ele>484.0</ele>
      </trkpt>
      <trkpt lat="44.58135" lon="8.53979">
        <ele>470.0</ele>
      </trkpt>
      <trkpt lat="44.58136" lon="8.53929">
        <ele>462.0</ele>
      </trkpt>
      <trkpt lat="44.5815" lon="8.5392">
        <ele>459.0</ele>
      </trkpt>
      <trkpt lat="44.58185" lon="8.53993">
        <ele>453.0</ele>
      </trkpt>
      <trkpt lat="44.58139" lon="8.54023">
        <ele>450.0</ele>
      </trkpt>
      <trkpt lat="44.58146" lon="8.5405">
        <ele>449.0</ele>
      </trkpt>
      <trkpt lat="44.58199" lon="8.54024">
        <ele>446.0</ele>
      </trkpt>
      <trkpt lat="44.58271" lon="8.54026">
        <ele>443.0</ele>
      </trkpt>
      <trkpt lat="44.58521" lon="8.54322">
        <ele>425.0</ele>
      </trkpt>
      <trkpt lat="44.58599" lon="8.54383">
        <ele>419.0</ele>
      </trkpt>
      <trkpt lat="44.58623" lon="8.54382">
        <ele>414.0</ele>
      </trkpt>
      <trkpt lat="44.58675" lon="8.54321">
        <ele>408.0</ele>
      </trkpt>
      <trkpt lat="44.58718" lon="8.54354">
        <ele>404.0</ele>
      </trkpt>
      <trkpt lat="44.58759" lon="8.54356">
        <ele>400.0</ele>
      </trkpt>
      <trkpt lat="44.58813" lon="8.54409">
        <ele>399.0</ele>
      </trkpt>
      <trkpt lat="44.58845" lon="8.54459">
        <ele>399.0</ele>
      </trkpt>
      <trkpt lat="44.58842" lon="8.54539">
        <ele>399.0</ele>
      </trkpt>
      <trkpt lat="44.58875" lon="8.54632">
        <ele>397.0</ele>
      </trkpt>
      <trkpt lat="44.5901" lon="8.54784">
        <ele>387.0</ele>
      </trkpt>
      <trkpt lat="44.59079" lon="8.5482">
        <ele>383.0</ele>
      </trkpt>
      <trkpt lat="44.59187" lon="8.54927">
        <ele>376.0</ele>
      </trkpt>
      <trkpt lat="44.59292" lon="8.54917">
        <ele>372.0</ele>
      </trkpt>
      <trkpt lat="44.59407" lon="8.5497">
        <ele>374.0</ele>
      </trkpt>
      <trkpt lat="44.59511" lon="8.55062">
        <ele>379.0</ele>
      </trkpt>
      <trkpt lat="44.59749" lon="8.55359">
        <ele>386.0</ele>
      </trkpt>
      <trkpt lat="44.59744" lon="8.55396">
        <ele>386.0</ele>
      </trkpt>
      <trkpt lat="44.59684" lon="8.55505">
        <ele>386.0</ele>
      </trkpt>
      <trkpt lat="44.59687" lon="8.55532">
        <ele>385.0</ele>
      </trkpt>
      <trkpt lat="44.59769" lon="8.5551">
        <ele>383.0</ele>
      </trkpt>
      <trkpt lat="44.59797" lon="8.55531">
        <ele>383.0</ele>
      </trkpt>
      <trkpt lat="44.59865" lon="8.55546">
        <ele>381.0</ele>
      </trkpt>
      <trkpt lat="44.59903" lon="8.55621">
        <ele>379.0</ele>
      </trkpt>
      <trkpt lat="44.59973" lon="8.55614">
        <ele>377.0</ele>
      </trkpt>
      <trkpt lat="44.59992" lon="8.55633">
        <ele>377.0</ele>
      </trkpt>
      <trkpt lat="44.59997" lon="8.55685">
        <ele>376.0</ele>
      </trkpt>
      <trkpt lat="44.59975" lon="8.55792">
        <ele>376.0</ele>
      </trkpt>
      <trkpt lat="44.60029" lon="8.55983">
        <ele>376.0</ele>
      </trkpt>
      <trkpt lat="44.60186" lon="8.56225">
        <ele>376.0</ele>
      </trkpt>
      <trkpt lat="44.60185" lon="8.56253">
        <ele>375.0</ele>
      </trkpt>
      <trkpt lat="44.6016" lon="8.56305">
        <ele>373.0</ele>
      </trkpt>
      <trkpt lat="44.60163" lon="8.56336">
        <ele>372.0</ele>
      </trkpt>
      <trkpt lat="44.60233" lon="8.56395">
        <ele>372.0</ele>
      </trkpt>
      <trkpt lat="44.60322" lon="8.56617">
        <ele>370.0</ele>
      </trkpt>
      <trkpt lat="44.60421" lon="8.56733">
        <ele>368.0</ele>
      </trkpt>
      <trkpt lat="44.60472" lon="8.56822">
        <ele>363.0</ele>
      </trkpt>
      <trkpt lat="44.60507" lon="8.56959">
        <ele>355.0</ele>
      </trkpt>
      <trkpt lat="44.60568" lon="8.57096">
        <ele>351.0</ele>
      </trkpt>
      <trkpt lat="44.60612" lon="8.57236">
        <ele>347.0</ele>
      </trkpt>
      <trkpt lat="44.60607" lon="8.57351">
        <ele>344.0</ele>
      </trkpt>
      <trkpt lat="44.6062" lon="8.57385">
        <ele>341.0</ele>
      </trkpt>
      <trkpt lat="44.607" lon="8.57402">
        <ele>338.0</ele>
      </trkpt>
      <trkpt lat="44.6077" lon="8.57451">
        <ele>335.0</ele>
      </trkpt>
      <trkpt lat="44.60927" lon="8.57508">
        <ele>327.0</ele>
      </trkpt>
      <trkpt lat="44.60997" lon="8.57491">
        <ele>320.0</ele>
      </trkpt>
      <trkpt lat="44.61033" lon="8.574">
        <ele>313.0</ele>
      </trkpt>
      <trkpt lat="44.61078" lon="8.57394">
        <ele>311.0</ele>
      </trkpt>
      <trkpt lat="44.6111" lon="8.57411">
        <ele>308.0</ele>
      </trkpt>
      <trkpt lat="44.61129" lon="8.57514">
        <ele>306.0</ele>
      </trkpt>
      <trkpt lat="44.61119" lon="8.5756">
        <ele>304.0</ele>
      </trkpt>
      <trkpt lat="44.61074" lon="8.57586">
        <ele>302.0</ele>
      </trkpt>
      <trkpt lat="44.60923" lon="8.57732">
        <ele>292.0</ele>
      </trkpt>
      <trkpt lat="44.60908" lon="8.57728">
        <ele>289.0</ele>
      </trkpt>
      <trkpt lat="44.60887" lon="8.5769">
        <ele>287.0</ele>
      </trkpt>
      <trkpt lat="44.60867" lon="8.57705">
        <ele>285.0</ele>
      </trkpt>
      <trkpt lat="44.60875" lon="8.57794">
        <ele>283.0</ele>
      </trkpt>
      <trkpt lat="44.60926" lon="8.57832">
        <ele>279.0</ele>
      </trkpt>
      <trkpt lat="44.60936" lon="8.57863">
        <ele>277.0</ele>
      </trkpt>
      <trkpt lat="44.60873" lon="8.58263">
        <ele>263.0</ele>
      </trkpt>
      <trkpt lat="44.60885" lon="8.58298">
        <ele>258.0</ele>
      </trkpt>
      <trkpt lat="44.60918" lon="8.58315">
        <ele>257.0</ele>
      </trkpt>
      <trkpt lat="44.6095" lon="8.58363">
        <ele>254.0</ele>
      </trkpt>
      <trkpt lat="44.60915" lon="8.58508">
        <ele>250.0</ele>
      </trkpt>
      <trkpt lat="44.60915" lon="8.58701">
        <ele>238.0</ele>
      </trkpt>
      <trkpt lat="44.60956" lon="8.58772">
        <ele>233.0</ele>
      </trkpt>
      <trkpt lat="44.61071" lon="8.58879">
        <ele>228.0</ele>
      </trkpt>
      <trkpt lat="44.61176" lon="8.5902">
        <ele>225.0</ele>
      </trkpt>
      <trkpt lat="44.61243" lon="8.59083">
        <ele>224.0</ele>
      </trkpt>
      <trkpt lat="44.61392" lon="8.59129">
        <ele>225.0</ele>
      </trkpt>
      <trkpt lat="44.61516" lon="8.59232">
        <ele>225.0</ele>
      </trkpt>
      <trkpt lat="44.61519" lon="8.5926">
        <ele>225.0</ele>
      </trkpt>
      <trkpt lat="44.61496" lon="8.59335">
        <ele>224.0</ele>
      </trkpt>
      <trkpt lat="44.61515" lon="8.59432">
        <ele>223.0</ele>
      </trkpt>
      <trkpt lat="44.61665" lon="8.59788">
        <ele>225.0</ele>
      </trkpt>
      <trkpt lat="44.61692" lon="8.59823">
        <ele>226.0</ele>
      </trkpt>
      <trkpt lat="44.61797" lon="8.59892">
        <ele>231.0</ele>
      </trkpt>
      <trkpt lat="44.61899" lon="8.59886">
        <ele>229.0</ele>
      </trkpt>
      <trkpt lat="44.61863" lon="8.59984">
        <ele>227.0</ele>
      </trkpt>
      <trkpt lat="44.61843" lon="8.60104">
        <ele>223.0</ele>
      </trkpt>
      <trkpt lat="44.61854" lon="8.60202">
        <ele>214.0</ele>
      </trkpt>
      <trkpt lat="44.61765" lon="8.60384">
        <ele>203.0</ele>
      </trkpt>
      <trkpt lat="44.61754" lon="8.60432">
        <ele>199.0</ele>
      </trkpt>
      <trkpt lat="44.61886" lon="8.6069">
        <ele>194.0</ele>
      </trkpt>
      <trkpt lat="44.61992" lon="8.60695">
        <ele>198.0</ele>
      </trkpt>
      <trkpt lat="44.62022" lon="8.60722">
        <ele>200.0</ele>
      </trkpt>
      <trkpt lat="44.6205" lon="8.60779">
        <ele>203.0</ele>
      </trkpt>
      <trkpt lat="44.62078" lon="8.60961">
        <ele>204.0</ele>
      </trkpt>
      <trkpt lat="44.62055" lon="8.61115">
        <ele>205.0</ele>
      </trkpt>
      <trkpt lat="44.62063" lon="8.61379">
        <ele>206.0</ele>
      </trkpt>
      <trkpt lat="44.62165" lon="8.61657">
        <ele>205.0</ele>
      </trkpt>
      <trkpt lat="44.62194" lon="8.61855">
        <ele>207.0</ele>
      </trkpt>
      <trkpt lat="44.62195" lon="8.62116">
        <ele>207.0</ele>
      </trkpt>
      <trkpt lat="44.62349" lon="8.62661">
        <ele>198.0</ele>
      </trkpt>
      <trkpt lat="44.62413" lon="8.62784">
        <ele>199.0</ele>
      </trkpt>
      <trkpt lat="44.62525" lon="8.62928">
        <ele>199.0</ele>
      </trkpt>
      <trkpt lat="44.62632" lon="8.63007">
        <ele>199.0</ele>
      </trkpt>
      <trkpt lat="44.62736" lon="8.63036">
        <ele>199.0</ele>
      </trkpt>
      <trkpt lat="44.62793" lon="8.63092">
        <ele>199.0</ele>
      </trkpt>
      <trkpt lat="44.62828" lon="8.63172">
        <ele>198.0</ele>
      </trkpt>
      <trkpt lat="44.62842" lon="8.63277">
        <ele>198.0</ele>
      </trkpt>
      <trkpt lat="44.62902" lon="8.63381">
        <ele>199.0</ele>
      </trkpt>
      <trkpt lat="44.62972" lon="8.63541">
        <ele>199.0</ele>
      </trkpt>
      <trkpt lat="44.62997" lon="8.63553">
        <ele>198.0</ele>
      </trkpt>
      <trkpt lat="44.63167" lon="8.63528">
        <ele>197.0</ele>
      </trkpt>
      <trkpt lat="44.63259" lon="8.63581">
        <ele>198.0</ele>
      </trkpt>
      <trkpt lat="44.63315" lon="8.63677">
        <ele>196.0</ele>
      </trkpt>
      <trkpt lat="44.63425" lon="8.63748">
        <ele>193.0</ele>
      </trkpt>
      <trkpt lat="44.63575" lon="8.63981">
        <ele>192.0</ele>
      </trkpt>
      <trkpt lat="44.63651" lon="8.64039">
        <ele>192.0</ele>
      </trkpt>
      <trkpt lat="44.63802" lon="8.64269">
        <ele>191.0</ele>
      </trkpt>
      <trkpt lat="44.63831" lon="8.64328">
        <ele>191.0</ele>
      </trkpt>
      <trkpt lat="44.63838" lon="8.64373">
        <ele>190.0</ele>
      </trkpt>
      <trkpt lat="44.6389" lon="8.64344">
        <ele>190.0</ele>
      </trkpt>
      <trkpt lat="44.6391" lon="8.64348">
        <ele>189.0</ele>
      </trkpt>
      <trkpt lat="44.64033" lon="8.64517">
        <ele>185.0</ele>
      </trkpt>
      <trkpt lat="44.64254" lon="8.64754">
        <ele>175.0</ele>
      </trkpt>
      <trkpt lat="44.64256" lon="8.64795">
        <ele>173.0</ele>
      </trkpt>
      <trkpt lat="44.64238" lon="8.64852">
        <ele>172.0</ele>
      </trkpt>
      <trkpt lat="44.64257" lon="8.6488">
        <ele>172.0</ele>
      </trkpt>
      <trkpt lat="44.64279" lon="8.65114">
        <ele>170.0</ele>
      </trkpt>
      <trkpt lat="44.64312" lon="8.65176">
        <ele>170.0</ele>
      </trkpt>
      <trkpt lat="44.64378" lon="8.65223">
        <ele>171.0</ele>
      </trkpt>
      <trkpt lat="44.64467" lon="8.65229">
        <ele>172.0</ele>
      </trkpt>
      <trkpt lat="44.65541" lon="8.65581">
        <ele>171.0</ele>
      </trkpt>
      <trkpt lat="44.65601" lon="8.65619">
        <ele>171.0</ele>
      </trkpt>
      <trkpt lat="44.66241" lon="8.66241">
        <ele>181.0</ele>
      </trkpt>
      <trkpt lat="44.66304" lon="8.66286">
        <ele>181.0</ele>
      </trkpt>
      <trkpt lat="44.66792" lon="8.66517">
        <ele>175.0</ele>
      </trkpt>
      <trkpt lat="44.668" lon="8.66542">
        <ele>174.0</ele>
      </trkpt>
      <trkpt lat="44.66816" lon="8.66529">
        <ele>174.0</ele>
      </trkpt>
      <trkpt lat="44.67806" lon="8.66994">
        <ele>164.0</ele>
      </trkpt>
      <trkpt lat="44.67903" lon="8.67027">
        <ele>159.0</ele>
      </trkpt>
      <trkpt lat="44.68124" lon="8.67066">
        <ele>157.0</ele>
      </trkpt>
      <trkpt lat="44.68164" lon="8.6706">
        <ele>158.0</ele>
      </trkpt>
      <trkpt lat="44.68381" lon="8.66935">
        <ele>161.0</ele>
      </trkpt>
      <trkpt lat="44.68447" lon="8.6693">
        <ele>160.0</ele>
      </trkpt>
      <trkpt lat="44.68501" lon="8.66954">
        <ele>160.0</ele>
      </trkpt>
      <trkpt lat="44.68627" lon="8.67076">
        <ele>160.0</ele>
      </trkpt>
      <trkpt lat="44.68784" lon="8.67313">
        <ele>165.0</ele>
      </trkpt>
      <trkpt lat="44.68822" lon="8.67485">
        <ele>167.0</ele>
      </trkpt>
      <trkpt lat="44.68848" lon="8.67698">
        <ele>168.0</ele>
      </trkpt>
      <trkpt lat="44.68843" lon="8.67739">
        <ele>169.0</ele>
      </trkpt>
      <trkpt lat="44.68869" lon="8.67818">
        <ele>169.0</ele>
      </trkpt>
      <trkpt lat="44.68968" lon="8.67926">
        <ele>169.0</ele>
      </trkpt>
      <trkpt lat="44.69069" lon="8.67996">
        <ele>167.0</ele>
      </trkpt>
      <trkpt lat="44.70187" lon="8.68468">
        <ele>162.0</ele>
      </trkpt>
      <trkpt lat="44.70302" lon="8.68495">
        <ele>161.0</ele>
      </trkpt>
      <trkpt lat="44.70744" lon="8.68263">
        <ele>159.0</ele>
      </trkpt>
      <trkpt lat="44.71183" lon="8.68255">
        <ele>153.0</ele>
      </trkpt>
      <trkpt lat="44.71506" lon="8.68178">
        <ele>142.0</ele>
      </trkpt>
      <trkpt lat="44.72865" lon="8.6842">
        <ele>140.0</ele>
      </trkpt>
      <trkpt lat="44.72902" lon="8.68441">
        <ele>139.0</ele>
      </trkpt>
      <trkpt lat="44.73046" lon="8.68606">
        <ele>140.0</ele>
      </trkpt>
      <trkpt lat="44.73206" lon="8.68595">
        <ele>140.0</ele>
      </trkpt>
      <trkpt lat="44.73165" lon="8.68681">
        <ele>143.0</ele>
      </trkpt>
      <trkpt lat="44.73096" lon="8.68736">
        <ele>148.0</ele>
      </trkpt>
      <trkpt lat="44.72988" lon="8.68719">
        <ele>158.0</ele>
      </trkpt>
      <trkpt lat="44.72894" lon="8.6868">
        <ele>167.0</ele>
      </trkpt>
      <trkpt lat="44.72909" lon="8.68717">
        <ele>170.0</ele>
      </trkpt>
      <trkpt lat="44.72889" lon="8.68876">
        <ele>174.0</ele>
      </trkpt>
      <trkpt lat="44.72861" lon="8.68948">
        <ele>175.0</ele>
      </trkpt>
      <trkpt lat="44.72626" lon="8.6988">
        <ele>203.0</ele>
      </trkpt>
      <trkpt lat="44.72651" lon="8.70021">
        <ele>210.0</ele>
      </trkpt>
      <trkpt lat="44.72671" lon="8.7024">
        <ele>212.0</ele>
      </trkpt>
      <trkpt lat="44.7265" lon="8.7042">
        <ele>208.0</ele>
      </trkpt>
      <trkpt lat="44.72657" lon="8.70461">
        <ele>205.0</ele>
      </trkpt>
      <trkpt lat="44.7281" lon="8.70691">
        <ele>193.0</ele>
      </trkpt>
      <trkpt lat="44.72844" lon="8.70767">
        <ele>192.0</ele>
      </trkpt>
      <trkpt lat="44.72829" lon="8.70912">
        <ele>196.0</ele>
      </trkpt>
      <trkpt lat="44.7279" lon="8.7103">
        <ele>201.0</ele>
      </trkpt>
      <trkpt lat="44.72783" lon="8.71087">
        <ele>205.0</ele>
      </trkpt>
      <trkpt lat="44.72814" lon="8.71249">
        <ele>212.0</ele>
      </trkpt>
      <trkpt lat="44.7289" lon="8.71356">
        <ele>215.0</ele>
      </trkpt>
      <trkpt lat="44.73006" lon="8.71626">
        <ele>209.0</ele>
      </trkpt>
      <trkpt lat="44.72974" lon="8.71964">
        <ele>204.0</ele>
      </trkpt>
      <trkpt lat="44.73022" lon="8.72013">
        <ele>197.0</ele>
      </trkpt>
      <trkpt lat="44.72942" lon="8.72213">
        <ele>186.0</ele>
      </trkpt>
      <trkpt lat="44.72955" lon="8.7223">
        <ele>183.0</ele>
      </trkpt>
      <trkpt lat="44.72996" lon="8.7222">
        <ele>180.0</ele>
      </trkpt>
      <trkpt lat="44.73039" lon="8.72277">
        <ele>174.0</ele>
      </trkpt>
      <trkpt lat="44.7311" lon="8.7225">
        <ele>170.0</ele>
      </trkpt>
      <trkpt lat="44.73153" lon="8.7226">
        <ele>167.0</ele>
      </trkpt>
      <trkpt lat="44.73342" lon="8.72582">
        <ele>157.0</ele>
      </trkpt>
      <trkpt lat="44.73402" lon="8.72965">
        <ele>154.0</ele>
      </trkpt>
      <trkpt lat="44.73396" lon="8.73289">
        <ele>161.0</ele>
      </trkpt>
      <trkpt lat="44.73606" lon="8.73097">
        <ele>165.0</ele>
      </trkpt>
      <trkpt lat="44.73739" lon="8.73198">
        <ele>170.0</ele>
      </trkpt>
      <trkpt lat="44.73768" lon="8.7324">
        <ele>173.0</ele>
      </trkpt>
      <trkpt lat="44.73815" lon="8.73375">
        <ele>178.0</ele>
      </trkpt>
      <trkpt lat="44.73866" lon="8.73419">
        <ele>180.0</ele>
      </trkpt>
      <trkpt lat="44.74556" lon="8.73333">
        <ele>180.0</ele>
      </trkpt>
      <trkpt lat="44.74596" lon="8.7334">
        <ele>180.0</ele>
      </trkpt>
      <trkpt lat="44.74616" lon="8.73362">
        <ele>180.0</ele>
      </trkpt>
      <trkpt lat="44.74845" lon="8.74174">
        <ele>172.0</ele>
      </trkpt>
      <trkpt lat="44.74811" lon="8.74373">
        <ele>171.0</ele>
      </trkpt>
      <trkpt lat="44.7481" lon="8.74513">
        <ele>169.0</ele>
      </trkpt>
      <trkpt lat="44.74827" lon="8.74576">
        <ele>167.0</ele>
      </trkpt>
      <trkpt lat="44.74841" lon="8.74593">
        <ele>167.0</ele>
      </trkpt>
      <trkpt lat="44.74861" lon="8.74589">
        <ele>168.0</ele>
      </trkpt>
      <trkpt lat="44.7493" lon="8.74535">
        <ele>172.0</ele>
      </trkpt>
      <trkpt lat="44.74989" lon="8.74526">
        <ele>179.0</ele>
      </trkpt>
      <trkpt lat="44.75012" lon="8.74496">
        <ele>185.0</ele>
      </trkpt>
      <trkpt lat="44.75018" lon="8.74508">
        <ele>186.0</ele>
      </trkpt>
      <trkpt lat="44.74991" lon="8.74605">
        <ele>189.0</ele>
      </trkpt>
      <trkpt lat="44.74997" lon="8.74619">
        <ele>191.0</ele>
      </trkpt>
      <trkpt lat="44.75028" lon="8.74538">
        <ele>195.0</ele>
      </trkpt>
      <trkpt lat="44.7504" lon="8.74542">
        <ele>197.0</ele>
      </trkpt>
      <trkpt lat="44.75034" lon="8.74642">
        <ele>202.0</ele>
      </trkpt>
      <trkpt lat="44.74999" lon="8.74807">
        <ele>211.0</ele>
      </trkpt>
      <trkpt lat="44.75006" lon="8.75454">
        <ele>214.0</ele>
      </trkpt>
      <trkpt lat="44.7505" lon="8.75591">
        <ele>215.0</ele>
      </trkpt>
      <trkpt lat="44.75178" lon="8.75787">
        <ele>217.0</ele>
      </trkpt>
      <trkpt lat="44.75225" lon="8.75903">
        <ele>218.0</ele>
      </trkpt>
      <trkpt lat="44.75496" lon="8.76919">
        <ele>220.0</ele>
      </trkpt>
      <trkpt lat="44.75596" lon="8.77117">
        <ele>223.0</ele>
      </trkpt>
      <trkpt lat="44.75635" lon="8.77226">
        <ele>224.0</ele>
      </trkpt>
      <trkpt lat="44.75756" lon="8.77354">
        <ele>224.0</ele>
      </trkpt>
      <trkpt lat="44.75914" lon="8.77463">
        <ele>220.0</ele>
      </trkpt>
      <trkpt lat="44.76045" lon="8.77485">
        <ele>212.0</ele>
      </trkpt>
      <trkpt lat="44.76138" lon="8.77452">
        <ele>205.0</ele>
      </trkpt>
      <trkpt lat="44.7621" lon="8.77471">
        <ele>198.0</ele>
      </trkpt>
      <trkpt lat="44.76244" lon="8.77535">
        <ele>195.0</ele>
      </trkpt>
      <trkpt lat="44.76282" lon="8.77763">
        <ele>193.0</ele>
      </trkpt>
      <trkpt lat="44.76069" lon="8.78058">
        <ele>195.0</ele>
      </trkpt>
      <trkpt lat="44.76066" lon="8.78078">
        <ele>195.0</ele>
      </trkpt>
      <trkpt lat="44.76114" lon="8.78096">
        <ele>195.0</ele>
      </trkpt>
      <trkpt lat="44.76121" lon="8.78116">
        <ele>195.0</ele>
      </trkpt>
      <trkpt lat="44.76134" lon="8.78108">
        <ele>195.0</ele>
      </trkpt>
      <trkpt lat="44.76248" lon="8.78181">
        <ele>195.0</ele>
      </trkpt>
      <trkpt lat="44.76258" lon="8.78222">
        <ele>195.0</ele>
      </trkpt>
      <trkpt lat="44.762" lon="8.78501">
        <ele>194.0</ele>
      </trkpt>
      <trkpt lat="44.76165" lon="8.78795">
        <ele>198.0</ele>
      </trkpt>
      <trkpt lat="44.76067" lon="8.79016">
        <ele>198.0</ele>
      </trkpt>
      <trkpt lat="44.73873" lon="8.82704">
        <ele>230.0</ele>
      </trkpt>
    </trkseg>
  </trk>
</gpx>