<?xml version="1.0" encoding="UTF-8"?>
<gpx xmlns="http://www.topografix.com/GPX/1/0" xmlns:xsi="http://www.w3.org/2001/XMLSchema-instance" xsi:schemaLocation="http://www.topografix.com/GPX/1/0 http://www.topografix.com/GPX/1/0/gpx.xsd" version="1.0" creator="GPSBabel - https://www.gpsbabel.org">
  <time>2025-12-11T11:28:42.301000Z</time>
  <bounds minlat="43.82263" maxlat="44.02167" minlon="10.09902" maxlon="10.27883" />
  <trk>
    <trkseg>
      <trkpt lat="43.87109" lon="10.24318">
        <ele>3.0</ele>
      </trkpt>
      <trkpt lat="43.87072" lon="10.2434">
        <ele>2.0</ele>
      </trkpt>
      <trkpt lat="43.87054" lon="10.2435">
        <ele>2.0</ele>
      </trkpt>
      <trkpt lat="43.86997" lon="10.24385">
        <ele>2.0</ele>
      </trkpt>
      <trkpt lat="43.86992" lon="10.24388">
        <ele>2.0</ele>
      </trkpt>
      <trkpt lat="43.86985" lon="10.24392">
        <ele>2.0</ele>
      </trkpt>
      <trkpt lat="43.86937" lon="10.2442">
        <ele>2.0</ele>
      </trkpt>
      <trkpt lat="43.86932" lon="10.24423">
        <ele>2.0</ele>
      </trkpt>
      <trkpt lat="43.86888" lon="10.24448">
        <ele>2.0</ele>
      </trkpt>
      <trkpt lat="43.86881" lon="10.24452">
        <ele>2.0</ele>
      </trkpt>
      <trkpt lat="43.8681" lon="10.24493">
        <ele>2.0</ele>
      </trkpt>
      <trkpt lat="43.86806" lon="10.24496">
        <ele>3.0</ele>
      </trkpt>
      <trkpt lat="43.868" lon="10.24499">
        <ele>3.0</ele>
      </trkpt>
      <trkpt lat="43.86774" lon="10.24514">
        <ele>3.0</ele>
      </trkpt>
      <trkpt lat="43.86768" lon="10.24518">
        <ele>3.0</ele>
      </trkpt>
      <trkpt lat="43.86725" lon="10.24543">
        <ele>3.0</ele>
      </trkpt>
      <trkpt lat="43.86718" lon="10.24547">
        <ele>4.0</ele>
      </trkpt>
      <trkpt lat="43.86644" lon="10.24588">
        <ele>4.0</ele>
      </trkpt>
      <trkpt lat="43.8664" lon="10.24591">
        <ele>4.0</ele>
      </trkpt>
      <trkpt lat="43.86622" lon="10.24602">
        <ele>4.0</ele>
      </trkpt>
      <trkpt lat="43.86615" lon="10.24606">
        <ele>4.0</ele>
      </trkpt>
      <trkpt lat="43.86612" lon="10.24608">
        <ele>4.0</ele>
      </trkpt>
      <trkpt lat="43.86615" lon="10.2462">
        <ele>4.0</ele>
      </trkpt>
      <trkpt lat="43.86632" lon="10.24672">
        <ele>4.0</ele>
      </trkpt>
      <trkpt lat="43.86636" lon="10.24687">
        <ele>4.0</ele>
      </trkpt>
      <trkpt lat="43.86652" lon="10.24736">
        <ele>4.0</ele>
      </trkpt>
      <trkpt lat="43.86655" lon="10.24745">
        <ele>4.0</ele>
      </trkpt>
      <trkpt lat="43.8667" lon="10.24797">
        <ele>4.0</ele>
      </trkpt>
      <trkpt lat="43.86675" lon="10.24814">
        <ele>4.0</ele>
      </trkpt>
      <trkpt lat="43.86706" lon="10.24911">
        <ele>4.0</ele>
      </trkpt>
      <trkpt lat="43.86741" lon="10.25024">
        <ele>4.0</ele>
      </trkpt>
      <trkpt lat="43.86755" lon="10.2507">
        <ele>4.0</ele>
      </trkpt>
      <trkpt lat="43.86772" lon="10.25125">
        <ele>4.0</ele>
      </trkpt>
      <trkpt lat="43.86775" lon="10.25134">
        <ele>4.0</ele>
      </trkpt>
      <trkpt lat="43.86777" lon="10.25139">
        <ele>4.0</ele>
      </trkpt>
      <trkpt lat="43.86789" lon="10.2518">
        <ele>4.0</ele>
      </trkpt>
      <trkpt lat="43.86791" lon="10.25186">
        <ele>4.0</ele>
      </trkpt>
      <trkpt lat="43.86801" lon="10.25219">
        <ele>3.0</ele>
      </trkpt>
      <trkpt lat="43.86805" lon="10.25231">
        <ele>3.0</ele>
      </trkpt>
      <trkpt lat="43.86814" lon="10.2526">
        <ele>3.0</ele>
      </trkpt>
      <trkpt lat="43.86816" lon="10.25266">
        <ele>3.0</ele>
      </trkpt>
      <trkpt lat="43.86834" lon="10.25324">
        <ele>3.0</ele>
      </trkpt>
      <trkpt lat="43.86852" lon="10.25385">
        <ele>3.0</ele>
      </trkpt>
      <trkpt lat="43.86856" lon="10.25397">
        <ele>2.0</ele>
      </trkpt>
      <trkpt lat="43.86872" lon="10.25449">
        <ele>2.0</ele>
      </trkpt>
      <trkpt lat="43.8689" lon="10.25509">
        <ele>2.0</ele>
      </trkpt>
      <trkpt lat="43.86881" lon="10.25532">
        <ele>2.0</ele>
      </trkpt>
      <trkpt lat="43.86847" lon="10.25567">
        <ele>3.0</ele>
      </trkpt>
      <trkpt lat="43.86842" lon="10.25572">
        <ele>3.0</ele>
      </trkpt>
      <trkpt lat="43.86817" lon="10.25596">
        <ele>3.0</ele>
      </trkpt>
      <trkpt lat="43.86806" lon="10.25606">
        <ele>3.0</ele>
      </trkpt>
      <trkpt lat="43.86801" lon="10.2561">
        <ele>3.0</ele>
      </trkpt>
      <trkpt lat="43.86787" lon="10.25619">
        <ele>3.0</ele>
      </trkpt>
      <trkpt lat="43.86761" lon="10.25634">
        <ele>3.0</ele>
      </trkpt>
      <trkpt lat="43.86744" lon="10.25641">
        <ele>3.0</ele>
      </trkpt>
      <trkpt lat="43.86738" lon="10.25643">
        <ele>3.0</ele>
      </trkpt>
      <trkpt lat="43.86736" lon="10.25644">
        <ele>3.0</ele>
      </trkpt>
      <trkpt lat="43.86709" lon="10.25658">
        <ele>3.0</ele>
      </trkpt>
      <trkpt lat="43.86685" lon="10.2567">
        <ele>3.0</ele>
      </trkpt>
      <trkpt lat="43.86669" lon="10.25681">
        <ele>3.0</ele>
      </trkpt>
      <trkpt lat="43.86596" lon="10.25741">
        <ele>3.0</ele>
      </trkpt>
      <trkpt lat="43.86574" lon="10.25759">
        <ele>2.0</ele>
      </trkpt>
      <trkpt lat="43.86572" lon="10.2576">
        <ele>2.0</ele>
      </trkpt>
      <trkpt lat="43.8657" lon="10.25761">
        <ele>2.0</ele>
      </trkpt>
      <trkpt lat="43.86568" lon="10.25762">
        <ele>2.0</ele>
      </trkpt>
      <trkpt lat="43.86565" lon="10.25761">
        <ele>2.0</ele>
      </trkpt>
      <trkpt lat="43.86563" lon="10.25761">
        <ele>2.0</ele>
      </trkpt>
      <trkpt lat="43.86561" lon="10.2576">
        <ele>2.0</ele>
      </trkpt>
      <trkpt lat="43.86559" lon="10.25756">
        <ele>2.0</ele>
      </trkpt>
      <trkpt lat="43.86551" lon="10.25741">
        <ele>2.0</ele>
      </trkpt>
      <trkpt lat="43.86545" lon="10.25724">
        <ele>2.0</ele>
      </trkpt>
      <trkpt lat="43.86537" lon="10.25708">
        <ele>2.0</ele>
      </trkpt>
      <trkpt lat="43.86532" lon="10.25702">
        <ele>2.0</ele>
      </trkpt>
      <trkpt lat="43.86529" lon="10.257">
        <ele>2.0</ele>
      </trkpt>
      <trkpt lat="43.86528" lon="10.257">
        <ele>2.0</ele>
      </trkpt>
      <trkpt lat="43.86527" lon="10.257">
        <ele>2.0</ele>
      </trkpt>
      <trkpt lat="43.86523" lon="10.257">
        <ele>2.0</ele>
      </trkpt>
      <trkpt lat="43.86521" lon="10.25701">
        <ele>2.0</ele>
      </trkpt>
      <trkpt lat="43.86517" lon="10.25704">
        <ele>2.0</ele>
      </trkpt>
      <trkpt lat="43.86514" lon="10.25714">
        <ele>2.0</ele>
      </trkpt>
      <trkpt lat="43.8649" lon="10.25774">
        <ele>2.0</ele>
      </trkpt>
      <trkpt lat="43.86489" lon="10.25777">
        <ele>2.0</ele>
      </trkpt>
      <trkpt lat="43.86487" lon="10.2578">
        <ele>2.0</ele>
      </trkpt>
      <trkpt lat="43.86483" lon="10.25785">
        <ele>2.0</ele>
      </trkpt>
      <trkpt lat="43.86482" lon="10.25786">
        <ele>2.0</ele>
      </trkpt>
      <trkpt lat="43.86481" lon="10.25788">
        <ele>2.0</ele>
      </trkpt>
      <trkpt lat="43.86479" lon="10.25789">
        <ele>2.0</ele>
      </trkpt>
      <trkpt lat="43.86469" lon="10.25796">
        <ele>2.0</ele>
      </trkpt>
      <trkpt lat="43.86469" lon="10.25796">
        <ele>2.0</ele>
      </trkpt>
      <trkpt lat="43.86438" lon="10.25816">
        <ele>2.0</ele>
      </trkpt>
      <trkpt lat="43.86406" lon="10.25837">
        <ele>2.0</ele>
      </trkpt>
      <trkpt lat="43.86376" lon="10.25858">
        <ele>2.0</ele>
      </trkpt>
      <trkpt lat="43.86367" lon="10.25865">
        <ele>2.0</ele>
      </trkpt>
      <trkpt lat="43.86337" lon="10.25887">
        <ele>2.0</ele>
      </trkpt>
      <trkpt lat="43.86333" lon="10.25889">
        <ele>2.0</ele>
      </trkpt>
      <trkpt lat="43.8633" lon="10.2589">
        <ele>2.0</ele>
      </trkpt>
      <trkpt lat="43.86327" lon="10.25891">
        <ele>2.0</ele>
      </trkpt>
      <trkpt lat="43.86326" lon="10.25891">
        <ele>2.0</ele>
      </trkpt>
      <trkpt lat="43.86323" lon="10.2589">
        <ele>2.0</ele>
      </trkpt>
      <trkpt lat="43.86322" lon="10.25889">
        <ele>2.0</ele>
      </trkpt>
      <trkpt lat="43.86322" lon="10.25889">
        <ele>2.0</ele>
      </trkpt>
      <trkpt lat="43.86319" lon="10.25884">
        <ele>2.0</ele>
      </trkpt>
      <trkpt lat="43.86317" lon="10.25881">
        <ele>2.0</ele>
      </trkpt>
      <trkpt lat="43.86317" lon="10.2588">
        <ele>2.0</ele>
      </trkpt>
      <trkpt lat="43.86313" lon="10.25871">
        <ele>2.0</ele>
      </trkpt>
      <trkpt lat="43.86306" lon="10.2586">
        <ele>2.0</ele>
      </trkpt>
      <trkpt lat="43.86304" lon="10.25858">
        <ele>2.0</ele>
      </trkpt>
      <trkpt lat="43.86298" lon="10.25853">
        <ele>2.0</ele>
      </trkpt>
      <trkpt lat="43.86297" lon="10.25853">
        <ele>2.0</ele>
      </trkpt>
      <trkpt lat="43.86292" lon="10.25853">
        <ele>2.0</ele>
      </trkpt>
      <trkpt lat="43.86289" lon="10.25852">
        <ele>2.0</ele>
      </trkpt>
      <trkpt lat="43.86287" lon="10.25851">
        <ele>2.0</ele>
      </trkpt>
      <trkpt lat="43.86284" lon="10.25847">
        <ele>2.0</ele>
      </trkpt>
      <trkpt lat="43.86282" lon="10.25844">
        <ele>2.0</ele>
      </trkpt>
      <trkpt lat="43.86277" lon="10.25842">
        <ele>2.0</ele>
      </trkpt>
      <trkpt lat="43.86276" lon="10.25842">
        <ele>2.0</ele>
      </trkpt>
      <trkpt lat="43.86271" lon="10.25841">
        <ele>2.0</ele>
      </trkpt>
      <trkpt lat="43.86263" lon="10.25843">
        <ele>2.0</ele>
      </trkpt>
      <trkpt lat="43.86261" lon="10.25847">
        <ele>3.0</ele>
      </trkpt>
      <trkpt lat="43.8626" lon="10.25849">
        <ele>3.0</ele>
      </trkpt>
      <trkpt lat="43.86259" lon="10.25854">
        <ele>3.0</ele>
      </trkpt>
      <trkpt lat="43.86258" lon="10.25857">
        <ele>3.0</ele>
      </trkpt>
      <trkpt lat="43.86258" lon="10.2586">
        <ele>3.0</ele>
      </trkpt>
      <trkpt lat="43.86264" lon="10.25888">
        <ele>3.0</ele>
      </trkpt>
      <trkpt lat="43.86265" lon="10.25891">
        <ele>3.0</ele>
      </trkpt>
      <trkpt lat="43.86264" lon="10.25894">
        <ele>3.0</ele>
      </trkpt>
      <trkpt lat="43.86264" lon="10.25897">
        <ele>3.0</ele>
      </trkpt>
      <trkpt lat="43.86257" lon="10.25917">
        <ele>3.0</ele>
      </trkpt>
      <trkpt lat="43.86257" lon="10.25917">
        <ele>3.0</ele>
      </trkpt>
      <trkpt lat="43.86253" lon="10.25928">
        <ele>3.0</ele>
      </trkpt>
      <trkpt lat="43.86252" lon="10.2593">
        <ele>4.0</ele>
      </trkpt>
      <trkpt lat="43.86232" lon="10.2593">
        <ele>4.0</ele>
      </trkpt>
      <trkpt lat="43.8622" lon="10.25929">
        <ele>4.0</ele>
      </trkpt>
      <trkpt lat="43.86204" lon="10.25928">
        <ele>4.0</ele>
      </trkpt>
      <trkpt lat="43.862" lon="10.25929">
        <ele>4.0</ele>
      </trkpt>
      <trkpt lat="43.86198" lon="10.25929">
        <ele>4.0</ele>
      </trkpt>
      <trkpt lat="43.86196" lon="10.2593">
        <ele>4.0</ele>
      </trkpt>
      <trkpt lat="43.86194" lon="10.25931">
        <ele>4.0</ele>
      </trkpt>
      <trkpt lat="43.8614" lon="10.25965">
        <ele>4.0</ele>
      </trkpt>
      <trkpt lat="43.86133" lon="10.25968">
        <ele>4.0</ele>
      </trkpt>
      <trkpt lat="43.8613" lon="10.25964">
        <ele>4.0</ele>
      </trkpt>
      <trkpt lat="43.86127" lon="10.2596">
        <ele>4.0</ele>
      </trkpt>
      <trkpt lat="43.86107" lon="10.25932">
        <ele>4.0</ele>
      </trkpt>
      <trkpt lat="43.86106" lon="10.25932">
        <ele>3.0</ele>
      </trkpt>
      <trkpt lat="43.86103" lon="10.25932">
        <ele>3.0</ele>
      </trkpt>
      <trkpt lat="43.86078" lon="10.25945">
        <ele>3.0</ele>
      </trkpt>
      <trkpt lat="43.86073" lon="10.25923">
        <ele>3.0</ele>
      </trkpt>
      <trkpt lat="43.86073" lon="10.25923">
        <ele>3.0</ele>
      </trkpt>
      <trkpt lat="43.8606" lon="10.25871">
        <ele>3.0</ele>
      </trkpt>
      <trkpt lat="43.86038" lon="10.25783">
        <ele>3.0</ele>
      </trkpt>
      <trkpt lat="43.86037" lon="10.25778">
        <ele>3.0</ele>
      </trkpt>
      <trkpt lat="43.86011" lon="10.25674">
        <ele>3.0</ele>
      </trkpt>
      <trkpt lat="43.8601" lon="10.2567">
        <ele>3.0</ele>
      </trkpt>
      <trkpt lat="43.85926" lon="10.25583">
        <ele>4.0</ele>
      </trkpt>
      <trkpt lat="43.85918" lon="10.25587">
        <ele>4.0</ele>
      </trkpt>
      <trkpt lat="43.85893" lon="10.25599">
        <ele>4.0</ele>
      </trkpt>
      <trkpt lat="43.85869" lon="10.2561">
        <ele>4.0</ele>
      </trkpt>
      <trkpt lat="43.85865" lon="10.25612">
        <ele>4.0</ele>
      </trkpt>
      <trkpt lat="43.8582" lon="10.25634">
        <ele>4.0</ele>
      </trkpt>
      <trkpt lat="43.85813" lon="10.25637">
        <ele>4.0</ele>
      </trkpt>
      <trkpt lat="43.8576" lon="10.25662">
        <ele>4.0</ele>
      </trkpt>
      <trkpt lat="43.85715" lon="10.25684">
        <ele>4.0</ele>
      </trkpt>
      <trkpt lat="43.85676" lon="10.25702">
        <ele>4.0</ele>
      </trkpt>
      <trkpt lat="43.85625" lon="10.25725">
        <ele>4.0</ele>
      </trkpt>
      <trkpt lat="43.85576" lon="10.25748">
        <ele>4.0</ele>
      </trkpt>
      <trkpt lat="43.85536" lon="10.25766">
        <ele>4.0</ele>
      </trkpt>
      <trkpt lat="43.85525" lon="10.25771">
        <ele>5.0</ele>
      </trkpt>
      <trkpt lat="43.85433" lon="10.25815">
        <ele>5.0</ele>
      </trkpt>
      <trkpt lat="43.8537" lon="10.25844">
        <ele>6.0</ele>
      </trkpt>
      <trkpt lat="43.85326" lon="10.25865">
        <ele>6.0</ele>
      </trkpt>
      <trkpt lat="43.85277" lon="10.25888">
        <ele>6.0</ele>
      </trkpt>
      <trkpt lat="43.85112" lon="10.25965">
        <ele>5.0</ele>
      </trkpt>
      <trkpt lat="43.85142" lon="10.26046">
        <ele>4.0</ele>
      </trkpt>
      <trkpt lat="43.85146" lon="10.26058">
        <ele>4.0</ele>
      </trkpt>
      <trkpt lat="43.8518" lon="10.2615">
        <ele>4.0</ele>
      </trkpt>
      <trkpt lat="43.8518" lon="10.2615">
        <ele>4.0</ele>
      </trkpt>
      <trkpt lat="43.85193" lon="10.26185">
        <ele>4.0</ele>
      </trkpt>
      <trkpt lat="43.85213" lon="10.26243">
        <ele>4.0</ele>
      </trkpt>
      <trkpt lat="43.85265" lon="10.26379">
        <ele>4.0</ele>
      </trkpt>
      <trkpt lat="43.85272" lon="10.26399">
        <ele>4.0</ele>
      </trkpt>
      <trkpt lat="43.85274" lon="10.26404">
        <ele>4.0</ele>
      </trkpt>
      <trkpt lat="43.85275" lon="10.26408">
        <ele>4.0</ele>
      </trkpt>
      <trkpt lat="43.85277" lon="10.26415">
        <ele>4.0</ele>
      </trkpt>
      <trkpt lat="43.85279" lon="10.26418">
        <ele>4.0</ele>
      </trkpt>
      <trkpt lat="43.8528" lon="10.2642">
        <ele>4.0</ele>
      </trkpt>
      <trkpt lat="43.85271" lon="10.26429">
        <ele>4.0</ele>
      </trkpt>
      <trkpt lat="43.85257" lon="10.2644">
        <ele>4.0</ele>
      </trkpt>
      <trkpt lat="43.8513" lon="10.26513">
        <ele>4.0</ele>
      </trkpt>
      <trkpt lat="43.85106" lon="10.26528">
        <ele>4.0</ele>
      </trkpt>
      <trkpt lat="43.85067" lon="10.2655">
        <ele>4.0</ele>
      </trkpt>
      <trkpt lat="43.84943" lon="10.26622">
        <ele>4.0</ele>
      </trkpt>
      <trkpt lat="43.84826" lon="10.2669">
        <ele>4.0</ele>
      </trkpt>
      <trkpt lat="43.84706" lon="10.2676">
        <ele>4.0</ele>
      </trkpt>
      <trkpt lat="43.84478" lon="10.26894">
        <ele>2.0</ele>
      </trkpt>
      <trkpt lat="43.84437" lon="10.26918">
        <ele>1.0</ele>
      </trkpt>
      <trkpt lat="43.8439" lon="10.26945">
        <ele>1.0</ele>
      </trkpt>
      <trkpt lat="43.84373" lon="10.26955">
        <ele>1.0</ele>
      </trkpt>
      <trkpt lat="43.84351" lon="10.26964">
        <ele>1.0</ele>
      </trkpt>
      <trkpt lat="43.84341" lon="10.26968">
        <ele>1.0</ele>
      </trkpt>
      <trkpt lat="43.84316" lon="10.26981">
        <ele>1.0</ele>
      </trkpt>
      <trkpt lat="43.84286" lon="10.26998">
        <ele>1.0</ele>
      </trkpt>
      <trkpt lat="43.84234" lon="10.27027">
        <ele>2.0</ele>
      </trkpt>
      <trkpt lat="43.84172" lon="10.27062">
        <ele>2.0</ele>
      </trkpt>
      <trkpt lat="43.84084" lon="10.27109">
        <ele>2.0</ele>
      </trkpt>
      <trkpt lat="43.83904" lon="10.27205">
        <ele>2.0</ele>
      </trkpt>
      <trkpt lat="43.83772" lon="10.27275">
        <ele>2.0</ele>
      </trkpt>
      <trkpt lat="43.83671" lon="10.27328">
        <ele>2.0</ele>
      </trkpt>
      <trkpt lat="43.83557" lon="10.27387">
        <ele>1.0</ele>
      </trkpt>
      <trkpt lat="43.83496" lon="10.27419">
      </trkpt>
      <trkpt lat="43.8345" lon="10.27443">
      </trkpt>
      <trkpt lat="43.83448" lon="10.27444">
        <ele>-1.0</ele>
      </trkpt>
      <trkpt lat="43.8338" lon="10.2746">
        <ele>-1.0</ele>
      </trkpt>
      <trkpt lat="43.83337" lon="10.2746">
        <ele>-1.0</ele>
      </trkpt>
      <trkpt lat="43.83269" lon="10.27463">
        <ele>-1.0</ele>
      </trkpt>
      <trkpt lat="43.83258" lon="10.27464">
        <ele>-1.0</ele>
      </trkpt>
      <trkpt lat="43.83224" lon="10.27477">
      </trkpt>
      <trkpt lat="43.83176" lon="10.27503">
      </trkpt>
      <trkpt lat="43.83157" lon="10.27513">
      </trkpt>
      <trkpt lat="43.83024" lon="10.27581">
        <ele>1.0</ele>
      </trkpt>
      <trkpt lat="43.83016" lon="10.27584">
        <ele>1.0</ele>
      </trkpt>
      <trkpt lat="43.82904" lon="10.27641">
        <ele>1.0</ele>
      </trkpt>
      <trkpt lat="43.82876" lon="10.27655">
        <ele>1.0</ele>
      </trkpt>
      <trkpt lat="43.8283" lon="10.27679">
        <ele>1.0</ele>
      </trkpt>
      <trkpt lat="43.82825" lon="10.27681">
        <ele>1.0</ele>
      </trkpt>
      <trkpt lat="43.82773" lon="10.27707">
        <ele>2.0</ele>
      </trkpt>
      <trkpt lat="43.82764" lon="10.27711">
        <ele>2.0</ele>
      </trkpt>
      <trkpt lat="43.826" lon="10.27795">
        <ele>2.0</ele>
      </trkpt>
      <trkpt lat="43.82547" lon="10.27822">
        <ele>2.0</ele>
      </trkpt>
      <trkpt lat="43.82512" lon="10.2784">
        <ele>2.0</ele>
      </trkpt>
      <trkpt lat="43.82457" lon="10.27864">
        <ele>2.0</ele>
      </trkpt>
      <trkpt lat="43.82447" lon="10.27869">
        <ele>2.0</ele>
      </trkpt>
      <trkpt lat="43.82438" lon="10.27874">
        <ele>2.0</ele>
      </trkpt>
      <trkpt lat="43.82433" lon="10.27876">
        <ele>2.0</ele>
      </trkpt>
      <trkpt lat="43.82426" lon="10.2788">
        <ele>2.0</ele>
      </trkpt>
      <trkpt lat="43.82419" lon="10.27883">
        <ele>2.0</ele>
      </trkpt>
      <trkpt lat="43.82418" lon="10.27881">
        <ele>2.0</ele>
      </trkpt>
      <trkpt lat="43.82416" lon="10.27881">
        <ele>2.0</ele>
      </trkpt>
      <trkpt lat="43.82413" lon="10.2788">
        <ele>2.0</ele>
      </trkpt>
      <trkpt lat="43.8241" lon="10.27875">
        <ele>2.0</ele>
      </trkpt>
      <trkpt lat="43.82409" lon="10.27872">
        <ele>2.0</ele>
      </trkpt>
      <trkpt lat="43.82405" lon="10.27867">
        <ele>2.0</ele>
      </trkpt>
      <trkpt lat="43.82376" lon="10.27778">
        <ele>2.0</ele>
      </trkpt>
      <trkpt lat="43.82375" lon="10.27773">
        <ele>2.0</ele>
      </trkpt>
      <trkpt lat="43.82359" lon="10.27722">
        <ele>2.0</ele>
      </trkpt>
      <trkpt lat="43.82338" lon="10.27656">
        <ele>3.0</ele>
      </trkpt>
      <trkpt lat="43.82328" lon="10.27625">
        <ele>3.0</ele>
      </trkpt>
      <trkpt lat="43.8227" lon="10.27444">
        <ele>4.0</ele>
      </trkpt>
      <trkpt lat="43.82263" lon="10.27422">
        <ele>4.0</ele>
      </trkpt>
      <trkpt lat="43.82373" lon="10.27362">
        <ele>4.0</ele>
      </trkpt>
      <trkpt lat="43.82402" lon="10.27347">
        <ele>5.0</ele>
      </trkpt>
      <trkpt lat="43.82402" lon="10.27347">
        <ele>5.0</ele>
      </trkpt>
      <trkpt lat="43.82894" lon="10.27075">
        <ele>6.0</ele>
      </trkpt>
      <trkpt lat="43.83099" lon="10.26962">
        <ele>6.0</ele>
      </trkpt>
      <trkpt lat="43.83202" lon="10.26905">
        <ele>6.0</ele>
      </trkpt>
      <trkpt lat="43.83872" lon="10.26535">
        <ele>7.0</ele>
      </trkpt>
      <trkpt lat="43.84813" lon="10.26017">
        <ele>8.0</ele>
      </trkpt>
      <trkpt lat="43.85073" lon="10.25875">
        <ele>7.0</ele>
      </trkpt>
      <trkpt lat="43.85078" lon="10.25872">
        <ele>6.0</ele>
      </trkpt>
      <trkpt lat="43.85132" lon="10.25842">
        <ele>5.0</ele>
      </trkpt>
      <trkpt lat="43.856" lon="10.25586">
        <ele>8.0</ele>
      </trkpt>
      <trkpt lat="43.85871" lon="10.25436">
        <ele>8.0</ele>
      </trkpt>
      <trkpt lat="43.8588" lon="10.25432">
        <ele>8.0</ele>
      </trkpt>
      <trkpt lat="43.86078" lon="10.25324">
        <ele>11.0</ele>
      </trkpt>
      <trkpt lat="43.86087" lon="10.25318">
        <ele>12.0</ele>
      </trkpt>
      <trkpt lat="43.86099" lon="10.25313">
        <ele>12.0</ele>
      </trkpt>
      <trkpt lat="43.86327" lon="10.25187">
        <ele>11.0</ele>
      </trkpt>
      <trkpt lat="43.8637" lon="10.25288">
        <ele>8.0</ele>
      </trkpt>
      <trkpt lat="43.86388" lon="10.2535">
        <ele>7.0</ele>
      </trkpt>
      <trkpt lat="43.86391" lon="10.25354">
        <ele>6.0</ele>
      </trkpt>
      <trkpt lat="43.86392" lon="10.25356">
        <ele>5.0</ele>
      </trkpt>
      <trkpt lat="43.86396" lon="10.25359">
        <ele>4.0</ele>
      </trkpt>
      <trkpt lat="43.86398" lon="10.2536">
        <ele>4.0</ele>
      </trkpt>
      <trkpt lat="43.864" lon="10.25361">
        <ele>4.0</ele>
      </trkpt>
      <trkpt lat="43.86415" lon="10.25355">
        <ele>4.0</ele>
      </trkpt>
      <trkpt lat="43.86453" lon="10.25338">
        <ele>3.0</ele>
      </trkpt>
      <trkpt lat="43.86459" lon="10.25336">
        <ele>3.0</ele>
      </trkpt>
      <trkpt lat="43.86503" lon="10.25315">
        <ele>3.0</ele>
      </trkpt>
      <trkpt lat="43.86513" lon="10.25311">
        <ele>2.0</ele>
      </trkpt>
      <trkpt lat="43.86544" lon="10.25419">
        <ele>2.0</ele>
      </trkpt>
      <trkpt lat="43.86546" lon="10.25424">
        <ele>2.0</ele>
      </trkpt>
      <trkpt lat="43.86554" lon="10.25453">
        <ele>2.0</ele>
      </trkpt>
      <trkpt lat="43.86558" lon="10.25466">
        <ele>2.0</ele>
      </trkpt>
      <trkpt lat="43.86559" lon="10.2547">
        <ele>2.0</ele>
      </trkpt>
      <trkpt lat="43.86566" lon="10.25486">
        <ele>2.0</ele>
      </trkpt>
      <trkpt lat="43.86572" lon="10.25499">
        <ele>1.0</ele>
      </trkpt>
      <trkpt lat="43.86575" lon="10.25502">
        <ele>1.0</ele>
      </trkpt>
      <trkpt lat="43.86578" lon="10.25507">
        <ele>1.0</ele>
      </trkpt>
      <trkpt lat="43.8658" lon="10.2551">
        <ele>1.0</ele>
      </trkpt>
      <trkpt lat="43.86595" lon="10.25516">
        <ele>1.0</ele>
      </trkpt>
      <trkpt lat="43.86603" lon="10.25519">
        <ele>1.0</ele>
      </trkpt>
      <trkpt lat="43.86606" lon="10.25521">
        <ele>1.0</ele>
      </trkpt>
      <trkpt lat="43.86609" lon="10.25523">
        <ele>1.0</ele>
      </trkpt>
      <trkpt lat="43.86611" lon="10.25525">
        <ele>1.0</ele>
      </trkpt>
      <trkpt lat="43.86612" lon="10.25526">
        <ele>1.0</ele>
      </trkpt>
      <trkpt lat="43.86613" lon="10.25527">
        <ele>1.0</ele>
      </trkpt>
      <trkpt lat="43.86614" lon="10.25533">
        <ele>1.0</ele>
      </trkpt>
      <trkpt lat="43.86616" lon="10.25537">
        <ele>1.0</ele>
      </trkpt>
      <trkpt lat="43.86617" lon="10.2554">
        <ele>1.0</ele>
      </trkpt>
      <trkpt lat="43.86618" lon="10.25541">
        <ele>1.0</ele>
      </trkpt>
      <trkpt lat="43.86622" lon="10.25546">
        <ele>1.0</ele>
      </trkpt>
      <trkpt lat="43.86625" lon="10.25551">
        <ele>1.0</ele>
      </trkpt>
      <trkpt lat="43.86627" lon="10.25553">
        <ele>1.0</ele>
      </trkpt>
      <trkpt lat="43.86628" lon="10.25555">
        <ele>1.0</ele>
      </trkpt>
      <trkpt lat="43.86632" lon="10.25562">
        <ele>1.0</ele>
      </trkpt>
      <trkpt lat="43.86633" lon="10.25566">
        <ele>1.0</ele>
      </trkpt>
      <trkpt lat="43.86635" lon="10.25568">
        <ele>1.0</ele>
      </trkpt>
      <trkpt lat="43.86654" lon="10.2561">
        <ele>1.0</ele>
      </trkpt>
      <trkpt lat="43.86668" lon="10.25644">
        <ele>1.0</ele>
      </trkpt>
      <trkpt lat="43.86672" lon="10.25653">
        <ele>1.0</ele>
      </trkpt>
      <trkpt lat="43.86673" lon="10.25656">
        <ele>1.0</ele>
      </trkpt>
      <trkpt lat="43.8668" lon="10.25666">
        <ele>1.0</ele>
      </trkpt>
      <trkpt lat="43.86682" lon="10.25667">
        <ele>1.0</ele>
      </trkpt>
      <trkpt lat="43.86683" lon="10.25669">
        <ele>1.0</ele>
      </trkpt>
      <trkpt lat="43.86685" lon="10.2567">
        <ele>1.0</ele>
      </trkpt>
      <trkpt lat="43.86738" lon="10.25643">
        <ele>1.0</ele>
      </trkpt>
      <trkpt lat="43.86744" lon="10.25641">
        <ele>1.0</ele>
      </trkpt>
      <trkpt lat="43.86752" lon="10.25637">
        <ele>2.0</ele>
      </trkpt>
      <trkpt lat="43.86787" lon="10.25619">
        <ele>2.0</ele>
      </trkpt>
      <trkpt lat="43.86801" lon="10.2561">
        <ele>2.0</ele>
      </trkpt>
      <trkpt lat="43.86806" lon="10.25606">
        <ele>2.0</ele>
      </trkpt>
      <trkpt lat="43.86812" lon="10.25602">
        <ele>3.0</ele>
      </trkpt>
      <trkpt lat="43.86842" lon="10.25572">
        <ele>3.0</ele>
      </trkpt>
      <trkpt lat="43.8684" lon="10.25567">
        <ele>3.0</ele>
      </trkpt>
      <trkpt lat="43.86832" lon="10.25548">
        <ele>3.0</ele>
      </trkpt>
      <trkpt lat="43.86831" lon="10.25544">
        <ele>3.0</ele>
      </trkpt>
      <trkpt lat="43.86829" lon="10.25535">
        <ele>3.0</ele>
      </trkpt>
      <trkpt lat="43.86795" lon="10.25427">
        <ele>3.0</ele>
      </trkpt>
      <trkpt lat="43.86759" lon="10.25312">
        <ele>3.0</ele>
      </trkpt>
      <trkpt lat="43.86759" lon="10.25311">
        <ele>3.0</ele>
      </trkpt>
      <trkpt lat="43.86759" lon="10.25311">
        <ele>3.0</ele>
      </trkpt>
      <trkpt lat="43.86759" lon="10.25309">
        <ele>3.0</ele>
      </trkpt>
      <trkpt lat="43.86759" lon="10.25309">
        <ele>3.0</ele>
      </trkpt>
      <trkpt lat="43.86761" lon="10.25305">
        <ele>3.0</ele>
      </trkpt>
      <trkpt lat="43.86762" lon="10.25303">
        <ele>3.0</ele>
      </trkpt>
      <trkpt lat="43.86762" lon="10.25301">
        <ele>3.0</ele>
      </trkpt>
      <trkpt lat="43.86762" lon="10.25299">
        <ele>3.0</ele>
      </trkpt>
      <trkpt lat="43.86761" lon="10.25287">
        <ele>3.0</ele>
      </trkpt>
      <trkpt lat="43.86757" lon="10.25276">
        <ele>3.0</ele>
      </trkpt>
      <trkpt lat="43.86754" lon="10.25266">
        <ele>3.0</ele>
      </trkpt>
      <trkpt lat="43.8673" lon="10.25197">
        <ele>3.0</ele>
      </trkpt>
      <trkpt lat="43.8673" lon="10.25197">
        <ele>3.0</ele>
      </trkpt>
      <trkpt lat="43.86723" lon="10.25176">
        <ele>3.0</ele>
      </trkpt>
      <trkpt lat="43.86722" lon="10.25171">
        <ele>3.0</ele>
      </trkpt>
      <trkpt lat="43.86718" lon="10.2516">
        <ele>3.0</ele>
      </trkpt>
      <trkpt lat="43.86689" lon="10.25066">
        <ele>3.0</ele>
      </trkpt>
      <trkpt lat="43.86686" lon="10.25055">
        <ele>3.0</ele>
      </trkpt>
      <trkpt lat="43.86684" lon="10.25049">
        <ele>3.0</ele>
      </trkpt>
      <trkpt lat="43.86666" lon="10.24986">
        <ele>3.0</ele>
      </trkpt>
      <trkpt lat="43.86655" lon="10.24951">
        <ele>3.0</ele>
      </trkpt>
      <trkpt lat="43.86652" lon="10.24943">
        <ele>3.0</ele>
      </trkpt>
      <trkpt lat="43.86617" lon="10.24834">
        <ele>3.0</ele>
      </trkpt>
      <trkpt lat="43.86599" lon="10.24777">
        <ele>3.0</ele>
      </trkpt>
      <trkpt lat="43.86598" lon="10.24772">
        <ele>3.0</ele>
      </trkpt>
      <trkpt lat="43.86596" lon="10.24766">
        <ele>3.0</ele>
      </trkpt>
      <trkpt lat="43.86577" lon="10.24704">
        <ele>3.0</ele>
      </trkpt>
      <trkpt lat="43.86575" lon="10.24699">
        <ele>3.0</ele>
      </trkpt>
      <trkpt lat="43.86567" lon="10.24666">
        <ele>3.0</ele>
      </trkpt>
      <trkpt lat="43.86566" lon="10.24662">
        <ele>3.0</ele>
      </trkpt>
      <trkpt lat="43.86566" lon="10.24661">
        <ele>3.0</ele>
      </trkpt>
      <trkpt lat="43.86544" lon="10.24591">
        <ele>3.0</ele>
      </trkpt>
      <trkpt lat="43.86544" lon="10.24591">
        <ele>3.0</ele>
      </trkpt>
      <trkpt lat="43.86519" lon="10.24486">
        <ele>2.0</ele>
      </trkpt>
      <trkpt lat="43.86519" lon="10.24483">
        <ele>2.0</ele>
      </trkpt>
      <trkpt lat="43.86519" lon="10.2448">
        <ele>2.0</ele>
      </trkpt>
      <trkpt lat="43.86519" lon="10.24478">
        <ele>2.0</ele>
      </trkpt>
      <trkpt lat="43.86523" lon="10.24474">
        <ele>2.0</ele>
      </trkpt>
      <trkpt lat="43.86526" lon="10.24472">
        <ele>2.0</ele>
      </trkpt>
      <trkpt lat="43.86557" lon="10.24451">
        <ele>2.0</ele>
      </trkpt>
      <trkpt lat="43.86561" lon="10.24448">
        <ele>2.0</ele>
      </trkpt>
      <trkpt lat="43.86577" lon="10.2444">
        <ele>2.0</ele>
      </trkpt>
      <trkpt lat="43.8658" lon="10.24439">
        <ele>2.0</ele>
      </trkpt>
      <trkpt lat="43.86583" lon="10.24439">
        <ele>2.0</ele>
      </trkpt>
      <trkpt lat="43.86617" lon="10.24419">
        <ele>2.0</ele>
      </trkpt>
      <trkpt lat="43.86654" lon="10.24398">
        <ele>2.0</ele>
      </trkpt>
      <trkpt lat="43.86654" lon="10.24398">
        <ele>2.0</ele>
      </trkpt>
      <trkpt lat="43.86656" lon="10.24396">
        <ele>2.0</ele>
      </trkpt>
      <trkpt lat="43.86667" lon="10.2439">
        <ele>2.0</ele>
      </trkpt>
      <trkpt lat="43.86708" lon="10.24366">
        <ele>2.0</ele>
      </trkpt>
      <trkpt lat="43.86717" lon="10.24361">
        <ele>3.0</ele>
      </trkpt>
      <trkpt lat="43.86723" lon="10.24357">
        <ele>3.0</ele>
      </trkpt>
      <trkpt lat="43.86762" lon="10.24335">
        <ele>3.0</ele>
      </trkpt>
      <trkpt lat="43.86793" lon="10.24316">
        <ele>4.0</ele>
      </trkpt>
      <trkpt lat="43.86828" lon="10.24296">
        <ele>4.0</ele>
      </trkpt>
      <trkpt lat="43.86839" lon="10.2429">
        <ele>4.0</ele>
      </trkpt>
      <trkpt lat="43.86884" lon="10.24263">
        <ele>4.0</ele>
      </trkpt>
      <trkpt lat="43.86889" lon="10.2426">
        <ele>4.0</ele>
      </trkpt>
      <trkpt lat="43.86896" lon="10.24257">
        <ele>3.0</ele>
      </trkpt>
      <trkpt lat="43.86945" lon="10.24227">
        <ele>3.0</ele>
      </trkpt>
      <trkpt lat="43.86949" lon="10.24225">
        <ele>3.0</ele>
      </trkpt>
      <trkpt lat="43.8701" lon="10.24189">
        <ele>2.0</ele>
      </trkpt>
      <trkpt lat="43.87016" lon="10.24185">
        <ele>2.0</ele>
      </trkpt>
      <trkpt lat="43.87045" lon="10.24169">
        <ele>2.0</ele>
      </trkpt>
      <trkpt lat="43.8707" lon="10.24155">
        <ele>2.0</ele>
      </trkpt>
      <trkpt lat="43.87085" lon="10.24146">
        <ele>2.0</ele>
      </trkpt>
      <trkpt lat="43.871" lon="10.24137">
        <ele>3.0</ele>
      </trkpt>
      <trkpt lat="43.87105" lon="10.24134">
        <ele>3.0</ele>
      </trkpt>
      <trkpt lat="43.8715" lon="10.24107">
        <ele>3.0</ele>
      </trkpt>
      <trkpt lat="43.87189" lon="10.24085">
        <ele>4.0</ele>
      </trkpt>
      <trkpt lat="43.87202" lon="10.24077">
        <ele>4.0</ele>
      </trkpt>
      <trkpt lat="43.8728" lon="10.24032">
        <ele>4.0</ele>
      </trkpt>
      <trkpt lat="43.87284" lon="10.24029">
        <ele>5.0</ele>
      </trkpt>
      <trkpt lat="43.87289" lon="10.24026">
        <ele>5.0</ele>
      </trkpt>
      <trkpt lat="43.87369" lon="10.23979">
        <ele>5.0</ele>
      </trkpt>
      <trkpt lat="43.87375" lon="10.23976">
        <ele>5.0</ele>
      </trkpt>
      <trkpt lat="43.87381" lon="10.23972">
        <ele>5.0</ele>
      </trkpt>
      <trkpt lat="43.87465" lon="10.23923">
        <ele>5.0</ele>
      </trkpt>
      <trkpt lat="43.8747" lon="10.2392">
        <ele>5.0</ele>
      </trkpt>
      <trkpt lat="43.87549" lon="10.23874">
        <ele>5.0</ele>
      </trkpt>
      <trkpt lat="43.87554" lon="10.2387">
        <ele>5.0</ele>
      </trkpt>
      <trkpt lat="43.87638" lon="10.23821">
        <ele>5.0</ele>
      </trkpt>
      <trkpt lat="43.87643" lon="10.23818">
        <ele>5.0</ele>
      </trkpt>
      <trkpt lat="43.87649" lon="10.23815">
        <ele>5.0</ele>
      </trkpt>
      <trkpt lat="43.87726" lon="10.2377">
        <ele>5.0</ele>
      </trkpt>
      <trkpt lat="43.87739" lon="10.23762">
        <ele>5.0</ele>
      </trkpt>
      <trkpt lat="43.87791" lon="10.23732">
        <ele>5.0</ele>
      </trkpt>
      <trkpt lat="43.87818" lon="10.23716">
        <ele>5.0</ele>
      </trkpt>
      <trkpt lat="43.87827" lon="10.2371">
        <ele>5.0</ele>
      </trkpt>
      <trkpt lat="43.87905" lon="10.23665">
        <ele>5.0</ele>
      </trkpt>
      <trkpt lat="43.87912" lon="10.2366">
        <ele>4.0</ele>
      </trkpt>
      <trkpt lat="43.87919" lon="10.23656">
        <ele>4.0</ele>
      </trkpt>
      <trkpt lat="43.88001" lon="10.23608">
        <ele>4.0</ele>
      </trkpt>
      <trkpt lat="43.88009" lon="10.23603">
        <ele>3.0</ele>
      </trkpt>
      <trkpt lat="43.88082" lon="10.23559">
        <ele>3.0</ele>
      </trkpt>
      <trkpt lat="43.8809" lon="10.23555">
        <ele>2.0</ele>
      </trkpt>
      <trkpt lat="43.88124" lon="10.23536">
        <ele>2.0</ele>
      </trkpt>
      <trkpt lat="43.88129" lon="10.23532">
        <ele>2.0</ele>
      </trkpt>
      <trkpt lat="43.88186" lon="10.23498">
        <ele>2.0</ele>
      </trkpt>
      <trkpt lat="43.88219" lon="10.23479">
        <ele>2.0</ele>
      </trkpt>
      <trkpt lat="43.8823" lon="10.23472">
        <ele>2.0</ele>
      </trkpt>
      <trkpt lat="43.8829" lon="10.23436">
        <ele>2.0</ele>
      </trkpt>
      <trkpt lat="43.88323" lon="10.23416">
        <ele>1.0</ele>
      </trkpt>
      <trkpt lat="43.88343" lon="10.23403">
        <ele>1.0</ele>
      </trkpt>
      <trkpt lat="43.88346" lon="10.23401">
        <ele>1.0</ele>
      </trkpt>
      <trkpt lat="43.88361" lon="10.23392">
        <ele>1.0</ele>
      </trkpt>
      <trkpt lat="43.88423" lon="10.23352">
        <ele>1.0</ele>
      </trkpt>
      <trkpt lat="43.88451" lon="10.23334">
        <ele>1.0</ele>
      </trkpt>
      <trkpt lat="43.88465" lon="10.23324">
        <ele>1.0</ele>
      </trkpt>
      <trkpt lat="43.8849" lon="10.23307">
        <ele>1.0</ele>
      </trkpt>
      <trkpt lat="43.88567" lon="10.23255">
        <ele>1.0</ele>
      </trkpt>
      <trkpt lat="43.88572" lon="10.23252">
        <ele>1.0</ele>
      </trkpt>
      <trkpt lat="43.88575" lon="10.2325">
        <ele>2.0</ele>
      </trkpt>
      <trkpt lat="43.88581" lon="10.23246">
        <ele>2.0</ele>
      </trkpt>
      <trkpt lat="43.88638" lon="10.23205">
        <ele>2.0</ele>
      </trkpt>
      <trkpt lat="43.88648" lon="10.23197">
        <ele>2.0</ele>
      </trkpt>
      <trkpt lat="43.8867" lon="10.23182">
        <ele>2.0</ele>
      </trkpt>
      <trkpt lat="43.88672" lon="10.2318">
        <ele>2.0</ele>
      </trkpt>
      <trkpt lat="43.8873" lon="10.23137">
        <ele>2.0</ele>
      </trkpt>
      <trkpt lat="43.88773" lon="10.23105">
        <ele>2.0</ele>
      </trkpt>
      <trkpt lat="43.88781" lon="10.23099">
        <ele>2.0</ele>
      </trkpt>
      <trkpt lat="43.88805" lon="10.2308">
        <ele>2.0</ele>
      </trkpt>
      <trkpt lat="43.88861" lon="10.23037">
        <ele>3.0</ele>
      </trkpt>
      <trkpt lat="43.88866" lon="10.23034">
        <ele>3.0</ele>
      </trkpt>
      <trkpt lat="43.88871" lon="10.2303">
        <ele>3.0</ele>
      </trkpt>
      <trkpt lat="43.88886" lon="10.23019">
        <ele>3.0</ele>
      </trkpt>
      <trkpt lat="43.88913" lon="10.22999">
        <ele>3.0</ele>
      </trkpt>
      <trkpt lat="43.88925" lon="10.22989">
        <ele>3.0</ele>
      </trkpt>
      <trkpt lat="43.8895" lon="10.22971">
        <ele>3.0</ele>
      </trkpt>
      <trkpt lat="43.88984" lon="10.22945">
        <ele>3.0</ele>
      </trkpt>
      <trkpt lat="43.88991" lon="10.2294">
        <ele>3.0</ele>
      </trkpt>
      <trkpt lat="43.89015" lon="10.22921">
        <ele>3.0</ele>
      </trkpt>
      <trkpt lat="43.89089" lon="10.22865">
        <ele>3.0</ele>
      </trkpt>
      <trkpt lat="43.89105" lon="10.22853">
        <ele>3.0</ele>
      </trkpt>
      <trkpt lat="43.89137" lon="10.22829">
        <ele>3.0</ele>
      </trkpt>
      <trkpt lat="43.89142" lon="10.22825">
        <ele>3.0</ele>
      </trkpt>
      <trkpt lat="43.89195" lon="10.22784">
        <ele>3.0</ele>
      </trkpt>
      <trkpt lat="43.89255" lon="10.22738">
        <ele>3.0</ele>
      </trkpt>
      <trkpt lat="43.8926" lon="10.22734">
        <ele>3.0</ele>
      </trkpt>
      <trkpt lat="43.89267" lon="10.22729">
        <ele>3.0</ele>
      </trkpt>
      <trkpt lat="43.89346" lon="10.22669">
        <ele>3.0</ele>
      </trkpt>
      <trkpt lat="43.89372" lon="10.22649">
        <ele>3.0</ele>
      </trkpt>
      <trkpt lat="43.89393" lon="10.22634">
        <ele>3.0</ele>
      </trkpt>
      <trkpt lat="43.89487" lon="10.22563">
        <ele>3.0</ele>
      </trkpt>
      <trkpt lat="43.89492" lon="10.22559">
        <ele>3.0</ele>
      </trkpt>
      <trkpt lat="43.89498" lon="10.22555">
        <ele>3.0</ele>
      </trkpt>
      <trkpt lat="43.89568" lon="10.225">
        <ele>4.0</ele>
      </trkpt>
      <trkpt lat="43.89606" lon="10.22471">
        <ele>4.0</ele>
      </trkpt>
      <trkpt lat="43.89611" lon="10.22466">
        <ele>4.0</ele>
      </trkpt>
      <trkpt lat="43.89615" lon="10.22463">
        <ele>4.0</ele>
      </trkpt>
      <trkpt lat="43.89642" lon="10.22442">
        <ele>5.0</ele>
      </trkpt>
      <trkpt lat="43.89709" lon="10.22392">
        <ele>5.0</ele>
      </trkpt>
      <trkpt lat="43.89712" lon="10.2239">
        <ele>5.0</ele>
      </trkpt>
      <trkpt lat="43.89714" lon="10.22388">
        <ele>5.0</ele>
      </trkpt>
      <trkpt lat="43.89768" lon="10.2235">
        <ele>5.0</ele>
      </trkpt>
      <trkpt lat="43.89819" lon="10.2231">
        <ele>5.0</ele>
      </trkpt>
      <trkpt lat="43.89825" lon="10.22305">
        <ele>5.0</ele>
      </trkpt>
      <trkpt lat="43.89831" lon="10.223">
        <ele>4.0</ele>
      </trkpt>
      <trkpt lat="43.89898" lon="10.22247">
        <ele>4.0</ele>
      </trkpt>
      <trkpt lat="43.89933" lon="10.2222">
        <ele>4.0</ele>
      </trkpt>
      <trkpt lat="43.8994" lon="10.22215">
        <ele>3.0</ele>
      </trkpt>
      <trkpt lat="43.89946" lon="10.2221">
        <ele>3.0</ele>
      </trkpt>
      <trkpt lat="43.90055" lon="10.22128">
        <ele>2.0</ele>
      </trkpt>
      <trkpt lat="43.9006" lon="10.22124">
        <ele>1.0</ele>
      </trkpt>
      <trkpt lat="43.901" lon="10.22093">
        <ele>1.0</ele>
      </trkpt>
      <trkpt lat="43.90119" lon="10.22075">
        <ele>1.0</ele>
      </trkpt>
      <trkpt lat="43.90122" lon="10.22071">
        <ele>1.0</ele>
      </trkpt>
      <trkpt lat="43.90144" lon="10.22029">
        <ele>1.0</ele>
      </trkpt>
      <trkpt lat="43.9015" lon="10.22016">
        <ele>1.0</ele>
      </trkpt>
      <trkpt lat="43.90178" lon="10.21961">
        <ele>1.0</ele>
      </trkpt>
      <trkpt lat="43.90197" lon="10.2193">
        <ele>1.0</ele>
      </trkpt>
      <trkpt lat="43.90214" lon="10.21909">
        <ele>1.0</ele>
      </trkpt>
      <trkpt lat="43.90222" lon="10.21903">
        <ele>1.0</ele>
      </trkpt>
      <trkpt lat="43.90252" lon="10.2188">
        <ele>1.0</ele>
      </trkpt>
      <trkpt lat="43.90278" lon="10.21861">
        <ele>1.0</ele>
      </trkpt>
      <trkpt lat="43.90307" lon="10.2184">
        <ele>1.0</ele>
      </trkpt>
      <trkpt lat="43.90438" lon="10.21741">
        <ele>1.0</ele>
      </trkpt>
      <trkpt lat="43.90443" lon="10.21737">
        <ele>1.0</ele>
      </trkpt>
      <trkpt lat="43.9051" lon="10.21687">
        <ele>1.0</ele>
      </trkpt>
      <trkpt lat="43.90539" lon="10.21665">
        <ele>1.0</ele>
      </trkpt>
      <trkpt lat="43.90554" lon="10.21654">
        <ele>2.0</ele>
      </trkpt>
      <trkpt lat="43.9057" lon="10.21642">
        <ele>2.0</ele>
      </trkpt>
      <trkpt lat="43.90599" lon="10.2162">
        <ele>2.0</ele>
      </trkpt>
      <trkpt lat="43.90671" lon="10.21567">
        <ele>2.0</ele>
      </trkpt>
      <trkpt lat="43.90702" lon="10.21544">
        <ele>2.0</ele>
      </trkpt>
      <trkpt lat="43.90714" lon="10.21534">
        <ele>2.0</ele>
      </trkpt>
      <trkpt lat="43.90718" lon="10.21531">
        <ele>2.0</ele>
      </trkpt>
      <trkpt lat="43.90784" lon="10.21482">
        <ele>2.0</ele>
      </trkpt>
      <trkpt lat="43.9081" lon="10.21462">
        <ele>2.0</ele>
      </trkpt>
      <trkpt lat="43.90898" lon="10.21396">
        <ele>2.0</ele>
      </trkpt>
      <trkpt lat="43.90956" lon="10.21353">
        <ele>2.0</ele>
      </trkpt>
      <trkpt lat="43.91147" lon="10.21212">
        <ele>2.0</ele>
      </trkpt>
      <trkpt lat="43.91152" lon="10.21208">
        <ele>2.0</ele>
      </trkpt>
      <trkpt lat="43.91208" lon="10.2117">
        <ele>2.0</ele>
      </trkpt>
      <trkpt lat="43.91283" lon="10.21117">
        <ele>2.0</ele>
      </trkpt>
      <trkpt lat="43.9134" lon="10.21076">
        <ele>2.0</ele>
      </trkpt>
      <trkpt lat="43.91358" lon="10.21062">
        <ele>2.0</ele>
      </trkpt>
      <trkpt lat="43.91377" lon="10.21049">
        <ele>2.0</ele>
      </trkpt>
      <trkpt lat="43.91425" lon="10.21015">
        <ele>2.0</ele>
      </trkpt>
      <trkpt lat="43.91468" lon="10.20982">
        <ele>2.0</ele>
      </trkpt>
      <trkpt lat="43.91513" lon="10.2095">
        <ele>2.0</ele>
      </trkpt>
      <trkpt lat="43.9153" lon="10.20938">
        <ele>2.0</ele>
      </trkpt>
      <trkpt lat="43.91557" lon="10.20917">
        <ele>2.0</ele>
      </trkpt>
      <trkpt lat="43.91561" lon="10.20913">
        <ele>2.0</ele>
      </trkpt>
      <trkpt lat="43.91586" lon="10.20893">
        <ele>2.0</ele>
      </trkpt>
      <trkpt lat="43.91619" lon="10.20865">
        <ele>2.0</ele>
      </trkpt>
      <trkpt lat="43.91661" lon="10.20829">
        <ele>2.0</ele>
      </trkpt>
      <trkpt lat="43.91677" lon="10.20815">
        <ele>2.0</ele>
      </trkpt>
      <trkpt lat="43.9169" lon="10.20804">
        <ele>2.0</ele>
      </trkpt>
      <trkpt lat="43.91709" lon="10.20787">
        <ele>2.0</ele>
      </trkpt>
      <trkpt lat="43.91727" lon="10.20771">
        <ele>2.0</ele>
      </trkpt>
      <trkpt lat="43.91731" lon="10.20768">
        <ele>2.0</ele>
      </trkpt>
      <trkpt lat="43.91752" lon="10.20749">
        <ele>2.0</ele>
      </trkpt>
      <trkpt lat="43.91803" lon="10.20704">
        <ele>2.0</ele>
      </trkpt>
      <trkpt lat="43.91813" lon="10.20695">
        <ele>2.0</ele>
      </trkpt>
      <trkpt lat="43.91816" lon="10.20693">
        <ele>2.0</ele>
      </trkpt>
      <trkpt lat="43.9185" lon="10.20663">
        <ele>3.0</ele>
      </trkpt>
      <trkpt lat="43.9187" lon="10.20645">
        <ele>3.0</ele>
      </trkpt>
      <trkpt lat="43.91874" lon="10.20641">
        <ele>3.0</ele>
      </trkpt>
      <trkpt lat="43.91887" lon="10.20631">
        <ele>3.0</ele>
      </trkpt>
      <trkpt lat="43.91941" lon="10.20581">
        <ele>3.0</ele>
      </trkpt>
      <trkpt lat="43.91949" lon="10.20573">
        <ele>3.0</ele>
      </trkpt>
      <trkpt lat="43.91952" lon="10.2057">
        <ele>3.0</ele>
      </trkpt>
      <trkpt lat="43.91961" lon="10.20562">
        <ele>3.0</ele>
      </trkpt>
      <trkpt lat="43.91989" lon="10.20538">
        <ele>3.0</ele>
      </trkpt>
      <trkpt lat="43.91996" lon="10.20533">
        <ele>3.0</ele>
      </trkpt>
      <trkpt lat="43.92016" lon="10.20516">
        <ele>3.0</ele>
      </trkpt>
      <trkpt lat="43.92052" lon="10.20484">
        <ele>3.0</ele>
      </trkpt>
      <trkpt lat="43.92064" lon="10.20474">
        <ele>3.0</ele>
      </trkpt>
      <trkpt lat="43.92079" lon="10.20461">
        <ele>2.0</ele>
      </trkpt>
      <trkpt lat="43.921" lon="10.20443">
        <ele>2.0</ele>
      </trkpt>
      <trkpt lat="43.92125" lon="10.20421">
        <ele>1.0</ele>
      </trkpt>
      <trkpt lat="43.92134" lon="10.20413">
        <ele>1.0</ele>
      </trkpt>
      <trkpt lat="43.92146" lon="10.20403">
        <ele>1.0</ele>
      </trkpt>
      <trkpt lat="43.9216" lon="10.2039">
        <ele>1.0</ele>
      </trkpt>
      <trkpt lat="43.92169" lon="10.20383">
        <ele>1.0</ele>
      </trkpt>
      <trkpt lat="43.92176" lon="10.20377">
        <ele>1.0</ele>
      </trkpt>
      <trkpt lat="43.92182" lon="10.20372">
        <ele>1.0</ele>
      </trkpt>
      <trkpt lat="43.92209" lon="10.20348">
        <ele>1.0</ele>
      </trkpt>
      <trkpt lat="43.92225" lon="10.20334">
        <ele>1.0</ele>
      </trkpt>
      <trkpt lat="43.92234" lon="10.20326">
        <ele>1.0</ele>
      </trkpt>
      <trkpt lat="43.92273" lon="10.20292">
        <ele>1.0</ele>
      </trkpt>
      <trkpt lat="43.92281" lon="10.20284">
        <ele>1.0</ele>
      </trkpt>
      <trkpt lat="43.92299" lon="10.2027">
        <ele>1.0</ele>
      </trkpt>
      <trkpt lat="43.92307" lon="10.20262">
        <ele>1.0</ele>
      </trkpt>
      <trkpt lat="43.9232" lon="10.20251">
        <ele>1.0</ele>
      </trkpt>
      <trkpt lat="43.92368" lon="10.20211">
        <ele>1.0</ele>
      </trkpt>
      <trkpt lat="43.92402" lon="10.20186">
        <ele>1.0</ele>
      </trkpt>
      <trkpt lat="43.92445" lon="10.20151">
        <ele>1.0</ele>
      </trkpt>
      <trkpt lat="43.9251" lon="10.20092">
        <ele>1.0</ele>
      </trkpt>
      <trkpt lat="43.92563" lon="10.20045">
        <ele>1.0</ele>
      </trkpt>
      <trkpt lat="43.92567" lon="10.20041">
        <ele>1.0</ele>
      </trkpt>
      <trkpt lat="43.92588" lon="10.20022">
        <ele>1.0</ele>
      </trkpt>
      <trkpt lat="43.92622" lon="10.19994">
        <ele>1.0</ele>
      </trkpt>
      <trkpt lat="43.92651" lon="10.19969">
      </trkpt>
      <trkpt lat="43.92656" lon="10.19965">
      </trkpt>
      <trkpt lat="43.92678" lon="10.19943">
      </trkpt>
      <trkpt lat="43.92691" lon="10.19931">
      </trkpt>
      <trkpt lat="43.92716" lon="10.19908">
      </trkpt>
      <trkpt lat="43.9272" lon="10.19904">
      </trkpt>
      <trkpt lat="43.92747" lon="10.19877">
        <ele>1.0</ele>
      </trkpt>
      <trkpt lat="43.92749" lon="10.19875">
        <ele>1.0</ele>
      </trkpt>
      <trkpt lat="43.92795" lon="10.19833">
        <ele>2.0</ele>
      </trkpt>
      <trkpt lat="43.928" lon="10.19829">
        <ele>2.0</ele>
      </trkpt>
      <trkpt lat="43.92807" lon="10.19821">
        <ele>3.0</ele>
      </trkpt>
      <trkpt lat="43.92819" lon="10.19806">
        <ele>3.0</ele>
      </trkpt>
      <trkpt lat="43.92839" lon="10.19787">
        <ele>4.0</ele>
      </trkpt>
      <trkpt lat="43.92852" lon="10.19776">
        <ele>4.0</ele>
      </trkpt>
      <trkpt lat="43.92855" lon="10.19782">
        <ele>4.0</ele>
      </trkpt>
      <trkpt lat="43.92852" lon="10.19776">
        <ele>4.0</ele>
      </trkpt>
      <trkpt lat="43.92858" lon="10.1977">
        <ele>4.0</ele>
      </trkpt>
      <trkpt lat="43.92888" lon="10.19743">
        <ele>4.0</ele>
      </trkpt>
      <trkpt lat="43.92894" lon="10.19738">
        <ele>4.0</ele>
      </trkpt>
      <trkpt lat="43.92906" lon="10.19727">
        <ele>4.0</ele>
      </trkpt>
      <trkpt lat="43.92926" lon="10.19709">
        <ele>4.0</ele>
      </trkpt>
      <trkpt lat="43.9295" lon="10.19688">
        <ele>4.0</ele>
      </trkpt>
      <trkpt lat="43.92962" lon="10.19677">
        <ele>4.0</ele>
      </trkpt>
      <trkpt lat="43.92976" lon="10.19664">
        <ele>4.0</ele>
      </trkpt>
      <trkpt lat="43.92982" lon="10.19659">
        <ele>4.0</ele>
      </trkpt>
      <trkpt lat="43.93025" lon="10.19618">
        <ele>4.0</ele>
      </trkpt>
      <trkpt lat="43.93068" lon="10.19579">
        <ele>4.0</ele>
      </trkpt>
      <trkpt lat="43.93078" lon="10.1957">
        <ele>4.0</ele>
      </trkpt>
      <trkpt lat="43.93122" lon="10.1953">
        <ele>4.0</ele>
      </trkpt>
      <trkpt lat="43.93142" lon="10.19512">
        <ele>4.0</ele>
      </trkpt>
      <trkpt lat="43.93167" lon="10.19489">
        <ele>4.0</ele>
      </trkpt>
      <trkpt lat="43.93173" lon="10.19484">
        <ele>4.0</ele>
      </trkpt>
      <trkpt lat="43.93241" lon="10.19422">
        <ele>3.0</ele>
      </trkpt>
      <trkpt lat="43.93246" lon="10.19417">
        <ele>3.0</ele>
      </trkpt>
      <trkpt lat="43.93296" lon="10.19372">
        <ele>3.0</ele>
      </trkpt>
      <trkpt lat="43.933" lon="10.19368">
        <ele>3.0</ele>
      </trkpt>
      <trkpt lat="43.93359" lon="10.19314">
        <ele>3.0</ele>
      </trkpt>
      <trkpt lat="43.93383" lon="10.19292">
        <ele>3.0</ele>
      </trkpt>
      <trkpt lat="43.93388" lon="10.19288">
        <ele>3.0</ele>
      </trkpt>
      <trkpt lat="43.93428" lon="10.19251">
        <ele>3.0</ele>
      </trkpt>
      <trkpt lat="43.93447" lon="10.19234">
        <ele>3.0</ele>
      </trkpt>
      <trkpt lat="43.93466" lon="10.19217">
        <ele>3.0</ele>
      </trkpt>
      <trkpt lat="43.93474" lon="10.19209">
        <ele>3.0</ele>
      </trkpt>
      <trkpt lat="43.93558" lon="10.19132">
        <ele>3.0</ele>
      </trkpt>
      <trkpt lat="43.9356" lon="10.1913">
        <ele>3.0</ele>
      </trkpt>
      <trkpt lat="43.93585" lon="10.19107">
        <ele>3.0</ele>
      </trkpt>
      <trkpt lat="43.93619" lon="10.19076">
        <ele>3.0</ele>
      </trkpt>
      <trkpt lat="43.93683" lon="10.19015">
        <ele>2.0</ele>
      </trkpt>
      <trkpt lat="43.93689" lon="10.1901">
        <ele>2.0</ele>
      </trkpt>
      <trkpt lat="43.93699" lon="10.19001">
        <ele>2.0</ele>
      </trkpt>
      <trkpt lat="43.93734" lon="10.18968">
        <ele>1.0</ele>
      </trkpt>
      <trkpt lat="43.93747" lon="10.18955">
        <ele>1.0</ele>
      </trkpt>
      <trkpt lat="43.93749" lon="10.18952">
        <ele>1.0</ele>
      </trkpt>
      <trkpt lat="43.93764" lon="10.18937">
        <ele>1.0</ele>
      </trkpt>
      <trkpt lat="43.93784" lon="10.18915">
        <ele>1.0</ele>
      </trkpt>
      <trkpt lat="43.93826" lon="10.1887">
        <ele>1.0</ele>
      </trkpt>
      <trkpt lat="43.93834" lon="10.18862">
        <ele>1.0</ele>
      </trkpt>
      <trkpt lat="43.93841" lon="10.18855">
        <ele>1.0</ele>
      </trkpt>
      <trkpt lat="43.93883" lon="10.18809">
        <ele>2.0</ele>
      </trkpt>
      <trkpt lat="43.93897" lon="10.18794">
        <ele>2.0</ele>
      </trkpt>
      <trkpt lat="43.93917" lon="10.18773">
        <ele>2.0</ele>
      </trkpt>
      <trkpt lat="43.9396" lon="10.18726">
        <ele>2.0</ele>
      </trkpt>
      <trkpt lat="43.93974" lon="10.18712">
        <ele>2.0</ele>
      </trkpt>
      <trkpt lat="43.94013" lon="10.18669">
        <ele>3.0</ele>
      </trkpt>
      <trkpt lat="43.94032" lon="10.18649">
        <ele>3.0</ele>
      </trkpt>
      <trkpt lat="43.94087" lon="10.1859">
        <ele>3.0</ele>
      </trkpt>
      <trkpt lat="43.94103" lon="10.18572">
        <ele>3.0</ele>
      </trkpt>
      <trkpt lat="43.94124" lon="10.18549">
        <ele>4.0</ele>
      </trkpt>
      <trkpt lat="43.94185" lon="10.18485">
        <ele>3.0</ele>
      </trkpt>
      <trkpt lat="43.94212" lon="10.18455">
        <ele>2.0</ele>
      </trkpt>
      <trkpt lat="43.94244" lon="10.1842">
        <ele>1.0</ele>
      </trkpt>
      <trkpt lat="43.94275" lon="10.18388">
        <ele>1.0</ele>
      </trkpt>
      <trkpt lat="43.9433" lon="10.18328">
      </trkpt>
      <trkpt lat="43.94345" lon="10.18312">
      </trkpt>
      <trkpt lat="43.94352" lon="10.18305">
      </trkpt>
      <trkpt lat="43.94358" lon="10.18299">
      </trkpt>
      <trkpt lat="43.94461" lon="10.18186">
        <ele>1.0</ele>
      </trkpt>
      <trkpt lat="43.94471" lon="10.18176">
        <ele>1.0</ele>
      </trkpt>
      <trkpt lat="43.94478" lon="10.18168">
        <ele>1.0</ele>
      </trkpt>
      <trkpt lat="43.94549" lon="10.1809">
        <ele>1.0</ele>
      </trkpt>
      <trkpt lat="43.94702" lon="10.17923">
        <ele>2.0</ele>
      </trkpt>
      <trkpt lat="43.94843" lon="10.17774">
        <ele>2.0</ele>
      </trkpt>
      <trkpt lat="43.94847" lon="10.17769">
        <ele>2.0</ele>
      </trkpt>
      <trkpt lat="43.94952" lon="10.17656">
        <ele>2.0</ele>
      </trkpt>
      <trkpt lat="43.94987" lon="10.17618">
        <ele>2.0</ele>
      </trkpt>
      <trkpt lat="43.95063" lon="10.1754">
        <ele>2.0</ele>
      </trkpt>
      <trkpt lat="43.95128" lon="10.1747">
        <ele>3.0</ele>
      </trkpt>
      <trkpt lat="43.95147" lon="10.17455">
        <ele>5.0</ele>
      </trkpt>
      <trkpt lat="43.95152" lon="10.17452">
        <ele>5.0</ele>
      </trkpt>
      <trkpt lat="43.95161" lon="10.17447">
        <ele>5.0</ele>
      </trkpt>
      <trkpt lat="43.95165" lon="10.17442">
        <ele>5.0</ele>
      </trkpt>
      <trkpt lat="43.95183" lon="10.17425">
        <ele>5.0</ele>
      </trkpt>
      <trkpt lat="43.95198" lon="10.17409">
        <ele>5.0</ele>
      </trkpt>
      <trkpt lat="43.95221" lon="10.17385">
        <ele>4.0</ele>
      </trkpt>
      <trkpt lat="43.95275" lon="10.17326">
        <ele>4.0</ele>
      </trkpt>
      <trkpt lat="43.95281" lon="10.1732">
        <ele>3.0</ele>
      </trkpt>
      <trkpt lat="43.95286" lon="10.17315">
        <ele>3.0</ele>
      </trkpt>
      <trkpt lat="43.95334" lon="10.17263">
        <ele>3.0</ele>
      </trkpt>
      <trkpt lat="43.95344" lon="10.17252">
        <ele>2.0</ele>
      </trkpt>
      <trkpt lat="43.95401" lon="10.17191">
        <ele>2.0</ele>
      </trkpt>
      <trkpt lat="43.9542" lon="10.1717">
        <ele>1.0</ele>
      </trkpt>
      <trkpt lat="43.95425" lon="10.17165">
        <ele>1.0</ele>
      </trkpt>
      <trkpt lat="43.95483" lon="10.17102">
        <ele>1.0</ele>
      </trkpt>
      <trkpt lat="43.95503" lon="10.17081">
        <ele>1.0</ele>
      </trkpt>
      <trkpt lat="43.95509" lon="10.17074">
        <ele>1.0</ele>
      </trkpt>
      <trkpt lat="43.9559" lon="10.16986">
        <ele>2.0</ele>
      </trkpt>
      <trkpt lat="43.95597" lon="10.16979">
        <ele>2.0</ele>
      </trkpt>
      <trkpt lat="43.95603" lon="10.16973">
        <ele>2.0</ele>
      </trkpt>
      <trkpt lat="43.95633" lon="10.16941">
        <ele>2.0</ele>
      </trkpt>
      <trkpt lat="43.95645" lon="10.16928">
        <ele>2.0</ele>
      </trkpt>
      <trkpt lat="43.95677" lon="10.16893">
        <ele>2.0</ele>
      </trkpt>
      <trkpt lat="43.95684" lon="10.16885">
        <ele>2.0</ele>
      </trkpt>
      <trkpt lat="43.9569" lon="10.16879">
        <ele>2.0</ele>
      </trkpt>
      <trkpt lat="43.9573" lon="10.16836">
        <ele>2.0</ele>
      </trkpt>
      <trkpt lat="43.95736" lon="10.1683">
        <ele>2.0</ele>
      </trkpt>
      <trkpt lat="43.95759" lon="10.16805">
        <ele>2.0</ele>
      </trkpt>
      <trkpt lat="43.95777" lon="10.1678">
        <ele>1.0</ele>
      </trkpt>
      <trkpt lat="43.95795" lon="10.16754">
        <ele>1.0</ele>
      </trkpt>
      <trkpt lat="43.95802" lon="10.16744">
        <ele>1.0</ele>
      </trkpt>
      <trkpt lat="43.95809" lon="10.16735">
        <ele>1.0</ele>
      </trkpt>
      <trkpt lat="43.95869" lon="10.16664">
        <ele>1.0</ele>
      </trkpt>
      <trkpt lat="43.95873" lon="10.1666">
        <ele>1.0</ele>
      </trkpt>
      <trkpt lat="43.95908" lon="10.16616">
        <ele>1.0</ele>
      </trkpt>
      <trkpt lat="43.95913" lon="10.1661">
      </trkpt>
      <trkpt lat="43.95995" lon="10.16511">
      </trkpt>
      <trkpt lat="43.96076" lon="10.16416">
      </trkpt>
      <trkpt lat="43.9608" lon="10.16411">
      </trkpt>
      <trkpt lat="43.96121" lon="10.16363">
      </trkpt>
      <trkpt lat="43.96157" lon="10.16319">
      </trkpt>
      <trkpt lat="43.96161" lon="10.16314">
      </trkpt>
      <trkpt lat="43.96165" lon="10.16309">
      </trkpt>
      <trkpt lat="43.96247" lon="10.16214">
        <ele>1.0</ele>
      </trkpt>
      <trkpt lat="43.96252" lon="10.16207">
        <ele>1.0</ele>
      </trkpt>
      <trkpt lat="43.96296" lon="10.16156">
        <ele>1.0</ele>
      </trkpt>
      <trkpt lat="43.963" lon="10.16151">
        <ele>1.0</ele>
      </trkpt>
      <trkpt lat="43.9635" lon="10.16092">
        <ele>1.0</ele>
      </trkpt>
      <trkpt lat="43.964" lon="10.16033">
        <ele>1.0</ele>
      </trkpt>
      <trkpt lat="43.96403" lon="10.16029">
        <ele>1.0</ele>
      </trkpt>
      <trkpt lat="43.96446" lon="10.15977">
        <ele>2.0</ele>
      </trkpt>
      <trkpt lat="43.9652" lon="10.15889">
        <ele>2.0</ele>
      </trkpt>
      <trkpt lat="43.96524" lon="10.15884">
        <ele>2.0</ele>
      </trkpt>
      <trkpt lat="43.96527" lon="10.15881">
        <ele>2.0</ele>
      </trkpt>
      <trkpt lat="43.96641" lon="10.15745">
        <ele>3.0</ele>
      </trkpt>
      <trkpt lat="43.96675" lon="10.15703">
        <ele>3.0</ele>
      </trkpt>
      <trkpt lat="43.96697" lon="10.15677">
        <ele>3.0</ele>
      </trkpt>
      <trkpt lat="43.96748" lon="10.15616">
        <ele>3.0</ele>
      </trkpt>
      <trkpt lat="43.96835" lon="10.15511">
        <ele>3.0</ele>
      </trkpt>
      <trkpt lat="43.9684" lon="10.15505">
        <ele>3.0</ele>
      </trkpt>
      <trkpt lat="43.96908" lon="10.15424">
        <ele>3.0</ele>
      </trkpt>
      <trkpt lat="43.96942" lon="10.15383">
        <ele>3.0</ele>
      </trkpt>
      <trkpt lat="43.96975" lon="10.15342">
        <ele>2.0</ele>
      </trkpt>
      <trkpt lat="43.96979" lon="10.15338">
        <ele>2.0</ele>
      </trkpt>
      <trkpt lat="43.97017" lon="10.15293">
        <ele>2.0</ele>
      </trkpt>
      <trkpt lat="43.97049" lon="10.15255">
        <ele>2.0</ele>
      </trkpt>
      <trkpt lat="43.97075" lon="10.15223">
        <ele>2.0</ele>
      </trkpt>
      <trkpt lat="43.97079" lon="10.15219">
        <ele>2.0</ele>
      </trkpt>
      <trkpt lat="43.97117" lon="10.15173">
        <ele>2.0</ele>
      </trkpt>
      <trkpt lat="43.9715" lon="10.15134">
        <ele>2.0</ele>
      </trkpt>
      <trkpt lat="43.97169" lon="10.15112">
        <ele>2.0</ele>
      </trkpt>
      <trkpt lat="43.97188" lon="10.15088">
        <ele>2.0</ele>
      </trkpt>
      <trkpt lat="43.97211" lon="10.15061">
        <ele>2.0</ele>
      </trkpt>
      <trkpt lat="43.97214" lon="10.15058">
        <ele>2.0</ele>
      </trkpt>
      <trkpt lat="43.97217" lon="10.15053">
        <ele>2.0</ele>
      </trkpt>
      <trkpt lat="43.97221" lon="10.15048">
        <ele>2.0</ele>
      </trkpt>
      <trkpt lat="43.97259" lon="10.15003">
        <ele>2.0</ele>
      </trkpt>
      <trkpt lat="43.97281" lon="10.14978">
        <ele>1.0</ele>
      </trkpt>
      <trkpt lat="43.97287" lon="10.14971">
        <ele>1.0</ele>
      </trkpt>
      <trkpt lat="43.97307" lon="10.14946">
        <ele>1.0</ele>
      </trkpt>
      <trkpt lat="43.9733" lon="10.1492">
      </trkpt>
      <trkpt lat="43.97387" lon="10.14852">
        <ele>-1.0</ele>
      </trkpt>
      <trkpt lat="43.9739" lon="10.14848">
        <ele>-2.0</ele>
      </trkpt>
      <trkpt lat="43.97498" lon="10.14718">
        <ele>-3.0</ele>
      </trkpt>
      <trkpt lat="43.97505" lon="10.1471">
        <ele>-3.0</ele>
      </trkpt>
      <trkpt lat="43.97579" lon="10.14622">
        <ele>-2.0</ele>
      </trkpt>
      <trkpt lat="43.97659" lon="10.14528">
      </trkpt>
      <trkpt lat="43.97665" lon="10.14522">
        <ele>3.0</ele>
      </trkpt>
      <trkpt lat="43.97674" lon="10.1451">
        <ele>3.0</ele>
      </trkpt>
      <trkpt lat="43.97684" lon="10.14498">
        <ele>3.0</ele>
      </trkpt>
      <trkpt lat="43.97722" lon="10.14452">
        <ele>3.0</ele>
      </trkpt>
      <trkpt lat="43.97744" lon="10.14426">
        <ele>3.0</ele>
      </trkpt>
      <trkpt lat="43.97754" lon="10.14414">
        <ele>3.0</ele>
      </trkpt>
      <trkpt lat="43.97755" lon="10.14416">
        <ele>3.0</ele>
      </trkpt>
      <trkpt lat="43.97757" lon="10.14417">
        <ele>2.0</ele>
      </trkpt>
      <trkpt lat="43.97759" lon="10.14416">
        <ele>2.0</ele>
      </trkpt>
      <trkpt lat="43.9776" lon="10.14415">
        <ele>2.0</ele>
      </trkpt>
      <trkpt lat="43.97761" lon="10.14414">
        <ele>2.0</ele>
      </trkpt>
      <trkpt lat="43.97762" lon="10.1441">
        <ele>2.0</ele>
      </trkpt>
      <trkpt lat="43.97761" lon="10.14408">
        <ele>2.0</ele>
      </trkpt>
      <trkpt lat="43.97761" lon="10.14406">
        <ele>2.0</ele>
      </trkpt>
      <trkpt lat="43.97769" lon="10.14396">
        <ele>2.0</ele>
      </trkpt>
      <trkpt lat="43.97784" lon="10.14376">
        <ele>2.0</ele>
      </trkpt>
      <trkpt lat="43.97791" lon="10.14367">
        <ele>2.0</ele>
      </trkpt>
      <trkpt lat="43.97886" lon="10.14243">
        <ele>1.0</ele>
      </trkpt>
      <trkpt lat="43.97901" lon="10.14223">
        <ele>1.0</ele>
      </trkpt>
      <trkpt lat="43.97912" lon="10.14208">
        <ele>1.0</ele>
      </trkpt>
      <trkpt lat="43.97932" lon="10.14181">
        <ele>1.0</ele>
      </trkpt>
      <trkpt lat="43.97943" lon="10.14166">
        <ele>1.0</ele>
      </trkpt>
      <trkpt lat="43.97955" lon="10.14151">
        <ele>1.0</ele>
      </trkpt>
      <trkpt lat="43.97956" lon="10.14149">
        <ele>1.0</ele>
      </trkpt>
      <trkpt lat="43.97989" lon="10.14108">
        <ele>1.0</ele>
      </trkpt>
      <trkpt lat="43.97989" lon="10.14108">
        <ele>1.0</ele>
      </trkpt>
      <trkpt lat="43.98001" lon="10.14092">
        <ele>1.0</ele>
      </trkpt>
      <trkpt lat="43.98005" lon="10.14086">
        <ele>1.0</ele>
      </trkpt>
      <trkpt lat="43.98022" lon="10.14064">
        <ele>1.0</ele>
      </trkpt>
      <trkpt lat="43.98029" lon="10.14053">
        <ele>1.0</ele>
      </trkpt>
      <trkpt lat="43.98056" lon="10.14018">
        <ele>1.0</ele>
      </trkpt>
      <trkpt lat="43.98067" lon="10.14003">
        <ele>1.0</ele>
      </trkpt>
      <trkpt lat="43.9808" lon="10.13985">
        <ele>1.0</ele>
      </trkpt>
      <trkpt lat="43.98112" lon="10.13943">
        <ele>1.0</ele>
      </trkpt>
      <trkpt lat="43.98142" lon="10.13902">
        <ele>1.0</ele>
      </trkpt>
      <trkpt lat="43.98165" lon="10.13867">
        <ele>1.0</ele>
      </trkpt>
      <trkpt lat="43.98174" lon="10.13855">
        <ele>1.0</ele>
      </trkpt>
      <trkpt lat="43.98212" lon="10.13799">
        <ele>1.0</ele>
      </trkpt>
      <trkpt lat="43.98215" lon="10.13795">
        <ele>1.0</ele>
      </trkpt>
      <trkpt lat="43.98224" lon="10.13782">
        <ele>1.0</ele>
      </trkpt>
      <trkpt lat="43.98249" lon="10.13746">
        <ele>1.0</ele>
      </trkpt>
      <trkpt lat="43.9826" lon="10.13731">
        <ele>1.0</ele>
      </trkpt>
      <trkpt lat="43.98276" lon="10.13709">
        <ele>1.0</ele>
      </trkpt>
      <trkpt lat="43.98293" lon="10.13685">
        <ele>1.0</ele>
      </trkpt>
      <trkpt lat="43.9833" lon="10.13633">
        <ele>1.0</ele>
      </trkpt>
      <trkpt lat="43.98335" lon="10.13626">
        <ele>1.0</ele>
      </trkpt>
      <trkpt lat="43.98337" lon="10.13623">
        <ele>1.0</ele>
      </trkpt>
      <trkpt lat="43.98374" lon="10.13571">
        <ele>1.0</ele>
      </trkpt>
      <trkpt lat="43.98406" lon="10.13527">
        <ele>2.0</ele>
      </trkpt>
      <trkpt lat="43.98429" lon="10.13495">
        <ele>2.0</ele>
      </trkpt>
      <trkpt lat="43.98434" lon="10.13488">
        <ele>2.0</ele>
      </trkpt>
      <trkpt lat="43.98448" lon="10.13468">
        <ele>2.0</ele>
      </trkpt>
      <trkpt lat="43.98476" lon="10.13429">
        <ele>2.0</ele>
      </trkpt>
      <trkpt lat="43.98529" lon="10.13355">
        <ele>2.0</ele>
      </trkpt>
      <trkpt lat="43.98537" lon="10.13344">
        <ele>2.0</ele>
      </trkpt>
      <trkpt lat="43.98594" lon="10.13264">
        <ele>2.0</ele>
      </trkpt>
      <trkpt lat="43.98623" lon="10.13223">
        <ele>2.0</ele>
      </trkpt>
      <trkpt lat="43.98664" lon="10.13166">
        <ele>1.0</ele>
      </trkpt>
      <trkpt lat="43.98668" lon="10.1316">
        <ele>1.0</ele>
      </trkpt>
      <trkpt lat="43.98778" lon="10.13002">
        <ele>2.0</ele>
      </trkpt>
      <trkpt lat="43.9879" lon="10.12986">
        <ele>2.0</ele>
      </trkpt>
      <trkpt lat="43.98799" lon="10.12972">
        <ele>2.0</ele>
      </trkpt>
      <trkpt lat="43.98824" lon="10.12938">
        <ele>2.0</ele>
      </trkpt>
      <trkpt lat="43.98845" lon="10.12907">
        <ele>3.0</ele>
      </trkpt>
      <trkpt lat="43.98856" lon="10.12891">
        <ele>3.0</ele>
      </trkpt>
      <trkpt lat="43.98888" lon="10.12844">
        <ele>3.0</ele>
      </trkpt>
      <trkpt lat="43.98914" lon="10.12807">
        <ele>3.0</ele>
      </trkpt>
      <trkpt lat="43.98916" lon="10.12804">
        <ele>3.0</ele>
      </trkpt>
      <trkpt lat="43.98922" lon="10.12796">
        <ele>3.0</ele>
      </trkpt>
      <trkpt lat="43.98944" lon="10.12764">
        <ele>3.0</ele>
      </trkpt>
      <trkpt lat="43.99014" lon="10.12667">
        <ele>3.0</ele>
      </trkpt>
      <trkpt lat="43.99085" lon="10.12566">
        <ele>2.0</ele>
      </trkpt>
      <trkpt lat="43.99089" lon="10.1256">
        <ele>2.0</ele>
      </trkpt>
      <trkpt lat="43.99218" lon="10.12379">
        <ele>2.0</ele>
      </trkpt>
      <trkpt lat="43.99222" lon="10.12373">
        <ele>2.0</ele>
      </trkpt>
      <trkpt lat="43.99343" lon="10.122">
        <ele>1.0</ele>
      </trkpt>
      <trkpt lat="43.99347" lon="10.12194">
        <ele>1.0</ele>
      </trkpt>
      <trkpt lat="43.99481" lon="10.11988">
        <ele>2.0</ele>
      </trkpt>
      <trkpt lat="43.99513" lon="10.11939">
        <ele>2.0</ele>
      </trkpt>
      <trkpt lat="43.99515" lon="10.11937">
        <ele>3.0</ele>
      </trkpt>
      <trkpt lat="43.99547" lon="10.11885">
        <ele>3.0</ele>
      </trkpt>
      <trkpt lat="43.99567" lon="10.11855">
        <ele>2.0</ele>
      </trkpt>
      <trkpt lat="43.99571" lon="10.11849">
        <ele>2.0</ele>
      </trkpt>
      <trkpt lat="43.99661" lon="10.1171">
        <ele>2.0</ele>
      </trkpt>
      <trkpt lat="43.99724" lon="10.11614">
        <ele>1.0</ele>
      </trkpt>
      <trkpt lat="43.99768" lon="10.11547">
        <ele>1.0</ele>
      </trkpt>
      <trkpt lat="43.998" lon="10.11498">
        <ele>1.0</ele>
      </trkpt>
      <trkpt lat="43.99805" lon="10.1149">
        <ele>1.0</ele>
      </trkpt>
      <trkpt lat="43.99819" lon="10.11465">
        <ele>1.0</ele>
      </trkpt>
      <trkpt lat="43.99836" lon="10.1144">
        <ele>1.0</ele>
      </trkpt>
      <trkpt lat="43.99914" lon="10.11314">
        <ele>1.0</ele>
      </trkpt>
      <trkpt lat="44.00063" lon="10.11076">
      </trkpt>
      <trkpt lat="44.00067" lon="10.11068">
      </trkpt>
      <trkpt lat="44.00163" lon="10.10916">
        <ele>1.0</ele>
      </trkpt>
      <trkpt lat="44.00168" lon="10.10909">
        <ele>1.0</ele>
      </trkpt>
      <trkpt lat="44.00216" lon="10.10834">
        <ele>1.0</ele>
      </trkpt>
      <trkpt lat="44.00231" lon="10.10811">
        <ele>1.0</ele>
      </trkpt>
      <trkpt lat="44.00241" lon="10.10795">
        <ele>1.0</ele>
      </trkpt>
      <trkpt lat="44.00257" lon="10.10781">
        <ele>1.0</ele>
      </trkpt>
      <trkpt lat="44.00265" lon="10.10785">
        <ele>1.0</ele>
      </trkpt>
      <trkpt lat="44.00269" lon="10.10785">
        <ele>1.0</ele>
      </trkpt>
      <trkpt lat="44.00273" lon="10.10784">
        <ele>1.0</ele>
      </trkpt>
      <trkpt lat="44.00283" lon="10.10786">
        <ele>1.0</ele>
      </trkpt>
      <trkpt lat="44.00283" lon="10.10786">
        <ele>1.0</ele>
      </trkpt>
      <trkpt lat="44.00294" lon="10.10796">
        <ele>1.0</ele>
      </trkpt>
      <trkpt lat="44.00314" lon="10.10812">
        <ele>1.0</ele>
      </trkpt>
      <trkpt lat="44.00315" lon="10.10818">
        <ele>2.0</ele>
      </trkpt>
      <trkpt lat="44.00317" lon="10.10821">
        <ele>2.0</ele>
      </trkpt>
      <trkpt lat="44.00318" lon="10.10824">
        <ele>2.0</ele>
      </trkpt>
      <trkpt lat="44.00319" lon="10.10826">
        <ele>2.0</ele>
      </trkpt>
      <trkpt lat="44.00323" lon="10.10829">
        <ele>2.0</ele>
      </trkpt>
      <trkpt lat="44.00325" lon="10.1083">
        <ele>2.0</ele>
      </trkpt>
      <trkpt lat="44.00327" lon="10.10831">
        <ele>2.0</ele>
      </trkpt>
      <trkpt lat="44.00331" lon="10.10831">
        <ele>2.0</ele>
      </trkpt>
      <trkpt lat="44.00333" lon="10.1083">
        <ele>2.0</ele>
      </trkpt>
      <trkpt lat="44.00335" lon="10.10829">
        <ele>2.0</ele>
      </trkpt>
      <trkpt lat="44.0034" lon="10.10833">
        <ele>2.0</ele>
      </trkpt>
      <trkpt lat="44.00355" lon="10.10846">
        <ele>2.0</ele>
      </trkpt>
      <trkpt lat="44.00363" lon="10.10854">
        <ele>2.0</ele>
      </trkpt>
      <trkpt lat="44.00375" lon="10.10865">
        <ele>3.0</ele>
      </trkpt>
      <trkpt lat="44.00388" lon="10.10872">
        <ele>3.0</ele>
      </trkpt>
      <trkpt lat="44.00464" lon="10.10945">
        <ele>3.0</ele>
      </trkpt>
      <trkpt lat="44.00471" lon="10.10952">
        <ele>3.0</ele>
      </trkpt>
      <trkpt lat="44.0059" lon="10.11067">
        <ele>4.0</ele>
      </trkpt>
      <trkpt lat="44.00757" lon="10.11227">
        <ele>4.0</ele>
      </trkpt>
      <trkpt lat="44.00765" lon="10.11235">
        <ele>3.0</ele>
      </trkpt>
      <trkpt lat="44.00903" lon="10.11369">
        <ele>4.0</ele>
      </trkpt>
      <trkpt lat="44.00905" lon="10.1137">
        <ele>4.0</ele>
      </trkpt>
      <trkpt lat="44.00941" lon="10.11405">
        <ele>3.0</ele>
      </trkpt>
      <trkpt lat="44.01057" lon="10.11516">
        <ele>2.0</ele>
      </trkpt>
      <trkpt lat="44.01121" lon="10.11577">
        <ele>2.0</ele>
      </trkpt>
      <trkpt lat="44.01138" lon="10.11594">
        <ele>2.0</ele>
      </trkpt>
      <trkpt lat="44.01216" lon="10.1167">
        <ele>2.0</ele>
      </trkpt>
      <trkpt lat="44.01243" lon="10.11695">
        <ele>2.0</ele>
      </trkpt>
      <trkpt lat="44.01292" lon="10.11742">
        <ele>3.0</ele>
      </trkpt>
      <trkpt lat="44.01331" lon="10.11779">
        <ele>3.0</ele>
      </trkpt>
      <trkpt lat="44.01402" lon="10.11849">
        <ele>4.0</ele>
      </trkpt>
      <trkpt lat="44.01439" lon="10.11884">
        <ele>4.0</ele>
      </trkpt>
      <trkpt lat="44.01485" lon="10.11928">
        <ele>4.0</ele>
      </trkpt>
      <trkpt lat="44.01727" lon="10.12161">
        <ele>8.0</ele>
      </trkpt>
      <trkpt lat="44.01832" lon="10.12262">
        <ele>10.0</ele>
      </trkpt>
      <trkpt lat="44.01853" lon="10.12283">
        <ele>11.0</ele>
      </trkpt>
      <trkpt lat="44.01861" lon="10.1229">
        <ele>12.0</ele>
      </trkpt>
      <trkpt lat="44.02007" lon="10.1243">
        <ele>15.0</ele>
      </trkpt>
      <trkpt lat="44.02045" lon="10.12467">
        <ele>16.0</ele>
      </trkpt>
      <trkpt lat="44.02071" lon="10.12493">
        <ele>18.0</ele>
      </trkpt>
      <trkpt lat="44.02152" lon="10.12577">
        <ele>20.0</ele>
      </trkpt>
      <trkpt lat="44.02152" lon="10.12581">
        <ele>21.0</ele>
      </trkpt>
      <trkpt lat="44.02153" lon="10.12582">
        <ele>21.0</ele>
      </trkpt>
      <trkpt lat="44.02154" lon="10.12584">
        <ele>22.0</ele>
      </trkpt>
      <trkpt lat="44.02157" lon="10.12588">
        <ele>22.0</ele>
      </trkpt>
      <trkpt lat="44.02159" lon="10.12588">
        <ele>22.0</ele>
      </trkpt>
      <trkpt lat="44.0216" lon="10.12588">
        <ele>22.0</ele>
      </trkpt>
      <trkpt lat="44.02162" lon="10.12587">
        <ele>22.0</ele>
      </trkpt>
      <trkpt lat="44.02164" lon="10.12585">
        <ele>22.0</ele>
      </trkpt>
      <trkpt lat="44.02166" lon="10.12584">
        <ele>22.0</ele>
      </trkpt>
      <trkpt lat="44.02166" lon="10.12584">
        <ele>22.0</ele>
      </trkpt>
      <trkpt lat="44.02167" lon="10.12579">
        <ele>22.0</ele>
      </trkpt>
      <trkpt lat="44.02167" lon="10.12576">
        <ele>22.0</ele>
      </trkpt>
      <trkpt lat="44.02166" lon="10.12573">
        <ele>22.0</ele>
      </trkpt>
      <trkpt lat="44.02164" lon="10.1257">
        <ele>22.0</ele>
      </trkpt>
      <trkpt lat="44.0216" lon="10.12568">
        <ele>22.0</ele>
      </trkpt>
      <trkpt lat="44.02158" lon="10.12568">
        <ele>22.0</ele>
      </trkpt>
      <trkpt lat="44.02147" lon="10.12566">
        <ele>22.0</ele>
      </trkpt>
      <trkpt lat="44.02071" lon="10.12493">
        <ele>21.0</ele>
      </trkpt>
      <trkpt lat="44.02007" lon="10.1243">
        <ele>20.0</ele>
      </trkpt>
      <trkpt lat="44.01875" lon="10.12303">
        <ele>18.0</ele>
      </trkpt>
      <trkpt lat="44.01861" lon="10.1229">
        <ele>17.0</ele>
      </trkpt>
      <trkpt lat="44.01832" lon="10.12262">
        <ele>15.0</ele>
      </trkpt>
      <trkpt lat="44.01727" lon="10.12161">
        <ele>14.0</ele>
      </trkpt>
      <trkpt lat="44.01653" lon="10.12089">
        <ele>12.0</ele>
      </trkpt>
      <trkpt lat="44.01485" lon="10.11928">
        <ele>10.0</ele>
      </trkpt>
      <trkpt lat="44.01402" lon="10.11849">
        <ele>7.0</ele>
      </trkpt>
      <trkpt lat="44.01331" lon="10.11779">
        <ele>6.0</ele>
      </trkpt>
      <trkpt lat="44.013" lon="10.1175">
        <ele>5.0</ele>
      </trkpt>
      <trkpt lat="44.01292" lon="10.11742">
        <ele>4.0</ele>
      </trkpt>
      <trkpt lat="44.01216" lon="10.1167">
        <ele>3.0</ele>
      </trkpt>
      <trkpt lat="44.0117" lon="10.11625">
        <ele>3.0</ele>
      </trkpt>
      <trkpt lat="44.01138" lon="10.11594">
        <ele>3.0</ele>
      </trkpt>
      <trkpt lat="44.01057" lon="10.11516">
        <ele>2.0</ele>
      </trkpt>
      <trkpt lat="44.00941" lon="10.11405">
        <ele>2.0</ele>
      </trkpt>
      <trkpt lat="44.00935" lon="10.11398">
        <ele>2.0</ele>
      </trkpt>
      <trkpt lat="44.00905" lon="10.1137">
        <ele>3.0</ele>
      </trkpt>
      <trkpt lat="44.00765" lon="10.11235">
        <ele>3.0</ele>
      </trkpt>
      <trkpt lat="44.00757" lon="10.11227">
        <ele>3.0</ele>
      </trkpt>
      <trkpt lat="44.00597" lon="10.11073">
        <ele>3.0</ele>
      </trkpt>
      <trkpt lat="44.0059" lon="10.11067">
        <ele>4.0</ele>
      </trkpt>
      <trkpt lat="44.00464" lon="10.10945">
        <ele>4.0</ele>
      </trkpt>
      <trkpt lat="44.00437" lon="10.10919">
        <ele>4.0</ele>
      </trkpt>
      <trkpt lat="44.00388" lon="10.10872">
        <ele>4.0</ele>
      </trkpt>
      <trkpt lat="44.00358" lon="10.1084">
        <ele>3.0</ele>
      </trkpt>
      <trkpt lat="44.00356" lon="10.10838">
        <ele>3.0</ele>
      </trkpt>
      <trkpt lat="44.00354" lon="10.10836">
        <ele>3.0</ele>
      </trkpt>
      <trkpt lat="44.00353" lon="10.10834">
        <ele>2.0</ele>
      </trkpt>
      <trkpt lat="44.0035" lon="10.10829">
        <ele>2.0</ele>
      </trkpt>
      <trkpt lat="44.00344" lon="10.10814">
        <ele>2.0</ele>
      </trkpt>
      <trkpt lat="44.00344" lon="10.10811">
        <ele>2.0</ele>
      </trkpt>
      <trkpt lat="44.00344" lon="10.10809">
        <ele>2.0</ele>
      </trkpt>
      <trkpt lat="44.00343" lon="10.10803">
        <ele>2.0</ele>
      </trkpt>
      <trkpt lat="44.00342" lon="10.108">
        <ele>2.0</ele>
      </trkpt>
      <trkpt lat="44.00341" lon="10.10798">
        <ele>2.0</ele>
      </trkpt>
      <trkpt lat="44.00337" lon="10.10794">
        <ele>2.0</ele>
      </trkpt>
      <trkpt lat="44.00335" lon="10.10792">
        <ele>1.0</ele>
      </trkpt>
      <trkpt lat="44.00333" lon="10.10791">
        <ele>1.0</ele>
      </trkpt>
      <trkpt lat="44.00331" lon="10.1079">
        <ele>1.0</ele>
      </trkpt>
      <trkpt lat="44.00326" lon="10.10791">
        <ele>1.0</ele>
      </trkpt>
      <trkpt lat="44.00324" lon="10.10792">
        <ele>1.0</ele>
      </trkpt>
      <trkpt lat="44.00321" lon="10.10793">
        <ele>1.0</ele>
      </trkpt>
      <trkpt lat="44.0032" lon="10.10795">
        <ele>1.0</ele>
      </trkpt>
      <trkpt lat="44.00313" lon="10.10796">
        <ele>1.0</ele>
      </trkpt>
      <trkpt lat="44.00311" lon="10.10794">
        <ele>1.0</ele>
      </trkpt>
      <trkpt lat="44.00309" lon="10.10793">
        <ele>1.0</ele>
      </trkpt>
      <trkpt lat="44.00299" lon="10.10784">
        <ele>1.0</ele>
      </trkpt>
      <trkpt lat="44.00287" lon="10.10772">
        <ele>1.0</ele>
      </trkpt>
      <trkpt lat="44.00285" lon="10.10769">
        <ele>1.0</ele>
      </trkpt>
      <trkpt lat="44.00282" lon="10.10765">
        <ele>1.0</ele>
      </trkpt>
      <trkpt lat="44.00281" lon="10.10758">
        <ele>1.0</ele>
      </trkpt>
      <trkpt lat="44.0028" lon="10.10754">
        <ele>1.0</ele>
      </trkpt>
      <trkpt lat="44.00283" lon="10.10738">
        <ele>1.0</ele>
      </trkpt>
      <trkpt lat="44.00288" lon="10.1072">
        <ele>1.0</ele>
      </trkpt>
      <trkpt lat="44.0031" lon="10.10674">
        <ele>1.0</ele>
      </trkpt>
      <trkpt lat="44.00328" lon="10.10646">
        <ele>1.0</ele>
      </trkpt>
      <trkpt lat="44.00328" lon="10.10646">
        <ele>1.0</ele>
      </trkpt>
      <trkpt lat="44.00383" lon="10.10556">
        <ele>1.0</ele>
      </trkpt>
      <trkpt lat="44.0041" lon="10.10512">
        <ele>1.0</ele>
      </trkpt>
      <trkpt lat="44.00413" lon="10.10506">
        <ele>1.0</ele>
      </trkpt>
      <trkpt lat="44.00437" lon="10.10467">
        <ele>1.0</ele>
      </trkpt>
      <trkpt lat="44.00471" lon="10.10413">
        <ele>1.0</ele>
      </trkpt>
      <trkpt lat="44.00507" lon="10.10354">
        <ele>1.0</ele>
      </trkpt>
      <trkpt lat="44.0056" lon="10.10265">
        <ele>1.0</ele>
      </trkpt>
      <trkpt lat="44.00565" lon="10.10257">
        <ele>1.0</ele>
      </trkpt>
      <trkpt lat="44.00653" lon="10.10116">
        <ele>1.0</ele>
      </trkpt>
      <trkpt lat="44.00707" lon="10.10028">
        <ele>1.0</ele>
      </trkpt>
      <trkpt lat="44.00711" lon="10.10021">
        <ele>1.0</ele>
      </trkpt>
      <trkpt lat="44.00776" lon="10.0992">
        <ele>1.0</ele>
      </trkpt>
      <trkpt lat="44.00788" lon="10.09902">
        <ele>1.0</ele>
      </trkpt>
      <trkpt lat="44.00794" lon="10.09915">
        <ele>1.0</ele>
      </trkpt>
      <trkpt lat="44.00823" lon="10.0995">
        <ele>1.0</ele>
      </trkpt>
      <trkpt lat="44.0085" lon="10.09982">
        <ele>2.0</ele>
      </trkpt>
      <trkpt lat="44.00875" lon="10.10011">
        <ele>2.0</ele>
      </trkpt>
      <trkpt lat="44.00897" lon="10.10037">
        <ele>2.0</ele>
      </trkpt>
      <trkpt lat="44.009" lon="10.1004">
        <ele>3.0</ele>
      </trkpt>
      <trkpt lat="44.0091" lon="10.10054">
        <ele>3.0</ele>
      </trkpt>
    </trkseg>
  </trk>
</gpx>