<?xml version="1.0" encoding="UTF-8"?>
<gpx xmlns="http://www.topografix.com/GPX/1/0" xmlns:xsi="http://www.w3.org/2001/XMLSchema-instance" xsi:schemaLocation="http://www.topografix.com/GPX/1/0 http://www.topografix.com/GPX/1/0/gpx.xsd" version="1.0" creator="GPSBabel - https://www.gpsbabel.org">
  <time>2026-05-15T08:01:01.256000Z</time>
  <bounds minlat="44.17674" maxlat="44.54065" minlon="11.97914" maxlon="12.3894" />
  <trk>
    <trkseg>
      <trkpt lat="44.19494" lon="12.3894">
      </trkpt>
      <trkpt lat="44.19356" lon="12.38762">
      </trkpt>
      <trkpt lat="44.1926" lon="12.38695">
        <ele>1.0</ele>
      </trkpt>
      <trkpt lat="44.19092" lon="12.386">
        <ele>1.0</ele>
      </trkpt>
      <trkpt lat="44.18794" lon="12.38303">
        <ele>1.0</ele>
      </trkpt>
      <trkpt lat="44.18784" lon="12.38284">
        <ele>1.0</ele>
      </trkpt>
      <trkpt lat="44.18779" lon="12.3827">
        <ele>2.0</ele>
      </trkpt>
      <trkpt lat="44.1877" lon="12.38268">
        <ele>2.0</ele>
      </trkpt>
      <trkpt lat="44.18745" lon="12.38246">
        <ele>2.0</ele>
      </trkpt>
      <trkpt lat="44.18636" lon="12.38131">
        <ele>2.0</ele>
      </trkpt>
      <trkpt lat="44.18137" lon="12.37717">
        <ele>4.0</ele>
      </trkpt>
      <trkpt lat="44.17992" lon="12.37622">
        <ele>5.0</ele>
      </trkpt>
      <trkpt lat="44.17842" lon="12.37409">
        <ele>5.0</ele>
      </trkpt>
      <trkpt lat="44.17708" lon="12.37224">
        <ele>6.0</ele>
      </trkpt>
      <trkpt lat="44.17676" lon="12.3716">
        <ele>6.0</ele>
      </trkpt>
      <trkpt lat="44.17677" lon="12.37135">
        <ele>6.0</ele>
      </trkpt>
      <trkpt lat="44.17679" lon="12.37111">
        <ele>5.0</ele>
      </trkpt>
      <trkpt lat="44.17863" lon="12.36849">
        <ele>4.0</ele>
      </trkpt>
      <trkpt lat="44.18048" lon="12.36604">
        <ele>3.0</ele>
      </trkpt>
      <trkpt lat="44.18081" lon="12.36553">
        <ele>3.0</ele>
      </trkpt>
      <trkpt lat="44.18237" lon="12.36268">
        <ele>2.0</ele>
      </trkpt>
      <trkpt lat="44.18359" lon="12.36066">
        <ele>3.0</ele>
      </trkpt>
      <trkpt lat="44.18391" lon="12.36013">
        <ele>3.0</ele>
      </trkpt>
      <trkpt lat="44.18579" lon="12.35729">
        <ele>2.0</ele>
      </trkpt>
      <trkpt lat="44.1883" lon="12.35312">
        <ele>3.0</ele>
      </trkpt>
      <trkpt lat="44.1906" lon="12.34948">
        <ele>3.0</ele>
      </trkpt>
      <trkpt lat="44.19311" lon="12.3454">
        <ele>3.0</ele>
      </trkpt>
      <trkpt lat="44.19587" lon="12.34083">
        <ele>3.0</ele>
      </trkpt>
      <trkpt lat="44.19788" lon="12.33748">
        <ele>3.0</ele>
      </trkpt>
      <trkpt lat="44.19837" lon="12.33674">
        <ele>3.0</ele>
      </trkpt>
      <trkpt lat="44.19964" lon="12.33484">
        <ele>3.0</ele>
      </trkpt>
      <trkpt lat="44.20036" lon="12.33375">
        <ele>2.0</ele>
      </trkpt>
      <trkpt lat="44.20249" lon="12.33016">
        <ele>2.0</ele>
      </trkpt>
      <trkpt lat="44.20482" lon="12.32629">
        <ele>2.0</ele>
      </trkpt>
      <trkpt lat="44.20516" lon="12.32618">
        <ele>1.0</ele>
      </trkpt>
      <trkpt lat="44.20533" lon="12.32588">
      </trkpt>
      <trkpt lat="44.20533" lon="12.32546">
      </trkpt>
      <trkpt lat="44.20537" lon="12.32531">
      </trkpt>
      <trkpt lat="44.20835" lon="12.32064">
        <ele>1.0</ele>
      </trkpt>
      <trkpt lat="44.21001" lon="12.31801">
        <ele>2.0</ele>
      </trkpt>
      <trkpt lat="44.21164" lon="12.31547">
        <ele>2.0</ele>
      </trkpt>
      <trkpt lat="44.21321" lon="12.31289">
        <ele>2.0</ele>
      </trkpt>
      <trkpt lat="44.21527" lon="12.30943">
        <ele>2.0</ele>
      </trkpt>
      <trkpt lat="44.22011" lon="12.30133">
        <ele>2.0</ele>
      </trkpt>
      <trkpt lat="44.22458" lon="12.29409">
        <ele>3.0</ele>
      </trkpt>
      <trkpt lat="44.22694" lon="12.2903">
        <ele>3.0</ele>
      </trkpt>
      <trkpt lat="44.22997" lon="12.28542">
        <ele>4.0</ele>
      </trkpt>
      <trkpt lat="44.23319" lon="12.28027">
        <ele>4.0</ele>
      </trkpt>
      <trkpt lat="44.23804" lon="12.27224">
        <ele>5.0</ele>
      </trkpt>
      <trkpt lat="44.23879" lon="12.27096">
        <ele>6.0</ele>
      </trkpt>
      <trkpt lat="44.23877" lon="12.27015">
        <ele>7.0</ele>
      </trkpt>
      <trkpt lat="44.23877" lon="12.2698">
        <ele>7.0</ele>
      </trkpt>
      <trkpt lat="44.23874" lon="12.26967">
        <ele>7.0</ele>
      </trkpt>
      <trkpt lat="44.23865" lon="12.26944">
        <ele>7.0</ele>
      </trkpt>
      <trkpt lat="44.23841" lon="12.26694">
        <ele>7.0</ele>
      </trkpt>
      <trkpt lat="44.23831" lon="12.26547">
        <ele>7.0</ele>
      </trkpt>
      <trkpt lat="44.23806" lon="12.26095">
        <ele>7.0</ele>
      </trkpt>
      <trkpt lat="44.23759" lon="12.25438">
        <ele>8.0</ele>
      </trkpt>
      <trkpt lat="44.23691" lon="12.2465">
        <ele>9.0</ele>
      </trkpt>
      <trkpt lat="44.23637" lon="12.24168">
        <ele>12.0</ele>
      </trkpt>
      <trkpt lat="44.23643" lon="12.24127">
        <ele>16.0</ele>
      </trkpt>
      <trkpt lat="44.23643" lon="12.2412">
        <ele>17.0</ele>
      </trkpt>
      <trkpt lat="44.23637" lon="12.24115">
        <ele>17.0</ele>
      </trkpt>
      <trkpt lat="44.23593" lon="12.2409">
        <ele>17.0</ele>
      </trkpt>
      <trkpt lat="44.23486" lon="12.24046">
        <ele>17.0</ele>
      </trkpt>
      <trkpt lat="44.2332" lon="12.23979">
        <ele>15.0</ele>
      </trkpt>
      <trkpt lat="44.23179" lon="12.24011">
        <ele>13.0</ele>
      </trkpt>
      <trkpt lat="44.23095" lon="12.23975">
        <ele>13.0</ele>
      </trkpt>
      <trkpt lat="44.2305" lon="12.23902">
        <ele>13.0</ele>
      </trkpt>
      <trkpt lat="44.23047" lon="12.23863">
        <ele>13.0</ele>
      </trkpt>
      <trkpt lat="44.23053" lon="12.2385">
        <ele>13.0</ele>
      </trkpt>
      <trkpt lat="44.23048" lon="12.23836">
        <ele>13.0</ele>
      </trkpt>
      <trkpt lat="44.23034" lon="12.23695">
        <ele>14.0</ele>
      </trkpt>
      <trkpt lat="44.23035" lon="12.23569">
        <ele>15.0</ele>
      </trkpt>
      <trkpt lat="44.23054" lon="12.23439">
        <ele>15.0</ele>
      </trkpt>
      <trkpt lat="44.23095" lon="12.23396">
        <ele>14.0</ele>
      </trkpt>
      <trkpt lat="44.23159" lon="12.23383">
        <ele>14.0</ele>
      </trkpt>
      <trkpt lat="44.23279" lon="12.23444">
        <ele>14.0</ele>
      </trkpt>
      <trkpt lat="44.23324" lon="12.23471">
        <ele>14.0</ele>
      </trkpt>
      <trkpt lat="44.23338" lon="12.23451">
        <ele>14.0</ele>
      </trkpt>
      <trkpt lat="44.23323" lon="12.23363">
        <ele>14.0</ele>
      </trkpt>
      <trkpt lat="44.23334" lon="12.23218">
        <ele>14.0</ele>
      </trkpt>
      <trkpt lat="44.23342" lon="12.2319">
        <ele>14.0</ele>
      </trkpt>
      <trkpt lat="44.23387" lon="12.23063">
        <ele>14.0</ele>
      </trkpt>
      <trkpt lat="44.23396" lon="12.23033">
        <ele>13.0</ele>
      </trkpt>
      <trkpt lat="44.23525" lon="12.22615">
        <ele>12.0</ele>
      </trkpt>
      <trkpt lat="44.23702" lon="12.22047">
        <ele>11.0</ele>
      </trkpt>
      <trkpt lat="44.23752" lon="12.21994">
        <ele>12.0</ele>
      </trkpt>
      <trkpt lat="44.23768" lon="12.2195">
        <ele>12.0</ele>
      </trkpt>
      <trkpt lat="44.23762" lon="12.21861">
        <ele>13.0</ele>
      </trkpt>
      <trkpt lat="44.23866" lon="12.2151">
        <ele>12.0</ele>
      </trkpt>
      <trkpt lat="44.24202" lon="12.21492">
        <ele>10.0</ele>
      </trkpt>
      <trkpt lat="44.24604" lon="12.21466">
        <ele>7.0</ele>
      </trkpt>
      <trkpt lat="44.24772" lon="12.21478">
        <ele>8.0</ele>
      </trkpt>
      <trkpt lat="44.25047" lon="12.21446">
        <ele>8.0</ele>
      </trkpt>
      <trkpt lat="44.25247" lon="12.21437">
        <ele>7.0</ele>
      </trkpt>
      <trkpt lat="44.25802" lon="12.21411">
        <ele>7.0</ele>
      </trkpt>
      <trkpt lat="44.26244" lon="12.21401">
        <ele>6.0</ele>
      </trkpt>
      <trkpt lat="44.26532" lon="12.21376">
        <ele>6.0</ele>
      </trkpt>
      <trkpt lat="44.26682" lon="12.2137">
        <ele>6.0</ele>
      </trkpt>
      <trkpt lat="44.26814" lon="12.21365">
        <ele>6.0</ele>
      </trkpt>
      <trkpt lat="44.26893" lon="12.21362">
        <ele>6.0</ele>
      </trkpt>
      <trkpt lat="44.27053" lon="12.2135">
        <ele>6.0</ele>
      </trkpt>
      <trkpt lat="44.27207" lon="12.21341">
        <ele>6.0</ele>
      </trkpt>
      <trkpt lat="44.27356" lon="12.21332">
        <ele>7.0</ele>
      </trkpt>
      <trkpt lat="44.27378" lon="12.21313">
        <ele>8.0</ele>
      </trkpt>
      <trkpt lat="44.27381" lon="12.21247">
        <ele>7.0</ele>
      </trkpt>
      <trkpt lat="44.27387" lon="12.2114">
        <ele>7.0</ele>
      </trkpt>
      <trkpt lat="44.27388" lon="12.21037">
        <ele>6.0</ele>
      </trkpt>
      <trkpt lat="44.27385" lon="12.20942">
        <ele>5.0</ele>
      </trkpt>
      <trkpt lat="44.27393" lon="12.20788">
        <ele>5.0</ele>
      </trkpt>
      <trkpt lat="44.27393" lon="12.20599">
        <ele>5.0</ele>
      </trkpt>
      <trkpt lat="44.27393" lon="12.20342">
        <ele>5.0</ele>
      </trkpt>
      <trkpt lat="44.27445" lon="12.20067">
        <ele>4.0</ele>
      </trkpt>
      <trkpt lat="44.27574" lon="12.19664">
        <ele>4.0</ele>
      </trkpt>
      <trkpt lat="44.2763" lon="12.19591">
        <ele>3.0</ele>
      </trkpt>
      <trkpt lat="44.27802" lon="12.19479">
        <ele>3.0</ele>
      </trkpt>
      <trkpt lat="44.27891" lon="12.19398">
        <ele>2.0</ele>
      </trkpt>
      <trkpt lat="44.28062" lon="12.19227">
        <ele>2.0</ele>
      </trkpt>
      <trkpt lat="44.2812" lon="12.19157">
        <ele>3.0</ele>
      </trkpt>
      <trkpt lat="44.28197" lon="12.1906">
        <ele>3.0</ele>
      </trkpt>
      <trkpt lat="44.28506" lon="12.18301">
        <ele>4.0</ele>
      </trkpt>
      <trkpt lat="44.28695" lon="12.17993">
        <ele>5.0</ele>
      </trkpt>
      <trkpt lat="44.28826" lon="12.17777">
        <ele>7.0</ele>
      </trkpt>
      <trkpt lat="44.28934" lon="12.17578">
        <ele>9.0</ele>
      </trkpt>
      <trkpt lat="44.29152" lon="12.17106">
        <ele>8.0</ele>
      </trkpt>
      <trkpt lat="44.29358" lon="12.16433">
        <ele>7.0</ele>
      </trkpt>
      <trkpt lat="44.29368" lon="12.16309">
        <ele>6.0</ele>
      </trkpt>
      <trkpt lat="44.29377" lon="12.15974">
        <ele>6.0</ele>
      </trkpt>
      <trkpt lat="44.29389" lon="12.1558">
        <ele>8.0</ele>
      </trkpt>
      <trkpt lat="44.29398" lon="12.15407">
        <ele>10.0</ele>
      </trkpt>
      <trkpt lat="44.29428" lon="12.15299">
        <ele>10.0</ele>
      </trkpt>
      <trkpt lat="44.2973" lon="12.14943">
        <ele>10.0</ele>
      </trkpt>
      <trkpt lat="44.29961" lon="12.14698">
        <ele>10.0</ele>
      </trkpt>
      <trkpt lat="44.30066" lon="12.14585">
        <ele>9.0</ele>
      </trkpt>
      <trkpt lat="44.30166" lon="12.145">
        <ele>9.0</ele>
      </trkpt>
      <trkpt lat="44.30252" lon="12.14472">
        <ele>9.0</ele>
      </trkpt>
      <trkpt lat="44.30331" lon="12.14465">
        <ele>9.0</ele>
      </trkpt>
      <trkpt lat="44.30424" lon="12.14471">
        <ele>9.0</ele>
      </trkpt>
      <trkpt lat="44.30504" lon="12.14468">
        <ele>9.0</ele>
      </trkpt>
      <trkpt lat="44.30714" lon="12.14343">
        <ele>9.0</ele>
      </trkpt>
      <trkpt lat="44.30794" lon="12.14312">
        <ele>10.0</ele>
      </trkpt>
      <trkpt lat="44.30877" lon="12.14281">
        <ele>9.0</ele>
      </trkpt>
      <trkpt lat="44.3105" lon="12.1419">
        <ele>8.0</ele>
      </trkpt>
      <trkpt lat="44.3118" lon="12.14083">
        <ele>6.0</ele>
      </trkpt>
      <trkpt lat="44.31339" lon="12.13894">
        <ele>6.0</ele>
      </trkpt>
      <trkpt lat="44.31453" lon="12.13763">
        <ele>6.0</ele>
      </trkpt>
      <trkpt lat="44.31511" lon="12.13735">
        <ele>5.0</ele>
      </trkpt>
      <trkpt lat="44.31823" lon="12.1375">
        <ele>6.0</ele>
      </trkpt>
      <trkpt lat="44.3207" lon="12.13768">
        <ele>5.0</ele>
      </trkpt>
      <trkpt lat="44.32102" lon="12.13772">
        <ele>4.0</ele>
      </trkpt>
      <trkpt lat="44.32289" lon="12.13765">
        <ele>3.0</ele>
      </trkpt>
      <trkpt lat="44.32587" lon="12.13678">
        <ele>3.0</ele>
      </trkpt>
      <trkpt lat="44.3276" lon="12.13612">
        <ele>2.0</ele>
      </trkpt>
      <trkpt lat="44.32876" lon="12.13651">
        <ele>3.0</ele>
      </trkpt>
      <trkpt lat="44.33106" lon="12.13783">
        <ele>4.0</ele>
      </trkpt>
      <trkpt lat="44.3332" lon="12.13841">
        <ele>3.0</ele>
      </trkpt>
      <trkpt lat="44.33656" lon="12.13938">
        <ele>3.0</ele>
      </trkpt>
      <trkpt lat="44.33791" lon="12.13951">
        <ele>4.0</ele>
      </trkpt>
      <trkpt lat="44.33963" lon="12.14055">
        <ele>4.0</ele>
      </trkpt>
      <trkpt lat="44.34061" lon="12.14104">
        <ele>4.0</ele>
      </trkpt>
      <trkpt lat="44.34128" lon="12.14097">
        <ele>4.0</ele>
      </trkpt>
      <trkpt lat="44.34363" lon="12.13963">
        <ele>5.0</ele>
      </trkpt>
      <trkpt lat="44.34421" lon="12.13928">
        <ele>5.0</ele>
      </trkpt>
      <trkpt lat="44.34502" lon="12.14139">
        <ele>6.0</ele>
      </trkpt>
      <trkpt lat="44.34573" lon="12.14205">
        <ele>7.0</ele>
      </trkpt>
      <trkpt lat="44.34641" lon="12.14229">
        <ele>7.0</ele>
      </trkpt>
      <trkpt lat="44.34689" lon="12.14214">
        <ele>7.0</ele>
      </trkpt>
      <trkpt lat="44.34644" lon="12.14021">
        <ele>7.0</ele>
      </trkpt>
      <trkpt lat="44.34628" lon="12.13761">
        <ele>5.0</ele>
      </trkpt>
      <trkpt lat="44.34631" lon="12.13541">
        <ele>4.0</ele>
      </trkpt>
      <trkpt lat="44.34748" lon="12.13134">
        <ele>4.0</ele>
      </trkpt>
      <trkpt lat="44.34862" lon="12.12953">
        <ele>4.0</ele>
      </trkpt>
      <trkpt lat="44.35023" lon="12.12705">
        <ele>4.0</ele>
      </trkpt>
      <trkpt lat="44.35079" lon="12.12573">
        <ele>4.0</ele>
      </trkpt>
      <trkpt lat="44.35096" lon="12.12381">
        <ele>5.0</ele>
      </trkpt>
      <trkpt lat="44.3509" lon="12.12314">
        <ele>5.0</ele>
      </trkpt>
      <trkpt lat="44.35072" lon="12.12232">
        <ele>5.0</ele>
      </trkpt>
      <trkpt lat="44.35013" lon="12.12082">
        <ele>5.0</ele>
      </trkpt>
      <trkpt lat="44.3497" lon="12.11892">
        <ele>5.0</ele>
      </trkpt>
      <trkpt lat="44.34899" lon="12.11724">
        <ele>4.0</ele>
      </trkpt>
      <trkpt lat="44.34806" lon="12.11656">
        <ele>4.0</ele>
      </trkpt>
      <trkpt lat="44.34763" lon="12.11618">
        <ele>5.0</ele>
      </trkpt>
      <trkpt lat="44.34683" lon="12.11568">
        <ele>5.0</ele>
      </trkpt>
      <trkpt lat="44.34594" lon="12.11517">
        <ele>5.0</ele>
      </trkpt>
      <trkpt lat="44.34538" lon="12.11449">
        <ele>5.0</ele>
      </trkpt>
      <trkpt lat="44.34506" lon="12.11383">
        <ele>5.0</ele>
      </trkpt>
      <trkpt lat="44.34498" lon="12.1129">
        <ele>5.0</ele>
      </trkpt>
      <trkpt lat="44.34502" lon="12.11119">
        <ele>5.0</ele>
      </trkpt>
      <trkpt lat="44.34561" lon="12.10934">
        <ele>5.0</ele>
      </trkpt>
      <trkpt lat="44.34644" lon="12.10812">
        <ele>5.0</ele>
      </trkpt>
      <trkpt lat="44.34739" lon="12.10593">
        <ele>5.0</ele>
      </trkpt>
      <trkpt lat="44.34773" lon="12.10373">
        <ele>4.0</ele>
      </trkpt>
      <trkpt lat="44.34785" lon="12.10191">
        <ele>3.0</ele>
      </trkpt>
      <trkpt lat="44.34824" lon="12.10005">
        <ele>3.0</ele>
      </trkpt>
      <trkpt lat="44.34895" lon="12.09853">
        <ele>5.0</ele>
      </trkpt>
      <trkpt lat="44.34991" lon="12.09721">
        <ele>4.0</ele>
      </trkpt>
      <trkpt lat="44.35116" lon="12.09519">
        <ele>5.0</ele>
      </trkpt>
      <trkpt lat="44.3518" lon="12.09434">
        <ele>5.0</ele>
      </trkpt>
      <trkpt lat="44.35258" lon="12.09317">
        <ele>5.0</ele>
      </trkpt>
      <trkpt lat="44.35309" lon="12.09165">
        <ele>6.0</ele>
      </trkpt>
      <trkpt lat="44.35336" lon="12.09041">
        <ele>7.0</ele>
      </trkpt>
      <trkpt lat="44.35359" lon="12.08898">
        <ele>8.0</ele>
      </trkpt>
      <trkpt lat="44.35381" lon="12.08666">
        <ele>8.0</ele>
      </trkpt>
      <trkpt lat="44.35435" lon="12.08446">
        <ele>8.0</ele>
      </trkpt>
      <trkpt lat="44.35494" lon="12.08256">
        <ele>8.0</ele>
      </trkpt>
      <trkpt lat="44.35551" lon="12.08073">
        <ele>6.0</ele>
      </trkpt>
      <trkpt lat="44.35587" lon="12.07956">
        <ele>6.0</ele>
      </trkpt>
      <trkpt lat="44.35649" lon="12.07755">
        <ele>6.0</ele>
      </trkpt>
      <trkpt lat="44.35768" lon="12.07371">
        <ele>6.0</ele>
      </trkpt>
      <trkpt lat="44.35982" lon="12.06688">
        <ele>6.0</ele>
      </trkpt>
      <trkpt lat="44.3601" lon="12.06598">
        <ele>6.0</ele>
      </trkpt>
      <trkpt lat="44.36191" lon="12.05928">
        <ele>6.0</ele>
      </trkpt>
      <trkpt lat="44.36234" lon="12.05808">
        <ele>7.0</ele>
      </trkpt>
      <trkpt lat="44.36284" lon="12.05697">
        <ele>8.0</ele>
      </trkpt>
      <trkpt lat="44.36342" lon="12.05556">
        <ele>8.0</ele>
      </trkpt>
      <trkpt lat="44.36367" lon="12.0549">
        <ele>7.0</ele>
      </trkpt>
      <trkpt lat="44.36391" lon="12.05426">
        <ele>7.0</ele>
      </trkpt>
      <trkpt lat="44.36406" lon="12.05389">
        <ele>6.0</ele>
      </trkpt>
      <trkpt lat="44.3645" lon="12.05277">
        <ele>6.0</ele>
      </trkpt>
      <trkpt lat="44.36528" lon="12.05077">
        <ele>5.0</ele>
      </trkpt>
      <trkpt lat="44.36599" lon="12.04898">
        <ele>5.0</ele>
      </trkpt>
      <trkpt lat="44.36638" lon="12.04797">
        <ele>5.0</ele>
      </trkpt>
      <trkpt lat="44.36752" lon="12.04507">
        <ele>6.0</ele>
      </trkpt>
      <trkpt lat="44.36871" lon="12.04204">
        <ele>8.0</ele>
      </trkpt>
      <trkpt lat="44.36931" lon="12.04054">
        <ele>8.0</ele>
      </trkpt>
      <trkpt lat="44.37025" lon="12.03817">
        <ele>8.0</ele>
      </trkpt>
      <trkpt lat="44.37154" lon="12.035">
        <ele>8.0</ele>
      </trkpt>
      <trkpt lat="44.3717" lon="12.03471">
        <ele>8.0</ele>
      </trkpt>
      <trkpt lat="44.37271" lon="12.0329">
        <ele>10.0</ele>
      </trkpt>
      <trkpt lat="44.37309" lon="12.03198">
        <ele>11.0</ele>
      </trkpt>
      <trkpt lat="44.3731" lon="12.03164">
        <ele>12.0</ele>
      </trkpt>
      <trkpt lat="44.37354" lon="12.03174">
        <ele>12.0</ele>
      </trkpt>
      <trkpt lat="44.37446" lon="12.03215">
        <ele>12.0</ele>
      </trkpt>
      <trkpt lat="44.37531" lon="12.03247">
        <ele>11.0</ele>
      </trkpt>
      <trkpt lat="44.37852" lon="12.03386">
        <ele>10.0</ele>
      </trkpt>
      <trkpt lat="44.37984" lon="12.03438">
        <ele>10.0</ele>
      </trkpt>
      <trkpt lat="44.38121" lon="12.03499">
        <ele>10.0</ele>
      </trkpt>
      <trkpt lat="44.38172" lon="12.03524">
        <ele>10.0</ele>
      </trkpt>
      <trkpt lat="44.38255" lon="12.03642">
        <ele>10.0</ele>
      </trkpt>
      <trkpt lat="44.38275" lon="12.03671">
        <ele>10.0</ele>
      </trkpt>
      <trkpt lat="44.38382" lon="12.03863">
        <ele>8.0</ele>
      </trkpt>
      <trkpt lat="44.38426" lon="12.03975">
        <ele>7.0</ele>
      </trkpt>
      <trkpt lat="44.38427" lon="12.03992">
        <ele>7.0</ele>
      </trkpt>
      <trkpt lat="44.38436" lon="12.04001">
        <ele>7.0</ele>
      </trkpt>
      <trkpt lat="44.38587" lon="12.04327">
        <ele>7.0</ele>
      </trkpt>
      <trkpt lat="44.38616" lon="12.04391">
        <ele>7.0</ele>
      </trkpt>
      <trkpt lat="44.3877" lon="12.0472">
        <ele>8.0</ele>
      </trkpt>
      <trkpt lat="44.38945" lon="12.05032">
        <ele>9.0</ele>
      </trkpt>
      <trkpt lat="44.38972" lon="12.05085">
        <ele>9.0</ele>
      </trkpt>
      <trkpt lat="44.39001" lon="12.05105">
        <ele>8.0</ele>
      </trkpt>
      <trkpt lat="44.39028" lon="12.05092">
        <ele>8.0</ele>
      </trkpt>
      <trkpt lat="44.39042" lon="12.05061">
        <ele>8.0</ele>
      </trkpt>
      <trkpt lat="44.39045" lon="12.05023">
        <ele>8.0</ele>
      </trkpt>
      <trkpt lat="44.39081" lon="12.04919">
        <ele>7.0</ele>
      </trkpt>
      <trkpt lat="44.39155" lon="12.04745">
        <ele>7.0</ele>
      </trkpt>
      <trkpt lat="44.39468" lon="12.04009">
        <ele>8.0</ele>
      </trkpt>
      <trkpt lat="44.39594" lon="12.0371">
        <ele>8.0</ele>
      </trkpt>
      <trkpt lat="44.39743" lon="12.03358">
        <ele>8.0</ele>
      </trkpt>
      <trkpt lat="44.39918" lon="12.02939">
        <ele>8.0</ele>
      </trkpt>
      <trkpt lat="44.40031" lon="12.02668">
        <ele>9.0</ele>
      </trkpt>
      <trkpt lat="44.40121" lon="12.02458">
        <ele>11.0</ele>
      </trkpt>
      <trkpt lat="44.40174" lon="12.02183">
        <ele>10.0</ele>
      </trkpt>
      <trkpt lat="44.40216" lon="12.01961">
        <ele>9.0</ele>
      </trkpt>
      <trkpt lat="44.40288" lon="12.01658">
        <ele>7.0</ele>
      </trkpt>
      <trkpt lat="44.4033" lon="12.01531">
        <ele>5.0</ele>
      </trkpt>
      <trkpt lat="44.40477" lon="12.00948">
        <ele>6.0</ele>
      </trkpt>
      <trkpt lat="44.4059" lon="12.00533">
        <ele>7.0</ele>
      </trkpt>
      <trkpt lat="44.40661" lon="12.00276">
        <ele>7.0</ele>
      </trkpt>
      <trkpt lat="44.40828" lon="11.99828">
        <ele>6.0</ele>
      </trkpt>
      <trkpt lat="44.40864" lon="11.99734">
        <ele>7.0</ele>
      </trkpt>
      <trkpt lat="44.40961" lon="11.99474">
        <ele>8.0</ele>
      </trkpt>
      <trkpt lat="44.41046" lon="11.99251">
        <ele>8.0</ele>
      </trkpt>
      <trkpt lat="44.41101" lon="11.99104">
        <ele>8.0</ele>
      </trkpt>
      <trkpt lat="44.41208" lon="11.9881">
        <ele>8.0</ele>
      </trkpt>
      <trkpt lat="44.41291" lon="11.98587">
        <ele>8.0</ele>
      </trkpt>
      <trkpt lat="44.41319" lon="11.98513">
        <ele>8.0</ele>
      </trkpt>
      <trkpt lat="44.41361" lon="11.984">
        <ele>9.0</ele>
      </trkpt>
      <trkpt lat="44.41374" lon="11.98349">
        <ele>9.0</ele>
      </trkpt>
      <trkpt lat="44.41378" lon="11.98302">
        <ele>9.0</ele>
      </trkpt>
      <trkpt lat="44.41386" lon="11.98186">
        <ele>9.0</ele>
      </trkpt>
      <trkpt lat="44.41397" lon="11.98027">
        <ele>9.0</ele>
      </trkpt>
      <trkpt lat="44.4141" lon="11.9792">
        <ele>9.0</ele>
      </trkpt>
      <trkpt lat="44.41427" lon="11.97919">
        <ele>10.0</ele>
      </trkpt>
      <trkpt lat="44.41449" lon="11.97954">
        <ele>10.0</ele>
      </trkpt>
      <trkpt lat="44.41512" lon="11.9801">
        <ele>11.0</ele>
      </trkpt>
      <trkpt lat="44.41524" lon="11.98018">
        <ele>11.0</ele>
      </trkpt>
      <trkpt lat="44.41536" lon="11.98026">
        <ele>11.0</ele>
      </trkpt>
      <trkpt lat="44.41561" lon="11.98039">
        <ele>11.0</ele>
      </trkpt>
      <trkpt lat="44.41598" lon="11.98062">
        <ele>11.0</ele>
      </trkpt>
      <trkpt lat="44.41677" lon="11.98106">
        <ele>11.0</ele>
      </trkpt>
      <trkpt lat="44.41689" lon="11.98117">
        <ele>11.0</ele>
      </trkpt>
      <trkpt lat="44.41694" lon="11.98127">
        <ele>11.0</ele>
      </trkpt>
      <trkpt lat="44.41702" lon="11.98131">
        <ele>10.0</ele>
      </trkpt>
      <trkpt lat="44.4171" lon="11.98129">
        <ele>10.0</ele>
      </trkpt>
      <trkpt lat="44.41715" lon="11.98121">
        <ele>10.0</ele>
      </trkpt>
      <trkpt lat="44.41715" lon="11.98106">
        <ele>10.0</ele>
      </trkpt>
      <trkpt lat="44.4178" lon="11.98023">
        <ele>9.0</ele>
      </trkpt>
      <trkpt lat="44.41869" lon="11.97946">
        <ele>9.0</ele>
      </trkpt>
      <trkpt lat="44.41964" lon="11.98055">
        <ele>9.0</ele>
      </trkpt>
      <trkpt lat="44.42084" lon="11.98195">
        <ele>9.0</ele>
      </trkpt>
      <trkpt lat="44.42135" lon="11.98329">
        <ele>9.0</ele>
      </trkpt>
      <trkpt lat="44.42173" lon="11.98492">
        <ele>8.0</ele>
      </trkpt>
      <trkpt lat="44.42202" lon="11.98545">
        <ele>8.0</ele>
      </trkpt>
      <trkpt lat="44.42341" lon="11.98671">
        <ele>8.0</ele>
      </trkpt>
      <trkpt lat="44.42475" lon="11.98796">
        <ele>7.0</ele>
      </trkpt>
      <trkpt lat="44.42706" lon="11.99086">
        <ele>7.0</ele>
      </trkpt>
      <trkpt lat="44.42763" lon="11.99166">
        <ele>7.0</ele>
      </trkpt>
      <trkpt lat="44.42781" lon="11.99214">
        <ele>7.0</ele>
      </trkpt>
      <trkpt lat="44.4281" lon="11.99351">
        <ele>6.0</ele>
      </trkpt>
      <trkpt lat="44.42848" lon="11.99441">
        <ele>6.0</ele>
      </trkpt>
      <trkpt lat="44.4291" lon="11.99545">
        <ele>5.0</ele>
      </trkpt>
      <trkpt lat="44.43015" lon="11.99686">
        <ele>6.0</ele>
      </trkpt>
      <trkpt lat="44.43062" lon="11.99882">
        <ele>7.0</ele>
      </trkpt>
      <trkpt lat="44.43085" lon="11.99939">
        <ele>7.0</ele>
      </trkpt>
      <trkpt lat="44.43306" lon="12.0016">
        <ele>6.0</ele>
      </trkpt>
      <trkpt lat="44.43388" lon="12.00263">
        <ele>6.0</ele>
      </trkpt>
      <trkpt lat="44.43595" lon="12.00369">
        <ele>6.0</ele>
      </trkpt>
      <trkpt lat="44.43831" lon="12.0047">
        <ele>5.0</ele>
      </trkpt>
      <trkpt lat="44.43887" lon="12.00481">
        <ele>5.0</ele>
      </trkpt>
      <trkpt lat="44.44291" lon="12.00645">
        <ele>4.0</ele>
      </trkpt>
      <trkpt lat="44.44422" lon="12.00708">
        <ele>3.0</ele>
      </trkpt>
      <trkpt lat="44.44497" lon="12.00763">
        <ele>3.0</ele>
      </trkpt>
      <trkpt lat="44.44677" lon="12.00977">
        <ele>3.0</ele>
      </trkpt>
      <trkpt lat="44.44846" lon="12.01116">
        <ele>4.0</ele>
      </trkpt>
      <trkpt lat="44.45383" lon="12.01476">
        <ele>4.0</ele>
      </trkpt>
      <trkpt lat="44.45736" lon="12.0172">
        <ele>3.0</ele>
      </trkpt>
      <trkpt lat="44.46489" lon="12.02278">
        <ele>3.0</ele>
      </trkpt>
      <trkpt lat="44.46764" lon="12.02483">
        <ele>2.0</ele>
      </trkpt>
      <trkpt lat="44.46881" lon="12.02543">
        <ele>1.0</ele>
      </trkpt>
      <trkpt lat="44.4706" lon="12.02639">
        <ele>2.0</ele>
      </trkpt>
      <trkpt lat="44.47179" lon="12.02766">
        <ele>2.0</ele>
      </trkpt>
      <trkpt lat="44.47341" lon="12.02931">
        <ele>2.0</ele>
      </trkpt>
      <trkpt lat="44.47446" lon="12.03087">
        <ele>2.0</ele>
      </trkpt>
      <trkpt lat="44.47854" lon="12.03715">
        <ele>3.0</ele>
      </trkpt>
      <trkpt lat="44.48243" lon="12.04276">
        <ele>2.0</ele>
      </trkpt>
      <trkpt lat="44.48438" lon="12.04586">
        <ele>3.0</ele>
      </trkpt>
      <trkpt lat="44.48577" lon="12.04762">
        <ele>2.0</ele>
      </trkpt>
      <trkpt lat="44.48833" lon="12.05014">
        <ele>1.0</ele>
      </trkpt>
      <trkpt lat="44.48985" lon="12.05123">
        <ele>1.0</ele>
      </trkpt>
      <trkpt lat="44.49263" lon="12.05284">
        <ele>1.0</ele>
      </trkpt>
      <trkpt lat="44.49581" lon="12.05608">
        <ele>1.0</ele>
      </trkpt>
      <trkpt lat="44.49644" lon="12.05607">
        <ele>1.0</ele>
      </trkpt>
      <trkpt lat="44.49658" lon="12.05615">
        <ele>1.0</ele>
      </trkpt>
      <trkpt lat="44.49667" lon="12.05634">
        <ele>2.0</ele>
      </trkpt>
      <trkpt lat="44.49673" lon="12.05656">
        <ele>2.0</ele>
      </trkpt>
      <trkpt lat="44.4969" lon="12.05675">
        <ele>2.0</ele>
      </trkpt>
      <trkpt lat="44.49717" lon="12.05674">
        <ele>2.0</ele>
      </trkpt>
      <trkpt lat="44.49731" lon="12.05659">
        <ele>3.0</ele>
      </trkpt>
      <trkpt lat="44.49738" lon="12.05637">
        <ele>3.0</ele>
      </trkpt>
      <trkpt lat="44.49737" lon="12.05619">
        <ele>3.0</ele>
      </trkpt>
      <trkpt lat="44.49738" lon="12.05604">
        <ele>3.0</ele>
      </trkpt>
      <trkpt lat="44.49743" lon="12.05587">
        <ele>4.0</ele>
      </trkpt>
      <trkpt lat="44.49756" lon="12.0557">
        <ele>4.0</ele>
      </trkpt>
      <trkpt lat="44.49797" lon="12.05523">
        <ele>4.0</ele>
      </trkpt>
      <trkpt lat="44.49994" lon="12.05277">
        <ele>4.0</ele>
      </trkpt>
      <trkpt lat="44.50086" lon="12.05165">
        <ele>4.0</ele>
      </trkpt>
      <trkpt lat="44.50267" lon="12.04945">
        <ele>3.0</ele>
      </trkpt>
      <trkpt lat="44.50328" lon="12.04882">
        <ele>3.0</ele>
      </trkpt>
      <trkpt lat="44.5034" lon="12.0488">
        <ele>3.0</ele>
      </trkpt>
      <trkpt lat="44.50397" lon="12.04924">
        <ele>5.0</ele>
      </trkpt>
      <trkpt lat="44.50417" lon="12.04954">
        <ele>6.0</ele>
      </trkpt>
      <trkpt lat="44.50437" lon="12.05019">
        <ele>6.0</ele>
      </trkpt>
      <trkpt lat="44.50497" lon="12.05227">
        <ele>5.0</ele>
      </trkpt>
      <trkpt lat="44.50564" lon="12.05401">
        <ele>4.0</ele>
      </trkpt>
      <trkpt lat="44.50618" lon="12.05555">
        <ele>5.0</ele>
      </trkpt>
      <trkpt lat="44.50681" lon="12.05811">
        <ele>6.0</ele>
      </trkpt>
      <trkpt lat="44.50692" lon="12.05865">
        <ele>6.0</ele>
      </trkpt>
      <trkpt lat="44.50736" lon="12.05985">
        <ele>5.0</ele>
      </trkpt>
      <trkpt lat="44.50771" lon="12.06054">
        <ele>4.0</ele>
      </trkpt>
      <trkpt lat="44.50774" lon="12.0608">
        <ele>4.0</ele>
      </trkpt>
      <trkpt lat="44.5071" lon="12.06284">
        <ele>3.0</ele>
      </trkpt>
      <trkpt lat="44.50712" lon="12.06349">
        <ele>2.0</ele>
      </trkpt>
      <trkpt lat="44.50974" lon="12.06506">
      </trkpt>
      <trkpt lat="44.51389" lon="12.06891">
        <ele>1.0</ele>
      </trkpt>
      <trkpt lat="44.51426" lon="12.06927">
        <ele>2.0</ele>
      </trkpt>
      <trkpt lat="44.52167" lon="12.07789">
        <ele>1.0</ele>
      </trkpt>
      <trkpt lat="44.52257" lon="12.07885">
        <ele>1.0</ele>
      </trkpt>
      <trkpt lat="44.52276" lon="12.07922">
        <ele>1.0</ele>
      </trkpt>
      <trkpt lat="44.52276" lon="12.07971">
        <ele>1.0</ele>
      </trkpt>
      <trkpt lat="44.52259" lon="12.08006">
      </trkpt>
      <trkpt lat="44.52041" lon="12.08189">
      </trkpt>
      <trkpt lat="44.51972" lon="12.0827">
        <ele>-1.0</ele>
      </trkpt>
      <trkpt lat="44.5182" lon="12.08566">
        <ele>-1.0</ele>
      </trkpt>
      <trkpt lat="44.51758" lon="12.08712">
        <ele>-1.0</ele>
      </trkpt>
      <trkpt lat="44.51625" lon="12.09029">
      </trkpt>
      <trkpt lat="44.51459" lon="12.09401">
      </trkpt>
      <trkpt lat="44.51292" lon="12.0959">
      </trkpt>
      <trkpt lat="44.50945" lon="12.09996">
        <ele>1.0</ele>
      </trkpt>
      <trkpt lat="44.50949" lon="12.10004">
        <ele>1.0</ele>
      </trkpt>
      <trkpt lat="44.50972" lon="12.10008">
        <ele>1.0</ele>
      </trkpt>
      <trkpt lat="44.51051" lon="12.10024">
        <ele>1.0</ele>
      </trkpt>
      <trkpt lat="44.5141" lon="12.10229">
        <ele>2.0</ele>
      </trkpt>
      <trkpt lat="44.51611" lon="12.10407">
        <ele>4.0</ele>
      </trkpt>
      <trkpt lat="44.51803" lon="12.1059">
        <ele>4.0</ele>
      </trkpt>
      <trkpt lat="44.51842" lon="12.10628">
        <ele>4.0</ele>
      </trkpt>
      <trkpt lat="44.51867" lon="12.10652">
        <ele>3.0</ele>
      </trkpt>
      <trkpt lat="44.52023" lon="12.108">
        <ele>3.0</ele>
      </trkpt>
      <trkpt lat="44.52548" lon="12.113">
        <ele>2.0</ele>
      </trkpt>
      <trkpt lat="44.52709" lon="12.11472">
        <ele>2.0</ele>
      </trkpt>
      <trkpt lat="44.53045" lon="12.11949">
        <ele>3.0</ele>
      </trkpt>
      <trkpt lat="44.53529" lon="12.12629">
        <ele>3.0</ele>
      </trkpt>
      <trkpt lat="44.53643" lon="12.12783">
        <ele>4.0</ele>
      </trkpt>
      <trkpt lat="44.53771" lon="12.12967">
        <ele>4.0</ele>
      </trkpt>
      <trkpt lat="44.53862" lon="12.13165">
        <ele>2.0</ele>
      </trkpt>
      <trkpt lat="44.53909" lon="12.13337">
        <ele>2.0</ele>
      </trkpt>
      <trkpt lat="44.53896" lon="12.13571">
        <ele>2.0</ele>
      </trkpt>
      <trkpt lat="44.5387" lon="12.13783">
        <ele>1.0</ele>
      </trkpt>
      <trkpt lat="44.53869" lon="12.13809">
        <ele>1.0</ele>
      </trkpt>
      <trkpt lat="44.53904" lon="12.13983">
        <ele>2.0</ele>
      </trkpt>
      <trkpt lat="44.53998" lon="12.142">
        <ele>3.0</ele>
      </trkpt>
      <trkpt lat="44.54051" lon="12.14346">
        <ele>3.0</ele>
      </trkpt>
      <trkpt lat="44.54065" lon="12.14464">
        <ele>2.0</ele>
      </trkpt>
      <trkpt lat="44.54058" lon="12.14558">
        <ele>2.0</ele>
      </trkpt>
      <trkpt lat="44.54049" lon="12.14601">
        <ele>1.0</ele>
      </trkpt>
      <trkpt lat="44.53974" lon="12.14862">
        <ele>1.0</ele>
      </trkpt>
      <trkpt lat="44.53834" lon="12.15349">
        <ele>1.0</ele>
      </trkpt>
      <trkpt lat="44.53805" lon="12.15494">
        <ele>2.0</ele>
      </trkpt>
      <trkpt lat="44.5378" lon="12.15661">
        <ele>2.0</ele>
      </trkpt>
      <trkpt lat="44.53714" lon="12.16127">
        <ele>3.0</ele>
      </trkpt>
      <trkpt lat="44.53709" lon="12.16174">
        <ele>3.0</ele>
      </trkpt>
      <trkpt lat="44.53711" lon="12.16243">
        <ele>4.0</ele>
      </trkpt>
      <trkpt lat="44.53717" lon="12.1632">
        <ele>4.0</ele>
      </trkpt>
      <trkpt lat="44.53713" lon="12.16382">
        <ele>4.0</ele>
      </trkpt>
      <trkpt lat="44.5365" lon="12.16767">
        <ele>2.0</ele>
      </trkpt>
      <trkpt lat="44.53547" lon="12.17377">
        <ele>2.0</ele>
      </trkpt>
      <trkpt lat="44.53553" lon="12.17518">
        <ele>3.0</ele>
      </trkpt>
      <trkpt lat="44.53551" lon="12.17561">
        <ele>3.0</ele>
      </trkpt>
      <trkpt lat="44.53486" lon="12.17457">
        <ele>3.0</ele>
      </trkpt>
      <trkpt lat="44.53434" lon="12.17332">
        <ele>2.0</ele>
      </trkpt>
      <trkpt lat="44.53407" lon="12.17268">
        <ele>2.0</ele>
      </trkpt>
      <trkpt lat="44.53379" lon="12.17201">
        <ele>1.0</ele>
      </trkpt>
      <trkpt lat="44.53329" lon="12.17087">
        <ele>1.0</ele>
      </trkpt>
      <trkpt lat="44.5327" lon="12.1702">
        <ele>1.0</ele>
      </trkpt>
      <trkpt lat="44.53229" lon="12.16996">
        <ele>1.0</ele>
      </trkpt>
      <trkpt lat="44.53064" lon="12.16975">
      </trkpt>
      <trkpt lat="44.52995" lon="12.16967">
        <ele>-2.0</ele>
      </trkpt>
      <trkpt lat="44.52979" lon="12.16965">
        <ele>-2.0</ele>
      </trkpt>
      <trkpt lat="44.52945" lon="12.16961">
        <ele>-2.0</ele>
      </trkpt>
      <trkpt lat="44.52687" lon="12.16936">
        <ele>-2.0</ele>
      </trkpt>
      <trkpt lat="44.52537" lon="12.1694">
        <ele>-2.0</ele>
      </trkpt>
      <trkpt lat="44.5198" lon="12.16948">
        <ele>-2.0</ele>
      </trkpt>
      <trkpt lat="44.51698" lon="12.16962">
        <ele>-1.0</ele>
      </trkpt>
      <trkpt lat="44.51346" lon="12.17009">
        <ele>-1.0</ele>
      </trkpt>
      <trkpt lat="44.5076" lon="12.17093">
      </trkpt>
      <trkpt lat="44.50496" lon="12.17147">
        <ele>1.0</ele>
      </trkpt>
      <trkpt lat="44.50261" lon="12.1719">
      </trkpt>
      <trkpt lat="44.50031" lon="12.17218">
      </trkpt>
      <trkpt lat="44.49873" lon="12.17245">
      </trkpt>
      <trkpt lat="44.49518" lon="12.17346">
        <ele>-1.0</ele>
      </trkpt>
      <trkpt lat="44.49288" lon="12.17413">
        <ele>-1.0</ele>
      </trkpt>
      <trkpt lat="44.48584" lon="12.17604">
        <ele>-2.0</ele>
      </trkpt>
      <trkpt lat="44.4821" lon="12.17699">
        <ele>-1.0</ele>
      </trkpt>
      <trkpt lat="44.48139" lon="12.1772">
        <ele>-1.0</ele>
      </trkpt>
      <trkpt lat="44.48102" lon="12.17743">
        <ele>-1.0</ele>
      </trkpt>
      <trkpt lat="44.48" lon="12.1782">
        <ele>-1.0</ele>
      </trkpt>
      <trkpt lat="44.47927" lon="12.17857">
        <ele>-1.0</ele>
      </trkpt>
      <trkpt lat="44.47556" lon="12.17976">
        <ele>-2.0</ele>
      </trkpt>
      <trkpt lat="44.4722" lon="12.18086">
        <ele>-3.0</ele>
      </trkpt>
      <trkpt lat="44.46963" lon="12.18179">
        <ele>-3.0</ele>
      </trkpt>
      <trkpt lat="44.46711" lon="12.18237">
        <ele>-3.0</ele>
      </trkpt>
      <trkpt lat="44.46528" lon="12.18343">
        <ele>-3.0</ele>
      </trkpt>
      <trkpt lat="44.46379" lon="12.18367">
        <ele>-2.0</ele>
      </trkpt>
      <trkpt lat="44.46164" lon="12.18426">
      </trkpt>
      <trkpt lat="44.46077" lon="12.18483">
      </trkpt>
      <trkpt lat="44.45942" lon="12.18581">
        <ele>-1.0</ele>
      </trkpt>
      <trkpt lat="44.45873" lon="12.18624">
      </trkpt>
      <trkpt lat="44.45666" lon="12.18715">
        <ele>1.0</ele>
      </trkpt>
      <trkpt lat="44.45486" lon="12.18836">
      </trkpt>
      <trkpt lat="44.45038" lon="12.19153">
        <ele>-2.0</ele>
      </trkpt>
      <trkpt lat="44.45007" lon="12.19161">
        <ele>-2.0</ele>
      </trkpt>
      <trkpt lat="44.44991" lon="12.19154">
        <ele>-2.0</ele>
      </trkpt>
      <trkpt lat="44.44979" lon="12.19158">
        <ele>-2.0</ele>
      </trkpt>
      <trkpt lat="44.44969" lon="12.19177">
        <ele>-2.0</ele>
      </trkpt>
      <trkpt lat="44.4496" lon="12.19206">
        <ele>-2.0</ele>
      </trkpt>
      <trkpt lat="44.44931" lon="12.19224">
        <ele>-2.0</ele>
      </trkpt>
      <trkpt lat="44.44841" lon="12.19286">
        <ele>-2.0</ele>
      </trkpt>
      <trkpt lat="44.44704" lon="12.19377">
        <ele>-2.0</ele>
      </trkpt>
      <trkpt lat="44.44413" lon="12.19577">
        <ele>-2.0</ele>
      </trkpt>
      <trkpt lat="44.44084" lon="12.19796">
        <ele>-3.0</ele>
      </trkpt>
      <trkpt lat="44.44062" lon="12.198">
        <ele>-3.0</ele>
      </trkpt>
      <trkpt lat="44.44052" lon="12.19802">
        <ele>-3.0</ele>
      </trkpt>
      <trkpt lat="44.44045" lon="12.19814">
        <ele>-3.0</ele>
      </trkpt>
      <trkpt lat="44.44033" lon="12.19835">
        <ele>-3.0</ele>
      </trkpt>
      <trkpt lat="44.43972" lon="12.19879">
        <ele>-2.0</ele>
      </trkpt>
      <trkpt lat="44.43793" lon="12.19995">
        <ele>-2.0</ele>
      </trkpt>
      <trkpt lat="44.43757" lon="12.2002">
        <ele>-3.0</ele>
      </trkpt>
      <trkpt lat="44.43743" lon="12.20031">
        <ele>-4.0</ele>
      </trkpt>
      <trkpt lat="44.43732" lon="12.20034">
        <ele>-4.0</ele>
      </trkpt>
      <trkpt lat="44.43721" lon="12.20031">
        <ele>-4.0</ele>
      </trkpt>
      <trkpt lat="44.43711" lon="12.20043">
        <ele>-4.0</ele>
      </trkpt>
      <trkpt lat="44.43707" lon="12.20059">
        <ele>-4.0</ele>
      </trkpt>
      <trkpt lat="44.43684" lon="12.20083">
        <ele>-4.0</ele>
      </trkpt>
      <trkpt lat="44.43654" lon="12.20092">
        <ele>-4.0</ele>
      </trkpt>
      <trkpt lat="44.43629" lon="12.20096">
        <ele>-4.0</ele>
      </trkpt>
      <trkpt lat="44.43552" lon="12.20142">
        <ele>-4.0</ele>
      </trkpt>
      <trkpt lat="44.43537" lon="12.20151">
        <ele>-4.0</ele>
      </trkpt>
      <trkpt lat="44.43518" lon="12.20151">
        <ele>-4.0</ele>
      </trkpt>
      <trkpt lat="44.43496" lon="12.20137">
        <ele>-4.0</ele>
      </trkpt>
      <trkpt lat="44.43474" lon="12.20136">
        <ele>-4.0</ele>
      </trkpt>
      <trkpt lat="44.43446" lon="12.20142">
        <ele>-4.0</ele>
      </trkpt>
      <trkpt lat="44.43272" lon="12.19989">
        <ele>-4.0</ele>
      </trkpt>
      <trkpt lat="44.43235" lon="12.19955">
        <ele>-3.0</ele>
      </trkpt>
      <trkpt lat="44.43195" lon="12.19917">
        <ele>-2.0</ele>
      </trkpt>
      <trkpt lat="44.43111" lon="12.19841">
        <ele>-1.0</ele>
      </trkpt>
      <trkpt lat="44.43094" lon="12.19825">
      </trkpt>
      <trkpt lat="44.43003" lon="12.19742">
        <ele>1.0</ele>
      </trkpt>
      <trkpt lat="44.42984" lon="12.19731">
        <ele>1.0</ele>
      </trkpt>
      <trkpt lat="44.42974" lon="12.19729">
        <ele>1.0</ele>
      </trkpt>
      <trkpt lat="44.4296" lon="12.19737">
        <ele>1.0</ele>
      </trkpt>
      <trkpt lat="44.4294" lon="12.19775">
        <ele>1.0</ele>
      </trkpt>
      <trkpt lat="44.42894" lon="12.1986">
        <ele>1.0</ele>
      </trkpt>
      <trkpt lat="44.42867" lon="12.19886">
        <ele>1.0</ele>
      </trkpt>
      <trkpt lat="44.42806" lon="12.19923">
        <ele>1.0</ele>
      </trkpt>
      <trkpt lat="44.42763" lon="12.19943">
      </trkpt>
      <trkpt lat="44.42686" lon="12.19983">
      </trkpt>
      <trkpt lat="44.4262" lon="12.20013">
      </trkpt>
      <trkpt lat="44.42535" lon="12.20049">
      </trkpt>
      <trkpt lat="44.42496" lon="12.20066">
        <ele>1.0</ele>
      </trkpt>
      <trkpt lat="44.42377" lon="12.20116">
        <ele>2.0</ele>
      </trkpt>
      <trkpt lat="44.42318" lon="12.2014">
        <ele>2.0</ele>
      </trkpt>
      <trkpt lat="44.42315" lon="12.20144">
        <ele>2.0</ele>
      </trkpt>
      <trkpt lat="44.42274" lon="12.20177">
        <ele>2.0</ele>
      </trkpt>
      <trkpt lat="44.42244" lon="12.20182">
        <ele>2.0</ele>
      </trkpt>
      <trkpt lat="44.42183" lon="12.20199">
        <ele>2.0</ele>
      </trkpt>
      <trkpt lat="44.42025" lon="12.20272">
        <ele>4.0</ele>
      </trkpt>
      <trkpt lat="44.4186" lon="12.20343">
        <ele>4.0</ele>
      </trkpt>
      <trkpt lat="44.41819" lon="12.20362">
        <ele>4.0</ele>
      </trkpt>
      <trkpt lat="44.41779" lon="12.20375">
        <ele>4.0</ele>
      </trkpt>
      <trkpt lat="44.41746" lon="12.20387">
        <ele>4.0</ele>
      </trkpt>
      <trkpt lat="44.41597" lon="12.20456">
        <ele>3.0</ele>
      </trkpt>
      <trkpt lat="44.41455" lon="12.20531">
        <ele>2.0</ele>
      </trkpt>
      <trkpt lat="44.41398" lon="12.20559">
        <ele>2.0</ele>
      </trkpt>
      <trkpt lat="44.41314" lon="12.20597">
        <ele>2.0</ele>
      </trkpt>
      <trkpt lat="44.41303" lon="12.20603">
        <ele>2.0</ele>
      </trkpt>
      <trkpt lat="44.41251" lon="12.20628">
        <ele>2.0</ele>
      </trkpt>
      <trkpt lat="44.41236" lon="12.20641">
        <ele>3.0</ele>
      </trkpt>
      <trkpt lat="44.4122" lon="12.20642">
        <ele>3.0</ele>
      </trkpt>
      <trkpt lat="44.41173" lon="12.20651">
        <ele>3.0</ele>
      </trkpt>
      <trkpt lat="44.41161" lon="12.20647">
        <ele>3.0</ele>
      </trkpt>
      <trkpt lat="44.41149" lon="12.20663">
        <ele>3.0</ele>
      </trkpt>
      <trkpt lat="44.41108" lon="12.20679">
        <ele>3.0</ele>
      </trkpt>
      <trkpt lat="44.41056" lon="12.20704">
        <ele>3.0</ele>
      </trkpt>
      <trkpt lat="44.40944" lon="12.20756">
        <ele>3.0</ele>
      </trkpt>
      <trkpt lat="44.40869" lon="12.20788">
        <ele>3.0</ele>
      </trkpt>
      <trkpt lat="44.40848" lon="12.20797">
        <ele>3.0</ele>
      </trkpt>
      <trkpt lat="44.40814" lon="12.20812">
        <ele>3.0</ele>
      </trkpt>
      <trkpt lat="44.40753" lon="12.2084">
        <ele>3.0</ele>
      </trkpt>
      <trkpt lat="44.40658" lon="12.20882">
        <ele>2.0</ele>
      </trkpt>
      <trkpt lat="44.40594" lon="12.20912">
        <ele>1.0</ele>
      </trkpt>
      <trkpt lat="44.4054" lon="12.2094">
      </trkpt>
      <trkpt lat="44.40489" lon="12.20962">
      </trkpt>
      <trkpt lat="44.40468" lon="12.20963">
      </trkpt>
      <trkpt lat="44.40454" lon="12.20961">
      </trkpt>
      <trkpt lat="44.40433" lon="12.20947">
        <ele>1.0</ele>
      </trkpt>
      <trkpt lat="44.40419" lon="12.20933">
        <ele>1.0</ele>
      </trkpt>
      <trkpt lat="44.40402" lon="12.20941">
        <ele>1.0</ele>
      </trkpt>
      <trkpt lat="44.40396" lon="12.2096">
        <ele>1.0</ele>
      </trkpt>
      <trkpt lat="44.40373" lon="12.21046">
        <ele>1.0</ele>
      </trkpt>
      <trkpt lat="44.40297" lon="12.2116">
      </trkpt>
      <trkpt lat="44.40212" lon="12.21283">
        <ele>-1.0</ele>
      </trkpt>
      <trkpt lat="44.40174" lon="12.21335">
        <ele>-1.0</ele>
      </trkpt>
      <trkpt lat="44.40123" lon="12.21373">
      </trkpt>
      <trkpt lat="44.40089" lon="12.21372">
        <ele>1.0</ele>
      </trkpt>
      <trkpt lat="44.40073" lon="12.21369">
        <ele>1.0</ele>
      </trkpt>
      <trkpt lat="44.40055" lon="12.21385">
        <ele>1.0</ele>
      </trkpt>
      <trkpt lat="44.40051" lon="12.21416">
        <ele>1.0</ele>
      </trkpt>
      <trkpt lat="44.40066" lon="12.21442">
      </trkpt>
      <trkpt lat="44.40085" lon="12.21456">
      </trkpt>
      <trkpt lat="44.40109" lon="12.21482">
        <ele>-1.0</ele>
      </trkpt>
      <trkpt lat="44.40209" lon="12.2172">
        <ele>-2.0</ele>
      </trkpt>
      <trkpt lat="44.40247" lon="12.2181">
        <ele>-3.0</ele>
      </trkpt>
      <trkpt lat="44.40363" lon="12.22088">
        <ele>-3.0</ele>
      </trkpt>
      <trkpt lat="44.40364" lon="12.22112">
        <ele>-3.0</ele>
      </trkpt>
      <trkpt lat="44.40366" lon="12.22133">
        <ele>-3.0</ele>
      </trkpt>
      <trkpt lat="44.40379" lon="12.22142">
        <ele>-3.0</ele>
      </trkpt>
      <trkpt lat="44.40403" lon="12.22181">
        <ele>-3.0</ele>
      </trkpt>
      <trkpt lat="44.40526" lon="12.22433">
        <ele>-3.0</ele>
      </trkpt>
      <trkpt lat="44.40916" lon="12.22939">
        <ele>-2.0</ele>
      </trkpt>
      <trkpt lat="44.40971" lon="12.22989">
        <ele>-2.0</ele>
      </trkpt>
      <trkpt lat="44.41" lon="12.23032">
        <ele>-2.0</ele>
      </trkpt>
      <trkpt lat="44.41012" lon="12.23052">
        <ele>-2.0</ele>
      </trkpt>
      <trkpt lat="44.41027" lon="12.23053">
        <ele>-2.0</ele>
      </trkpt>
      <trkpt lat="44.41069" lon="12.23061">
        <ele>-2.0</ele>
      </trkpt>
      <trkpt lat="44.41316" lon="12.23358">
        <ele>-2.0</ele>
      </trkpt>
      <trkpt lat="44.41356" lon="12.23398">
        <ele>-2.0</ele>
      </trkpt>
      <trkpt lat="44.41407" lon="12.23422">
        <ele>-2.0</ele>
      </trkpt>
      <trkpt lat="44.41437" lon="12.23425">
        <ele>-2.0</ele>
      </trkpt>
      <trkpt lat="44.41483" lon="12.23418">
        <ele>-2.0</ele>
      </trkpt>
      <trkpt lat="44.4153" lon="12.23392">
        <ele>-2.0</ele>
      </trkpt>
      <trkpt lat="44.41683" lon="12.23281">
        <ele>-1.0</ele>
      </trkpt>
      <trkpt lat="44.41865" lon="12.23167">
        <ele>-1.0</ele>
      </trkpt>
      <trkpt lat="44.41892" lon="12.23187">
        <ele>-1.0</ele>
      </trkpt>
      <trkpt lat="44.41974" lon="12.23374">
        <ele>-2.0</ele>
      </trkpt>
      <trkpt lat="44.42013" lon="12.23445">
        <ele>-2.0</ele>
      </trkpt>
      <trkpt lat="44.42021" lon="12.23475">
        <ele>-1.0</ele>
      </trkpt>
      <trkpt lat="44.42042" lon="12.23523">
        <ele>-1.0</ele>
      </trkpt>
      <trkpt lat="44.42071" lon="12.23607">
      </trkpt>
      <trkpt lat="44.42152" lon="12.23819">
        <ele>-1.0</ele>
      </trkpt>
      <trkpt lat="44.42183" lon="12.23904">
        <ele>-2.0</ele>
      </trkpt>
      <trkpt lat="44.4226" lon="12.24112">
        <ele>-1.0</ele>
      </trkpt>
      <trkpt lat="44.423" lon="12.2422">
        <ele>-1.0</ele>
      </trkpt>
      <trkpt lat="44.42377" lon="12.24396">
        <ele>-2.0</ele>
      </trkpt>
      <trkpt lat="44.42519" lon="12.24693">
        <ele>-1.0</ele>
      </trkpt>
      <trkpt lat="44.42593" lon="12.24871">
        <ele>-2.0</ele>
      </trkpt>
      <trkpt lat="44.4259" lon="12.24899">
        <ele>-2.0</ele>
      </trkpt>
      <trkpt lat="44.42584" lon="12.24915">
        <ele>-1.0</ele>
      </trkpt>
      <trkpt lat="44.42589" lon="12.24938">
        <ele>-1.0</ele>
      </trkpt>
      <trkpt lat="44.42604" lon="12.24949">
        <ele>-1.0</ele>
      </trkpt>
      <trkpt lat="44.42624" lon="12.24966">
        <ele>-1.0</ele>
      </trkpt>
      <trkpt lat="44.42658" lon="12.25004">
      </trkpt>
      <trkpt lat="44.42766" lon="12.25211">
        <ele>1.0</ele>
      </trkpt>
      <trkpt lat="44.42863" lon="12.25414">
        <ele>1.0</ele>
      </trkpt>
      <trkpt lat="44.43037" lon="12.25774">
        <ele>-1.0</ele>
      </trkpt>
      <trkpt lat="44.43147" lon="12.25992">
        <ele>-1.0</ele>
      </trkpt>
      <trkpt lat="44.43212" lon="12.26121">
        <ele>-3.0</ele>
      </trkpt>
      <trkpt lat="44.43266" lon="12.26222">
        <ele>-3.0</ele>
      </trkpt>
      <trkpt lat="44.43303" lon="12.26296">
        <ele>-3.0</ele>
      </trkpt>
      <trkpt lat="44.43411" lon="12.26513">
        <ele>-2.0</ele>
      </trkpt>
      <trkpt lat="44.43465" lon="12.2664">
        <ele>-2.0</ele>
      </trkpt>
      <trkpt lat="44.43506" lon="12.26765">
        <ele>-2.0</ele>
      </trkpt>
      <trkpt lat="44.43545" lon="12.26985">
        <ele>-3.0</ele>
      </trkpt>
      <trkpt lat="44.43554" lon="12.27097">
        <ele>-3.0</ele>
      </trkpt>
      <trkpt lat="44.43553" lon="12.27292">
        <ele>-2.0</ele>
      </trkpt>
      <trkpt lat="44.43543" lon="12.27406">
        <ele>-1.0</ele>
      </trkpt>
      <trkpt lat="44.43517" lon="12.27684">
        <ele>-1.0</ele>
      </trkpt>
      <trkpt lat="44.435" lon="12.28107">
        <ele>-2.0</ele>
      </trkpt>
      <trkpt lat="44.43509" lon="12.28224">
        <ele>-3.0</ele>
      </trkpt>
      <trkpt lat="44.43524" lon="12.28359">
        <ele>-3.0</ele>
      </trkpt>
      <trkpt lat="44.43534" lon="12.2838">
        <ele>-3.0</ele>
      </trkpt>
      <trkpt lat="44.43554" lon="12.28385">
        <ele>-3.0</ele>
      </trkpt>
      <trkpt lat="44.43611" lon="12.28351">
        <ele>-3.0</ele>
      </trkpt>
      <trkpt lat="44.4363" lon="12.28354">
        <ele>-3.0</ele>
      </trkpt>
      <trkpt lat="44.43647" lon="12.28376">
        <ele>-3.0</ele>
      </trkpt>
      <trkpt lat="44.43726" lon="12.28548">
        <ele>-2.0</ele>
      </trkpt>
      <trkpt lat="44.43741" lon="12.28583">
        <ele>-1.0</ele>
      </trkpt>
      <trkpt lat="44.43753" lon="12.28605">
        <ele>-1.0</ele>
      </trkpt>
      <trkpt lat="44.43762" lon="12.28619">
        <ele>-1.0</ele>
      </trkpt>
      <trkpt lat="44.43768" lon="12.28633">
        <ele>-1.0</ele>
      </trkpt>
      <trkpt lat="44.43778" lon="12.28652">
      </trkpt>
      <trkpt lat="44.43788" lon="12.28688">
      </trkpt>
      <trkpt lat="44.43846" lon="12.28809">
        <ele>1.0</ele>
      </trkpt>
      <trkpt lat="44.43879" lon="12.28883">
        <ele>1.0</ele>
      </trkpt>
      <trkpt lat="44.43894" lon="12.28918">
        <ele>1.0</ele>
      </trkpt>
      <trkpt lat="44.43897" lon="12.28929">
        <ele>1.0</ele>
      </trkpt>
      <trkpt lat="44.43903" lon="12.28934">
      </trkpt>
      <trkpt lat="44.43929" lon="12.28973">
      </trkpt>
      <trkpt lat="44.43982" lon="12.29083">
      </trkpt>
      <trkpt lat="44.44041" lon="12.2922">
        <ele>1.0</ele>
      </trkpt>
      <trkpt lat="44.44101" lon="12.29347">
        <ele>2.0</ele>
      </trkpt>
      <trkpt lat="44.44158" lon="12.29469">
        <ele>2.0</ele>
      </trkpt>
      <trkpt lat="44.44172" lon="12.29501">
        <ele>2.0</ele>
      </trkpt>
      <trkpt lat="44.442" lon="12.29556">
        <ele>2.0</ele>
      </trkpt>
      <trkpt lat="44.44207" lon="12.29569">
        <ele>2.0</ele>
      </trkpt>
      <trkpt lat="44.44221" lon="12.29568">
        <ele>2.0</ele>
      </trkpt>
      <trkpt lat="44.4425" lon="12.29538">
        <ele>2.0</ele>
      </trkpt>
      <trkpt lat="44.44312" lon="12.29509">
        <ele>2.0</ele>
      </trkpt>
      <trkpt lat="44.44491" lon="12.29428">
        <ele>4.0</ele>
      </trkpt>
      <trkpt lat="44.44523" lon="12.29413">
        <ele>5.0</ele>
      </trkpt>
      <trkpt lat="44.4463" lon="12.29363">
        <ele>4.0</ele>
      </trkpt>
      <trkpt lat="44.44718" lon="12.29322">
        <ele>3.0</ele>
      </trkpt>
      <trkpt lat="44.4491" lon="12.29233">
        <ele>3.0</ele>
      </trkpt>
      <trkpt lat="44.45029" lon="12.29177">
        <ele>4.0</ele>
      </trkpt>
      <trkpt lat="44.45167" lon="12.29113">
        <ele>4.0</ele>
      </trkpt>
      <trkpt lat="44.45333" lon="12.29038">
        <ele>4.0</ele>
      </trkpt>
      <trkpt lat="44.45488" lon="12.28967">
        <ele>5.0</ele>
      </trkpt>
      <trkpt lat="44.45559" lon="12.28935">
        <ele>5.0</ele>
      </trkpt>
      <trkpt lat="44.45786" lon="12.28828">
        <ele>5.0</ele>
      </trkpt>
      <trkpt lat="44.45971" lon="12.28745">
        <ele>5.0</ele>
      </trkpt>
      <trkpt lat="44.45985" lon="12.28731">
        <ele>5.0</ele>
      </trkpt>
      <trkpt lat="44.45986" lon="12.28707">
        <ele>5.0</ele>
      </trkpt>
      <trkpt lat="44.45975" lon="12.28693">
        <ele>5.0</ele>
      </trkpt>
      <trkpt lat="44.45777" lon="12.2851">
        <ele>5.0</ele>
      </trkpt>
      <trkpt lat="44.45715" lon="12.28441">
        <ele>4.0</ele>
      </trkpt>
      <trkpt lat="44.45714" lon="12.28417">
        <ele>4.0</ele>
      </trkpt>
      <trkpt lat="44.45717" lon="12.28399">
        <ele>4.0</ele>
      </trkpt>
      <trkpt lat="44.45708" lon="12.28376">
        <ele>3.0</ele>
      </trkpt>
      <trkpt lat="44.45691" lon="12.28373">
        <ele>3.0</ele>
      </trkpt>
      <trkpt lat="44.45634" lon="12.28369">
        <ele>3.0</ele>
      </trkpt>
      <trkpt lat="44.45403" lon="12.28142">
        <ele>2.0</ele>
      </trkpt>
      <trkpt lat="44.45312" lon="12.2804">
      </trkpt>
      <trkpt lat="44.45303" lon="12.2801">
        <ele>-1.0</ele>
      </trkpt>
      <trkpt lat="44.45293" lon="12.27991">
        <ele>-2.0</ele>
      </trkpt>
      <trkpt lat="44.45268" lon="12.27984">
        <ele>-4.0</ele>
      </trkpt>
      <trkpt lat="44.45106" lon="12.27848">
        <ele>-4.0</ele>
      </trkpt>
      <trkpt lat="44.45012" lon="12.27735">
        <ele>-4.0</ele>
      </trkpt>
      <trkpt lat="44.4493" lon="12.27588">
        <ele>-3.0</ele>
      </trkpt>
      <trkpt lat="44.44886" lon="12.27479">
        <ele>-3.0</ele>
      </trkpt>
      <trkpt lat="44.4479" lon="12.27238">
        <ele>-3.0</ele>
      </trkpt>
      <trkpt lat="44.44157" lon="12.25703">
        <ele>-3.0</ele>
      </trkpt>
      <trkpt lat="44.44012" lon="12.2541">
        <ele>-1.0</ele>
      </trkpt>
      <trkpt lat="44.43929" lon="12.25246">
      </trkpt>
      <trkpt lat="44.43695" lon="12.24788">
      </trkpt>
      <trkpt lat="44.43592" lon="12.24586">
      </trkpt>
      <trkpt lat="44.4351" lon="12.24423">
        <ele>-1.0</ele>
      </trkpt>
      <trkpt lat="44.43491" lon="12.24385">
        <ele>-1.0</ele>
      </trkpt>
      <trkpt lat="44.43402" lon="12.24211">
        <ele>-1.0</ele>
      </trkpt>
      <trkpt lat="44.43067" lon="12.23564">
      </trkpt>
      <trkpt lat="44.43014" lon="12.23487">
        <ele>1.0</ele>
      </trkpt>
      <trkpt lat="44.42898" lon="12.23336">
        <ele>2.0</ele>
      </trkpt>
      <trkpt lat="44.42771" lon="12.23171">
      </trkpt>
      <trkpt lat="44.42679" lon="12.23053">
        <ele>-2.0</ele>
      </trkpt>
      <trkpt lat="44.42631" lon="12.2299">
        <ele>-3.0</ele>
      </trkpt>
      <trkpt lat="44.426" lon="12.2295">
        <ele>-3.0</ele>
      </trkpt>
      <trkpt lat="44.42535" lon="12.22857">
        <ele>-4.0</ele>
      </trkpt>
      <trkpt lat="44.42529" lon="12.22824">
        <ele>-4.0</ele>
      </trkpt>
      <trkpt lat="44.42529" lon="12.22802">
        <ele>-4.0</ele>
      </trkpt>
      <trkpt lat="44.42528" lon="12.22788">
        <ele>-4.0</ele>
      </trkpt>
      <trkpt lat="44.42516" lon="12.22772">
        <ele>-4.0</ele>
      </trkpt>
      <trkpt lat="44.42501" lon="12.22776">
        <ele>-4.0</ele>
      </trkpt>
      <trkpt lat="44.42484" lon="12.22782">
        <ele>-4.0</ele>
      </trkpt>
      <trkpt lat="44.42457" lon="12.22763">
        <ele>-3.0</ele>
      </trkpt>
      <trkpt lat="44.42426" lon="12.22722">
        <ele>-2.0</ele>
      </trkpt>
      <trkpt lat="44.42413" lon="12.22706">
        <ele>-2.0</ele>
      </trkpt>
      <trkpt lat="44.42368" lon="12.2265">
        <ele>-1.0</ele>
      </trkpt>
      <trkpt lat="44.42314" lon="12.22576">
        <ele>-1.0</ele>
      </trkpt>
      <trkpt lat="44.42298" lon="12.22554">
        <ele>-1.0</ele>
      </trkpt>
      <trkpt lat="44.42264" lon="12.22505">
        <ele>-1.0</ele>
      </trkpt>
      <trkpt lat="44.42226" lon="12.22435">
        <ele>-1.0</ele>
      </trkpt>
      <trkpt lat="44.42205" lon="12.22392">
        <ele>-1.0</ele>
      </trkpt>
      <trkpt lat="44.42125" lon="12.2221">
        <ele>-1.0</ele>
      </trkpt>
      <trkpt lat="44.42072" lon="12.22082">
        <ele>-2.0</ele>
      </trkpt>
      <trkpt lat="44.4204" lon="12.22011">
        <ele>-2.0</ele>
      </trkpt>
      <trkpt lat="44.42007" lon="12.21934">
        <ele>-2.0</ele>
      </trkpt>
      <trkpt lat="44.41928" lon="12.21754">
        <ele>-1.0</ele>
      </trkpt>
      <trkpt lat="44.41876" lon="12.21633">
      </trkpt>
      <trkpt lat="44.41814" lon="12.21491">
      </trkpt>
      <trkpt lat="44.41732" lon="12.21278">
        <ele>1.0</ele>
      </trkpt>
      <trkpt lat="44.41702" lon="12.21143">
        <ele>1.0</ele>
      </trkpt>
      <trkpt lat="44.41689" lon="12.21074">
        <ele>1.0</ele>
      </trkpt>
      <trkpt lat="44.41685" lon="12.21045">
        <ele>1.0</ele>
      </trkpt>
      <trkpt lat="44.41687" lon="12.21027">
        <ele>1.0</ele>
      </trkpt>
      <trkpt lat="44.417" lon="12.2101">
        <ele>1.0</ele>
      </trkpt>
      <trkpt lat="44.41704" lon="12.20983">
        <ele>1.0</ele>
      </trkpt>
      <trkpt lat="44.4171" lon="12.20968">
        <ele>1.0</ele>
      </trkpt>
      <trkpt lat="44.41721" lon="12.20957">
        <ele>1.0</ele>
      </trkpt>
      <trkpt lat="44.41775" lon="12.20933">
        <ele>1.0</ele>
      </trkpt>
      <trkpt lat="44.42035" lon="12.20866">
      </trkpt>
      <trkpt lat="44.42071" lon="12.20856">
        <ele>-1.0</ele>
      </trkpt>
      <trkpt lat="44.42106" lon="12.20842">
        <ele>-2.0</ele>
      </trkpt>
      <trkpt lat="44.42165" lon="12.20816">
        <ele>-1.0</ele>
      </trkpt>
      <trkpt lat="44.42202" lon="12.20806">
      </trkpt>
      <trkpt lat="44.42383" lon="12.20756">
        <ele>1.0</ele>
      </trkpt>
      <trkpt lat="44.42392" lon="12.20738">
        <ele>1.0</ele>
      </trkpt>
      <trkpt lat="44.42373" lon="12.20603">
        <ele>2.0</ele>
      </trkpt>
      <trkpt lat="44.42364" lon="12.2053">
        <ele>2.0</ele>
      </trkpt>
      <trkpt lat="44.42363" lon="12.20507">
        <ele>2.0</ele>
      </trkpt>
      <trkpt lat="44.42367" lon="12.20427">
        <ele>2.0</ele>
      </trkpt>
      <trkpt lat="44.42388" lon="12.20369">
        <ele>3.0</ele>
      </trkpt>
      <trkpt lat="44.42386" lon="12.20347">
        <ele>3.0</ele>
      </trkpt>
      <trkpt lat="44.4235" lon="12.20224">
        <ele>3.0</ele>
      </trkpt>
      <trkpt lat="44.4234" lon="12.20183">
        <ele>3.0</ele>
      </trkpt>
      <trkpt lat="44.42332" lon="12.20149">
        <ele>3.0</ele>
      </trkpt>
      <trkpt lat="44.42315" lon="12.20144">
        <ele>3.0</ele>
      </trkpt>
      <trkpt lat="44.42274" lon="12.20177">
        <ele>3.0</ele>
      </trkpt>
      <trkpt lat="44.42257" lon="12.20182">
        <ele>3.0</ele>
      </trkpt>
      <trkpt lat="44.42214" lon="12.2019">
        <ele>3.0</ele>
      </trkpt>
      <trkpt lat="44.42183" lon="12.20199">
        <ele>3.0</ele>
      </trkpt>
      <trkpt lat="44.42025" lon="12.20272">
        <ele>4.0</ele>
      </trkpt>
      <trkpt lat="44.41844" lon="12.20349">
        <ele>4.0</ele>
      </trkpt>
      <trkpt lat="44.41798" lon="12.2037">
        <ele>4.0</ele>
      </trkpt>
      <trkpt lat="44.41746" lon="12.20387">
        <ele>4.0</ele>
      </trkpt>
      <trkpt lat="44.41597" lon="12.20456">
        <ele>3.0</ele>
      </trkpt>
      <trkpt lat="44.41525" lon="12.20494">
        <ele>3.0</ele>
      </trkpt>
      <trkpt lat="44.4142" lon="12.20549">
        <ele>2.0</ele>
      </trkpt>
      <trkpt lat="44.41338" lon="12.20587">
        <ele>2.0</ele>
      </trkpt>
      <trkpt lat="44.41303" lon="12.20603">
        <ele>2.0</ele>
      </trkpt>
      <trkpt lat="44.41251" lon="12.20628">
        <ele>2.0</ele>
      </trkpt>
      <trkpt lat="44.41242" lon="12.2064">
        <ele>3.0</ele>
      </trkpt>
      <trkpt lat="44.4122" lon="12.20642">
        <ele>3.0</ele>
      </trkpt>
      <trkpt lat="44.41173" lon="12.20651">
        <ele>3.0</ele>
      </trkpt>
      <trkpt lat="44.41161" lon="12.20647">
        <ele>3.0</ele>
      </trkpt>
      <trkpt lat="44.41152" lon="12.2066">
        <ele>3.0</ele>
      </trkpt>
      <trkpt lat="44.41135" lon="12.20671">
        <ele>3.0</ele>
      </trkpt>
      <trkpt lat="44.4109" lon="12.20689">
        <ele>3.0</ele>
      </trkpt>
      <trkpt lat="44.40975" lon="12.20743">
        <ele>3.0</ele>
      </trkpt>
      <trkpt lat="44.40898" lon="12.20775">
        <ele>3.0</ele>
      </trkpt>
      <trkpt lat="44.40863" lon="12.20791">
        <ele>3.0</ele>
      </trkpt>
      <trkpt lat="44.40821" lon="12.20809">
        <ele>3.0</ele>
      </trkpt>
      <trkpt lat="44.40807" lon="12.20814">
        <ele>3.0</ele>
      </trkpt>
      <trkpt lat="44.40722" lon="12.20857">
        <ele>3.0</ele>
      </trkpt>
      <trkpt lat="44.40648" lon="12.20882">
        <ele>2.0</ele>
      </trkpt>
      <trkpt lat="44.4056" lon="12.20927">
        <ele>1.0</ele>
      </trkpt>
      <trkpt lat="44.40516" lon="12.2095">
      </trkpt>
      <trkpt lat="44.40482" lon="12.20963">
      </trkpt>
      <trkpt lat="44.40461" lon="12.20963">
      </trkpt>
      <trkpt lat="44.40443" lon="12.20955">
      </trkpt>
      <trkpt lat="44.40429" lon="12.2094">
        <ele>1.0</ele>
      </trkpt>
      <trkpt lat="44.40413" lon="12.20933">
        <ele>1.0</ele>
      </trkpt>
      <trkpt lat="44.40398" lon="12.20947">
        <ele>1.0</ele>
      </trkpt>
      <trkpt lat="44.4039" lon="12.20991">
        <ele>1.0</ele>
      </trkpt>
      <trkpt lat="44.40336" lon="12.21102">
        <ele>1.0</ele>
      </trkpt>
      <trkpt lat="44.40291" lon="12.21169">
      </trkpt>
      <trkpt lat="44.40207" lon="12.21289">
        <ele>-1.0</ele>
      </trkpt>
      <trkpt lat="44.40147" lon="12.21362">
      </trkpt>
      <trkpt lat="44.40111" lon="12.21374">
      </trkpt>
      <trkpt lat="44.40085" lon="12.2137">
        <ele>1.0</ele>
      </trkpt>
      <trkpt lat="44.40066" lon="12.21372">
        <ele>1.0</ele>
      </trkpt>
      <trkpt lat="44.40052" lon="12.21394">
        <ele>1.0</ele>
      </trkpt>
      <trkpt lat="44.40054" lon="12.21427">
        <ele>1.0</ele>
      </trkpt>
      <trkpt lat="44.40071" lon="12.21445">
      </trkpt>
      <trkpt lat="44.40092" lon="12.21464">
      </trkpt>
      <trkpt lat="44.40173" lon="12.21637">
        <ele>-2.0</ele>
      </trkpt>
      <trkpt lat="44.40234" lon="12.21779">
        <ele>-3.0</ele>
      </trkpt>
      <trkpt lat="44.40336" lon="12.22018">
        <ele>-3.0</ele>
      </trkpt>
      <trkpt lat="44.40365" lon="12.221">
        <ele>-3.0</ele>
      </trkpt>
      <trkpt lat="44.40363" lon="12.22119">
        <ele>-3.0</ele>
      </trkpt>
      <trkpt lat="44.40369" lon="12.22138">
        <ele>-3.0</ele>
      </trkpt>
      <trkpt lat="44.40384" lon="12.22149">
        <ele>-3.0</ele>
      </trkpt>
      <trkpt lat="44.40483" lon="12.2236">
        <ele>-3.0</ele>
      </trkpt>
      <trkpt lat="44.40881" lon="12.22897">
        <ele>-2.0</ele>
      </trkpt>
      <trkpt lat="44.40936" lon="12.22959">
        <ele>-2.0</ele>
      </trkpt>
      <trkpt lat="44.40991" lon="12.2301">
        <ele>-2.0</ele>
      </trkpt>
      <trkpt lat="44.41002" lon="12.23038">
        <ele>-2.0</ele>
      </trkpt>
      <trkpt lat="44.41019" lon="12.23054">
        <ele>-2.0</ele>
      </trkpt>
      <trkpt lat="44.4103" lon="12.23052">
        <ele>-2.0</ele>
      </trkpt>
      <trkpt lat="44.41124" lon="12.23113">
        <ele>-2.0</ele>
      </trkpt>
      <trkpt lat="44.41335" lon="12.23382">
        <ele>-2.0</ele>
      </trkpt>
      <trkpt lat="44.41389" lon="12.23416">
        <ele>-2.0</ele>
      </trkpt>
      <trkpt lat="44.41422" lon="12.23424">
        <ele>-2.0</ele>
      </trkpt>
      <trkpt lat="44.41453" lon="12.23425">
        <ele>-2.0</ele>
      </trkpt>
      <trkpt lat="44.41499" lon="12.23411">
        <ele>-2.0</ele>
      </trkpt>
      <trkpt lat="44.41593" lon="12.23347">
        <ele>-2.0</ele>
      </trkpt>
      <trkpt lat="44.41826" lon="12.23176">
        <ele>-1.0</ele>
      </trkpt>
      <trkpt lat="44.4187" lon="12.23171">
        <ele>-1.0</ele>
      </trkpt>
      <trkpt lat="44.41907" lon="12.23209">
        <ele>-1.0</ele>
      </trkpt>
      <trkpt lat="44.42005" lon="12.23431">
        <ele>-2.0</ele>
      </trkpt>
      <trkpt lat="44.4202" lon="12.2346">
        <ele>-2.0</ele>
      </trkpt>
      <trkpt lat="44.42023" lon="12.23481">
        <ele>-1.0</ele>
      </trkpt>
      <trkpt lat="44.42045" lon="12.2354">
        <ele>-1.0</ele>
      </trkpt>
      <trkpt lat="44.42105" lon="12.23695">
      </trkpt>
      <trkpt lat="44.42157" lon="12.23834">
        <ele>-2.0</ele>
      </trkpt>
      <trkpt lat="44.42244" lon="12.24071">
        <ele>-1.0</ele>
      </trkpt>
      <trkpt lat="44.42285" lon="12.24182">
        <ele>-1.0</ele>
      </trkpt>
      <trkpt lat="44.42357" lon="12.24353">
        <ele>-2.0</ele>
      </trkpt>
      <trkpt lat="44.42465" lon="12.2458">
        <ele>-1.0</ele>
      </trkpt>
      <trkpt lat="44.42581" lon="12.24823">
        <ele>-1.0</ele>
      </trkpt>
      <trkpt lat="44.42592" lon="12.24883">
        <ele>-2.0</ele>
      </trkpt>
      <trkpt lat="44.42588" lon="12.24903">
        <ele>-2.0</ele>
      </trkpt>
      <trkpt lat="44.42584" lon="12.24923">
        <ele>-1.0</ele>
      </trkpt>
      <trkpt lat="44.42593" lon="12.24944">
        <ele>-1.0</ele>
      </trkpt>
      <trkpt lat="44.42611" lon="12.24954">
        <ele>-1.0</ele>
      </trkpt>
      <trkpt lat="44.42649" lon="12.24992">
      </trkpt>
      <trkpt lat="44.42665" lon="12.25014">
      </trkpt>
      <trkpt lat="44.42771" lon="12.25222">
        <ele>2.0</ele>
      </trkpt>
      <trkpt lat="44.42945" lon="12.25584">
      </trkpt>
      <trkpt lat="44.43063" lon="12.25827">
        <ele>-1.0</ele>
      </trkpt>
      <trkpt lat="44.43181" lon="12.26056">
        <ele>-2.0</ele>
      </trkpt>
      <trkpt lat="44.43227" lon="12.26147">
        <ele>-3.0</ele>
      </trkpt>
      <trkpt lat="44.43267" lon="12.26225">
        <ele>-3.0</ele>
      </trkpt>
      <trkpt lat="44.43377" lon="12.26441">
        <ele>-2.0</ele>
      </trkpt>
      <trkpt lat="44.43428" lon="12.26548">
        <ele>-2.0</ele>
      </trkpt>
      <trkpt lat="44.43487" lon="12.26701">
        <ele>-2.0</ele>
      </trkpt>
      <trkpt lat="44.43513" lon="12.26799">
        <ele>-2.0</ele>
      </trkpt>
      <trkpt lat="44.4355" lon="12.27032">
        <ele>-3.0</ele>
      </trkpt>
      <trkpt lat="44.43556" lon="12.27168">
        <ele>-3.0</ele>
      </trkpt>
      <trkpt lat="44.43555" lon="12.27248">
        <ele>-2.0</ele>
      </trkpt>
      <trkpt lat="44.43549" lon="12.27368">
        <ele>-1.0</ele>
      </trkpt>
      <trkpt lat="44.43532" lon="12.27493">
        <ele>-1.0</ele>
      </trkpt>
      <trkpt lat="44.43513" lon="12.27758">
        <ele>-1.0</ele>
      </trkpt>
      <trkpt lat="44.435" lon="12.28128">
        <ele>-3.0</ele>
      </trkpt>
      <trkpt lat="44.4352" lon="12.28338">
        <ele>-3.0</ele>
      </trkpt>
      <trkpt lat="44.4353" lon="12.28375">
        <ele>-3.0</ele>
      </trkpt>
      <trkpt lat="44.43546" lon="12.28384">
        <ele>-3.0</ele>
      </trkpt>
      <trkpt lat="44.43597" lon="12.28356">
        <ele>-3.0</ele>
      </trkpt>
      <trkpt lat="44.43626" lon="12.28351">
        <ele>-3.0</ele>
      </trkpt>
      <trkpt lat="44.43644" lon="12.28369">
        <ele>-3.0</ele>
      </trkpt>
      <trkpt lat="44.4365" lon="12.28383">
        <ele>-3.0</ele>
      </trkpt>
      <trkpt lat="44.43741" lon="12.28583">
        <ele>-2.0</ele>
      </trkpt>
      <trkpt lat="44.43749" lon="12.28599">
        <ele>-1.0</ele>
      </trkpt>
      <trkpt lat="44.43762" lon="12.28613">
        <ele>-1.0</ele>
      </trkpt>
      <trkpt lat="44.43766" lon="12.28631">
        <ele>-1.0</ele>
      </trkpt>
      <trkpt lat="44.43776" lon="12.28644">
      </trkpt>
      <trkpt lat="44.43785" lon="12.28681">
      </trkpt>
      <trkpt lat="44.43799" lon="12.28708">
      </trkpt>
      <trkpt lat="44.43853" lon="12.28824">
        <ele>1.0</ele>
      </trkpt>
      <trkpt lat="44.43894" lon="12.28915">
        <ele>1.0</ele>
      </trkpt>
      <trkpt lat="44.43895" lon="12.28925">
        <ele>1.0</ele>
      </trkpt>
      <trkpt lat="44.43902" lon="12.28933">
      </trkpt>
      <trkpt lat="44.43928" lon="12.2897">
      </trkpt>
      <trkpt lat="44.43958" lon="12.29036">
      </trkpt>
      <trkpt lat="44.44019" lon="12.29171">
        <ele>1.0</ele>
      </trkpt>
      <trkpt lat="44.4407" lon="12.29283">
        <ele>2.0</ele>
      </trkpt>
      <trkpt lat="44.44158" lon="12.29469">
        <ele>2.0</ele>
      </trkpt>
      <trkpt lat="44.44166" lon="12.29487">
        <ele>2.0</ele>
      </trkpt>
      <trkpt lat="44.44182" lon="12.29524">
        <ele>2.0</ele>
      </trkpt>
      <trkpt lat="44.44204" lon="12.29566">
        <ele>2.0</ele>
      </trkpt>
      <trkpt lat="44.44216" lon="12.29571">
        <ele>2.0</ele>
      </trkpt>
      <trkpt lat="44.44225" lon="12.29559">
        <ele>2.0</ele>
      </trkpt>
      <trkpt lat="44.4431" lon="12.2951">
        <ele>2.0</ele>
      </trkpt>
      <trkpt lat="44.44438" lon="12.29451">
        <ele>3.0</ele>
      </trkpt>
      <trkpt lat="44.44523" lon="12.29413">
        <ele>5.0</ele>
      </trkpt>
      <trkpt lat="44.44603" lon="12.29374">
        <ele>4.0</ele>
      </trkpt>
      <trkpt lat="44.44679" lon="12.2934">
        <ele>3.0</ele>
      </trkpt>
      <trkpt lat="44.44807" lon="12.29281">
        <ele>3.0</ele>
      </trkpt>
      <trkpt lat="44.45023" lon="12.2918">
        <ele>4.0</ele>
      </trkpt>
      <trkpt lat="44.45089" lon="12.29151">
        <ele>4.0</ele>
      </trkpt>
      <trkpt lat="44.45257" lon="12.29072">
        <ele>4.0</ele>
      </trkpt>
      <trkpt lat="44.45484" lon="12.28969">
        <ele>5.0</ele>
      </trkpt>
      <trkpt lat="44.45559" lon="12.28935">
        <ele>5.0</ele>
      </trkpt>
      <trkpt lat="44.45778" lon="12.28831">
        <ele>5.0</ele>
      </trkpt>
      <trkpt lat="44.45923" lon="12.28765">
        <ele>5.0</ele>
      </trkpt>
      <trkpt lat="44.45982" lon="12.28738">
        <ele>5.0</ele>
      </trkpt>
      <trkpt lat="44.45988" lon="12.28715">
        <ele>5.0</ele>
      </trkpt>
      <trkpt lat="44.45978" lon="12.28695">
        <ele>5.0</ele>
      </trkpt>
      <trkpt lat="44.45935" lon="12.28665">
        <ele>5.0</ele>
      </trkpt>
      <trkpt lat="44.45719" lon="12.28448">
        <ele>4.0</ele>
      </trkpt>
      <trkpt lat="44.45714" lon="12.28417">
        <ele>4.0</ele>
      </trkpt>
      <trkpt lat="44.45717" lon="12.28408">
        <ele>4.0</ele>
      </trkpt>
      <trkpt lat="44.45712" lon="12.28382">
        <ele>3.0</ele>
      </trkpt>
      <trkpt lat="44.45696" lon="12.28372">
        <ele>3.0</ele>
      </trkpt>
      <trkpt lat="44.45666" lon="12.2838">
        <ele>3.0</ele>
      </trkpt>
      <trkpt lat="44.45506" lon="12.28243">
        <ele>2.0</ele>
      </trkpt>
      <trkpt lat="44.45322" lon="12.28057">
      </trkpt>
      <trkpt lat="44.45305" lon="12.28021">
        <ele>-1.0</ele>
      </trkpt>
      <trkpt lat="44.45293" lon="12.27991">
        <ele>-2.0</ele>
      </trkpt>
      <trkpt lat="44.45277" lon="12.27983">
        <ele>-3.0</ele>
      </trkpt>
      <trkpt lat="44.45231" lon="12.27972">
        <ele>-4.0</ele>
      </trkpt>
      <trkpt lat="44.45047" lon="12.27781">
        <ele>-4.0</ele>
      </trkpt>
      <trkpt lat="44.44966" lon="12.2766">
        <ele>-4.0</ele>
      </trkpt>
      <trkpt lat="44.44893" lon="12.27497">
        <ele>-3.0</ele>
      </trkpt>
      <trkpt lat="44.44792" lon="12.27243">
        <ele>-3.0</ele>
      </trkpt>
      <trkpt lat="44.44252" lon="12.25892">
        <ele>-4.0</ele>
      </trkpt>
      <trkpt lat="44.44012" lon="12.2541">
        <ele>-1.0</ele>
      </trkpt>
      <trkpt lat="44.43954" lon="12.25297">
      </trkpt>
      <trkpt lat="44.43791" lon="12.24978">
      </trkpt>
      <trkpt lat="44.43637" lon="12.24672">
      </trkpt>
      <trkpt lat="44.43516" lon="12.24435">
      </trkpt>
      <trkpt lat="44.43492" lon="12.24386">
        <ele>-1.0</ele>
      </trkpt>
      <trkpt lat="44.43408" lon="12.24221">
        <ele>-1.0</ele>
      </trkpt>
      <trkpt lat="44.43103" lon="12.23624">
        <ele>-1.0</ele>
      </trkpt>
      <trkpt lat="44.43014" lon="12.23487">
        <ele>1.0</ele>
      </trkpt>
      <trkpt lat="44.42911" lon="12.23353">
        <ele>2.0</ele>
      </trkpt>
      <trkpt lat="44.42843" lon="12.23265">
        <ele>1.0</ele>
      </trkpt>
      <trkpt lat="44.42692" lon="12.2307">
        <ele>-1.0</ele>
      </trkpt>
      <trkpt lat="44.42643" lon="12.23005">
        <ele>-3.0</ele>
      </trkpt>
      <trkpt lat="44.42616" lon="12.2297">
        <ele>-3.0</ele>
      </trkpt>
      <trkpt lat="44.42547" lon="12.22881">
        <ele>-4.0</ele>
      </trkpt>
      <trkpt lat="44.42531" lon="12.22841">
        <ele>-4.0</ele>
      </trkpt>
      <trkpt lat="44.42529" lon="12.22802">
        <ele>-4.0</ele>
      </trkpt>
      <trkpt lat="44.42529" lon="12.22796">
        <ele>-4.0</ele>
      </trkpt>
      <trkpt lat="44.42521" lon="12.22776">
        <ele>-4.0</ele>
      </trkpt>
      <trkpt lat="44.42503" lon="12.22773">
        <ele>-4.0</ele>
      </trkpt>
      <trkpt lat="44.42491" lon="12.22782">
        <ele>-4.0</ele>
      </trkpt>
      <trkpt lat="44.42466" lon="12.22773">
        <ele>-3.0</ele>
      </trkpt>
      <trkpt lat="44.42437" lon="12.22737">
        <ele>-3.0</ele>
      </trkpt>
      <trkpt lat="44.42417" lon="12.22715">
        <ele>-2.0</ele>
      </trkpt>
      <trkpt lat="44.42368" lon="12.2265">
        <ele>-1.0</ele>
      </trkpt>
      <trkpt lat="44.42326" lon="12.22592">
        <ele>-1.0</ele>
      </trkpt>
      <trkpt lat="44.42302" lon="12.22559">
        <ele>-1.0</ele>
      </trkpt>
      <trkpt lat="44.4227" lon="12.22515">
        <ele>-1.0</ele>
      </trkpt>
      <trkpt lat="44.42236" lon="12.22456">
        <ele>-1.0</ele>
      </trkpt>
      <trkpt lat="44.42209" lon="12.224">
        <ele>-1.0</ele>
      </trkpt>
      <trkpt lat="44.42152" lon="12.22273">
        <ele>-1.0</ele>
      </trkpt>
      <trkpt lat="44.42083" lon="12.22106">
        <ele>-1.0</ele>
      </trkpt>
      <trkpt lat="44.4204" lon="12.22011">
        <ele>-2.0</ele>
      </trkpt>
      <trkpt lat="44.42018" lon="12.21959">
        <ele>-2.0</ele>
      </trkpt>
      <trkpt lat="44.4197" lon="12.21851">
        <ele>-2.0</ele>
      </trkpt>
      <trkpt lat="44.41857" lon="12.21591">
        <ele>-1.0</ele>
      </trkpt>
      <trkpt lat="44.41775" lon="12.21396">
      </trkpt>
      <trkpt lat="44.41716" lon="12.21211">
        <ele>1.0</ele>
      </trkpt>
      <trkpt lat="44.41693" lon="12.21093">
        <ele>1.0</ele>
      </trkpt>
      <trkpt lat="44.41687" lon="12.21063">
        <ele>1.0</ele>
      </trkpt>
      <trkpt lat="44.41685" lon="12.21031">
        <ele>1.0</ele>
      </trkpt>
      <trkpt lat="44.41692" lon="12.21022">
        <ele>1.0</ele>
      </trkpt>
      <trkpt lat="44.41702" lon="12.21001">
        <ele>1.0</ele>
      </trkpt>
      <trkpt lat="44.41705" lon="12.2098">
        <ele>1.0</ele>
      </trkpt>
      <trkpt lat="44.41713" lon="12.20964">
        <ele>1.0</ele>
      </trkpt>
      <trkpt lat="44.41736" lon="12.20946">
        <ele>1.0</ele>
      </trkpt>
      <trkpt lat="44.41895" lon="12.20902">
        <ele>1.0</ele>
      </trkpt>
      <trkpt lat="44.42039" lon="12.20865">
        <ele>-1.0</ele>
      </trkpt>
      <trkpt lat="44.42089" lon="12.20849">
        <ele>-2.0</ele>
      </trkpt>
      <trkpt lat="44.42128" lon="12.20833">
        <ele>-2.0</ele>
      </trkpt>
      <trkpt lat="44.42178" lon="12.20811">
        <ele>-1.0</ele>
      </trkpt>
      <trkpt lat="44.42268" lon="12.20789">
      </trkpt>
      <trkpt lat="44.42387" lon="12.20751">
        <ele>1.0</ele>
      </trkpt>
      <trkpt lat="44.42381" lon="12.20663">
        <ele>1.0</ele>
      </trkpt>
      <trkpt lat="44.42374" lon="12.20614">
        <ele>1.0</ele>
      </trkpt>
      <trkpt lat="44.42363" lon="12.20519">
        <ele>1.0</ele>
      </trkpt>
      <trkpt lat="44.42369" lon="12.20458">
        <ele>1.0</ele>
      </trkpt>
      <trkpt lat="44.42379" lon="12.20435">
        <ele>1.0</ele>
      </trkpt>
      <trkpt lat="44.42392" lon="12.20407">
        <ele>2.0</ele>
      </trkpt>
      <trkpt lat="44.42395" lon="12.20378">
        <ele>2.0</ele>
      </trkpt>
      <trkpt lat="44.42366" lon="12.20282">
        <ele>2.0</ele>
      </trkpt>
      <trkpt lat="44.42349" lon="12.2022">
        <ele>3.0</ele>
      </trkpt>
      <trkpt lat="44.42332" lon="12.20149">
        <ele>3.0</ele>
      </trkpt>
      <trkpt lat="44.42318" lon="12.20141">
        <ele>4.0</ele>
      </trkpt>
      <trkpt lat="44.42272" lon="12.20176">
        <ele>4.0</ele>
      </trkpt>
      <trkpt lat="44.42266" lon="12.2018">
        <ele>4.0</ele>
      </trkpt>
      <trkpt lat="44.42236" lon="12.20187">
        <ele>4.0</ele>
      </trkpt>
      <trkpt lat="44.42194" lon="12.20196">
        <ele>4.0</ele>
      </trkpt>
      <trkpt lat="44.42139" lon="12.2022">
        <ele>4.0</ele>
      </trkpt>
      <trkpt lat="44.42034" lon="12.20268">
        <ele>4.0</ele>
      </trkpt>
      <trkpt lat="44.41912" lon="12.20321">
        <ele>4.0</ele>
      </trkpt>
      <trkpt lat="44.41808" lon="12.20366">
        <ele>4.0</ele>
      </trkpt>
      <trkpt lat="44.41764" lon="12.2038">
        <ele>4.0</ele>
      </trkpt>
      <trkpt lat="44.41675" lon="12.2042">
        <ele>4.0</ele>
      </trkpt>
      <trkpt lat="44.41529" lon="12.20492">
        <ele>3.0</ele>
      </trkpt>
      <trkpt lat="44.4144" lon="12.20539">
        <ele>2.0</ele>
      </trkpt>
      <trkpt lat="44.41369" lon="12.20572">
        <ele>2.0</ele>
      </trkpt>
      <trkpt lat="44.41311" lon="12.20599">
        <ele>2.0</ele>
      </trkpt>
    </trkseg>
  </trk>
</gpx>