<?xml version="1.0" encoding="UTF-8"?>
<gpx xmlns="http://www.topografix.com/GPX/1/0" xmlns:xsi="http://www.w3.org/2001/XMLSchema-instance" xsi:schemaLocation="http://www.topografix.com/GPX/1/0 http://www.topografix.com/GPX/1/0/gpx.xsd" version="1.0" creator="GPSBabel - https://www.gpsbabel.org">
  <time>2025-12-11T11:28:29.230000Z</time>
  <bounds minlat="42.34568" maxlat="42.7103" minlon="27.32174" maxlon="27.72322" />
  <trk>
    <trkseg>
      <trkpt lat="42.6684" lon="27.70689">
        <ele>5.0</ele>
      </trkpt>
      <trkpt lat="42.67576" lon="27.70656">
        <ele>1.0</ele>
      </trkpt>
      <trkpt lat="42.68244" lon="27.70549">
        <ele>3.0</ele>
      </trkpt>
      <trkpt lat="42.68796" lon="27.70586">
        <ele>1.0</ele>
      </trkpt>
      <trkpt lat="42.69231" lon="27.70862">
        <ele>2.0</ele>
      </trkpt>
      <trkpt lat="42.70068" lon="27.71334">
        <ele>4.0</ele>
      </trkpt>
      <trkpt lat="42.70472" lon="27.71719">
        <ele>2.0</ele>
      </trkpt>
      <trkpt lat="42.70662" lon="27.72">
        <ele>2.0</ele>
      </trkpt>
      <trkpt lat="42.70807" lon="27.7225">
        <ele>3.0</ele>
      </trkpt>
      <trkpt lat="42.71001" lon="27.72139">
        <ele>1.0</ele>
      </trkpt>
      <trkpt lat="42.71016" lon="27.72155">
        <ele>1.0</ele>
      </trkpt>
      <trkpt lat="42.7103" lon="27.72139">
        <ele>1.0</ele>
      </trkpt>
      <trkpt lat="42.71012" lon="27.72115">
        <ele>1.0</ele>
      </trkpt>
      <trkpt lat="42.70964" lon="27.71868">
      </trkpt>
      <trkpt lat="42.70911" lon="27.71707">
        <ele>-1.0</ele>
      </trkpt>
      <trkpt lat="42.70647" lon="27.71123">
      </trkpt>
      <trkpt lat="42.70493" lon="27.70855">
      </trkpt>
      <trkpt lat="42.70401" lon="27.70724">
      </trkpt>
      <trkpt lat="42.703" lon="27.70613">
      </trkpt>
      <trkpt lat="42.70141" lon="27.70499">
      </trkpt>
      <trkpt lat="42.69303" lon="27.70082">
      </trkpt>
      <trkpt lat="42.69134" lon="27.70016">
        <ele>-1.0</ele>
      </trkpt>
      <trkpt lat="42.69011" lon="27.69994">
        <ele>-1.0</ele>
      </trkpt>
      <trkpt lat="42.68216" lon="27.69988">
        <ele>2.0</ele>
      </trkpt>
      <trkpt lat="42.68054" lon="27.69959">
        <ele>2.0</ele>
      </trkpt>
      <trkpt lat="42.66195" lon="27.69234">
        <ele>10.0</ele>
      </trkpt>
      <trkpt lat="42.66094" lon="27.69176">
        <ele>13.0</ele>
      </trkpt>
      <trkpt lat="42.66006" lon="27.69081">
        <ele>16.0</ele>
      </trkpt>
      <trkpt lat="42.65928" lon="27.68919">
        <ele>16.0</ele>
      </trkpt>
      <trkpt lat="42.65645" lon="27.67951">
        <ele>21.0</ele>
      </trkpt>
      <trkpt lat="42.6529" lon="27.67018">
        <ele>34.0</ele>
      </trkpt>
      <trkpt lat="42.65204" lon="27.66819">
        <ele>35.0</ele>
      </trkpt>
      <trkpt lat="42.65181" lon="27.66717">
        <ele>37.0</ele>
      </trkpt>
      <trkpt lat="42.6518" lon="27.66601">
        <ele>38.0</ele>
      </trkpt>
      <trkpt lat="42.65205" lon="27.66483">
        <ele>38.0</ele>
      </trkpt>
      <trkpt lat="42.65254" lon="27.66381">
        <ele>38.0</ele>
      </trkpt>
      <trkpt lat="42.65528" lon="27.65947">
        <ele>38.0</ele>
      </trkpt>
      <trkpt lat="42.65614" lon="27.65714">
        <ele>37.0</ele>
      </trkpt>
      <trkpt lat="42.65646" lon="27.65525">
        <ele>36.0</ele>
      </trkpt>
      <trkpt lat="42.65642" lon="27.65281">
        <ele>32.0</ele>
      </trkpt>
      <trkpt lat="42.65548" lon="27.64417">
        <ele>21.0</ele>
      </trkpt>
      <trkpt lat="42.65524" lon="27.64329">
        <ele>18.0</ele>
      </trkpt>
      <trkpt lat="42.65385" lon="27.63998">
        <ele>15.0</ele>
      </trkpt>
      <trkpt lat="42.6532" lon="27.63884">
        <ele>13.0</ele>
      </trkpt>
      <trkpt lat="42.65252" lon="27.63805">
        <ele>12.0</ele>
      </trkpt>
      <trkpt lat="42.6519" lon="27.63757">
        <ele>11.0</ele>
      </trkpt>
      <trkpt lat="42.65096" lon="27.63713">
        <ele>10.0</ele>
      </trkpt>
      <trkpt lat="42.64857" lon="27.63681">
        <ele>9.0</ele>
      </trkpt>
      <trkpt lat="42.64605" lon="27.63669">
        <ele>8.0</ele>
      </trkpt>
      <trkpt lat="42.64561" lon="27.63648">
        <ele>8.0</ele>
      </trkpt>
      <trkpt lat="42.64528" lon="27.63676">
        <ele>8.0</ele>
      </trkpt>
      <trkpt lat="42.6437" lon="27.63726">
        <ele>6.0</ele>
      </trkpt>
      <trkpt lat="42.64047" lon="27.63888">
        <ele>5.0</ele>
      </trkpt>
      <trkpt lat="42.63931" lon="27.63904">
        <ele>5.0</ele>
      </trkpt>
      <trkpt lat="42.63819" lon="27.63874">
        <ele>5.0</ele>
      </trkpt>
      <trkpt lat="42.61968" lon="27.62642">
        <ele>1.0</ele>
      </trkpt>
      <trkpt lat="42.61801" lon="27.62544">
        <ele>1.0</ele>
      </trkpt>
      <trkpt lat="42.60363" lon="27.61912">
        <ele>6.0</ele>
      </trkpt>
      <trkpt lat="42.59472" lon="27.61423">
        <ele>5.0</ele>
      </trkpt>
      <trkpt lat="42.59304" lon="27.61247">
      </trkpt>
      <trkpt lat="42.5922" lon="27.61121">
        <ele>-1.0</ele>
      </trkpt>
      <trkpt lat="42.59148" lon="27.60976">
      </trkpt>
      <trkpt lat="42.59042" lon="27.60611">
        <ele>2.0</ele>
      </trkpt>
      <trkpt lat="42.5888" lon="27.5989">
        <ele>12.0</ele>
      </trkpt>
      <trkpt lat="42.58888" lon="27.59828">
        <ele>14.0</ele>
      </trkpt>
      <trkpt lat="42.58857" lon="27.59778">
        <ele>17.0</ele>
      </trkpt>
      <trkpt lat="42.58811" lon="27.59587">
        <ele>20.0</ele>
      </trkpt>
      <trkpt lat="42.58714" lon="27.59282">
        <ele>25.0</ele>
      </trkpt>
      <trkpt lat="42.58594" lon="27.58983">
        <ele>30.0</ele>
      </trkpt>
      <trkpt lat="42.58444" lon="27.58684">
        <ele>32.0</ele>
      </trkpt>
      <trkpt lat="42.58156" lon="27.58243">
        <ele>30.0</ele>
      </trkpt>
      <trkpt lat="42.57958" lon="27.58015">
        <ele>24.0</ele>
      </trkpt>
      <trkpt lat="42.57735" lon="27.57798">
        <ele>18.0</ele>
      </trkpt>
      <trkpt lat="42.57548" lon="27.57652">
        <ele>14.0</ele>
      </trkpt>
      <trkpt lat="42.57352" lon="27.57526">
        <ele>10.0</ele>
      </trkpt>
      <trkpt lat="42.5705" lon="27.57376">
        <ele>6.0</ele>
      </trkpt>
      <trkpt lat="42.56112" lon="27.57008">
        <ele>7.0</ele>
      </trkpt>
      <trkpt lat="42.56088" lon="27.5698">
        <ele>8.0</ele>
      </trkpt>
      <trkpt lat="42.56054" lon="27.56722">
        <ele>12.0</ele>
      </trkpt>
      <trkpt lat="42.55976" lon="27.56378">
        <ele>18.0</ele>
      </trkpt>
      <trkpt lat="42.55966" lon="27.56085">
        <ele>22.0</ele>
      </trkpt>
      <trkpt lat="42.55985" lon="27.5575">
        <ele>27.0</ele>
      </trkpt>
      <trkpt lat="42.55938" lon="27.55371">
        <ele>33.0</ele>
      </trkpt>
      <trkpt lat="42.55938" lon="27.55263">
        <ele>35.0</ele>
      </trkpt>
      <trkpt lat="42.56261" lon="27.53871">
        <ele>28.0</ele>
      </trkpt>
      <trkpt lat="42.56314" lon="27.53723">
        <ele>27.0</ele>
      </trkpt>
      <trkpt lat="42.56417" lon="27.53528">
        <ele>27.0</ele>
      </trkpt>
      <trkpt lat="42.56448" lon="27.53417">
        <ele>27.0</ele>
      </trkpt>
      <trkpt lat="42.56615" lon="27.52601">
        <ele>29.0</ele>
      </trkpt>
      <trkpt lat="42.56626" lon="27.52423">
        <ele>33.0</ele>
      </trkpt>
      <trkpt lat="42.56606" lon="27.52306">
        <ele>35.0</ele>
      </trkpt>
      <trkpt lat="42.56471" lon="27.52009">
        <ele>39.0</ele>
      </trkpt>
      <trkpt lat="42.56364" lon="27.51804">
        <ele>41.0</ele>
      </trkpt>
      <trkpt lat="42.56308" lon="27.51723">
        <ele>41.0</ele>
      </trkpt>
      <trkpt lat="42.56184" lon="27.51626">
        <ele>40.0</ele>
      </trkpt>
      <trkpt lat="42.55883" lon="27.51479">
        <ele>38.0</ele>
      </trkpt>
      <trkpt lat="42.55772" lon="27.51394">
        <ele>37.0</ele>
      </trkpt>
      <trkpt lat="42.55527" lon="27.51166">
        <ele>42.0</ele>
      </trkpt>
      <trkpt lat="42.55457" lon="27.5106">
        <ele>43.0</ele>
      </trkpt>
      <trkpt lat="42.55405" lon="27.50927">
        <ele>43.0</ele>
      </trkpt>
      <trkpt lat="42.55378" lon="27.5078">
        <ele>42.0</ele>
      </trkpt>
      <trkpt lat="42.5516" lon="27.47903">
        <ele>3.0</ele>
      </trkpt>
      <trkpt lat="42.55145" lon="27.47813">
        <ele>2.0</ele>
      </trkpt>
      <trkpt lat="42.55105" lon="27.47697">
        <ele>2.0</ele>
      </trkpt>
      <trkpt lat="42.55062" lon="27.47626">
        <ele>2.0</ele>
      </trkpt>
      <trkpt lat="42.54921" lon="27.47455">
        <ele>2.0</ele>
      </trkpt>
      <trkpt lat="42.54885" lon="27.4737">
        <ele>2.0</ele>
      </trkpt>
      <trkpt lat="42.54864" lon="27.4727">
        <ele>4.0</ele>
      </trkpt>
      <trkpt lat="42.54872" lon="27.47144">
        <ele>7.0</ele>
      </trkpt>
      <trkpt lat="42.54893" lon="27.4709">
        <ele>7.0</ele>
      </trkpt>
      <trkpt lat="42.54946" lon="27.47065">
        <ele>6.0</ele>
      </trkpt>
      <trkpt lat="42.54989" lon="27.47094">
        <ele>6.0</ele>
      </trkpt>
      <trkpt lat="42.55005" lon="27.47131">
        <ele>5.0</ele>
      </trkpt>
      <trkpt lat="42.55006" lon="27.4719">
        <ele>5.0</ele>
      </trkpt>
      <trkpt lat="42.54991" lon="27.47263">
        <ele>5.0</ele>
      </trkpt>
      <trkpt lat="42.54961" lon="27.47321">
        <ele>5.0</ele>
      </trkpt>
      <trkpt lat="42.54939" lon="27.47349">
        <ele>4.0</ele>
      </trkpt>
      <trkpt lat="42.54825" lon="27.47424">
        <ele>3.0</ele>
      </trkpt>
      <trkpt lat="42.54734" lon="27.47441">
        <ele>2.0</ele>
      </trkpt>
      <trkpt lat="42.54471" lon="27.4737">
        <ele>2.0</ele>
      </trkpt>
      <trkpt lat="42.54079" lon="27.47235">
        <ele>2.0</ele>
      </trkpt>
      <trkpt lat="42.53537" lon="27.47099">
        <ele>2.0</ele>
      </trkpt>
      <trkpt lat="42.53177" lon="27.4691">
        <ele>5.0</ele>
      </trkpt>
      <trkpt lat="42.5316" lon="27.46883">
        <ele>6.0</ele>
      </trkpt>
      <trkpt lat="42.53146" lon="27.46798">
        <ele>8.0</ele>
      </trkpt>
      <trkpt lat="42.53149" lon="27.46493">
        <ele>15.0</ele>
      </trkpt>
      <trkpt lat="42.53109" lon="27.46265">
        <ele>18.0</ele>
      </trkpt>
      <trkpt lat="42.52878" lon="27.45598">
        <ele>14.0</ele>
      </trkpt>
      <trkpt lat="42.5276" lon="27.45302">
        <ele>18.0</ele>
      </trkpt>
      <trkpt lat="42.5275" lon="27.452">
        <ele>23.0</ele>
      </trkpt>
      <trkpt lat="42.52665" lon="27.4513">
        <ele>26.0</ele>
      </trkpt>
      <trkpt lat="42.52496" lon="27.44796">
        <ele>35.0</ele>
      </trkpt>
      <trkpt lat="42.52426" lon="27.44624">
        <ele>35.0</ele>
      </trkpt>
      <trkpt lat="42.52223" lon="27.44298">
        <ele>31.0</ele>
      </trkpt>
      <trkpt lat="42.52076" lon="27.44026">
        <ele>28.0</ele>
      </trkpt>
      <trkpt lat="42.52059" lon="27.43939">
        <ele>21.0</ele>
      </trkpt>
      <trkpt lat="42.52027" lon="27.4393">
        <ele>19.0</ele>
      </trkpt>
      <trkpt lat="42.51964" lon="27.43869">
        <ele>17.0</ele>
      </trkpt>
      <trkpt lat="42.5171" lon="27.43732">
        <ele>12.0</ele>
      </trkpt>
      <trkpt lat="42.51611" lon="27.43521">
        <ele>11.0</ele>
      </trkpt>
      <trkpt lat="42.51605" lon="27.43478">
        <ele>11.0</ele>
      </trkpt>
      <trkpt lat="42.51689" lon="27.43147">
        <ele>12.0</ele>
      </trkpt>
      <trkpt lat="42.51958" lon="27.42292">
        <ele>7.0</ele>
      </trkpt>
      <trkpt lat="42.51977" lon="27.42186">
        <ele>6.0</ele>
      </trkpt>
      <trkpt lat="42.51979" lon="27.42077">
        <ele>4.0</ele>
      </trkpt>
      <trkpt lat="42.51916" lon="27.41649">
        <ele>8.0</ele>
      </trkpt>
      <trkpt lat="42.51918" lon="27.41513">
        <ele>10.0</ele>
      </trkpt>
      <trkpt lat="42.51955" lon="27.41338">
        <ele>11.0</ele>
      </trkpt>
      <trkpt lat="42.52143" lon="27.40687">
        <ele>8.0</ele>
      </trkpt>
      <trkpt lat="42.52302" lon="27.39764">
        <ele>4.0</ele>
      </trkpt>
      <trkpt lat="42.52307" lon="27.39661">
        <ele>4.0</ele>
      </trkpt>
      <trkpt lat="42.52276" lon="27.38963">
        <ele>9.0</ele>
      </trkpt>
      <trkpt lat="42.52289" lon="27.38747">
        <ele>14.0</ele>
      </trkpt>
      <trkpt lat="42.52195" lon="27.38673">
        <ele>15.0</ele>
      </trkpt>
      <trkpt lat="42.51906" lon="27.37978">
        <ele>7.0</ele>
      </trkpt>
      <trkpt lat="42.51727" lon="27.37369">
        <ele>6.0</ele>
      </trkpt>
      <trkpt lat="42.51666" lon="27.37202">
        <ele>6.0</ele>
      </trkpt>
      <trkpt lat="42.51627" lon="27.36583">
        <ele>10.0</ele>
      </trkpt>
      <trkpt lat="42.515" lon="27.36488">
        <ele>10.0</ele>
      </trkpt>
      <trkpt lat="42.51456" lon="27.36448">
        <ele>10.0</ele>
      </trkpt>
      <trkpt lat="42.51439" lon="27.36413">
        <ele>10.0</ele>
      </trkpt>
      <trkpt lat="42.51541" lon="27.36163">
        <ele>8.0</ele>
      </trkpt>
      <trkpt lat="42.5154" lon="27.36122">
        <ele>7.0</ele>
      </trkpt>
      <trkpt lat="42.51346" lon="27.35678">
        <ele>2.0</ele>
      </trkpt>
      <trkpt lat="42.51051" lon="27.34666">
        <ele>3.0</ele>
      </trkpt>
      <trkpt lat="42.51033" lon="27.34432">
        <ele>3.0</ele>
      </trkpt>
      <trkpt lat="42.51005" lon="27.34395">
        <ele>4.0</ele>
      </trkpt>
      <trkpt lat="42.50951" lon="27.34378">
        <ele>4.0</ele>
      </trkpt>
      <trkpt lat="42.50915" lon="27.34349">
        <ele>4.0</ele>
      </trkpt>
      <trkpt lat="42.50894" lon="27.34176">
        <ele>3.0</ele>
      </trkpt>
      <trkpt lat="42.50592" lon="27.33444">
      </trkpt>
      <trkpt lat="42.50421" lon="27.32726">
      </trkpt>
      <trkpt lat="42.50388" lon="27.32634">
      </trkpt>
      <trkpt lat="42.50347" lon="27.32542">
        <ele>1.0</ele>
      </trkpt>
      <trkpt lat="42.50216" lon="27.32376">
        <ele>2.0</ele>
      </trkpt>
      <trkpt lat="42.50096" lon="27.32174">
        <ele>1.0</ele>
      </trkpt>
      <trkpt lat="42.50043" lon="27.32201">
        <ele>1.0</ele>
      </trkpt>
      <trkpt lat="42.50001" lon="27.32188">
        <ele>1.0</ele>
      </trkpt>
      <trkpt lat="42.49949" lon="27.32289">
        <ele>1.0</ele>
      </trkpt>
      <trkpt lat="42.49423" lon="27.32874">
      </trkpt>
      <trkpt lat="42.49347" lon="27.32975">
        <ele>1.0</ele>
      </trkpt>
      <trkpt lat="42.49251" lon="27.3318">
        <ele>2.0</ele>
      </trkpt>
      <trkpt lat="42.49131" lon="27.33675">
        <ele>2.0</ele>
      </trkpt>
      <trkpt lat="42.4907" lon="27.33784">
        <ele>2.0</ele>
      </trkpt>
      <trkpt lat="42.48817" lon="27.33977">
        <ele>3.0</ele>
      </trkpt>
      <trkpt lat="42.48397" lon="27.34335">
        <ele>5.0</ele>
      </trkpt>
      <trkpt lat="42.48003" lon="27.34683">
        <ele>12.0</ele>
      </trkpt>
      <trkpt lat="42.47913" lon="27.34786">
        <ele>17.0</ele>
      </trkpt>
      <trkpt lat="42.47847" lon="27.34907">
        <ele>21.0</ele>
      </trkpt>
      <trkpt lat="42.47659" lon="27.35577">
        <ele>22.0</ele>
      </trkpt>
      <trkpt lat="42.47367" lon="27.36195">
        <ele>24.0</ele>
      </trkpt>
      <trkpt lat="42.4736" lon="27.36251">
        <ele>25.0</ele>
      </trkpt>
      <trkpt lat="42.47371" lon="27.36295">
        <ele>25.0</ele>
      </trkpt>
      <trkpt lat="42.47431" lon="27.3636">
        <ele>26.0</ele>
      </trkpt>
      <trkpt lat="42.47679" lon="27.36761">
        <ele>20.0</ele>
      </trkpt>
      <trkpt lat="42.47659" lon="27.37024">
        <ele>12.0</ele>
      </trkpt>
      <trkpt lat="42.4768" lon="27.37078">
        <ele>11.0</ele>
      </trkpt>
      <trkpt lat="42.4799" lon="27.37305">
        <ele>12.0</ele>
      </trkpt>
      <trkpt lat="42.48037" lon="27.37366">
        <ele>14.0</ele>
      </trkpt>
      <trkpt lat="42.48066" lon="27.37439">
        <ele>17.0</ele>
      </trkpt>
      <trkpt lat="42.48083" lon="27.37556">
        <ele>21.0</ele>
      </trkpt>
      <trkpt lat="42.48091" lon="27.38583">
        <ele>33.0</ele>
      </trkpt>
      <trkpt lat="42.48074" lon="27.38672">
        <ele>41.0</ele>
      </trkpt>
      <trkpt lat="42.48026" lon="27.38755">
        <ele>46.0</ele>
      </trkpt>
      <trkpt lat="42.47793" lon="27.38956">
        <ele>52.0</ele>
      </trkpt>
      <trkpt lat="42.4774" lon="27.39032">
        <ele>59.0</ele>
      </trkpt>
      <trkpt lat="42.47706" lon="27.3914">
        <ele>64.0</ele>
      </trkpt>
      <trkpt lat="42.47647" lon="27.39456">
        <ele>72.0</ele>
      </trkpt>
      <trkpt lat="42.4761" lon="27.39529">
        <ele>73.0</ele>
      </trkpt>
      <trkpt lat="42.47476" lon="27.39706">
        <ele>70.0</ele>
      </trkpt>
      <trkpt lat="42.47449" lon="27.39772">
        <ele>65.0</ele>
      </trkpt>
      <trkpt lat="42.47455" lon="27.39881">
        <ele>61.0</ele>
      </trkpt>
      <trkpt lat="42.47623" lon="27.4026">
        <ele>56.0</ele>
      </trkpt>
      <trkpt lat="42.47659" lon="27.4037">
        <ele>51.0</ele>
      </trkpt>
      <trkpt lat="42.4773" lon="27.40729">
        <ele>44.0</ele>
      </trkpt>
      <trkpt lat="42.4776" lon="27.41267">
        <ele>37.0</ele>
      </trkpt>
      <trkpt lat="42.47752" lon="27.41335">
        <ele>36.0</ele>
      </trkpt>
      <trkpt lat="42.47718" lon="27.41418">
        <ele>34.0</ele>
      </trkpt>
      <trkpt lat="42.47381" lon="27.4183">
        <ele>28.0</ele>
      </trkpt>
      <trkpt lat="42.47338" lon="27.41942">
        <ele>23.0</ele>
      </trkpt>
      <trkpt lat="42.47326" lon="27.4204">
        <ele>20.0</ele>
      </trkpt>
      <trkpt lat="42.47322" lon="27.42382">
        <ele>9.0</ele>
      </trkpt>
      <trkpt lat="42.47275" lon="27.42613">
        <ele>4.0</ele>
      </trkpt>
      <trkpt lat="42.47216" lon="27.42674">
        <ele>3.0</ele>
      </trkpt>
      <trkpt lat="42.47252" lon="27.42808">
        <ele>3.0</ele>
      </trkpt>
      <trkpt lat="42.47256" lon="27.43065">
        <ele>3.0</ele>
      </trkpt>
      <trkpt lat="42.47325" lon="27.43535">
        <ele>-1.0</ele>
      </trkpt>
      <trkpt lat="42.47284" lon="27.43569">
        <ele>-2.0</ele>
      </trkpt>
      <trkpt lat="42.47059" lon="27.43627">
        <ele>-1.0</ele>
      </trkpt>
      <trkpt lat="42.46962" lon="27.4367">
        <ele>1.0</ele>
      </trkpt>
      <trkpt lat="42.45736" lon="27.44045">
        <ele>3.0</ele>
      </trkpt>
      <trkpt lat="42.45587" lon="27.44139">
        <ele>2.0</ele>
      </trkpt>
      <trkpt lat="42.45472" lon="27.44279">
      </trkpt>
      <trkpt lat="42.44413" lon="27.46297">
        <ele>2.0</ele>
      </trkpt>
      <trkpt lat="42.44328" lon="27.46552">
        <ele>2.0</ele>
      </trkpt>
      <trkpt lat="42.44179" lon="27.4744">
        <ele>5.0</ele>
      </trkpt>
      <trkpt lat="42.44137" lon="27.47593">
        <ele>6.0</ele>
      </trkpt>
      <trkpt lat="42.43576" lon="27.48632">
        <ele>23.0</ele>
      </trkpt>
      <trkpt lat="42.43488" lon="27.48866">
        <ele>36.0</ele>
      </trkpt>
      <trkpt lat="42.43297" lon="27.49519">
        <ele>39.0</ele>
      </trkpt>
      <trkpt lat="42.43229" lon="27.49676">
        <ele>37.0</ele>
      </trkpt>
      <trkpt lat="42.42972" lon="27.50179">
        <ele>25.0</ele>
      </trkpt>
      <trkpt lat="42.42881" lon="27.50472">
        <ele>15.0</ele>
      </trkpt>
      <trkpt lat="42.42739" lon="27.51551">
        <ele>16.0</ele>
      </trkpt>
      <trkpt lat="42.42733" lon="27.51742">
        <ele>16.0</ele>
      </trkpt>
      <trkpt lat="42.42751" lon="27.51891">
        <ele>16.0</ele>
      </trkpt>
      <trkpt lat="42.42808" lon="27.52081">
        <ele>16.0</ele>
      </trkpt>
      <trkpt lat="42.42903" lon="27.52242">
        <ele>16.0</ele>
      </trkpt>
      <trkpt lat="42.42981" lon="27.52331">
        <ele>18.0</ele>
      </trkpt>
      <trkpt lat="42.43229" lon="27.52561">
        <ele>25.0</ele>
      </trkpt>
      <trkpt lat="42.43276" lon="27.52662">
        <ele>28.0</ele>
      </trkpt>
      <trkpt lat="42.43295" lon="27.52803">
        <ele>29.0</ele>
      </trkpt>
      <trkpt lat="42.43286" lon="27.52896">
        <ele>27.0</ele>
      </trkpt>
      <trkpt lat="42.43245" lon="27.5301">
        <ele>25.0</ele>
      </trkpt>
      <trkpt lat="42.43035" lon="27.5328">
        <ele>18.0</ele>
      </trkpt>
      <trkpt lat="42.42987" lon="27.53375">
        <ele>16.0</ele>
      </trkpt>
      <trkpt lat="42.4295" lon="27.53492">
        <ele>15.0</ele>
      </trkpt>
      <trkpt lat="42.42803" lon="27.54602">
        <ele>18.0</ele>
      </trkpt>
      <trkpt lat="42.42798" lon="27.5472">
        <ele>24.0</ele>
      </trkpt>
      <trkpt lat="42.42822" lon="27.5488">
        <ele>27.0</ele>
      </trkpt>
      <trkpt lat="42.42859" lon="27.54995">
        <ele>29.0</ele>
      </trkpt>
      <trkpt lat="42.42916" lon="27.55102">
        <ele>32.0</ele>
      </trkpt>
      <trkpt lat="42.43455" lon="27.55961">
        <ele>54.0</ele>
      </trkpt>
      <trkpt lat="42.43549" lon="27.56068">
        <ele>59.0</ele>
      </trkpt>
      <trkpt lat="42.43722" lon="27.56214">
        <ele>57.0</ele>
      </trkpt>
      <trkpt lat="42.4409" lon="27.56405">
        <ele>49.0</ele>
      </trkpt>
      <trkpt lat="42.4419" lon="27.5648">
        <ele>39.0</ele>
      </trkpt>
      <trkpt lat="42.44275" lon="27.56578">
        <ele>31.0</ele>
      </trkpt>
      <trkpt lat="42.44338" lon="27.56688">
        <ele>24.0</ele>
      </trkpt>
      <trkpt lat="42.44384" lon="27.56814">
        <ele>20.0</ele>
      </trkpt>
      <trkpt lat="42.4441" lon="27.56948">
        <ele>16.0</ele>
      </trkpt>
      <trkpt lat="42.44416" lon="27.57164">
        <ele>12.0</ele>
      </trkpt>
      <trkpt lat="42.44312" lon="27.5972">
        <ele>10.0</ele>
      </trkpt>
      <trkpt lat="42.44316" lon="27.59979">
        <ele>14.0</ele>
      </trkpt>
      <trkpt lat="42.4436" lon="27.60629">
        <ele>11.0</ele>
      </trkpt>
      <trkpt lat="42.44363" lon="27.60821">
        <ele>9.0</ele>
      </trkpt>
      <trkpt lat="42.44302" lon="27.61797">
        <ele>9.0</ele>
      </trkpt>
      <trkpt lat="42.44322" lon="27.62018">
        <ele>11.0</ele>
      </trkpt>
      <trkpt lat="42.44454" lon="27.6247">
        <ele>11.0</ele>
      </trkpt>
      <trkpt lat="42.44474" lon="27.62581">
        <ele>13.0</ele>
      </trkpt>
      <trkpt lat="42.44481" lon="27.62764">
        <ele>18.0</ele>
      </trkpt>
      <trkpt lat="42.4443" lon="27.62982">
        <ele>27.0</ele>
      </trkpt>
      <trkpt lat="42.44367" lon="27.63108">
        <ele>30.0</ele>
      </trkpt>
      <trkpt lat="42.44277" lon="27.6322">
        <ele>33.0</ele>
      </trkpt>
      <trkpt lat="42.43899" lon="27.63573">
        <ele>41.0</ele>
      </trkpt>
      <trkpt lat="42.43782" lon="27.63666">
        <ele>40.0</ele>
      </trkpt>
      <trkpt lat="42.43685" lon="27.63701">
        <ele>39.0</ele>
      </trkpt>
      <trkpt lat="42.43433" lon="27.63744">
        <ele>34.0</ele>
      </trkpt>
      <trkpt lat="42.42956" lon="27.63962">
        <ele>22.0</ele>
      </trkpt>
      <trkpt lat="42.41925" lon="27.64299">
        <ele>7.0</ele>
      </trkpt>
      <trkpt lat="42.41769" lon="27.64367">
        <ele>8.0</ele>
      </trkpt>
      <trkpt lat="42.41578" lon="27.64481">
        <ele>8.0</ele>
      </trkpt>
      <trkpt lat="42.41452" lon="27.64578">
        <ele>6.0</ele>
      </trkpt>
      <trkpt lat="42.41285" lon="27.64735">
        <ele>5.0</ele>
      </trkpt>
      <trkpt lat="42.40836" lon="27.65217">
        <ele>8.0</ele>
      </trkpt>
      <trkpt lat="42.40698" lon="27.65395">
        <ele>5.0</ele>
      </trkpt>
      <trkpt lat="42.40611" lon="27.65556">
        <ele>4.0</ele>
      </trkpt>
      <trkpt lat="42.40558" lon="27.65694">
        <ele>4.0</ele>
      </trkpt>
      <trkpt lat="42.40514" lon="27.65855">
        <ele>4.0</ele>
      </trkpt>
      <trkpt lat="42.40481" lon="27.66136">
        <ele>3.0</ele>
      </trkpt>
      <trkpt lat="42.40486" lon="27.66351">
        <ele>4.0</ele>
      </trkpt>
      <trkpt lat="42.4057" lon="27.67104">
        <ele>5.0</ele>
      </trkpt>
      <trkpt lat="42.40568" lon="27.67223">
        <ele>6.0</ele>
      </trkpt>
      <trkpt lat="42.40551" lon="27.67315">
        <ele>8.0</ele>
      </trkpt>
      <trkpt lat="42.40529" lon="27.67356">
        <ele>9.0</ele>
      </trkpt>
      <trkpt lat="42.40489" lon="27.67367">
        <ele>11.0</ele>
      </trkpt>
      <trkpt lat="42.40443" lon="27.67331">
        <ele>12.0</ele>
      </trkpt>
      <trkpt lat="42.40443" lon="27.67278">
        <ele>12.0</ele>
      </trkpt>
      <trkpt lat="42.40473" lon="27.67256">
        <ele>12.0</ele>
      </trkpt>
      <trkpt lat="42.40652" lon="27.67283">
        <ele>10.0</ele>
      </trkpt>
      <trkpt lat="42.40707" lon="27.67376">
        <ele>11.0</ele>
      </trkpt>
      <trkpt lat="42.4084" lon="27.67477">
        <ele>14.0</ele>
      </trkpt>
      <trkpt lat="42.40856" lon="27.67524">
        <ele>15.0</ele>
      </trkpt>
      <trkpt lat="42.40858" lon="27.67655">
        <ele>16.0</ele>
      </trkpt>
      <trkpt lat="42.40884" lon="27.67704">
        <ele>16.0</ele>
      </trkpt>
      <trkpt lat="42.41047" lon="27.67778">
        <ele>15.0</ele>
      </trkpt>
      <trkpt lat="42.41178" lon="27.67759">
        <ele>15.0</ele>
      </trkpt>
      <trkpt lat="42.4125" lon="27.67824">
        <ele>15.0</ele>
      </trkpt>
      <trkpt lat="42.41278" lon="27.67883">
        <ele>14.0</ele>
      </trkpt>
      <trkpt lat="42.41298" lon="27.68094">
        <ele>12.0</ele>
      </trkpt>
      <trkpt lat="42.41289" lon="27.68148">
        <ele>11.0</ele>
      </trkpt>
      <trkpt lat="42.41251" lon="27.68205">
        <ele>10.0</ele>
      </trkpt>
      <trkpt lat="42.41237" lon="27.68251">
        <ele>10.0</ele>
      </trkpt>
      <trkpt lat="42.41249" lon="27.68373">
        <ele>13.0</ele>
      </trkpt>
      <trkpt lat="42.41267" lon="27.68429">
        <ele>15.0</ele>
      </trkpt>
      <trkpt lat="42.41359" lon="27.68561">
        <ele>15.0</ele>
      </trkpt>
      <trkpt lat="42.41404" lon="27.68657">
        <ele>12.0</ele>
      </trkpt>
      <trkpt lat="42.41442" lon="27.68673">
        <ele>12.0</ele>
      </trkpt>
      <trkpt lat="42.41529" lon="27.6867">
        <ele>14.0</ele>
      </trkpt>
      <trkpt lat="42.41583" lon="27.68715">
        <ele>16.0</ele>
      </trkpt>
      <trkpt lat="42.41633" lon="27.68891">
        <ele>22.0</ele>
      </trkpt>
      <trkpt lat="42.41835" lon="27.69139">
        <ele>24.0</ele>
      </trkpt>
      <trkpt lat="42.41898" lon="27.69361">
        <ele>20.0</ele>
      </trkpt>
      <trkpt lat="42.4189" lon="27.69441">
        <ele>19.0</ele>
      </trkpt>
      <trkpt lat="42.41871" lon="27.69477">
        <ele>19.0</ele>
      </trkpt>
      <trkpt lat="42.41734" lon="27.69637">
        <ele>21.0</ele>
      </trkpt>
      <trkpt lat="42.41403" lon="27.69748">
        <ele>11.0</ele>
      </trkpt>
      <trkpt lat="42.41232" lon="27.69849">
        <ele>10.0</ele>
      </trkpt>
      <trkpt lat="42.41195" lon="27.69913">
        <ele>10.0</ele>
      </trkpt>
      <trkpt lat="42.41185" lon="27.70055">
        <ele>11.0</ele>
      </trkpt>
      <trkpt lat="42.41165" lon="27.70118">
        <ele>12.0</ele>
      </trkpt>
      <trkpt lat="42.41073" lon="27.70228">
        <ele>13.0</ele>
      </trkpt>
      <trkpt lat="42.40953" lon="27.70316">
        <ele>14.0</ele>
      </trkpt>
      <trkpt lat="42.40873" lon="27.70394">
        <ele>14.0</ele>
      </trkpt>
      <trkpt lat="42.40819" lon="27.7048">
        <ele>15.0</ele>
      </trkpt>
      <trkpt lat="42.40751" lon="27.70645">
        <ele>20.0</ele>
      </trkpt>
      <trkpt lat="42.40674" lon="27.70705">
        <ele>24.0</ele>
      </trkpt>
      <trkpt lat="42.40591" lon="27.70741">
        <ele>27.0</ele>
      </trkpt>
      <trkpt lat="42.40533" lon="27.70707">
        <ele>31.0</ele>
      </trkpt>
      <trkpt lat="42.4046" lon="27.70801">
        <ele>34.0</ele>
      </trkpt>
      <trkpt lat="42.40385" lon="27.70845">
        <ele>36.0</ele>
      </trkpt>
      <trkpt lat="42.40323" lon="27.70857">
        <ele>35.0</ele>
      </trkpt>
      <trkpt lat="42.40246" lon="27.70846">
        <ele>33.0</ele>
      </trkpt>
      <trkpt lat="42.40175" lon="27.70806">
        <ele>31.0</ele>
      </trkpt>
      <trkpt lat="42.40125" lon="27.70755">
        <ele>28.0</ele>
      </trkpt>
      <trkpt lat="42.39936" lon="27.70478">
        <ele>19.0</ele>
      </trkpt>
      <trkpt lat="42.39861" lon="27.70396">
        <ele>16.0</ele>
      </trkpt>
      <trkpt lat="42.39813" lon="27.70367">
        <ele>15.0</ele>
      </trkpt>
      <trkpt lat="42.39624" lon="27.7031">
        <ele>14.0</ele>
      </trkpt>
      <trkpt lat="42.39513" lon="27.7032">
        <ele>13.0</ele>
      </trkpt>
      <trkpt lat="42.3886" lon="27.70466">
        <ele>8.0</ele>
      </trkpt>
      <trkpt lat="42.38597" lon="27.70529">
        <ele>8.0</ele>
      </trkpt>
      <trkpt lat="42.38529" lon="27.7056">
        <ele>8.0</ele>
      </trkpt>
      <trkpt lat="42.38445" lon="27.7062">
        <ele>8.0</ele>
      </trkpt>
      <trkpt lat="42.38388" lon="27.70686">
        <ele>8.0</ele>
      </trkpt>
      <trkpt lat="42.38271" lon="27.70867">
        <ele>13.0</ele>
      </trkpt>
      <trkpt lat="42.38165" lon="27.71229">
        <ele>25.0</ele>
      </trkpt>
      <trkpt lat="42.3806" lon="27.71385">
        <ele>34.0</ele>
      </trkpt>
      <trkpt lat="42.38046" lon="27.7162">
        <ele>37.0</ele>
      </trkpt>
      <trkpt lat="42.3803" lon="27.71692">
        <ele>39.0</ele>
      </trkpt>
      <trkpt lat="42.37911" lon="27.71951">
        <ele>39.0</ele>
      </trkpt>
      <trkpt lat="42.3787" lon="27.71984">
        <ele>39.0</ele>
      </trkpt>
      <trkpt lat="42.37832" lon="27.71956">
        <ele>39.0</ele>
      </trkpt>
      <trkpt lat="42.37792" lon="27.71701">
        <ele>36.0</ele>
      </trkpt>
      <trkpt lat="42.37707" lon="27.71523">
        <ele>33.0</ele>
      </trkpt>
      <trkpt lat="42.37525" lon="27.71442">
        <ele>27.0</ele>
      </trkpt>
      <trkpt lat="42.37396" lon="27.71464">
        <ele>24.0</ele>
      </trkpt>
      <trkpt lat="42.37356" lon="27.71438">
        <ele>20.0</ele>
      </trkpt>
      <trkpt lat="42.37346" lon="27.71382">
        <ele>19.0</ele>
      </trkpt>
      <trkpt lat="42.37383" lon="27.71232">
        <ele>17.0</ele>
      </trkpt>
      <trkpt lat="42.37385" lon="27.71177">
        <ele>15.0</ele>
      </trkpt>
      <trkpt lat="42.372" lon="27.70924">
        <ele>12.0</ele>
      </trkpt>
      <trkpt lat="42.36857" lon="27.70793">
        <ele>5.0</ele>
      </trkpt>
      <trkpt lat="42.36753" lon="27.70788">
        <ele>3.0</ele>
      </trkpt>
      <trkpt lat="42.36599" lon="27.70858">
        <ele>3.0</ele>
      </trkpt>
      <trkpt lat="42.36223" lon="27.71086">
        <ele>2.0</ele>
      </trkpt>
      <trkpt lat="42.34721" lon="27.72319">
      </trkpt>
      <trkpt lat="42.34671" lon="27.7232">
        <ele>1.0</ele>
      </trkpt>
      <trkpt lat="42.34616" lon="27.72286">
        <ele>2.0</ele>
      </trkpt>
      <trkpt lat="42.34579" lon="27.7222">
        <ele>4.0</ele>
      </trkpt>
      <trkpt lat="42.34568" lon="27.72113">
        <ele>6.0</ele>
      </trkpt>
      <trkpt lat="42.34646" lon="27.71785">
        <ele>6.0</ele>
      </trkpt>
      <trkpt lat="42.34655" lon="27.71708">
        <ele>5.0</ele>
      </trkpt>
      <trkpt lat="42.34636" lon="27.71603">
        <ele>6.0</ele>
      </trkpt>
      <trkpt lat="42.34573" lon="27.71477">
        <ele>7.0</ele>
      </trkpt>
      <trkpt lat="42.34688" lon="27.71419">
        <ele>8.0</ele>
      </trkpt>
      <trkpt lat="42.34831" lon="27.71308">
        <ele>9.0</ele>
      </trkpt>
      <trkpt lat="42.35638" lon="27.7049">
        <ele>6.0</ele>
      </trkpt>
      <trkpt lat="42.36279" lon="27.69889">
        <ele>4.0</ele>
      </trkpt>
      <trkpt lat="42.3635" lon="27.69784">
        <ele>5.0</ele>
      </trkpt>
      <trkpt lat="42.36405" lon="27.69674">
        <ele>6.0</ele>
      </trkpt>
      <trkpt lat="42.36849" lon="27.68576">
        <ele>27.0</ele>
      </trkpt>
      <trkpt lat="42.36886" lon="27.68506">
        <ele>35.0</ele>
      </trkpt>
      <trkpt lat="42.36969" lon="27.68407">
        <ele>42.0</ele>
      </trkpt>
      <trkpt lat="42.37047" lon="27.68356">
        <ele>43.0</ele>
      </trkpt>
      <trkpt lat="42.37107" lon="27.68336">
        <ele>42.0</ele>
      </trkpt>
      <trkpt lat="42.38296" lon="27.6807">
        <ele>24.0</ele>
      </trkpt>
      <trkpt lat="42.39523" lon="27.67533">
        <ele>14.0</ele>
      </trkpt>
      <trkpt lat="42.39618" lon="27.67514">
        <ele>13.0</ele>
      </trkpt>
      <trkpt lat="42.39716" lon="27.67515">
        <ele>15.0</ele>
      </trkpt>
      <trkpt lat="42.40248" lon="27.67583">
        <ele>26.0</ele>
      </trkpt>
      <trkpt lat="42.40344" lon="27.67573">
        <ele>27.0</ele>
      </trkpt>
      <trkpt lat="42.40394" lon="27.67549">
        <ele>26.0</ele>
      </trkpt>
      <trkpt lat="42.40457" lon="27.67495">
        <ele>23.0</ele>
      </trkpt>
      <trkpt lat="42.40516" lon="27.67412">
        <ele>19.0</ele>
      </trkpt>
      <trkpt lat="42.40563" lon="27.67296">
        <ele>14.0</ele>
      </trkpt>
      <trkpt lat="42.40577" lon="27.67198">
        <ele>10.0</ele>
      </trkpt>
      <trkpt lat="42.40573" lon="27.67063">
        <ele>7.0</ele>
      </trkpt>
      <trkpt lat="42.40487" lon="27.66251">
        <ele>5.0</ele>
      </trkpt>
      <trkpt lat="42.40491" lon="27.66066">
        <ele>5.0</ele>
      </trkpt>
      <trkpt lat="42.4052" lon="27.65858">
        <ele>5.0</ele>
      </trkpt>
      <trkpt lat="42.4058" lon="27.65652">
        <ele>5.0</ele>
      </trkpt>
      <trkpt lat="42.40658" lon="27.65478">
        <ele>5.0</ele>
      </trkpt>
      <trkpt lat="42.40724" lon="27.6537">
        <ele>5.0</ele>
      </trkpt>
      <trkpt lat="42.40839" lon="27.65226">
        <ele>7.0</ele>
      </trkpt>
      <trkpt lat="42.41412" lon="27.64623">
        <ele>5.0</ele>
      </trkpt>
      <trkpt lat="42.41583" lon="27.64488">
        <ele>7.0</ele>
      </trkpt>
      <trkpt lat="42.41772" lon="27.64376">
        <ele>8.0</ele>
      </trkpt>
      <trkpt lat="42.4201" lon="27.64278">
        <ele>7.0</ele>
      </trkpt>
      <trkpt lat="42.42958" lon="27.63971">
        <ele>14.0</ele>
      </trkpt>
      <trkpt lat="42.43387" lon="27.6377">
        <ele>27.0</ele>
      </trkpt>
      <trkpt lat="42.43717" lon="27.63702">
        <ele>35.0</ele>
      </trkpt>
      <trkpt lat="42.43803" lon="27.63662">
        <ele>38.0</ele>
      </trkpt>
      <trkpt lat="42.44308" lon="27.63199">
        <ele>37.0</ele>
      </trkpt>
      <trkpt lat="42.44389" lon="27.63086">
        <ele>33.0</ele>
      </trkpt>
      <trkpt lat="42.44435" lon="27.62987">
        <ele>31.0</ele>
      </trkpt>
      <trkpt lat="42.44472" lon="27.62865">
        <ele>27.0</ele>
      </trkpt>
      <trkpt lat="42.44487" lon="27.62766">
        <ele>23.0</ele>
      </trkpt>
      <trkpt lat="42.44481" lon="27.62578">
        <ele>19.0</ele>
      </trkpt>
      <trkpt lat="42.44461" lon="27.62467">
        <ele>15.0</ele>
      </trkpt>
      <trkpt lat="42.44329" lon="27.62017">
        <ele>10.0</ele>
      </trkpt>
      <trkpt lat="42.44309" lon="27.61832">
        <ele>9.0</ele>
      </trkpt>
      <trkpt lat="42.44368" lon="27.60889">
        <ele>6.0</ele>
      </trkpt>
      <trkpt lat="42.44367" lon="27.6063">
        <ele>10.0</ele>
      </trkpt>
      <trkpt lat="42.44326" lon="27.60042">
        <ele>13.0</ele>
      </trkpt>
      <trkpt lat="42.44319" lon="27.5972">
        <ele>15.0</ele>
      </trkpt>
      <trkpt lat="42.44421" lon="27.57165">
        <ele>8.0</ele>
      </trkpt>
      <trkpt lat="42.44416" lon="27.56947">
        <ele>12.0</ele>
      </trkpt>
      <trkpt lat="42.44391" lon="27.56814">
        <ele>14.0</ele>
      </trkpt>
      <trkpt lat="42.44344" lon="27.56684">
        <ele>16.0</ele>
      </trkpt>
      <trkpt lat="42.4428" lon="27.56573">
        <ele>22.0</ele>
      </trkpt>
      <trkpt lat="42.44195" lon="27.56473">
        <ele>28.0</ele>
      </trkpt>
      <trkpt lat="42.44092" lon="27.56394">
        <ele>33.0</ele>
      </trkpt>
      <trkpt lat="42.43734" lon="27.56211">
        <ele>50.0</ele>
      </trkpt>
      <trkpt lat="42.4361" lon="27.56114">
        <ele>55.0</ele>
      </trkpt>
      <trkpt lat="42.43463" lon="27.55956">
        <ele>60.0</ele>
      </trkpt>
      <trkpt lat="42.42921" lon="27.55095">
        <ele>47.0</ele>
      </trkpt>
      <trkpt lat="42.42844" lon="27.54931">
        <ele>33.0</ele>
      </trkpt>
      <trkpt lat="42.42809" lon="27.54767">
        <ele>29.0</ele>
      </trkpt>
      <trkpt lat="42.4281" lon="27.54621">
        <ele>26.0</ele>
      </trkpt>
      <trkpt lat="42.42948" lon="27.5353">
        <ele>21.0</ele>
      </trkpt>
      <trkpt lat="42.42992" lon="27.53379">
        <ele>17.0</ele>
      </trkpt>
      <trkpt lat="42.43039" lon="27.53285">
        <ele>17.0</ele>
      </trkpt>
      <trkpt lat="42.4325" lon="27.53016">
        <ele>20.0</ele>
      </trkpt>
      <trkpt lat="42.43285" lon="27.52929">
        <ele>22.0</ele>
      </trkpt>
      <trkpt lat="42.43302" lon="27.52803">
        <ele>25.0</ele>
      </trkpt>
      <trkpt lat="42.43282" lon="27.52659">
        <ele>29.0</ele>
      </trkpt>
      <trkpt lat="42.43234" lon="27.52555">
        <ele>29.0</ele>
      </trkpt>
      <trkpt lat="42.42946" lon="27.52282">
        <ele>23.0</ele>
      </trkpt>
      <trkpt lat="42.42875" lon="27.52189">
        <ele>20.0</ele>
      </trkpt>
      <trkpt lat="42.42814" lon="27.52076">
        <ele>16.0</ele>
      </trkpt>
      <trkpt lat="42.42759" lon="27.51896">
        <ele>14.0</ele>
      </trkpt>
      <trkpt lat="42.4274" lon="27.51649">
        <ele>16.0</ele>
      </trkpt>
      <trkpt lat="42.42887" lon="27.50478">
        <ele>15.0</ele>
      </trkpt>
      <trkpt lat="42.42927" lon="27.50323">
        <ele>14.0</ele>
      </trkpt>
      <trkpt lat="42.42992" lon="27.50152">
        <ele>15.0</ele>
      </trkpt>
      <trkpt lat="42.43259" lon="27.49631">
        <ele>22.0</ele>
      </trkpt>
      <trkpt lat="42.4331" lon="27.49508">
        <ele>31.0</ele>
      </trkpt>
      <trkpt lat="42.43507" lon="27.48826">
        <ele>38.0</ele>
      </trkpt>
      <trkpt lat="42.43582" lon="27.48635">
        <ele>38.0</ele>
      </trkpt>
      <trkpt lat="42.44142" lon="27.476">
        <ele>11.0</ele>
      </trkpt>
      <trkpt lat="42.44179" lon="27.47473">
        <ele>6.0</ele>
      </trkpt>
      <trkpt lat="42.44335" lon="27.46554">
        <ele>3.0</ele>
      </trkpt>
      <trkpt lat="42.44384" lon="27.46393">
        <ele>3.0</ele>
      </trkpt>
      <trkpt lat="42.44444" lon="27.46259">
        <ele>3.0</ele>
      </trkpt>
      <trkpt lat="42.45479" lon="27.44289">
      </trkpt>
      <trkpt lat="42.45591" lon="27.44153">
        <ele>1.0</ele>
      </trkpt>
      <trkpt lat="42.45735" lon="27.44061">
        <ele>2.0</ele>
      </trkpt>
      <trkpt lat="42.46942" lon="27.4369">
        <ele>3.0</ele>
      </trkpt>
      <trkpt lat="42.47309" lon="27.43617">
      </trkpt>
      <trkpt lat="42.47397" lon="27.43632">
        <ele>2.0</ele>
      </trkpt>
      <trkpt lat="42.47443" lon="27.43665">
        <ele>2.0</ele>
      </trkpt>
      <trkpt lat="42.47649" lon="27.43904">
        <ele>3.0</ele>
      </trkpt>
      <trkpt lat="42.48149" lon="27.44104">
        <ele>5.0</ele>
      </trkpt>
      <trkpt lat="42.48231" lon="27.44158">
        <ele>5.0</ele>
      </trkpt>
      <trkpt lat="42.48329" lon="27.44298">
        <ele>4.0</ele>
      </trkpt>
      <trkpt lat="42.49025" lon="27.45477">
        <ele>3.0</ele>
      </trkpt>
      <trkpt lat="42.49155" lon="27.46132">
        <ele>7.0</ele>
      </trkpt>
      <trkpt lat="42.49061" lon="27.46436">
        <ele>12.0</ele>
      </trkpt>
      <trkpt lat="42.49027" lon="27.46653">
        <ele>13.0</ele>
      </trkpt>
      <trkpt lat="42.49032" lon="27.46719">
        <ele>13.0</ele>
      </trkpt>
      <trkpt lat="42.4913" lon="27.47194">
        <ele>14.0</ele>
      </trkpt>
      <trkpt lat="42.49296" lon="27.47109">
        <ele>11.0</ele>
      </trkpt>
      <trkpt lat="42.49348" lon="27.47061">
        <ele>9.0</ele>
      </trkpt>
      <trkpt lat="42.49745" lon="27.46896">
        <ele>17.0</ele>
      </trkpt>
      <trkpt lat="42.49838" lon="27.47314">
        <ele>17.0</ele>
      </trkpt>
      <trkpt lat="42.49869" lon="27.47404">
        <ele>18.0</ele>
      </trkpt>
      <trkpt lat="42.50212" lon="27.4706">
        <ele>25.0</ele>
      </trkpt>
      <trkpt lat="42.50856" lon="27.46816">
        <ele>36.0</ele>
      </trkpt>
      <trkpt lat="42.51024" lon="27.46717">
        <ele>33.0</ele>
      </trkpt>
      <trkpt lat="42.51466" lon="27.46318">
        <ele>27.0</ele>
      </trkpt>
      <trkpt lat="42.5168" lon="27.46151">
        <ele>27.0</ele>
      </trkpt>
      <trkpt lat="42.51747" lon="27.46134">
        <ele>25.0</ele>
      </trkpt>
      <trkpt lat="42.51767" lon="27.46085">
        <ele>25.0</ele>
      </trkpt>
      <trkpt lat="42.51995" lon="27.45863">
        <ele>25.0</ele>
      </trkpt>
      <trkpt lat="42.52296" lon="27.45598">
        <ele>22.0</ele>
      </trkpt>
      <trkpt lat="42.52691" lon="27.45283">
        <ele>25.0</ele>
      </trkpt>
      <trkpt lat="42.52754" lon="27.45322">
        <ele>23.0</ele>
      </trkpt>
      <trkpt lat="42.52853" lon="27.45566">
        <ele>19.0</ele>
      </trkpt>
      <trkpt lat="42.53091" lon="27.46248">
        <ele>19.0</ele>
      </trkpt>
      <trkpt lat="42.53134" lon="27.46503">
        <ele>16.0</ele>
      </trkpt>
      <trkpt lat="42.53123" lon="27.46832">
        <ele>9.0</ele>
      </trkpt>
      <trkpt lat="42.53107" lon="27.46867">
        <ele>8.0</ele>
      </trkpt>
      <trkpt lat="42.53052" lon="27.46896">
        <ele>8.0</ele>
      </trkpt>
      <trkpt lat="42.52743" lon="27.46851">
        <ele>5.0</ele>
      </trkpt>
      <trkpt lat="42.52443" lon="27.46831">
        <ele>8.0</ele>
      </trkpt>
      <trkpt lat="42.52395" lon="27.46781">
        <ele>9.0</ele>
      </trkpt>
      <trkpt lat="42.52346" lon="27.46842">
        <ele>9.0</ele>
      </trkpt>
      <trkpt lat="42.52227" lon="27.46859">
        <ele>9.0</ele>
      </trkpt>
      <trkpt lat="42.51883" lon="27.4686">
        <ele>4.0</ele>
      </trkpt>
      <trkpt lat="42.51764" lon="27.46882">
        <ele>4.0</ele>
      </trkpt>
      <trkpt lat="42.51685" lon="27.46918">
        <ele>5.0</ele>
      </trkpt>
      <trkpt lat="42.5141" lon="27.47107">
        <ele>11.0</ele>
      </trkpt>
      <trkpt lat="42.51348" lon="27.47195">
        <ele>11.0</ele>
      </trkpt>
      <trkpt lat="42.51244" lon="27.47399">
        <ele>12.0</ele>
      </trkpt>
      <trkpt lat="42.51216" lon="27.4741">
        <ele>14.0</ele>
      </trkpt>
      <trkpt lat="42.51197" lon="27.47388">
        <ele>14.0</ele>
      </trkpt>
      <trkpt lat="42.51182" lon="27.47391">
        <ele>14.0</ele>
      </trkpt>
      <trkpt lat="42.51148" lon="27.47479">
        <ele>14.0</ele>
      </trkpt>
      <trkpt lat="42.50829" lon="27.4792">
        <ele>9.0</ele>
      </trkpt>
      <trkpt lat="42.50686" lon="27.48039">
        <ele>9.0</ele>
      </trkpt>
      <trkpt lat="42.50537" lon="27.48089">
        <ele>9.0</ele>
      </trkpt>
      <trkpt lat="42.50346" lon="27.48085">
        <ele>14.0</ele>
      </trkpt>
      <trkpt lat="42.49929" lon="27.48018">
        <ele>25.0</ele>
      </trkpt>
      <trkpt lat="42.49892" lon="27.47968">
        <ele>26.0</ele>
      </trkpt>
      <trkpt lat="42.49842" lon="27.47999">
        <ele>25.0</ele>
      </trkpt>
      <trkpt lat="42.49441" lon="27.48073">
        <ele>22.0</ele>
      </trkpt>
      <trkpt lat="42.49382" lon="27.48056">
        <ele>21.0</ele>
      </trkpt>
      <trkpt lat="42.49285" lon="27.47975">
        <ele>19.0</ele>
      </trkpt>
      <trkpt lat="42.49223" lon="27.47895">
        <ele>16.0</ele>
      </trkpt>
      <trkpt lat="42.49144" lon="27.47595">
        <ele>9.0</ele>
      </trkpt>
      <trkpt lat="42.49124" lon="27.47288">
        <ele>12.0</ele>
      </trkpt>
      <trkpt lat="42.4913" lon="27.47194">
        <ele>12.0</ele>
      </trkpt>
      <trkpt lat="42.49222" lon="27.47145">
        <ele>13.0</ele>
      </trkpt>
    </trkseg>
  </trk>
</gpx>