<?xml version="1.0" encoding="UTF-8"?>
<gpx xmlns="http://www.topografix.com/GPX/1/0" xmlns:xsi="http://www.w3.org/2001/XMLSchema-instance" xsi:schemaLocation="http://www.topografix.com/GPX/1/0 http://www.topografix.com/GPX/1/0/gpx.xsd" version="1.0" creator="GPSBabel - https://www.gpsbabel.org">
  <time>2025-10-29T13:08:19.961000Z</time>
  <bounds minlat="42.71968" maxlat="43.20656" minlon="1.38353" maxlon="2.3349" />
  <trk>
    <trkseg>
      <trkpt lat="43.20656" lon="2.3349">
        <ele>105.0</ele>
      </trkpt>
      <trkpt lat="43.20493" lon="2.33285">
        <ele>107.0</ele>
      </trkpt>
      <trkpt lat="43.2045" lon="2.33251">
        <ele>107.0</ele>
      </trkpt>
      <trkpt lat="43.20201" lon="2.33002">
        <ele>105.0</ele>
      </trkpt>
      <trkpt lat="43.20054" lon="2.32887">
        <ele>106.0</ele>
      </trkpt>
      <trkpt lat="43.19888" lon="2.32656">
        <ele>114.0</ele>
      </trkpt>
      <trkpt lat="43.19725" lon="2.32332">
        <ele>125.0</ele>
      </trkpt>
      <trkpt lat="43.19646" lon="2.322">
        <ele>128.0</ele>
      </trkpt>
      <trkpt lat="43.19614" lon="2.32197">
        <ele>128.0</ele>
      </trkpt>
      <trkpt lat="43.19458" lon="2.32092">
        <ele>124.0</ele>
      </trkpt>
      <trkpt lat="43.19341" lon="2.31774">
        <ele>119.0</ele>
      </trkpt>
      <trkpt lat="43.19114" lon="2.31461">
        <ele>112.0</ele>
      </trkpt>
      <trkpt lat="43.1903" lon="2.31404">
        <ele>109.0</ele>
      </trkpt>
      <trkpt lat="43.18988" lon="2.31378">
        <ele>109.0</ele>
      </trkpt>
      <trkpt lat="43.18876" lon="2.31138">
        <ele>109.0</ele>
      </trkpt>
      <trkpt lat="43.1863" lon="2.30813">
        <ele>112.0</ele>
      </trkpt>
      <trkpt lat="43.18388" lon="2.30703">
        <ele>115.0</ele>
      </trkpt>
      <trkpt lat="43.17583" lon="2.30398">
        <ele>116.0</ele>
      </trkpt>
      <trkpt lat="43.17369" lon="2.30288">
        <ele>112.0</ele>
      </trkpt>
      <trkpt lat="43.1728" lon="2.30221">
        <ele>117.0</ele>
      </trkpt>
      <trkpt lat="43.17196" lon="2.30219">
        <ele>121.0</ele>
      </trkpt>
      <trkpt lat="43.17099" lon="2.30154">
        <ele>125.0</ele>
      </trkpt>
      <trkpt lat="43.16894" lon="2.30004">
        <ele>125.0</ele>
      </trkpt>
      <trkpt lat="43.16463" lon="2.29813">
        <ele>128.0</ele>
      </trkpt>
      <trkpt lat="43.15959" lon="2.29388">
        <ele>125.0</ele>
      </trkpt>
      <trkpt lat="43.15695" lon="2.29166">
        <ele>117.0</ele>
      </trkpt>
      <trkpt lat="43.15259" lon="2.28941">
        <ele>131.0</ele>
      </trkpt>
      <trkpt lat="43.14892" lon="2.29102">
        <ele>131.0</ele>
      </trkpt>
      <trkpt lat="43.14378" lon="2.29405">
        <ele>130.0</ele>
      </trkpt>
      <trkpt lat="43.14171" lon="2.2983">
        <ele>130.0</ele>
      </trkpt>
      <trkpt lat="43.14025" lon="2.30043">
        <ele>133.0</ele>
      </trkpt>
      <trkpt lat="43.13838" lon="2.30076">
        <ele>142.0</ele>
      </trkpt>
      <trkpt lat="43.13388" lon="2.29896">
        <ele>137.0</ele>
      </trkpt>
      <trkpt lat="43.13109" lon="2.29929">
        <ele>130.0</ele>
      </trkpt>
      <trkpt lat="43.12779" lon="2.30123">
        <ele>130.0</ele>
      </trkpt>
      <trkpt lat="43.12656" lon="2.30059">
        <ele>128.0</ele>
      </trkpt>
      <trkpt lat="43.12469" lon="2.29661">
        <ele>128.0</ele>
      </trkpt>
      <trkpt lat="43.12308" lon="2.2931">
        <ele>133.0</ele>
      </trkpt>
      <trkpt lat="43.11883" lon="2.28637">
        <ele>136.0</ele>
      </trkpt>
      <trkpt lat="43.11839" lon="2.28531">
        <ele>131.0</ele>
      </trkpt>
      <trkpt lat="43.11812" lon="2.2851">
        <ele>133.0</ele>
      </trkpt>
      <trkpt lat="43.11745" lon="2.2838">
        <ele>139.0</ele>
      </trkpt>
      <trkpt lat="43.11635" lon="2.28018">
        <ele>153.0</ele>
      </trkpt>
      <trkpt lat="43.11536" lon="2.27799">
        <ele>154.0</ele>
      </trkpt>
      <trkpt lat="43.11384" lon="2.27531">
        <ele>148.0</ele>
      </trkpt>
      <trkpt lat="43.11234" lon="2.27248">
        <ele>145.0</ele>
      </trkpt>
      <trkpt lat="43.11067" lon="2.26822">
        <ele>141.0</ele>
      </trkpt>
      <trkpt lat="43.10706" lon="2.25872">
        <ele>142.0</ele>
      </trkpt>
      <trkpt lat="43.10576" lon="2.25493">
        <ele>153.0</ele>
      </trkpt>
      <trkpt lat="43.10486" lon="2.25094">
        <ele>150.0</ele>
      </trkpt>
      <trkpt lat="43.10472" lon="2.25046">
        <ele>147.0</ele>
      </trkpt>
      <trkpt lat="43.10383" lon="2.25013">
        <ele>143.0</ele>
      </trkpt>
      <trkpt lat="43.10284" lon="2.24849">
        <ele>136.0</ele>
      </trkpt>
      <trkpt lat="43.09815" lon="2.23591">
        <ele>140.0</ele>
      </trkpt>
      <trkpt lat="43.09728" lon="2.23283">
        <ele>146.0</ele>
      </trkpt>
      <trkpt lat="43.09625" lon="2.23113">
        <ele>143.0</ele>
      </trkpt>
      <trkpt lat="43.09498" lon="2.23027">
        <ele>147.0</ele>
      </trkpt>
      <trkpt lat="43.09372" lon="2.22965">
        <ele>144.0</ele>
      </trkpt>
      <trkpt lat="43.09355" lon="2.22937">
        <ele>143.0</ele>
      </trkpt>
      <trkpt lat="43.09313" lon="2.22968">
        <ele>145.0</ele>
      </trkpt>
      <trkpt lat="43.0908" lon="2.22885">
        <ele>150.0</ele>
      </trkpt>
      <trkpt lat="43.08628" lon="2.22657">
        <ele>152.0</ele>
      </trkpt>
      <trkpt lat="43.08538" lon="2.22574">
        <ele>149.0</ele>
      </trkpt>
      <trkpt lat="43.08483" lon="2.2258">
        <ele>148.0</ele>
      </trkpt>
      <trkpt lat="43.08029" lon="2.22376">
        <ele>148.0</ele>
      </trkpt>
      <trkpt lat="43.07579" lon="2.22163">
        <ele>155.0</ele>
      </trkpt>
      <trkpt lat="43.0744" lon="2.22119">
        <ele>151.0</ele>
      </trkpt>
      <trkpt lat="43.07415" lon="2.22052">
        <ele>154.0</ele>
      </trkpt>
      <trkpt lat="43.07369" lon="2.22019">
        <ele>157.0</ele>
      </trkpt>
      <trkpt lat="43.07299" lon="2.22007">
        <ele>159.0</ele>
      </trkpt>
      <trkpt lat="43.06848" lon="2.21796">
        <ele>163.0</ele>
      </trkpt>
      <trkpt lat="43.06745" lon="2.21759">
        <ele>163.0</ele>
      </trkpt>
      <trkpt lat="43.06538" lon="2.21659">
        <ele>162.0</ele>
      </trkpt>
      <trkpt lat="43.06299" lon="2.21543">
        <ele>164.0</ele>
      </trkpt>
      <trkpt lat="43.06176" lon="2.21479">
        <ele>166.0</ele>
      </trkpt>
      <trkpt lat="43.05995" lon="2.21386">
        <ele>167.0</ele>
      </trkpt>
      <trkpt lat="43.05817" lon="2.21357">
        <ele>169.0</ele>
      </trkpt>
      <trkpt lat="43.05711" lon="2.21364">
        <ele>165.0</ele>
      </trkpt>
      <trkpt lat="43.05528" lon="2.21314">
        <ele>165.0</ele>
      </trkpt>
      <trkpt lat="43.05454" lon="2.21284">
        <ele>170.0</ele>
      </trkpt>
      <trkpt lat="43.05426" lon="2.21318">
        <ele>173.0</ele>
      </trkpt>
      <trkpt lat="43.05287" lon="2.21495">
        <ele>182.0</ele>
      </trkpt>
      <trkpt lat="43.05228" lon="2.21592">
        <ele>180.0</ele>
      </trkpt>
      <trkpt lat="43.05139" lon="2.21721">
        <ele>176.0</ele>
      </trkpt>
      <trkpt lat="43.05083" lon="2.2179">
        <ele>174.0</ele>
      </trkpt>
      <trkpt lat="43.05071" lon="2.21812">
        <ele>173.0</ele>
      </trkpt>
      <trkpt lat="43.05065" lon="2.21832">
        <ele>173.0</ele>
      </trkpt>
      <trkpt lat="43.05043" lon="2.21851">
        <ele>173.0</ele>
      </trkpt>
      <trkpt lat="43.05018" lon="2.21872">
        <ele>172.0</ele>
      </trkpt>
      <trkpt lat="43.04995" lon="2.21899">
        <ele>172.0</ele>
      </trkpt>
      <trkpt lat="43.04935" lon="2.21979">
        <ele>171.0</ele>
      </trkpt>
      <trkpt lat="43.0478" lon="2.22055">
        <ele>170.0</ele>
      </trkpt>
      <trkpt lat="43.04635" lon="2.22112">
        <ele>173.0</ele>
      </trkpt>
      <trkpt lat="43.04549" lon="2.2223">
        <ele>175.0</ele>
      </trkpt>
      <trkpt lat="43.04507" lon="2.22469">
        <ele>166.0</ele>
      </trkpt>
      <trkpt lat="43.04488" lon="2.22493">
        <ele>166.0</ele>
      </trkpt>
      <trkpt lat="43.04502" lon="2.22569">
        <ele>168.0</ele>
      </trkpt>
      <trkpt lat="43.0443" lon="2.23164">
        <ele>174.0</ele>
      </trkpt>
      <trkpt lat="43.04413" lon="2.23202">
        <ele>173.0</ele>
      </trkpt>
      <trkpt lat="43.0442" lon="2.23249">
        <ele>172.0</ele>
      </trkpt>
      <trkpt lat="43.04371" lon="2.23654">
        <ele>169.0</ele>
      </trkpt>
      <trkpt lat="43.04324" lon="2.23872">
        <ele>173.0</ele>
      </trkpt>
      <trkpt lat="43.04058" lon="2.24157">
        <ele>192.0</ele>
      </trkpt>
      <trkpt lat="43.03508" lon="2.24736">
        <ele>181.0</ele>
      </trkpt>
      <trkpt lat="43.02965" lon="2.25039">
        <ele>186.0</ele>
      </trkpt>
      <trkpt lat="43.02456" lon="2.25096">
        <ele>197.0</ele>
      </trkpt>
      <trkpt lat="43.02251" lon="2.25175">
        <ele>188.0</ele>
      </trkpt>
      <trkpt lat="43.01921" lon="2.25158">
        <ele>190.0</ele>
      </trkpt>
      <trkpt lat="43.01817" lon="2.25226">
        <ele>186.0</ele>
      </trkpt>
      <trkpt lat="43.01734" lon="2.25458">
        <ele>184.0</ele>
      </trkpt>
      <trkpt lat="43.01663" lon="2.2555">
        <ele>191.0</ele>
      </trkpt>
      <trkpt lat="43.01527" lon="2.25636">
        <ele>198.0</ele>
      </trkpt>
      <trkpt lat="43.01414" lon="2.2564">
        <ele>198.0</ele>
      </trkpt>
      <trkpt lat="43.01314" lon="2.25538">
        <ele>196.0</ele>
      </trkpt>
      <trkpt lat="43.01221" lon="2.25231">
        <ele>195.0</ele>
      </trkpt>
      <trkpt lat="43.01196" lon="2.25019">
        <ele>203.0</ele>
      </trkpt>
      <trkpt lat="43.01059" lon="2.24895">
        <ele>213.0</ele>
      </trkpt>
      <trkpt lat="43.00928" lon="2.24888">
        <ele>218.0</ele>
      </trkpt>
      <trkpt lat="43.0079" lon="2.24817">
        <ele>218.0</ele>
      </trkpt>
      <trkpt lat="43.00682" lon="2.24778">
        <ele>212.0</ele>
      </trkpt>
      <trkpt lat="43.00574" lon="2.24909">
        <ele>200.0</ele>
      </trkpt>
      <trkpt lat="43.00515" lon="2.24936">
        <ele>201.0</ele>
      </trkpt>
      <trkpt lat="43.00394" lon="2.24876">
        <ele>206.0</ele>
      </trkpt>
      <trkpt lat="43.00315" lon="2.24848">
        <ele>206.0</ele>
      </trkpt>
      <trkpt lat="43.00164" lon="2.24915">
        <ele>205.0</ele>
      </trkpt>
      <trkpt lat="42.99972" lon="2.25029">
        <ele>204.0</ele>
      </trkpt>
      <trkpt lat="42.99842" lon="2.25169">
        <ele>210.0</ele>
      </trkpt>
      <trkpt lat="42.99702" lon="2.25255">
        <ele>214.0</ele>
      </trkpt>
      <trkpt lat="42.99587" lon="2.25309">
        <ele>208.0</ele>
      </trkpt>
      <trkpt lat="42.99457" lon="2.25431">
        <ele>201.0</ele>
      </trkpt>
      <trkpt lat="42.99323" lon="2.25675">
        <ele>200.0</ele>
      </trkpt>
      <trkpt lat="42.99019" lon="2.26012">
        <ele>208.0</ele>
      </trkpt>
      <trkpt lat="42.98937" lon="2.26193">
        <ele>211.0</ele>
      </trkpt>
      <trkpt lat="42.98844" lon="2.26258">
        <ele>208.0</ele>
      </trkpt>
      <trkpt lat="42.98654" lon="2.26238">
        <ele>211.0</ele>
      </trkpt>
      <trkpt lat="42.98516" lon="2.26287">
        <ele>213.0</ele>
      </trkpt>
      <trkpt lat="42.9819" lon="2.2652">
        <ele>208.0</ele>
      </trkpt>
      <trkpt lat="42.98071" lon="2.26527">
        <ele>197.0</ele>
      </trkpt>
      <trkpt lat="42.97901" lon="2.26375">
        <ele>209.0</ele>
      </trkpt>
      <trkpt lat="42.97637" lon="2.2631">
        <ele>206.0</ele>
      </trkpt>
      <trkpt lat="42.97544" lon="2.26222">
        <ele>205.0</ele>
      </trkpt>
      <trkpt lat="42.97418" lon="2.26089">
        <ele>209.0</ele>
      </trkpt>
      <trkpt lat="42.97221" lon="2.26066">
        <ele>209.0</ele>
      </trkpt>
      <trkpt lat="42.97128" lon="2.26057">
        <ele>205.0</ele>
      </trkpt>
      <trkpt lat="42.97052" lon="2.2598">
        <ele>213.0</ele>
      </trkpt>
      <trkpt lat="42.9699" lon="2.25938">
        <ele>223.0</ele>
      </trkpt>
      <trkpt lat="42.96921" lon="2.25955">
        <ele>222.0</ele>
      </trkpt>
      <trkpt lat="42.96839" lon="2.26049">
        <ele>216.0</ele>
      </trkpt>
      <trkpt lat="42.96782" lon="2.26083">
        <ele>212.0</ele>
      </trkpt>
      <trkpt lat="42.96728" lon="2.26053">
        <ele>209.0</ele>
      </trkpt>
      <trkpt lat="42.96666" lon="2.25941">
        <ele>204.0</ele>
      </trkpt>
      <trkpt lat="42.96455" lon="2.25808">
        <ele>205.0</ele>
      </trkpt>
      <trkpt lat="42.96363" lon="2.25704">
        <ele>208.0</ele>
      </trkpt>
      <trkpt lat="42.96073" lon="2.25644">
        <ele>213.0</ele>
      </trkpt>
      <trkpt lat="42.95965" lon="2.25721">
        <ele>217.0</ele>
      </trkpt>
      <trkpt lat="42.95891" lon="2.25918">
        <ele>221.0</ele>
      </trkpt>
      <trkpt lat="42.95846" lon="2.2599">
        <ele>222.0</ele>
      </trkpt>
      <trkpt lat="42.95728" lon="2.26024">
        <ele>220.0</ele>
      </trkpt>
      <trkpt lat="42.95638" lon="2.25942">
        <ele>219.0</ele>
      </trkpt>
      <trkpt lat="42.95508" lon="2.2562">
        <ele>216.0</ele>
      </trkpt>
      <trkpt lat="42.95297" lon="2.25369">
        <ele>217.0</ele>
      </trkpt>
      <trkpt lat="42.94948" lon="2.25346">
        <ele>220.0</ele>
      </trkpt>
      <trkpt lat="42.94675" lon="2.25413">
        <ele>225.0</ele>
      </trkpt>
      <trkpt lat="42.94453" lon="2.2562">
        <ele>228.0</ele>
      </trkpt>
      <trkpt lat="42.94361" lon="2.2562">
        <ele>224.0</ele>
      </trkpt>
      <trkpt lat="42.94298" lon="2.25545">
        <ele>222.0</ele>
      </trkpt>
      <trkpt lat="42.94203" lon="2.25424">
        <ele>220.0</ele>
      </trkpt>
      <trkpt lat="42.94145" lon="2.2535">
        <ele>222.0</ele>
      </trkpt>
      <trkpt lat="42.94061" lon="2.25224">
        <ele>225.0</ele>
      </trkpt>
      <trkpt lat="42.94021" lon="2.25042">
        <ele>227.0</ele>
      </trkpt>
      <trkpt lat="42.93999" lon="2.24921">
        <ele>226.0</ele>
      </trkpt>
      <trkpt lat="42.93973" lon="2.24784">
        <ele>225.0</ele>
      </trkpt>
      <trkpt lat="42.93925" lon="2.24462">
        <ele>225.0</ele>
      </trkpt>
      <trkpt lat="42.93921" lon="2.24039">
        <ele>230.0</ele>
      </trkpt>
      <trkpt lat="42.93845" lon="2.23685">
        <ele>227.0</ele>
      </trkpt>
      <trkpt lat="42.93681" lon="2.2354">
        <ele>228.0</ele>
      </trkpt>
      <trkpt lat="42.93655" lon="2.23525">
        <ele>228.0</ele>
      </trkpt>
      <trkpt lat="42.93446" lon="2.23455">
        <ele>230.0</ele>
      </trkpt>
      <trkpt lat="42.9326" lon="2.23142">
        <ele>233.0</ele>
      </trkpt>
      <trkpt lat="42.9306" lon="2.22694">
        <ele>246.0</ele>
      </trkpt>
      <trkpt lat="42.92989" lon="2.22513">
        <ele>254.0</ele>
      </trkpt>
      <trkpt lat="42.92974" lon="2.22215">
        <ele>259.0</ele>
      </trkpt>
      <trkpt lat="42.92927" lon="2.22046">
        <ele>256.0</ele>
      </trkpt>
      <trkpt lat="42.9282" lon="2.21952">
        <ele>252.0</ele>
      </trkpt>
      <trkpt lat="42.9266" lon="2.21991">
        <ele>256.0</ele>
      </trkpt>
      <trkpt lat="42.92557" lon="2.21978">
        <ele>252.0</ele>
      </trkpt>
      <trkpt lat="42.92363" lon="2.21822">
        <ele>246.0</ele>
      </trkpt>
      <trkpt lat="42.92219" lon="2.21733">
        <ele>249.0</ele>
      </trkpt>
      <trkpt lat="42.92117" lon="2.21497">
        <ele>247.0</ele>
      </trkpt>
      <trkpt lat="42.92026" lon="2.21188">
        <ele>244.0</ele>
      </trkpt>
      <trkpt lat="42.91798" lon="2.20935">
        <ele>244.0</ele>
      </trkpt>
      <trkpt lat="42.91651" lon="2.20874">
        <ele>252.0</ele>
      </trkpt>
      <trkpt lat="42.91579" lon="2.20881">
        <ele>251.0</ele>
      </trkpt>
      <trkpt lat="42.91475" lon="2.20853">
        <ele>245.0</ele>
      </trkpt>
      <trkpt lat="42.9139" lon="2.20785">
        <ele>246.0</ele>
      </trkpt>
      <trkpt lat="42.91356" lon="2.20689">
        <ele>251.0</ele>
      </trkpt>
      <trkpt lat="42.9135" lon="2.20534">
        <ele>255.0</ele>
      </trkpt>
      <trkpt lat="42.91345" lon="2.20214">
        <ele>255.0</ele>
      </trkpt>
      <trkpt lat="42.91307" lon="2.19894">
        <ele>260.0</ele>
      </trkpt>
      <trkpt lat="42.91128" lon="2.19773">
        <ele>269.0</ele>
      </trkpt>
      <trkpt lat="42.90963" lon="2.19685">
        <ele>263.0</ele>
      </trkpt>
      <trkpt lat="42.90367" lon="2.18966">
        <ele>263.0</ele>
      </trkpt>
      <trkpt lat="42.90104" lon="2.1888">
        <ele>276.0</ele>
      </trkpt>
      <trkpt lat="42.89935" lon="2.18753">
        <ele>267.0</ele>
      </trkpt>
      <trkpt lat="42.89776" lon="2.18694">
        <ele>282.0</ele>
      </trkpt>
      <trkpt lat="42.89682" lon="2.18795">
        <ele>278.0</ele>
      </trkpt>
      <trkpt lat="42.89628" lon="2.18959">
        <ele>276.0</ele>
      </trkpt>
      <trkpt lat="42.89533" lon="2.19106">
        <ele>276.0</ele>
      </trkpt>
      <trkpt lat="42.89466" lon="2.19318">
        <ele>275.0</ele>
      </trkpt>
      <trkpt lat="42.89391" lon="2.19413">
        <ele>273.0</ele>
      </trkpt>
      <trkpt lat="42.89164" lon="2.19544">
        <ele>271.0</ele>
      </trkpt>
      <trkpt lat="42.89105" lon="2.19535">
        <ele>271.0</ele>
      </trkpt>
      <trkpt lat="42.88791" lon="2.19316">
        <ele>272.0</ele>
      </trkpt>
      <trkpt lat="42.88495" lon="2.19103">
        <ele>275.0</ele>
      </trkpt>
      <trkpt lat="42.88292" lon="2.19041">
        <ele>277.0</ele>
      </trkpt>
      <trkpt lat="42.88087" lon="2.18997">
        <ele>281.0</ele>
      </trkpt>
      <trkpt lat="42.87892" lon="2.18877">
        <ele>275.0</ele>
      </trkpt>
      <trkpt lat="42.87809" lon="2.18818">
        <ele>277.0</ele>
      </trkpt>
      <trkpt lat="42.87781" lon="2.18702">
        <ele>278.0</ele>
      </trkpt>
      <trkpt lat="42.87764" lon="2.18484">
        <ele>281.0</ele>
      </trkpt>
      <trkpt lat="42.87799" lon="2.18366">
        <ele>288.0</ele>
      </trkpt>
      <trkpt lat="42.8782" lon="2.18292">
        <ele>292.0</ele>
      </trkpt>
      <trkpt lat="42.8779" lon="2.18058">
        <ele>300.0</ele>
      </trkpt>
      <trkpt lat="42.87834" lon="2.17924">
        <ele>307.0</ele>
      </trkpt>
      <trkpt lat="42.87899" lon="2.17849">
        <ele>313.0</ele>
      </trkpt>
      <trkpt lat="42.87915" lon="2.1776">
        <ele>318.0</ele>
      </trkpt>
      <trkpt lat="42.88019" lon="2.17595">
        <ele>329.0</ele>
      </trkpt>
      <trkpt lat="42.88065" lon="2.1749">
        <ele>342.0</ele>
      </trkpt>
      <trkpt lat="42.88009" lon="2.17457">
        <ele>346.0</ele>
      </trkpt>
      <trkpt lat="42.879" lon="2.17451">
        <ele>347.0</ele>
      </trkpt>
      <trkpt lat="42.87844" lon="2.17371">
        <ele>350.0</ele>
      </trkpt>
      <trkpt lat="42.87941" lon="2.1719">
        <ele>358.0</ele>
      </trkpt>
      <trkpt lat="42.87999" lon="2.17036">
        <ele>370.0</ele>
      </trkpt>
      <trkpt lat="42.87944" lon="2.16974">
        <ele>379.0</ele>
      </trkpt>
      <trkpt lat="42.87941" lon="2.16906">
        <ele>384.0</ele>
      </trkpt>
      <trkpt lat="42.87964" lon="2.16782">
        <ele>390.0</ele>
      </trkpt>
      <trkpt lat="42.8802" lon="2.16712">
        <ele>397.0</ele>
      </trkpt>
      <trkpt lat="42.87998" lon="2.16557">
        <ele>406.0</ele>
      </trkpt>
      <trkpt lat="42.87989" lon="2.16416">
        <ele>417.0</ele>
      </trkpt>
      <trkpt lat="42.87962" lon="2.16335">
        <ele>426.0</ele>
      </trkpt>
      <trkpt lat="42.87884" lon="2.16416">
        <ele>431.0</ele>
      </trkpt>
      <trkpt lat="42.87792" lon="2.16457">
        <ele>437.0</ele>
      </trkpt>
      <trkpt lat="42.87729" lon="2.16521">
        <ele>441.0</ele>
      </trkpt>
      <trkpt lat="42.87678" lon="2.16489">
        <ele>444.0</ele>
      </trkpt>
      <trkpt lat="42.87621" lon="2.16457">
        <ele>447.0</ele>
      </trkpt>
      <trkpt lat="42.87602" lon="2.16356">
        <ele>451.0</ele>
      </trkpt>
      <trkpt lat="42.87566" lon="2.16319">
        <ele>454.0</ele>
      </trkpt>
      <trkpt lat="42.87504" lon="2.16326">
        <ele>457.0</ele>
      </trkpt>
      <trkpt lat="42.87433" lon="2.1622">
        <ele>463.0</ele>
      </trkpt>
      <trkpt lat="42.87375" lon="2.1619">
        <ele>467.0</ele>
      </trkpt>
      <trkpt lat="42.87378" lon="2.16086">
        <ele>473.0</ele>
      </trkpt>
      <trkpt lat="42.87346" lon="2.15869">
        <ele>486.0</ele>
      </trkpt>
      <trkpt lat="42.87324" lon="2.15803">
        <ele>492.0</ele>
      </trkpt>
      <trkpt lat="42.87284" lon="2.15749">
        <ele>497.0</ele>
      </trkpt>
      <trkpt lat="42.87237" lon="2.15534">
        <ele>509.0</ele>
      </trkpt>
      <trkpt lat="42.87219" lon="2.15434">
        <ele>517.0</ele>
      </trkpt>
      <trkpt lat="42.8716" lon="2.15407">
        <ele>524.0</ele>
      </trkpt>
      <trkpt lat="42.87129" lon="2.15394">
        <ele>528.0</ele>
      </trkpt>
      <trkpt lat="42.87163" lon="2.15359">
        <ele>532.0</ele>
      </trkpt>
      <trkpt lat="42.87245" lon="2.15422">
        <ele>538.0</ele>
      </trkpt>
      <trkpt lat="42.87367" lon="2.1564">
        <ele>537.0</ele>
      </trkpt>
      <trkpt lat="42.87426" lon="2.15632">
        <ele>541.0</ele>
      </trkpt>
      <trkpt lat="42.87468" lon="2.15697">
        <ele>546.0</ele>
      </trkpt>
      <trkpt lat="42.87518" lon="2.15727">
        <ele>551.0</ele>
      </trkpt>
      <trkpt lat="42.8758" lon="2.15769">
        <ele>562.0</ele>
      </trkpt>
      <trkpt lat="42.87649" lon="2.15759">
        <ele>573.0</ele>
      </trkpt>
      <trkpt lat="42.87699" lon="2.15863">
        <ele>577.0</ele>
      </trkpt>
      <trkpt lat="42.87762" lon="2.1591">
        <ele>577.0</ele>
      </trkpt>
      <trkpt lat="42.87825" lon="2.15902">
        <ele>579.0</ele>
      </trkpt>
      <trkpt lat="42.87887" lon="2.1582">
        <ele>584.0</ele>
      </trkpt>
      <trkpt lat="42.87981" lon="2.15496">
        <ele>604.0</ele>
      </trkpt>
      <trkpt lat="42.87895" lon="2.15673">
        <ele>611.0</ele>
      </trkpt>
      <trkpt lat="42.87832" lon="2.15723">
        <ele>615.0</ele>
      </trkpt>
      <trkpt lat="42.87772" lon="2.15604">
        <ele>620.0</ele>
      </trkpt>
      <trkpt lat="42.87695" lon="2.15461">
        <ele>627.0</ele>
      </trkpt>
      <trkpt lat="42.87591" lon="2.15388">
        <ele>632.0</ele>
      </trkpt>
      <trkpt lat="42.87497" lon="2.15283">
        <ele>645.0</ele>
      </trkpt>
      <trkpt lat="42.87541" lon="2.15295">
        <ele>653.0</ele>
      </trkpt>
      <trkpt lat="42.87632" lon="2.15292">
        <ele>660.0</ele>
      </trkpt>
      <trkpt lat="42.87735" lon="2.15215">
        <ele>669.0</ele>
      </trkpt>
      <trkpt lat="42.87768" lon="2.15179">
        <ele>672.0</ele>
      </trkpt>
      <trkpt lat="42.87644" lon="2.15172">
        <ele>676.0</ele>
      </trkpt>
      <trkpt lat="42.87528" lon="2.15116">
        <ele>681.0</ele>
      </trkpt>
      <trkpt lat="42.87458" lon="2.14935">
        <ele>685.0</ele>
      </trkpt>
      <trkpt lat="42.8744" lon="2.14783">
        <ele>690.0</ele>
      </trkpt>
      <trkpt lat="42.87334" lon="2.14638">
        <ele>699.0</ele>
      </trkpt>
      <trkpt lat="42.87171" lon="2.14203">
        <ele>719.0</ele>
      </trkpt>
      <trkpt lat="42.87078" lon="2.13981">
        <ele>732.0</ele>
      </trkpt>
      <trkpt lat="42.87009" lon="2.13853">
        <ele>745.0</ele>
      </trkpt>
      <trkpt lat="42.87118" lon="2.13814">
        <ele>752.0</ele>
      </trkpt>
      <trkpt lat="42.87154" lon="2.13894">
        <ele>756.0</ele>
      </trkpt>
      <trkpt lat="42.87214" lon="2.14029">
        <ele>763.0</ele>
      </trkpt>
      <trkpt lat="42.87399" lon="2.13892">
        <ele>766.0</ele>
      </trkpt>
      <trkpt lat="42.87415" lon="2.13771">
        <ele>769.0</ele>
      </trkpt>
      <trkpt lat="42.87467" lon="2.13699">
        <ele>775.0</ele>
      </trkpt>
      <trkpt lat="42.87344" lon="2.13627">
        <ele>784.0</ele>
      </trkpt>
      <trkpt lat="42.87142" lon="2.13673">
        <ele>791.0</ele>
      </trkpt>
      <trkpt lat="42.8705" lon="2.13547">
        <ele>791.0</ele>
      </trkpt>
      <trkpt lat="42.86903" lon="2.13301">
        <ele>804.0</ele>
      </trkpt>
      <trkpt lat="42.8679" lon="2.13063">
        <ele>816.0</ele>
      </trkpt>
      <trkpt lat="42.86692" lon="2.1284">
        <ele>834.0</ele>
      </trkpt>
      <trkpt lat="42.86491" lon="2.12753">
        <ele>849.0</ele>
      </trkpt>
      <trkpt lat="42.86445" lon="2.12766">
        <ele>850.0</ele>
      </trkpt>
      <trkpt lat="42.86266" lon="2.12729">
        <ele>856.0</ele>
      </trkpt>
      <trkpt lat="42.86193" lon="2.12572">
        <ele>868.0</ele>
      </trkpt>
      <trkpt lat="42.86165" lon="2.12189">
        <ele>885.0</ele>
      </trkpt>
      <trkpt lat="42.86411" lon="2.11709">
        <ele>877.0</ele>
      </trkpt>
      <trkpt lat="42.86402" lon="2.11515">
        <ele>877.0</ele>
      </trkpt>
      <trkpt lat="42.86297" lon="2.11333">
        <ele>873.0</ele>
      </trkpt>
      <trkpt lat="42.86215" lon="2.11141">
        <ele>855.0</ele>
      </trkpt>
      <trkpt lat="42.8614" lon="2.11074">
        <ele>851.0</ele>
      </trkpt>
      <trkpt lat="42.86045" lon="2.10866">
        <ele>851.0</ele>
      </trkpt>
      <trkpt lat="42.85964" lon="2.10775">
        <ele>856.0</ele>
      </trkpt>
      <trkpt lat="42.85955" lon="2.10664">
        <ele>861.0</ele>
      </trkpt>
      <trkpt lat="42.85901" lon="2.10588">
        <ele>865.0</ele>
      </trkpt>
      <trkpt lat="42.85878" lon="2.10468">
        <ele>869.0</ele>
      </trkpt>
      <trkpt lat="42.85798" lon="2.10398">
        <ele>867.0</ele>
      </trkpt>
      <trkpt lat="42.857" lon="2.10362">
        <ele>863.0</ele>
      </trkpt>
      <trkpt lat="42.85673" lon="2.10282">
        <ele>864.0</ele>
      </trkpt>
      <trkpt lat="42.85608" lon="2.10169">
        <ele>867.0</ele>
      </trkpt>
      <trkpt lat="42.85504" lon="2.10147">
        <ele>865.0</ele>
      </trkpt>
      <trkpt lat="42.85418" lon="2.10234">
        <ele>864.0</ele>
      </trkpt>
      <trkpt lat="42.85338" lon="2.10348">
        <ele>874.0</ele>
      </trkpt>
      <trkpt lat="42.85248" lon="2.10329">
        <ele>879.0</ele>
      </trkpt>
      <trkpt lat="42.8507" lon="2.10388">
        <ele>876.0</ele>
      </trkpt>
      <trkpt lat="42.8478" lon="2.10175">
        <ele>872.0</ele>
      </trkpt>
      <trkpt lat="42.84631" lon="2.1011">
        <ele>881.0</ele>
      </trkpt>
      <trkpt lat="42.84398" lon="2.09878">
        <ele>893.0</ele>
      </trkpt>
      <trkpt lat="42.84426" lon="2.09509">
        <ele>892.0</ele>
      </trkpt>
      <trkpt lat="42.8456" lon="2.07204">
        <ele>883.0</ele>
      </trkpt>
      <trkpt lat="42.8462" lon="2.06337">
        <ele>878.0</ele>
      </trkpt>
      <trkpt lat="42.8458" lon="2.05004">
        <ele>864.0</ele>
      </trkpt>
      <trkpt lat="42.84367" lon="2.04388">
        <ele>874.0</ele>
      </trkpt>
      <trkpt lat="42.83757" lon="2.03016">
        <ele>875.0</ele>
      </trkpt>
      <trkpt lat="42.83514" lon="2.02605">
        <ele>889.0</ele>
      </trkpt>
      <trkpt lat="42.82595" lon="2.02327">
        <ele>894.0</ele>
      </trkpt>
      <trkpt lat="42.82449" lon="2.02159">
        <ele>890.0</ele>
      </trkpt>
      <trkpt lat="42.82506" lon="2.01737">
        <ele>889.0</ele>
      </trkpt>
      <trkpt lat="42.82706" lon="2.00805">
        <ele>902.0</ele>
      </trkpt>
      <trkpt lat="42.82897" lon="1.98549">
        <ele>926.0</ele>
      </trkpt>
      <trkpt lat="42.82877" lon="1.98102">
        <ele>943.0</ele>
      </trkpt>
      <trkpt lat="42.82236" lon="1.96918">
        <ele>954.0</ele>
      </trkpt>
      <trkpt lat="42.81871" lon="1.96253">
        <ele>989.0</ele>
      </trkpt>
      <trkpt lat="42.81738" lon="1.96012">
        <ele>1004.0</ele>
      </trkpt>
      <trkpt lat="42.81676" lon="1.95884">
        <ele>1006.0</ele>
      </trkpt>
      <trkpt lat="42.81697" lon="1.95628">
        <ele>1017.0</ele>
      </trkpt>
      <trkpt lat="42.81743" lon="1.95426">
        <ele>1029.0</ele>
      </trkpt>
      <trkpt lat="42.81746" lon="1.95362">
        <ele>1032.0</ele>
      </trkpt>
      <trkpt lat="42.81597" lon="1.95132">
        <ele>1030.0</ele>
      </trkpt>
      <trkpt lat="42.81219" lon="1.94548">
        <ele>1036.0</ele>
      </trkpt>
      <trkpt lat="42.81155" lon="1.94335">
        <ele>1053.0</ele>
      </trkpt>
      <trkpt lat="42.81165" lon="1.94132">
        <ele>1064.0</ele>
      </trkpt>
      <trkpt lat="42.81144" lon="1.94007">
        <ele>1072.0</ele>
      </trkpt>
      <trkpt lat="42.81115" lon="1.94033">
        <ele>1076.0</ele>
      </trkpt>
      <trkpt lat="42.81036" lon="1.94217">
        <ele>1087.0</ele>
      </trkpt>
      <trkpt lat="42.80983" lon="1.94215">
        <ele>1091.0</ele>
      </trkpt>
      <trkpt lat="42.80781" lon="1.94042">
        <ele>1097.0</ele>
      </trkpt>
      <trkpt lat="42.8066" lon="1.93879">
        <ele>1106.0</ele>
      </trkpt>
      <trkpt lat="42.80595" lon="1.93655">
        <ele>1117.0</ele>
      </trkpt>
      <trkpt lat="42.80452" lon="1.93164">
        <ele>1127.0</ele>
      </trkpt>
      <trkpt lat="42.80271" lon="1.92781">
        <ele>1156.0</ele>
      </trkpt>
      <trkpt lat="42.80209" lon="1.92815">
        <ele>1168.0</ele>
      </trkpt>
      <trkpt lat="42.80055" lon="1.92877">
        <ele>1180.0</ele>
      </trkpt>
      <trkpt lat="42.80002" lon="1.92926">
        <ele>1179.0</ele>
      </trkpt>
      <trkpt lat="42.79971" lon="1.92897">
        <ele>1178.0</ele>
      </trkpt>
      <trkpt lat="42.80113" lon="1.92819">
        <ele>1187.0</ele>
      </trkpt>
      <trkpt lat="42.80179" lon="1.92771">
        <ele>1201.0</ele>
      </trkpt>
      <trkpt lat="42.80249" lon="1.92618">
        <ele>1199.0</ele>
      </trkpt>
      <trkpt lat="42.80267" lon="1.92507">
        <ele>1203.0</ele>
      </trkpt>
      <trkpt lat="42.80331" lon="1.92514">
        <ele>1209.0</ele>
      </trkpt>
      <trkpt lat="42.80358" lon="1.92494">
        <ele>1214.0</ele>
      </trkpt>
      <trkpt lat="42.80328" lon="1.92447">
        <ele>1217.0</ele>
      </trkpt>
      <trkpt lat="42.80237" lon="1.92473">
        <ele>1222.0</ele>
      </trkpt>
      <trkpt lat="42.80191" lon="1.92614">
        <ele>1226.0</ele>
      </trkpt>
      <trkpt lat="42.8015" lon="1.92723">
        <ele>1229.0</ele>
      </trkpt>
      <trkpt lat="42.8002" lon="1.9275">
        <ele>1233.0</ele>
      </trkpt>
      <trkpt lat="42.79949" lon="1.92687">
        <ele>1239.0</ele>
      </trkpt>
      <trkpt lat="42.79757" lon="1.92491">
        <ele>1250.0</ele>
      </trkpt>
      <trkpt lat="42.79711" lon="1.92396">
        <ele>1249.0</ele>
      </trkpt>
      <trkpt lat="42.79705" lon="1.92299">
        <ele>1246.0</ele>
      </trkpt>
      <trkpt lat="42.79746" lon="1.92209">
        <ele>1244.0</ele>
      </trkpt>
      <trkpt lat="42.79844" lon="1.92102">
        <ele>1239.0</ele>
      </trkpt>
      <trkpt lat="42.79785" lon="1.91889">
        <ele>1231.0</ele>
      </trkpt>
      <trkpt lat="42.79675" lon="1.91804">
        <ele>1226.0</ele>
      </trkpt>
      <trkpt lat="42.79628" lon="1.91748">
        <ele>1224.0</ele>
      </trkpt>
      <trkpt lat="42.79631" lon="1.91626">
        <ele>1223.0</ele>
      </trkpt>
      <trkpt lat="42.79567" lon="1.91341">
        <ele>1221.0</ele>
      </trkpt>
      <trkpt lat="42.79571" lon="1.91243">
        <ele>1219.0</ele>
      </trkpt>
      <trkpt lat="42.79683" lon="1.9109">
        <ele>1217.0</ele>
      </trkpt>
      <trkpt lat="42.79702" lon="1.90853">
        <ele>1212.0</ele>
      </trkpt>
      <trkpt lat="42.79678" lon="1.908">
        <ele>1208.0</ele>
      </trkpt>
      <trkpt lat="42.79569" lon="1.90803">
        <ele>1204.0</ele>
      </trkpt>
      <trkpt lat="42.79542" lon="1.90768">
        <ele>1202.0</ele>
      </trkpt>
      <trkpt lat="42.79548" lon="1.90597">
        <ele>1203.0</ele>
      </trkpt>
      <trkpt lat="42.79616" lon="1.90567">
        <ele>1207.0</ele>
      </trkpt>
      <trkpt lat="42.79711" lon="1.90579">
        <ele>1210.0</ele>
      </trkpt>
      <trkpt lat="42.7977" lon="1.90504">
        <ele>1211.0</ele>
      </trkpt>
      <trkpt lat="42.79839" lon="1.9044">
        <ele>1212.0</ele>
      </trkpt>
      <trkpt lat="42.79849" lon="1.90287">
        <ele>1212.0</ele>
      </trkpt>
      <trkpt lat="42.79882" lon="1.90172">
        <ele>1211.0</ele>
      </trkpt>
      <trkpt lat="42.79818" lon="1.90033">
        <ele>1210.0</ele>
      </trkpt>
      <trkpt lat="42.79736" lon="1.89893">
        <ele>1203.0</ele>
      </trkpt>
      <trkpt lat="42.79548" lon="1.89605">
        <ele>1198.0</ele>
      </trkpt>
      <trkpt lat="42.79478" lon="1.89264">
        <ele>1187.0</ele>
      </trkpt>
      <trkpt lat="42.7928" lon="1.89059">
        <ele>1191.0</ele>
      </trkpt>
      <trkpt lat="42.79136" lon="1.8888">
        <ele>1198.0</ele>
      </trkpt>
      <trkpt lat="42.79058" lon="1.88578">
        <ele>1202.0</ele>
      </trkpt>
      <trkpt lat="42.78995" lon="1.88512">
        <ele>1209.0</ele>
      </trkpt>
      <trkpt lat="42.78938" lon="1.88324">
        <ele>1217.0</ele>
      </trkpt>
      <trkpt lat="42.78913" lon="1.88178">
        <ele>1222.0</ele>
      </trkpt>
      <trkpt lat="42.78799" lon="1.88059">
        <ele>1227.0</ele>
      </trkpt>
      <trkpt lat="42.78761" lon="1.8796">
        <ele>1235.0</ele>
      </trkpt>
      <trkpt lat="42.78689" lon="1.87954">
        <ele>1239.0</ele>
      </trkpt>
      <trkpt lat="42.78605" lon="1.87846">
        <ele>1242.0</ele>
      </trkpt>
      <trkpt lat="42.7854" lon="1.87698">
        <ele>1247.0</ele>
      </trkpt>
      <trkpt lat="42.78474" lon="1.87652">
        <ele>1250.0</ele>
      </trkpt>
      <trkpt lat="42.78305" lon="1.8755">
        <ele>1249.0</ele>
      </trkpt>
      <trkpt lat="42.782" lon="1.87423">
        <ele>1246.0</ele>
      </trkpt>
      <trkpt lat="42.77987" lon="1.87205">
        <ele>1253.0</ele>
      </trkpt>
      <trkpt lat="42.77831" lon="1.86972">
        <ele>1264.0</ele>
      </trkpt>
      <trkpt lat="42.77649" lon="1.86815">
        <ele>1272.0</ele>
      </trkpt>
      <trkpt lat="42.77604" lon="1.86708">
        <ele>1275.0</ele>
      </trkpt>
      <trkpt lat="42.77459" lon="1.86529">
        <ele>1283.0</ele>
      </trkpt>
      <trkpt lat="42.77345" lon="1.86373">
        <ele>1293.0</ele>
      </trkpt>
      <trkpt lat="42.77284" lon="1.86351">
        <ele>1295.0</ele>
      </trkpt>
      <trkpt lat="42.7717" lon="1.86246">
        <ele>1300.0</ele>
      </trkpt>
      <trkpt lat="42.77052" lon="1.86029">
        <ele>1311.0</ele>
      </trkpt>
      <trkpt lat="42.77009" lon="1.86025">
        <ele>1316.0</ele>
      </trkpt>
      <trkpt lat="42.76931" lon="1.86101">
        <ele>1321.0</ele>
      </trkpt>
      <trkpt lat="42.7687" lon="1.85995">
        <ele>1324.0</ele>
      </trkpt>
      <trkpt lat="42.76727" lon="1.85746">
        <ele>1332.0</ele>
      </trkpt>
      <trkpt lat="42.7669" lon="1.8552">
        <ele>1344.0</ele>
      </trkpt>
      <trkpt lat="42.76712" lon="1.85384">
        <ele>1350.0</ele>
      </trkpt>
      <trkpt lat="42.76655" lon="1.85249">
        <ele>1354.0</ele>
      </trkpt>
      <trkpt lat="42.76613" lon="1.85106">
        <ele>1359.0</ele>
      </trkpt>
      <trkpt lat="42.76586" lon="1.85159">
        <ele>1361.0</ele>
      </trkpt>
      <trkpt lat="42.76552" lon="1.85278">
        <ele>1367.0</ele>
      </trkpt>
      <trkpt lat="42.76502" lon="1.85256">
        <ele>1374.0</ele>
      </trkpt>
      <trkpt lat="42.76449" lon="1.85198">
        <ele>1382.0</ele>
      </trkpt>
      <trkpt lat="42.76369" lon="1.85122">
        <ele>1397.0</ele>
      </trkpt>
      <trkpt lat="42.76262" lon="1.85254">
        <ele>1411.0</ele>
      </trkpt>
      <trkpt lat="42.762" lon="1.85232">
        <ele>1412.0</ele>
      </trkpt>
      <trkpt lat="42.76118" lon="1.85162">
        <ele>1415.0</ele>
      </trkpt>
      <trkpt lat="42.76033" lon="1.85104">
        <ele>1420.0</ele>
      </trkpt>
      <trkpt lat="42.75952" lon="1.85024">
        <ele>1428.0</ele>
      </trkpt>
      <trkpt lat="42.75785" lon="1.84988">
        <ele>1442.0</ele>
      </trkpt>
      <trkpt lat="42.75704" lon="1.84849">
        <ele>1446.0</ele>
      </trkpt>
      <trkpt lat="42.75664" lon="1.84681">
        <ele>1450.0</ele>
      </trkpt>
      <trkpt lat="42.7564" lon="1.84473">
        <ele>1454.0</ele>
      </trkpt>
      <trkpt lat="42.75637" lon="1.84169">
        <ele>1449.0</ele>
      </trkpt>
      <trkpt lat="42.75542" lon="1.83864">
        <ele>1437.0</ele>
      </trkpt>
      <trkpt lat="42.75442" lon="1.83765">
        <ele>1425.0</ele>
      </trkpt>
      <trkpt lat="42.75367" lon="1.83806">
        <ele>1420.0</ele>
      </trkpt>
      <trkpt lat="42.75347" lon="1.83873">
        <ele>1415.0</ele>
      </trkpt>
      <trkpt lat="42.75361" lon="1.83957">
        <ele>1411.0</ele>
      </trkpt>
      <trkpt lat="42.7533" lon="1.84034">
        <ele>1406.0</ele>
      </trkpt>
      <trkpt lat="42.75247" lon="1.84187">
        <ele>1398.0</ele>
      </trkpt>
      <trkpt lat="42.75232" lon="1.84362">
        <ele>1390.0</ele>
      </trkpt>
      <trkpt lat="42.7519" lon="1.84463">
        <ele>1384.0</ele>
      </trkpt>
      <trkpt lat="42.7514" lon="1.84603">
        <ele>1367.0</ele>
      </trkpt>
      <trkpt lat="42.75128" lon="1.84737">
        <ele>1351.0</ele>
      </trkpt>
      <trkpt lat="42.75111" lon="1.84737">
        <ele>1348.0</ele>
      </trkpt>
      <trkpt lat="42.75118" lon="1.84668">
        <ele>1345.0</ele>
      </trkpt>
      <trkpt lat="42.75097" lon="1.84477">
        <ele>1338.0</ele>
      </trkpt>
      <trkpt lat="42.75114" lon="1.84364">
        <ele>1330.0</ele>
      </trkpt>
      <trkpt lat="42.75088" lon="1.84333">
        <ele>1326.0</ele>
      </trkpt>
      <trkpt lat="42.7509" lon="1.8438">
        <ele>1324.0</ele>
      </trkpt>
      <trkpt lat="42.75065" lon="1.84455">
        <ele>1321.0</ele>
      </trkpt>
      <trkpt lat="42.75055" lon="1.84511">
        <ele>1319.0</ele>
      </trkpt>
      <trkpt lat="42.75043" lon="1.84472">
        <ele>1317.0</ele>
      </trkpt>
      <trkpt lat="42.75041" lon="1.8437">
        <ele>1312.0</ele>
      </trkpt>
      <trkpt lat="42.75023" lon="1.84361">
        <ele>1309.0</ele>
      </trkpt>
      <trkpt lat="42.75025" lon="1.84428">
        <ele>1306.0</ele>
      </trkpt>
      <trkpt lat="42.75005" lon="1.84434">
        <ele>1304.0</ele>
      </trkpt>
      <trkpt lat="42.74992" lon="1.84385">
        <ele>1302.0</ele>
      </trkpt>
      <trkpt lat="42.74874" lon="1.84377">
        <ele>1298.0</ele>
      </trkpt>
      <trkpt lat="42.74769" lon="1.84306">
        <ele>1284.0</ele>
      </trkpt>
      <trkpt lat="42.74627" lon="1.84058">
        <ele>1252.0</ele>
      </trkpt>
      <trkpt lat="42.74513" lon="1.83783">
        <ele>1223.0</ele>
      </trkpt>
      <trkpt lat="42.74362" lon="1.83669">
        <ele>1209.0</ele>
      </trkpt>
      <trkpt lat="42.74284" lon="1.83598">
        <ele>1200.0</ele>
      </trkpt>
      <trkpt lat="42.74146" lon="1.83441">
        <ele>1188.0</ele>
      </trkpt>
      <trkpt lat="42.73997" lon="1.83376">
        <ele>1167.0</ele>
      </trkpt>
      <trkpt lat="42.73796" lon="1.8337">
        <ele>1153.0</ele>
      </trkpt>
      <trkpt lat="42.73685" lon="1.83428">
        <ele>1143.0</ele>
      </trkpt>
      <trkpt lat="42.73648" lon="1.83477">
        <ele>1136.0</ele>
      </trkpt>
      <trkpt lat="42.7363" lon="1.8371">
        <ele>1128.0</ele>
      </trkpt>
      <trkpt lat="42.73551" lon="1.8392">
        <ele>1108.0</ele>
      </trkpt>
      <trkpt lat="42.7349" lon="1.84163">
        <ele>1094.0</ele>
      </trkpt>
      <trkpt lat="42.7337" lon="1.84361">
        <ele>1073.0</ele>
      </trkpt>
      <trkpt lat="42.73283" lon="1.84528">
        <ele>1063.0</ele>
      </trkpt>
      <trkpt lat="42.73112" lon="1.84655">
        <ele>1050.0</ele>
      </trkpt>
      <trkpt lat="42.73008" lon="1.84786">
        <ele>1040.0</ele>
      </trkpt>
      <trkpt lat="42.72932" lon="1.84804">
        <ele>1036.0</ele>
      </trkpt>
      <trkpt lat="42.72886" lon="1.84814">
        <ele>1031.0</ele>
      </trkpt>
      <trkpt lat="42.72737" lon="1.85003">
        <ele>1015.0</ele>
      </trkpt>
      <trkpt lat="42.72612" lon="1.85192">
        <ele>1000.0</ele>
      </trkpt>
      <trkpt lat="42.72499" lon="1.8532">
        <ele>992.0</ele>
      </trkpt>
      <trkpt lat="42.72409" lon="1.85435">
        <ele>980.0</ele>
      </trkpt>
      <trkpt lat="42.72334" lon="1.8558">
        <ele>968.0</ele>
      </trkpt>
      <trkpt lat="42.72312" lon="1.857">
        <ele>962.0</ele>
      </trkpt>
      <trkpt lat="42.7227" lon="1.85746">
        <ele>957.0</ele>
      </trkpt>
      <trkpt lat="42.72282" lon="1.85781">
        <ele>954.0</ele>
      </trkpt>
      <trkpt lat="42.72268" lon="1.8579">
        <ele>952.0</ele>
      </trkpt>
      <trkpt lat="42.72257" lon="1.85734">
        <ele>949.0</ele>
      </trkpt>
      <trkpt lat="42.72298" lon="1.85645">
        <ele>942.0</ele>
      </trkpt>
      <trkpt lat="42.72306" lon="1.85556">
        <ele>938.0</ele>
      </trkpt>
      <trkpt lat="42.7231" lon="1.85483">
        <ele>936.0</ele>
      </trkpt>
      <trkpt lat="42.72316" lon="1.85327">
        <ele>929.0</ele>
      </trkpt>
      <trkpt lat="42.72292" lon="1.85241">
        <ele>921.0</ele>
      </trkpt>
      <trkpt lat="42.72257" lon="1.85161">
        <ele>913.0</ele>
      </trkpt>
      <trkpt lat="42.7223" lon="1.85105">
        <ele>908.0</ele>
      </trkpt>
      <trkpt lat="42.72269" lon="1.84963">
        <ele>899.0</ele>
      </trkpt>
      <trkpt lat="42.72295" lon="1.84604">
        <ele>883.0</ele>
      </trkpt>
      <trkpt lat="42.72394" lon="1.84458">
        <ele>870.0</ele>
      </trkpt>
      <trkpt lat="42.72396" lon="1.84399">
        <ele>861.0</ele>
      </trkpt>
      <trkpt lat="42.72372" lon="1.84269">
        <ele>856.0</ele>
      </trkpt>
      <trkpt lat="42.72423" lon="1.84116">
        <ele>849.0</ele>
      </trkpt>
      <trkpt lat="42.72437" lon="1.84057">
        <ele>845.0</ele>
      </trkpt>
      <trkpt lat="42.72391" lon="1.84082">
        <ele>841.0</ele>
      </trkpt>
      <trkpt lat="42.72314" lon="1.84367">
        <ele>832.0</ele>
      </trkpt>
      <trkpt lat="42.72268" lon="1.84402">
        <ele>826.0</ele>
      </trkpt>
      <trkpt lat="42.72192" lon="1.84494">
        <ele>820.0</ele>
      </trkpt>
      <trkpt lat="42.72137" lon="1.84559">
        <ele>816.0</ele>
      </trkpt>
      <trkpt lat="42.72147" lon="1.84523">
        <ele>813.0</ele>
      </trkpt>
      <trkpt lat="42.72163" lon="1.84429">
        <ele>806.0</ele>
      </trkpt>
      <trkpt lat="42.72221" lon="1.84339">
        <ele>798.0</ele>
      </trkpt>
      <trkpt lat="42.72262" lon="1.84294">
        <ele>793.0</ele>
      </trkpt>
      <trkpt lat="42.72262" lon="1.84197">
        <ele>788.0</ele>
      </trkpt>
      <trkpt lat="42.72324" lon="1.84048">
        <ele>784.0</ele>
      </trkpt>
      <trkpt lat="42.72349" lon="1.83998">
        <ele>784.0</ele>
      </trkpt>
      <trkpt lat="42.72306" lon="1.84062">
        <ele>783.0</ele>
      </trkpt>
      <trkpt lat="42.72227" lon="1.84175">
        <ele>772.0</ele>
      </trkpt>
      <trkpt lat="42.72199" lon="1.84251">
        <ele>763.0</ele>
      </trkpt>
      <trkpt lat="42.7206" lon="1.84316">
        <ele>749.0</ele>
      </trkpt>
      <trkpt lat="42.72004" lon="1.84342">
        <ele>742.0</ele>
      </trkpt>
      <trkpt lat="42.71968" lon="1.84307">
        <ele>739.0</ele>
      </trkpt>
      <trkpt lat="42.72006" lon="1.84115">
        <ele>731.0</ele>
      </trkpt>
      <trkpt lat="42.72049" lon="1.83981">
        <ele>724.0</ele>
      </trkpt>
      <trkpt lat="42.72116" lon="1.83834">
        <ele>718.0</ele>
      </trkpt>
      <trkpt lat="42.72198" lon="1.8369">
        <ele>709.0</ele>
      </trkpt>
      <trkpt lat="42.72327" lon="1.83491">
        <ele>703.0</ele>
      </trkpt>
      <trkpt lat="42.72486" lon="1.83248">
        <ele>701.0</ele>
      </trkpt>
      <trkpt lat="42.72668" lon="1.83017">
        <ele>699.0</ele>
      </trkpt>
      <trkpt lat="42.72816" lon="1.82727">
        <ele>696.0</ele>
      </trkpt>
      <trkpt lat="42.72935" lon="1.82441">
        <ele>691.0</ele>
      </trkpt>
      <trkpt lat="42.72967" lon="1.82118">
        <ele>681.0</ele>
      </trkpt>
      <trkpt lat="42.72919" lon="1.81791">
        <ele>674.0</ele>
      </trkpt>
      <trkpt lat="42.72926" lon="1.81628">
        <ele>674.0</ele>
      </trkpt>
      <trkpt lat="42.72988" lon="1.81437">
        <ele>669.0</ele>
      </trkpt>
      <trkpt lat="42.73127" lon="1.81003">
        <ele>663.0</ele>
      </trkpt>
      <trkpt lat="42.73154" lon="1.80787">
        <ele>662.0</ele>
      </trkpt>
      <trkpt lat="42.73128" lon="1.80552">
        <ele>661.0</ele>
      </trkpt>
      <trkpt lat="42.73111" lon="1.80517">
        <ele>659.0</ele>
      </trkpt>
      <trkpt lat="42.7309" lon="1.8054">
        <ele>657.0</ele>
      </trkpt>
      <trkpt lat="42.73021" lon="1.80626">
        <ele>659.0</ele>
      </trkpt>
      <trkpt lat="42.72986" lon="1.80523">
        <ele>662.0</ele>
      </trkpt>
      <trkpt lat="42.73188" lon="1.80097">
        <ele>663.0</ele>
      </trkpt>
      <trkpt lat="42.73384" lon="1.79533">
        <ele>671.0</ele>
      </trkpt>
      <trkpt lat="42.73521" lon="1.79175">
        <ele>665.0</ele>
      </trkpt>
      <trkpt lat="42.73595" lon="1.79044">
        <ele>667.0</ele>
      </trkpt>
      <trkpt lat="42.73752" lon="1.78986">
        <ele>662.0</ele>
      </trkpt>
      <trkpt lat="42.73884" lon="1.7895">
        <ele>662.0</ele>
      </trkpt>
      <trkpt lat="42.73965" lon="1.78738">
        <ele>661.0</ele>
      </trkpt>
      <trkpt lat="42.74032" lon="1.78512">
        <ele>661.0</ele>
      </trkpt>
      <trkpt lat="42.74274" lon="1.7803">
        <ele>657.0</ele>
      </trkpt>
      <trkpt lat="42.74426" lon="1.77849">
        <ele>653.0</ele>
      </trkpt>
      <trkpt lat="42.74584" lon="1.77649">
        <ele>656.0</ele>
      </trkpt>
      <trkpt lat="42.74912" lon="1.77317">
        <ele>659.0</ele>
      </trkpt>
      <trkpt lat="42.75458" lon="1.77049">
        <ele>631.0</ele>
      </trkpt>
      <trkpt lat="42.756" lon="1.7707">
        <ele>620.0</ele>
      </trkpt>
      <trkpt lat="42.75797" lon="1.7693">
        <ele>614.0</ele>
      </trkpt>
      <trkpt lat="42.75942" lon="1.76683">
        <ele>603.0</ele>
      </trkpt>
      <trkpt lat="42.76031" lon="1.76333">
        <ele>608.0</ele>
      </trkpt>
      <trkpt lat="42.76056" lon="1.76218">
        <ele>609.0</ele>
      </trkpt>
      <trkpt lat="42.76156" lon="1.76018">
        <ele>601.0</ele>
      </trkpt>
      <trkpt lat="42.7633" lon="1.75561">
        <ele>608.0</ele>
      </trkpt>
      <trkpt lat="42.76405" lon="1.75313">
        <ele>605.0</ele>
      </trkpt>
      <trkpt lat="42.76563" lon="1.74915">
        <ele>600.0</ele>
      </trkpt>
      <trkpt lat="42.76585" lon="1.74661">
        <ele>586.0</ele>
      </trkpt>
      <trkpt lat="42.7676" lon="1.74299">
        <ele>586.0</ele>
      </trkpt>
      <trkpt lat="42.76839" lon="1.74137">
        <ele>602.0</ele>
      </trkpt>
      <trkpt lat="42.76896" lon="1.73876">
        <ele>610.0</ele>
      </trkpt>
      <trkpt lat="42.77021" lon="1.7366">
        <ele>613.0</ele>
      </trkpt>
      <trkpt lat="42.77052" lon="1.73525">
        <ele>612.0</ele>
      </trkpt>
      <trkpt lat="42.77029" lon="1.73354">
        <ele>604.0</ele>
      </trkpt>
      <trkpt lat="42.7707" lon="1.73182">
        <ele>594.0</ele>
      </trkpt>
      <trkpt lat="42.7713" lon="1.72262">
        <ele>570.0</ele>
      </trkpt>
      <trkpt lat="42.77173" lon="1.71602">
        <ele>554.0</ele>
      </trkpt>
      <trkpt lat="42.7721" lon="1.71033">
        <ele>548.0</ele>
      </trkpt>
      <trkpt lat="42.7727" lon="1.70697">
        <ele>556.0</ele>
      </trkpt>
      <trkpt lat="42.77349" lon="1.7031">
        <ele>562.0</ele>
      </trkpt>
      <trkpt lat="42.77557" lon="1.69741">
        <ele>555.0</ele>
      </trkpt>
      <trkpt lat="42.77662" lon="1.69658">
        <ele>547.0</ele>
      </trkpt>
      <trkpt lat="42.78004" lon="1.6956">
        <ele>539.0</ele>
      </trkpt>
      <trkpt lat="42.78358" lon="1.69471">
        <ele>533.0</ele>
      </trkpt>
      <trkpt lat="42.78623" lon="1.69401">
        <ele>530.0</ele>
      </trkpt>
      <trkpt lat="42.78741" lon="1.69277">
        <ele>534.0</ele>
      </trkpt>
      <trkpt lat="42.7897" lon="1.68864">
        <ele>527.0</ele>
      </trkpt>
      <trkpt lat="42.79087" lon="1.68408">
        <ele>527.0</ele>
      </trkpt>
      <trkpt lat="42.79366" lon="1.67907">
        <ele>521.0</ele>
      </trkpt>
      <trkpt lat="42.79439" lon="1.67594">
        <ele>513.0</ele>
      </trkpt>
      <trkpt lat="42.79527" lon="1.67335">
        <ele>508.0</ele>
      </trkpt>
      <trkpt lat="42.79759" lon="1.66835">
        <ele>510.0</ele>
      </trkpt>
      <trkpt lat="42.79856" lon="1.6638">
        <ele>504.0</ele>
      </trkpt>
      <trkpt lat="42.79915" lon="1.66071">
        <ele>500.0</ele>
      </trkpt>
      <trkpt lat="42.80008" lon="1.65477">
        <ele>495.0</ele>
      </trkpt>
      <trkpt lat="42.80046" lon="1.65263">
        <ele>495.0</ele>
      </trkpt>
      <trkpt lat="42.80153" lon="1.65049">
        <ele>496.0</ele>
      </trkpt>
      <trkpt lat="42.80503" lon="1.64625">
        <ele>496.0</ele>
      </trkpt>
      <trkpt lat="42.81267" lon="1.63489">
        <ele>492.0</ele>
      </trkpt>
      <trkpt lat="42.81549" lon="1.62946">
        <ele>493.0</ele>
      </trkpt>
      <trkpt lat="42.81856" lon="1.62335">
        <ele>483.0</ele>
      </trkpt>
      <trkpt lat="42.82119" lon="1.62119">
        <ele>479.0</ele>
      </trkpt>
      <trkpt lat="42.82464" lon="1.61862">
        <ele>484.0</ele>
      </trkpt>
      <trkpt lat="42.82653" lon="1.61683">
        <ele>479.0</ele>
      </trkpt>
      <trkpt lat="42.83019" lon="1.61113">
        <ele>486.0</ele>
      </trkpt>
      <trkpt lat="42.83222" lon="1.60851">
        <ele>483.0</ele>
      </trkpt>
      <trkpt lat="42.83498" lon="1.60716">
        <ele>487.0</ele>
      </trkpt>
      <trkpt lat="42.83679" lon="1.60587">
        <ele>486.0</ele>
      </trkpt>
      <trkpt lat="42.83769" lon="1.60449">
        <ele>488.0</ele>
      </trkpt>
      <trkpt lat="42.83791" lon="1.6043">
        <ele>488.0</ele>
      </trkpt>
      <trkpt lat="42.83801" lon="1.60384">
        <ele>486.0</ele>
      </trkpt>
      <trkpt lat="42.8401" lon="1.60264">
        <ele>475.0</ele>
      </trkpt>
      <trkpt lat="42.84172" lon="1.60234">
        <ele>472.0</ele>
      </trkpt>
      <trkpt lat="42.84376" lon="1.60195">
        <ele>475.0</ele>
      </trkpt>
      <trkpt lat="42.84489" lon="1.60143">
        <ele>473.0</ele>
      </trkpt>
      <trkpt lat="42.84524" lon="1.6011">
        <ele>472.0</ele>
      </trkpt>
      <trkpt lat="42.84542" lon="1.60087">
        <ele>472.0</ele>
      </trkpt>
      <trkpt lat="42.84667" lon="1.60006">
        <ele>470.0</ele>
      </trkpt>
      <trkpt lat="42.84837" lon="1.5997">
        <ele>473.0</ele>
      </trkpt>
      <trkpt lat="42.85005" lon="1.59934">
        <ele>473.0</ele>
      </trkpt>
      <trkpt lat="42.85017" lon="1.59913">
        <ele>471.0</ele>
      </trkpt>
      <trkpt lat="42.8509" lon="1.59672">
        <ele>470.0</ele>
      </trkpt>
      <trkpt lat="42.85258" lon="1.59199">
        <ele>484.0</ele>
      </trkpt>
      <trkpt lat="42.85331" lon="1.59116">
        <ele>488.0</ele>
      </trkpt>
      <trkpt lat="42.85307" lon="1.59023">
        <ele>490.0</ele>
      </trkpt>
      <trkpt lat="42.85438" lon="1.58661">
        <ele>491.0</ele>
      </trkpt>
      <trkpt lat="42.85587" lon="1.58434">
        <ele>498.0</ele>
      </trkpt>
      <trkpt lat="42.85667" lon="1.58349">
        <ele>502.0</ele>
      </trkpt>
      <trkpt lat="42.85761" lon="1.58294">
        <ele>505.0</ele>
      </trkpt>
      <trkpt lat="42.85863" lon="1.57955">
        <ele>525.0</ele>
      </trkpt>
      <trkpt lat="42.85856" lon="1.57771">
        <ele>536.0</ele>
      </trkpt>
      <trkpt lat="42.85913" lon="1.57632">
        <ele>544.0</ele>
      </trkpt>
      <trkpt lat="42.86038" lon="1.57567">
        <ele>550.0</ele>
      </trkpt>
      <trkpt lat="42.86181" lon="1.57329">
        <ele>559.0</ele>
      </trkpt>
      <trkpt lat="42.86352" lon="1.57098">
        <ele>572.0</ele>
      </trkpt>
      <trkpt lat="42.8657" lon="1.56959">
        <ele>588.0</ele>
      </trkpt>
      <trkpt lat="42.86749" lon="1.56842">
        <ele>590.0</ele>
      </trkpt>
      <trkpt lat="42.86946" lon="1.56808">
        <ele>602.0</ele>
      </trkpt>
      <trkpt lat="42.8703" lon="1.56767">
        <ele>615.0</ele>
      </trkpt>
      <trkpt lat="42.87112" lon="1.56716">
        <ele>623.0</ele>
      </trkpt>
      <trkpt lat="42.87164" lon="1.5652">
        <ele>631.0</ele>
      </trkpt>
      <trkpt lat="42.87319" lon="1.56403">
        <ele>640.0</ele>
      </trkpt>
      <trkpt lat="42.87367" lon="1.56289">
        <ele>646.0</ele>
      </trkpt>
      <trkpt lat="42.87477" lon="1.56042">
        <ele>652.0</ele>
      </trkpt>
      <trkpt lat="42.87508" lon="1.55555">
        <ele>655.0</ele>
      </trkpt>
      <trkpt lat="42.87524" lon="1.55279">
        <ele>644.0</ele>
      </trkpt>
      <trkpt lat="42.87586" lon="1.55017">
        <ele>625.0</ele>
      </trkpt>
      <trkpt lat="42.8777" lon="1.54861">
        <ele>623.0</ele>
      </trkpt>
      <trkpt lat="42.87887" lon="1.54691">
        <ele>637.0</ele>
      </trkpt>
      <trkpt lat="42.88005" lon="1.54493">
        <ele>656.0</ele>
      </trkpt>
      <trkpt lat="42.87946" lon="1.54297">
        <ele>666.0</ele>
      </trkpt>
      <trkpt lat="42.87882" lon="1.54151">
        <ele>669.0</ele>
      </trkpt>
      <trkpt lat="42.8783" lon="1.53879">
        <ele>668.0</ele>
      </trkpt>
      <trkpt lat="42.87834" lon="1.53426">
        <ele>672.0</ele>
      </trkpt>
      <trkpt lat="42.87851" lon="1.53144">
        <ele>677.0</ele>
      </trkpt>
      <trkpt lat="42.87821" lon="1.52751">
        <ele>676.0</ele>
      </trkpt>
      <trkpt lat="42.87981" lon="1.51863">
        <ele>698.0</ele>
      </trkpt>
      <trkpt lat="42.88041" lon="1.5172">
        <ele>711.0</ele>
      </trkpt>
      <trkpt lat="42.88008" lon="1.51602">
        <ele>718.0</ele>
      </trkpt>
      <trkpt lat="42.88024" lon="1.51425">
        <ele>728.0</ele>
      </trkpt>
      <trkpt lat="42.88069" lon="1.51205">
        <ele>743.0</ele>
      </trkpt>
      <trkpt lat="42.88085" lon="1.50973">
        <ele>755.0</ele>
      </trkpt>
      <trkpt lat="42.88064" lon="1.50776">
        <ele>765.0</ele>
      </trkpt>
      <trkpt lat="42.88065" lon="1.50589">
        <ele>781.0</ele>
      </trkpt>
      <trkpt lat="42.88042" lon="1.50505">
        <ele>790.0</ele>
      </trkpt>
      <trkpt lat="42.88197" lon="1.50313">
        <ele>803.0</ele>
      </trkpt>
      <trkpt lat="42.88257" lon="1.50202">
        <ele>811.0</ele>
      </trkpt>
      <trkpt lat="42.88215" lon="1.50183">
        <ele>814.0</ele>
      </trkpt>
      <trkpt lat="42.88104" lon="1.50139">
        <ele>823.0</ele>
      </trkpt>
      <trkpt lat="42.8802" lon="1.5008">
        <ele>837.0</ele>
      </trkpt>
      <trkpt lat="42.87988" lon="1.49975">
        <ele>846.0</ele>
      </trkpt>
      <trkpt lat="42.88084" lon="1.50063">
        <ele>853.0</ele>
      </trkpt>
      <trkpt lat="42.88199" lon="1.49995">
        <ele>862.0</ele>
      </trkpt>
      <trkpt lat="42.88325" lon="1.49928">
        <ele>875.0</ele>
      </trkpt>
      <trkpt lat="42.88394" lon="1.49775">
        <ele>889.0</ele>
      </trkpt>
      <trkpt lat="42.88358" lon="1.49608">
        <ele>912.0</ele>
      </trkpt>
      <trkpt lat="42.88382" lon="1.49565">
        <ele>918.0</ele>
      </trkpt>
      <trkpt lat="42.88527" lon="1.49561">
        <ele>923.0</ele>
      </trkpt>
      <trkpt lat="42.886" lon="1.49544">
        <ele>929.0</ele>
      </trkpt>
      <trkpt lat="42.88678" lon="1.4944">
        <ele>937.0</ele>
      </trkpt>
      <trkpt lat="42.88705" lon="1.49334">
        <ele>945.0</ele>
      </trkpt>
      <trkpt lat="42.88741" lon="1.49195">
        <ele>952.0</ele>
      </trkpt>
      <trkpt lat="42.88746" lon="1.48989">
        <ele>960.0</ele>
      </trkpt>
      <trkpt lat="42.88851" lon="1.48792">
        <ele>973.0</ele>
      </trkpt>
      <trkpt lat="42.88909" lon="1.48691">
        <ele>983.0</ele>
      </trkpt>
      <trkpt lat="42.88954" lon="1.4858">
        <ele>992.0</ele>
      </trkpt>
      <trkpt lat="42.89046" lon="1.48492">
        <ele>1003.0</ele>
      </trkpt>
      <trkpt lat="42.89061" lon="1.48335">
        <ele>1010.0</ele>
      </trkpt>
      <trkpt lat="42.89131" lon="1.48173">
        <ele>1021.0</ele>
      </trkpt>
      <trkpt lat="42.8923" lon="1.48079">
        <ele>1034.0</ele>
      </trkpt>
      <trkpt lat="42.89349" lon="1.47975">
        <ele>1050.0</ele>
      </trkpt>
      <trkpt lat="42.89352" lon="1.47818">
        <ele>1062.0</ele>
      </trkpt>
      <trkpt lat="42.89457" lon="1.47546">
        <ele>1075.0</ele>
      </trkpt>
      <trkpt lat="42.8949" lon="1.4734">
        <ele>1095.0</ele>
      </trkpt>
      <trkpt lat="42.89567" lon="1.47116">
        <ele>1110.0</ele>
      </trkpt>
      <trkpt lat="42.89557" lon="1.46844">
        <ele>1118.0</ele>
      </trkpt>
      <trkpt lat="42.89598" lon="1.46707">
        <ele>1126.0</ele>
      </trkpt>
      <trkpt lat="42.89635" lon="1.4649">
        <ele>1132.0</ele>
      </trkpt>
      <trkpt lat="42.89686" lon="1.46379">
        <ele>1135.0</ele>
      </trkpt>
      <trkpt lat="42.89682" lon="1.46216">
        <ele>1139.0</ele>
      </trkpt>
      <trkpt lat="42.89697" lon="1.46172">
        <ele>1141.0</ele>
      </trkpt>
      <trkpt lat="42.89723" lon="1.46325">
        <ele>1144.0</ele>
      </trkpt>
      <trkpt lat="42.89679" lon="1.4652">
        <ele>1151.0</ele>
      </trkpt>
      <trkpt lat="42.8966" lon="1.46773">
        <ele>1161.0</ele>
      </trkpt>
      <trkpt lat="42.89694" lon="1.46919">
        <ele>1166.0</ele>
      </trkpt>
      <trkpt lat="42.89735" lon="1.46887">
        <ele>1168.0</ele>
      </trkpt>
      <trkpt lat="42.8968" lon="1.4684">
        <ele>1169.0</ele>
      </trkpt>
      <trkpt lat="42.89712" lon="1.46683">
        <ele>1172.0</ele>
      </trkpt>
      <trkpt lat="42.89841" lon="1.46392">
        <ele>1186.0</ele>
      </trkpt>
      <trkpt lat="42.89825" lon="1.46218">
        <ele>1199.0</ele>
      </trkpt>
      <trkpt lat="42.89803" lon="1.46064">
        <ele>1208.0</ele>
      </trkpt>
      <trkpt lat="42.89849" lon="1.46025">
        <ele>1212.0</ele>
      </trkpt>
      <trkpt lat="42.89819" lon="1.45951">
        <ele>1214.0</ele>
      </trkpt>
      <trkpt lat="42.89889" lon="1.45915">
        <ele>1217.0</ele>
      </trkpt>
      <trkpt lat="42.89867" lon="1.45817">
        <ele>1221.0</ele>
      </trkpt>
      <trkpt lat="42.89882" lon="1.45709">
        <ele>1224.0</ele>
      </trkpt>
      <trkpt lat="42.89921" lon="1.45475">
        <ele>1232.0</ele>
      </trkpt>
      <trkpt lat="42.89902" lon="1.45291">
        <ele>1240.0</ele>
      </trkpt>
      <trkpt lat="42.89959" lon="1.45251">
        <ele>1242.0</ele>
      </trkpt>
      <trkpt lat="42.90021" lon="1.45029">
        <ele>1237.0</ele>
      </trkpt>
      <trkpt lat="42.90058" lon="1.44889">
        <ele>1228.0</ele>
      </trkpt>
      <trkpt lat="42.90128" lon="1.44614">
        <ele>1215.0</ele>
      </trkpt>
      <trkpt lat="42.90212" lon="1.44531">
        <ele>1203.0</ele>
      </trkpt>
      <trkpt lat="42.90337" lon="1.44542">
        <ele>1205.0</ele>
      </trkpt>
      <trkpt lat="42.9035" lon="1.44473">
        <ele>1206.0</ele>
      </trkpt>
      <trkpt lat="42.90272" lon="1.44163">
        <ele>1197.0</ele>
      </trkpt>
      <trkpt lat="42.90328" lon="1.44036">
        <ele>1186.0</ele>
      </trkpt>
      <trkpt lat="42.90372" lon="1.44079">
        <ele>1184.0</ele>
      </trkpt>
      <trkpt lat="42.90408" lon="1.43985">
        <ele>1184.0</ele>
      </trkpt>
      <trkpt lat="42.90403" lon="1.43838">
        <ele>1181.0</ele>
      </trkpt>
      <trkpt lat="42.9052" lon="1.43793">
        <ele>1178.0</ele>
      </trkpt>
      <trkpt lat="42.90524" lon="1.43697">
        <ele>1176.0</ele>
      </trkpt>
      <trkpt lat="42.90479" lon="1.43632">
        <ele>1174.0</ele>
      </trkpt>
      <trkpt lat="42.90409" lon="1.43449">
        <ele>1160.0</ele>
      </trkpt>
      <trkpt lat="42.9051" lon="1.43301">
        <ele>1160.0</ele>
      </trkpt>
      <trkpt lat="42.90552" lon="1.43261">
        <ele>1164.0</ele>
      </trkpt>
      <trkpt lat="42.90448" lon="1.43111">
        <ele>1150.0</ele>
      </trkpt>
      <trkpt lat="42.90558" lon="1.42938">
        <ele>1144.0</ele>
      </trkpt>
      <trkpt lat="42.90646" lon="1.42822">
        <ele>1139.0</ele>
      </trkpt>
      <trkpt lat="42.90601" lon="1.42687">
        <ele>1128.0</ele>
      </trkpt>
      <trkpt lat="42.9076" lon="1.42524">
        <ele>1119.0</ele>
      </trkpt>
      <trkpt lat="42.90768" lon="1.42402">
        <ele>1114.0</ele>
      </trkpt>
      <trkpt lat="42.90638" lon="1.42305">
        <ele>1104.0</ele>
      </trkpt>
      <trkpt lat="42.90646" lon="1.42106">
        <ele>1091.0</ele>
      </trkpt>
      <trkpt lat="42.907" lon="1.42038">
        <ele>1092.0</ele>
      </trkpt>
      <trkpt lat="42.90698" lon="1.41932">
        <ele>1094.0</ele>
      </trkpt>
      <trkpt lat="42.9072" lon="1.41706">
        <ele>1080.0</ele>
      </trkpt>
      <trkpt lat="42.90798" lon="1.4164">
        <ele>1070.0</ele>
      </trkpt>
      <trkpt lat="42.90702" lon="1.41538">
        <ele>1067.0</ele>
      </trkpt>
      <trkpt lat="42.90624" lon="1.4139">
        <ele>1051.0</ele>
      </trkpt>
      <trkpt lat="42.90699" lon="1.4114">
        <ele>1035.0</ele>
      </trkpt>
      <trkpt lat="42.90684" lon="1.41014">
        <ele>1030.0</ele>
      </trkpt>
      <trkpt lat="42.90682" lon="1.40896">
        <ele>1026.0</ele>
      </trkpt>
      <trkpt lat="42.90693" lon="1.40675">
        <ele>1017.0</ele>
      </trkpt>
      <trkpt lat="42.90726" lon="1.40445">
        <ele>1005.0</ele>
      </trkpt>
      <trkpt lat="42.9075" lon="1.4025">
        <ele>999.0</ele>
      </trkpt>
      <trkpt lat="42.90676" lon="1.40037">
        <ele>989.0</ele>
      </trkpt>
      <trkpt lat="42.90711" lon="1.39802">
        <ele>982.0</ele>
      </trkpt>
      <trkpt lat="42.90717" lon="1.3962">
        <ele>970.0</ele>
      </trkpt>
      <trkpt lat="42.90711" lon="1.39415">
        <ele>959.0</ele>
      </trkpt>
      <trkpt lat="42.90715" lon="1.39275">
        <ele>951.0</ele>
      </trkpt>
      <trkpt lat="42.9065" lon="1.39113">
        <ele>947.0</ele>
      </trkpt>
      <trkpt lat="42.90646" lon="1.39049">
        <ele>948.0</ele>
      </trkpt>
      <trkpt lat="42.90669" lon="1.39153">
        <ele>949.0</ele>
      </trkpt>
      <trkpt lat="42.90726" lon="1.39239">
        <ele>961.0</ele>
      </trkpt>
      <trkpt lat="42.90771" lon="1.39315">
        <ele>976.0</ele>
      </trkpt>
      <trkpt lat="42.90785" lon="1.39382">
        <ele>988.0</ele>
      </trkpt>
      <trkpt lat="42.90803" lon="1.39495">
        <ele>1002.0</ele>
      </trkpt>
      <trkpt lat="42.90846" lon="1.39575">
        <ele>1021.0</ele>
      </trkpt>
      <trkpt lat="42.90866" lon="1.39646">
        <ele>1034.0</ele>
      </trkpt>
      <trkpt lat="42.90842" lon="1.39766">
        <ele>1050.0</ele>
      </trkpt>
      <trkpt lat="42.90843" lon="1.40013">
        <ele>1073.0</ele>
      </trkpt>
      <trkpt lat="42.90884" lon="1.40159">
        <ele>1087.0</ele>
      </trkpt>
      <trkpt lat="42.9088" lon="1.40111">
        <ele>1093.0</ele>
      </trkpt>
      <trkpt lat="42.90917" lon="1.39931">
        <ele>1108.0</ele>
      </trkpt>
      <trkpt lat="42.91008" lon="1.39773">
        <ele>1129.0</ele>
      </trkpt>
      <trkpt lat="42.911" lon="1.39718">
        <ele>1144.0</ele>
      </trkpt>
      <trkpt lat="42.91091" lon="1.39632">
        <ele>1151.0</ele>
      </trkpt>
      <trkpt lat="42.9108" lon="1.39533">
        <ele>1162.0</ele>
      </trkpt>
      <trkpt lat="42.91209" lon="1.3945">
        <ele>1177.0</ele>
      </trkpt>
      <trkpt lat="42.91275" lon="1.39356">
        <ele>1197.0</ele>
      </trkpt>
      <trkpt lat="42.91362" lon="1.39297">
        <ele>1213.0</ele>
      </trkpt>
      <trkpt lat="42.91453" lon="1.3919">
        <ele>1230.0</ele>
      </trkpt>
      <trkpt lat="42.91467" lon="1.39116">
        <ele>1237.0</ele>
      </trkpt>
      <trkpt lat="42.91558" lon="1.39031">
        <ele>1247.0</ele>
      </trkpt>
      <trkpt lat="42.91576" lon="1.38953">
        <ele>1255.0</ele>
      </trkpt>
      <trkpt lat="42.91639" lon="1.38885">
        <ele>1264.0</ele>
      </trkpt>
      <trkpt lat="42.91692" lon="1.38792">
        <ele>1278.0</ele>
      </trkpt>
      <trkpt lat="42.91745" lon="1.38741">
        <ele>1288.0</ele>
      </trkpt>
      <trkpt lat="42.9179" lon="1.38662">
        <ele>1297.0</ele>
      </trkpt>
      <trkpt lat="42.91828" lon="1.38548">
        <ele>1306.0</ele>
      </trkpt>
      <trkpt lat="42.91858" lon="1.38443">
        <ele>1318.0</ele>
      </trkpt>
      <trkpt lat="42.91867" lon="1.38353">
        <ele>1328.0</ele>
      </trkpt>
      <trkpt lat="42.91869" lon="1.38384">
        <ele>1331.0</ele>
      </trkpt>
      <trkpt lat="42.91887" lon="1.38491">
        <ele>1340.0</ele>
      </trkpt>
      <trkpt lat="42.91881" lon="1.38692">
        <ele>1354.0</ele>
      </trkpt>
      <trkpt lat="42.91833" lon="1.38887">
        <ele>1361.0</ele>
      </trkpt>
      <trkpt lat="42.91854" lon="1.38992">
        <ele>1364.0</ele>
      </trkpt>
      <trkpt lat="42.91839" lon="1.39076">
        <ele>1365.0</ele>
      </trkpt>
      <trkpt lat="42.91868" lon="1.39183">
        <ele>1367.0</ele>
      </trkpt>
      <trkpt lat="42.91854" lon="1.39412">
        <ele>1366.0</ele>
      </trkpt>
      <trkpt lat="42.91795" lon="1.39513">
        <ele>1363.0</ele>
      </trkpt>
      <trkpt lat="42.91764" lon="1.39661">
        <ele>1360.0</ele>
      </trkpt>
      <trkpt lat="42.91786" lon="1.39788">
        <ele>1357.0</ele>
      </trkpt>
      <trkpt lat="42.91895" lon="1.40048">
        <ele>1351.0</ele>
      </trkpt>
      <trkpt lat="42.91963" lon="1.40242">
        <ele>1345.0</ele>
      </trkpt>
      <trkpt lat="42.92039" lon="1.40366">
        <ele>1342.0</ele>
      </trkpt>
      <trkpt lat="42.92095" lon="1.40369">
        <ele>1341.0</ele>
      </trkpt>
      <trkpt lat="42.92154" lon="1.40281">
        <ele>1335.0</ele>
      </trkpt>
      <trkpt lat="42.92248" lon="1.40152">
        <ele>1326.0</ele>
      </trkpt>
      <trkpt lat="42.92318" lon="1.40299">
        <ele>1336.0</ele>
      </trkpt>
      <trkpt lat="42.92421" lon="1.40418">
        <ele>1340.0</ele>
      </trkpt>
      <trkpt lat="42.92508" lon="1.40565">
        <ele>1332.0</ele>
      </trkpt>
      <trkpt lat="42.92554" lon="1.40564">
        <ele>1319.0</ele>
      </trkpt>
      <trkpt lat="42.92635" lon="1.40524">
        <ele>1297.0</ele>
      </trkpt>
      <trkpt lat="42.92704" lon="1.405">
        <ele>1288.0</ele>
      </trkpt>
      <trkpt lat="42.92834" lon="1.40543">
        <ele>1292.0</ele>
      </trkpt>
      <trkpt lat="42.92855" lon="1.40635">
        <ele>1289.0</ele>
      </trkpt>
      <trkpt lat="42.92892" lon="1.40658">
        <ele>1287.0</ele>
      </trkpt>
      <trkpt lat="42.93001" lon="1.40612">
        <ele>1284.0</ele>
      </trkpt>
      <trkpt lat="42.93132" lon="1.40623">
        <ele>1288.0</ele>
      </trkpt>
      <trkpt lat="42.93218" lon="1.40655">
        <ele>1281.0</ele>
      </trkpt>
      <trkpt lat="42.93357" lon="1.40576">
        <ele>1271.0</ele>
      </trkpt>
      <trkpt lat="42.93434" lon="1.40553">
        <ele>1270.0</ele>
      </trkpt>
      <trkpt lat="42.9347" lon="1.4048">
        <ele>1272.0</ele>
      </trkpt>
      <trkpt lat="42.93515" lon="1.40467">
        <ele>1276.0</ele>
      </trkpt>
      <trkpt lat="42.93593" lon="1.40542">
        <ele>1282.0</ele>
      </trkpt>
      <trkpt lat="42.93673" lon="1.40669">
        <ele>1289.0</ele>
      </trkpt>
      <trkpt lat="42.93732" lon="1.40771">
        <ele>1294.0</ele>
      </trkpt>
      <trkpt lat="42.93809" lon="1.40817">
        <ele>1284.0</ele>
      </trkpt>
      <trkpt lat="42.93985" lon="1.40692">
        <ele>1257.0</ele>
      </trkpt>
      <trkpt lat="42.94064" lon="1.40693">
        <ele>1256.0</ele>
      </trkpt>
      <trkpt lat="42.94206" lon="1.40723">
        <ele>1261.0</ele>
      </trkpt>
      <trkpt lat="42.94355" lon="1.40752">
        <ele>1263.0</ele>
      </trkpt>
      <trkpt lat="42.94412" lon="1.4075">
        <ele>1261.0</ele>
      </trkpt>
      <trkpt lat="42.94457" lon="1.40695">
        <ele>1256.0</ele>
      </trkpt>
      <trkpt lat="42.94479" lon="1.40741">
        <ele>1254.0</ele>
      </trkpt>
      <trkpt lat="42.94546" lon="1.40892">
        <ele>1247.0</ele>
      </trkpt>
      <trkpt lat="42.94614" lon="1.40994">
        <ele>1239.0</ele>
      </trkpt>
      <trkpt lat="42.94666" lon="1.41215">
        <ele>1231.0</ele>
      </trkpt>
      <trkpt lat="42.94652" lon="1.41318">
        <ele>1224.0</ele>
      </trkpt>
      <trkpt lat="42.94701" lon="1.41456">
        <ele>1217.0</ele>
      </trkpt>
      <trkpt lat="42.94772" lon="1.41474">
        <ele>1214.0</ele>
      </trkpt>
      <trkpt lat="42.94946" lon="1.41599">
        <ele>1211.0</ele>
      </trkpt>
      <trkpt lat="42.95124" lon="1.41772">
        <ele>1194.0</ele>
      </trkpt>
      <trkpt lat="42.95268" lon="1.41923">
        <ele>1179.0</ele>
      </trkpt>
      <trkpt lat="42.95359" lon="1.41958">
        <ele>1160.0</ele>
      </trkpt>
      <trkpt lat="42.95394" lon="1.41997">
        <ele>1150.0</ele>
      </trkpt>
      <trkpt lat="42.95475" lon="1.42231">
        <ele>1137.0</ele>
      </trkpt>
      <trkpt lat="42.95483" lon="1.42328">
        <ele>1130.0</ele>
      </trkpt>
      <trkpt lat="42.95511" lon="1.42369">
        <ele>1126.0</ele>
      </trkpt>
      <trkpt lat="42.95652" lon="1.42404">
        <ele>1117.0</ele>
      </trkpt>
      <trkpt lat="42.95738" lon="1.42461">
        <ele>1104.0</ele>
      </trkpt>
      <trkpt lat="42.95795" lon="1.4243">
        <ele>1095.0</ele>
      </trkpt>
      <trkpt lat="42.95893" lon="1.42343">
        <ele>1074.0</ele>
      </trkpt>
      <trkpt lat="42.95992" lon="1.42337">
        <ele>1066.0</ele>
      </trkpt>
      <trkpt lat="42.96082" lon="1.42413">
        <ele>1074.0</ele>
      </trkpt>
      <trkpt lat="42.96186" lon="1.42606">
        <ele>1054.0</ele>
      </trkpt>
      <trkpt lat="42.96155" lon="1.42669">
        <ele>1049.0</ele>
      </trkpt>
      <trkpt lat="42.96096" lon="1.42784">
        <ele>1050.0</ele>
      </trkpt>
      <trkpt lat="42.96109" lon="1.42951">
        <ele>1041.0</ele>
      </trkpt>
      <trkpt lat="42.96123" lon="1.4316">
        <ele>1024.0</ele>
      </trkpt>
      <trkpt lat="42.96144" lon="1.4352">
        <ele>1009.0</ele>
      </trkpt>
      <trkpt lat="42.96133" lon="1.43654">
        <ele>994.0</ele>
      </trkpt>
      <trkpt lat="42.96124" lon="1.4388">
        <ele>983.0</ele>
      </trkpt>
      <trkpt lat="42.96143" lon="1.43982">
        <ele>975.0</ele>
      </trkpt>
      <trkpt lat="42.96094" lon="1.4425">
        <ele>966.0</ele>
      </trkpt>
      <trkpt lat="42.96038" lon="1.44372">
        <ele>961.0</ele>
      </trkpt>
      <trkpt lat="42.95984" lon="1.44558">
        <ele>947.0</ele>
      </trkpt>
      <trkpt lat="42.96018" lon="1.44644">
        <ele>943.0</ele>
      </trkpt>
      <trkpt lat="42.9603" lon="1.44738">
        <ele>941.0</ele>
      </trkpt>
      <trkpt lat="42.95965" lon="1.44796">
        <ele>939.0</ele>
      </trkpt>
      <trkpt lat="42.95826" lon="1.44937">
        <ele>927.0</ele>
      </trkpt>
      <trkpt lat="42.95777" lon="1.45084">
        <ele>921.0</ele>
      </trkpt>
      <trkpt lat="42.95733" lon="1.45138">
        <ele>917.0</ele>
      </trkpt>
      <trkpt lat="42.95668" lon="1.45121">
        <ele>912.0</ele>
      </trkpt>
      <trkpt lat="42.95555" lon="1.45348">
        <ele>904.0</ele>
      </trkpt>
      <trkpt lat="42.95565" lon="1.45498">
        <ele>905.0</ele>
      </trkpt>
      <trkpt lat="42.95558" lon="1.45564">
        <ele>903.0</ele>
      </trkpt>
      <trkpt lat="42.95422" lon="1.45713">
        <ele>892.0</ele>
      </trkpt>
      <trkpt lat="42.95309" lon="1.45682">
        <ele>885.0</ele>
      </trkpt>
      <trkpt lat="42.95151" lon="1.45669">
        <ele>875.0</ele>
      </trkpt>
      <trkpt lat="42.9503" lon="1.45773">
        <ele>867.0</ele>
      </trkpt>
      <trkpt lat="42.9499" lon="1.45929">
        <ele>860.0</ele>
      </trkpt>
      <trkpt lat="42.95049" lon="1.46069">
        <ele>860.0</ele>
      </trkpt>
      <trkpt lat="42.95087" lon="1.46135">
        <ele>859.0</ele>
      </trkpt>
      <trkpt lat="42.95004" lon="1.46329">
        <ele>843.0</ele>
      </trkpt>
      <trkpt lat="42.94943" lon="1.46527">
        <ele>823.0</ele>
      </trkpt>
      <trkpt lat="42.94886" lon="1.46636">
        <ele>815.0</ele>
      </trkpt>
      <trkpt lat="42.9487" lon="1.46876">
        <ele>805.0</ele>
      </trkpt>
      <trkpt lat="42.94892" lon="1.46949">
        <ele>799.0</ele>
      </trkpt>
      <trkpt lat="42.94956" lon="1.46937">
        <ele>795.0</ele>
      </trkpt>
      <trkpt lat="42.94998" lon="1.46983">
        <ele>790.0</ele>
      </trkpt>
      <trkpt lat="42.95044" lon="1.47011">
        <ele>783.0</ele>
      </trkpt>
      <trkpt lat="42.9506" lon="1.47046">
        <ele>779.0</ele>
      </trkpt>
      <trkpt lat="42.95015" lon="1.47207">
        <ele>768.0</ele>
      </trkpt>
      <trkpt lat="42.95028" lon="1.47343">
        <ele>758.0</ele>
      </trkpt>
      <trkpt lat="42.95117" lon="1.47433">
        <ele>752.0</ele>
      </trkpt>
      <trkpt lat="42.95254" lon="1.47593">
        <ele>741.0</ele>
      </trkpt>
      <trkpt lat="42.9532" lon="1.47665">
        <ele>731.0</ele>
      </trkpt>
      <trkpt lat="42.95376" lon="1.47627">
        <ele>723.0</ele>
      </trkpt>
      <trkpt lat="42.95401" lon="1.47692">
        <ele>714.0</ele>
      </trkpt>
      <trkpt lat="42.95451" lon="1.47705">
        <ele>705.0</ele>
      </trkpt>
      <trkpt lat="42.95474" lon="1.47778">
        <ele>694.0</ele>
      </trkpt>
      <trkpt lat="42.95378" lon="1.4801">
        <ele>684.0</ele>
      </trkpt>
      <trkpt lat="42.95377" lon="1.48081">
        <ele>681.0</ele>
      </trkpt>
      <trkpt lat="42.95419" lon="1.48074">
        <ele>681.0</ele>
      </trkpt>
      <trkpt lat="42.95456" lon="1.48103">
        <ele>681.0</ele>
      </trkpt>
      <trkpt lat="42.95518" lon="1.48287">
        <ele>672.0</ele>
      </trkpt>
      <trkpt lat="42.95498" lon="1.48431">
        <ele>659.0</ele>
      </trkpt>
      <trkpt lat="42.955" lon="1.4849">
        <ele>660.0</ele>
      </trkpt>
      <trkpt lat="42.95533" lon="1.48507">
        <ele>663.0</ele>
      </trkpt>
      <trkpt lat="42.95595" lon="1.48504">
        <ele>668.0</ele>
      </trkpt>
      <trkpt lat="42.95667" lon="1.48528">
        <ele>669.0</ele>
      </trkpt>
      <trkpt lat="42.95717" lon="1.48532">
        <ele>663.0</ele>
      </trkpt>
      <trkpt lat="42.95772" lon="1.48417">
        <ele>655.0</ele>
      </trkpt>
      <trkpt lat="42.95835" lon="1.48349">
        <ele>650.0</ele>
      </trkpt>
      <trkpt lat="42.95885" lon="1.48309">
        <ele>646.0</ele>
      </trkpt>
      <trkpt lat="42.95926" lon="1.48216">
        <ele>640.0</ele>
      </trkpt>
      <trkpt lat="42.95951" lon="1.48223">
        <ele>636.0</ele>
      </trkpt>
      <trkpt lat="42.95942" lon="1.48286">
        <ele>631.0</ele>
      </trkpt>
      <trkpt lat="42.95937" lon="1.48386">
        <ele>623.0</ele>
      </trkpt>
      <trkpt lat="42.95881" lon="1.48462">
        <ele>618.0</ele>
      </trkpt>
      <trkpt lat="42.95857" lon="1.48619">
        <ele>611.0</ele>
      </trkpt>
      <trkpt lat="42.9581" lon="1.48763">
        <ele>611.0</ele>
      </trkpt>
      <trkpt lat="42.95809" lon="1.48839">
        <ele>611.0</ele>
      </trkpt>
      <trkpt lat="42.95791" lon="1.48977">
        <ele>610.0</ele>
      </trkpt>
      <trkpt lat="42.95853" lon="1.49038">
        <ele>609.0</ele>
      </trkpt>
      <trkpt lat="42.95931" lon="1.49143">
        <ele>603.0</ele>
      </trkpt>
      <trkpt lat="42.96038" lon="1.49283">
        <ele>593.0</ele>
      </trkpt>
      <trkpt lat="42.9609" lon="1.49423">
        <ele>584.0</ele>
      </trkpt>
      <trkpt lat="42.96123" lon="1.49475">
        <ele>583.0</ele>
      </trkpt>
      <trkpt lat="42.96268" lon="1.49534">
        <ele>586.0</ele>
      </trkpt>
      <trkpt lat="42.96335" lon="1.49596">
        <ele>577.0</ele>
      </trkpt>
      <trkpt lat="42.96375" lon="1.49737">
        <ele>563.0</ele>
      </trkpt>
      <trkpt lat="42.96363" lon="1.4988">
        <ele>558.0</ele>
      </trkpt>
      <trkpt lat="42.96336" lon="1.50008">
        <ele>554.0</ele>
      </trkpt>
      <trkpt lat="42.96382" lon="1.50071">
        <ele>554.0</ele>
      </trkpt>
      <trkpt lat="42.9646" lon="1.50117">
        <ele>552.0</ele>
      </trkpt>
      <trkpt lat="42.96442" lon="1.50179">
        <ele>548.0</ele>
      </trkpt>
      <trkpt lat="42.9643" lon="1.50322">
        <ele>540.0</ele>
      </trkpt>
      <trkpt lat="42.96464" lon="1.50475">
        <ele>528.0</ele>
      </trkpt>
      <trkpt lat="42.96464" lon="1.50631">
        <ele>519.0</ele>
      </trkpt>
      <trkpt lat="42.96401" lon="1.50834">
        <ele>513.0</ele>
      </trkpt>
      <trkpt lat="42.96404" lon="1.5121">
        <ele>509.0</ele>
      </trkpt>
      <trkpt lat="42.9639" lon="1.51354">
        <ele>505.0</ele>
      </trkpt>
      <trkpt lat="42.9647" lon="1.51596">
        <ele>500.0</ele>
      </trkpt>
      <trkpt lat="42.96549" lon="1.51724">
        <ele>497.0</ele>
      </trkpt>
      <trkpt lat="42.96714" lon="1.52152">
        <ele>494.0</ele>
      </trkpt>
      <trkpt lat="42.96875" lon="1.5247">
        <ele>495.0</ele>
      </trkpt>
      <trkpt lat="42.96901" lon="1.52638">
        <ele>489.0</ele>
      </trkpt>
      <trkpt lat="42.96737" lon="1.52848">
        <ele>484.0</ele>
      </trkpt>
      <trkpt lat="42.96518" lon="1.53113">
        <ele>474.0</ele>
      </trkpt>
      <trkpt lat="42.96462" lon="1.5331">
        <ele>468.0</ele>
      </trkpt>
      <trkpt lat="42.96417" lon="1.53688">
        <ele>468.0</ele>
      </trkpt>
      <trkpt lat="42.964" lon="1.53891">
        <ele>473.0</ele>
      </trkpt>
      <trkpt lat="42.96459" lon="1.54048">
        <ele>472.0</ele>
      </trkpt>
      <trkpt lat="42.96459" lon="1.54397">
        <ele>465.0</ele>
      </trkpt>
      <trkpt lat="42.9639" lon="1.5471">
        <ele>461.0</ele>
      </trkpt>
      <trkpt lat="42.96365" lon="1.55053">
        <ele>455.0</ele>
      </trkpt>
      <trkpt lat="42.96211" lon="1.55351">
        <ele>448.0</ele>
      </trkpt>
      <trkpt lat="42.96201" lon="1.55645">
        <ele>446.0</ele>
      </trkpt>
      <trkpt lat="42.96075" lon="1.55943">
        <ele>445.0</ele>
      </trkpt>
      <trkpt lat="42.96111" lon="1.56452">
        <ele>447.0</ele>
      </trkpt>
      <trkpt lat="42.96092" lon="1.56695">
        <ele>448.0</ele>
      </trkpt>
      <trkpt lat="42.95922" lon="1.57155">
        <ele>443.0</ele>
      </trkpt>
      <trkpt lat="42.95964" lon="1.57386">
        <ele>441.0</ele>
      </trkpt>
      <trkpt lat="42.96064" lon="1.57608">
        <ele>431.0</ele>
      </trkpt>
      <trkpt lat="42.96025" lon="1.5774">
        <ele>432.0</ele>
      </trkpt>
      <trkpt lat="42.95963" lon="1.57849">
        <ele>436.0</ele>
      </trkpt>
      <trkpt lat="42.95914" lon="1.57989">
        <ele>436.0</ele>
      </trkpt>
      <trkpt lat="42.95984" lon="1.58089">
        <ele>434.0</ele>
      </trkpt>
      <trkpt lat="42.96051" lon="1.58503">
        <ele>436.0</ele>
      </trkpt>
      <trkpt lat="42.96009" lon="1.58738">
        <ele>437.0</ele>
      </trkpt>
      <trkpt lat="42.95871" lon="1.59014">
        <ele>435.0</ele>
      </trkpt>
      <trkpt lat="42.9583" lon="1.59232">
        <ele>433.0</ele>
      </trkpt>
      <trkpt lat="42.95844" lon="1.59325">
        <ele>430.0</ele>
      </trkpt>
      <trkpt lat="42.96009" lon="1.59211">
        <ele>427.0</ele>
      </trkpt>
      <trkpt lat="42.96154" lon="1.59297">
        <ele>425.0</ele>
      </trkpt>
      <trkpt lat="42.96343" lon="1.59618">
        <ele>400.0</ele>
      </trkpt>
      <trkpt lat="42.96449" lon="1.59734">
        <ele>396.0</ele>
      </trkpt>
      <trkpt lat="42.96434" lon="1.59825">
        <ele>399.0</ele>
      </trkpt>
      <trkpt lat="42.96446" lon="1.59936">
        <ele>401.0</ele>
      </trkpt>
      <trkpt lat="42.96448" lon="1.60162">
        <ele>401.0</ele>
      </trkpt>
      <trkpt lat="42.96443" lon="1.60282">
        <ele>395.0</ele>
      </trkpt>
      <trkpt lat="42.96373" lon="1.60366">
        <ele>393.0</ele>
      </trkpt>
      <trkpt lat="42.9634" lon="1.60403">
        <ele>395.0</ele>
      </trkpt>
      <trkpt lat="42.96363" lon="1.60508">
        <ele>397.0</ele>
      </trkpt>
      <trkpt lat="42.96372" lon="1.60606">
        <ele>397.0</ele>
      </trkpt>
    </trkseg>
  </trk>
</gpx>