<?xml version="1.0" encoding="UTF-8"?>
<gpx xmlns="http://www.topografix.com/GPX/1/0" xmlns:xsi="http://www.w3.org/2001/XMLSchema-instance" xsi:schemaLocation="http://www.topografix.com/GPX/1/0 http://www.topografix.com/GPX/1/0/gpx.xsd" version="1.0" creator="GPSBabel - https://www.gpsbabel.org">
  <time>2025-10-29T13:09:34.304000Z</time>
  <bounds minlat="45.32582" maxlat="45.76532" minlon="5.41954" maxlon="6.11443" />
  <trk>
    <trkseg>
      <trkpt lat="45.58726" lon="5.92223">
        <ele>364.0</ele>
      </trkpt>
      <trkpt lat="45.58823" lon="5.92164">
        <ele>367.0</ele>
      </trkpt>
      <trkpt lat="45.58841" lon="5.92146">
        <ele>369.0</ele>
      </trkpt>
      <trkpt lat="45.58963" lon="5.92061">
        <ele>371.0</ele>
      </trkpt>
      <trkpt lat="45.58984" lon="5.92057">
        <ele>372.0</ele>
      </trkpt>
      <trkpt lat="45.5908" lon="5.91992">
        <ele>372.0</ele>
      </trkpt>
      <trkpt lat="45.59119" lon="5.91943">
        <ele>372.0</ele>
      </trkpt>
      <trkpt lat="45.59171" lon="5.91946">
        <ele>372.0</ele>
      </trkpt>
      <trkpt lat="45.59203" lon="5.91919">
        <ele>372.0</ele>
      </trkpt>
      <trkpt lat="45.59247" lon="5.91905">
        <ele>372.0</ele>
      </trkpt>
      <trkpt lat="45.59314" lon="5.91854">
        <ele>369.0</ele>
      </trkpt>
      <trkpt lat="45.59388" lon="5.91818">
        <ele>366.0</ele>
      </trkpt>
      <trkpt lat="45.59523" lon="5.91762">
        <ele>364.0</ele>
      </trkpt>
      <trkpt lat="45.59749" lon="5.9165">
        <ele>360.0</ele>
      </trkpt>
      <trkpt lat="45.59914" lon="5.91546">
        <ele>358.0</ele>
      </trkpt>
      <trkpt lat="45.59934" lon="5.91544">
        <ele>358.0</ele>
      </trkpt>
      <trkpt lat="45.59951" lon="5.91523">
        <ele>358.0</ele>
      </trkpt>
      <trkpt lat="45.60149" lon="5.91416">
        <ele>360.0</ele>
      </trkpt>
      <trkpt lat="45.60168" lon="5.91424">
        <ele>361.0</ele>
      </trkpt>
      <trkpt lat="45.60315" lon="5.91328">
        <ele>363.0</ele>
      </trkpt>
      <trkpt lat="45.60434" lon="5.91267">
        <ele>369.0</ele>
      </trkpt>
      <trkpt lat="45.60597" lon="5.91174">
        <ele>373.0</ele>
      </trkpt>
      <trkpt lat="45.60814" lon="5.91069">
        <ele>372.0</ele>
      </trkpt>
      <trkpt lat="45.60961" lon="5.91077">
        <ele>369.0</ele>
      </trkpt>
      <trkpt lat="45.61046" lon="5.91049">
        <ele>368.0</ele>
      </trkpt>
      <trkpt lat="45.61356" lon="5.91041">
        <ele>367.0</ele>
      </trkpt>
      <trkpt lat="45.61543" lon="5.91056">
        <ele>370.0</ele>
      </trkpt>
      <trkpt lat="45.61686" lon="5.91079">
        <ele>369.0</ele>
      </trkpt>
      <trkpt lat="45.61915" lon="5.91092">
        <ele>368.0</ele>
      </trkpt>
      <trkpt lat="45.62307" lon="5.91136">
        <ele>356.0</ele>
      </trkpt>
      <trkpt lat="45.6284" lon="5.91437">
        <ele>321.0</ele>
      </trkpt>
      <trkpt lat="45.63224" lon="5.91356">
        <ele>297.0</ele>
      </trkpt>
      <trkpt lat="45.64021" lon="5.91144">
        <ele>277.0</ele>
      </trkpt>
      <trkpt lat="45.64285" lon="5.91106">
        <ele>271.0</ele>
      </trkpt>
      <trkpt lat="45.64352" lon="5.91063">
        <ele>271.0</ele>
      </trkpt>
      <trkpt lat="45.64682" lon="5.90977">
        <ele>273.0</ele>
      </trkpt>
      <trkpt lat="45.64737" lon="5.90961">
        <ele>274.0</ele>
      </trkpt>
      <trkpt lat="45.6483" lon="5.90934">
        <ele>276.0</ele>
      </trkpt>
      <trkpt lat="45.64853" lon="5.90809">
        <ele>276.0</ele>
      </trkpt>
      <trkpt lat="45.64839" lon="5.90665">
        <ele>279.0</ele>
      </trkpt>
      <trkpt lat="45.6484" lon="5.90574">
        <ele>281.0</ele>
      </trkpt>
      <trkpt lat="45.6485" lon="5.90541">
        <ele>281.0</ele>
      </trkpt>
      <trkpt lat="45.64865" lon="5.90522">
        <ele>279.0</ele>
      </trkpt>
      <trkpt lat="45.64887" lon="5.90461">
        <ele>274.0</ele>
      </trkpt>
      <trkpt lat="45.64876" lon="5.90419">
        <ele>270.0</ele>
      </trkpt>
      <trkpt lat="45.64882" lon="5.90378">
        <ele>266.0</ele>
      </trkpt>
      <trkpt lat="45.64948" lon="5.90414">
        <ele>262.0</ele>
      </trkpt>
      <trkpt lat="45.6498" lon="5.90412">
        <ele>259.0</ele>
      </trkpt>
      <trkpt lat="45.65004" lon="5.90374">
        <ele>257.0</ele>
      </trkpt>
      <trkpt lat="45.65" lon="5.9032">
        <ele>256.0</ele>
      </trkpt>
      <trkpt lat="45.6496" lon="5.90289">
        <ele>254.0</ele>
      </trkpt>
      <trkpt lat="45.64915" lon="5.90306">
        <ele>254.0</ele>
      </trkpt>
      <trkpt lat="45.64841" lon="5.9029">
        <ele>255.0</ele>
      </trkpt>
      <trkpt lat="45.64794" lon="5.9023">
        <ele>256.0</ele>
      </trkpt>
      <trkpt lat="45.64745" lon="5.90089">
        <ele>248.0</ele>
      </trkpt>
      <trkpt lat="45.64663" lon="5.8998">
        <ele>241.0</ele>
      </trkpt>
      <trkpt lat="45.64637" lon="5.89877">
        <ele>237.0</ele>
      </trkpt>
      <trkpt lat="45.64646" lon="5.89735">
        <ele>233.0</ele>
      </trkpt>
      <trkpt lat="45.64736" lon="5.89569">
        <ele>234.0</ele>
      </trkpt>
      <trkpt lat="45.64792" lon="5.89485">
        <ele>234.0</ele>
      </trkpt>
      <trkpt lat="45.64798" lon="5.89419">
        <ele>234.0</ele>
      </trkpt>
      <trkpt lat="45.64776" lon="5.89353">
        <ele>234.0</ele>
      </trkpt>
      <trkpt lat="45.64794" lon="5.89328">
        <ele>234.0</ele>
      </trkpt>
      <trkpt lat="45.6482" lon="5.89316">
        <ele>234.0</ele>
      </trkpt>
      <trkpt lat="45.6492" lon="5.8932">
        <ele>235.0</ele>
      </trkpt>
      <trkpt lat="45.65046" lon="5.89322">
        <ele>237.0</ele>
      </trkpt>
      <trkpt lat="45.6509" lon="5.89329">
        <ele>238.0</ele>
      </trkpt>
      <trkpt lat="45.65126" lon="5.89329">
        <ele>239.0</ele>
      </trkpt>
      <trkpt lat="45.65383" lon="5.89346">
        <ele>242.0</ele>
      </trkpt>
      <trkpt lat="45.65508" lon="5.8939">
        <ele>242.0</ele>
      </trkpt>
      <trkpt lat="45.65601" lon="5.89467">
        <ele>242.0</ele>
      </trkpt>
      <trkpt lat="45.65698" lon="5.89479">
        <ele>241.0</ele>
      </trkpt>
      <trkpt lat="45.65798" lon="5.89457">
        <ele>238.0</ele>
      </trkpt>
      <trkpt lat="45.66002" lon="5.89487">
        <ele>235.0</ele>
      </trkpt>
      <trkpt lat="45.66217" lon="5.89581">
        <ele>238.0</ele>
      </trkpt>
      <trkpt lat="45.66293" lon="5.89618">
        <ele>240.0</ele>
      </trkpt>
      <trkpt lat="45.66326" lon="5.89615">
        <ele>239.0</ele>
      </trkpt>
      <trkpt lat="45.66451" lon="5.89616">
        <ele>237.0</ele>
      </trkpt>
      <trkpt lat="45.66551" lon="5.89599">
        <ele>236.0</ele>
      </trkpt>
      <trkpt lat="45.66694" lon="5.89525">
        <ele>237.0</ele>
      </trkpt>
      <trkpt lat="45.66741" lon="5.89523">
        <ele>238.0</ele>
      </trkpt>
      <trkpt lat="45.6678" lon="5.89518">
        <ele>239.0</ele>
      </trkpt>
      <trkpt lat="45.66895" lon="5.89461">
        <ele>238.0</ele>
      </trkpt>
      <trkpt lat="45.6698" lon="5.89383">
        <ele>236.0</ele>
      </trkpt>
      <trkpt lat="45.67116" lon="5.89353">
        <ele>240.0</ele>
      </trkpt>
      <trkpt lat="45.67368" lon="5.89374">
        <ele>243.0</ele>
      </trkpt>
      <trkpt lat="45.67592" lon="5.89397">
        <ele>256.0</ele>
      </trkpt>
      <trkpt lat="45.67845" lon="5.89415">
        <ele>251.0</ele>
      </trkpt>
      <trkpt lat="45.68066" lon="5.89422">
        <ele>246.0</ele>
      </trkpt>
      <trkpt lat="45.68357" lon="5.89487">
        <ele>242.0</ele>
      </trkpt>
      <trkpt lat="45.68424" lon="5.89492">
        <ele>239.0</ele>
      </trkpt>
      <trkpt lat="45.68542" lon="5.89516">
        <ele>239.0</ele>
      </trkpt>
      <trkpt lat="45.68631" lon="5.89542">
        <ele>241.0</ele>
      </trkpt>
      <trkpt lat="45.68663" lon="5.89539">
        <ele>242.0</ele>
      </trkpt>
      <trkpt lat="45.69022" lon="5.89582">
        <ele>243.0</ele>
      </trkpt>
      <trkpt lat="45.69261" lon="5.89614">
        <ele>241.0</ele>
      </trkpt>
      <trkpt lat="45.69316" lon="5.89615">
        <ele>241.0</ele>
      </trkpt>
      <trkpt lat="45.69328" lon="5.89633">
        <ele>241.0</ele>
      </trkpt>
      <trkpt lat="45.69362" lon="5.897">
        <ele>241.0</ele>
      </trkpt>
      <trkpt lat="45.69402" lon="5.89792">
        <ele>240.0</ele>
      </trkpt>
      <trkpt lat="45.69427" lon="5.89956">
        <ele>240.0</ele>
      </trkpt>
      <trkpt lat="45.69417" lon="5.90011">
        <ele>239.0</ele>
      </trkpt>
      <trkpt lat="45.69424" lon="5.90039">
        <ele>239.0</ele>
      </trkpt>
      <trkpt lat="45.69451" lon="5.90163">
        <ele>239.0</ele>
      </trkpt>
      <trkpt lat="45.69473" lon="5.90332">
        <ele>239.0</ele>
      </trkpt>
      <trkpt lat="45.69514" lon="5.90674">
        <ele>239.0</ele>
      </trkpt>
      <trkpt lat="45.695" lon="5.90715">
        <ele>240.0</ele>
      </trkpt>
      <trkpt lat="45.6952" lon="5.90761">
        <ele>241.0</ele>
      </trkpt>
      <trkpt lat="45.69601" lon="5.90745">
        <ele>242.0</ele>
      </trkpt>
      <trkpt lat="45.69666" lon="5.90765">
        <ele>243.0</ele>
      </trkpt>
      <trkpt lat="45.69687" lon="5.90771">
        <ele>243.0</ele>
      </trkpt>
      <trkpt lat="45.69946" lon="5.90853">
        <ele>244.0</ele>
      </trkpt>
      <trkpt lat="45.70138" lon="5.90924">
        <ele>246.0</ele>
      </trkpt>
      <trkpt lat="45.70172" lon="5.90947">
        <ele>248.0</ele>
      </trkpt>
      <trkpt lat="45.7023" lon="5.90954">
        <ele>248.0</ele>
      </trkpt>
      <trkpt lat="45.70482" lon="5.91043">
        <ele>251.0</ele>
      </trkpt>
      <trkpt lat="45.70737" lon="5.91139">
        <ele>252.0</ele>
      </trkpt>
      <trkpt lat="45.70818" lon="5.91169">
        <ele>253.0</ele>
      </trkpt>
      <trkpt lat="45.70954" lon="5.91251">
        <ele>255.0</ele>
      </trkpt>
      <trkpt lat="45.71178" lon="5.91479">
        <ele>264.0</ele>
      </trkpt>
      <trkpt lat="45.71386" lon="5.91692">
        <ele>273.0</ele>
      </trkpt>
      <trkpt lat="45.71486" lon="5.91758">
        <ele>275.0</ele>
      </trkpt>
      <trkpt lat="45.71501" lon="5.91862">
        <ele>275.0</ele>
      </trkpt>
      <trkpt lat="45.71496" lon="5.91886">
        <ele>274.0</ele>
      </trkpt>
      <trkpt lat="45.71505" lon="5.91899">
        <ele>274.0</ele>
      </trkpt>
      <trkpt lat="45.71557" lon="5.91988">
        <ele>274.0</ele>
      </trkpt>
      <trkpt lat="45.7182" lon="5.92214">
        <ele>285.0</ele>
      </trkpt>
      <trkpt lat="45.71838" lon="5.92223">
        <ele>286.0</ele>
      </trkpt>
      <trkpt lat="45.71924" lon="5.92256">
        <ele>288.0</ele>
      </trkpt>
      <trkpt lat="45.72039" lon="5.92307">
        <ele>289.0</ele>
      </trkpt>
      <trkpt lat="45.72178" lon="5.92313">
        <ele>292.0</ele>
      </trkpt>
      <trkpt lat="45.72246" lon="5.92327">
        <ele>293.0</ele>
      </trkpt>
      <trkpt lat="45.72286" lon="5.92435">
        <ele>293.0</ele>
      </trkpt>
      <trkpt lat="45.72321" lon="5.92607">
        <ele>295.0</ele>
      </trkpt>
      <trkpt lat="45.72382" lon="5.92776">
        <ele>299.0</ele>
      </trkpt>
      <trkpt lat="45.72399" lon="5.9285">
        <ele>301.0</ele>
      </trkpt>
      <trkpt lat="45.7242" lon="5.92986">
        <ele>305.0</ele>
      </trkpt>
      <trkpt lat="45.72481" lon="5.93134">
        <ele>308.0</ele>
      </trkpt>
      <trkpt lat="45.72494" lon="5.933">
        <ele>309.0</ele>
      </trkpt>
      <trkpt lat="45.72545" lon="5.93399">
        <ele>309.0</ele>
      </trkpt>
      <trkpt lat="45.72592" lon="5.93476">
        <ele>314.0</ele>
      </trkpt>
      <trkpt lat="45.72602" lon="5.93592">
        <ele>324.0</ele>
      </trkpt>
      <trkpt lat="45.72671" lon="5.93788">
        <ele>334.0</ele>
      </trkpt>
      <trkpt lat="45.72646" lon="5.93931">
        <ele>336.0</ele>
      </trkpt>
      <trkpt lat="45.72707" lon="5.94186">
        <ele>342.0</ele>
      </trkpt>
      <trkpt lat="45.72689" lon="5.9435">
        <ele>349.0</ele>
      </trkpt>
      <trkpt lat="45.72712" lon="5.94455">
        <ele>353.0</ele>
      </trkpt>
      <trkpt lat="45.72716" lon="5.94597">
        <ele>355.0</ele>
      </trkpt>
      <trkpt lat="45.72795" lon="5.94677">
        <ele>357.0</ele>
      </trkpt>
      <trkpt lat="45.72861" lon="5.94802">
        <ele>359.0</ele>
      </trkpt>
      <trkpt lat="45.72926" lon="5.94862">
        <ele>359.0</ele>
      </trkpt>
      <trkpt lat="45.72959" lon="5.94995">
        <ele>356.0</ele>
      </trkpt>
      <trkpt lat="45.73009" lon="5.95033">
        <ele>355.0</ele>
      </trkpt>
      <trkpt lat="45.73072" lon="5.95128">
        <ele>356.0</ele>
      </trkpt>
      <trkpt lat="45.73119" lon="5.95309">
        <ele>359.0</ele>
      </trkpt>
      <trkpt lat="45.73172" lon="5.95512">
        <ele>369.0</ele>
      </trkpt>
      <trkpt lat="45.73195" lon="5.95699">
        <ele>373.0</ele>
      </trkpt>
      <trkpt lat="45.73214" lon="5.95781">
        <ele>372.0</ele>
      </trkpt>
      <trkpt lat="45.73224" lon="5.95937">
        <ele>368.0</ele>
      </trkpt>
      <trkpt lat="45.73291" lon="5.96025">
        <ele>368.0</ele>
      </trkpt>
      <trkpt lat="45.73314" lon="5.96163">
        <ele>376.0</ele>
      </trkpt>
      <trkpt lat="45.7335" lon="5.96242">
        <ele>380.0</ele>
      </trkpt>
      <trkpt lat="45.73371" lon="5.96354">
        <ele>380.0</ele>
      </trkpt>
      <trkpt lat="45.73416" lon="5.96446">
        <ele>380.0</ele>
      </trkpt>
      <trkpt lat="45.73584" lon="5.96605">
        <ele>401.0</ele>
      </trkpt>
      <trkpt lat="45.73731" lon="5.96777">
        <ele>394.0</ele>
      </trkpt>
      <trkpt lat="45.73814" lon="5.96821">
        <ele>397.0</ele>
      </trkpt>
      <trkpt lat="45.73896" lon="5.96874">
        <ele>403.0</ele>
      </trkpt>
      <trkpt lat="45.73988" lon="5.96912">
        <ele>405.0</ele>
      </trkpt>
      <trkpt lat="45.74067" lon="5.97012">
        <ele>407.0</ele>
      </trkpt>
      <trkpt lat="45.74068" lon="5.97087">
        <ele>407.0</ele>
      </trkpt>
      <trkpt lat="45.74092" lon="5.9722">
        <ele>407.0</ele>
      </trkpt>
      <trkpt lat="45.74218" lon="5.9752">
        <ele>408.0</ele>
      </trkpt>
      <trkpt lat="45.74287" lon="5.97601">
        <ele>419.0</ele>
      </trkpt>
      <trkpt lat="45.74345" lon="5.97694">
        <ele>427.0</ele>
      </trkpt>
      <trkpt lat="45.7439" lon="5.97795">
        <ele>440.0</ele>
      </trkpt>
      <trkpt lat="45.74413" lon="5.97968">
        <ele>454.0</ele>
      </trkpt>
      <trkpt lat="45.74468" lon="5.98001">
        <ele>456.0</ele>
      </trkpt>
      <trkpt lat="45.74601" lon="5.9834">
        <ele>459.0</ele>
      </trkpt>
      <trkpt lat="45.74641" lon="5.98526">
        <ele>467.0</ele>
      </trkpt>
      <trkpt lat="45.74765" lon="5.9876">
        <ele>481.0</ele>
      </trkpt>
      <trkpt lat="45.74828" lon="5.98922">
        <ele>490.0</ele>
      </trkpt>
      <trkpt lat="45.74861" lon="5.99065">
        <ele>497.0</ele>
      </trkpt>
      <trkpt lat="45.74973" lon="5.99245">
        <ele>503.0</ele>
      </trkpt>
      <trkpt lat="45.75024" lon="5.99345">
        <ele>507.0</ele>
      </trkpt>
      <trkpt lat="45.75099" lon="5.9956">
        <ele>511.0</ele>
      </trkpt>
      <trkpt lat="45.75124" lon="5.9976">
        <ele>517.0</ele>
      </trkpt>
      <trkpt lat="45.75316" lon="6.0003">
        <ele>523.0</ele>
      </trkpt>
      <trkpt lat="45.75667" lon="6.00413">
        <ele>532.0</ele>
      </trkpt>
      <trkpt lat="45.75811" lon="6.00787">
        <ele>534.0</ele>
      </trkpt>
      <trkpt lat="45.76018" lon="6.01478">
        <ele>534.0</ele>
      </trkpt>
      <trkpt lat="45.7619" lon="6.02214">
        <ele>544.0</ele>
      </trkpt>
      <trkpt lat="45.76204" lon="6.02342">
        <ele>548.0</ele>
      </trkpt>
      <trkpt lat="45.76203" lon="6.025">
        <ele>551.0</ele>
      </trkpt>
      <trkpt lat="45.76259" lon="6.02651">
        <ele>552.0</ele>
      </trkpt>
      <trkpt lat="45.76299" lon="6.02729">
        <ele>552.0</ele>
      </trkpt>
      <trkpt lat="45.76358" lon="6.02817">
        <ele>551.0</ele>
      </trkpt>
      <trkpt lat="45.76467" lon="6.02956">
        <ele>551.0</ele>
      </trkpt>
      <trkpt lat="45.76503" lon="6.03026">
        <ele>551.0</ele>
      </trkpt>
      <trkpt lat="45.76481" lon="6.03148">
        <ele>552.0</ele>
      </trkpt>
      <trkpt lat="45.76487" lon="6.03272">
        <ele>555.0</ele>
      </trkpt>
      <trkpt lat="45.76494" lon="6.03515">
        <ele>561.0</ele>
      </trkpt>
      <trkpt lat="45.76519" lon="6.0379">
        <ele>569.0</ele>
      </trkpt>
      <trkpt lat="45.7653" lon="6.03953">
        <ele>577.0</ele>
      </trkpt>
      <trkpt lat="45.76499" lon="6.0412">
        <ele>583.0</ele>
      </trkpt>
      <trkpt lat="45.7642" lon="6.0442">
        <ele>588.0</ele>
      </trkpt>
      <trkpt lat="45.76401" lon="6.04642">
        <ele>593.0</ele>
      </trkpt>
      <trkpt lat="45.76379" lon="6.04801">
        <ele>594.0</ele>
      </trkpt>
      <trkpt lat="45.76322" lon="6.0498">
        <ele>596.0</ele>
      </trkpt>
      <trkpt lat="45.76222" lon="6.05265">
        <ele>605.0</ele>
      </trkpt>
      <trkpt lat="45.76128" lon="6.05354">
        <ele>611.0</ele>
      </trkpt>
      <trkpt lat="45.76049" lon="6.05543">
        <ele>613.0</ele>
      </trkpt>
      <trkpt lat="45.75986" lon="6.05558">
        <ele>615.0</ele>
      </trkpt>
      <trkpt lat="45.75931" lon="6.05613">
        <ele>617.0</ele>
      </trkpt>
      <trkpt lat="45.75875" lon="6.05798">
        <ele>622.0</ele>
      </trkpt>
      <trkpt lat="45.75739" lon="6.0583">
        <ele>620.0</ele>
      </trkpt>
      <trkpt lat="45.75613" lon="6.05983">
        <ele>612.0</ele>
      </trkpt>
      <trkpt lat="45.75462" lon="6.06051">
        <ele>612.0</ele>
      </trkpt>
      <trkpt lat="45.75389" lon="6.06137">
        <ele>615.0</ele>
      </trkpt>
      <trkpt lat="45.75268" lon="6.06184">
        <ele>617.0</ele>
      </trkpt>
      <trkpt lat="45.75164" lon="6.06412">
        <ele>614.0</ele>
      </trkpt>
      <trkpt lat="45.75059" lon="6.0658">
        <ele>611.0</ele>
      </trkpt>
      <trkpt lat="45.74963" lon="6.06762">
        <ele>611.0</ele>
      </trkpt>
      <trkpt lat="45.74886" lon="6.07037">
        <ele>611.0</ele>
      </trkpt>
      <trkpt lat="45.74811" lon="6.07194">
        <ele>610.0</ele>
      </trkpt>
      <trkpt lat="45.7482" lon="6.07349">
        <ele>607.0</ele>
      </trkpt>
      <trkpt lat="45.74742" lon="6.07641">
        <ele>604.0</ele>
      </trkpt>
      <trkpt lat="45.74706" lon="6.07871">
        <ele>598.0</ele>
      </trkpt>
      <trkpt lat="45.74682" lon="6.08078">
        <ele>595.0</ele>
      </trkpt>
      <trkpt lat="45.74649" lon="6.08228">
        <ele>598.0</ele>
      </trkpt>
      <trkpt lat="45.74643" lon="6.08422">
        <ele>589.0</ele>
      </trkpt>
      <trkpt lat="45.74618" lon="6.08601">
        <ele>579.0</ele>
      </trkpt>
      <trkpt lat="45.74645" lon="6.08807">
        <ele>571.0</ele>
      </trkpt>
      <trkpt lat="45.74598" lon="6.09021">
        <ele>573.0</ele>
      </trkpt>
      <trkpt lat="45.74536" lon="6.09234">
        <ele>569.0</ele>
      </trkpt>
      <trkpt lat="45.74468" lon="6.09372">
        <ele>565.0</ele>
      </trkpt>
      <trkpt lat="45.74452" lon="6.0951">
        <ele>562.0</ele>
      </trkpt>
      <trkpt lat="45.74287" lon="6.09739">
        <ele>563.0</ele>
      </trkpt>
      <trkpt lat="45.7401" lon="6.09822">
        <ele>569.0</ele>
      </trkpt>
      <trkpt lat="45.73514" lon="6.0981">
        <ele>565.0</ele>
      </trkpt>
      <trkpt lat="45.73328" lon="6.09703">
        <ele>569.0</ele>
      </trkpt>
      <trkpt lat="45.72952" lon="6.09521">
        <ele>576.0</ele>
      </trkpt>
      <trkpt lat="45.72828" lon="6.09564">
        <ele>582.0</ele>
      </trkpt>
      <trkpt lat="45.72629" lon="6.0954">
        <ele>581.0</ele>
      </trkpt>
      <trkpt lat="45.72545" lon="6.09494">
        <ele>582.0</ele>
      </trkpt>
      <trkpt lat="45.72474" lon="6.09544">
        <ele>587.0</ele>
      </trkpt>
      <trkpt lat="45.72252" lon="6.09869">
        <ele>603.0</ele>
      </trkpt>
      <trkpt lat="45.72213" lon="6.0992">
        <ele>607.0</ele>
      </trkpt>
      <trkpt lat="45.72206" lon="6.09999">
        <ele>608.0</ele>
      </trkpt>
      <trkpt lat="45.7224" lon="6.10104">
        <ele>610.0</ele>
      </trkpt>
      <trkpt lat="45.72264" lon="6.10162">
        <ele>610.0</ele>
      </trkpt>
      <trkpt lat="45.72249" lon="6.10227">
        <ele>611.0</ele>
      </trkpt>
      <trkpt lat="45.7218" lon="6.10322">
        <ele>610.0</ele>
      </trkpt>
      <trkpt lat="45.72204" lon="6.10416">
        <ele>607.0</ele>
      </trkpt>
      <trkpt lat="45.72228" lon="6.10471">
        <ele>603.0</ele>
      </trkpt>
      <trkpt lat="45.7215" lon="6.10384">
        <ele>601.0</ele>
      </trkpt>
      <trkpt lat="45.72115" lon="6.10336">
        <ele>599.0</ele>
      </trkpt>
      <trkpt lat="45.72146" lon="6.10417">
        <ele>598.0</ele>
      </trkpt>
      <trkpt lat="45.72144" lon="6.10493">
        <ele>593.0</ele>
      </trkpt>
      <trkpt lat="45.71998" lon="6.10591">
        <ele>583.0</ele>
      </trkpt>
      <trkpt lat="45.71892" lon="6.10648">
        <ele>582.0</ele>
      </trkpt>
      <trkpt lat="45.71853" lon="6.10673">
        <ele>583.0</ele>
      </trkpt>
      <trkpt lat="45.71705" lon="6.1072">
        <ele>585.0</ele>
      </trkpt>
      <trkpt lat="45.71636" lon="6.10733">
        <ele>585.0</ele>
      </trkpt>
      <trkpt lat="45.71575" lon="6.10683">
        <ele>585.0</ele>
      </trkpt>
      <trkpt lat="45.71476" lon="6.10623">
        <ele>586.0</ele>
      </trkpt>
      <trkpt lat="45.71423" lon="6.10614">
        <ele>588.0</ele>
      </trkpt>
      <trkpt lat="45.7139" lon="6.10546">
        <ele>590.0</ele>
      </trkpt>
      <trkpt lat="45.71298" lon="6.1043">
        <ele>597.0</ele>
      </trkpt>
      <trkpt lat="45.71227" lon="6.10458">
        <ele>605.0</ele>
      </trkpt>
      <trkpt lat="45.71202" lon="6.10453">
        <ele>609.0</ele>
      </trkpt>
      <trkpt lat="45.71242" lon="6.10392">
        <ele>613.0</ele>
      </trkpt>
      <trkpt lat="45.71288" lon="6.10384">
        <ele>617.0</ele>
      </trkpt>
      <trkpt lat="45.71293" lon="6.1036">
        <ele>620.0</ele>
      </trkpt>
      <trkpt lat="45.7117" lon="6.10384">
        <ele>627.0</ele>
      </trkpt>
      <trkpt lat="45.71063" lon="6.10404">
        <ele>632.0</ele>
      </trkpt>
      <trkpt lat="45.71005" lon="6.104">
        <ele>635.0</ele>
      </trkpt>
      <trkpt lat="45.70942" lon="6.10461">
        <ele>639.0</ele>
      </trkpt>
      <trkpt lat="45.70872" lon="6.10505">
        <ele>644.0</ele>
      </trkpt>
      <trkpt lat="45.70805" lon="6.1058">
        <ele>648.0</ele>
      </trkpt>
      <trkpt lat="45.70724" lon="6.10595">
        <ele>651.0</ele>
      </trkpt>
      <trkpt lat="45.70676" lon="6.10607">
        <ele>653.0</ele>
      </trkpt>
      <trkpt lat="45.70478" lon="6.1054">
        <ele>665.0</ele>
      </trkpt>
      <trkpt lat="45.70235" lon="6.1063">
        <ele>676.0</ele>
      </trkpt>
      <trkpt lat="45.70122" lon="6.10621">
        <ele>684.0</ele>
      </trkpt>
      <trkpt lat="45.69947" lon="6.1097">
        <ele>690.0</ele>
      </trkpt>
      <trkpt lat="45.69828" lon="6.11005">
        <ele>691.0</ele>
      </trkpt>
      <trkpt lat="45.69755" lon="6.11047">
        <ele>698.0</ele>
      </trkpt>
      <trkpt lat="45.69728" lon="6.11193">
        <ele>708.0</ele>
      </trkpt>
      <trkpt lat="45.69737" lon="6.11325">
        <ele>705.0</ele>
      </trkpt>
      <trkpt lat="45.69714" lon="6.1142">
        <ele>700.0</ele>
      </trkpt>
      <trkpt lat="45.69573" lon="6.11429">
        <ele>698.0</ele>
      </trkpt>
      <trkpt lat="45.69381" lon="6.1136">
        <ele>697.0</ele>
      </trkpt>
      <trkpt lat="45.69186" lon="6.11253">
        <ele>693.0</ele>
      </trkpt>
      <trkpt lat="45.69081" lon="6.11179">
        <ele>694.0</ele>
      </trkpt>
      <trkpt lat="45.68943" lon="6.11117">
        <ele>697.0</ele>
      </trkpt>
      <trkpt lat="45.68802" lon="6.10981">
        <ele>704.0</ele>
      </trkpt>
      <trkpt lat="45.68434" lon="6.10689">
        <ele>724.0</ele>
      </trkpt>
      <trkpt lat="45.68046" lon="6.10415">
        <ele>737.0</ele>
      </trkpt>
      <trkpt lat="45.6789" lon="6.10276">
        <ele>745.0</ele>
      </trkpt>
      <trkpt lat="45.67668" lon="6.1012">
        <ele>756.0</ele>
      </trkpt>
      <trkpt lat="45.67528" lon="6.09963">
        <ele>767.0</ele>
      </trkpt>
      <trkpt lat="45.67451" lon="6.09882">
        <ele>777.0</ele>
      </trkpt>
      <trkpt lat="45.67221" lon="6.09674">
        <ele>787.0</ele>
      </trkpt>
      <trkpt lat="45.66981" lon="6.09519">
        <ele>790.0</ele>
      </trkpt>
      <trkpt lat="45.66817" lon="6.09457">
        <ele>789.0</ele>
      </trkpt>
      <trkpt lat="45.66693" lon="6.09356">
        <ele>795.0</ele>
      </trkpt>
      <trkpt lat="45.66523" lon="6.09226">
        <ele>798.0</ele>
      </trkpt>
      <trkpt lat="45.66454" lon="6.09176">
        <ele>802.0</ele>
      </trkpt>
      <trkpt lat="45.66359" lon="6.09109">
        <ele>806.0</ele>
      </trkpt>
      <trkpt lat="45.66245" lon="6.09068">
        <ele>812.0</ele>
      </trkpt>
      <trkpt lat="45.66126" lon="6.08976">
        <ele>816.0</ele>
      </trkpt>
      <trkpt lat="45.65972" lon="6.0896">
        <ele>813.0</ele>
      </trkpt>
      <trkpt lat="45.65806" lon="6.08837">
        <ele>815.0</ele>
      </trkpt>
      <trkpt lat="45.65588" lon="6.08749">
        <ele>821.0</ele>
      </trkpt>
      <trkpt lat="45.65445" lon="6.08721">
        <ele>825.0</ele>
      </trkpt>
      <trkpt lat="45.65256" lon="6.0869">
        <ele>832.0</ele>
      </trkpt>
      <trkpt lat="45.65157" lon="6.08693">
        <ele>842.0</ele>
      </trkpt>
      <trkpt lat="45.6492" lon="6.08584">
        <ele>857.0</ele>
      </trkpt>
      <trkpt lat="45.64836" lon="6.08537">
        <ele>862.0</ele>
      </trkpt>
      <trkpt lat="45.64656" lon="6.08508">
        <ele>866.0</ele>
      </trkpt>
      <trkpt lat="45.64351" lon="6.08477">
        <ele>875.0</ele>
      </trkpt>
      <trkpt lat="45.64095" lon="6.08449">
        <ele>884.0</ele>
      </trkpt>
      <trkpt lat="45.6399" lon="6.08371">
        <ele>889.0</ele>
      </trkpt>
      <trkpt lat="45.63872" lon="6.08343">
        <ele>895.0</ele>
      </trkpt>
      <trkpt lat="45.63768" lon="6.08318">
        <ele>895.0</ele>
      </trkpt>
      <trkpt lat="45.63682" lon="6.08381">
        <ele>892.0</ele>
      </trkpt>
      <trkpt lat="45.63595" lon="6.0833">
        <ele>895.0</ele>
      </trkpt>
      <trkpt lat="45.63425" lon="6.08308">
        <ele>900.0</ele>
      </trkpt>
      <trkpt lat="45.633" lon="6.08286">
        <ele>899.0</ele>
      </trkpt>
      <trkpt lat="45.6314" lon="6.08223">
        <ele>900.0</ele>
      </trkpt>
      <trkpt lat="45.62971" lon="6.08197">
        <ele>899.0</ele>
      </trkpt>
      <trkpt lat="45.62703" lon="6.08129">
        <ele>897.0</ele>
      </trkpt>
      <trkpt lat="45.62624" lon="6.08126">
        <ele>895.0</ele>
      </trkpt>
      <trkpt lat="45.6248" lon="6.08091">
        <ele>895.0</ele>
      </trkpt>
      <trkpt lat="45.62377" lon="6.08127">
        <ele>898.0</ele>
      </trkpt>
      <trkpt lat="45.62241" lon="6.0812">
        <ele>899.0</ele>
      </trkpt>
      <trkpt lat="45.62092" lon="6.08009">
        <ele>899.0</ele>
      </trkpt>
      <trkpt lat="45.6203" lon="6.0801">
        <ele>898.0</ele>
      </trkpt>
      <trkpt lat="45.61944" lon="6.0801">
        <ele>897.0</ele>
      </trkpt>
      <trkpt lat="45.61803" lon="6.08">
        <ele>900.0</ele>
      </trkpt>
      <trkpt lat="45.61683" lon="6.07974">
        <ele>904.0</ele>
      </trkpt>
      <trkpt lat="45.61512" lon="6.07813">
        <ele>912.0</ele>
      </trkpt>
      <trkpt lat="45.61474" lon="6.07759">
        <ele>916.0</ele>
      </trkpt>
      <trkpt lat="45.61473" lon="6.07625">
        <ele>921.0</ele>
      </trkpt>
      <trkpt lat="45.61403" lon="6.07377">
        <ele>933.0</ele>
      </trkpt>
      <trkpt lat="45.61306" lon="6.07208">
        <ele>945.0</ele>
      </trkpt>
      <trkpt lat="45.61272" lon="6.07166">
        <ele>951.0</ele>
      </trkpt>
      <trkpt lat="45.61335" lon="6.07166">
        <ele>956.0</ele>
      </trkpt>
      <trkpt lat="45.61443" lon="6.07229">
        <ele>965.0</ele>
      </trkpt>
      <trkpt lat="45.61489" lon="6.07248">
        <ele>973.0</ele>
      </trkpt>
      <trkpt lat="45.61396" lon="6.07117">
        <ele>981.0</ele>
      </trkpt>
      <trkpt lat="45.61122" lon="6.06876">
        <ele>1006.0</ele>
      </trkpt>
      <trkpt lat="45.60898" lon="6.06689">
        <ele>1029.0</ele>
      </trkpt>
      <trkpt lat="45.60755" lon="6.06599">
        <ele>1043.0</ele>
      </trkpt>
      <trkpt lat="45.60664" lon="6.06557">
        <ele>1050.0</ele>
      </trkpt>
      <trkpt lat="45.60514" lon="6.06516">
        <ele>1062.0</ele>
      </trkpt>
      <trkpt lat="45.60341" lon="6.06261">
        <ele>1081.0</ele>
      </trkpt>
      <trkpt lat="45.6023" lon="6.06207">
        <ele>1092.0</ele>
      </trkpt>
      <trkpt lat="45.6001" lon="6.06122">
        <ele>1110.0</ele>
      </trkpt>
      <trkpt lat="45.5993" lon="6.06069">
        <ele>1120.0</ele>
      </trkpt>
      <trkpt lat="45.59639" lon="6.06008">
        <ele>1133.0</ele>
      </trkpt>
      <trkpt lat="45.59451" lon="6.05967">
        <ele>1134.0</ele>
      </trkpt>
      <trkpt lat="45.59131" lon="6.05896">
        <ele>1131.0</ele>
      </trkpt>
      <trkpt lat="45.58992" lon="6.05939">
        <ele>1126.0</ele>
      </trkpt>
      <trkpt lat="45.58911" lon="6.06029">
        <ele>1123.0</ele>
      </trkpt>
      <trkpt lat="45.58847" lon="6.06066">
        <ele>1117.0</ele>
      </trkpt>
      <trkpt lat="45.58772" lon="6.06085">
        <ele>1111.0</ele>
      </trkpt>
      <trkpt lat="45.58649" lon="6.06108">
        <ele>1100.0</ele>
      </trkpt>
      <trkpt lat="45.58541" lon="6.06163">
        <ele>1088.0</ele>
      </trkpt>
      <trkpt lat="45.58461" lon="6.06165">
        <ele>1085.0</ele>
      </trkpt>
      <trkpt lat="45.58367" lon="6.06163">
        <ele>1082.0</ele>
      </trkpt>
      <trkpt lat="45.58297" lon="6.06216">
        <ele>1072.0</ele>
      </trkpt>
      <trkpt lat="45.58253" lon="6.06192">
        <ele>1064.0</ele>
      </trkpt>
      <trkpt lat="45.58166" lon="6.06215">
        <ele>1055.0</ele>
      </trkpt>
      <trkpt lat="45.58057" lon="6.06186">
        <ele>1045.0</ele>
      </trkpt>
      <trkpt lat="45.58033" lon="6.06119">
        <ele>1039.0</ele>
      </trkpt>
      <trkpt lat="45.57967" lon="6.06056">
        <ele>1033.0</ele>
      </trkpt>
      <trkpt lat="45.57903" lon="6.0595">
        <ele>1024.0</ele>
      </trkpt>
      <trkpt lat="45.57888" lon="6.05822">
        <ele>1014.0</ele>
      </trkpt>
      <trkpt lat="45.57964" lon="6.05478">
        <ele>993.0</ele>
      </trkpt>
      <trkpt lat="45.58047" lon="6.05204">
        <ele>974.0</ele>
      </trkpt>
      <trkpt lat="45.58066" lon="6.05145">
        <ele>959.0</ele>
      </trkpt>
      <trkpt lat="45.58037" lon="6.05179">
        <ele>954.0</ele>
      </trkpt>
      <trkpt lat="45.5797" lon="6.05321">
        <ele>944.0</ele>
      </trkpt>
      <trkpt lat="45.57897" lon="6.05446">
        <ele>934.0</ele>
      </trkpt>
      <trkpt lat="45.57885" lon="6.05428">
        <ele>931.0</ele>
      </trkpt>
      <trkpt lat="45.57934" lon="6.05287">
        <ele>922.0</ele>
      </trkpt>
      <trkpt lat="45.57967" lon="6.05117">
        <ele>912.0</ele>
      </trkpt>
      <trkpt lat="45.58074" lon="6.0499">
        <ele>899.0</ele>
      </trkpt>
      <trkpt lat="45.58086" lon="6.04926">
        <ele>894.0</ele>
      </trkpt>
      <trkpt lat="45.58108" lon="6.04824">
        <ele>888.0</ele>
      </trkpt>
      <trkpt lat="45.58122" lon="6.04732">
        <ele>879.0</ele>
      </trkpt>
      <trkpt lat="45.58165" lon="6.04659">
        <ele>870.0</ele>
      </trkpt>
      <trkpt lat="45.58216" lon="6.04568">
        <ele>860.0</ele>
      </trkpt>
      <trkpt lat="45.58281" lon="6.04455">
        <ele>853.0</ele>
      </trkpt>
      <trkpt lat="45.58394" lon="6.04393">
        <ele>846.0</ele>
      </trkpt>
      <trkpt lat="45.58418" lon="6.04309">
        <ele>840.0</ele>
      </trkpt>
      <trkpt lat="45.58441" lon="6.04286">
        <ele>836.0</ele>
      </trkpt>
      <trkpt lat="45.58471" lon="6.04285">
        <ele>832.0</ele>
      </trkpt>
      <trkpt lat="45.58453" lon="6.0419">
        <ele>822.0</ele>
      </trkpt>
      <trkpt lat="45.58414" lon="6.04101">
        <ele>805.0</ele>
      </trkpt>
      <trkpt lat="45.58488" lon="6.04073">
        <ele>798.0</ele>
      </trkpt>
      <trkpt lat="45.58516" lon="6.04039">
        <ele>793.0</ele>
      </trkpt>
      <trkpt lat="45.58497" lon="6.03986">
        <ele>790.0</ele>
      </trkpt>
      <trkpt lat="45.58558" lon="6.03914">
        <ele>787.0</ele>
      </trkpt>
      <trkpt lat="45.586" lon="6.03887">
        <ele>787.0</ele>
      </trkpt>
      <trkpt lat="45.58636" lon="6.03784">
        <ele>787.0</ele>
      </trkpt>
      <trkpt lat="45.58639" lon="6.03746">
        <ele>785.0</ele>
      </trkpt>
      <trkpt lat="45.58606" lon="6.03759">
        <ele>783.0</ele>
      </trkpt>
      <trkpt lat="45.58579" lon="6.03845">
        <ele>780.0</ele>
      </trkpt>
      <trkpt lat="45.58443" lon="6.03885">
        <ele>774.0</ele>
      </trkpt>
      <trkpt lat="45.58404" lon="6.03935">
        <ele>766.0</ele>
      </trkpt>
      <trkpt lat="45.58346" lon="6.03955">
        <ele>762.0</ele>
      </trkpt>
      <trkpt lat="45.58317" lon="6.03969">
        <ele>759.0</ele>
      </trkpt>
      <trkpt lat="45.58313" lon="6.03942">
        <ele>757.0</ele>
      </trkpt>
      <trkpt lat="45.58369" lon="6.03901">
        <ele>753.0</ele>
      </trkpt>
      <trkpt lat="45.58458" lon="6.03789">
        <ele>744.0</ele>
      </trkpt>
      <trkpt lat="45.58479" lon="6.03705">
        <ele>737.0</ele>
      </trkpt>
      <trkpt lat="45.58564" lon="6.03524">
        <ele>727.0</ele>
      </trkpt>
      <trkpt lat="45.5855" lon="6.03497">
        <ele>722.0</ele>
      </trkpt>
      <trkpt lat="45.58402" lon="6.0362">
        <ele>714.0</ele>
      </trkpt>
      <trkpt lat="45.58281" lon="6.03639">
        <ele>705.0</ele>
      </trkpt>
      <trkpt lat="45.58201" lon="6.03616">
        <ele>697.0</ele>
      </trkpt>
      <trkpt lat="45.58215" lon="6.03568">
        <ele>693.0</ele>
      </trkpt>
      <trkpt lat="45.58376" lon="6.03415">
        <ele>683.0</ele>
      </trkpt>
      <trkpt lat="45.58439" lon="6.03283">
        <ele>674.0</ele>
      </trkpt>
      <trkpt lat="45.58535" lon="6.03132">
        <ele>662.0</ele>
      </trkpt>
      <trkpt lat="45.58629" lon="6.03016">
        <ele>658.0</ele>
      </trkpt>
      <trkpt lat="45.58776" lon="6.029">
        <ele>648.0</ele>
      </trkpt>
      <trkpt lat="45.58881" lon="6.02884">
        <ele>641.0</ele>
      </trkpt>
      <trkpt lat="45.59035" lon="6.02778">
        <ele>638.0</ele>
      </trkpt>
      <trkpt lat="45.59182" lon="6.02658">
        <ele>623.0</ele>
      </trkpt>
      <trkpt lat="45.59226" lon="6.02577">
        <ele>613.0</ele>
      </trkpt>
      <trkpt lat="45.59161" lon="6.02448">
        <ele>601.0</ele>
      </trkpt>
      <trkpt lat="45.59067" lon="6.024">
        <ele>594.0</ele>
      </trkpt>
      <trkpt lat="45.58984" lon="6.02314">
        <ele>585.0</ele>
      </trkpt>
      <trkpt lat="45.58912" lon="6.02329">
        <ele>578.0</ele>
      </trkpt>
      <trkpt lat="45.58856" lon="6.02273">
        <ele>570.0</ele>
      </trkpt>
      <trkpt lat="45.58812" lon="6.02271">
        <ele>565.0</ele>
      </trkpt>
      <trkpt lat="45.58818" lon="6.02214">
        <ele>563.0</ele>
      </trkpt>
      <trkpt lat="45.58895" lon="6.02234">
        <ele>560.0</ele>
      </trkpt>
      <trkpt lat="45.58931" lon="6.02221">
        <ele>557.0</ele>
      </trkpt>
      <trkpt lat="45.58975" lon="6.02183">
        <ele>549.0</ele>
      </trkpt>
      <trkpt lat="45.59104" lon="6.02197">
        <ele>533.0</ele>
      </trkpt>
      <trkpt lat="45.59163" lon="6.0219">
        <ele>529.0</ele>
      </trkpt>
      <trkpt lat="45.5916" lon="6.0209">
        <ele>533.0</ele>
      </trkpt>
      <trkpt lat="45.59025" lon="6.01979">
        <ele>541.0</ele>
      </trkpt>
      <trkpt lat="45.5895" lon="6.01937">
        <ele>550.0</ele>
      </trkpt>
      <trkpt lat="45.58867" lon="6.01839">
        <ele>562.0</ele>
      </trkpt>
      <trkpt lat="45.58815" lon="6.01808">
        <ele>569.0</ele>
      </trkpt>
      <trkpt lat="45.58839" lon="6.01795">
        <ele>572.0</ele>
      </trkpt>
      <trkpt lat="45.58984" lon="6.01853">
        <ele>584.0</ele>
      </trkpt>
      <trkpt lat="45.59025" lon="6.01844">
        <ele>590.0</ele>
      </trkpt>
      <trkpt lat="45.59057" lon="6.0186">
        <ele>593.0</ele>
      </trkpt>
      <trkpt lat="45.59025" lon="6.0181">
        <ele>596.0</ele>
      </trkpt>
      <trkpt lat="45.58928" lon="6.01413">
        <ele>606.0</ele>
      </trkpt>
      <trkpt lat="45.58796" lon="6.01159">
        <ele>610.0</ele>
      </trkpt>
      <trkpt lat="45.5865" lon="6.00809">
        <ele>603.0</ele>
      </trkpt>
      <trkpt lat="45.58597" lon="6.00427">
        <ele>594.0</ele>
      </trkpt>
      <trkpt lat="45.58597" lon="6.00131">
        <ele>586.0</ele>
      </trkpt>
      <trkpt lat="45.586" lon="5.99981">
        <ele>582.0</ele>
      </trkpt>
      <trkpt lat="45.58595" lon="5.9974">
        <ele>584.0</ele>
      </trkpt>
      <trkpt lat="45.58608" lon="5.99676">
        <ele>584.0</ele>
      </trkpt>
      <trkpt lat="45.58602" lon="5.99577">
        <ele>582.0</ele>
      </trkpt>
      <trkpt lat="45.58606" lon="5.99512">
        <ele>581.0</ele>
      </trkpt>
      <trkpt lat="45.58599" lon="5.99379">
        <ele>576.0</ele>
      </trkpt>
      <trkpt lat="45.58591" lon="5.99224">
        <ele>569.0</ele>
      </trkpt>
      <trkpt lat="45.58596" lon="5.99076">
        <ele>561.0</ele>
      </trkpt>
      <trkpt lat="45.58608" lon="5.98893">
        <ele>553.0</ele>
      </trkpt>
      <trkpt lat="45.58588" lon="5.98729">
        <ele>540.0</ele>
      </trkpt>
      <trkpt lat="45.58544" lon="5.98648">
        <ele>531.0</ele>
      </trkpt>
      <trkpt lat="45.58555" lon="5.98522">
        <ele>524.0</ele>
      </trkpt>
      <trkpt lat="45.58578" lon="5.98378">
        <ele>515.0</ele>
      </trkpt>
      <trkpt lat="45.58572" lon="5.9829">
        <ele>509.0</ele>
      </trkpt>
      <trkpt lat="45.58534" lon="5.9828">
        <ele>505.0</ele>
      </trkpt>
      <trkpt lat="45.58493" lon="5.98384">
        <ele>500.0</ele>
      </trkpt>
      <trkpt lat="45.58472" lon="5.98409">
        <ele>493.0</ele>
      </trkpt>
      <trkpt lat="45.58492" lon="5.98319">
        <ele>487.0</ele>
      </trkpt>
      <trkpt lat="45.58434" lon="5.9817">
        <ele>478.0</ele>
      </trkpt>
      <trkpt lat="45.58417" lon="5.98049">
        <ele>472.0</ele>
      </trkpt>
      <trkpt lat="45.58453" lon="5.98001">
        <ele>469.0</ele>
      </trkpt>
      <trkpt lat="45.58524" lon="5.97939">
        <ele>465.0</ele>
      </trkpt>
      <trkpt lat="45.58542" lon="5.9791">
        <ele>462.0</ele>
      </trkpt>
      <trkpt lat="45.58481" lon="5.97953">
        <ele>459.0</ele>
      </trkpt>
      <trkpt lat="45.58381" lon="5.97939">
        <ele>450.0</ele>
      </trkpt>
      <trkpt lat="45.58304" lon="5.97951">
        <ele>440.0</ele>
      </trkpt>
      <trkpt lat="45.58291" lon="5.97939">
        <ele>439.0</ele>
      </trkpt>
      <trkpt lat="45.58346" lon="5.97928">
        <ele>439.0</ele>
      </trkpt>
      <trkpt lat="45.58444" lon="5.97873">
        <ele>439.0</ele>
      </trkpt>
      <trkpt lat="45.5847" lon="5.978">
        <ele>434.0</ele>
      </trkpt>
      <trkpt lat="45.58556" lon="5.97751">
        <ele>428.0</ele>
      </trkpt>
      <trkpt lat="45.58571" lon="5.97719">
        <ele>422.0</ele>
      </trkpt>
      <trkpt lat="45.58508" lon="5.97691">
        <ele>422.0</ele>
      </trkpt>
      <trkpt lat="45.58411" lon="5.97642">
        <ele>422.0</ele>
      </trkpt>
      <trkpt lat="45.58315" lon="5.976">
        <ele>413.0</ele>
      </trkpt>
      <trkpt lat="45.58205" lon="5.97548">
        <ele>399.0</ele>
      </trkpt>
      <trkpt lat="45.5809" lon="5.97395">
        <ele>390.0</ele>
      </trkpt>
      <trkpt lat="45.58025" lon="5.97366">
        <ele>381.0</ele>
      </trkpt>
      <trkpt lat="45.57947" lon="5.97324">
        <ele>370.0</ele>
      </trkpt>
      <trkpt lat="45.57977" lon="5.97277">
        <ele>364.0</ele>
      </trkpt>
      <trkpt lat="45.58026" lon="5.971">
        <ele>356.0</ele>
      </trkpt>
      <trkpt lat="45.5801" lon="5.97101">
        <ele>354.0</ele>
      </trkpt>
      <trkpt lat="45.57968" lon="5.97182">
        <ele>349.0</ele>
      </trkpt>
      <trkpt lat="45.5797" lon="5.97134">
        <ele>345.0</ele>
      </trkpt>
      <trkpt lat="45.58003" lon="5.96893">
        <ele>331.0</ele>
      </trkpt>
      <trkpt lat="45.57966" lon="5.96819">
        <ele>322.0</ele>
      </trkpt>
      <trkpt lat="45.57894" lon="5.96732">
        <ele>315.0</ele>
      </trkpt>
      <trkpt lat="45.57791" lon="5.9662">
        <ele>310.0</ele>
      </trkpt>
      <trkpt lat="45.57751" lon="5.96539">
        <ele>307.0</ele>
      </trkpt>
      <trkpt lat="45.57708" lon="5.96481">
        <ele>306.0</ele>
      </trkpt>
      <trkpt lat="45.57611" lon="5.96389">
        <ele>305.0</ele>
      </trkpt>
      <trkpt lat="45.57518" lon="5.96384">
        <ele>303.0</ele>
      </trkpt>
      <trkpt lat="45.57486" lon="5.96407">
        <ele>302.0</ele>
      </trkpt>
      <trkpt lat="45.57409" lon="5.96379">
        <ele>302.0</ele>
      </trkpt>
      <trkpt lat="45.5737" lon="5.96323">
        <ele>303.0</ele>
      </trkpt>
      <trkpt lat="45.57332" lon="5.96311">
        <ele>303.0</ele>
      </trkpt>
      <trkpt lat="45.57293" lon="5.96218">
        <ele>303.0</ele>
      </trkpt>
      <trkpt lat="45.57256" lon="5.96077">
        <ele>303.0</ele>
      </trkpt>
      <trkpt lat="45.57222" lon="5.95976">
        <ele>302.0</ele>
      </trkpt>
      <trkpt lat="45.57204" lon="5.95923">
        <ele>302.0</ele>
      </trkpt>
      <trkpt lat="45.57181" lon="5.95858">
        <ele>302.0</ele>
      </trkpt>
      <trkpt lat="45.57104" lon="5.95249">
        <ele>296.0</ele>
      </trkpt>
      <trkpt lat="45.57055" lon="5.94907">
        <ele>291.0</ele>
      </trkpt>
      <trkpt lat="45.57016" lon="5.94715">
        <ele>289.0</ele>
      </trkpt>
      <trkpt lat="45.5695" lon="5.945">
        <ele>288.0</ele>
      </trkpt>
      <trkpt lat="45.56823" lon="5.94041">
        <ele>282.0</ele>
      </trkpt>
      <trkpt lat="45.56764" lon="5.93751">
        <ele>279.0</ele>
      </trkpt>
      <trkpt lat="45.56718" lon="5.93374">
        <ele>281.0</ele>
      </trkpt>
      <trkpt lat="45.56638" lon="5.934">
        <ele>280.0</ele>
      </trkpt>
      <trkpt lat="45.56609" lon="5.93407">
        <ele>280.0</ele>
      </trkpt>
      <trkpt lat="45.56569" lon="5.93381">
        <ele>279.0</ele>
      </trkpt>
      <trkpt lat="45.56443" lon="5.93259">
        <ele>277.0</ele>
      </trkpt>
      <trkpt lat="45.56386" lon="5.93187">
        <ele>274.0</ele>
      </trkpt>
      <trkpt lat="45.56352" lon="5.9311">
        <ele>275.0</ele>
      </trkpt>
      <trkpt lat="45.5632" lon="5.93029">
        <ele>278.0</ele>
      </trkpt>
      <trkpt lat="45.5631" lon="5.92983">
        <ele>279.0</ele>
      </trkpt>
      <trkpt lat="45.56316" lon="5.92921">
        <ele>281.0</ele>
      </trkpt>
      <trkpt lat="45.56341" lon="5.92851">
        <ele>283.0</ele>
      </trkpt>
      <trkpt lat="45.56346" lon="5.92819">
        <ele>284.0</ele>
      </trkpt>
      <trkpt lat="45.56326" lon="5.92812">
        <ele>284.0</ele>
      </trkpt>
      <trkpt lat="45.56246" lon="5.92718">
        <ele>286.0</ele>
      </trkpt>
      <trkpt lat="45.56236" lon="5.92675">
        <ele>285.0</ele>
      </trkpt>
      <trkpt lat="45.56251" lon="5.92592">
        <ele>283.0</ele>
      </trkpt>
      <trkpt lat="45.56269" lon="5.9251">
        <ele>279.0</ele>
      </trkpt>
      <trkpt lat="45.56284" lon="5.92429">
        <ele>277.0</ele>
      </trkpt>
      <trkpt lat="45.56303" lon="5.92325">
        <ele>276.0</ele>
      </trkpt>
      <trkpt lat="45.56337" lon="5.92262">
        <ele>274.0</ele>
      </trkpt>
      <trkpt lat="45.56352" lon="5.92247">
        <ele>274.0</ele>
      </trkpt>
      <trkpt lat="45.5634" lon="5.92226">
        <ele>274.0</ele>
      </trkpt>
      <trkpt lat="45.56333" lon="5.92086">
        <ele>275.0</ele>
      </trkpt>
      <trkpt lat="45.56375" lon="5.91964">
        <ele>277.0</ele>
      </trkpt>
      <trkpt lat="45.56382" lon="5.91939">
        <ele>278.0</ele>
      </trkpt>
      <trkpt lat="45.5637" lon="5.91858">
        <ele>279.0</ele>
      </trkpt>
      <trkpt lat="45.56392" lon="5.91541">
        <ele>284.0</ele>
      </trkpt>
      <trkpt lat="45.56401" lon="5.91502">
        <ele>286.0</ele>
      </trkpt>
      <trkpt lat="45.564" lon="5.91482">
        <ele>286.0</ele>
      </trkpt>
      <trkpt lat="45.5633" lon="5.91385">
        <ele>287.0</ele>
      </trkpt>
      <trkpt lat="45.56262" lon="5.91279">
        <ele>286.0</ele>
      </trkpt>
      <trkpt lat="45.56251" lon="5.9123">
        <ele>285.0</ele>
      </trkpt>
      <trkpt lat="45.56248" lon="5.91151">
        <ele>285.0</ele>
      </trkpt>
      <trkpt lat="45.56268" lon="5.91008">
        <ele>285.0</ele>
      </trkpt>
      <trkpt lat="45.56292" lon="5.90839">
        <ele>286.0</ele>
      </trkpt>
      <trkpt lat="45.56298" lon="5.90794">
        <ele>287.0</ele>
      </trkpt>
      <trkpt lat="45.56325" lon="5.90602">
        <ele>289.0</ele>
      </trkpt>
      <trkpt lat="45.56341" lon="5.90498">
        <ele>293.0</ele>
      </trkpt>
      <trkpt lat="45.56374" lon="5.90354">
        <ele>295.0</ele>
      </trkpt>
      <trkpt lat="45.56381" lon="5.90322">
        <ele>294.0</ele>
      </trkpt>
      <trkpt lat="45.56342" lon="5.90278">
        <ele>292.0</ele>
      </trkpt>
      <trkpt lat="45.56285" lon="5.90095">
        <ele>289.0</ele>
      </trkpt>
      <trkpt lat="45.5625" lon="5.89978">
        <ele>289.0</ele>
      </trkpt>
      <trkpt lat="45.56167" lon="5.89873">
        <ele>291.0</ele>
      </trkpt>
      <trkpt lat="45.56112" lon="5.89816">
        <ele>294.0</ele>
      </trkpt>
      <trkpt lat="45.56051" lon="5.89761">
        <ele>296.0</ele>
      </trkpt>
      <trkpt lat="45.55976" lon="5.89672">
        <ele>296.0</ele>
      </trkpt>
      <trkpt lat="45.55948" lon="5.89635">
        <ele>296.0</ele>
      </trkpt>
      <trkpt lat="45.55937" lon="5.89595">
        <ele>297.0</ele>
      </trkpt>
      <trkpt lat="45.55898" lon="5.89594">
        <ele>298.0</ele>
      </trkpt>
      <trkpt lat="45.55741" lon="5.89455">
        <ele>301.0</ele>
      </trkpt>
      <trkpt lat="45.55633" lon="5.89344">
        <ele>304.0</ele>
      </trkpt>
      <trkpt lat="45.55625" lon="5.8934">
        <ele>305.0</ele>
      </trkpt>
      <trkpt lat="45.55532" lon="5.89252">
        <ele>307.0</ele>
      </trkpt>
      <trkpt lat="45.55421" lon="5.89163">
        <ele>310.0</ele>
      </trkpt>
      <trkpt lat="45.55399" lon="5.89151">
        <ele>311.0</ele>
      </trkpt>
      <trkpt lat="45.55267" lon="5.89107">
        <ele>313.0</ele>
      </trkpt>
      <trkpt lat="45.55112" lon="5.89048">
        <ele>319.0</ele>
      </trkpt>
      <trkpt lat="45.55079" lon="5.89022">
        <ele>321.0</ele>
      </trkpt>
      <trkpt lat="45.54901" lon="5.88959">
        <ele>325.0</ele>
      </trkpt>
      <trkpt lat="45.54789" lon="5.8888">
        <ele>330.0</ele>
      </trkpt>
      <trkpt lat="45.5466" lon="5.88645">
        <ele>335.0</ele>
      </trkpt>
      <trkpt lat="45.54555" lon="5.88423">
        <ele>341.0</ele>
      </trkpt>
      <trkpt lat="45.54475" lon="5.88234">
        <ele>349.0</ele>
      </trkpt>
      <trkpt lat="45.54344" lon="5.87936">
        <ele>354.0</ele>
      </trkpt>
      <trkpt lat="45.54244" lon="5.87846">
        <ele>353.0</ele>
      </trkpt>
      <trkpt lat="45.5408" lon="5.87545">
        <ele>362.0</ele>
      </trkpt>
      <trkpt lat="45.54064" lon="5.87396">
        <ele>368.0</ele>
      </trkpt>
      <trkpt lat="45.53872" lon="5.87017">
        <ele>374.0</ele>
      </trkpt>
      <trkpt lat="45.53729" lon="5.8679">
        <ele>381.0</ele>
      </trkpt>
      <trkpt lat="45.53504" lon="5.86584">
        <ele>393.0</ele>
      </trkpt>
      <trkpt lat="45.53436" lon="5.86552">
        <ele>396.0</ele>
      </trkpt>
      <trkpt lat="45.53364" lon="5.86469">
        <ele>400.0</ele>
      </trkpt>
      <trkpt lat="45.53336" lon="5.86452">
        <ele>403.0</ele>
      </trkpt>
      <trkpt lat="45.53316" lon="5.86435">
        <ele>405.0</ele>
      </trkpt>
      <trkpt lat="45.53244" lon="5.86296">
        <ele>411.0</ele>
      </trkpt>
      <trkpt lat="45.53162" lon="5.86237">
        <ele>415.0</ele>
      </trkpt>
      <trkpt lat="45.52912" lon="5.86104">
        <ele>432.0</ele>
      </trkpt>
      <trkpt lat="45.52729" lon="5.85837">
        <ele>441.0</ele>
      </trkpt>
      <trkpt lat="45.52569" lon="5.85679">
        <ele>451.0</ele>
      </trkpt>
      <trkpt lat="45.52421" lon="5.8552">
        <ele>462.0</ele>
      </trkpt>
      <trkpt lat="45.52247" lon="5.85526">
        <ele>473.0</ele>
      </trkpt>
      <trkpt lat="45.52071" lon="5.85454">
        <ele>479.0</ele>
      </trkpt>
      <trkpt lat="45.51955" lon="5.8539">
        <ele>475.0</ele>
      </trkpt>
      <trkpt lat="45.51344" lon="5.85142">
        <ele>477.0</ele>
      </trkpt>
      <trkpt lat="45.50864" lon="5.8498">
        <ele>486.0</ele>
      </trkpt>
      <trkpt lat="45.504" lon="5.84723">
        <ele>491.0</ele>
      </trkpt>
      <trkpt lat="45.50311" lon="5.84615">
        <ele>496.0</ele>
      </trkpt>
      <trkpt lat="45.5022" lon="5.84495">
        <ele>499.0</ele>
      </trkpt>
      <trkpt lat="45.50177" lon="5.84438">
        <ele>500.0</ele>
      </trkpt>
      <trkpt lat="45.50067" lon="5.84334">
        <ele>504.0</ele>
      </trkpt>
      <trkpt lat="45.50019" lon="5.84289">
        <ele>506.0</ele>
      </trkpt>
      <trkpt lat="45.49956" lon="5.84191">
        <ele>508.0</ele>
      </trkpt>
      <trkpt lat="45.49874" lon="5.84002">
        <ele>513.0</ele>
      </trkpt>
      <trkpt lat="45.49683" lon="5.83901">
        <ele>524.0</ele>
      </trkpt>
      <trkpt lat="45.49465" lon="5.83707">
        <ele>533.0</ele>
      </trkpt>
      <trkpt lat="45.48754" lon="5.83541">
        <ele>553.0</ele>
      </trkpt>
      <trkpt lat="45.48636" lon="5.83495">
        <ele>562.0</ele>
      </trkpt>
      <trkpt lat="45.48526" lon="5.83421">
        <ele>563.0</ele>
      </trkpt>
      <trkpt lat="45.48426" lon="5.83351">
        <ele>569.0</ele>
      </trkpt>
      <trkpt lat="45.47907" lon="5.83006">
        <ele>578.0</ele>
      </trkpt>
      <trkpt lat="45.47803" lon="5.8285">
        <ele>584.0</ele>
      </trkpt>
      <trkpt lat="45.47726" lon="5.82758">
        <ele>592.0</ele>
      </trkpt>
      <trkpt lat="45.47543" lon="5.82582">
        <ele>604.0</ele>
      </trkpt>
      <trkpt lat="45.47307" lon="5.82246">
        <ele>623.0</ele>
      </trkpt>
      <trkpt lat="45.46966" lon="5.81759">
        <ele>628.0</ele>
      </trkpt>
      <trkpt lat="45.46812" lon="5.81582">
        <ele>633.0</ele>
      </trkpt>
      <trkpt lat="45.46204" lon="5.81202">
        <ele>623.0</ele>
      </trkpt>
      <trkpt lat="45.45981" lon="5.81027">
        <ele>614.0</ele>
      </trkpt>
      <trkpt lat="45.45868" lon="5.80799">
        <ele>612.0</ele>
      </trkpt>
      <trkpt lat="45.45885" lon="5.80626">
        <ele>610.0</ele>
      </trkpt>
      <trkpt lat="45.45719" lon="5.80303">
        <ele>606.0</ele>
      </trkpt>
      <trkpt lat="45.45585" lon="5.80213">
        <ele>598.0</ele>
      </trkpt>
      <trkpt lat="45.45413" lon="5.80209">
        <ele>584.0</ele>
      </trkpt>
      <trkpt lat="45.4532" lon="5.80101">
        <ele>573.0</ele>
      </trkpt>
      <trkpt lat="45.45296" lon="5.79941">
        <ele>574.0</ele>
      </trkpt>
      <trkpt lat="45.45357" lon="5.79776">
        <ele>576.0</ele>
      </trkpt>
      <trkpt lat="45.45425" lon="5.79501">
        <ele>578.0</ele>
      </trkpt>
      <trkpt lat="45.45361" lon="5.79309">
        <ele>585.0</ele>
      </trkpt>
      <trkpt lat="45.45367" lon="5.7882">
        <ele>575.58</ele>
      </trkpt>
      <trkpt lat="45.45445" lon="5.78789">
        <ele>568.3</ele>
      </trkpt>
      <trkpt lat="45.45613" lon="5.78707">
        <ele>541.0</ele>
      </trkpt>
      <trkpt lat="45.4569" lon="5.78571">
        <ele>513.0</ele>
      </trkpt>
      <trkpt lat="45.45638" lon="5.78417">
        <ele>500.0</ele>
      </trkpt>
      <trkpt lat="45.45577" lon="5.78156">
        <ele>488.0</ele>
      </trkpt>
      <trkpt lat="45.45539" lon="5.77983">
        <ele>480.0</ele>
      </trkpt>
      <trkpt lat="45.45496" lon="5.77659">
        <ele>468.0</ele>
      </trkpt>
      <trkpt lat="45.45531" lon="5.77482">
        <ele>461.0</ele>
      </trkpt>
      <trkpt lat="45.45514" lon="5.77312">
        <ele>457.0</ele>
      </trkpt>
      <trkpt lat="45.45363" lon="5.77023">
        <ele>448.0</ele>
      </trkpt>
      <trkpt lat="45.44991" lon="5.76649">
        <ele>427.0</ele>
      </trkpt>
      <trkpt lat="45.44633" lon="5.76393">
        <ele>416.0</ele>
      </trkpt>
      <trkpt lat="45.44579" lon="5.76343">
        <ele>410.0</ele>
      </trkpt>
      <trkpt lat="45.44346" lon="5.76178">
        <ele>405.0</ele>
      </trkpt>
      <trkpt lat="45.43967" lon="5.75803">
        <ele>403.0</ele>
      </trkpt>
      <trkpt lat="45.4384" lon="5.75692">
        <ele>400.0</ele>
      </trkpt>
      <trkpt lat="45.43729" lon="5.75619">
        <ele>399.0</ele>
      </trkpt>
      <trkpt lat="45.43652" lon="5.7554">
        <ele>399.0</ele>
      </trkpt>
      <trkpt lat="45.43623" lon="5.75469">
        <ele>398.0</ele>
      </trkpt>
      <trkpt lat="45.43682" lon="5.75395">
        <ele>396.0</ele>
      </trkpt>
      <trkpt lat="45.43729" lon="5.75339">
        <ele>394.0</ele>
      </trkpt>
      <trkpt lat="45.43749" lon="5.75247">
        <ele>392.0</ele>
      </trkpt>
      <trkpt lat="45.43814" lon="5.75174">
        <ele>389.0</ele>
      </trkpt>
      <trkpt lat="45.43868" lon="5.75093">
        <ele>387.0</ele>
      </trkpt>
      <trkpt lat="45.44049" lon="5.74794">
        <ele>385.0</ele>
      </trkpt>
      <trkpt lat="45.4434" lon="5.74317">
        <ele>382.0</ele>
      </trkpt>
      <trkpt lat="45.44648" lon="5.73841">
        <ele>380.0</ele>
      </trkpt>
      <trkpt lat="45.45447" lon="5.73547">
        <ele>378.0</ele>
      </trkpt>
      <trkpt lat="45.45527" lon="5.73534">
        <ele>382.0</ele>
      </trkpt>
      <trkpt lat="45.45878" lon="5.73742">
        <ele>381.0</ele>
      </trkpt>
      <trkpt lat="45.46015" lon="5.73751">
        <ele>381.0</ele>
      </trkpt>
      <trkpt lat="45.46396" lon="5.73689">
        <ele>378.0</ele>
      </trkpt>
      <trkpt lat="45.46835" lon="5.73621">
        <ele>372.0</ele>
      </trkpt>
      <trkpt lat="45.47017" lon="5.7367">
        <ele>369.0</ele>
      </trkpt>
      <trkpt lat="45.47178" lon="5.73855">
        <ele>372.0</ele>
      </trkpt>
      <trkpt lat="45.47233" lon="5.73888">
        <ele>373.0</ele>
      </trkpt>
      <trkpt lat="45.47278" lon="5.7381">
        <ele>374.0</ele>
      </trkpt>
      <trkpt lat="45.47264" lon="5.73729">
        <ele>375.0</ele>
      </trkpt>
      <trkpt lat="45.47292" lon="5.73648">
        <ele>378.0</ele>
      </trkpt>
      <trkpt lat="45.47323" lon="5.73534">
        <ele>382.0</ele>
      </trkpt>
      <trkpt lat="45.47436" lon="5.7348">
        <ele>392.0</ele>
      </trkpt>
      <trkpt lat="45.47535" lon="5.73444">
        <ele>402.0</ele>
      </trkpt>
      <trkpt lat="45.47566" lon="5.73297">
        <ele>395.0</ele>
      </trkpt>
      <trkpt lat="45.47592" lon="5.73238">
        <ele>390.0</ele>
      </trkpt>
      <trkpt lat="45.47655" lon="5.73154">
        <ele>394.0</ele>
      </trkpt>
      <trkpt lat="45.4775" lon="5.72958">
        <ele>401.0</ele>
      </trkpt>
      <trkpt lat="45.47888" lon="5.72625">
        <ele>405.0</ele>
      </trkpt>
      <trkpt lat="45.48039" lon="5.72426">
        <ele>427.0</ele>
      </trkpt>
      <trkpt lat="45.48098" lon="5.7242">
        <ele>433.0</ele>
      </trkpt>
      <trkpt lat="45.48201" lon="5.72366">
        <ele>434.0</ele>
      </trkpt>
      <trkpt lat="45.483" lon="5.72253">
        <ele>434.0</ele>
      </trkpt>
      <trkpt lat="45.48319" lon="5.72157">
        <ele>433.0</ele>
      </trkpt>
      <trkpt lat="45.48378" lon="5.72055">
        <ele>431.0</ele>
      </trkpt>
      <trkpt lat="45.48519" lon="5.72122">
        <ele>426.0</ele>
      </trkpt>
      <trkpt lat="45.48868" lon="5.72166">
        <ele>405.0</ele>
      </trkpt>
      <trkpt lat="45.48959" lon="5.72137">
        <ele>392.0</ele>
      </trkpt>
      <trkpt lat="45.49037" lon="5.72211">
        <ele>384.0</ele>
      </trkpt>
      <trkpt lat="45.49165" lon="5.72422">
        <ele>373.0</ele>
      </trkpt>
      <trkpt lat="45.49728" lon="5.72972">
        <ele>355.0</ele>
      </trkpt>
      <trkpt lat="45.49798" lon="5.72993">
        <ele>341.0</ele>
      </trkpt>
      <trkpt lat="45.49949" lon="5.72798">
        <ele>334.0</ele>
      </trkpt>
      <trkpt lat="45.50112" lon="5.72573">
        <ele>316.0</ele>
      </trkpt>
      <trkpt lat="45.50435" lon="5.72088">
        <ele>301.0</ele>
      </trkpt>
      <trkpt lat="45.50642" lon="5.71783">
        <ele>290.0</ele>
      </trkpt>
      <trkpt lat="45.50994" lon="5.71268">
        <ele>284.0</ele>
      </trkpt>
      <trkpt lat="45.51246" lon="5.70897">
        <ele>279.0</ele>
      </trkpt>
      <trkpt lat="45.51381" lon="5.70753">
        <ele>277.0</ele>
      </trkpt>
      <trkpt lat="45.51947" lon="5.70466">
        <ele>270.0</ele>
      </trkpt>
      <trkpt lat="45.52099" lon="5.70386">
        <ele>268.0</ele>
      </trkpt>
      <trkpt lat="45.52164" lon="5.70299">
        <ele>268.0</ele>
      </trkpt>
      <trkpt lat="45.52358" lon="5.69791">
        <ele>266.0</ele>
      </trkpt>
      <trkpt lat="45.52437" lon="5.69564">
        <ele>265.0</ele>
      </trkpt>
      <trkpt lat="45.52543" lon="5.69464">
        <ele>264.0</ele>
      </trkpt>
      <trkpt lat="45.52817" lon="5.69189">
        <ele>257.0</ele>
      </trkpt>
      <trkpt lat="45.52867" lon="5.68961">
        <ele>256.0</ele>
      </trkpt>
      <trkpt lat="45.52883" lon="5.68923">
        <ele>256.0</ele>
      </trkpt>
      <trkpt lat="45.52909" lon="5.68688">
        <ele>256.0</ele>
      </trkpt>
      <trkpt lat="45.53081" lon="5.68254">
        <ele>255.0</ele>
      </trkpt>
      <trkpt lat="45.53136" lon="5.68161">
        <ele>256.0</ele>
      </trkpt>
      <trkpt lat="45.53161" lon="5.68128">
        <ele>258.0</ele>
      </trkpt>
      <trkpt lat="45.53127" lon="5.68109">
        <ele>260.0</ele>
      </trkpt>
      <trkpt lat="45.52878" lon="5.68056">
        <ele>269.0</ele>
      </trkpt>
      <trkpt lat="45.52718" lon="5.68002">
        <ele>284.0</ele>
      </trkpt>
      <trkpt lat="45.52652" lon="5.68024">
        <ele>286.0</ele>
      </trkpt>
      <trkpt lat="45.52627" lon="5.68031">
        <ele>286.0</ele>
      </trkpt>
      <trkpt lat="45.52594" lon="5.68106">
        <ele>285.0</ele>
      </trkpt>
      <trkpt lat="45.52507" lon="5.68179">
        <ele>282.0</ele>
      </trkpt>
      <trkpt lat="45.52427" lon="5.68222">
        <ele>279.0</ele>
      </trkpt>
      <trkpt lat="45.52387" lon="5.68216">
        <ele>277.0</ele>
      </trkpt>
      <trkpt lat="45.52343" lon="5.6827">
        <ele>275.0</ele>
      </trkpt>
      <trkpt lat="45.52272" lon="5.68309">
        <ele>271.0</ele>
      </trkpt>
      <trkpt lat="45.52208" lon="5.68302">
        <ele>269.0</ele>
      </trkpt>
      <trkpt lat="45.52105" lon="5.68437">
        <ele>272.0</ele>
      </trkpt>
      <trkpt lat="45.51985" lon="5.68624">
        <ele>274.0</ele>
      </trkpt>
      <trkpt lat="45.51769" lon="5.68873">
        <ele>271.0</ele>
      </trkpt>
      <trkpt lat="45.51517" lon="5.6909">
        <ele>269.0</ele>
      </trkpt>
      <trkpt lat="45.50935" lon="5.69844">
        <ele>274.0</ele>
      </trkpt>
      <trkpt lat="45.50572" lon="5.7033">
        <ele>287.0</ele>
      </trkpt>
      <trkpt lat="45.5044" lon="5.70408">
        <ele>296.0</ele>
      </trkpt>
      <trkpt lat="45.50294" lon="5.70454">
        <ele>306.0</ele>
      </trkpt>
      <trkpt lat="45.50205" lon="5.70506">
        <ele>313.0</ele>
      </trkpt>
      <trkpt lat="45.5007" lon="5.70636">
        <ele>313.0</ele>
      </trkpt>
      <trkpt lat="45.50006" lon="5.70712">
        <ele>313.0</ele>
      </trkpt>
      <trkpt lat="45.49963" lon="5.70754">
        <ele>313.0</ele>
      </trkpt>
      <trkpt lat="45.49826" lon="5.70845">
        <ele>314.0</ele>
      </trkpt>
      <trkpt lat="45.49722" lon="5.70889">
        <ele>314.0</ele>
      </trkpt>
      <trkpt lat="45.49583" lon="5.70851">
        <ele>312.0</ele>
      </trkpt>
      <trkpt lat="45.49374" lon="5.70717">
        <ele>311.0</ele>
      </trkpt>
      <trkpt lat="45.49104" lon="5.70452">
        <ele>306.0</ele>
      </trkpt>
      <trkpt lat="45.48703" lon="5.70034">
        <ele>315.0</ele>
      </trkpt>
      <trkpt lat="45.48446" lon="5.69667">
        <ele>319.0</ele>
      </trkpt>
      <trkpt lat="45.48214" lon="5.69364">
        <ele>322.0</ele>
      </trkpt>
      <trkpt lat="45.4812" lon="5.69198">
        <ele>326.0</ele>
      </trkpt>
      <trkpt lat="45.48051" lon="5.69099">
        <ele>330.0</ele>
      </trkpt>
      <trkpt lat="45.47904" lon="5.68714">
        <ele>343.0</ele>
      </trkpt>
      <trkpt lat="45.47785" lon="5.68508">
        <ele>356.0</ele>
      </trkpt>
      <trkpt lat="45.4764" lon="5.68285">
        <ele>371.0</ele>
      </trkpt>
      <trkpt lat="45.47586" lon="5.68159">
        <ele>376.0</ele>
      </trkpt>
      <trkpt lat="45.47581" lon="5.68074">
        <ele>378.0</ele>
      </trkpt>
      <trkpt lat="45.47585" lon="5.67829">
        <ele>376.0</ele>
      </trkpt>
      <trkpt lat="45.47477" lon="5.67354">
        <ele>371.0</ele>
      </trkpt>
      <trkpt lat="45.47307" lon="5.66938">
        <ele>365.0</ele>
      </trkpt>
      <trkpt lat="45.4717" lon="5.66601">
        <ele>372.0</ele>
      </trkpt>
      <trkpt lat="45.46969" lon="5.6635">
        <ele>371.0</ele>
      </trkpt>
      <trkpt lat="45.46741" lon="5.66094">
        <ele>373.0</ele>
      </trkpt>
      <trkpt lat="45.46697" lon="5.65888">
        <ele>376.0</ele>
      </trkpt>
      <trkpt lat="45.46595" lon="5.65231">
        <ele>382.0</ele>
      </trkpt>
      <trkpt lat="45.46521" lon="5.65046">
        <ele>389.0</ele>
      </trkpt>
      <trkpt lat="45.46474" lon="5.64948">
        <ele>395.0</ele>
      </trkpt>
      <trkpt lat="45.46427" lon="5.64848">
        <ele>403.0</ele>
      </trkpt>
      <trkpt lat="45.46209" lon="5.6441">
        <ele>404.0</ele>
      </trkpt>
      <trkpt lat="45.46008" lon="5.64193">
        <ele>404.0</ele>
      </trkpt>
      <trkpt lat="45.45882" lon="5.64106">
        <ele>404.0</ele>
      </trkpt>
      <trkpt lat="45.4575" lon="5.6402">
        <ele>405.0</ele>
      </trkpt>
      <trkpt lat="45.4565" lon="5.6399">
        <ele>407.0</ele>
      </trkpt>
      <trkpt lat="45.45439" lon="5.63841">
        <ele>411.0</ele>
      </trkpt>
      <trkpt lat="45.45251" lon="5.6368">
        <ele>410.0</ele>
      </trkpt>
      <trkpt lat="45.45083" lon="5.6337">
        <ele>414.0</ele>
      </trkpt>
      <trkpt lat="45.44832" lon="5.63058">
        <ele>417.0</ele>
      </trkpt>
      <trkpt lat="45.44676" lon="5.62713">
        <ele>425.0</ele>
      </trkpt>
      <trkpt lat="45.44506" lon="5.62314">
        <ele>434.0</ele>
      </trkpt>
      <trkpt lat="45.44391" lon="5.62029">
        <ele>440.0</ele>
      </trkpt>
      <trkpt lat="45.44322" lon="5.61943">
        <ele>440.0</ele>
      </trkpt>
      <trkpt lat="45.4422" lon="5.61728">
        <ele>438.0</ele>
      </trkpt>
      <trkpt lat="45.44159" lon="5.61572">
        <ele>438.0</ele>
      </trkpt>
      <trkpt lat="45.44036" lon="5.61369">
        <ele>442.0</ele>
      </trkpt>
      <trkpt lat="45.43984" lon="5.61096">
        <ele>440.0</ele>
      </trkpt>
      <trkpt lat="45.44" lon="5.6076">
        <ele>443.0</ele>
      </trkpt>
      <trkpt lat="45.43996" lon="5.60456">
        <ele>447.0</ele>
      </trkpt>
      <trkpt lat="45.43905" lon="5.59617">
        <ele>456.0</ele>
      </trkpt>
      <trkpt lat="45.43874" lon="5.58998">
        <ele>458.0</ele>
      </trkpt>
      <trkpt lat="45.43732" lon="5.58653">
        <ele>457.0</ele>
      </trkpt>
      <trkpt lat="45.43715" lon="5.58284">
        <ele>453.0</ele>
      </trkpt>
      <trkpt lat="45.43305" lon="5.57225">
        <ele>453.0</ele>
      </trkpt>
      <trkpt lat="45.43098" lon="5.56799">
        <ele>461.0</ele>
      </trkpt>
      <trkpt lat="45.43005" lon="5.56679">
        <ele>459.0</ele>
      </trkpt>
      <trkpt lat="45.42967" lon="5.56526">
        <ele>459.0</ele>
      </trkpt>
      <trkpt lat="45.42844" lon="5.56389">
        <ele>460.0</ele>
      </trkpt>
      <trkpt lat="45.42588" lon="5.56105">
        <ele>461.0</ele>
      </trkpt>
      <trkpt lat="45.41991" lon="5.55391">
        <ele>461.0</ele>
      </trkpt>
      <trkpt lat="45.41861" lon="5.5523">
        <ele>464.0</ele>
      </trkpt>
      <trkpt lat="45.41719" lon="5.55154">
        <ele>465.0</ele>
      </trkpt>
      <trkpt lat="45.41682" lon="5.55167">
        <ele>465.0</ele>
      </trkpt>
      <trkpt lat="45.41636" lon="5.55268">
        <ele>465.0</ele>
      </trkpt>
      <trkpt lat="45.41584" lon="5.55356">
        <ele>464.0</ele>
      </trkpt>
      <trkpt lat="45.41496" lon="5.5552">
        <ele>464.0</ele>
      </trkpt>
      <trkpt lat="45.41475" lon="5.55558">
        <ele>465.0</ele>
      </trkpt>
      <trkpt lat="45.41382" lon="5.55654">
        <ele>466.0</ele>
      </trkpt>
      <trkpt lat="45.41325" lon="5.55706">
        <ele>470.0</ele>
      </trkpt>
      <trkpt lat="45.41278" lon="5.5575">
        <ele>472.0</ele>
      </trkpt>
      <trkpt lat="45.41244" lon="5.55753">
        <ele>473.0</ele>
      </trkpt>
      <trkpt lat="45.4119" lon="5.55725">
        <ele>473.0</ele>
      </trkpt>
      <trkpt lat="45.41055" lon="5.55711">
        <ele>474.0</ele>
      </trkpt>
      <trkpt lat="45.41005" lon="5.55682">
        <ele>474.0</ele>
      </trkpt>
      <trkpt lat="45.40857" lon="5.55545">
        <ele>475.0</ele>
      </trkpt>
      <trkpt lat="45.40662" lon="5.55498">
        <ele>475.0</ele>
      </trkpt>
      <trkpt lat="45.40421" lon="5.55176">
        <ele>473.0</ele>
      </trkpt>
      <trkpt lat="45.40219" lon="5.54659">
        <ele>469.0</ele>
      </trkpt>
      <trkpt lat="45.40032" lon="5.54055">
        <ele>465.0</ele>
      </trkpt>
      <trkpt lat="45.39889" lon="5.53848">
        <ele>465.0</ele>
      </trkpt>
      <trkpt lat="45.39796" lon="5.53684">
        <ele>460.0</ele>
      </trkpt>
      <trkpt lat="45.39919" lon="5.53476">
        <ele>451.0</ele>
      </trkpt>
      <trkpt lat="45.40075" lon="5.53425">
        <ele>452.0</ele>
      </trkpt>
      <trkpt lat="45.40442" lon="5.53487">
        <ele>457.0</ele>
      </trkpt>
      <trkpt lat="45.4067" lon="5.53316">
        <ele>466.0</ele>
      </trkpt>
      <trkpt lat="45.40739" lon="5.53298">
        <ele>468.0</ele>
      </trkpt>
      <trkpt lat="45.40889" lon="5.53297">
        <ele>470.0</ele>
      </trkpt>
      <trkpt lat="45.41009" lon="5.53186">
        <ele>469.0</ele>
      </trkpt>
      <trkpt lat="45.41118" lon="5.53191">
        <ele>470.0</ele>
      </trkpt>
      <trkpt lat="45.41306" lon="5.53116">
        <ele>475.0</ele>
      </trkpt>
      <trkpt lat="45.41402" lon="5.53035">
        <ele>475.0</ele>
      </trkpt>
      <trkpt lat="45.41596" lon="5.52766">
        <ele>490.0</ele>
      </trkpt>
      <trkpt lat="45.41719" lon="5.52511">
        <ele>494.0</ele>
      </trkpt>
      <trkpt lat="45.41816" lon="5.52074">
        <ele>502.0</ele>
      </trkpt>
      <trkpt lat="45.41969" lon="5.51927">
        <ele>502.0</ele>
      </trkpt>
      <trkpt lat="45.42018" lon="5.51873">
        <ele>500.0</ele>
      </trkpt>
      <trkpt lat="45.42059" lon="5.51752">
        <ele>498.0</ele>
      </trkpt>
      <trkpt lat="45.42156" lon="5.51661">
        <ele>498.0</ele>
      </trkpt>
      <trkpt lat="45.42348" lon="5.51605">
        <ele>498.0</ele>
      </trkpt>
      <trkpt lat="45.42402" lon="5.5163">
        <ele>498.0</ele>
      </trkpt>
      <trkpt lat="45.42509" lon="5.51669">
        <ele>499.0</ele>
      </trkpt>
      <trkpt lat="45.42654" lon="5.51664">
        <ele>500.0</ele>
      </trkpt>
      <trkpt lat="45.42759" lon="5.51546">
        <ele>501.0</ele>
      </trkpt>
      <trkpt lat="45.42862" lon="5.51418">
        <ele>498.0</ele>
      </trkpt>
      <trkpt lat="45.4291" lon="5.51331">
        <ele>496.0</ele>
      </trkpt>
      <trkpt lat="45.42981" lon="5.51269">
        <ele>497.0</ele>
      </trkpt>
      <trkpt lat="45.43067" lon="5.51276">
        <ele>498.0</ele>
      </trkpt>
      <trkpt lat="45.43317" lon="5.51331">
        <ele>499.0</ele>
      </trkpt>
      <trkpt lat="45.43438" lon="5.51358">
        <ele>501.0</ele>
      </trkpt>
      <trkpt lat="45.43791" lon="5.51435">
        <ele>504.0</ele>
      </trkpt>
      <trkpt lat="45.44008" lon="5.51555">
        <ele>502.0</ele>
      </trkpt>
      <trkpt lat="45.44253" lon="5.5141">
        <ele>497.0</ele>
      </trkpt>
      <trkpt lat="45.44498" lon="5.51378">
        <ele>500.0</ele>
      </trkpt>
      <trkpt lat="45.44779" lon="5.51388">
        <ele>508.0</ele>
      </trkpt>
      <trkpt lat="45.44878" lon="5.5128">
        <ele>513.0</ele>
      </trkpt>
      <trkpt lat="45.44906" lon="5.51281">
        <ele>513.0</ele>
      </trkpt>
      <trkpt lat="45.44907" lon="5.51241">
        <ele>513.0</ele>
      </trkpt>
      <trkpt lat="45.44872" lon="5.51206">
        <ele>514.0</ele>
      </trkpt>
      <trkpt lat="45.44786" lon="5.50892">
        <ele>521.0</ele>
      </trkpt>
      <trkpt lat="45.44602" lon="5.50549">
        <ele>527.0</ele>
      </trkpt>
      <trkpt lat="45.44458" lon="5.50205">
        <ele>536.0</ele>
      </trkpt>
      <trkpt lat="45.44318" lon="5.49915">
        <ele>549.0</ele>
      </trkpt>
      <trkpt lat="45.44264" lon="5.49381">
        <ele>558.0</ele>
      </trkpt>
      <trkpt lat="45.44011" lon="5.4941">
        <ele>567.0</ele>
      </trkpt>
      <trkpt lat="45.43752" lon="5.49099">
        <ele>573.0</ele>
      </trkpt>
      <trkpt lat="45.43479" lon="5.48844">
        <ele>568.0</ele>
      </trkpt>
      <trkpt lat="45.42974" lon="5.48239">
        <ele>563.0</ele>
      </trkpt>
      <trkpt lat="45.42706" lon="5.47696">
        <ele>557.0</ele>
      </trkpt>
      <trkpt lat="45.42657" lon="5.47284">
        <ele>556.0</ele>
      </trkpt>
      <trkpt lat="45.42621" lon="5.46917">
        <ele>559.0</ele>
      </trkpt>
      <trkpt lat="45.42565" lon="5.46631">
        <ele>558.0</ele>
      </trkpt>
      <trkpt lat="45.42291" lon="5.46323">
        <ele>548.0</ele>
      </trkpt>
      <trkpt lat="45.41821" lon="5.46135">
        <ele>532.0</ele>
      </trkpt>
      <trkpt lat="45.41627" lon="5.46013">
        <ele>527.0</ele>
      </trkpt>
      <trkpt lat="45.4154" lon="5.46009">
        <ele>523.0</ele>
      </trkpt>
      <trkpt lat="45.40916" lon="5.46457">
        <ele>518.0</ele>
      </trkpt>
      <trkpt lat="45.4054" lon="5.46465">
        <ele>509.0</ele>
      </trkpt>
      <trkpt lat="45.40081" lon="5.46679">
        <ele>500.0</ele>
      </trkpt>
      <trkpt lat="45.40018" lon="5.46733">
        <ele>499.0</ele>
      </trkpt>
      <trkpt lat="45.40049" lon="5.4658">
        <ele>500.0</ele>
      </trkpt>
      <trkpt lat="45.4002" lon="5.46279">
        <ele>500.0</ele>
      </trkpt>
      <trkpt lat="45.39964" lon="5.46094">
        <ele>499.0</ele>
      </trkpt>
      <trkpt lat="45.39941" lon="5.45832">
        <ele>495.0</ele>
      </trkpt>
      <trkpt lat="45.39923" lon="5.4568">
        <ele>493.0</ele>
      </trkpt>
      <trkpt lat="45.39891" lon="5.45399">
        <ele>492.0</ele>
      </trkpt>
      <trkpt lat="45.39836" lon="5.45215">
        <ele>489.0</ele>
      </trkpt>
      <trkpt lat="45.39769" lon="5.44964">
        <ele>483.0</ele>
      </trkpt>
      <trkpt lat="45.39762" lon="5.44801">
        <ele>480.0</ele>
      </trkpt>
      <trkpt lat="45.39726" lon="5.44461">
        <ele>475.0</ele>
      </trkpt>
      <trkpt lat="45.39704" lon="5.44156">
        <ele>471.0</ele>
      </trkpt>
      <trkpt lat="45.39731" lon="5.43789">
        <ele>467.0</ele>
      </trkpt>
      <trkpt lat="45.3974" lon="5.43573">
        <ele>463.0</ele>
      </trkpt>
      <trkpt lat="45.39748" lon="5.43211">
        <ele>467.0</ele>
      </trkpt>
      <trkpt lat="45.39775" lon="5.43037">
        <ele>470.0</ele>
      </trkpt>
      <trkpt lat="45.3981" lon="5.42687">
        <ele>474.0</ele>
      </trkpt>
      <trkpt lat="45.3973" lon="5.42632">
        <ele>475.0</ele>
      </trkpt>
      <trkpt lat="45.39575" lon="5.42595">
        <ele>474.0</ele>
      </trkpt>
      <trkpt lat="45.39358" lon="5.42343">
        <ele>473.0</ele>
      </trkpt>
      <trkpt lat="45.39333" lon="5.4215">
        <ele>473.0</ele>
      </trkpt>
      <trkpt lat="45.39296" lon="5.41983">
        <ele>471.0</ele>
      </trkpt>
      <trkpt lat="45.3928" lon="5.41956">
        <ele>471.0</ele>
      </trkpt>
      <trkpt lat="45.39159" lon="5.42021">
        <ele>470.0</ele>
      </trkpt>
      <trkpt lat="45.37936" lon="5.42584">
        <ele>455.0</ele>
      </trkpt>
      <trkpt lat="45.36591" lon="5.43204">
        <ele>446.0</ele>
      </trkpt>
      <trkpt lat="45.3593" lon="5.43713">
        <ele>441.0</ele>
      </trkpt>
      <trkpt lat="45.3556" lon="5.44761">
        <ele>438.0</ele>
      </trkpt>
      <trkpt lat="45.34849" lon="5.46745">
        <ele>438.0</ele>
      </trkpt>
      <trkpt lat="45.34804" lon="5.46835">
        <ele>439.0</ele>
      </trkpt>
      <trkpt lat="45.34781" lon="5.46899">
        <ele>439.0</ele>
      </trkpt>
      <trkpt lat="45.34728" lon="5.47105">
        <ele>437.0</ele>
      </trkpt>
      <trkpt lat="45.3466" lon="5.47367">
        <ele>434.0</ele>
      </trkpt>
      <trkpt lat="45.34625" lon="5.4771">
        <ele>430.0</ele>
      </trkpt>
      <trkpt lat="45.34486" lon="5.48034">
        <ele>431.0</ele>
      </trkpt>
      <trkpt lat="45.34443" lon="5.48106">
        <ele>430.0</ele>
      </trkpt>
      <trkpt lat="45.3439" lon="5.48291">
        <ele>427.0</ele>
      </trkpt>
      <trkpt lat="45.34384" lon="5.48334">
        <ele>425.0</ele>
      </trkpt>
      <trkpt lat="45.34451" lon="5.48641">
        <ele>414.0</ele>
      </trkpt>
      <trkpt lat="45.34665" lon="5.49165">
        <ele>381.0</ele>
      </trkpt>
      <trkpt lat="45.3465" lon="5.49518">
        <ele>360.0</ele>
      </trkpt>
      <trkpt lat="45.34557" lon="5.49849">
        <ele>348.0</ele>
      </trkpt>
      <trkpt lat="45.34549" lon="5.50442">
        <ele>340.0</ele>
      </trkpt>
      <trkpt lat="45.34715" lon="5.51137">
        <ele>355.0</ele>
      </trkpt>
      <trkpt lat="45.34682" lon="5.5151">
        <ele>369.0</ele>
      </trkpt>
      <trkpt lat="45.34526" lon="5.51835">
        <ele>379.0</ele>
      </trkpt>
      <trkpt lat="45.34497" lon="5.51909">
        <ele>381.0</ele>
      </trkpt>
      <trkpt lat="45.34231" lon="5.52516">
        <ele>383.0</ele>
      </trkpt>
      <trkpt lat="45.34141" lon="5.5297">
        <ele>372.0</ele>
      </trkpt>
      <trkpt lat="45.34107" lon="5.53529">
        <ele>356.0</ele>
      </trkpt>
      <trkpt lat="45.33895" lon="5.54144">
        <ele>323.0</ele>
      </trkpt>
      <trkpt lat="45.337" lon="5.54537">
        <ele>301.0</ele>
      </trkpt>
      <trkpt lat="45.33611" lon="5.5519">
        <ele>271.0</ele>
      </trkpt>
      <trkpt lat="45.33521" lon="5.559">
        <ele>241.0</ele>
      </trkpt>
      <trkpt lat="45.33457" lon="5.5626">
        <ele>224.0</ele>
      </trkpt>
      <trkpt lat="45.33322" lon="5.56528">
        <ele>224.0</ele>
      </trkpt>
      <trkpt lat="45.33187" lon="5.56659">
        <ele>215.0</ele>
      </trkpt>
      <trkpt lat="45.32944" lon="5.56911">
        <ele>202.0</ele>
      </trkpt>
      <trkpt lat="45.32765" lon="5.57167">
        <ele>196.0</ele>
      </trkpt>
      <trkpt lat="45.32693" lon="5.57408">
        <ele>193.0</ele>
      </trkpt>
      <trkpt lat="45.3268" lon="5.57516">
        <ele>192.0</ele>
      </trkpt>
      <trkpt lat="45.32665" lon="5.57676">
        <ele>192.0</ele>
      </trkpt>
      <trkpt lat="45.32658" lon="5.57814">
        <ele>192.0</ele>
      </trkpt>
      <trkpt lat="45.32633" lon="5.57988">
        <ele>192.0</ele>
      </trkpt>
      <trkpt lat="45.32591" lon="5.58453">
        <ele>194.0</ele>
      </trkpt>
      <trkpt lat="45.32605" lon="5.58575">
        <ele>194.0</ele>
      </trkpt>
      <trkpt lat="45.32708" lon="5.58678">
        <ele>194.0</ele>
      </trkpt>
      <trkpt lat="45.32832" lon="5.59098">
        <ele>193.0</ele>
      </trkpt>
      <trkpt lat="45.32838" lon="5.59269">
        <ele>194.0</ele>
      </trkpt>
      <trkpt lat="45.32925" lon="5.5942">
        <ele>194.0</ele>
      </trkpt>
      <trkpt lat="45.33106" lon="5.60035">
        <ele>195.0</ele>
      </trkpt>
      <trkpt lat="45.3316" lon="5.6028">
        <ele>195.0</ele>
      </trkpt>
      <trkpt lat="45.33197" lon="5.60575">
        <ele>196.0</ele>
      </trkpt>
      <trkpt lat="45.33154" lon="5.60999">
        <ele>196.0</ele>
      </trkpt>
      <trkpt lat="45.33139" lon="5.61207">
        <ele>194.0</ele>
      </trkpt>
      <trkpt lat="45.33108" lon="5.61239">
        <ele>194.0</ele>
      </trkpt>
      <trkpt lat="45.3312" lon="5.61283">
        <ele>194.0</ele>
      </trkpt>
      <trkpt lat="45.33161" lon="5.61262">
        <ele>194.0</ele>
      </trkpt>
      <trkpt lat="45.33289" lon="5.61303">
        <ele>195.0</ele>
      </trkpt>
      <trkpt lat="45.33398" lon="5.61454">
        <ele>195.0</ele>
      </trkpt>
      <trkpt lat="45.33647" lon="5.61769">
        <ele>201.0</ele>
      </trkpt>
      <trkpt lat="45.33758" lon="5.61884">
        <ele>212.0</ele>
      </trkpt>
      <trkpt lat="45.3379" lon="5.61882">
        <ele>217.0</ele>
      </trkpt>
      <trkpt lat="45.33995" lon="5.61463">
        <ele>227.0</ele>
      </trkpt>
      <trkpt lat="45.34088" lon="5.61245">
        <ele>238.0</ele>
      </trkpt>
      <trkpt lat="45.34201" lon="5.61106">
        <ele>247.0</ele>
      </trkpt>
      <trkpt lat="45.34318" lon="5.60859">
        <ele>257.0</ele>
      </trkpt>
      <trkpt lat="45.3445" lon="5.60505">
        <ele>266.0</ele>
      </trkpt>
      <trkpt lat="45.34567" lon="5.60052">
        <ele>278.0</ele>
      </trkpt>
      <trkpt lat="45.34613" lon="5.59719">
        <ele>288.0</ele>
      </trkpt>
      <trkpt lat="45.34735" lon="5.59481">
        <ele>297.0</ele>
      </trkpt>
      <trkpt lat="45.34801" lon="5.59463">
        <ele>299.0</ele>
      </trkpt>
      <trkpt lat="45.34959" lon="5.5955">
        <ele>301.0</ele>
      </trkpt>
      <trkpt lat="45.35081" lon="5.59618">
        <ele>301.0</ele>
      </trkpt>
      <trkpt lat="45.35346" lon="5.59767">
        <ele>301.0</ele>
      </trkpt>
      <trkpt lat="45.35532" lon="5.59873">
        <ele>299.0</ele>
      </trkpt>
      <trkpt lat="45.35723" lon="5.60004">
        <ele>294.0</ele>
      </trkpt>
      <trkpt lat="45.35828" lon="5.60126">
        <ele>294.0</ele>
      </trkpt>
      <trkpt lat="45.35968" lon="5.60034">
        <ele>290.0</ele>
      </trkpt>
      <trkpt lat="45.36124" lon="5.59911">
        <ele>288.0</ele>
      </trkpt>
      <trkpt lat="45.36146" lon="5.59906">
        <ele>288.0</ele>
      </trkpt>
      <trkpt lat="45.36155" lon="5.59886">
        <ele>288.0</ele>
      </trkpt>
      <trkpt lat="45.36266" lon="5.59787">
        <ele>288.0</ele>
      </trkpt>
      <trkpt lat="45.36343" lon="5.59724">
        <ele>289.0</ele>
      </trkpt>
      <trkpt lat="45.36363" lon="5.59666">
        <ele>289.0</ele>
      </trkpt>
      <trkpt lat="45.36418" lon="5.59554">
        <ele>290.0</ele>
      </trkpt>
      <trkpt lat="45.36459" lon="5.59472">
        <ele>291.0</ele>
      </trkpt>
      <trkpt lat="45.36501" lon="5.59358">
        <ele>291.0</ele>
      </trkpt>
      <trkpt lat="45.36524" lon="5.59257">
        <ele>291.0</ele>
      </trkpt>
      <trkpt lat="45.36514" lon="5.59175">
        <ele>291.0</ele>
      </trkpt>
      <trkpt lat="45.36564" lon="5.59114">
        <ele>291.0</ele>
      </trkpt>
      <trkpt lat="45.36657" lon="5.59117">
        <ele>292.0</ele>
      </trkpt>
      <trkpt lat="45.36722" lon="5.5912">
        <ele>296.0</ele>
      </trkpt>
      <trkpt lat="45.36782" lon="5.58951">
        <ele>302.0</ele>
      </trkpt>
      <trkpt lat="45.3681" lon="5.58859">
        <ele>308.0</ele>
      </trkpt>
    </trkseg>
  </trk>
</gpx>