<?xml version="1.0" encoding="UTF-8"?>
<gpx xmlns="http://www.topografix.com/GPX/1/0" xmlns:xsi="http://www.w3.org/2001/XMLSchema-instance" xsi:schemaLocation="http://www.topografix.com/GPX/1/0 http://www.topografix.com/GPX/1/0/gpx.xsd" version="1.0" creator="GPSBabel - https://www.gpsbabel.org">
  <time>2025-10-29T13:09:32.172000Z</time>
  <bounds minlat="46.03" maxlat="46.72037" minlon="5.81537" maxlon="6.45184" />
  <trk>
    <trkseg>
      <trkpt lat="46.72037" lon="5.92196">
        <ele>549.0</ele>
      </trkpt>
      <trkpt lat="46.71771" lon="5.92374">
        <ele>548.0</ele>
      </trkpt>
      <trkpt lat="46.71072" lon="5.92935">
        <ele>600.0</ele>
      </trkpt>
      <trkpt lat="46.70591" lon="5.93163">
        <ele>633.0</ele>
      </trkpt>
      <trkpt lat="46.70064" lon="5.93135">
        <ele>647.0</ele>
      </trkpt>
      <trkpt lat="46.69813" lon="5.93085">
        <ele>640.0</ele>
      </trkpt>
      <trkpt lat="46.69674" lon="5.93108">
        <ele>643.0</ele>
      </trkpt>
      <trkpt lat="46.69509" lon="5.9309">
        <ele>647.0</ele>
      </trkpt>
      <trkpt lat="46.6891" lon="5.92994">
        <ele>644.0</ele>
      </trkpt>
      <trkpt lat="46.68663" lon="5.93041">
        <ele>646.0</ele>
      </trkpt>
      <trkpt lat="46.6827" lon="5.9306">
        <ele>614.0</ele>
      </trkpt>
      <trkpt lat="46.67979" lon="5.93194">
        <ele>593.0</ele>
      </trkpt>
      <trkpt lat="46.67719" lon="5.93344">
        <ele>597.0</ele>
      </trkpt>
      <trkpt lat="46.6747" lon="5.93543">
        <ele>599.0</ele>
      </trkpt>
      <trkpt lat="46.67296" lon="5.93743">
        <ele>612.0</ele>
      </trkpt>
      <trkpt lat="46.67095" lon="5.93881">
        <ele>621.0</ele>
      </trkpt>
      <trkpt lat="46.66912" lon="5.93953">
        <ele>658.0</ele>
      </trkpt>
      <trkpt lat="46.66765" lon="5.94044">
        <ele>664.0</ele>
      </trkpt>
      <trkpt lat="46.66696" lon="5.94122">
        <ele>664.0</ele>
      </trkpt>
      <trkpt lat="46.6667" lon="5.94285">
        <ele>668.0</ele>
      </trkpt>
      <trkpt lat="46.66725" lon="5.94448">
        <ele>678.0</ele>
      </trkpt>
      <trkpt lat="46.66669" lon="5.94571">
        <ele>690.0</ele>
      </trkpt>
      <trkpt lat="46.66591" lon="5.94569">
        <ele>699.0</ele>
      </trkpt>
      <trkpt lat="46.66508" lon="5.94636">
        <ele>708.0</ele>
      </trkpt>
      <trkpt lat="46.66378" lon="5.94695">
        <ele>719.0</ele>
      </trkpt>
      <trkpt lat="46.66293" lon="5.94671">
        <ele>719.0</ele>
      </trkpt>
      <trkpt lat="46.66201" lon="5.94615">
        <ele>722.0</ele>
      </trkpt>
      <trkpt lat="46.66104" lon="5.94592">
        <ele>713.0</ele>
      </trkpt>
      <trkpt lat="46.66037" lon="5.94574">
        <ele>707.0</ele>
      </trkpt>
      <trkpt lat="46.65892" lon="5.94537">
        <ele>703.0</ele>
      </trkpt>
      <trkpt lat="46.65774" lon="5.94522">
        <ele>715.0</ele>
      </trkpt>
      <trkpt lat="46.65695" lon="5.94411">
        <ele>720.0</ele>
      </trkpt>
      <trkpt lat="46.65569" lon="5.9424">
        <ele>720.0</ele>
      </trkpt>
      <trkpt lat="46.65436" lon="5.94102">
        <ele>720.0</ele>
      </trkpt>
      <trkpt lat="46.65144" lon="5.94205">
        <ele>725.0</ele>
      </trkpt>
      <trkpt lat="46.64884" lon="5.94214">
        <ele>730.0</ele>
      </trkpt>
      <trkpt lat="46.64698" lon="5.94088">
        <ele>729.0</ele>
      </trkpt>
      <trkpt lat="46.64397" lon="5.94023">
        <ele>725.0</ele>
      </trkpt>
      <trkpt lat="46.64028" lon="5.94132">
        <ele>712.0</ele>
      </trkpt>
      <trkpt lat="46.63754" lon="5.94336">
        <ele>716.0</ele>
      </trkpt>
      <trkpt lat="46.63605" lon="5.9456">
        <ele>718.0</ele>
      </trkpt>
      <trkpt lat="46.63473" lon="5.94728">
        <ele>726.0</ele>
      </trkpt>
      <trkpt lat="46.63291" lon="5.9468">
        <ele>735.0</ele>
      </trkpt>
      <trkpt lat="46.6313" lon="5.94842">
        <ele>742.0</ele>
      </trkpt>
      <trkpt lat="46.63003" lon="5.94925">
        <ele>753.0</ele>
      </trkpt>
      <trkpt lat="46.62875" lon="5.95152">
        <ele>773.0</ele>
      </trkpt>
      <trkpt lat="46.62708" lon="5.95156">
        <ele>784.0</ele>
      </trkpt>
      <trkpt lat="46.62639" lon="5.9541">
        <ele>788.0</ele>
      </trkpt>
      <trkpt lat="46.62451" lon="5.95763">
        <ele>802.0</ele>
      </trkpt>
      <trkpt lat="46.62267" lon="5.96014">
        <ele>810.0</ele>
      </trkpt>
      <trkpt lat="46.62009" lon="5.96008">
        <ele>809.0</ele>
      </trkpt>
      <trkpt lat="46.61805" lon="5.95945">
        <ele>813.0</ele>
      </trkpt>
      <trkpt lat="46.61549" lon="5.95915">
        <ele>808.0</ele>
      </trkpt>
      <trkpt lat="46.61264" lon="5.95966">
        <ele>808.0</ele>
      </trkpt>
      <trkpt lat="46.6099" lon="5.96101">
        <ele>809.0</ele>
      </trkpt>
      <trkpt lat="46.60843" lon="5.96182">
        <ele>816.0</ele>
      </trkpt>
      <trkpt lat="46.60578" lon="5.96233">
        <ele>821.0</ele>
      </trkpt>
      <trkpt lat="46.60414" lon="5.96215">
        <ele>824.0</ele>
      </trkpt>
      <trkpt lat="46.60118" lon="5.96117">
        <ele>827.0</ele>
      </trkpt>
      <trkpt lat="46.59939" lon="5.96041">
        <ele>828.0</ele>
      </trkpt>
      <trkpt lat="46.59643" lon="5.95896">
        <ele>844.0</ele>
      </trkpt>
      <trkpt lat="46.59395" lon="5.95674">
        <ele>850.0</ele>
      </trkpt>
      <trkpt lat="46.59154" lon="5.9557">
        <ele>857.0</ele>
      </trkpt>
      <trkpt lat="46.59011" lon="5.9556">
        <ele>867.0</ele>
      </trkpt>
      <trkpt lat="46.58872" lon="5.95565">
        <ele>877.0</ele>
      </trkpt>
      <trkpt lat="46.58759" lon="5.95445">
        <ele>885.0</ele>
      </trkpt>
      <trkpt lat="46.58636" lon="5.9532">
        <ele>892.0</ele>
      </trkpt>
      <trkpt lat="46.58477" lon="5.95315">
        <ele>881.0</ele>
      </trkpt>
      <trkpt lat="46.58344" lon="5.95275">
        <ele>877.0</ele>
      </trkpt>
      <trkpt lat="46.5832" lon="5.95278">
        <ele>878.0</ele>
      </trkpt>
      <trkpt lat="46.58315" lon="5.9531">
        <ele>879.0</ele>
      </trkpt>
      <trkpt lat="46.58315" lon="5.95445">
        <ele>883.0</ele>
      </trkpt>
      <trkpt lat="46.58271" lon="5.95749">
        <ele>891.0</ele>
      </trkpt>
      <trkpt lat="46.58144" lon="5.95921">
        <ele>888.0</ele>
      </trkpt>
      <trkpt lat="46.57958" lon="5.9608">
        <ele>891.0</ele>
      </trkpt>
      <trkpt lat="46.57832" lon="5.96394">
        <ele>903.0</ele>
      </trkpt>
      <trkpt lat="46.57765" lon="5.96515">
        <ele>908.0</ele>
      </trkpt>
      <trkpt lat="46.57754" lon="5.96542">
        <ele>908.0</ele>
      </trkpt>
      <trkpt lat="46.57773" lon="5.96614">
        <ele>908.0</ele>
      </trkpt>
      <trkpt lat="46.57687" lon="5.97092">
        <ele>885.0</ele>
      </trkpt>
      <trkpt lat="46.57576" lon="5.97338">
        <ele>877.0</ele>
      </trkpt>
      <trkpt lat="46.57483" lon="5.97417">
        <ele>876.0</ele>
      </trkpt>
      <trkpt lat="46.57414" lon="5.97602">
        <ele>876.0</ele>
      </trkpt>
      <trkpt lat="46.57431" lon="5.97774">
        <ele>885.0</ele>
      </trkpt>
      <trkpt lat="46.57434" lon="5.97962">
        <ele>892.0</ele>
      </trkpt>
      <trkpt lat="46.5746" lon="5.98072">
        <ele>897.0</ele>
      </trkpt>
      <trkpt lat="46.57543" lon="5.98221">
        <ele>908.0</ele>
      </trkpt>
      <trkpt lat="46.57565" lon="5.98423">
        <ele>917.0</ele>
      </trkpt>
      <trkpt lat="46.57441" lon="5.9867">
        <ele>918.0</ele>
      </trkpt>
      <trkpt lat="46.57113" lon="5.99014">
        <ele>936.0</ele>
      </trkpt>
      <trkpt lat="46.56758" lon="5.99436">
        <ele>958.0</ele>
      </trkpt>
      <trkpt lat="46.56634" lon="5.99752">
        <ele>970.0</ele>
      </trkpt>
      <trkpt lat="46.56444" lon="6.00137">
        <ele>996.0</ele>
      </trkpt>
      <trkpt lat="46.56361" lon="6.00459">
        <ele>988.0</ele>
      </trkpt>
      <trkpt lat="46.56254" lon="6.00647">
        <ele>964.0</ele>
      </trkpt>
      <trkpt lat="46.55842" lon="6.00884">
        <ele>945.0</ele>
      </trkpt>
      <trkpt lat="46.55698" lon="6.01167">
        <ele>932.0</ele>
      </trkpt>
      <trkpt lat="46.55576" lon="6.01327">
        <ele>922.0</ele>
      </trkpt>
      <trkpt lat="46.55418" lon="6.01405">
        <ele>902.0</ele>
      </trkpt>
      <trkpt lat="46.55226" lon="6.01429">
        <ele>887.0</ele>
      </trkpt>
      <trkpt lat="46.55003" lon="6.01511">
        <ele>881.0</ele>
      </trkpt>
      <trkpt lat="46.54864" lon="6.01666">
        <ele>876.0</ele>
      </trkpt>
      <trkpt lat="46.54524" lon="6.01737">
        <ele>867.0</ele>
      </trkpt>
      <trkpt lat="46.54374" lon="6.0176">
        <ele>866.0</ele>
      </trkpt>
      <trkpt lat="46.5436" lon="6.01726">
        <ele>868.0</ele>
      </trkpt>
      <trkpt lat="46.54338" lon="6.0172">
        <ele>869.0</ele>
      </trkpt>
      <trkpt lat="46.54244" lon="6.01708">
        <ele>870.0</ele>
      </trkpt>
      <trkpt lat="46.54073" lon="6.01642">
        <ele>860.0</ele>
      </trkpt>
      <trkpt lat="46.53935" lon="6.01631">
        <ele>846.0</ele>
      </trkpt>
      <trkpt lat="46.53841" lon="6.0159">
        <ele>834.0</ele>
      </trkpt>
      <trkpt lat="46.53558" lon="6.01584">
        <ele>816.0</ele>
      </trkpt>
      <trkpt lat="46.53407" lon="6.01629">
        <ele>807.0</ele>
      </trkpt>
      <trkpt lat="46.53279" lon="6.01867">
        <ele>797.0</ele>
      </trkpt>
      <trkpt lat="46.53292" lon="6.02087">
        <ele>803.0</ele>
      </trkpt>
      <trkpt lat="46.53431" lon="6.02312">
        <ele>792.0</ele>
      </trkpt>
      <trkpt lat="46.53551" lon="6.02594">
        <ele>770.0</ele>
      </trkpt>
      <trkpt lat="46.53568" lon="6.02764">
        <ele>757.0</ele>
      </trkpt>
      <trkpt lat="46.5347" lon="6.02679">
        <ele>753.0</ele>
      </trkpt>
      <trkpt lat="46.5333" lon="6.02472">
        <ele>746.0</ele>
      </trkpt>
      <trkpt lat="46.53201" lon="6.02352">
        <ele>739.0</ele>
      </trkpt>
      <trkpt lat="46.53016" lon="6.02215">
        <ele>730.0</ele>
      </trkpt>
      <trkpt lat="46.52857" lon="6.02235">
        <ele>719.0</ele>
      </trkpt>
      <trkpt lat="46.52707" lon="6.02275">
        <ele>709.0</ele>
      </trkpt>
      <trkpt lat="46.52567" lon="6.02307">
        <ele>710.0</ele>
      </trkpt>
      <trkpt lat="46.524" lon="6.02301">
        <ele>720.0</ele>
      </trkpt>
      <trkpt lat="46.52174" lon="6.02369">
        <ele>727.0</ele>
      </trkpt>
      <trkpt lat="46.52037" lon="6.02521">
        <ele>738.0</ele>
      </trkpt>
      <trkpt lat="46.51878" lon="6.02692">
        <ele>743.0</ele>
      </trkpt>
      <trkpt lat="46.51726" lon="6.02748">
        <ele>748.0</ele>
      </trkpt>
      <trkpt lat="46.51638" lon="6.0274">
        <ele>749.0</ele>
      </trkpt>
      <trkpt lat="46.51522" lon="6.02739">
        <ele>748.0</ele>
      </trkpt>
      <trkpt lat="46.51256" lon="6.02822">
        <ele>729.0</ele>
      </trkpt>
      <trkpt lat="46.51127" lon="6.02949">
        <ele>734.0</ele>
      </trkpt>
      <trkpt lat="46.51006" lon="6.02965">
        <ele>739.0</ele>
      </trkpt>
      <trkpt lat="46.50894" lon="6.02984">
        <ele>749.0</ele>
      </trkpt>
      <trkpt lat="46.50749" lon="6.02964">
        <ele>752.0</ele>
      </trkpt>
      <trkpt lat="46.50627" lon="6.0296">
        <ele>752.0</ele>
      </trkpt>
      <trkpt lat="46.50371" lon="6.02979">
        <ele>763.0</ele>
      </trkpt>
      <trkpt lat="46.50257" lon="6.02976">
        <ele>779.0</ele>
      </trkpt>
      <trkpt lat="46.50113" lon="6.03008">
        <ele>790.0</ele>
      </trkpt>
      <trkpt lat="46.50007" lon="6.02963">
        <ele>794.0</ele>
      </trkpt>
      <trkpt lat="46.49839" lon="6.02966">
        <ele>797.0</ele>
      </trkpt>
      <trkpt lat="46.49618" lon="6.02962">
        <ele>809.0</ele>
      </trkpt>
      <trkpt lat="46.49484" lon="6.0293">
        <ele>834.0</ele>
      </trkpt>
      <trkpt lat="46.49301" lon="6.02785">
        <ele>848.0</ele>
      </trkpt>
      <trkpt lat="46.4923" lon="6.02789">
        <ele>846.0</ele>
      </trkpt>
      <trkpt lat="46.49068" lon="6.02839">
        <ele>847.0</ele>
      </trkpt>
      <trkpt lat="46.49007" lon="6.02913">
        <ele>858.0</ele>
      </trkpt>
      <trkpt lat="46.48962" lon="6.02982">
        <ele>869.0</ele>
      </trkpt>
      <trkpt lat="46.49044" lon="6.03141">
        <ele>881.0</ele>
      </trkpt>
      <trkpt lat="46.4914" lon="6.03357">
        <ele>899.0</ele>
      </trkpt>
      <trkpt lat="46.49228" lon="6.03507">
        <ele>911.0</ele>
      </trkpt>
      <trkpt lat="46.49423" lon="6.03584">
        <ele>900.0</ele>
      </trkpt>
      <trkpt lat="46.49448" lon="6.03696">
        <ele>901.0</ele>
      </trkpt>
      <trkpt lat="46.49442" lon="6.04025">
        <ele>916.0</ele>
      </trkpt>
      <trkpt lat="46.49418" lon="6.04256">
        <ele>927.0</ele>
      </trkpt>
      <trkpt lat="46.49368" lon="6.04459">
        <ele>935.0</ele>
      </trkpt>
      <trkpt lat="46.49273" lon="6.04436">
        <ele>944.0</ele>
      </trkpt>
      <trkpt lat="46.4921" lon="6.04414">
        <ele>957.0</ele>
      </trkpt>
      <trkpt lat="46.49263" lon="6.04312">
        <ele>967.0</ele>
      </trkpt>
      <trkpt lat="46.49202" lon="6.04198">
        <ele>971.0</ele>
      </trkpt>
      <trkpt lat="46.491" lon="6.03999">
        <ele>971.0</ele>
      </trkpt>
      <trkpt lat="46.49" lon="6.04009">
        <ele>971.0</ele>
      </trkpt>
      <trkpt lat="46.48894" lon="6.04223">
        <ele>980.0</ele>
      </trkpt>
      <trkpt lat="46.48803" lon="6.04272">
        <ele>991.0</ele>
      </trkpt>
      <trkpt lat="46.48712" lon="6.04171">
        <ele>997.0</ele>
      </trkpt>
      <trkpt lat="46.48518" lon="6.04143">
        <ele>1008.0</ele>
      </trkpt>
      <trkpt lat="46.48419" lon="6.0431">
        <ele>1019.0</ele>
      </trkpt>
      <trkpt lat="46.4823" lon="6.04503">
        <ele>1032.0</ele>
      </trkpt>
      <trkpt lat="46.48227" lon="6.04637">
        <ele>1046.0</ele>
      </trkpt>
      <trkpt lat="46.48378" lon="6.04809">
        <ele>1061.0</ele>
      </trkpt>
      <trkpt lat="46.48365" lon="6.0506">
        <ele>1065.0</ele>
      </trkpt>
      <trkpt lat="46.48462" lon="6.05307">
        <ele>1078.0</ele>
      </trkpt>
      <trkpt lat="46.48522" lon="6.05482">
        <ele>1092.0</ele>
      </trkpt>
      <trkpt lat="46.48579" lon="6.05813">
        <ele>1106.0</ele>
      </trkpt>
      <trkpt lat="46.48414" lon="6.05992">
        <ele>1108.0</ele>
      </trkpt>
      <trkpt lat="46.48117" lon="6.06264">
        <ele>1111.0</ele>
      </trkpt>
      <trkpt lat="46.47882" lon="6.06418">
        <ele>1109.0</ele>
      </trkpt>
      <trkpt lat="46.47617" lon="6.06496">
        <ele>1106.0</ele>
      </trkpt>
      <trkpt lat="46.47609" lon="6.06482">
        <ele>1102.0</ele>
      </trkpt>
      <trkpt lat="46.47595" lon="6.06485">
        <ele>1102.0</ele>
      </trkpt>
      <trkpt lat="46.4749" lon="6.06453">
        <ele>1102.0</ele>
      </trkpt>
      <trkpt lat="46.47127" lon="6.06487">
        <ele>1110.0</ele>
      </trkpt>
      <trkpt lat="46.46854" lon="6.0669">
        <ele>1121.0</ele>
      </trkpt>
      <trkpt lat="46.46658" lon="6.06995">
        <ele>1134.0</ele>
      </trkpt>
      <trkpt lat="46.46306" lon="6.07213">
        <ele>1143.0</ele>
      </trkpt>
      <trkpt lat="46.46292" lon="6.072">
        <ele>1149.0</ele>
      </trkpt>
      <trkpt lat="46.46278" lon="6.07212">
        <ele>1150.0</ele>
      </trkpt>
      <trkpt lat="46.46175" lon="6.07191">
        <ele>1155.0</ele>
      </trkpt>
      <trkpt lat="46.4598" lon="6.07165">
        <ele>1160.0</ele>
      </trkpt>
      <trkpt lat="46.45861" lon="6.07344">
        <ele>1154.0</ele>
      </trkpt>
      <trkpt lat="46.45765" lon="6.07529">
        <ele>1158.0</ele>
      </trkpt>
      <trkpt lat="46.45615" lon="6.07333">
        <ele>1173.0</ele>
      </trkpt>
      <trkpt lat="46.45491" lon="6.07164">
        <ele>1176.0</ele>
      </trkpt>
      <trkpt lat="46.45259" lon="6.07066">
        <ele>1178.0</ele>
      </trkpt>
      <trkpt lat="46.45049" lon="6.07344">
        <ele>1191.0</ele>
      </trkpt>
      <trkpt lat="46.44901" lon="6.0759">
        <ele>1206.0</ele>
      </trkpt>
      <trkpt lat="46.44847" lon="6.0787">
        <ele>1205.0</ele>
      </trkpt>
      <trkpt lat="46.44662" lon="6.08036">
        <ele>1207.0</ele>
      </trkpt>
      <trkpt lat="46.44483" lon="6.08104">
        <ele>1219.0</ele>
      </trkpt>
      <trkpt lat="46.44408" lon="6.0835">
        <ele>1231.0</ele>
      </trkpt>
      <trkpt lat="46.44295" lon="6.08501">
        <ele>1238.0</ele>
      </trkpt>
      <trkpt lat="46.44088" lon="6.08265">
        <ele>1247.0</ele>
      </trkpt>
      <trkpt lat="46.43883" lon="6.07993">
        <ele>1253.0</ele>
      </trkpt>
      <trkpt lat="46.43708" lon="6.07853">
        <ele>1255.0</ele>
      </trkpt>
      <trkpt lat="46.43473" lon="6.07626">
        <ele>1250.0</ele>
      </trkpt>
      <trkpt lat="46.43292" lon="6.07422">
        <ele>1252.0</ele>
      </trkpt>
      <trkpt lat="46.4313" lon="6.07292">
        <ele>1253.0</ele>
      </trkpt>
      <trkpt lat="46.42996" lon="6.07262">
        <ele>1253.0</ele>
      </trkpt>
      <trkpt lat="46.42903" lon="6.07236">
        <ele>1251.0</ele>
      </trkpt>
      <trkpt lat="46.42786" lon="6.07065">
        <ele>1245.0</ele>
      </trkpt>
      <trkpt lat="46.42719" lon="6.06912">
        <ele>1238.0</ele>
      </trkpt>
      <trkpt lat="46.42499" lon="6.06622">
        <ele>1233.0</ele>
      </trkpt>
      <trkpt lat="46.42322" lon="6.06412">
        <ele>1225.0</ele>
      </trkpt>
      <trkpt lat="46.42154" lon="6.06248">
        <ele>1206.0</ele>
      </trkpt>
      <trkpt lat="46.42024" lon="6.06148">
        <ele>1198.0</ele>
      </trkpt>
      <trkpt lat="46.41913" lon="6.06015">
        <ele>1188.0</ele>
      </trkpt>
      <trkpt lat="46.41805" lon="6.0583">
        <ele>1179.0</ele>
      </trkpt>
      <trkpt lat="46.41669" lon="6.05605">
        <ele>1171.0</ele>
      </trkpt>
      <trkpt lat="46.4161" lon="6.05416">
        <ele>1163.0</ele>
      </trkpt>
      <trkpt lat="46.41549" lon="6.05309">
        <ele>1161.0</ele>
      </trkpt>
      <trkpt lat="46.41426" lon="6.0525">
        <ele>1156.0</ele>
      </trkpt>
      <trkpt lat="46.41292" lon="6.0523">
        <ele>1154.0</ele>
      </trkpt>
      <trkpt lat="46.41191" lon="6.05128">
        <ele>1156.0</ele>
      </trkpt>
      <trkpt lat="46.41093" lon="6.0508">
        <ele>1158.0</ele>
      </trkpt>
      <trkpt lat="46.40948" lon="6.05048">
        <ele>1153.0</ele>
      </trkpt>
      <trkpt lat="46.40863" lon="6.04941">
        <ele>1146.0</ele>
      </trkpt>
      <trkpt lat="46.40615" lon="6.04691">
        <ele>1134.0</ele>
      </trkpt>
      <trkpt lat="46.40524" lon="6.04574">
        <ele>1127.0</ele>
      </trkpt>
      <trkpt lat="46.40417" lon="6.04346">
        <ele>1121.0</ele>
      </trkpt>
      <trkpt lat="46.40324" lon="6.04252">
        <ele>1114.0</ele>
      </trkpt>
      <trkpt lat="46.40226" lon="6.041">
        <ele>1108.0</ele>
      </trkpt>
      <trkpt lat="46.4008" lon="6.03909">
        <ele>1098.0</ele>
      </trkpt>
      <trkpt lat="46.39948" lon="6.03733">
        <ele>1089.0</ele>
      </trkpt>
      <trkpt lat="46.39842" lon="6.03585">
        <ele>1082.0</ele>
      </trkpt>
      <trkpt lat="46.39784" lon="6.03386">
        <ele>1078.0</ele>
      </trkpt>
      <trkpt lat="46.397" lon="6.0327">
        <ele>1075.0</ele>
      </trkpt>
      <trkpt lat="46.39551" lon="6.03241">
        <ele>1067.0</ele>
      </trkpt>
      <trkpt lat="46.39405" lon="6.03184">
        <ele>1063.0</ele>
      </trkpt>
      <trkpt lat="46.39294" lon="6.02997">
        <ele>1062.0</ele>
      </trkpt>
      <trkpt lat="46.39236" lon="6.02865">
        <ele>1059.0</ele>
      </trkpt>
      <trkpt lat="46.39182" lon="6.027">
        <ele>1051.0</ele>
      </trkpt>
      <trkpt lat="46.39088" lon="6.02644">
        <ele>1045.0</ele>
      </trkpt>
      <trkpt lat="46.38947" lon="6.0256">
        <ele>1039.0</ele>
      </trkpt>
      <trkpt lat="46.38826" lon="6.02386">
        <ele>1031.0</ele>
      </trkpt>
      <trkpt lat="46.38662" lon="6.0221">
        <ele>1027.0</ele>
      </trkpt>
      <trkpt lat="46.38544" lon="6.02092">
        <ele>1017.0</ele>
      </trkpt>
      <trkpt lat="46.38351" lon="6.02005">
        <ele>1007.0</ele>
      </trkpt>
      <trkpt lat="46.38267" lon="6.01813">
        <ele>1004.0</ele>
      </trkpt>
      <trkpt lat="46.38098" lon="6.01633">
        <ele>998.0</ele>
      </trkpt>
      <trkpt lat="46.37959" lon="6.01766">
        <ele>990.0</ele>
      </trkpt>
      <trkpt lat="46.37852" lon="6.01886">
        <ele>996.0</ele>
      </trkpt>
      <trkpt lat="46.3771" lon="6.01867">
        <ele>1015.0</ele>
      </trkpt>
      <trkpt lat="46.37568" lon="6.01603">
        <ele>1014.0</ele>
      </trkpt>
      <trkpt lat="46.37502" lon="6.01431">
        <ele>1004.0</ele>
      </trkpt>
      <trkpt lat="46.37394" lon="6.01225">
        <ele>1017.0</ele>
      </trkpt>
      <trkpt lat="46.37357" lon="6.01073">
        <ele>1015.0</ele>
      </trkpt>
      <trkpt lat="46.37255" lon="6.00921">
        <ele>1012.0</ele>
      </trkpt>
      <trkpt lat="46.37139" lon="6.00681">
        <ele>1012.0</ele>
      </trkpt>
      <trkpt lat="46.37017" lon="6.00457">
        <ele>1008.0</ele>
      </trkpt>
      <trkpt lat="46.3694" lon="6.0029">
        <ele>1002.0</ele>
      </trkpt>
      <trkpt lat="46.36887" lon="6.00115">
        <ele>1001.0</ele>
      </trkpt>
      <trkpt lat="46.36863" lon="5.99945">
        <ele>1001.0</ele>
      </trkpt>
      <trkpt lat="46.36772" lon="5.99806">
        <ele>997.0</ele>
      </trkpt>
      <trkpt lat="46.36626" lon="5.99626">
        <ele>992.0</ele>
      </trkpt>
      <trkpt lat="46.36538" lon="5.99403">
        <ele>995.0</ele>
      </trkpt>
      <trkpt lat="46.36454" lon="5.99222">
        <ele>996.0</ele>
      </trkpt>
      <trkpt lat="46.36297" lon="5.98981">
        <ele>991.0</ele>
      </trkpt>
      <trkpt lat="46.3618" lon="5.98805">
        <ele>991.0</ele>
      </trkpt>
      <trkpt lat="46.36077" lon="5.98671">
        <ele>994.0</ele>
      </trkpt>
      <trkpt lat="46.35971" lon="5.98533">
        <ele>988.0</ele>
      </trkpt>
      <trkpt lat="46.35838" lon="5.98348">
        <ele>982.0</ele>
      </trkpt>
      <trkpt lat="46.35744" lon="5.98235">
        <ele>974.0</ele>
      </trkpt>
      <trkpt lat="46.35412" lon="5.9802">
        <ele>961.0</ele>
      </trkpt>
      <trkpt lat="46.35211" lon="5.9783">
        <ele>954.0</ele>
      </trkpt>
      <trkpt lat="46.3487" lon="5.97513">
        <ele>955.0</ele>
      </trkpt>
      <trkpt lat="46.34607" lon="5.973">
        <ele>941.0</ele>
      </trkpt>
      <trkpt lat="46.34371" lon="5.97072">
        <ele>951.0</ele>
      </trkpt>
      <trkpt lat="46.34182" lon="5.96818">
        <ele>946.0</ele>
      </trkpt>
      <trkpt lat="46.33838" lon="5.96638">
        <ele>940.0</ele>
      </trkpt>
      <trkpt lat="46.337" lon="5.96505">
        <ele>940.0</ele>
      </trkpt>
      <trkpt lat="46.33589" lon="5.96367">
        <ele>941.0</ele>
      </trkpt>
      <trkpt lat="46.33367" lon="5.96146">
        <ele>947.0</ele>
      </trkpt>
      <trkpt lat="46.33145" lon="5.96022">
        <ele>958.0</ele>
      </trkpt>
      <trkpt lat="46.33044" lon="5.95885">
        <ele>944.0</ele>
      </trkpt>
      <trkpt lat="46.3295" lon="5.95892">
        <ele>941.0</ele>
      </trkpt>
      <trkpt lat="46.32875" lon="5.95853">
        <ele>941.0</ele>
      </trkpt>
      <trkpt lat="46.32771" lon="5.95824">
        <ele>938.0</ele>
      </trkpt>
      <trkpt lat="46.32697" lon="5.95735">
        <ele>932.0</ele>
      </trkpt>
      <trkpt lat="46.32575" lon="5.9569">
        <ele>924.0</ele>
      </trkpt>
      <trkpt lat="46.32409" lon="5.95617">
        <ele>916.0</ele>
      </trkpt>
      <trkpt lat="46.32265" lon="5.95545">
        <ele>910.0</ele>
      </trkpt>
      <trkpt lat="46.32139" lon="5.95452">
        <ele>906.0</ele>
      </trkpt>
      <trkpt lat="46.31991" lon="5.95306">
        <ele>904.0</ele>
      </trkpt>
      <trkpt lat="46.31812" lon="5.95115">
        <ele>903.0</ele>
      </trkpt>
      <trkpt lat="46.31655" lon="5.95031">
        <ele>902.0</ele>
      </trkpt>
      <trkpt lat="46.31458" lon="5.94893">
        <ele>900.0</ele>
      </trkpt>
      <trkpt lat="46.31322" lon="5.9479">
        <ele>897.0</ele>
      </trkpt>
      <trkpt lat="46.31171" lon="5.94711">
        <ele>906.0</ele>
      </trkpt>
      <trkpt lat="46.31015" lon="5.94646">
        <ele>904.0</ele>
      </trkpt>
      <trkpt lat="46.30794" lon="5.94564">
        <ele>900.0</ele>
      </trkpt>
      <trkpt lat="46.30579" lon="5.94441">
        <ele>898.0</ele>
      </trkpt>
      <trkpt lat="46.30447" lon="5.94313">
        <ele>896.0</ele>
      </trkpt>
      <trkpt lat="46.30259" lon="5.94045">
        <ele>891.0</ele>
      </trkpt>
      <trkpt lat="46.30093" lon="5.93931">
        <ele>886.0</ele>
      </trkpt>
      <trkpt lat="46.29864" lon="5.93798">
        <ele>889.0</ele>
      </trkpt>
      <trkpt lat="46.29628" lon="5.93548">
        <ele>886.0</ele>
      </trkpt>
      <trkpt lat="46.29528" lon="5.93403">
        <ele>889.0</ele>
      </trkpt>
      <trkpt lat="46.29398" lon="5.93228">
        <ele>899.0</ele>
      </trkpt>
      <trkpt lat="46.29212" lon="5.93083">
        <ele>903.0</ele>
      </trkpt>
      <trkpt lat="46.29084" lon="5.92996">
        <ele>905.0</ele>
      </trkpt>
      <trkpt lat="46.28946" lon="5.92894">
        <ele>906.0</ele>
      </trkpt>
      <trkpt lat="46.28835" lon="5.92879">
        <ele>911.0</ele>
      </trkpt>
      <trkpt lat="46.28691" lon="5.92793">
        <ele>902.0</ele>
      </trkpt>
      <trkpt lat="46.28482" lon="5.92727">
        <ele>899.0</ele>
      </trkpt>
      <trkpt lat="46.28267" lon="5.92586">
        <ele>904.0</ele>
      </trkpt>
      <trkpt lat="46.28131" lon="5.92561">
        <ele>898.0</ele>
      </trkpt>
      <trkpt lat="46.2796" lon="5.92572">
        <ele>891.0</ele>
      </trkpt>
      <trkpt lat="46.27774" lon="5.92501">
        <ele>878.0</ele>
      </trkpt>
      <trkpt lat="46.27626" lon="5.92371">
        <ele>874.0</ele>
      </trkpt>
      <trkpt lat="46.27584" lon="5.92174">
        <ele>870.0</ele>
      </trkpt>
      <trkpt lat="46.27464" lon="5.92015">
        <ele>861.0</ele>
      </trkpt>
      <trkpt lat="46.27352" lon="5.91864">
        <ele>853.0</ele>
      </trkpt>
      <trkpt lat="46.27296" lon="5.91727">
        <ele>843.0</ele>
      </trkpt>
      <trkpt lat="46.2715" lon="5.91602">
        <ele>836.0</ele>
      </trkpt>
      <trkpt lat="46.2702" lon="5.91457">
        <ele>830.0</ele>
      </trkpt>
      <trkpt lat="46.26943" lon="5.91389">
        <ele>826.0</ele>
      </trkpt>
      <trkpt lat="46.26931" lon="5.91206">
        <ele>823.0</ele>
      </trkpt>
      <trkpt lat="46.26886" lon="5.91025">
        <ele>816.0</ele>
      </trkpt>
      <trkpt lat="46.26808" lon="5.90882">
        <ele>806.0</ele>
      </trkpt>
      <trkpt lat="46.26698" lon="5.9075">
        <ele>796.0</ele>
      </trkpt>
      <trkpt lat="46.26595" lon="5.90586">
        <ele>793.0</ele>
      </trkpt>
      <trkpt lat="46.26491" lon="5.90524">
        <ele>796.0</ele>
      </trkpt>
      <trkpt lat="46.26302" lon="5.9038">
        <ele>801.0</ele>
      </trkpt>
      <trkpt lat="46.26186" lon="5.90327">
        <ele>804.0</ele>
      </trkpt>
      <trkpt lat="46.26051" lon="5.90254">
        <ele>806.0</ele>
      </trkpt>
      <trkpt lat="46.25973" lon="5.90109">
        <ele>798.0</ele>
      </trkpt>
      <trkpt lat="46.25864" lon="5.90025">
        <ele>796.0</ele>
      </trkpt>
      <trkpt lat="46.25751" lon="5.89868">
        <ele>798.0</ele>
      </trkpt>
      <trkpt lat="46.25659" lon="5.89772">
        <ele>795.0</ele>
      </trkpt>
      <trkpt lat="46.25572" lon="5.89651">
        <ele>780.0</ele>
      </trkpt>
      <trkpt lat="46.2546" lon="5.89538">
        <ele>769.0</ele>
      </trkpt>
      <trkpt lat="46.25341" lon="5.89475">
        <ele>766.0</ele>
      </trkpt>
      <trkpt lat="46.25252" lon="5.89406">
        <ele>759.0</ele>
      </trkpt>
      <trkpt lat="46.25133" lon="5.89378">
        <ele>764.0</ele>
      </trkpt>
      <trkpt lat="46.25" lon="5.89327">
        <ele>795.0</ele>
      </trkpt>
      <trkpt lat="46.24841" lon="5.89287">
        <ele>807.0</ele>
      </trkpt>
      <trkpt lat="46.24688" lon="5.89382">
        <ele>794.0</ele>
      </trkpt>
      <trkpt lat="46.24591" lon="5.8952">
        <ele>761.0</ele>
      </trkpt>
      <trkpt lat="46.24618" lon="5.89675">
        <ele>744.0</ele>
      </trkpt>
      <trkpt lat="46.2443" lon="5.89727">
        <ele>740.0</ele>
      </trkpt>
      <trkpt lat="46.24222" lon="5.89643">
        <ele>717.0</ele>
      </trkpt>
      <trkpt lat="46.24037" lon="5.8954">
        <ele>712.0</ele>
      </trkpt>
      <trkpt lat="46.2382" lon="5.89353">
        <ele>715.0</ele>
      </trkpt>
      <trkpt lat="46.23704" lon="5.89112">
        <ele>730.0</ele>
      </trkpt>
      <trkpt lat="46.23581" lon="5.89024">
        <ele>722.0</ele>
      </trkpt>
      <trkpt lat="46.2344" lon="5.88944">
        <ele>714.0</ele>
      </trkpt>
      <trkpt lat="46.23283" lon="5.88741">
        <ele>703.0</ele>
      </trkpt>
      <trkpt lat="46.23138" lon="5.88512">
        <ele>689.0</ele>
      </trkpt>
      <trkpt lat="46.23043" lon="5.883">
        <ele>672.0</ele>
      </trkpt>
      <trkpt lat="46.22902" lon="5.8812">
        <ele>653.0</ele>
      </trkpt>
      <trkpt lat="46.22764" lon="5.88011">
        <ele>645.0</ele>
      </trkpt>
      <trkpt lat="46.22625" lon="5.87726">
        <ele>632.0</ele>
      </trkpt>
      <trkpt lat="46.2254" lon="5.87478">
        <ele>615.0</ele>
      </trkpt>
      <trkpt lat="46.22476" lon="5.87236">
        <ele>611.0</ele>
      </trkpt>
      <trkpt lat="46.22407" lon="5.87088">
        <ele>598.0</ele>
      </trkpt>
      <trkpt lat="46.22398" lon="5.86961">
        <ele>592.0</ele>
      </trkpt>
      <trkpt lat="46.22291" lon="5.86779">
        <ele>587.0</ele>
      </trkpt>
      <trkpt lat="46.22051" lon="5.86649">
        <ele>583.0</ele>
      </trkpt>
      <trkpt lat="46.21897" lon="5.86498">
        <ele>578.0</ele>
      </trkpt>
      <trkpt lat="46.21687" lon="5.86415">
        <ele>576.0</ele>
      </trkpt>
      <trkpt lat="46.21413" lon="5.86369">
        <ele>571.0</ele>
      </trkpt>
      <trkpt lat="46.21238" lon="5.86386">
        <ele>569.0</ele>
      </trkpt>
      <trkpt lat="46.21082" lon="5.86394">
        <ele>573.0</ele>
      </trkpt>
      <trkpt lat="46.20987" lon="5.86353">
        <ele>578.0</ele>
      </trkpt>
      <trkpt lat="46.2089" lon="5.8633">
        <ele>584.0</ele>
      </trkpt>
      <trkpt lat="46.20755" lon="5.86285">
        <ele>593.0</ele>
      </trkpt>
      <trkpt lat="46.20616" lon="5.86203">
        <ele>600.0</ele>
      </trkpt>
      <trkpt lat="46.20503" lon="5.86103">
        <ele>602.0</ele>
      </trkpt>
      <trkpt lat="46.20408" lon="5.86053">
        <ele>606.0</ele>
      </trkpt>
      <trkpt lat="46.20355" lon="5.85959">
        <ele>609.0</ele>
      </trkpt>
      <trkpt lat="46.2031" lon="5.85812">
        <ele>609.0</ele>
      </trkpt>
      <trkpt lat="46.20299" lon="5.85671">
        <ele>606.0</ele>
      </trkpt>
      <trkpt lat="46.20271" lon="5.85582">
        <ele>607.0</ele>
      </trkpt>
      <trkpt lat="46.2018" lon="5.8549">
        <ele>611.0</ele>
      </trkpt>
      <trkpt lat="46.20069" lon="5.85407">
        <ele>621.0</ele>
      </trkpt>
      <trkpt lat="46.19937" lon="5.85346">
        <ele>627.0</ele>
      </trkpt>
      <trkpt lat="46.19796" lon="5.85289">
        <ele>623.0</ele>
      </trkpt>
      <trkpt lat="46.19674" lon="5.85136">
        <ele>646.0</ele>
      </trkpt>
      <trkpt lat="46.19654" lon="5.84996">
        <ele>654.0</ele>
      </trkpt>
      <trkpt lat="46.19604" lon="5.84871">
        <ele>661.0</ele>
      </trkpt>
      <trkpt lat="46.1955" lon="5.84726">
        <ele>676.0</ele>
      </trkpt>
      <trkpt lat="46.19539" lon="5.84579">
        <ele>678.0</ele>
      </trkpt>
      <trkpt lat="46.19437" lon="5.84401">
        <ele>677.0</ele>
      </trkpt>
      <trkpt lat="46.19326" lon="5.84309">
        <ele>687.0</ele>
      </trkpt>
      <trkpt lat="46.19206" lon="5.84132">
        <ele>702.0</ele>
      </trkpt>
      <trkpt lat="46.19121" lon="5.83927">
        <ele>707.0</ele>
      </trkpt>
      <trkpt lat="46.19058" lon="5.83779">
        <ele>715.0</ele>
      </trkpt>
      <trkpt lat="46.19" lon="5.83652">
        <ele>720.0</ele>
      </trkpt>
      <trkpt lat="46.19033" lon="5.83487">
        <ele>722.0</ele>
      </trkpt>
      <trkpt lat="46.19019" lon="5.83292">
        <ele>714.0</ele>
      </trkpt>
      <trkpt lat="46.18896" lon="5.8328">
        <ele>710.0</ele>
      </trkpt>
      <trkpt lat="46.18791" lon="5.83214">
        <ele>710.0</ele>
      </trkpt>
      <trkpt lat="46.18699" lon="5.83111">
        <ele>705.0</ele>
      </trkpt>
      <trkpt lat="46.18567" lon="5.8308">
        <ele>700.0</ele>
      </trkpt>
      <trkpt lat="46.18414" lon="5.8301">
        <ele>692.0</ele>
      </trkpt>
      <trkpt lat="46.18295" lon="5.8291">
        <ele>687.0</ele>
      </trkpt>
      <trkpt lat="46.18195" lon="5.82731">
        <ele>688.0</ele>
      </trkpt>
      <trkpt lat="46.18093" lon="5.82517">
        <ele>679.0</ele>
      </trkpt>
      <trkpt lat="46.1799" lon="5.82422">
        <ele>681.0</ele>
      </trkpt>
      <trkpt lat="46.17845" lon="5.82401">
        <ele>681.0</ele>
      </trkpt>
      <trkpt lat="46.17726" lon="5.82366">
        <ele>680.0</ele>
      </trkpt>
      <trkpt lat="46.17625" lon="5.82366">
        <ele>677.0</ele>
      </trkpt>
      <trkpt lat="46.17574" lon="5.82255">
        <ele>667.0</ele>
      </trkpt>
      <trkpt lat="46.17512" lon="5.8216">
        <ele>659.0</ele>
      </trkpt>
      <trkpt lat="46.17441" lon="5.82097">
        <ele>653.0</ele>
      </trkpt>
      <trkpt lat="46.17348" lon="5.8204">
        <ele>645.0</ele>
      </trkpt>
      <trkpt lat="46.17275" lon="5.81983">
        <ele>640.0</ele>
      </trkpt>
      <trkpt lat="46.17194" lon="5.81906">
        <ele>635.0</ele>
      </trkpt>
      <trkpt lat="46.17097" lon="5.81873">
        <ele>627.0</ele>
      </trkpt>
      <trkpt lat="46.1699" lon="5.81864">
        <ele>618.0</ele>
      </trkpt>
      <trkpt lat="46.16909" lon="5.81914">
        <ele>608.0</ele>
      </trkpt>
      <trkpt lat="46.16851" lon="5.81898">
        <ele>604.0</ele>
      </trkpt>
      <trkpt lat="46.16799" lon="5.81929">
        <ele>604.0</ele>
      </trkpt>
      <trkpt lat="46.16748" lon="5.81907">
        <ele>603.0</ele>
      </trkpt>
      <trkpt lat="46.16701" lon="5.81895">
        <ele>602.0</ele>
      </trkpt>
      <trkpt lat="46.1663" lon="5.81919">
        <ele>601.0</ele>
      </trkpt>
      <trkpt lat="46.16557" lon="5.81929">
        <ele>599.0</ele>
      </trkpt>
      <trkpt lat="46.16525" lon="5.8183">
        <ele>595.0</ele>
      </trkpt>
      <trkpt lat="46.16397" lon="5.81751">
        <ele>585.0</ele>
      </trkpt>
      <trkpt lat="46.1632" lon="5.81744">
        <ele>579.0</ele>
      </trkpt>
      <trkpt lat="46.1624" lon="5.81702">
        <ele>574.0</ele>
      </trkpt>
      <trkpt lat="46.1617" lon="5.81661">
        <ele>572.0</ele>
      </trkpt>
      <trkpt lat="46.16112" lon="5.81633">
        <ele>571.0</ele>
      </trkpt>
      <trkpt lat="46.16055" lon="5.81604">
        <ele>569.0</ele>
      </trkpt>
      <trkpt lat="46.16003" lon="5.81567">
        <ele>564.0</ele>
      </trkpt>
      <trkpt lat="46.15962" lon="5.8154">
        <ele>559.0</ele>
      </trkpt>
      <trkpt lat="46.15885" lon="5.8156">
        <ele>553.0</ele>
      </trkpt>
      <trkpt lat="46.15799" lon="5.81582">
        <ele>552.0</ele>
      </trkpt>
      <trkpt lat="46.15734" lon="5.81639">
        <ele>552.0</ele>
      </trkpt>
      <trkpt lat="46.1564" lon="5.81647">
        <ele>553.0</ele>
      </trkpt>
      <trkpt lat="46.15535" lon="5.8163">
        <ele>556.0</ele>
      </trkpt>
      <trkpt lat="46.15412" lon="5.81617">
        <ele>546.0</ele>
      </trkpt>
      <trkpt lat="46.15325" lon="5.81684">
        <ele>541.0</ele>
      </trkpt>
      <trkpt lat="46.15243" lon="5.81783">
        <ele>541.0</ele>
      </trkpt>
      <trkpt lat="46.15222" lon="5.8191">
        <ele>543.0</ele>
      </trkpt>
      <trkpt lat="46.1514" lon="5.82027">
        <ele>551.0</ele>
      </trkpt>
      <trkpt lat="46.1514" lon="5.82197">
        <ele>550.0</ele>
      </trkpt>
      <trkpt lat="46.15102" lon="5.82267">
        <ele>549.0</ele>
      </trkpt>
      <trkpt lat="46.15005" lon="5.82251">
        <ele>553.0</ele>
      </trkpt>
      <trkpt lat="46.14864" lon="5.82298">
        <ele>559.0</ele>
      </trkpt>
      <trkpt lat="46.14757" lon="5.82382">
        <ele>558.0</ele>
      </trkpt>
      <trkpt lat="46.14624" lon="5.82488">
        <ele>557.0</ele>
      </trkpt>
      <trkpt lat="46.14462" lon="5.82581">
        <ele>558.0</ele>
      </trkpt>
      <trkpt lat="46.14348" lon="5.82635">
        <ele>559.0</ele>
      </trkpt>
      <trkpt lat="46.14141" lon="5.82749">
        <ele>559.0</ele>
      </trkpt>
      <trkpt lat="46.13954" lon="5.82807">
        <ele>558.0</ele>
      </trkpt>
      <trkpt lat="46.13761" lon="5.82784">
        <ele>552.0</ele>
      </trkpt>
      <trkpt lat="46.13617" lon="5.82813">
        <ele>546.0</ele>
      </trkpt>
      <trkpt lat="46.13485" lon="5.82958">
        <ele>546.0</ele>
      </trkpt>
      <trkpt lat="46.13353" lon="5.83001">
        <ele>541.0</ele>
      </trkpt>
      <trkpt lat="46.13185" lon="5.82956">
        <ele>523.0</ele>
      </trkpt>
      <trkpt lat="46.12998" lon="5.82924">
        <ele>510.0</ele>
      </trkpt>
      <trkpt lat="46.1282" lon="5.82929">
        <ele>507.0</ele>
      </trkpt>
      <trkpt lat="46.12639" lon="5.82865">
        <ele>495.0</ele>
      </trkpt>
      <trkpt lat="46.12616" lon="5.82839">
        <ele>491.0</ele>
      </trkpt>
      <trkpt lat="46.12576" lon="5.82845">
        <ele>490.0</ele>
      </trkpt>
      <trkpt lat="46.12546" lon="5.82985">
        <ele>487.0</ele>
      </trkpt>
      <trkpt lat="46.12536" lon="5.83229">
        <ele>479.0</ele>
      </trkpt>
      <trkpt lat="46.12481" lon="5.834">
        <ele>480.0</ele>
      </trkpt>
      <trkpt lat="46.1245" lon="5.83486">
        <ele>481.0</ele>
      </trkpt>
      <trkpt lat="46.12395" lon="5.83313">
        <ele>478.0</ele>
      </trkpt>
      <trkpt lat="46.12319" lon="5.8295">
        <ele>461.0</ele>
      </trkpt>
      <trkpt lat="46.12165" lon="5.8284">
        <ele>437.0</ele>
      </trkpt>
      <trkpt lat="46.11906" lon="5.82823">
        <ele>415.0</ele>
      </trkpt>
      <trkpt lat="46.11801" lon="5.82903">
        <ele>412.0</ele>
      </trkpt>
      <trkpt lat="46.11781" lon="5.82733">
        <ele>413.0</ele>
      </trkpt>
      <trkpt lat="46.11697" lon="5.82568">
        <ele>404.0</ele>
      </trkpt>
      <trkpt lat="46.11547" lon="5.82578">
        <ele>378.0</ele>
      </trkpt>
      <trkpt lat="46.11429" lon="5.82456">
        <ele>369.0</ele>
      </trkpt>
      <trkpt lat="46.11355" lon="5.825">
        <ele>375.0</ele>
      </trkpt>
      <trkpt lat="46.11269" lon="5.82592">
        <ele>373.0</ele>
      </trkpt>
      <trkpt lat="46.11181" lon="5.82718">
        <ele>370.0</ele>
      </trkpt>
      <trkpt lat="46.11167" lon="5.82722">
        <ele>367.0</ele>
      </trkpt>
      <trkpt lat="46.11167" lon="5.82734">
        <ele>367.0</ele>
      </trkpt>
      <trkpt lat="46.11039" lon="5.82837">
        <ele>361.0</ele>
      </trkpt>
      <trkpt lat="46.10994" lon="5.82791">
        <ele>359.0</ele>
      </trkpt>
      <trkpt lat="46.10981" lon="5.82789">
        <ele>359.0</ele>
      </trkpt>
      <trkpt lat="46.1085" lon="5.82921">
        <ele>350.0</ele>
      </trkpt>
      <trkpt lat="46.10837" lon="5.82941">
        <ele>346.0</ele>
      </trkpt>
      <trkpt lat="46.10814" lon="5.83114">
        <ele>342.0</ele>
      </trkpt>
      <trkpt lat="46.10696" lon="5.83341">
        <ele>350.0</ele>
      </trkpt>
      <trkpt lat="46.10602" lon="5.83488">
        <ele>356.0</ele>
      </trkpt>
      <trkpt lat="46.10548" lon="5.83568">
        <ele>360.0</ele>
      </trkpt>
      <trkpt lat="46.10513" lon="5.83667">
        <ele>364.0</ele>
      </trkpt>
      <trkpt lat="46.10477" lon="5.83833">
        <ele>374.0</ele>
      </trkpt>
      <trkpt lat="46.1042" lon="5.83963">
        <ele>389.0</ele>
      </trkpt>
      <trkpt lat="46.10428" lon="5.84132">
        <ele>403.0</ele>
      </trkpt>
      <trkpt lat="46.10357" lon="5.84165">
        <ele>403.0</ele>
      </trkpt>
      <trkpt lat="46.10253" lon="5.8423">
        <ele>397.0</ele>
      </trkpt>
      <trkpt lat="46.10165" lon="5.84279">
        <ele>395.0</ele>
      </trkpt>
      <trkpt lat="46.10109" lon="5.84326">
        <ele>397.0</ele>
      </trkpt>
      <trkpt lat="46.09996" lon="5.84475">
        <ele>408.0</ele>
      </trkpt>
      <trkpt lat="46.09909" lon="5.8448">
        <ele>416.0</ele>
      </trkpt>
      <trkpt lat="46.09723" lon="5.84633">
        <ele>424.0</ele>
      </trkpt>
      <trkpt lat="46.09655" lon="5.84874">
        <ele>431.0</ele>
      </trkpt>
      <trkpt lat="46.09612" lon="5.85023">
        <ele>442.0</ele>
      </trkpt>
      <trkpt lat="46.09609" lon="5.85236">
        <ele>445.0</ele>
      </trkpt>
      <trkpt lat="46.09492" lon="5.85489">
        <ele>448.0</ele>
      </trkpt>
      <trkpt lat="46.0931" lon="5.85544">
        <ele>449.0</ele>
      </trkpt>
      <trkpt lat="46.09177" lon="5.85794">
        <ele>460.0</ele>
      </trkpt>
      <trkpt lat="46.09112" lon="5.86037">
        <ele>473.0</ele>
      </trkpt>
      <trkpt lat="46.09206" lon="5.8641">
        <ele>492.0</ele>
      </trkpt>
      <trkpt lat="46.09235" lon="5.86588">
        <ele>498.0</ele>
      </trkpt>
      <trkpt lat="46.09197" lon="5.86758">
        <ele>497.0</ele>
      </trkpt>
      <trkpt lat="46.09179" lon="5.86996">
        <ele>508.0</ele>
      </trkpt>
      <trkpt lat="46.09222" lon="5.87187">
        <ele>517.0</ele>
      </trkpt>
      <trkpt lat="46.09387" lon="5.87378">
        <ele>520.0</ele>
      </trkpt>
      <trkpt lat="46.09588" lon="5.87775">
        <ele>516.0</ele>
      </trkpt>
      <trkpt lat="46.09633" lon="5.87869">
        <ele>517.0</ele>
      </trkpt>
      <trkpt lat="46.09721" lon="5.88001">
        <ele>524.0</ele>
      </trkpt>
      <trkpt lat="46.09906" lon="5.88079">
        <ele>515.0</ele>
      </trkpt>
      <trkpt lat="46.101" lon="5.87949">
        <ele>517.0</ele>
      </trkpt>
      <trkpt lat="46.10188" lon="5.87794">
        <ele>519.0</ele>
      </trkpt>
      <trkpt lat="46.10233" lon="5.87499">
        <ele>518.0</ele>
      </trkpt>
      <trkpt lat="46.10332" lon="5.87426">
        <ele>515.0</ele>
      </trkpt>
      <trkpt lat="46.10399" lon="5.87583">
        <ele>515.0</ele>
      </trkpt>
      <trkpt lat="46.10486" lon="5.87744">
        <ele>515.0</ele>
      </trkpt>
      <trkpt lat="46.10576" lon="5.87748">
        <ele>512.0</ele>
      </trkpt>
      <trkpt lat="46.10807" lon="5.87507">
        <ele>509.0</ele>
      </trkpt>
      <trkpt lat="46.10905" lon="5.87477">
        <ele>505.0</ele>
      </trkpt>
      <trkpt lat="46.10957" lon="5.87547">
        <ele>502.0</ele>
      </trkpt>
      <trkpt lat="46.11008" lon="5.87757">
        <ele>502.0</ele>
      </trkpt>
      <trkpt lat="46.11056" lon="5.87851">
        <ele>501.0</ele>
      </trkpt>
      <trkpt lat="46.11217" lon="5.87946">
        <ele>499.0</ele>
      </trkpt>
      <trkpt lat="46.11316" lon="5.88016">
        <ele>488.0</ele>
      </trkpt>
      <trkpt lat="46.11415" lon="5.88212">
        <ele>483.0</ele>
      </trkpt>
      <trkpt lat="46.11667" lon="5.88435">
        <ele>473.0</ele>
      </trkpt>
      <trkpt lat="46.11857" lon="5.88545">
        <ele>456.0</ele>
      </trkpt>
      <trkpt lat="46.11912" lon="5.88756">
        <ele>453.0</ele>
      </trkpt>
      <trkpt lat="46.12006" lon="5.88991">
        <ele>453.0</ele>
      </trkpt>
      <trkpt lat="46.12118" lon="5.89308">
        <ele>459.0</ele>
      </trkpt>
      <trkpt lat="46.12203" lon="5.89597">
        <ele>444.0</ele>
      </trkpt>
      <trkpt lat="46.12225" lon="5.89865">
        <ele>430.0</ele>
      </trkpt>
      <trkpt lat="46.12209" lon="5.90015">
        <ele>429.0</ele>
      </trkpt>
      <trkpt lat="46.12293" lon="5.90131">
        <ele>427.0</ele>
      </trkpt>
      <trkpt lat="46.12532" lon="5.90436">
        <ele>409.0</ele>
      </trkpt>
      <trkpt lat="46.12711" lon="5.90673">
        <ele>394.0</ele>
      </trkpt>
      <trkpt lat="46.12795" lon="5.9082">
        <ele>382.0</ele>
      </trkpt>
      <trkpt lat="46.12818" lon="5.90928">
        <ele>372.0</ele>
      </trkpt>
      <trkpt lat="46.1284" lon="5.91061">
        <ele>364.0</ele>
      </trkpt>
      <trkpt lat="46.12816" lon="5.91109">
        <ele>361.0</ele>
      </trkpt>
      <trkpt lat="46.12777" lon="5.91098">
        <ele>361.0</ele>
      </trkpt>
      <trkpt lat="46.12748" lon="5.90987">
        <ele>360.0</ele>
      </trkpt>
      <trkpt lat="46.12684" lon="5.90885">
        <ele>361.0</ele>
      </trkpt>
      <trkpt lat="46.12527" lon="5.90759">
        <ele>368.0</ele>
      </trkpt>
      <trkpt lat="46.12426" lon="5.90572">
        <ele>360.0</ele>
      </trkpt>
      <trkpt lat="46.12286" lon="5.90421">
        <ele>363.0</ele>
      </trkpt>
      <trkpt lat="46.12198" lon="5.90356">
        <ele>359.0</ele>
      </trkpt>
      <trkpt lat="46.12103" lon="5.90327">
        <ele>351.0</ele>
      </trkpt>
      <trkpt lat="46.12062" lon="5.9036">
        <ele>348.0</ele>
      </trkpt>
      <trkpt lat="46.12012" lon="5.90532">
        <ele>344.0</ele>
      </trkpt>
      <trkpt lat="46.12038" lon="5.90664">
        <ele>350.0</ele>
      </trkpt>
      <trkpt lat="46.1207" lon="5.90814">
        <ele>359.0</ele>
      </trkpt>
      <trkpt lat="46.12116" lon="5.90953">
        <ele>369.0</ele>
      </trkpt>
      <trkpt lat="46.12116" lon="5.91167">
        <ele>375.0</ele>
      </trkpt>
      <trkpt lat="46.12124" lon="5.91406">
        <ele>380.0</ele>
      </trkpt>
      <trkpt lat="46.12157" lon="5.91501">
        <ele>383.0</ele>
      </trkpt>
      <trkpt lat="46.12196" lon="5.91682">
        <ele>388.0</ele>
      </trkpt>
      <trkpt lat="46.12187" lon="5.91827">
        <ele>393.0</ele>
      </trkpt>
      <trkpt lat="46.1215" lon="5.91886">
        <ele>396.0</ele>
      </trkpt>
      <trkpt lat="46.11996" lon="5.91898">
        <ele>402.0</ele>
      </trkpt>
      <trkpt lat="46.11767" lon="5.91842">
        <ele>416.0</ele>
      </trkpt>
      <trkpt lat="46.11602" lon="5.91859">
        <ele>424.0</ele>
      </trkpt>
      <trkpt lat="46.11341" lon="5.91941">
        <ele>433.0</ele>
      </trkpt>
      <trkpt lat="46.11066" lon="5.92193">
        <ele>443.0</ele>
      </trkpt>
      <trkpt lat="46.10762" lon="5.92469">
        <ele>452.0</ele>
      </trkpt>
      <trkpt lat="46.10531" lon="5.92804">
        <ele>462.0</ele>
      </trkpt>
      <trkpt lat="46.10243" lon="5.93084">
        <ele>472.0</ele>
      </trkpt>
      <trkpt lat="46.10216" lon="5.93132">
        <ele>474.0</ele>
      </trkpt>
      <trkpt lat="46.10202" lon="5.93324">
        <ele>476.0</ele>
      </trkpt>
      <trkpt lat="46.10175" lon="5.93661">
        <ele>483.0</ele>
      </trkpt>
      <trkpt lat="46.10209" lon="5.93937">
        <ele>484.0</ele>
      </trkpt>
      <trkpt lat="46.10235" lon="5.94121">
        <ele>486.0</ele>
      </trkpt>
      <trkpt lat="46.10202" lon="5.94612">
        <ele>496.0</ele>
      </trkpt>
      <trkpt lat="46.10275" lon="5.95023">
        <ele>493.0</ele>
      </trkpt>
      <trkpt lat="46.10294" lon="5.95327">
        <ele>493.0</ele>
      </trkpt>
      <trkpt lat="46.1039" lon="5.95647">
        <ele>487.0</ele>
      </trkpt>
      <trkpt lat="46.10446" lon="5.95864">
        <ele>485.0</ele>
      </trkpt>
      <trkpt lat="46.1054" lon="5.9614">
        <ele>484.0</ele>
      </trkpt>
      <trkpt lat="46.10653" lon="5.96515">
        <ele>483.0</ele>
      </trkpt>
      <trkpt lat="46.10787" lon="5.96796">
        <ele>479.0</ele>
      </trkpt>
      <trkpt lat="46.10904" lon="5.97132">
        <ele>477.0</ele>
      </trkpt>
      <trkpt lat="46.1095" lon="5.97524">
        <ele>473.0</ele>
      </trkpt>
      <trkpt lat="46.10989" lon="5.97835">
        <ele>469.0</ele>
      </trkpt>
      <trkpt lat="46.11025" lon="5.98095">
        <ele>467.0</ele>
      </trkpt>
      <trkpt lat="46.11093" lon="5.98682">
        <ele>472.0</ele>
      </trkpt>
      <trkpt lat="46.11155" lon="5.99228">
        <ele>474.0</ele>
      </trkpt>
      <trkpt lat="46.11243" lon="5.99917">
        <ele>484.0</ele>
      </trkpt>
      <trkpt lat="46.1129" lon="6.00288">
        <ele>490.0</ele>
      </trkpt>
      <trkpt lat="46.11367" lon="6.00916">
        <ele>489.0</ele>
      </trkpt>
      <trkpt lat="46.11456" lon="6.01642">
        <ele>493.0</ele>
      </trkpt>
      <trkpt lat="46.11535" lon="6.02222">
        <ele>493.0</ele>
      </trkpt>
      <trkpt lat="46.1173" lon="6.03357">
        <ele>498.0</ele>
      </trkpt>
      <trkpt lat="46.11801" lon="6.03758">
        <ele>504.0</ele>
      </trkpt>
      <trkpt lat="46.1181" lon="6.03847">
        <ele>504.0</ele>
      </trkpt>
      <trkpt lat="46.1177" lon="6.03933">
        <ele>504.0</ele>
      </trkpt>
      <trkpt lat="46.11677" lon="6.03994">
        <ele>505.0</ele>
      </trkpt>
      <trkpt lat="46.11673" lon="6.03915">
        <ele>509.0</ele>
      </trkpt>
      <trkpt lat="46.1163" lon="6.03827">
        <ele>514.0</ele>
      </trkpt>
      <trkpt lat="46.11479" lon="6.04068">
        <ele>524.0</ele>
      </trkpt>
      <trkpt lat="46.11406" lon="6.04229">
        <ele>522.0</ele>
      </trkpt>
      <trkpt lat="46.11394" lon="6.04571">
        <ele>512.0</ele>
      </trkpt>
      <trkpt lat="46.11299" lon="6.04899">
        <ele>519.0</ele>
      </trkpt>
      <trkpt lat="46.11201" lon="6.05133">
        <ele>536.0</ele>
      </trkpt>
      <trkpt lat="46.11047" lon="6.05303">
        <ele>542.0</ele>
      </trkpt>
      <trkpt lat="46.10708" lon="6.05547">
        <ele>549.0</ele>
      </trkpt>
      <trkpt lat="46.10588" lon="6.05664">
        <ele>555.0</ele>
      </trkpt>
      <trkpt lat="46.10478" lon="6.05875">
        <ele>561.0</ele>
      </trkpt>
      <trkpt lat="46.10273" lon="6.06345">
        <ele>574.0</ele>
      </trkpt>
      <trkpt lat="46.10172" lon="6.06592">
        <ele>579.0</ele>
      </trkpt>
      <trkpt lat="46.10077" lon="6.06851">
        <ele>583.0</ele>
      </trkpt>
      <trkpt lat="46.10085" lon="6.07033">
        <ele>586.0</ele>
      </trkpt>
      <trkpt lat="46.10091" lon="6.07032">
        <ele>588.0</ele>
      </trkpt>
      <trkpt lat="46.10127" lon="6.07433">
        <ele>600.0</ele>
      </trkpt>
      <trkpt lat="46.10167" lon="6.07885">
        <ele>612.0</ele>
      </trkpt>
      <trkpt lat="46.10132" lon="6.08117">
        <ele>625.0</ele>
      </trkpt>
      <trkpt lat="46.09919" lon="6.08379">
        <ele>636.0</ele>
      </trkpt>
      <trkpt lat="46.09651" lon="6.0864">
        <ele>650.0</ele>
      </trkpt>
      <trkpt lat="46.09477" lon="6.08762">
        <ele>646.0</ele>
      </trkpt>
      <trkpt lat="46.09344" lon="6.08879">
        <ele>639.0</ele>
      </trkpt>
      <trkpt lat="46.09332" lon="6.09083">
        <ele>639.0</ele>
      </trkpt>
      <trkpt lat="46.09353" lon="6.09597">
        <ele>646.0</ele>
      </trkpt>
      <trkpt lat="46.09376" lon="6.10111">
        <ele>660.0</ele>
      </trkpt>
      <trkpt lat="46.09383" lon="6.10391">
        <ele>666.0</ele>
      </trkpt>
      <trkpt lat="46.09635" lon="6.10394">
        <ele>660.0</ele>
      </trkpt>
      <trkpt lat="46.09943" lon="6.10398">
        <ele>648.0</ele>
      </trkpt>
      <trkpt lat="46.10044" lon="6.10418">
        <ele>646.0</ele>
      </trkpt>
      <trkpt lat="46.10418" lon="6.10516">
        <ele>644.0</ele>
      </trkpt>
      <trkpt lat="46.10592" lon="6.10618">
        <ele>644.0</ele>
      </trkpt>
      <trkpt lat="46.10753" lon="6.10749">
        <ele>639.0</ele>
      </trkpt>
      <trkpt lat="46.11052" lon="6.10795">
        <ele>625.0</ele>
      </trkpt>
      <trkpt lat="46.1153" lon="6.10816">
        <ele>583.0</ele>
      </trkpt>
      <trkpt lat="46.11777" lon="6.10967">
        <ele>576.0</ele>
      </trkpt>
      <trkpt lat="46.12049" lon="6.11177">
        <ele>568.0</ele>
      </trkpt>
      <trkpt lat="46.1231" lon="6.11344">
        <ele>555.0</ele>
      </trkpt>
      <trkpt lat="46.12509" lon="6.11606">
        <ele>542.0</ele>
      </trkpt>
      <trkpt lat="46.12677" lon="6.11811">
        <ele>537.0</ele>
      </trkpt>
      <trkpt lat="46.12829" lon="6.12031">
        <ele>530.0</ele>
      </trkpt>
      <trkpt lat="46.13005" lon="6.12119">
        <ele>523.0</ele>
      </trkpt>
      <trkpt lat="46.1326" lon="6.12373">
        <ele>516.0</ele>
      </trkpt>
      <trkpt lat="46.13342" lon="6.12461">
        <ele>515.0</ele>
      </trkpt>
      <trkpt lat="46.13386" lon="6.12502">
        <ele>515.0</ele>
      </trkpt>
      <trkpt lat="46.13565" lon="6.12685">
        <ele>512.0</ele>
      </trkpt>
      <trkpt lat="46.13758" lon="6.12778">
        <ele>501.0</ele>
      </trkpt>
      <trkpt lat="46.13808" lon="6.12904">
        <ele>501.0</ele>
      </trkpt>
      <trkpt lat="46.13769" lon="6.13045">
        <ele>505.0</ele>
      </trkpt>
      <trkpt lat="46.13684" lon="6.1328">
        <ele>518.0</ele>
      </trkpt>
      <trkpt lat="46.13597" lon="6.13372">
        <ele>526.0</ele>
      </trkpt>
      <trkpt lat="46.13502" lon="6.13341">
        <ele>532.0</ele>
      </trkpt>
      <trkpt lat="46.13468" lon="6.13474">
        <ele>537.0</ele>
      </trkpt>
      <trkpt lat="46.13401" lon="6.13721">
        <ele>546.0</ele>
      </trkpt>
      <trkpt lat="46.13235" lon="6.14027">
        <ele>551.0</ele>
      </trkpt>
      <trkpt lat="46.13184" lon="6.14155">
        <ele>559.0</ele>
      </trkpt>
      <trkpt lat="46.13109" lon="6.14276">
        <ele>572.0</ele>
      </trkpt>
      <trkpt lat="46.13029" lon="6.14345">
        <ele>584.0</ele>
      </trkpt>
      <trkpt lat="46.12977" lon="6.14524">
        <ele>599.0</ele>
      </trkpt>
      <trkpt lat="46.12873" lon="6.1461">
        <ele>607.0</ele>
      </trkpt>
      <trkpt lat="46.12717" lon="6.14749">
        <ele>619.0</ele>
      </trkpt>
      <trkpt lat="46.12826" lon="6.14981">
        <ele>629.0</ele>
      </trkpt>
      <trkpt lat="46.12904" lon="6.15102">
        <ele>634.0</ele>
      </trkpt>
      <trkpt lat="46.13" lon="6.15263">
        <ele>637.0</ele>
      </trkpt>
      <trkpt lat="46.13141" lon="6.15342">
        <ele>640.0</ele>
      </trkpt>
      <trkpt lat="46.13203" lon="6.1546">
        <ele>644.0</ele>
      </trkpt>
      <trkpt lat="46.13212" lon="6.15614">
        <ele>653.0</ele>
      </trkpt>
      <trkpt lat="46.1322" lon="6.15732">
        <ele>664.0</ele>
      </trkpt>
      <trkpt lat="46.13159" lon="6.15779">
        <ele>674.0</ele>
      </trkpt>
      <trkpt lat="46.13053" lon="6.15754">
        <ele>679.0</ele>
      </trkpt>
      <trkpt lat="46.12998" lon="6.15727">
        <ele>683.0</ele>
      </trkpt>
      <trkpt lat="46.13019" lon="6.15808">
        <ele>692.0</ele>
      </trkpt>
      <trkpt lat="46.12958" lon="6.15786">
        <ele>703.0</ele>
      </trkpt>
      <trkpt lat="46.12903" lon="6.15756">
        <ele>713.0</ele>
      </trkpt>
      <trkpt lat="46.12848" lon="6.15709">
        <ele>719.0</ele>
      </trkpt>
      <trkpt lat="46.12782" lon="6.15696">
        <ele>727.0</ele>
      </trkpt>
      <trkpt lat="46.12689" lon="6.15652">
        <ele>735.0</ele>
      </trkpt>
      <trkpt lat="46.12635" lon="6.1566">
        <ele>745.0</ele>
      </trkpt>
      <trkpt lat="46.12631" lon="6.15736">
        <ele>756.0</ele>
      </trkpt>
      <trkpt lat="46.12579" lon="6.15788">
        <ele>773.0</ele>
      </trkpt>
      <trkpt lat="46.12522" lon="6.15774">
        <ele>785.0</ele>
      </trkpt>
      <trkpt lat="46.1258" lon="6.15857">
        <ele>795.0</ele>
      </trkpt>
      <trkpt lat="46.1268" lon="6.15921">
        <ele>813.0</ele>
      </trkpt>
      <trkpt lat="46.12765" lon="6.16053">
        <ele>829.0</ele>
      </trkpt>
      <trkpt lat="46.12704" lon="6.16038">
        <ele>837.0</ele>
      </trkpt>
      <trkpt lat="46.12625" lon="6.16033">
        <ele>846.0</ele>
      </trkpt>
      <trkpt lat="46.12666" lon="6.16092">
        <ele>851.0</ele>
      </trkpt>
      <trkpt lat="46.12754" lon="6.16152">
        <ele>864.0</ele>
      </trkpt>
      <trkpt lat="46.1269" lon="6.16156">
        <ele>873.0</ele>
      </trkpt>
      <trkpt lat="46.12573" lon="6.16112">
        <ele>883.0</ele>
      </trkpt>
      <trkpt lat="46.12465" lon="6.16116">
        <ele>901.0</ele>
      </trkpt>
      <trkpt lat="46.12423" lon="6.16159">
        <ele>920.0</ele>
      </trkpt>
      <trkpt lat="46.12409" lon="6.16265">
        <ele>937.0</ele>
      </trkpt>
      <trkpt lat="46.12356" lon="6.16247">
        <ele>950.0</ele>
      </trkpt>
      <trkpt lat="46.12307" lon="6.163">
        <ele>962.0</ele>
      </trkpt>
      <trkpt lat="46.12358" lon="6.16298">
        <ele>968.0</ele>
      </trkpt>
      <trkpt lat="46.12421" lon="6.1635">
        <ele>975.0</ele>
      </trkpt>
      <trkpt lat="46.12447" lon="6.16351">
        <ele>981.0</ele>
      </trkpt>
      <trkpt lat="46.12472" lon="6.16366">
        <ele>987.0</ele>
      </trkpt>
      <trkpt lat="46.12477" lon="6.16462">
        <ele>995.0</ele>
      </trkpt>
      <trkpt lat="46.12408" lon="6.16448">
        <ele>1002.0</ele>
      </trkpt>
      <trkpt lat="46.12354" lon="6.16446">
        <ele>1007.0</ele>
      </trkpt>
      <trkpt lat="46.1241" lon="6.16485">
        <ele>1011.0</ele>
      </trkpt>
      <trkpt lat="46.12483" lon="6.16555">
        <ele>1022.0</ele>
      </trkpt>
      <trkpt lat="46.12531" lon="6.16617">
        <ele>1038.0</ele>
      </trkpt>
      <trkpt lat="46.12584" lon="6.16594">
        <ele>1049.0</ele>
      </trkpt>
      <trkpt lat="46.1263" lon="6.16495">
        <ele>1059.0</ele>
      </trkpt>
      <trkpt lat="46.12638" lon="6.1658">
        <ele>1066.0</ele>
      </trkpt>
      <trkpt lat="46.12581" lon="6.16717">
        <ele>1081.0</ele>
      </trkpt>
      <trkpt lat="46.12468" lon="6.16763">
        <ele>1094.0</ele>
      </trkpt>
      <trkpt lat="46.1226" lon="6.16725">
        <ele>1115.0</ele>
      </trkpt>
      <trkpt lat="46.12158" lon="6.1682">
        <ele>1136.0</ele>
      </trkpt>
      <trkpt lat="46.12097" lon="6.16886">
        <ele>1145.0</ele>
      </trkpt>
      <trkpt lat="46.12044" lon="6.16947">
        <ele>1153.0</ele>
      </trkpt>
      <trkpt lat="46.11999" lon="6.17093">
        <ele>1162.0</ele>
      </trkpt>
      <trkpt lat="46.11965" lon="6.17176">
        <ele>1171.0</ele>
      </trkpt>
      <trkpt lat="46.11899" lon="6.17216">
        <ele>1161.0</ele>
      </trkpt>
      <trkpt lat="46.11844" lon="6.17376">
        <ele>1143.0</ele>
      </trkpt>
      <trkpt lat="46.11854" lon="6.17469">
        <ele>1132.0</ele>
      </trkpt>
      <trkpt lat="46.11922" lon="6.17676">
        <ele>1115.0</ele>
      </trkpt>
      <trkpt lat="46.12018" lon="6.17825">
        <ele>1102.0</ele>
      </trkpt>
      <trkpt lat="46.12001" lon="6.17906">
        <ele>1089.0</ele>
      </trkpt>
      <trkpt lat="46.11876" lon="6.17817">
        <ele>1075.0</ele>
      </trkpt>
      <trkpt lat="46.11754" lon="6.17883">
        <ele>1060.0</ele>
      </trkpt>
      <trkpt lat="46.11813" lon="6.17909">
        <ele>1054.0</ele>
      </trkpt>
      <trkpt lat="46.11905" lon="6.1802">
        <ele>1040.0</ele>
      </trkpt>
      <trkpt lat="46.11986" lon="6.18177">
        <ele>1022.0</ele>
      </trkpt>
      <trkpt lat="46.12121" lon="6.18227">
        <ele>1008.0</ele>
      </trkpt>
      <trkpt lat="46.12035" lon="6.18273">
        <ele>995.0</ele>
      </trkpt>
      <trkpt lat="46.11854" lon="6.18321">
        <ele>971.0</ele>
      </trkpt>
      <trkpt lat="46.11687" lon="6.18334">
        <ele>960.0</ele>
      </trkpt>
      <trkpt lat="46.1156" lon="6.18317">
        <ele>952.0</ele>
      </trkpt>
      <trkpt lat="46.11631" lon="6.18435">
        <ele>941.0</ele>
      </trkpt>
      <trkpt lat="46.11675" lon="6.18641">
        <ele>928.0</ele>
      </trkpt>
      <trkpt lat="46.11662" lon="6.18846">
        <ele>916.0</ele>
      </trkpt>
      <trkpt lat="46.11454" lon="6.19106">
        <ele>892.0</ele>
      </trkpt>
      <trkpt lat="46.1132" lon="6.19211">
        <ele>884.0</ele>
      </trkpt>
      <trkpt lat="46.11439" lon="6.19202">
        <ele>882.0</ele>
      </trkpt>
      <trkpt lat="46.11583" lon="6.19248">
        <ele>871.0</ele>
      </trkpt>
      <trkpt lat="46.11454" lon="6.19331">
        <ele>864.0</ele>
      </trkpt>
      <trkpt lat="46.11476" lon="6.19355">
        <ele>853.0</ele>
      </trkpt>
      <trkpt lat="46.1162" lon="6.19438">
        <ele>838.0</ele>
      </trkpt>
      <trkpt lat="46.11777" lon="6.19579">
        <ele>822.0</ele>
      </trkpt>
      <trkpt lat="46.1193" lon="6.19535">
        <ele>810.0</ele>
      </trkpt>
      <trkpt lat="46.12048" lon="6.19496">
        <ele>803.0</ele>
      </trkpt>
      <trkpt lat="46.12138" lon="6.19475">
        <ele>799.0</ele>
      </trkpt>
      <trkpt lat="46.12186" lon="6.19338">
        <ele>792.0</ele>
      </trkpt>
      <trkpt lat="46.12308" lon="6.19211">
        <ele>780.0</ele>
      </trkpt>
      <trkpt lat="46.1236" lon="6.19297">
        <ele>772.0</ele>
      </trkpt>
      <trkpt lat="46.12434" lon="6.19415">
        <ele>764.0</ele>
      </trkpt>
      <trkpt lat="46.12399" lon="6.19439">
        <ele>758.0</ele>
      </trkpt>
      <trkpt lat="46.12386" lon="6.19487">
        <ele>752.0</ele>
      </trkpt>
      <trkpt lat="46.12477" lon="6.1956">
        <ele>745.0</ele>
      </trkpt>
      <trkpt lat="46.12534" lon="6.19693">
        <ele>738.0</ele>
      </trkpt>
      <trkpt lat="46.12626" lon="6.19803">
        <ele>728.0</ele>
      </trkpt>
      <trkpt lat="46.12568" lon="6.19952">
        <ele>712.0</ele>
      </trkpt>
      <trkpt lat="46.12576" lon="6.2013">
        <ele>701.0</ele>
      </trkpt>
      <trkpt lat="46.12647" lon="6.20221">
        <ele>690.0</ele>
      </trkpt>
      <trkpt lat="46.12482" lon="6.20174">
        <ele>678.0</ele>
      </trkpt>
      <trkpt lat="46.12385" lon="6.20084">
        <ele>672.0</ele>
      </trkpt>
      <trkpt lat="46.12397" lon="6.20272">
        <ele>660.0</ele>
      </trkpt>
      <trkpt lat="46.1232" lon="6.20441">
        <ele>649.0</ele>
      </trkpt>
      <trkpt lat="46.1232" lon="6.20592">
        <ele>641.0</ele>
      </trkpt>
      <trkpt lat="46.1222" lon="6.20608">
        <ele>639.0</ele>
      </trkpt>
      <trkpt lat="46.12081" lon="6.20638">
        <ele>637.0</ele>
      </trkpt>
      <trkpt lat="46.11975" lon="6.20664">
        <ele>638.0</ele>
      </trkpt>
      <trkpt lat="46.11821" lon="6.20687">
        <ele>656.0</ele>
      </trkpt>
      <trkpt lat="46.11769" lon="6.20761">
        <ele>664.0</ele>
      </trkpt>
      <trkpt lat="46.11652" lon="6.20717">
        <ele>675.0</ele>
      </trkpt>
      <trkpt lat="46.11683" lon="6.20859">
        <ele>686.0</ele>
      </trkpt>
      <trkpt lat="46.11778" lon="6.20975">
        <ele>707.0</ele>
      </trkpt>
      <trkpt lat="46.1154" lon="6.20934">
        <ele>725.0</ele>
      </trkpt>
      <trkpt lat="46.11301" lon="6.20926">
        <ele>749.0</ele>
      </trkpt>
      <trkpt lat="46.1133" lon="6.21012">
        <ele>758.0</ele>
      </trkpt>
      <trkpt lat="46.11412" lon="6.21117">
        <ele>766.0</ele>
      </trkpt>
      <trkpt lat="46.11396" lon="6.21138">
        <ele>769.0</ele>
      </trkpt>
      <trkpt lat="46.11238" lon="6.21192">
        <ele>784.0</ele>
      </trkpt>
      <trkpt lat="46.10989" lon="6.212">
        <ele>807.0</ele>
      </trkpt>
      <trkpt lat="46.10823" lon="6.21338">
        <ele>818.0</ele>
      </trkpt>
      <trkpt lat="46.10627" lon="6.21379">
        <ele>824.0</ele>
      </trkpt>
      <trkpt lat="46.10462" lon="6.21451">
        <ele>835.0</ele>
      </trkpt>
      <trkpt lat="46.104" lon="6.21485">
        <ele>838.0</ele>
      </trkpt>
      <trkpt lat="46.10217" lon="6.21486">
        <ele>847.0</ele>
      </trkpt>
      <trkpt lat="46.09991" lon="6.2155">
        <ele>848.0</ele>
      </trkpt>
      <trkpt lat="46.09815" lon="6.21718">
        <ele>854.0</ele>
      </trkpt>
      <trkpt lat="46.09679" lon="6.21844">
        <ele>844.0</ele>
      </trkpt>
      <trkpt lat="46.09517" lon="6.21952">
        <ele>832.0</ele>
      </trkpt>
      <trkpt lat="46.09349" lon="6.21831">
        <ele>827.0</ele>
      </trkpt>
      <trkpt lat="46.09271" lon="6.21818">
        <ele>827.0</ele>
      </trkpt>
      <trkpt lat="46.09201" lon="6.21903">
        <ele>828.0</ele>
      </trkpt>
      <trkpt lat="46.09103" lon="6.21876">
        <ele>828.0</ele>
      </trkpt>
      <trkpt lat="46.08838" lon="6.21768">
        <ele>817.0</ele>
      </trkpt>
      <trkpt lat="46.08734" lon="6.21689">
        <ele>808.0</ele>
      </trkpt>
      <trkpt lat="46.08605" lon="6.2184">
        <ele>800.0</ele>
      </trkpt>
      <trkpt lat="46.08519" lon="6.22084">
        <ele>795.0</ele>
      </trkpt>
      <trkpt lat="46.0851" lon="6.22209">
        <ele>797.0</ele>
      </trkpt>
      <trkpt lat="46.08482" lon="6.2239">
        <ele>800.0</ele>
      </trkpt>
      <trkpt lat="46.0838" lon="6.22578">
        <ele>804.0</ele>
      </trkpt>
      <trkpt lat="46.08337" lon="6.22848">
        <ele>804.0</ele>
      </trkpt>
      <trkpt lat="46.08365" lon="6.22946">
        <ele>804.0</ele>
      </trkpt>
      <trkpt lat="46.08522" lon="6.22886">
        <ele>802.0</ele>
      </trkpt>
      <trkpt lat="46.08631" lon="6.22872">
        <ele>797.0</ele>
      </trkpt>
      <trkpt lat="46.08741" lon="6.22879">
        <ele>796.0</ele>
      </trkpt>
      <trkpt lat="46.08884" lon="6.23013">
        <ele>802.0</ele>
      </trkpt>
      <trkpt lat="46.08952" lon="6.2304">
        <ele>804.0</ele>
      </trkpt>
      <trkpt lat="46.09097" lon="6.23067">
        <ele>787.0</ele>
      </trkpt>
      <trkpt lat="46.09292" lon="6.23274">
        <ele>785.0</ele>
      </trkpt>
      <trkpt lat="46.09445" lon="6.2342">
        <ele>782.0</ele>
      </trkpt>
      <trkpt lat="46.09595" lon="6.23617">
        <ele>778.0</ele>
      </trkpt>
      <trkpt lat="46.09859" lon="6.23711">
        <ele>770.0</ele>
      </trkpt>
      <trkpt lat="46.09992" lon="6.23836">
        <ele>769.0</ele>
      </trkpt>
      <trkpt lat="46.10128" lon="6.2394">
        <ele>766.0</ele>
      </trkpt>
      <trkpt lat="46.10329" lon="6.24081">
        <ele>757.0</ele>
      </trkpt>
      <trkpt lat="46.10529" lon="6.24165">
        <ele>748.0</ele>
      </trkpt>
      <trkpt lat="46.10754" lon="6.2426">
        <ele>737.0</ele>
      </trkpt>
      <trkpt lat="46.10821" lon="6.24566">
        <ele>726.0</ele>
      </trkpt>
      <trkpt lat="46.10801" lon="6.2481">
        <ele>718.0</ele>
      </trkpt>
      <trkpt lat="46.10822" lon="6.2509">
        <ele>708.0</ele>
      </trkpt>
      <trkpt lat="46.10856" lon="6.25311">
        <ele>699.0</ele>
      </trkpt>
      <trkpt lat="46.10826" lon="6.25541">
        <ele>690.0</ele>
      </trkpt>
      <trkpt lat="46.1076" lon="6.25772">
        <ele>682.0</ele>
      </trkpt>
      <trkpt lat="46.10716" lon="6.25984">
        <ele>685.0</ele>
      </trkpt>
      <trkpt lat="46.10593" lon="6.26168">
        <ele>673.0</ele>
      </trkpt>
      <trkpt lat="46.10477" lon="6.26333">
        <ele>660.0</ele>
      </trkpt>
      <trkpt lat="46.10363" lon="6.26467">
        <ele>649.0</ele>
      </trkpt>
      <trkpt lat="46.10302" lon="6.26589">
        <ele>641.0</ele>
      </trkpt>
      <trkpt lat="46.10157" lon="6.26783">
        <ele>632.0</ele>
      </trkpt>
      <trkpt lat="46.0996" lon="6.26871">
        <ele>628.0</ele>
      </trkpt>
      <trkpt lat="46.09926" lon="6.26995">
        <ele>626.0</ele>
      </trkpt>
      <trkpt lat="46.09779" lon="6.27247">
        <ele>608.0</ele>
      </trkpt>
      <trkpt lat="46.09712" lon="6.27556">
        <ele>597.0</ele>
      </trkpt>
      <trkpt lat="46.09482" lon="6.27742">
        <ele>586.0</ele>
      </trkpt>
      <trkpt lat="46.09291" lon="6.27979">
        <ele>575.0</ele>
      </trkpt>
      <trkpt lat="46.09136" lon="6.2829">
        <ele>572.0</ele>
      </trkpt>
      <trkpt lat="46.09084" lon="6.28493">
        <ele>569.0</ele>
      </trkpt>
      <trkpt lat="46.0902" lon="6.28696">
        <ele>567.0</ele>
      </trkpt>
      <trkpt lat="46.08941" lon="6.28835">
        <ele>567.0</ele>
      </trkpt>
      <trkpt lat="46.08686" lon="6.29096">
        <ele>562.0</ele>
      </trkpt>
      <trkpt lat="46.083" lon="6.29246">
        <ele>570.0</ele>
      </trkpt>
      <trkpt lat="46.07965" lon="6.29451">
        <ele>580.0</ele>
      </trkpt>
      <trkpt lat="46.07818" lon="6.29636">
        <ele>581.0</ele>
      </trkpt>
      <trkpt lat="46.07695" lon="6.29743">
        <ele>582.0</ele>
      </trkpt>
      <trkpt lat="46.07575" lon="6.29738">
        <ele>586.0</ele>
      </trkpt>
      <trkpt lat="46.07345" lon="6.29838">
        <ele>589.0</ele>
      </trkpt>
      <trkpt lat="46.07107" lon="6.30027">
        <ele>589.0</ele>
      </trkpt>
      <trkpt lat="46.07074" lon="6.30058">
        <ele>587.0</ele>
      </trkpt>
      <trkpt lat="46.0705" lon="6.30198">
        <ele>584.0</ele>
      </trkpt>
      <trkpt lat="46.07031" lon="6.30228">
        <ele>583.0</ele>
      </trkpt>
      <trkpt lat="46.0703" lon="6.30242">
        <ele>582.0</ele>
      </trkpt>
      <trkpt lat="46.07032" lon="6.30295">
        <ele>581.0</ele>
      </trkpt>
      <trkpt lat="46.06991" lon="6.30513">
        <ele>573.0</ele>
      </trkpt>
      <trkpt lat="46.06967" lon="6.30659">
        <ele>568.0</ele>
      </trkpt>
      <trkpt lat="46.06849" lon="6.30877">
        <ele>561.0</ele>
      </trkpt>
      <trkpt lat="46.06798" lon="6.30978">
        <ele>558.0</ele>
      </trkpt>
      <trkpt lat="46.06722" lon="6.31245">
        <ele>553.0</ele>
      </trkpt>
      <trkpt lat="46.06715" lon="6.31255">
        <ele>551.0</ele>
      </trkpt>
      <trkpt lat="46.06719" lon="6.31268">
        <ele>551.0</ele>
      </trkpt>
      <trkpt lat="46.06745" lon="6.31307">
        <ele>549.0</ele>
      </trkpt>
      <trkpt lat="46.06832" lon="6.31598">
        <ele>538.0</ele>
      </trkpt>
      <trkpt lat="46.06923" lon="6.31901">
        <ele>519.0</ele>
      </trkpt>
      <trkpt lat="46.06992" lon="6.32106">
        <ele>513.0</ele>
      </trkpt>
      <trkpt lat="46.07052" lon="6.32322">
        <ele>510.0</ele>
      </trkpt>
      <trkpt lat="46.07111" lon="6.32659">
        <ele>498.0</ele>
      </trkpt>
      <trkpt lat="46.0711" lon="6.32751">
        <ele>493.0</ele>
      </trkpt>
      <trkpt lat="46.07109" lon="6.32769">
        <ele>493.0</ele>
      </trkpt>
      <trkpt lat="46.07123" lon="6.32814">
        <ele>492.0</ele>
      </trkpt>
      <trkpt lat="46.07141" lon="6.33146">
        <ele>480.0</ele>
      </trkpt>
      <trkpt lat="46.0701" lon="6.33456">
        <ele>474.0</ele>
      </trkpt>
      <trkpt lat="46.06951" lon="6.33623">
        <ele>471.0</ele>
      </trkpt>
      <trkpt lat="46.06983" lon="6.34134">
        <ele>465.0</ele>
      </trkpt>
      <trkpt lat="46.07006" lon="6.34644">
        <ele>459.0</ele>
      </trkpt>
      <trkpt lat="46.07" lon="6.34666">
        <ele>458.0</ele>
      </trkpt>
      <trkpt lat="46.07015" lon="6.347">
        <ele>458.0</ele>
      </trkpt>
      <trkpt lat="46.07032" lon="6.34914">
        <ele>457.0</ele>
      </trkpt>
      <trkpt lat="46.0707" lon="6.35517">
        <ele>457.0</ele>
      </trkpt>
      <trkpt lat="46.07098" lon="6.35952">
        <ele>459.0</ele>
      </trkpt>
      <trkpt lat="46.07126" lon="6.36489">
        <ele>459.0</ele>
      </trkpt>
      <trkpt lat="46.07115" lon="6.3651">
        <ele>460.0</ele>
      </trkpt>
      <trkpt lat="46.07126" lon="6.36534">
        <ele>460.0</ele>
      </trkpt>
      <trkpt lat="46.07171" lon="6.37137">
        <ele>461.0</ele>
      </trkpt>
      <trkpt lat="46.07199" lon="6.37612">
        <ele>461.0</ele>
      </trkpt>
      <trkpt lat="46.07193" lon="6.37691">
        <ele>461.0</ele>
      </trkpt>
      <trkpt lat="46.07196" lon="6.37715">
        <ele>461.0</ele>
      </trkpt>
      <trkpt lat="46.07216" lon="6.37837">
        <ele>461.0</ele>
      </trkpt>
      <trkpt lat="46.072" lon="6.38094">
        <ele>461.0</ele>
      </trkpt>
      <trkpt lat="46.07226" lon="6.38355">
        <ele>462.0</ele>
      </trkpt>
      <trkpt lat="46.07269" lon="6.3854">
        <ele>460.0</ele>
      </trkpt>
      <trkpt lat="46.0727" lon="6.38726">
        <ele>457.0</ele>
      </trkpt>
      <trkpt lat="46.07305" lon="6.39282">
        <ele>456.0</ele>
      </trkpt>
      <trkpt lat="46.07293" lon="6.39513">
        <ele>455.0</ele>
      </trkpt>
      <trkpt lat="46.0727" lon="6.39548">
        <ele>454.0</ele>
      </trkpt>
      <trkpt lat="46.07264" lon="6.39583">
        <ele>453.0</ele>
      </trkpt>
      <trkpt lat="46.07274" lon="6.3981">
        <ele>451.0</ele>
      </trkpt>
      <trkpt lat="46.07407" lon="6.40283">
        <ele>450.0</ele>
      </trkpt>
      <trkpt lat="46.07402" lon="6.40306">
        <ele>450.0</ele>
      </trkpt>
      <trkpt lat="46.07289" lon="6.40582">
        <ele>447.0</ele>
      </trkpt>
      <trkpt lat="46.07344" lon="6.40828">
        <ele>447.0</ele>
      </trkpt>
      <trkpt lat="46.07366" lon="6.40902">
        <ele>447.0</ele>
      </trkpt>
      <trkpt lat="46.07317" lon="6.41125">
        <ele>447.0</ele>
      </trkpt>
      <trkpt lat="46.07249" lon="6.41659">
        <ele>447.0</ele>
      </trkpt>
      <trkpt lat="46.07143" lon="6.42507">
        <ele>448.0</ele>
      </trkpt>
      <trkpt lat="46.07119" lon="6.42574">
        <ele>448.0</ele>
      </trkpt>
      <trkpt lat="46.07114" lon="6.42595">
        <ele>448.0</ele>
      </trkpt>
      <trkpt lat="46.07122" lon="6.42616">
        <ele>448.0</ele>
      </trkpt>
      <trkpt lat="46.07083" lon="6.42921">
        <ele>448.0</ele>
      </trkpt>
      <trkpt lat="46.0701" lon="6.43215">
        <ele>449.0</ele>
      </trkpt>
      <trkpt lat="46.06995" lon="6.43407">
        <ele>450.0</ele>
      </trkpt>
      <trkpt lat="46.06985" lon="6.43772">
        <ele>451.0</ele>
      </trkpt>
      <trkpt lat="46.06929" lon="6.44163">
        <ele>452.0</ele>
      </trkpt>
      <trkpt lat="46.0688" lon="6.44191">
        <ele>452.0</ele>
      </trkpt>
      <trkpt lat="46.06698" lon="6.4419">
        <ele>455.0</ele>
      </trkpt>
      <trkpt lat="46.06537" lon="6.4417">
        <ele>458.0</ele>
      </trkpt>
      <trkpt lat="46.06379" lon="6.44209">
        <ele>463.0</ele>
      </trkpt>
      <trkpt lat="46.06275" lon="6.44169">
        <ele>468.0</ele>
      </trkpt>
      <trkpt lat="46.06139" lon="6.44212">
        <ele>474.0</ele>
      </trkpt>
      <trkpt lat="46.06043" lon="6.44141">
        <ele>482.0</ele>
      </trkpt>
      <trkpt lat="46.06043" lon="6.43881">
        <ele>508.0</ele>
      </trkpt>
      <trkpt lat="46.0603" lon="6.43649">
        <ele>531.0</ele>
      </trkpt>
      <trkpt lat="46.06035" lon="6.43608">
        <ele>539.0</ele>
      </trkpt>
      <trkpt lat="46.05959" lon="6.43732">
        <ele>550.0</ele>
      </trkpt>
      <trkpt lat="46.05804" lon="6.44012">
        <ele>580.0</ele>
      </trkpt>
      <trkpt lat="46.05802" lon="6.44243">
        <ele>600.0</ele>
      </trkpt>
      <trkpt lat="46.05854" lon="6.44489">
        <ele>615.0</ele>
      </trkpt>
      <trkpt lat="46.05857" lon="6.44662">
        <ele>628.0</ele>
      </trkpt>
      <trkpt lat="46.05862" lon="6.4471">
        <ele>634.0</ele>
      </trkpt>
      <trkpt lat="46.05813" lon="6.44617">
        <ele>641.0</ele>
      </trkpt>
      <trkpt lat="46.05765" lon="6.44412">
        <ele>654.0</ele>
      </trkpt>
      <trkpt lat="46.05658" lon="6.44184">
        <ele>681.0</ele>
      </trkpt>
      <trkpt lat="46.05662" lon="6.43932">
        <ele>709.0</ele>
      </trkpt>
      <trkpt lat="46.05634" lon="6.4381">
        <ele>726.0</ele>
      </trkpt>
      <trkpt lat="46.05641" lon="6.43588">
        <ele>739.0</ele>
      </trkpt>
      <trkpt lat="46.05685" lon="6.43467">
        <ele>746.0</ele>
      </trkpt>
      <trkpt lat="46.05693" lon="6.43381">
        <ele>747.0</ele>
      </trkpt>
      <trkpt lat="46.05676" lon="6.43376">
        <ele>748.0</ele>
      </trkpt>
      <trkpt lat="46.0564" lon="6.4349">
        <ele>754.0</ele>
      </trkpt>
      <trkpt lat="46.05603" lon="6.43561">
        <ele>769.0</ele>
      </trkpt>
      <trkpt lat="46.05543" lon="6.43756">
        <ele>791.0</ele>
      </trkpt>
      <trkpt lat="46.05552" lon="6.43959">
        <ele>812.0</ele>
      </trkpt>
      <trkpt lat="46.05577" lon="6.44295">
        <ele>830.0</ele>
      </trkpt>
      <trkpt lat="46.05595" lon="6.44729">
        <ele>864.0</ele>
      </trkpt>
      <trkpt lat="46.0555" lon="6.44944">
        <ele>884.0</ele>
      </trkpt>
      <trkpt lat="46.05497" lon="6.45138">
        <ele>885.0</ele>
      </trkpt>
      <trkpt lat="46.05429" lon="6.45162">
        <ele>898.0</ele>
      </trkpt>
      <trkpt lat="46.05335" lon="6.45113">
        <ele>932.0</ele>
      </trkpt>
      <trkpt lat="46.05212" lon="6.44956">
        <ele>950.0</ele>
      </trkpt>
      <trkpt lat="46.05138" lon="6.44819">
        <ele>961.0</ele>
      </trkpt>
      <trkpt lat="46.05047" lon="6.44684">
        <ele>970.0</ele>
      </trkpt>
      <trkpt lat="46.04992" lon="6.44596">
        <ele>978.0</ele>
      </trkpt>
      <trkpt lat="46.04875" lon="6.44558">
        <ele>990.0</ele>
      </trkpt>
      <trkpt lat="46.04928" lon="6.44477">
        <ele>997.0</ele>
      </trkpt>
      <trkpt lat="46.04814" lon="6.44474">
        <ele>1005.0</ele>
      </trkpt>
      <trkpt lat="46.04731" lon="6.44488">
        <ele>1013.0</ele>
      </trkpt>
      <trkpt lat="46.04689" lon="6.4444">
        <ele>1018.0</ele>
      </trkpt>
      <trkpt lat="46.04778" lon="6.44388">
        <ele>1025.0</ele>
      </trkpt>
      <trkpt lat="46.04874" lon="6.44318">
        <ele>1034.0</ele>
      </trkpt>
      <trkpt lat="46.04992" lon="6.44255">
        <ele>1043.0</ele>
      </trkpt>
      <trkpt lat="46.05119" lon="6.44278">
        <ele>1058.0</ele>
      </trkpt>
      <trkpt lat="46.05229" lon="6.44352">
        <ele>1073.0</ele>
      </trkpt>
      <trkpt lat="46.05258" lon="6.44262">
        <ele>1087.0</ele>
      </trkpt>
      <trkpt lat="46.05189" lon="6.44122">
        <ele>1098.0</ele>
      </trkpt>
      <trkpt lat="46.05073" lon="6.44055">
        <ele>1110.0</ele>
      </trkpt>
      <trkpt lat="46.04984" lon="6.43983">
        <ele>1119.0</ele>
      </trkpt>
      <trkpt lat="46.04846" lon="6.43947">
        <ele>1134.0</ele>
      </trkpt>
      <trkpt lat="46.04726" lon="6.43952">
        <ele>1155.0</ele>
      </trkpt>
      <trkpt lat="46.04564" lon="6.43916">
        <ele>1169.0</ele>
      </trkpt>
      <trkpt lat="46.04413" lon="6.43837">
        <ele>1182.0</ele>
      </trkpt>
      <trkpt lat="46.04269" lon="6.43735">
        <ele>1198.0</ele>
      </trkpt>
      <trkpt lat="46.04129" lon="6.43723">
        <ele>1231.0</ele>
      </trkpt>
      <trkpt lat="46.04123" lon="6.43691">
        <ele>1249.0</ele>
      </trkpt>
      <trkpt lat="46.0417" lon="6.43601">
        <ele>1246.0</ele>
      </trkpt>
      <trkpt lat="46.04082" lon="6.43665">
        <ele>1254.0</ele>
      </trkpt>
      <trkpt lat="46.04033" lon="6.43884">
        <ele>1282.0</ele>
      </trkpt>
      <trkpt lat="46.04027" lon="6.44163">
        <ele>1295.0</ele>
      </trkpt>
      <trkpt lat="46.03975" lon="6.44321">
        <ele>1309.0</ele>
      </trkpt>
      <trkpt lat="46.0386" lon="6.44243">
        <ele>1314.0</ele>
      </trkpt>
      <trkpt lat="46.03759" lon="6.4415">
        <ele>1322.0</ele>
      </trkpt>
      <trkpt lat="46.03633" lon="6.4397">
        <ele>1335.0</ele>
      </trkpt>
      <trkpt lat="46.03553" lon="6.43853">
        <ele>1346.0</ele>
      </trkpt>
      <trkpt lat="46.03497" lon="6.43754">
        <ele>1357.0</ele>
      </trkpt>
      <trkpt lat="46.03379" lon="6.43657">
        <ele>1371.0</ele>
      </trkpt>
      <trkpt lat="46.03444" lon="6.43615">
        <ele>1378.0</ele>
      </trkpt>
      <trkpt lat="46.03579" lon="6.43687">
        <ele>1389.0</ele>
      </trkpt>
      <trkpt lat="46.03524" lon="6.43596">
        <ele>1398.0</ele>
      </trkpt>
      <trkpt lat="46.03454" lon="6.43474">
        <ele>1413.0</ele>
      </trkpt>
      <trkpt lat="46.03364" lon="6.43376">
        <ele>1425.0</ele>
      </trkpt>
      <trkpt lat="46.0327" lon="6.43226">
        <ele>1436.0</ele>
      </trkpt>
      <trkpt lat="46.03197" lon="6.43097">
        <ele>1450.0</ele>
      </trkpt>
      <trkpt lat="46.03154" lon="6.42958">
        <ele>1460.0</ele>
      </trkpt>
      <trkpt lat="46.0309" lon="6.4279">
        <ele>1472.0</ele>
      </trkpt>
      <trkpt lat="46.03" lon="6.4264">
        <ele>1484.0</ele>
      </trkpt>
      <trkpt lat="46.03072" lon="6.42659">
        <ele>1489.0</ele>
      </trkpt>
      <trkpt lat="46.03191" lon="6.42669">
        <ele>1496.0</ele>
      </trkpt>
      <trkpt lat="46.03306" lon="6.42744">
        <ele>1501.0</ele>
      </trkpt>
    </trkseg>
  </trk>
</gpx>