<?xml version="1.0" encoding="UTF-8"?>
<gpx xmlns="http://www.topografix.com/GPX/1/0" xmlns:xsi="http://www.w3.org/2001/XMLSchema-instance" xsi:schemaLocation="http://www.topografix.com/GPX/1/0 http://www.topografix.com/GPX/1/0/gpx.xsd" version="1.0" creator="GPSBabel - https://www.gpsbabel.org">
  <time>2025-12-19T07:59:15.739000Z</time>
  <bounds minlat="43.55355" maxlat="43.84079" minlon="5.77861" maxlon="7.38722" />
  <trk>
    <trkseg>
      <trkpt lat="43.73369" lon="7.38722">
        <ele>267.0</ele>
      </trkpt>
      <trkpt lat="43.73307" lon="7.38588">
        <ele>271.0</ele>
      </trkpt>
      <trkpt lat="43.73227" lon="7.3837">
        <ele>281.0</ele>
      </trkpt>
      <trkpt lat="43.73208" lon="7.38203">
        <ele>287.0</ele>
      </trkpt>
      <trkpt lat="43.73123" lon="7.38089">
        <ele>294.0</ele>
      </trkpt>
      <trkpt lat="43.73143" lon="7.37901">
        <ele>302.0</ele>
      </trkpt>
      <trkpt lat="43.73055" lon="7.37824">
        <ele>307.0</ele>
      </trkpt>
      <trkpt lat="43.73049" lon="7.37722">
        <ele>317.0</ele>
      </trkpt>
      <trkpt lat="43.73116" lon="7.37528">
        <ele>330.0</ele>
      </trkpt>
      <trkpt lat="43.73011" lon="7.37398">
        <ele>340.0</ele>
      </trkpt>
      <trkpt lat="43.72908" lon="7.37278">
        <ele>347.0</ele>
      </trkpt>
      <trkpt lat="43.72875" lon="7.37148">
        <ele>354.0</ele>
      </trkpt>
      <trkpt lat="43.7292" lon="7.36827">
        <ele>365.0</ele>
      </trkpt>
      <trkpt lat="43.72912" lon="7.36698">
        <ele>361.0</ele>
      </trkpt>
      <trkpt lat="43.73012" lon="7.36631">
        <ele>364.0</ele>
      </trkpt>
      <trkpt lat="43.73054" lon="7.36541">
        <ele>367.0</ele>
      </trkpt>
      <trkpt lat="43.73123" lon="7.36423">
        <ele>365.0</ele>
      </trkpt>
      <trkpt lat="43.73074" lon="7.36321">
        <ele>364.0</ele>
      </trkpt>
      <trkpt lat="43.72982" lon="7.36189">
        <ele>358.0</ele>
      </trkpt>
      <trkpt lat="43.72981" lon="7.36037">
        <ele>353.0</ele>
      </trkpt>
      <trkpt lat="43.72913" lon="7.35738">
        <ele>342.0</ele>
      </trkpt>
      <trkpt lat="43.72805" lon="7.35656">
        <ele>341.0</ele>
      </trkpt>
      <trkpt lat="43.72764" lon="7.35465">
        <ele>345.0</ele>
      </trkpt>
      <trkpt lat="43.72697" lon="7.35113">
        <ele>340.0</ele>
      </trkpt>
      <trkpt lat="43.72617" lon="7.34854">
        <ele>324.0</ele>
      </trkpt>
      <trkpt lat="43.72483" lon="7.34771">
        <ele>314.0</ele>
      </trkpt>
      <trkpt lat="43.72341" lon="7.34617">
        <ele>304.0</ele>
      </trkpt>
      <trkpt lat="43.7232" lon="7.34415">
        <ele>300.0</ele>
      </trkpt>
      <trkpt lat="43.7226" lon="7.34391">
        <ele>286.0</ele>
      </trkpt>
      <trkpt lat="43.72174" lon="7.34413">
        <ele>272.0</ele>
      </trkpt>
      <trkpt lat="43.72115" lon="7.34367">
        <ele>275.0</ele>
      </trkpt>
      <trkpt lat="43.72068" lon="7.34152">
        <ele>283.0</ele>
      </trkpt>
      <trkpt lat="43.72049" lon="7.33901">
        <ele>282.0</ele>
      </trkpt>
      <trkpt lat="43.71967" lon="7.33879">
        <ele>278.0</ele>
      </trkpt>
      <trkpt lat="43.71901" lon="7.33814">
        <ele>275.0</ele>
      </trkpt>
      <trkpt lat="43.71836" lon="7.33603">
        <ele>275.0</ele>
      </trkpt>
      <trkpt lat="43.717" lon="7.33335">
        <ele>280.0</ele>
      </trkpt>
      <trkpt lat="43.7151" lon="7.33215">
        <ele>286.0</ele>
      </trkpt>
      <trkpt lat="43.71312" lon="7.32815">
        <ele>264.0</ele>
      </trkpt>
      <trkpt lat="43.71227" lon="7.32497">
        <ele>238.0</ele>
      </trkpt>
      <trkpt lat="43.71289" lon="7.32164">
        <ele>222.0</ele>
      </trkpt>
      <trkpt lat="43.71307" lon="7.32011">
        <ele>209.0</ele>
      </trkpt>
      <trkpt lat="43.71194" lon="7.31998">
        <ele>205.0</ele>
      </trkpt>
      <trkpt lat="43.7105" lon="7.31946">
        <ele>197.0</ele>
      </trkpt>
      <trkpt lat="43.70991" lon="7.31824">
        <ele>186.0</ele>
      </trkpt>
      <trkpt lat="43.70992" lon="7.31548">
        <ele>180.0</ele>
      </trkpt>
      <trkpt lat="43.7102" lon="7.31314">
        <ele>194.0</ele>
      </trkpt>
      <trkpt lat="43.71005" lon="7.31146">
        <ele>184.0</ele>
      </trkpt>
      <trkpt lat="43.70949" lon="7.31078">
        <ele>180.0</ele>
      </trkpt>
      <trkpt lat="43.70986" lon="7.30951">
        <ele>179.0</ele>
      </trkpt>
      <trkpt lat="43.70928" lon="7.30878">
        <ele>176.0</ele>
      </trkpt>
      <trkpt lat="43.70817" lon="7.30761">
        <ele>166.0</ele>
      </trkpt>
      <trkpt lat="43.70633" lon="7.30658">
        <ele>157.0</ele>
      </trkpt>
      <trkpt lat="43.70654" lon="7.30465">
        <ele>157.0</ele>
      </trkpt>
      <trkpt lat="43.70764" lon="7.30319">
        <ele>155.0</ele>
      </trkpt>
      <trkpt lat="43.70643" lon="7.30152">
        <ele>151.0</ele>
      </trkpt>
      <trkpt lat="43.70582" lon="7.30089">
        <ele>151.0</ele>
      </trkpt>
      <trkpt lat="43.7048" lon="7.29996">
        <ele>148.0</ele>
      </trkpt>
      <trkpt lat="43.70231" lon="7.29775">
        <ele>135.0</ele>
      </trkpt>
      <trkpt lat="43.70002" lon="7.29607">
        <ele>114.0</ele>
      </trkpt>
      <trkpt lat="43.69855" lon="7.29549">
        <ele>101.0</ele>
      </trkpt>
      <trkpt lat="43.69737" lon="7.29495">
        <ele>95.0</ele>
      </trkpt>
      <trkpt lat="43.69755" lon="7.29387">
        <ele>87.0</ele>
      </trkpt>
      <trkpt lat="43.69964" lon="7.29386">
        <ele>73.0</ele>
      </trkpt>
      <trkpt lat="43.70078" lon="7.29426">
        <ele>66.0</ele>
      </trkpt>
      <trkpt lat="43.70208" lon="7.29469">
        <ele>58.0</ele>
      </trkpt>
      <trkpt lat="43.70246" lon="7.29402">
        <ele>53.0</ele>
      </trkpt>
      <trkpt lat="43.70149" lon="7.29255">
        <ele>43.0</ele>
      </trkpt>
      <trkpt lat="43.70108" lon="7.2904">
        <ele>29.0</ele>
      </trkpt>
      <trkpt lat="43.70036" lon="7.289">
        <ele>21.0</ele>
      </trkpt>
      <trkpt lat="43.70026" lon="7.28787">
        <ele>17.0</ele>
      </trkpt>
      <trkpt lat="43.70057" lon="7.28756">
        <ele>17.0</ele>
      </trkpt>
      <trkpt lat="43.70041" lon="7.28721">
        <ele>17.0</ele>
      </trkpt>
      <trkpt lat="43.69976" lon="7.28658">
        <ele>18.0</ele>
      </trkpt>
      <trkpt lat="43.69853" lon="7.28631">
        <ele>12.0</ele>
      </trkpt>
      <trkpt lat="43.69859" lon="7.28532">
        <ele>9.0</ele>
      </trkpt>
      <trkpt lat="43.69871" lon="7.28397">
        <ele>9.0</ele>
      </trkpt>
      <trkpt lat="43.69679" lon="7.28351">
        <ele>9.0</ele>
      </trkpt>
      <trkpt lat="43.69493" lon="7.28313">
        <ele>11.0</ele>
      </trkpt>
      <trkpt lat="43.69334" lon="7.28172">
        <ele>13.0</ele>
      </trkpt>
      <trkpt lat="43.69358" lon="7.27953">
        <ele>13.0</ele>
      </trkpt>
      <trkpt lat="43.6943" lon="7.27896">
        <ele>12.0</ele>
      </trkpt>
      <trkpt lat="43.69492" lon="7.27694">
        <ele>9.0</ele>
      </trkpt>
      <trkpt lat="43.69515" lon="7.27214">
        <ele>9.0</ele>
      </trkpt>
      <trkpt lat="43.69513" lon="7.2703">
        <ele>11.0</ele>
      </trkpt>
      <trkpt lat="43.69504" lon="7.26647">
        <ele>8.0</ele>
      </trkpt>
      <trkpt lat="43.69489" lon="7.26315">
        <ele>13.0</ele>
      </trkpt>
      <trkpt lat="43.6945" lon="7.25954">
        <ele>9.0</ele>
      </trkpt>
      <trkpt lat="43.69389" lon="7.25643">
        <ele>12.0</ele>
      </trkpt>
      <trkpt lat="43.69353" lon="7.25481">
        <ele>11.0</ele>
      </trkpt>
      <trkpt lat="43.69233" lon="7.25027">
        <ele>11.0</ele>
      </trkpt>
      <trkpt lat="43.69083" lon="7.24595">
        <ele>9.0</ele>
      </trkpt>
      <trkpt lat="43.68979" lon="7.24323">
        <ele>12.0</ele>
      </trkpt>
      <trkpt lat="43.68797" lon="7.23987">
        <ele>16.0</ele>
      </trkpt>
      <trkpt lat="43.68618" lon="7.23723">
        <ele>12.0</ele>
      </trkpt>
      <trkpt lat="43.68396" lon="7.23474">
        <ele>13.0</ele>
      </trkpt>
      <trkpt lat="43.68122" lon="7.2317">
        <ele>13.0</ele>
      </trkpt>
      <trkpt lat="43.67781" lon="7.22906">
        <ele>10.0</ele>
      </trkpt>
      <trkpt lat="43.67516" lon="7.22752">
        <ele>7.0</ele>
      </trkpt>
      <trkpt lat="43.67197" lon="7.2252">
        <ele>8.0</ele>
      </trkpt>
      <trkpt lat="43.66889" lon="7.221">
        <ele>8.0</ele>
      </trkpt>
      <trkpt lat="43.66838" lon="7.22002">
        <ele>5.0</ele>
      </trkpt>
      <trkpt lat="43.66717" lon="7.21677">
        <ele>6.0</ele>
      </trkpt>
      <trkpt lat="43.66668" lon="7.2137">
        <ele>12.0</ele>
      </trkpt>
      <trkpt lat="43.66564" lon="7.20495">
        <ele>9.0</ele>
      </trkpt>
      <trkpt lat="43.66428" lon="7.19997">
        <ele>9.0</ele>
      </trkpt>
      <trkpt lat="43.66176" lon="7.19447">
        <ele>15.0</ele>
      </trkpt>
      <trkpt lat="43.65898" lon="7.1889">
        <ele>5.0</ele>
      </trkpt>
      <trkpt lat="43.65796" lon="7.18479">
        <ele>6.0</ele>
      </trkpt>
      <trkpt lat="43.65678" lon="7.17963">
        <ele>5.0</ele>
      </trkpt>
      <trkpt lat="43.65649" lon="7.17671">
        <ele>5.0</ele>
      </trkpt>
      <trkpt lat="43.65671" lon="7.17443">
        <ele>5.0</ele>
      </trkpt>
      <trkpt lat="43.65775" lon="7.17099">
        <ele>5.0</ele>
      </trkpt>
      <trkpt lat="43.65787" lon="7.16943">
        <ele>5.0</ele>
      </trkpt>
      <trkpt lat="43.65744" lon="7.16657">
        <ele>5.0</ele>
      </trkpt>
      <trkpt lat="43.65659" lon="7.16395">
        <ele>5.0</ele>
      </trkpt>
      <trkpt lat="43.65592" lon="7.16204">
        <ele>5.0</ele>
      </trkpt>
      <trkpt lat="43.65514" lon="7.15989">
        <ele>4.0</ele>
      </trkpt>
      <trkpt lat="43.65437" lon="7.15791">
        <ele>7.0</ele>
      </trkpt>
      <trkpt lat="43.65348" lon="7.15611">
        <ele>5.0</ele>
      </trkpt>
      <trkpt lat="43.65226" lon="7.15419">
        <ele>7.0</ele>
      </trkpt>
      <trkpt lat="43.65091" lon="7.15235">
        <ele>7.0</ele>
      </trkpt>
      <trkpt lat="43.65041" lon="7.15124">
        <ele>3.0</ele>
      </trkpt>
      <trkpt lat="43.64819" lon="7.14905">
        <ele>2.0</ele>
      </trkpt>
      <trkpt lat="43.64464" lon="7.14523">
        <ele>4.0</ele>
      </trkpt>
      <trkpt lat="43.64376" lon="7.14458">
        <ele>4.0</ele>
      </trkpt>
      <trkpt lat="43.64192" lon="7.14259">
        <ele>3.0</ele>
      </trkpt>
      <trkpt lat="43.64163" lon="7.14175">
        <ele>3.0</ele>
      </trkpt>
      <trkpt lat="43.64214" lon="7.13896">
        <ele>5.0</ele>
      </trkpt>
      <trkpt lat="43.64219" lon="7.13886">
        <ele>6.0</ele>
      </trkpt>
      <trkpt lat="43.64178" lon="7.13847">
        <ele>7.0</ele>
      </trkpt>
      <trkpt lat="43.64217" lon="7.13675">
        <ele>8.0</ele>
      </trkpt>
      <trkpt lat="43.64223" lon="7.13498">
        <ele>13.0</ele>
      </trkpt>
      <trkpt lat="43.64242" lon="7.13398">
        <ele>19.0</ele>
      </trkpt>
      <trkpt lat="43.6422" lon="7.13332">
        <ele>20.0</ele>
      </trkpt>
      <trkpt lat="43.64343" lon="7.13308">
        <ele>23.0</ele>
      </trkpt>
      <trkpt lat="43.64449" lon="7.13432">
        <ele>19.0</ele>
      </trkpt>
      <trkpt lat="43.64603" lon="7.13639">
        <ele>13.0</ele>
      </trkpt>
      <trkpt lat="43.64677" lon="7.13747">
        <ele>11.0</ele>
      </trkpt>
      <trkpt lat="43.64754" lon="7.13805">
        <ele>8.0</ele>
      </trkpt>
      <trkpt lat="43.64807" lon="7.13725">
        <ele>8.0</ele>
      </trkpt>
      <trkpt lat="43.64838" lon="7.13673">
        <ele>9.0</ele>
      </trkpt>
      <trkpt lat="43.64939" lon="7.13522">
        <ele>12.0</ele>
      </trkpt>
      <trkpt lat="43.64936" lon="7.13259">
        <ele>14.0</ele>
      </trkpt>
      <trkpt lat="43.65039" lon="7.13006">
        <ele>6.0</ele>
      </trkpt>
      <trkpt lat="43.65202" lon="7.12833">
        <ele>9.0</ele>
      </trkpt>
      <trkpt lat="43.65241" lon="7.12779">
        <ele>10.0</ele>
      </trkpt>
      <trkpt lat="43.65323" lon="7.12648">
        <ele>14.0</ele>
      </trkpt>
      <trkpt lat="43.65484" lon="7.12493">
        <ele>19.0</ele>
      </trkpt>
      <trkpt lat="43.65611" lon="7.12229">
        <ele>17.0</ele>
      </trkpt>
      <trkpt lat="43.65666" lon="7.12034">
        <ele>14.0</ele>
      </trkpt>
      <trkpt lat="43.65692" lon="7.11964">
        <ele>16.0</ele>
      </trkpt>
      <trkpt lat="43.65736" lon="7.11662">
        <ele>16.0</ele>
      </trkpt>
      <trkpt lat="43.65798" lon="7.11425">
        <ele>18.0</ele>
      </trkpt>
      <trkpt lat="43.6576" lon="7.11147">
        <ele>20.0</ele>
      </trkpt>
      <trkpt lat="43.65742" lon="7.10843">
        <ele>24.0</ele>
      </trkpt>
      <trkpt lat="43.65689" lon="7.10603">
        <ele>27.0</ele>
      </trkpt>
      <trkpt lat="43.65959" lon="7.10388">
        <ele>28.0</ele>
      </trkpt>
      <trkpt lat="43.66056" lon="7.10176">
        <ele>27.0</ele>
      </trkpt>
      <trkpt lat="43.65963" lon="7.09669">
        <ele>28.0</ele>
      </trkpt>
      <trkpt lat="43.6587" lon="7.09299">
        <ele>30.0</ele>
      </trkpt>
      <trkpt lat="43.65773" lon="7.0905">
        <ele>37.0</ele>
      </trkpt>
      <trkpt lat="43.65621" lon="7.08914">
        <ele>48.0</ele>
      </trkpt>
      <trkpt lat="43.65699" lon="7.08595">
        <ele>61.0</ele>
      </trkpt>
      <trkpt lat="43.65721" lon="7.08442">
        <ele>75.0</ele>
      </trkpt>
      <trkpt lat="43.65548" lon="7.08356">
        <ele>83.0</ele>
      </trkpt>
      <trkpt lat="43.65418" lon="7.08257">
        <ele>87.0</ele>
      </trkpt>
      <trkpt lat="43.65246" lon="7.08043">
        <ele>98.0</ele>
      </trkpt>
      <trkpt lat="43.65333" lon="7.07653">
        <ele>112.0</ele>
      </trkpt>
      <trkpt lat="43.65591" lon="7.0748">
        <ele>126.0</ele>
      </trkpt>
      <trkpt lat="43.65951" lon="7.07404">
        <ele>145.0</ele>
      </trkpt>
      <trkpt lat="43.66311" lon="7.07338">
        <ele>156.0</ele>
      </trkpt>
      <trkpt lat="43.66349" lon="7.0722">
        <ele>162.0</ele>
      </trkpt>
      <trkpt lat="43.66208" lon="7.07218">
        <ele>168.0</ele>
      </trkpt>
      <trkpt lat="43.66156" lon="7.06962">
        <ele>177.0</ele>
      </trkpt>
      <trkpt lat="43.66408" lon="7.06662">
        <ele>187.0</ele>
      </trkpt>
      <trkpt lat="43.6652" lon="7.06479">
        <ele>199.0</ele>
      </trkpt>
      <trkpt lat="43.66427" lon="7.06401">
        <ele>204.0</ele>
      </trkpt>
      <trkpt lat="43.66332" lon="7.0634">
        <ele>207.0</ele>
      </trkpt>
      <trkpt lat="43.66216" lon="7.06275">
        <ele>212.0</ele>
      </trkpt>
      <trkpt lat="43.66121" lon="7.06097">
        <ele>211.0</ele>
      </trkpt>
      <trkpt lat="43.66128" lon="7.06013">
        <ele>210.0</ele>
      </trkpt>
      <trkpt lat="43.66197" lon="7.05774">
        <ele>204.0</ele>
      </trkpt>
      <trkpt lat="43.66277" lon="7.05621">
        <ele>196.0</ele>
      </trkpt>
      <trkpt lat="43.66448" lon="7.05339">
        <ele>189.0</ele>
      </trkpt>
      <trkpt lat="43.66504" lon="7.05307">
        <ele>188.0</ele>
      </trkpt>
      <trkpt lat="43.66534" lon="7.05236">
        <ele>187.0</ele>
      </trkpt>
      <trkpt lat="43.66611" lon="7.05114">
        <ele>186.0</ele>
      </trkpt>
      <trkpt lat="43.6666" lon="7.04982">
        <ele>186.0</ele>
      </trkpt>
      <trkpt lat="43.66667" lon="7.04925">
        <ele>187.0</ele>
      </trkpt>
      <trkpt lat="43.66723" lon="7.04735">
        <ele>189.0</ele>
      </trkpt>
      <trkpt lat="43.66734" lon="7.04669">
        <ele>189.0</ele>
      </trkpt>
      <trkpt lat="43.66789" lon="7.04457">
        <ele>190.0</ele>
      </trkpt>
      <trkpt lat="43.66835" lon="7.043">
        <ele>193.0</ele>
      </trkpt>
      <trkpt lat="43.66837" lon="7.04265">
        <ele>194.0</ele>
      </trkpt>
      <trkpt lat="43.66952" lon="7.04064">
        <ele>200.0</ele>
      </trkpt>
      <trkpt lat="43.67209" lon="7.03729">
        <ele>210.0</ele>
      </trkpt>
      <trkpt lat="43.67176" lon="7.0319">
        <ele>220.0</ele>
      </trkpt>
      <trkpt lat="43.67187" lon="7.0284">
        <ele>234.0</ele>
      </trkpt>
      <trkpt lat="43.67235" lon="7.02746">
        <ele>238.0</ele>
      </trkpt>
      <trkpt lat="43.67175" lon="7.02569">
        <ele>243.0</ele>
      </trkpt>
      <trkpt lat="43.67311" lon="7.02395">
        <ele>251.0</ele>
      </trkpt>
      <trkpt lat="43.67468" lon="7.02323">
        <ele>257.0</ele>
      </trkpt>
      <trkpt lat="43.67525" lon="7.02066">
        <ele>263.0</ele>
      </trkpt>
      <trkpt lat="43.67645" lon="7.01837">
        <ele>268.0</ele>
      </trkpt>
      <trkpt lat="43.67627" lon="7.01546">
        <ele>271.0</ele>
      </trkpt>
      <trkpt lat="43.67571" lon="7.01279">
        <ele>280.0</ele>
      </trkpt>
      <trkpt lat="43.67498" lon="7.01062">
        <ele>290.0</ele>
      </trkpt>
      <trkpt lat="43.67457" lon="7.00947">
        <ele>294.0</ele>
      </trkpt>
      <trkpt lat="43.67405" lon="7.00783">
        <ele>298.0</ele>
      </trkpt>
      <trkpt lat="43.67411" lon="7.00669">
        <ele>303.0</ele>
      </trkpt>
      <trkpt lat="43.67418" lon="7.00515">
        <ele>310.0</ele>
      </trkpt>
      <trkpt lat="43.67354" lon="7.00396">
        <ele>315.0</ele>
      </trkpt>
      <trkpt lat="43.67347" lon="7.00256">
        <ele>320.0</ele>
      </trkpt>
      <trkpt lat="43.67357" lon="7.00187">
        <ele>322.0</ele>
      </trkpt>
      <trkpt lat="43.67311" lon="6.99859">
        <ele>331.0</ele>
      </trkpt>
      <trkpt lat="43.67335" lon="6.99514">
        <ele>351.0</ele>
      </trkpt>
      <trkpt lat="43.67326" lon="6.99474">
        <ele>353.0</ele>
      </trkpt>
      <trkpt lat="43.6729" lon="6.99261">
        <ele>354.0</ele>
      </trkpt>
      <trkpt lat="43.67399" lon="6.9891">
        <ele>365.0</ele>
      </trkpt>
      <trkpt lat="43.67526" lon="6.98632">
        <ele>375.0</ele>
      </trkpt>
      <trkpt lat="43.67627" lon="6.98366">
        <ele>383.0</ele>
      </trkpt>
      <trkpt lat="43.67772" lon="6.97842">
        <ele>395.0</ele>
      </trkpt>
      <trkpt lat="43.67721" lon="6.97621">
        <ele>402.0</ele>
      </trkpt>
      <trkpt lat="43.67863" lon="6.97395">
        <ele>408.0</ele>
      </trkpt>
      <trkpt lat="43.6791" lon="6.97347">
        <ele>408.0</ele>
      </trkpt>
      <trkpt lat="43.6792" lon="6.97302">
        <ele>408.0</ele>
      </trkpt>
      <trkpt lat="43.67936" lon="6.97186">
        <ele>408.0</ele>
      </trkpt>
      <trkpt lat="43.67957" lon="6.97013">
        <ele>403.0</ele>
      </trkpt>
      <trkpt lat="43.68029" lon="6.96766">
        <ele>384.0</ele>
      </trkpt>
      <trkpt lat="43.68023" lon="6.96733">
        <ele>381.0</ele>
      </trkpt>
      <trkpt lat="43.68038" lon="6.96601">
        <ele>378.0</ele>
      </trkpt>
      <trkpt lat="43.68135" lon="6.96307">
        <ele>378.0</ele>
      </trkpt>
      <trkpt lat="43.68121" lon="6.96075">
        <ele>390.0</ele>
      </trkpt>
      <trkpt lat="43.68008" lon="6.95843">
        <ele>369.0</ele>
      </trkpt>
      <trkpt lat="43.67977" lon="6.9572">
        <ele>364.0</ele>
      </trkpt>
      <trkpt lat="43.68005" lon="6.95552">
        <ele>361.0</ele>
      </trkpt>
      <trkpt lat="43.67903" lon="6.95322">
        <ele>354.0</ele>
      </trkpt>
      <trkpt lat="43.67825" lon="6.95195">
        <ele>349.0</ele>
      </trkpt>
      <trkpt lat="43.6774" lon="6.94962">
        <ele>343.0</ele>
      </trkpt>
      <trkpt lat="43.67512" lon="6.9483">
        <ele>335.0</ele>
      </trkpt>
      <trkpt lat="43.67335" lon="6.94599">
        <ele>337.0</ele>
      </trkpt>
      <trkpt lat="43.67284" lon="6.9442">
        <ele>350.0</ele>
      </trkpt>
      <trkpt lat="43.67188" lon="6.9426">
        <ele>366.0</ele>
      </trkpt>
      <trkpt lat="43.67041" lon="6.94147">
        <ele>374.0</ele>
      </trkpt>
      <trkpt lat="43.66867" lon="6.94014">
        <ele>364.0</ele>
      </trkpt>
      <trkpt lat="43.66716" lon="6.93758">
        <ele>368.0</ele>
      </trkpt>
      <trkpt lat="43.66685" lon="6.93642">
        <ele>368.0</ele>
      </trkpt>
      <trkpt lat="43.66586" lon="6.93593">
        <ele>366.0</ele>
      </trkpt>
      <trkpt lat="43.66507" lon="6.93486">
        <ele>363.0</ele>
      </trkpt>
      <trkpt lat="43.6643" lon="6.93357">
        <ele>355.0</ele>
      </trkpt>
      <trkpt lat="43.66349" lon="6.93069">
        <ele>354.0</ele>
      </trkpt>
      <trkpt lat="43.66342" lon="6.92874">
        <ele>353.0</ele>
      </trkpt>
      <trkpt lat="43.66374" lon="6.92752">
        <ele>353.0</ele>
      </trkpt>
      <trkpt lat="43.66389" lon="6.9262">
        <ele>353.0</ele>
      </trkpt>
      <trkpt lat="43.66383" lon="6.92516">
        <ele>353.0</ele>
      </trkpt>
      <trkpt lat="43.66149" lon="6.92289">
        <ele>353.0</ele>
      </trkpt>
      <trkpt lat="43.66062" lon="6.92248">
        <ele>352.0</ele>
      </trkpt>
      <trkpt lat="43.66023" lon="6.92236">
        <ele>349.0</ele>
      </trkpt>
      <trkpt lat="43.66018" lon="6.92249">
        <ele>348.0</ele>
      </trkpt>
      <trkpt lat="43.66051" lon="6.92284">
        <ele>346.0</ele>
      </trkpt>
      <trkpt lat="43.66065" lon="6.92391">
        <ele>339.0</ele>
      </trkpt>
      <trkpt lat="43.66098" lon="6.92467">
        <ele>334.0</ele>
      </trkpt>
      <trkpt lat="43.66123" lon="6.92408">
        <ele>330.0</ele>
      </trkpt>
      <trkpt lat="43.661" lon="6.92501">
        <ele>326.0</ele>
      </trkpt>
      <trkpt lat="43.66138" lon="6.92451">
        <ele>321.0</ele>
      </trkpt>
      <trkpt lat="43.66047" lon="6.92546">
        <ele>314.0</ele>
      </trkpt>
      <trkpt lat="43.65971" lon="6.92588">
        <ele>310.0</ele>
      </trkpt>
      <trkpt lat="43.65897" lon="6.92604">
        <ele>307.0</ele>
      </trkpt>
      <trkpt lat="43.65769" lon="6.92555">
        <ele>305.0</ele>
      </trkpt>
      <trkpt lat="43.65727" lon="6.92489">
        <ele>305.0</ele>
      </trkpt>
      <trkpt lat="43.65743" lon="6.92404">
        <ele>307.0</ele>
      </trkpt>
      <trkpt lat="43.65747" lon="6.92347">
        <ele>308.0</ele>
      </trkpt>
      <trkpt lat="43.65663" lon="6.92153">
        <ele>317.0</ele>
      </trkpt>
      <trkpt lat="43.6571" lon="6.92131">
        <ele>322.0</ele>
      </trkpt>
      <trkpt lat="43.65755" lon="6.92207">
        <ele>327.0</ele>
      </trkpt>
      <trkpt lat="43.65756" lon="6.92148">
        <ele>331.0</ele>
      </trkpt>
      <trkpt lat="43.65741" lon="6.92095">
        <ele>334.0</ele>
      </trkpt>
      <trkpt lat="43.65687" lon="6.92005">
        <ele>337.0</ele>
      </trkpt>
      <trkpt lat="43.65638" lon="6.91981">
        <ele>338.0</ele>
      </trkpt>
      <trkpt lat="43.65475" lon="6.91872">
        <ele>335.0</ele>
      </trkpt>
      <trkpt lat="43.65353" lon="6.9191">
        <ele>327.0</ele>
      </trkpt>
      <trkpt lat="43.65197" lon="6.92012">
        <ele>316.0</ele>
      </trkpt>
      <trkpt lat="43.65107" lon="6.91969">
        <ele>310.0</ele>
      </trkpt>
      <trkpt lat="43.65005" lon="6.91777">
        <ele>301.0</ele>
      </trkpt>
      <trkpt lat="43.6494" lon="6.91749">
        <ele>298.0</ele>
      </trkpt>
      <trkpt lat="43.64792" lon="6.91698">
        <ele>288.0</ele>
      </trkpt>
      <trkpt lat="43.64771" lon="6.915">
        <ele>280.0</ele>
      </trkpt>
      <trkpt lat="43.64769" lon="6.91332">
        <ele>271.0</ele>
      </trkpt>
      <trkpt lat="43.64742" lon="6.91329">
        <ele>269.0</ele>
      </trkpt>
      <trkpt lat="43.64592" lon="6.91422">
        <ele>263.0</ele>
      </trkpt>
      <trkpt lat="43.64459" lon="6.91435">
        <ele>257.0</ele>
      </trkpt>
      <trkpt lat="43.64366" lon="6.91351">
        <ele>253.0</ele>
      </trkpt>
      <trkpt lat="43.64246" lon="6.91231">
        <ele>246.0</ele>
      </trkpt>
      <trkpt lat="43.64186" lon="6.91131">
        <ele>238.0</ele>
      </trkpt>
      <trkpt lat="43.6414" lon="6.91105">
        <ele>235.0</ele>
      </trkpt>
      <trkpt lat="43.64083" lon="6.91">
        <ele>229.0</ele>
      </trkpt>
      <trkpt lat="43.64079" lon="6.90915">
        <ele>226.0</ele>
      </trkpt>
      <trkpt lat="43.64178" lon="6.90789">
        <ele>222.0</ele>
      </trkpt>
      <trkpt lat="43.64295" lon="6.9086">
        <ele>217.0</ele>
      </trkpt>
      <trkpt lat="43.64258" lon="6.90712">
        <ele>212.0</ele>
      </trkpt>
      <trkpt lat="43.64328" lon="6.90497">
        <ele>202.0</ele>
      </trkpt>
      <trkpt lat="43.64324" lon="6.90323">
        <ele>190.0</ele>
      </trkpt>
      <trkpt lat="43.644" lon="6.90291">
        <ele>185.0</ele>
      </trkpt>
      <trkpt lat="43.64512" lon="6.90295">
        <ele>181.0</ele>
      </trkpt>
      <trkpt lat="43.64553" lon="6.90206">
        <ele>181.0</ele>
      </trkpt>
      <trkpt lat="43.64425" lon="6.90015">
        <ele>186.0</ele>
      </trkpt>
      <trkpt lat="43.64423" lon="6.89895">
        <ele>189.0</ele>
      </trkpt>
      <trkpt lat="43.64501" lon="6.89597">
        <ele>201.0</ele>
      </trkpt>
      <trkpt lat="43.64499" lon="6.8941">
        <ele>210.0</ele>
      </trkpt>
      <trkpt lat="43.64505" lon="6.89261">
        <ele>214.0</ele>
      </trkpt>
      <trkpt lat="43.64475" lon="6.89213">
        <ele>213.0</ele>
      </trkpt>
      <trkpt lat="43.64577" lon="6.88833">
        <ele>207.0</ele>
      </trkpt>
      <trkpt lat="43.64575" lon="6.88712">
        <ele>202.0</ele>
      </trkpt>
      <trkpt lat="43.64472" lon="6.88489">
        <ele>196.0</ele>
      </trkpt>
      <trkpt lat="43.64401" lon="6.8832">
        <ele>189.0</ele>
      </trkpt>
      <trkpt lat="43.64352" lon="6.88239">
        <ele>188.0</ele>
      </trkpt>
      <trkpt lat="43.64165" lon="6.87911">
        <ele>187.0</ele>
      </trkpt>
      <trkpt lat="43.64031" lon="6.87727">
        <ele>192.0</ele>
      </trkpt>
      <trkpt lat="43.63905" lon="6.87591">
        <ele>193.0</ele>
      </trkpt>
      <trkpt lat="43.63893" lon="6.87176">
        <ele>190.0</ele>
      </trkpt>
      <trkpt lat="43.63888" lon="6.87121">
        <ele>189.0</ele>
      </trkpt>
      <trkpt lat="43.63904" lon="6.86918">
        <ele>187.0</ele>
      </trkpt>
      <trkpt lat="43.63885" lon="6.8672">
        <ele>187.0</ele>
      </trkpt>
      <trkpt lat="43.63824" lon="6.86493">
        <ele>196.0</ele>
      </trkpt>
      <trkpt lat="43.63634" lon="6.86443">
        <ele>207.0</ele>
      </trkpt>
      <trkpt lat="43.63743" lon="6.86216">
        <ele>220.0</ele>
      </trkpt>
      <trkpt lat="43.63681" lon="6.86032">
        <ele>230.0</ele>
      </trkpt>
      <trkpt lat="43.63602" lon="6.8584">
        <ele>237.0</ele>
      </trkpt>
      <trkpt lat="43.63587" lon="6.85795">
        <ele>239.0</ele>
      </trkpt>
      <trkpt lat="43.63517" lon="6.85568">
        <ele>240.0</ele>
      </trkpt>
      <trkpt lat="43.63508" lon="6.85537">
        <ele>240.0</ele>
      </trkpt>
      <trkpt lat="43.63445" lon="6.85167">
        <ele>243.0</ele>
      </trkpt>
      <trkpt lat="43.6339" lon="6.8503">
        <ele>241.0</ele>
      </trkpt>
      <trkpt lat="43.63299" lon="6.84808">
        <ele>245.0</ele>
      </trkpt>
      <trkpt lat="43.63301" lon="6.84605">
        <ele>244.0</ele>
      </trkpt>
      <trkpt lat="43.63238" lon="6.84494">
        <ele>243.0</ele>
      </trkpt>
      <trkpt lat="43.63162" lon="6.84366">
        <ele>241.0</ele>
      </trkpt>
      <trkpt lat="43.63152" lon="6.84286">
        <ele>240.0</ele>
      </trkpt>
      <trkpt lat="43.63226" lon="6.8417">
        <ele>236.0</ele>
      </trkpt>
      <trkpt lat="43.6329" lon="6.84153">
        <ele>230.0</ele>
      </trkpt>
      <trkpt lat="43.63214" lon="6.84052">
        <ele>224.0</ele>
      </trkpt>
      <trkpt lat="43.63122" lon="6.839">
        <ele>215.0</ele>
      </trkpt>
      <trkpt lat="43.62955" lon="6.83839">
        <ele>201.0</ele>
      </trkpt>
      <trkpt lat="43.62863" lon="6.83675">
        <ele>195.0</ele>
      </trkpt>
      <trkpt lat="43.62716" lon="6.83565">
        <ele>188.0</ele>
      </trkpt>
      <trkpt lat="43.62562" lon="6.83326">
        <ele>173.0</ele>
      </trkpt>
      <trkpt lat="43.62509" lon="6.83047">
        <ele>163.0</ele>
      </trkpt>
      <trkpt lat="43.62518" lon="6.82564">
        <ele>145.0</ele>
      </trkpt>
      <trkpt lat="43.62604" lon="6.82224">
        <ele>128.0</ele>
      </trkpt>
      <trkpt lat="43.62664" lon="6.82083">
        <ele>118.0</ele>
      </trkpt>
      <trkpt lat="43.62756" lon="6.81909">
        <ele>112.0</ele>
      </trkpt>
      <trkpt lat="43.62789" lon="6.81733">
        <ele>108.0</ele>
      </trkpt>
      <trkpt lat="43.62698" lon="6.81821">
        <ele>108.0</ele>
      </trkpt>
      <trkpt lat="43.62536" lon="6.82054">
        <ele>121.0</ele>
      </trkpt>
      <trkpt lat="43.62426" lon="6.8221">
        <ele>128.0</ele>
      </trkpt>
      <trkpt lat="43.62232" lon="6.82337">
        <ele>139.0</ele>
      </trkpt>
      <trkpt lat="43.62025" lon="6.82413">
        <ele>146.0</ele>
      </trkpt>
      <trkpt lat="43.61819" lon="6.82315">
        <ele>153.0</ele>
      </trkpt>
      <trkpt lat="43.6167" lon="6.82213">
        <ele>162.0</ele>
      </trkpt>
      <trkpt lat="43.61404" lon="6.82076">
        <ele>173.0</ele>
      </trkpt>
      <trkpt lat="43.61243" lon="6.81877">
        <ele>181.0</ele>
      </trkpt>
      <trkpt lat="43.61198" lon="6.81689">
        <ele>186.0</ele>
      </trkpt>
      <trkpt lat="43.61064" lon="6.81456">
        <ele>198.0</ele>
      </trkpt>
      <trkpt lat="43.6092" lon="6.81187">
        <ele>213.0</ele>
      </trkpt>
      <trkpt lat="43.60756" lon="6.80981">
        <ele>222.0</ele>
      </trkpt>
      <trkpt lat="43.60561" lon="6.80772">
        <ele>238.0</ele>
      </trkpt>
      <trkpt lat="43.60251" lon="6.80585">
        <ele>245.0</ele>
      </trkpt>
      <trkpt lat="43.59971" lon="6.80269">
        <ele>255.0</ele>
      </trkpt>
      <trkpt lat="43.59677" lon="6.79731">
        <ele>259.0</ele>
      </trkpt>
      <trkpt lat="43.59663" lon="6.79529">
        <ele>255.0</ele>
      </trkpt>
      <trkpt lat="43.59714" lon="6.79155">
        <ele>239.0</ele>
      </trkpt>
      <trkpt lat="43.59782" lon="6.78933">
        <ele>229.0</ele>
      </trkpt>
      <trkpt lat="43.59921" lon="6.78634">
        <ele>209.0</ele>
      </trkpt>
      <trkpt lat="43.59937" lon="6.78578">
        <ele>206.0</ele>
      </trkpt>
      <trkpt lat="43.60199" lon="6.77875">
        <ele>186.0</ele>
      </trkpt>
      <trkpt lat="43.60209" lon="6.77828">
        <ele>183.0</ele>
      </trkpt>
      <trkpt lat="43.60334" lon="6.77458">
        <ele>182.0</ele>
      </trkpt>
      <trkpt lat="43.60506" lon="6.77027">
        <ele>177.0</ele>
      </trkpt>
      <trkpt lat="43.60522" lon="6.76948">
        <ele>176.0</ele>
      </trkpt>
      <trkpt lat="43.60578" lon="6.76579">
        <ele>178.0</ele>
      </trkpt>
      <trkpt lat="43.60574" lon="6.76319">
        <ele>180.0</ele>
      </trkpt>
      <trkpt lat="43.60578" lon="6.76198">
        <ele>180.0</ele>
      </trkpt>
      <trkpt lat="43.60551" lon="6.7592">
        <ele>181.0</ele>
      </trkpt>
      <trkpt lat="43.60569" lon="6.75666">
        <ele>182.0</ele>
      </trkpt>
      <trkpt lat="43.60587" lon="6.75534">
        <ele>183.0</ele>
      </trkpt>
      <trkpt lat="43.60585" lon="6.75456">
        <ele>183.0</ele>
      </trkpt>
      <trkpt lat="43.60666" lon="6.74993">
        <ele>189.0</ele>
      </trkpt>
      <trkpt lat="43.60739" lon="6.7473">
        <ele>191.0</ele>
      </trkpt>
      <trkpt lat="43.60785" lon="6.74381">
        <ele>191.0</ele>
      </trkpt>
      <trkpt lat="43.60822" lon="6.74263">
        <ele>193.0</ele>
      </trkpt>
      <trkpt lat="43.60833" lon="6.74073">
        <ele>195.0</ele>
      </trkpt>
      <trkpt lat="43.61023" lon="6.73242">
        <ele>216.0</ele>
      </trkpt>
      <trkpt lat="43.61047" lon="6.73186">
        <ele>216.0</ele>
      </trkpt>
      <trkpt lat="43.61013" lon="6.73132">
        <ele>216.0</ele>
      </trkpt>
      <trkpt lat="43.61064" lon="6.72618">
        <ele>222.0</ele>
      </trkpt>
      <trkpt lat="43.61037" lon="6.72399">
        <ele>218.0</ele>
      </trkpt>
      <trkpt lat="43.60982" lon="6.71861">
        <ele>213.0</ele>
      </trkpt>
      <trkpt lat="43.60878" lon="6.71521">
        <ele>211.0</ele>
      </trkpt>
      <trkpt lat="43.60817" lon="6.71173">
        <ele>211.0</ele>
      </trkpt>
      <trkpt lat="43.60816" lon="6.7112">
        <ele>212.0</ele>
      </trkpt>
      <trkpt lat="43.6073" lon="6.70551">
        <ele>213.0</ele>
      </trkpt>
      <trkpt lat="43.6067" lon="6.7019">
        <ele>216.0</ele>
      </trkpt>
      <trkpt lat="43.60357" lon="6.70004">
        <ele>219.0</ele>
      </trkpt>
      <trkpt lat="43.59955" lon="6.69897">
        <ele>233.0</ele>
      </trkpt>
      <trkpt lat="43.59676" lon="6.69747">
        <ele>244.0</ele>
      </trkpt>
      <trkpt lat="43.59609" lon="6.69484">
        <ele>244.0</ele>
      </trkpt>
      <trkpt lat="43.59716" lon="6.69175">
        <ele>244.0</ele>
      </trkpt>
      <trkpt lat="43.59723" lon="6.69053">
        <ele>245.0</ele>
      </trkpt>
      <trkpt lat="43.59676" lon="6.68976">
        <ele>246.0</ele>
      </trkpt>
      <trkpt lat="43.59466" lon="6.68929">
        <ele>254.0</ele>
      </trkpt>
      <trkpt lat="43.59362" lon="6.68769">
        <ele>262.0</ele>
      </trkpt>
      <trkpt lat="43.59471" lon="6.68371">
        <ele>279.0</ele>
      </trkpt>
      <trkpt lat="43.59295" lon="6.68266">
        <ele>291.0</ele>
      </trkpt>
      <trkpt lat="43.58901" lon="6.68063">
        <ele>303.0</ele>
      </trkpt>
      <trkpt lat="43.59027" lon="6.67744">
        <ele>298.0</ele>
      </trkpt>
      <trkpt lat="43.58873" lon="6.6762">
        <ele>295.0</ele>
      </trkpt>
      <trkpt lat="43.58682" lon="6.67324">
        <ele>287.0</ele>
      </trkpt>
      <trkpt lat="43.58771" lon="6.67029">
        <ele>282.0</ele>
      </trkpt>
      <trkpt lat="43.5864" lon="6.6702">
        <ele>280.0</ele>
      </trkpt>
      <trkpt lat="43.58384" lon="6.66907">
        <ele>281.0</ele>
      </trkpt>
      <trkpt lat="43.58321" lon="6.66582">
        <ele>277.0</ele>
      </trkpt>
      <trkpt lat="43.58446" lon="6.66392">
        <ele>273.0</ele>
      </trkpt>
      <trkpt lat="43.58537" lon="6.66052">
        <ele>259.0</ele>
      </trkpt>
      <trkpt lat="43.58454" lon="6.65895">
        <ele>251.0</ele>
      </trkpt>
      <trkpt lat="43.58536" lon="6.65457">
        <ele>242.0</ele>
      </trkpt>
      <trkpt lat="43.58487" lon="6.65004">
        <ele>242.0</ele>
      </trkpt>
      <trkpt lat="43.58482" lon="6.64768">
        <ele>251.0</ele>
      </trkpt>
      <trkpt lat="43.58601" lon="6.64323">
        <ele>261.0</ele>
      </trkpt>
      <trkpt lat="43.58729" lon="6.64104">
        <ele>261.0</ele>
      </trkpt>
      <trkpt lat="43.5877" lon="6.63919">
        <ele>258.0</ele>
      </trkpt>
      <trkpt lat="43.58751" lon="6.63855">
        <ele>255.0</ele>
      </trkpt>
      <trkpt lat="43.58668" lon="6.63809">
        <ele>251.0</ele>
      </trkpt>
      <trkpt lat="43.58695" lon="6.63597">
        <ele>246.0</ele>
      </trkpt>
      <trkpt lat="43.58701" lon="6.63408">
        <ele>244.0</ele>
      </trkpt>
      <trkpt lat="43.58469" lon="6.63526">
        <ele>248.0</ele>
      </trkpt>
      <trkpt lat="43.58219" lon="6.63583">
        <ele>260.0</ele>
      </trkpt>
      <trkpt lat="43.58057" lon="6.63523">
        <ele>266.0</ele>
      </trkpt>
      <trkpt lat="43.58025" lon="6.63228">
        <ele>270.0</ele>
      </trkpt>
      <trkpt lat="43.58099" lon="6.6276">
        <ele>266.0</ele>
      </trkpt>
      <trkpt lat="43.58128" lon="6.62569">
        <ele>266.0</ele>
      </trkpt>
      <trkpt lat="43.58067" lon="6.62352">
        <ele>272.0</ele>
      </trkpt>
      <trkpt lat="43.58014" lon="6.62132">
        <ele>274.0</ele>
      </trkpt>
      <trkpt lat="43.57862" lon="6.62115">
        <ele>263.0</ele>
      </trkpt>
      <trkpt lat="43.57529" lon="6.62164">
        <ele>245.0</ele>
      </trkpt>
      <trkpt lat="43.57489" lon="6.62138">
        <ele>240.0</ele>
      </trkpt>
      <trkpt lat="43.57617" lon="6.62022">
        <ele>233.0</ele>
      </trkpt>
      <trkpt lat="43.57741" lon="6.6179">
        <ele>223.0</ele>
      </trkpt>
      <trkpt lat="43.57862" lon="6.61746">
        <ele>215.0</ele>
      </trkpt>
      <trkpt lat="43.57921" lon="6.61466">
        <ele>203.0</ele>
      </trkpt>
      <trkpt lat="43.57939" lon="6.61217">
        <ele>196.0</ele>
      </trkpt>
      <trkpt lat="43.57797" lon="6.61306">
        <ele>205.0</ele>
      </trkpt>
      <trkpt lat="43.57548" lon="6.61451">
        <ele>213.0</ele>
      </trkpt>
      <trkpt lat="43.5741" lon="6.61407">
        <ele>221.0</ele>
      </trkpt>
      <trkpt lat="43.57502" lon="6.61209">
        <ele>230.0</ele>
      </trkpt>
      <trkpt lat="43.57643" lon="6.61007">
        <ele>239.0</ele>
      </trkpt>
      <trkpt lat="43.57712" lon="6.60695">
        <ele>252.0</ele>
      </trkpt>
      <trkpt lat="43.57822" lon="6.60496">
        <ele>265.0</ele>
      </trkpt>
      <trkpt lat="43.57774" lon="6.60411">
        <ele>269.0</ele>
      </trkpt>
      <trkpt lat="43.57668" lon="6.60211">
        <ele>276.0</ele>
      </trkpt>
      <trkpt lat="43.57725" lon="6.59941">
        <ele>285.0</ele>
      </trkpt>
      <trkpt lat="43.57745" lon="6.59799">
        <ele>293.0</ele>
      </trkpt>
      <trkpt lat="43.57646" lon="6.59787">
        <ele>293.0</ele>
      </trkpt>
      <trkpt lat="43.57665" lon="6.59644">
        <ele>295.0</ele>
      </trkpt>
      <trkpt lat="43.57646" lon="6.59163">
        <ele>300.0</ele>
      </trkpt>
      <trkpt lat="43.57703" lon="6.58638">
        <ele>297.0</ele>
      </trkpt>
      <trkpt lat="43.57578" lon="6.57941">
        <ele>317.0</ele>
      </trkpt>
      <trkpt lat="43.57615" lon="6.57549">
        <ele>328.0</ele>
      </trkpt>
      <trkpt lat="43.57477" lon="6.56889">
        <ele>301.0</ele>
      </trkpt>
      <trkpt lat="43.57472" lon="6.56668">
        <ele>295.0</ele>
      </trkpt>
      <trkpt lat="43.5734" lon="6.56225">
        <ele>289.0</ele>
      </trkpt>
      <trkpt lat="43.57222" lon="6.55978">
        <ele>271.0</ele>
      </trkpt>
      <trkpt lat="43.57249" lon="6.55296">
        <ele>272.0</ele>
      </trkpt>
      <trkpt lat="43.57228" lon="6.54657">
        <ele>270.0</ele>
      </trkpt>
      <trkpt lat="43.57186" lon="6.54001">
        <ele>271.0</ele>
      </trkpt>
      <trkpt lat="43.5723" lon="6.53211">
        <ele>293.0</ele>
      </trkpt>
      <trkpt lat="43.57194" lon="6.52827">
        <ele>307.0</ele>
      </trkpt>
      <trkpt lat="43.56975" lon="6.52788">
        <ele>300.0</ele>
      </trkpt>
      <trkpt lat="43.56714" lon="6.52773">
        <ele>292.0</ele>
      </trkpt>
      <trkpt lat="43.56278" lon="6.52725">
        <ele>271.0</ele>
      </trkpt>
      <trkpt lat="43.55523" lon="6.52496">
        <ele>246.0</ele>
      </trkpt>
      <trkpt lat="43.55355" lon="6.52381">
        <ele>249.0</ele>
      </trkpt>
      <trkpt lat="43.55402" lon="6.52226">
        <ele>252.0</ele>
      </trkpt>
      <trkpt lat="43.5542" lon="6.51995">
        <ele>253.0</ele>
      </trkpt>
      <trkpt lat="43.55672" lon="6.51458">
        <ele>255.0</ele>
      </trkpt>
      <trkpt lat="43.55841" lon="6.51366">
        <ele>258.0</ele>
      </trkpt>
      <trkpt lat="43.56078" lon="6.51259">
        <ele>260.0</ele>
      </trkpt>
      <trkpt lat="43.56259" lon="6.51069">
        <ele>267.0</ele>
      </trkpt>
      <trkpt lat="43.56503" lon="6.50844">
        <ele>273.0</ele>
      </trkpt>
      <trkpt lat="43.56675" lon="6.5074">
        <ele>279.0</ele>
      </trkpt>
      <trkpt lat="43.5687" lon="6.50672">
        <ele>282.0</ele>
      </trkpt>
      <trkpt lat="43.57127" lon="6.50707">
        <ele>299.0</ele>
      </trkpt>
      <trkpt lat="43.57213" lon="6.50556">
        <ele>317.0</ele>
      </trkpt>
      <trkpt lat="43.57355" lon="6.5046">
        <ele>332.0</ele>
      </trkpt>
      <trkpt lat="43.57406" lon="6.50194">
        <ele>346.0</ele>
      </trkpt>
      <trkpt lat="43.57473" lon="6.49827">
        <ele>358.0</ele>
      </trkpt>
      <trkpt lat="43.5775" lon="6.49539">
        <ele>375.0</ele>
      </trkpt>
      <trkpt lat="43.57835" lon="6.49334">
        <ele>388.0</ele>
      </trkpt>
      <trkpt lat="43.57819" lon="6.48976">
        <ele>382.0</ele>
      </trkpt>
      <trkpt lat="43.57834" lon="6.48707">
        <ele>382.0</ele>
      </trkpt>
      <trkpt lat="43.57899" lon="6.48666">
        <ele>384.0</ele>
      </trkpt>
      <trkpt lat="43.57919" lon="6.48759">
        <ele>389.0</ele>
      </trkpt>
      <trkpt lat="43.57918" lon="6.4887">
        <ele>397.0</ele>
      </trkpt>
      <trkpt lat="43.57968" lon="6.48728">
        <ele>404.0</ele>
      </trkpt>
      <trkpt lat="43.57993" lon="6.48609">
        <ele>412.0</ele>
      </trkpt>
      <trkpt lat="43.58052" lon="6.48355">
        <ele>426.0</ele>
      </trkpt>
      <trkpt lat="43.58148" lon="6.48102">
        <ele>442.0</ele>
      </trkpt>
      <trkpt lat="43.58226" lon="6.47907">
        <ele>447.0</ele>
      </trkpt>
      <trkpt lat="43.58328" lon="6.47714">
        <ele>458.0</ele>
      </trkpt>
      <trkpt lat="43.58463" lon="6.47607">
        <ele>469.0</ele>
      </trkpt>
      <trkpt lat="43.58593" lon="6.47596">
        <ele>482.0</ele>
      </trkpt>
      <trkpt lat="43.58711" lon="6.47627">
        <ele>493.0</ele>
      </trkpt>
      <trkpt lat="43.58775" lon="6.47701">
        <ele>500.0</ele>
      </trkpt>
      <trkpt lat="43.5881" lon="6.47572">
        <ele>505.0</ele>
      </trkpt>
      <trkpt lat="43.58923" lon="6.47301">
        <ele>509.0</ele>
      </trkpt>
      <trkpt lat="43.58868" lon="6.4724">
        <ele>504.0</ele>
      </trkpt>
      <trkpt lat="43.5892" lon="6.47122">
        <ele>497.0</ele>
      </trkpt>
      <trkpt lat="43.59087" lon="6.46955">
        <ele>478.0</ele>
      </trkpt>
      <trkpt lat="43.5914" lon="6.46983">
        <ele>472.0</ele>
      </trkpt>
      <trkpt lat="43.5909" lon="6.47068">
        <ele>467.0</ele>
      </trkpt>
      <trkpt lat="43.59151" lon="6.47065">
        <ele>464.0</ele>
      </trkpt>
      <trkpt lat="43.5933" lon="6.46923">
        <ele>454.0</ele>
      </trkpt>
      <trkpt lat="43.59467" lon="6.46841">
        <ele>444.0</ele>
      </trkpt>
      <trkpt lat="43.59528" lon="6.46804">
        <ele>437.0</ele>
      </trkpt>
      <trkpt lat="43.59509" lon="6.46698">
        <ele>432.0</ele>
      </trkpt>
      <trkpt lat="43.59631" lon="6.46299">
        <ele>432.0</ele>
      </trkpt>
      <trkpt lat="43.59563" lon="6.46136">
        <ele>439.0</ele>
      </trkpt>
      <trkpt lat="43.59507" lon="6.4582">
        <ele>455.0</ele>
      </trkpt>
      <trkpt lat="43.59493" lon="6.45513">
        <ele>470.0</ele>
      </trkpt>
      <trkpt lat="43.59529" lon="6.4525">
        <ele>486.0</ele>
      </trkpt>
      <trkpt lat="43.59583" lon="6.45068">
        <ele>495.0</ele>
      </trkpt>
      <trkpt lat="43.59716" lon="6.45032">
        <ele>508.0</ele>
      </trkpt>
      <trkpt lat="43.59794" lon="6.44979">
        <ele>512.0</ele>
      </trkpt>
      <trkpt lat="43.59881" lon="6.44983">
        <ele>517.0</ele>
      </trkpt>
      <trkpt lat="43.59987" lon="6.45171">
        <ele>528.0</ele>
      </trkpt>
      <trkpt lat="43.60022" lon="6.45057">
        <ele>536.0</ele>
      </trkpt>
      <trkpt lat="43.6011" lon="6.44934">
        <ele>545.0</ele>
      </trkpt>
      <trkpt lat="43.60254" lon="6.44686">
        <ele>563.0</ele>
      </trkpt>
      <trkpt lat="43.60253" lon="6.44419">
        <ele>579.0</ele>
      </trkpt>
      <trkpt lat="43.60271" lon="6.44265">
        <ele>588.0</ele>
      </trkpt>
      <trkpt lat="43.60216" lon="6.44032">
        <ele>599.0</ele>
      </trkpt>
      <trkpt lat="43.60347" lon="6.43864">
        <ele>614.0</ele>
      </trkpt>
      <trkpt lat="43.60344" lon="6.43691">
        <ele>616.0</ele>
      </trkpt>
      <trkpt lat="43.60315" lon="6.43516">
        <ele>618.0</ele>
      </trkpt>
      <trkpt lat="43.60281" lon="6.43389">
        <ele>621.0</ele>
      </trkpt>
      <trkpt lat="43.6043" lon="6.43381">
        <ele>625.0</ele>
      </trkpt>
      <trkpt lat="43.60375" lon="6.43182">
        <ele>628.0</ele>
      </trkpt>
      <trkpt lat="43.60353" lon="6.42929">
        <ele>628.0</ele>
      </trkpt>
      <trkpt lat="43.60318" lon="6.42482">
        <ele>623.0</ele>
      </trkpt>
      <trkpt lat="43.6042" lon="6.41671">
        <ele>612.0</ele>
      </trkpt>
      <trkpt lat="43.60578" lon="6.40758">
        <ele>602.0</ele>
      </trkpt>
      <trkpt lat="43.60721" lon="6.40177">
        <ele>591.0</ele>
      </trkpt>
      <trkpt lat="43.60826" lon="6.40135">
        <ele>584.0</ele>
      </trkpt>
      <trkpt lat="43.60909" lon="6.40001">
        <ele>582.0</ele>
      </trkpt>
      <trkpt lat="43.61039" lon="6.39771">
        <ele>579.0</ele>
      </trkpt>
      <trkpt lat="43.61014" lon="6.3957">
        <ele>577.0</ele>
      </trkpt>
      <trkpt lat="43.60941" lon="6.3945">
        <ele>574.0</ele>
      </trkpt>
      <trkpt lat="43.6109" lon="6.39208">
        <ele>564.0</ele>
      </trkpt>
      <trkpt lat="43.6125" lon="6.39241">
        <ele>554.0</ele>
      </trkpt>
      <trkpt lat="43.61296" lon="6.39162">
        <ele>546.0</ele>
      </trkpt>
      <trkpt lat="43.61146" lon="6.39075">
        <ele>539.0</ele>
      </trkpt>
      <trkpt lat="43.61038" lon="6.38852">
        <ele>533.0</ele>
      </trkpt>
      <trkpt lat="43.61103" lon="6.38648">
        <ele>533.0</ele>
      </trkpt>
      <trkpt lat="43.61171" lon="6.38399">
        <ele>537.0</ele>
      </trkpt>
      <trkpt lat="43.61066" lon="6.3835">
        <ele>542.0</ele>
      </trkpt>
      <trkpt lat="43.60838" lon="6.38406">
        <ele>557.0</ele>
      </trkpt>
      <trkpt lat="43.60624" lon="6.38519">
        <ele>569.0</ele>
      </trkpt>
      <trkpt lat="43.60554" lon="6.38532">
        <ele>575.0</ele>
      </trkpt>
      <trkpt lat="43.60576" lon="6.38335">
        <ele>577.0</ele>
      </trkpt>
      <trkpt lat="43.60534" lon="6.38183">
        <ele>574.0</ele>
      </trkpt>
      <trkpt lat="43.60397" lon="6.38163">
        <ele>571.0</ele>
      </trkpt>
      <trkpt lat="43.60402" lon="6.38099">
        <ele>573.0</ele>
      </trkpt>
      <trkpt lat="43.60457" lon="6.37599">
        <ele>596.0</ele>
      </trkpt>
      <trkpt lat="43.6064" lon="6.37278">
        <ele>619.0</ele>
      </trkpt>
      <trkpt lat="43.60517" lon="6.36836">
        <ele>628.0</ele>
      </trkpt>
      <trkpt lat="43.60297" lon="6.36472">
        <ele>621.0</ele>
      </trkpt>
      <trkpt lat="43.60305" lon="6.36274">
        <ele>626.0</ele>
      </trkpt>
      <trkpt lat="43.60426" lon="6.35744">
        <ele>634.0</ele>
      </trkpt>
      <trkpt lat="43.60317" lon="6.35504">
        <ele>643.0</ele>
      </trkpt>
      <trkpt lat="43.60297" lon="6.35279">
        <ele>653.0</ele>
      </trkpt>
      <trkpt lat="43.60158" lon="6.35074">
        <ele>663.0</ele>
      </trkpt>
      <trkpt lat="43.60144" lon="6.34677">
        <ele>680.0</ele>
      </trkpt>
      <trkpt lat="43.60112" lon="6.34388">
        <ele>686.0</ele>
      </trkpt>
      <trkpt lat="43.60095" lon="6.34127">
        <ele>690.0</ele>
      </trkpt>
      <trkpt lat="43.60067" lon="6.33759">
        <ele>692.0</ele>
      </trkpt>
      <trkpt lat="43.59806" lon="6.33226">
        <ele>704.0</ele>
      </trkpt>
      <trkpt lat="43.59781" lon="6.33059">
        <ele>712.0</ele>
      </trkpt>
      <trkpt lat="43.59636" lon="6.32921">
        <ele>711.0</ele>
      </trkpt>
      <trkpt lat="43.59571" lon="6.32755">
        <ele>702.0</ele>
      </trkpt>
      <trkpt lat="43.59482" lon="6.32633">
        <ele>693.0</ele>
      </trkpt>
      <trkpt lat="43.59432" lon="6.32384">
        <ele>679.0</ele>
      </trkpt>
      <trkpt lat="43.59345" lon="6.32248">
        <ele>674.0</ele>
      </trkpt>
      <trkpt lat="43.59271" lon="6.31654">
        <ele>675.0</ele>
      </trkpt>
      <trkpt lat="43.59263" lon="6.31394">
        <ele>678.0</ele>
      </trkpt>
      <trkpt lat="43.59257" lon="6.3117">
        <ele>674.0</ele>
      </trkpt>
      <trkpt lat="43.59291" lon="6.30889">
        <ele>667.0</ele>
      </trkpt>
      <trkpt lat="43.59339" lon="6.30745">
        <ele>663.0</ele>
      </trkpt>
      <trkpt lat="43.59418" lon="6.30626">
        <ele>662.0</ele>
      </trkpt>
      <trkpt lat="43.5947" lon="6.30372">
        <ele>659.0</ele>
      </trkpt>
      <trkpt lat="43.59608" lon="6.29751">
        <ele>642.0</ele>
      </trkpt>
      <trkpt lat="43.5952" lon="6.29596">
        <ele>627.0</ele>
      </trkpt>
      <trkpt lat="43.59389" lon="6.29615">
        <ele>613.0</ele>
      </trkpt>
      <trkpt lat="43.59316" lon="6.2954">
        <ele>609.0</ele>
      </trkpt>
      <trkpt lat="43.59324" lon="6.2927">
        <ele>605.0</ele>
      </trkpt>
      <trkpt lat="43.5945" lon="6.29101">
        <ele>602.0</ele>
      </trkpt>
      <trkpt lat="43.59558" lon="6.28957">
        <ele>601.0</ele>
      </trkpt>
      <trkpt lat="43.59737" lon="6.28959">
        <ele>604.0</ele>
      </trkpt>
      <trkpt lat="43.59868" lon="6.28995">
        <ele>605.0</ele>
      </trkpt>
      <trkpt lat="43.60021" lon="6.28845">
        <ele>601.0</ele>
      </trkpt>
      <trkpt lat="43.60102" lon="6.28756">
        <ele>598.0</ele>
      </trkpt>
      <trkpt lat="43.60116" lon="6.2851">
        <ele>596.0</ele>
      </trkpt>
      <trkpt lat="43.60154" lon="6.2833">
        <ele>593.0</ele>
      </trkpt>
      <trkpt lat="43.60064" lon="6.28196">
        <ele>591.0</ele>
      </trkpt>
      <trkpt lat="43.60104" lon="6.28071">
        <ele>592.0</ele>
      </trkpt>
      <trkpt lat="43.60173" lon="6.27876">
        <ele>594.0</ele>
      </trkpt>
      <trkpt lat="43.60284" lon="6.27616">
        <ele>592.0</ele>
      </trkpt>
      <trkpt lat="43.60388" lon="6.27371">
        <ele>586.0</ele>
      </trkpt>
      <trkpt lat="43.60497" lon="6.27307">
        <ele>584.0</ele>
      </trkpt>
      <trkpt lat="43.60577" lon="6.27176">
        <ele>583.0</ele>
      </trkpt>
      <trkpt lat="43.60669" lon="6.26978">
        <ele>581.0</ele>
      </trkpt>
      <trkpt lat="43.60768" lon="6.26981">
        <ele>580.0</ele>
      </trkpt>
      <trkpt lat="43.60908" lon="6.26792">
        <ele>579.0</ele>
      </trkpt>
      <trkpt lat="43.61098" lon="6.26857">
        <ele>579.0</ele>
      </trkpt>
      <trkpt lat="43.61224" lon="6.27036">
        <ele>577.0</ele>
      </trkpt>
      <trkpt lat="43.61138" lon="6.27259">
        <ele>580.0</ele>
      </trkpt>
      <trkpt lat="43.6118" lon="6.27334">
        <ele>578.0</ele>
      </trkpt>
      <trkpt lat="43.61387" lon="6.27125">
        <ele>578.0</ele>
      </trkpt>
      <trkpt lat="43.61639" lon="6.26824">
        <ele>579.0</ele>
      </trkpt>
      <trkpt lat="43.61663" lon="6.26622">
        <ele>571.0</ele>
      </trkpt>
      <trkpt lat="43.61727" lon="6.26267">
        <ele>559.0</ele>
      </trkpt>
      <trkpt lat="43.61806" lon="6.25953">
        <ele>552.0</ele>
      </trkpt>
      <trkpt lat="43.6199" lon="6.25699">
        <ele>558.0</ele>
      </trkpt>
      <trkpt lat="43.62078" lon="6.25457">
        <ele>571.0</ele>
      </trkpt>
      <trkpt lat="43.62171" lon="6.2511">
        <ele>571.0</ele>
      </trkpt>
      <trkpt lat="43.62192" lon="6.24839">
        <ele>560.0</ele>
      </trkpt>
      <trkpt lat="43.62215" lon="6.24721">
        <ele>554.0</ele>
      </trkpt>
      <trkpt lat="43.6212" lon="6.24743">
        <ele>549.0</ele>
      </trkpt>
      <trkpt lat="43.62147" lon="6.24499">
        <ele>540.0</ele>
      </trkpt>
      <trkpt lat="43.62162" lon="6.24358">
        <ele>533.0</ele>
      </trkpt>
      <trkpt lat="43.62161" lon="6.24219">
        <ele>527.0</ele>
      </trkpt>
      <trkpt lat="43.6217" lon="6.24027">
        <ele>519.0</ele>
      </trkpt>
      <trkpt lat="43.62189" lon="6.23781">
        <ele>508.0</ele>
      </trkpt>
      <trkpt lat="43.62191" lon="6.23672">
        <ele>502.0</ele>
      </trkpt>
      <trkpt lat="43.62279" lon="6.23517">
        <ele>496.0</ele>
      </trkpt>
      <trkpt lat="43.62419" lon="6.23231">
        <ele>494.0</ele>
      </trkpt>
      <trkpt lat="43.6263" lon="6.22947">
        <ele>495.0</ele>
      </trkpt>
      <trkpt lat="43.62804" lon="6.22687">
        <ele>503.0</ele>
      </trkpt>
      <trkpt lat="43.62897" lon="6.22598">
        <ele>511.0</ele>
      </trkpt>
      <trkpt lat="43.62917" lon="6.22571">
        <ele>515.0</ele>
      </trkpt>
      <trkpt lat="43.62976" lon="6.22451">
        <ele>517.0</ele>
      </trkpt>
      <trkpt lat="43.63076" lon="6.22372">
        <ele>515.0</ele>
      </trkpt>
      <trkpt lat="43.63061" lon="6.22202">
        <ele>517.0</ele>
      </trkpt>
      <trkpt lat="43.63019" lon="6.22102">
        <ele>521.0</ele>
      </trkpt>
      <trkpt lat="43.63069" lon="6.22071">
        <ele>523.0</ele>
      </trkpt>
      <trkpt lat="43.63129" lon="6.2197">
        <ele>527.0</ele>
      </trkpt>
      <trkpt lat="43.63158" lon="6.21881">
        <ele>527.0</ele>
      </trkpt>
      <trkpt lat="43.63264" lon="6.21574">
        <ele>524.0</ele>
      </trkpt>
      <trkpt lat="43.63501" lon="6.20905">
        <ele>509.0</ele>
      </trkpt>
      <trkpt lat="43.63574" lon="6.20795">
        <ele>509.0</ele>
      </trkpt>
      <trkpt lat="43.63791" lon="6.20496">
        <ele>508.0</ele>
      </trkpt>
      <trkpt lat="43.63912" lon="6.20034">
        <ele>504.0</ele>
      </trkpt>
      <trkpt lat="43.64211" lon="6.19045">
        <ele>503.0</ele>
      </trkpt>
      <trkpt lat="43.64598" lon="6.18161">
        <ele>487.0</ele>
      </trkpt>
      <trkpt lat="43.6475" lon="6.17612">
        <ele>480.0</ele>
      </trkpt>
      <trkpt lat="43.65085" lon="6.17178">
        <ele>495.0</ele>
      </trkpt>
      <trkpt lat="43.65128" lon="6.17084">
        <ele>503.0</ele>
      </trkpt>
      <trkpt lat="43.65018" lon="6.16665">
        <ele>509.0</ele>
      </trkpt>
      <trkpt lat="43.65032" lon="6.16136">
        <ele>510.0</ele>
      </trkpt>
      <trkpt lat="43.65077" lon="6.15801">
        <ele>509.0</ele>
      </trkpt>
      <trkpt lat="43.65136" lon="6.15315">
        <ele>515.0</ele>
      </trkpt>
      <trkpt lat="43.6521" lon="6.14943">
        <ele>516.0</ele>
      </trkpt>
      <trkpt lat="43.65256" lon="6.1462">
        <ele>513.0</ele>
      </trkpt>
      <trkpt lat="43.65349" lon="6.14498">
        <ele>513.0</ele>
      </trkpt>
      <trkpt lat="43.6557" lon="6.1423">
        <ele>516.0</ele>
      </trkpt>
      <trkpt lat="43.65705" lon="6.13958">
        <ele>521.0</ele>
      </trkpt>
      <trkpt lat="43.65802" lon="6.13485">
        <ele>524.0</ele>
      </trkpt>
      <trkpt lat="43.65836" lon="6.13067">
        <ele>538.0</ele>
      </trkpt>
      <trkpt lat="43.65841" lon="6.1303">
        <ele>541.0</ele>
      </trkpt>
      <trkpt lat="43.65786" lon="6.12907">
        <ele>543.0</ele>
      </trkpt>
      <trkpt lat="43.65658" lon="6.12859">
        <ele>544.0</ele>
      </trkpt>
      <trkpt lat="43.65828" lon="6.12425">
        <ele>546.0</ele>
      </trkpt>
      <trkpt lat="43.65513" lon="6.11502">
        <ele>537.0</ele>
      </trkpt>
      <trkpt lat="43.65021" lon="6.09813">
        <ele>533.0</ele>
      </trkpt>
      <trkpt lat="43.64755" lon="6.08777">
        <ele>515.0</ele>
      </trkpt>
      <trkpt lat="43.64922" lon="6.08592">
        <ele>503.0</ele>
      </trkpt>
      <trkpt lat="43.64592" lon="6.08457">
        <ele>491.0</ele>
      </trkpt>
      <trkpt lat="43.64576" lon="6.08226">
        <ele>473.0</ele>
      </trkpt>
      <trkpt lat="43.64618" lon="6.08099">
        <ele>463.0</ele>
      </trkpt>
      <trkpt lat="43.64585" lon="6.07714">
        <ele>452.0</ele>
      </trkpt>
      <trkpt lat="43.64588" lon="6.06756">
        <ele>456.0</ele>
      </trkpt>
      <trkpt lat="43.64679" lon="6.06548">
        <ele>467.0</ele>
      </trkpt>
      <trkpt lat="43.64718" lon="6.06499">
        <ele>470.0</ele>
      </trkpt>
      <trkpt lat="43.64685" lon="6.06509">
        <ele>472.0</ele>
      </trkpt>
      <trkpt lat="43.64713" lon="6.06514">
        <ele>473.0</ele>
      </trkpt>
      <trkpt lat="43.64778" lon="6.06397">
        <ele>477.0</ele>
      </trkpt>
      <trkpt lat="43.64835" lon="6.06327">
        <ele>480.0</ele>
      </trkpt>
      <trkpt lat="43.64932" lon="6.06248">
        <ele>477.0</ele>
      </trkpt>
      <trkpt lat="43.64886" lon="6.0612">
        <ele>470.0</ele>
      </trkpt>
      <trkpt lat="43.64999" lon="6.06066">
        <ele>467.0</ele>
      </trkpt>
      <trkpt lat="43.65234" lon="6.05952">
        <ele>462.0</ele>
      </trkpt>
      <trkpt lat="43.657" lon="6.05816">
        <ele>452.0</ele>
      </trkpt>
      <trkpt lat="43.66012" lon="6.05873">
        <ele>437.0</ele>
      </trkpt>
      <trkpt lat="43.66352" lon="6.0567">
        <ele>426.0</ele>
      </trkpt>
      <trkpt lat="43.66662" lon="6.05626">
        <ele>420.0</ele>
      </trkpt>
      <trkpt lat="43.66914" lon="6.05691">
        <ele>417.0</ele>
      </trkpt>
      <trkpt lat="43.67036" lon="6.05613">
        <ele>407.0</ele>
      </trkpt>
      <trkpt lat="43.67288" lon="6.05379">
        <ele>400.0</ele>
      </trkpt>
      <trkpt lat="43.67909" lon="6.05083">
        <ele>395.0</ele>
      </trkpt>
      <trkpt lat="43.68146" lon="6.04863">
        <ele>388.0</ele>
      </trkpt>
      <trkpt lat="43.68316" lon="6.04658">
        <ele>388.0</ele>
      </trkpt>
      <trkpt lat="43.68477" lon="6.0454">
        <ele>388.0</ele>
      </trkpt>
      <trkpt lat="43.6868" lon="6.04204">
        <ele>390.0</ele>
      </trkpt>
      <trkpt lat="43.6896" lon="6.04075">
        <ele>389.0</ele>
      </trkpt>
      <trkpt lat="43.69152" lon="6.03875">
        <ele>380.0</ele>
      </trkpt>
      <trkpt lat="43.69293" lon="6.03708">
        <ele>373.0</ele>
      </trkpt>
      <trkpt lat="43.69336" lon="6.03562">
        <ele>372.0</ele>
      </trkpt>
      <trkpt lat="43.69405" lon="6.03481">
        <ele>371.0</ele>
      </trkpt>
      <trkpt lat="43.69492" lon="6.03532">
        <ele>369.0</ele>
      </trkpt>
      <trkpt lat="43.69597" lon="6.03637">
        <ele>368.0</ele>
      </trkpt>
      <trkpt lat="43.69641" lon="6.03724">
        <ele>369.0</ele>
      </trkpt>
      <trkpt lat="43.69848" lon="6.03692">
        <ele>372.0</ele>
      </trkpt>
      <trkpt lat="43.69973" lon="6.03783">
        <ele>372.0</ele>
      </trkpt>
      <trkpt lat="43.70114" lon="6.03904">
        <ele>379.0</ele>
      </trkpt>
      <trkpt lat="43.70199" lon="6.03904">
        <ele>385.0</ele>
      </trkpt>
      <trkpt lat="43.70269" lon="6.03979">
        <ele>386.0</ele>
      </trkpt>
      <trkpt lat="43.70375" lon="6.03904">
        <ele>388.0</ele>
      </trkpt>
      <trkpt lat="43.7044" lon="6.03935">
        <ele>389.0</ele>
      </trkpt>
      <trkpt lat="43.7062" lon="6.03806">
        <ele>402.0</ele>
      </trkpt>
      <trkpt lat="43.70754" lon="6.03738">
        <ele>418.0</ele>
      </trkpt>
      <trkpt lat="43.70881" lon="6.03693">
        <ele>433.0</ele>
      </trkpt>
      <trkpt lat="43.70974" lon="6.0362">
        <ele>442.0</ele>
      </trkpt>
      <trkpt lat="43.71042" lon="6.03562">
        <ele>448.0</ele>
      </trkpt>
      <trkpt lat="43.71103" lon="6.03528">
        <ele>452.0</ele>
      </trkpt>
      <trkpt lat="43.71261" lon="6.035">
        <ele>465.0</ele>
      </trkpt>
      <trkpt lat="43.71334" lon="6.03487">
        <ele>473.0</ele>
      </trkpt>
      <trkpt lat="43.71445" lon="6.03344">
        <ele>485.0</ele>
      </trkpt>
      <trkpt lat="43.71562" lon="6.03332">
        <ele>492.0</ele>
      </trkpt>
      <trkpt lat="43.71517" lon="6.03314">
        <ele>498.0</ele>
      </trkpt>
      <trkpt lat="43.7155" lon="6.0327">
        <ele>507.0</ele>
      </trkpt>
      <trkpt lat="43.71656" lon="6.03251">
        <ele>520.0</ele>
      </trkpt>
      <trkpt lat="43.71717" lon="6.03301">
        <ele>526.0</ele>
      </trkpt>
      <trkpt lat="43.71832" lon="6.03207">
        <ele>534.0</ele>
      </trkpt>
      <trkpt lat="43.71863" lon="6.0306">
        <ele>543.0</ele>
      </trkpt>
      <trkpt lat="43.71939" lon="6.02979">
        <ele>547.0</ele>
      </trkpt>
      <trkpt lat="43.72228" lon="6.0283">
        <ele>550.0</ele>
      </trkpt>
      <trkpt lat="43.72431" lon="6.02581">
        <ele>550.0</ele>
      </trkpt>
      <trkpt lat="43.72767" lon="6.02198">
        <ele>550.0</ele>
      </trkpt>
      <trkpt lat="43.73096" lon="6.02009">
        <ele>544.0</ele>
      </trkpt>
      <trkpt lat="43.73183" lon="6.01871">
        <ele>539.0</ele>
      </trkpt>
      <trkpt lat="43.7328" lon="6.0177">
        <ele>533.0</ele>
      </trkpt>
      <trkpt lat="43.73307" lon="6.01675">
        <ele>529.0</ele>
      </trkpt>
      <trkpt lat="43.7331" lon="6.01777">
        <ele>527.0</ele>
      </trkpt>
      <trkpt lat="43.73273" lon="6.01918">
        <ele>521.0</ele>
      </trkpt>
      <trkpt lat="43.73355" lon="6.01995">
        <ele>512.0</ele>
      </trkpt>
      <trkpt lat="43.73502" lon="6.02017">
        <ele>501.0</ele>
      </trkpt>
      <trkpt lat="43.73558" lon="6.0197">
        <ele>494.0</ele>
      </trkpt>
      <trkpt lat="43.7352" lon="6.02069">
        <ele>488.0</ele>
      </trkpt>
      <trkpt lat="43.73715" lon="6.01937">
        <ele>475.0</ele>
      </trkpt>
      <trkpt lat="43.73816" lon="6.01761">
        <ele>465.0</ele>
      </trkpt>
      <trkpt lat="43.7394" lon="6.01699">
        <ele>460.0</ele>
      </trkpt>
      <trkpt lat="43.74109" lon="6.01302">
        <ele>457.0</ele>
      </trkpt>
      <trkpt lat="43.7409" lon="6.00918">
        <ele>450.0</ele>
      </trkpt>
      <trkpt lat="43.7406" lon="6.00811">
        <ele>450.0</ele>
      </trkpt>
      <trkpt lat="43.74107" lon="6.00492">
        <ele>449.0</ele>
      </trkpt>
      <trkpt lat="43.74132" lon="6.00083">
        <ele>441.0</ele>
      </trkpt>
      <trkpt lat="43.74166" lon="5.99667">
        <ele>430.0</ele>
      </trkpt>
      <trkpt lat="43.74083" lon="5.99571">
        <ele>433.0</ele>
      </trkpt>
      <trkpt lat="43.74188" lon="5.99505">
        <ele>435.0</ele>
      </trkpt>
      <trkpt lat="43.74165" lon="5.99176">
        <ele>429.0</ele>
      </trkpt>
      <trkpt lat="43.7412" lon="5.9865">
        <ele>416.0</ele>
      </trkpt>
      <trkpt lat="43.74072" lon="5.98249">
        <ele>402.0</ele>
      </trkpt>
      <trkpt lat="43.74045" lon="5.98045">
        <ele>397.0</ele>
      </trkpt>
      <trkpt lat="43.73981" lon="5.97882">
        <ele>399.0</ele>
      </trkpt>
      <trkpt lat="43.73918" lon="5.97804">
        <ele>405.0</ele>
      </trkpt>
      <trkpt lat="43.73839" lon="5.9782">
        <ele>403.0</ele>
      </trkpt>
      <trkpt lat="43.73898" lon="5.97626">
        <ele>398.0</ele>
      </trkpt>
      <trkpt lat="43.73943" lon="5.97589">
        <ele>392.0</ele>
      </trkpt>
      <trkpt lat="43.73989" lon="5.97479">
        <ele>388.0</ele>
      </trkpt>
      <trkpt lat="43.73982" lon="5.97438">
        <ele>385.0</ele>
      </trkpt>
      <trkpt lat="43.73942" lon="5.97447">
        <ele>384.0</ele>
      </trkpt>
      <trkpt lat="43.73879" lon="5.97407">
        <ele>384.0</ele>
      </trkpt>
      <trkpt lat="43.73896" lon="5.97332">
        <ele>383.0</ele>
      </trkpt>
      <trkpt lat="43.73889" lon="5.97236">
        <ele>382.0</ele>
      </trkpt>
      <trkpt lat="43.73835" lon="5.97164">
        <ele>381.0</ele>
      </trkpt>
      <trkpt lat="43.73746" lon="5.97067">
        <ele>381.0</ele>
      </trkpt>
      <trkpt lat="43.73734" lon="5.9701">
        <ele>381.0</ele>
      </trkpt>
      <trkpt lat="43.73749" lon="5.96976">
        <ele>381.0</ele>
      </trkpt>
      <trkpt lat="43.73789" lon="5.96975">
        <ele>381.0</ele>
      </trkpt>
      <trkpt lat="43.73861" lon="5.97066">
        <ele>392.0</ele>
      </trkpt>
      <trkpt lat="43.73951" lon="5.97139">
        <ele>403.0</ele>
      </trkpt>
      <trkpt lat="43.73995" lon="5.9731">
        <ele>404.0</ele>
      </trkpt>
      <trkpt lat="43.74096" lon="5.97349">
        <ele>410.0</ele>
      </trkpt>
      <trkpt lat="43.74235" lon="5.97372">
        <ele>419.0</ele>
      </trkpt>
      <trkpt lat="43.74365" lon="5.97252">
        <ele>431.0</ele>
      </trkpt>
      <trkpt lat="43.74352" lon="5.97293">
        <ele>436.0</ele>
      </trkpt>
      <trkpt lat="43.74336" lon="5.97339">
        <ele>439.0</ele>
      </trkpt>
      <trkpt lat="43.74408" lon="5.97286">
        <ele>443.0</ele>
      </trkpt>
      <trkpt lat="43.74493" lon="5.97236">
        <ele>449.0</ele>
      </trkpt>
      <trkpt lat="43.74559" lon="5.97233">
        <ele>454.0</ele>
      </trkpt>
      <trkpt lat="43.74526" lon="5.97137">
        <ele>456.0</ele>
      </trkpt>
      <trkpt lat="43.74632" lon="5.97135">
        <ele>456.0</ele>
      </trkpt>
      <trkpt lat="43.74694" lon="5.97174">
        <ele>453.0</ele>
      </trkpt>
      <trkpt lat="43.74658" lon="5.97055">
        <ele>448.0</ele>
      </trkpt>
      <trkpt lat="43.74728" lon="5.96936">
        <ele>439.0</ele>
      </trkpt>
      <trkpt lat="43.74799" lon="5.96931">
        <ele>434.0</ele>
      </trkpt>
      <trkpt lat="43.74959" lon="5.969">
        <ele>424.0</ele>
      </trkpt>
      <trkpt lat="43.74948" lon="5.96843">
        <ele>420.0</ele>
      </trkpt>
      <trkpt lat="43.74971" lon="5.96848">
        <ele>418.0</ele>
      </trkpt>
      <trkpt lat="43.75022" lon="5.97156">
        <ele>412.0</ele>
      </trkpt>
      <trkpt lat="43.75126" lon="5.97166">
        <ele>405.0</ele>
      </trkpt>
      <trkpt lat="43.75342" lon="5.97034">
        <ele>418.0</ele>
      </trkpt>
      <trkpt lat="43.75299" lon="5.96932">
        <ele>421.0</ele>
      </trkpt>
      <trkpt lat="43.75302" lon="5.96821">
        <ele>427.0</ele>
      </trkpt>
      <trkpt lat="43.75433" lon="5.96718">
        <ele>443.0</ele>
      </trkpt>
      <trkpt lat="43.75372" lon="5.96636">
        <ele>448.0</ele>
      </trkpt>
      <trkpt lat="43.75519" lon="5.96693">
        <ele>455.0</ele>
      </trkpt>
      <trkpt lat="43.75633" lon="5.96647">
        <ele>462.0</ele>
      </trkpt>
      <trkpt lat="43.75957" lon="5.96606">
        <ele>464.0</ele>
      </trkpt>
      <trkpt lat="43.76097" lon="5.96536">
        <ele>453.0</ele>
      </trkpt>
      <trkpt lat="43.7619" lon="5.96686">
        <ele>446.0</ele>
      </trkpt>
      <trkpt lat="43.76212" lon="5.96546">
        <ele>444.0</ele>
      </trkpt>
      <trkpt lat="43.76275" lon="5.96324">
        <ele>443.0</ele>
      </trkpt>
      <trkpt lat="43.76162" lon="5.95843">
        <ele>432.0</ele>
      </trkpt>
      <trkpt lat="43.76089" lon="5.9553">
        <ele>420.0</ele>
      </trkpt>
      <trkpt lat="43.76013" lon="5.95355">
        <ele>414.0</ele>
      </trkpt>
      <trkpt lat="43.75927" lon="5.95079">
        <ele>406.0</ele>
      </trkpt>
      <trkpt lat="43.75839" lon="5.94876">
        <ele>403.0</ele>
      </trkpt>
      <trkpt lat="43.75758" lon="5.94692">
        <ele>412.0</ele>
      </trkpt>
      <trkpt lat="43.75766" lon="5.94593">
        <ele>422.0</ele>
      </trkpt>
      <trkpt lat="43.75707" lon="5.94501">
        <ele>425.0</ele>
      </trkpt>
      <trkpt lat="43.75737" lon="5.94395">
        <ele>428.0</ele>
      </trkpt>
      <trkpt lat="43.7565" lon="5.94321">
        <ele>432.0</ele>
      </trkpt>
      <trkpt lat="43.75537" lon="5.94097">
        <ele>437.0</ele>
      </trkpt>
      <trkpt lat="43.75448" lon="5.94099">
        <ele>439.0</ele>
      </trkpt>
      <trkpt lat="43.75346" lon="5.93961">
        <ele>441.0</ele>
      </trkpt>
      <trkpt lat="43.75369" lon="5.93842">
        <ele>443.0</ele>
      </trkpt>
      <trkpt lat="43.75509" lon="5.93726">
        <ele>446.0</ele>
      </trkpt>
      <trkpt lat="43.75449" lon="5.936">
        <ele>442.0</ele>
      </trkpt>
      <trkpt lat="43.75439" lon="5.93407">
        <ele>439.0</ele>
      </trkpt>
      <trkpt lat="43.75431" lon="5.93313">
        <ele>432.0</ele>
      </trkpt>
      <trkpt lat="43.75322" lon="5.93233">
        <ele>415.0</ele>
      </trkpt>
      <trkpt lat="43.75232" lon="5.93098">
        <ele>406.0</ele>
      </trkpt>
      <trkpt lat="43.75193" lon="5.93024">
        <ele>401.0</ele>
      </trkpt>
      <trkpt lat="43.75151" lon="5.9291">
        <ele>388.0</ele>
      </trkpt>
      <trkpt lat="43.75183" lon="5.92793">
        <ele>377.0</ele>
      </trkpt>
      <trkpt lat="43.75292" lon="5.92751">
        <ele>370.0</ele>
      </trkpt>
      <trkpt lat="43.75395" lon="5.92719">
        <ele>372.0</ele>
      </trkpt>
      <trkpt lat="43.75467" lon="5.92707">
        <ele>378.0</ele>
      </trkpt>
      <trkpt lat="43.75474" lon="5.92823">
        <ele>381.0</ele>
      </trkpt>
      <trkpt lat="43.75528" lon="5.92768">
        <ele>370.0</ele>
      </trkpt>
      <trkpt lat="43.75647" lon="5.92749">
        <ele>351.0</ele>
      </trkpt>
      <trkpt lat="43.75725" lon="5.92678">
        <ele>341.0</ele>
      </trkpt>
      <trkpt lat="43.7572" lon="5.92652">
        <ele>336.0</ele>
      </trkpt>
      <trkpt lat="43.75572" lon="5.92653">
        <ele>327.0</ele>
      </trkpt>
      <trkpt lat="43.7572" lon="5.92568">
        <ele>324.0</ele>
      </trkpt>
      <trkpt lat="43.75787" lon="5.92304">
        <ele>324.0</ele>
      </trkpt>
      <trkpt lat="43.75705" lon="5.92039">
        <ele>321.0</ele>
      </trkpt>
      <trkpt lat="43.75631" lon="5.91856">
        <ele>321.0</ele>
      </trkpt>
      <trkpt lat="43.7562" lon="5.91603">
        <ele>321.0</ele>
      </trkpt>
      <trkpt lat="43.75678" lon="5.91444">
        <ele>321.0</ele>
      </trkpt>
      <trkpt lat="43.75769" lon="5.90696">
        <ele>328.0</ele>
      </trkpt>
      <trkpt lat="43.75808" lon="5.90324">
        <ele>340.0</ele>
      </trkpt>
      <trkpt lat="43.75832" lon="5.90041">
        <ele>343.0</ele>
      </trkpt>
      <trkpt lat="43.75775" lon="5.897">
        <ele>340.0</ele>
      </trkpt>
      <trkpt lat="43.75722" lon="5.89561">
        <ele>336.0</ele>
      </trkpt>
      <trkpt lat="43.7579" lon="5.89334">
        <ele>327.0</ele>
      </trkpt>
      <trkpt lat="43.75799" lon="5.89066">
        <ele>321.0</ele>
      </trkpt>
      <trkpt lat="43.75799" lon="5.88885">
        <ele>327.0</ele>
      </trkpt>
      <trkpt lat="43.75816" lon="5.88833">
        <ele>330.0</ele>
      </trkpt>
      <trkpt lat="43.76005" lon="5.88886">
        <ele>333.0</ele>
      </trkpt>
      <trkpt lat="43.76253" lon="5.88913">
        <ele>336.0</ele>
      </trkpt>
      <trkpt lat="43.76293" lon="5.88925">
        <ele>338.0</ele>
      </trkpt>
      <trkpt lat="43.76419" lon="5.88979">
        <ele>343.0</ele>
      </trkpt>
      <trkpt lat="43.76562" lon="5.89241">
        <ele>342.0</ele>
      </trkpt>
      <trkpt lat="43.76731" lon="5.89438">
        <ele>343.0</ele>
      </trkpt>
      <trkpt lat="43.76986" lon="5.8983">
        <ele>345.0</ele>
      </trkpt>
      <trkpt lat="43.77228" lon="5.90147">
        <ele>356.0</ele>
      </trkpt>
      <trkpt lat="43.77273" lon="5.90193">
        <ele>360.0</ele>
      </trkpt>
      <trkpt lat="43.77408" lon="5.90196">
        <ele>364.0</ele>
      </trkpt>
      <trkpt lat="43.77549" lon="5.90301">
        <ele>372.0</ele>
      </trkpt>
      <trkpt lat="43.78053" lon="5.90979">
        <ele>377.0</ele>
      </trkpt>
      <trkpt lat="43.78499" lon="5.91366">
        <ele>384.0</ele>
      </trkpt>
      <trkpt lat="43.78989" lon="5.9163">
        <ele>393.0</ele>
      </trkpt>
      <trkpt lat="43.79164" lon="5.92008">
        <ele>395.0</ele>
      </trkpt>
      <trkpt lat="43.79201" lon="5.92654">
        <ele>404.0</ele>
      </trkpt>
      <trkpt lat="43.79374" lon="5.93109">
        <ele>410.0</ele>
      </trkpt>
      <trkpt lat="43.79763" lon="5.93528">
        <ele>416.0</ele>
      </trkpt>
      <trkpt lat="43.79995" lon="5.9403">
        <ele>425.0</ele>
      </trkpt>
      <trkpt lat="43.80152" lon="5.94871">
        <ele>437.0</ele>
      </trkpt>
      <trkpt lat="43.80412" lon="5.95293">
        <ele>444.0</ele>
      </trkpt>
      <trkpt lat="43.8071" lon="5.9539">
        <ele>451.0</ele>
      </trkpt>
      <trkpt lat="43.81114" lon="5.95377">
        <ele>460.0</ele>
      </trkpt>
      <trkpt lat="43.81411" lon="5.95659">
        <ele>472.0</ele>
      </trkpt>
      <trkpt lat="43.8165" lon="5.96164">
        <ele>478.0</ele>
      </trkpt>
      <trkpt lat="43.81817" lon="5.96442">
        <ele>488.0</ele>
      </trkpt>
      <trkpt lat="43.8192" lon="5.96579">
        <ele>494.0</ele>
      </trkpt>
      <trkpt lat="43.81985" lon="5.9675">
        <ele>496.0</ele>
      </trkpt>
      <trkpt lat="43.82086" lon="5.97036">
        <ele>496.0</ele>
      </trkpt>
      <trkpt lat="43.82207" lon="5.9728">
        <ele>500.0</ele>
      </trkpt>
      <trkpt lat="43.82313" lon="5.97378">
        <ele>499.0</ele>
      </trkpt>
      <trkpt lat="43.8254" lon="5.97394">
        <ele>508.0</ele>
      </trkpt>
      <trkpt lat="43.82873" lon="5.97673">
        <ele>520.0</ele>
      </trkpt>
      <trkpt lat="43.83069" lon="5.9804">
        <ele>522.0</ele>
      </trkpt>
      <trkpt lat="43.83216" lon="5.9836">
        <ele>527.0</ele>
      </trkpt>
      <trkpt lat="43.83311" lon="5.98496">
        <ele>528.0</ele>
      </trkpt>
      <trkpt lat="43.83455" lon="5.98358">
        <ele>532.0</ele>
      </trkpt>
      <trkpt lat="43.83544" lon="5.98417">
        <ele>540.0</ele>
      </trkpt>
      <trkpt lat="43.83607" lon="5.98455">
        <ele>548.0</ele>
      </trkpt>
      <trkpt lat="43.83543" lon="5.98318">
        <ele>553.0</ele>
      </trkpt>
      <trkpt lat="43.83475" lon="5.98271">
        <ele>553.0</ele>
      </trkpt>
      <trkpt lat="43.83437" lon="5.98177">
        <ele>555.0</ele>
      </trkpt>
      <trkpt lat="43.83519" lon="5.98068">
        <ele>564.0</ele>
      </trkpt>
      <trkpt lat="43.83552" lon="5.9801">
        <ele>569.0</ele>
      </trkpt>
      <trkpt lat="43.83524" lon="5.97818">
        <ele>572.0</ele>
      </trkpt>
      <trkpt lat="43.83545" lon="5.9771">
        <ele>571.0</ele>
      </trkpt>
      <trkpt lat="43.83619" lon="5.97455">
        <ele>567.0</ele>
      </trkpt>
      <trkpt lat="43.8371" lon="5.97268">
        <ele>563.0</ele>
      </trkpt>
      <trkpt lat="43.83702" lon="5.97072">
        <ele>560.0</ele>
      </trkpt>
      <trkpt lat="43.83728" lon="5.96854">
        <ele>560.0</ele>
      </trkpt>
      <trkpt lat="43.83812" lon="5.96387">
        <ele>573.0</ele>
      </trkpt>
      <trkpt lat="43.8384" lon="5.96132">
        <ele>581.0</ele>
      </trkpt>
      <trkpt lat="43.83718" lon="5.95831">
        <ele>579.0</ele>
      </trkpt>
      <trkpt lat="43.8351" lon="5.95643">
        <ele>578.0</ele>
      </trkpt>
      <trkpt lat="43.83178" lon="5.95144">
        <ele>575.0</ele>
      </trkpt>
      <trkpt lat="43.82955" lon="5.94747">
        <ele>569.0</ele>
      </trkpt>
      <trkpt lat="43.82801" lon="5.94317">
        <ele>565.0</ele>
      </trkpt>
      <trkpt lat="43.82513" lon="5.94061">
        <ele>562.0</ele>
      </trkpt>
      <trkpt lat="43.82197" lon="5.93667">
        <ele>557.0</ele>
      </trkpt>
      <trkpt lat="43.82051" lon="5.93404">
        <ele>552.0</ele>
      </trkpt>
      <trkpt lat="43.81781" lon="5.93303">
        <ele>550.0</ele>
      </trkpt>
      <trkpt lat="43.81587" lon="5.93231">
        <ele>546.0</ele>
      </trkpt>
      <trkpt lat="43.81428" lon="5.93209">
        <ele>541.0</ele>
      </trkpt>
      <trkpt lat="43.81339" lon="5.93094">
        <ele>539.0</ele>
      </trkpt>
      <trkpt lat="43.81228" lon="5.92773">
        <ele>535.0</ele>
      </trkpt>
      <trkpt lat="43.813" lon="5.92572">
        <ele>533.0</ele>
      </trkpt>
      <trkpt lat="43.81415" lon="5.9241">
        <ele>530.0</ele>
      </trkpt>
      <trkpt lat="43.81516" lon="5.92231">
        <ele>524.0</ele>
      </trkpt>
      <trkpt lat="43.81413" lon="5.92031">
        <ele>519.0</ele>
      </trkpt>
      <trkpt lat="43.81291" lon="5.91867">
        <ele>516.0</ele>
      </trkpt>
      <trkpt lat="43.81264" lon="5.91614">
        <ele>513.0</ele>
      </trkpt>
      <trkpt lat="43.81337" lon="5.91291">
        <ele>508.0</ele>
      </trkpt>
      <trkpt lat="43.81314" lon="5.91069">
        <ele>504.0</ele>
      </trkpt>
      <trkpt lat="43.81346" lon="5.90895">
        <ele>498.0</ele>
      </trkpt>
      <trkpt lat="43.81439" lon="5.90671">
        <ele>494.0</ele>
      </trkpt>
      <trkpt lat="43.81376" lon="5.90402">
        <ele>488.0</ele>
      </trkpt>
      <trkpt lat="43.81262" lon="5.90107">
        <ele>480.0</ele>
      </trkpt>
      <trkpt lat="43.81068" lon="5.89852">
        <ele>473.0</ele>
      </trkpt>
      <trkpt lat="43.80855" lon="5.89654">
        <ele>463.0</ele>
      </trkpt>
      <trkpt lat="43.80624" lon="5.89308">
        <ele>451.0</ele>
      </trkpt>
      <trkpt lat="43.80564" lon="5.88927">
        <ele>443.0</ele>
      </trkpt>
      <trkpt lat="43.80547" lon="5.88605">
        <ele>436.0</ele>
      </trkpt>
      <trkpt lat="43.80723" lon="5.88107">
        <ele>422.0</ele>
      </trkpt>
      <trkpt lat="43.8076" lon="5.87617">
        <ele>410.0</ele>
      </trkpt>
      <trkpt lat="43.80547" lon="5.86701">
        <ele>390.0</ele>
      </trkpt>
      <trkpt lat="43.80326" lon="5.86137">
        <ele>377.0</ele>
      </trkpt>
      <trkpt lat="43.7997" lon="5.85442">
        <ele>357.0</ele>
      </trkpt>
      <trkpt lat="43.79743" lon="5.84721">
        <ele>336.0</ele>
      </trkpt>
      <trkpt lat="43.79783" lon="5.842">
        <ele>318.0</ele>
      </trkpt>
      <trkpt lat="43.79901" lon="5.83714">
        <ele>302.0</ele>
      </trkpt>
      <trkpt lat="43.80041" lon="5.8335">
        <ele>294.0</ele>
      </trkpt>
      <trkpt lat="43.80114" lon="5.83181">
        <ele>294.0</ele>
      </trkpt>
      <trkpt lat="43.80439" lon="5.8252">
        <ele>292.0</ele>
      </trkpt>
      <trkpt lat="43.80549" lon="5.8223">
        <ele>293.0</ele>
      </trkpt>
      <trkpt lat="43.80672" lon="5.81963">
        <ele>294.0</ele>
      </trkpt>
      <trkpt lat="43.80679" lon="5.81907">
        <ele>295.0</ele>
      </trkpt>
      <trkpt lat="43.80851" lon="5.81523">
        <ele>294.0</ele>
      </trkpt>
      <trkpt lat="43.80984" lon="5.81267">
        <ele>295.0</ele>
      </trkpt>
      <trkpt lat="43.81016" lon="5.81189">
        <ele>295.0</ele>
      </trkpt>
      <trkpt lat="43.81135" lon="5.80976">
        <ele>296.0</ele>
      </trkpt>
      <trkpt lat="43.81407" lon="5.80322">
        <ele>303.0</ele>
      </trkpt>
      <trkpt lat="43.81584" lon="5.80044">
        <ele>308.0</ele>
      </trkpt>
      <trkpt lat="43.81654" lon="5.79994">
        <ele>310.0</ele>
      </trkpt>
      <trkpt lat="43.81722" lon="5.79889">
        <ele>314.0</ele>
      </trkpt>
      <trkpt lat="43.8176" lon="5.79855">
        <ele>317.0</ele>
      </trkpt>
      <trkpt lat="43.81925" lon="5.79557">
        <ele>317.0</ele>
      </trkpt>
      <trkpt lat="43.82012" lon="5.79453">
        <ele>319.0</ele>
      </trkpt>
      <trkpt lat="43.82034" lon="5.79361">
        <ele>321.0</ele>
      </trkpt>
      <trkpt lat="43.8216" lon="5.79216">
        <ele>325.0</ele>
      </trkpt>
      <trkpt lat="43.82228" lon="5.79179">
        <ele>327.0</ele>
      </trkpt>
      <trkpt lat="43.82271" lon="5.7919">
        <ele>328.0</ele>
      </trkpt>
      <trkpt lat="43.82308" lon="5.79128">
        <ele>329.0</ele>
      </trkpt>
      <trkpt lat="43.82471" lon="5.78917">
        <ele>333.0</ele>
      </trkpt>
      <trkpt lat="43.82546" lon="5.78815">
        <ele>339.0</ele>
      </trkpt>
      <trkpt lat="43.82661" lon="5.78722">
        <ele>346.0</ele>
      </trkpt>
      <trkpt lat="43.82736" lon="5.78709">
        <ele>355.0</ele>
      </trkpt>
      <trkpt lat="43.82775" lon="5.78705">
        <ele>357.0</ele>
      </trkpt>
      <trkpt lat="43.82858" lon="5.78599">
        <ele>361.0</ele>
      </trkpt>
      <trkpt lat="43.83008" lon="5.78507">
        <ele>370.0</ele>
      </trkpt>
      <trkpt lat="43.83126" lon="5.78437">
        <ele>375.0</ele>
      </trkpt>
      <trkpt lat="43.83187" lon="5.78462">
        <ele>377.0</ele>
      </trkpt>
      <trkpt lat="43.83287" lon="5.78579">
        <ele>375.0</ele>
      </trkpt>
      <trkpt lat="43.83334" lon="5.78576">
        <ele>372.0</ele>
      </trkpt>
      <trkpt lat="43.83434" lon="5.78533">
        <ele>374.0</ele>
      </trkpt>
      <trkpt lat="43.83505" lon="5.78393">
        <ele>379.0</ele>
      </trkpt>
      <trkpt lat="43.83554" lon="5.78285">
        <ele>386.0</ele>
      </trkpt>
      <trkpt lat="43.83552" lon="5.78225">
        <ele>390.0</ele>
      </trkpt>
      <trkpt lat="43.83557" lon="5.78154">
        <ele>393.0</ele>
      </trkpt>
      <trkpt lat="43.83734" lon="5.78101">
        <ele>395.0</ele>
      </trkpt>
      <trkpt lat="43.8383" lon="5.78024">
        <ele>396.0</ele>
      </trkpt>
      <trkpt lat="43.83945" lon="5.77945">
        <ele>402.0</ele>
      </trkpt>
      <trkpt lat="43.84079" lon="5.77861">
        <ele>409.0</ele>
      </trkpt>
    </trkseg>
  </trk>
</gpx>