<?xml version="1.0" encoding="UTF-8"?>
<gpx xmlns="http://www.topografix.com/GPX/1/0" xmlns:xsi="http://www.w3.org/2001/XMLSchema-instance" xsi:schemaLocation="http://www.topografix.com/GPX/1/0 http://www.topografix.com/GPX/1/0/gpx.xsd" version="1.0" creator="GPSBabel - https://www.gpsbabel.org">
  <time>2025-12-19T08:03:00.060000Z</time>
  <bounds minlat="37.53226" maxlat="37.83998" minlon="-3.94632" maxlon="-3.51224" />
  <trk>
    <trkseg>
      <trkpt lat="37.77843" lon="-3.74307">
        <ele>391.0</ele>
      </trkpt>
      <trkpt lat="37.778" lon="-3.74243">
        <ele>392.0</ele>
      </trkpt>
      <trkpt lat="37.77782" lon="-3.74171">
        <ele>393.0</ele>
      </trkpt>
      <trkpt lat="37.77783" lon="-3.74047">
        <ele>395.0</ele>
      </trkpt>
      <trkpt lat="37.77772" lon="-3.73893">
        <ele>398.0</ele>
      </trkpt>
      <trkpt lat="37.77739" lon="-3.73747">
        <ele>399.0</ele>
      </trkpt>
      <trkpt lat="37.77745" lon="-3.7363">
        <ele>398.0</ele>
      </trkpt>
      <trkpt lat="37.77771" lon="-3.73499">
        <ele>396.0</ele>
      </trkpt>
      <trkpt lat="37.77808" lon="-3.73405">
        <ele>398.0</ele>
      </trkpt>
      <trkpt lat="37.77832" lon="-3.73342">
        <ele>399.0</ele>
      </trkpt>
      <trkpt lat="37.77875" lon="-3.73278">
        <ele>401.0</ele>
      </trkpt>
      <trkpt lat="37.77923" lon="-3.73232">
        <ele>403.0</ele>
      </trkpt>
      <trkpt lat="37.78061" lon="-3.73172">
        <ele>404.0</ele>
      </trkpt>
      <trkpt lat="37.78158" lon="-3.73125">
        <ele>402.0</ele>
      </trkpt>
      <trkpt lat="37.78235" lon="-3.73051">
        <ele>404.0</ele>
      </trkpt>
      <trkpt lat="37.78348" lon="-3.7291">
        <ele>409.0</ele>
      </trkpt>
      <trkpt lat="37.78451" lon="-3.72846">
        <ele>410.0</ele>
      </trkpt>
      <trkpt lat="37.78854" lon="-3.72682">
        <ele>420.0</ele>
      </trkpt>
      <trkpt lat="37.78951" lon="-3.7265">
        <ele>430.0</ele>
      </trkpt>
      <trkpt lat="37.79164" lon="-3.72652">
        <ele>438.0</ele>
      </trkpt>
      <trkpt lat="37.79256" lon="-3.7264">
        <ele>445.0</ele>
      </trkpt>
      <trkpt lat="37.79497" lon="-3.72509">
        <ele>449.0</ele>
      </trkpt>
      <trkpt lat="37.79561" lon="-3.7247">
        <ele>455.0</ele>
      </trkpt>
      <trkpt lat="37.79638" lon="-3.72391">
        <ele>461.0</ele>
      </trkpt>
      <trkpt lat="37.79678" lon="-3.72322">
        <ele>462.0</ele>
      </trkpt>
      <trkpt lat="37.79717" lon="-3.7222">
        <ele>459.0</ele>
      </trkpt>
      <trkpt lat="37.79764" lon="-3.72116">
        <ele>454.0</ele>
      </trkpt>
      <trkpt lat="37.79842" lon="-3.72019">
        <ele>452.0</ele>
      </trkpt>
      <trkpt lat="37.79891" lon="-3.71982">
        <ele>451.0</ele>
      </trkpt>
      <trkpt lat="37.79905" lon="-3.71961">
        <ele>451.0</ele>
      </trkpt>
      <trkpt lat="37.79911" lon="-3.71937">
        <ele>452.0</ele>
      </trkpt>
      <trkpt lat="37.80132" lon="-3.71179">
        <ele>463.0</ele>
      </trkpt>
      <trkpt lat="37.80019" lon="-3.70628">
        <ele>475.0</ele>
      </trkpt>
      <trkpt lat="37.80091" lon="-3.70237">
        <ele>489.0</ele>
      </trkpt>
      <trkpt lat="37.80096" lon="-3.70041">
        <ele>494.0</ele>
      </trkpt>
      <trkpt lat="37.80026" lon="-3.69737">
        <ele>508.0</ele>
      </trkpt>
      <trkpt lat="37.80074" lon="-3.69437">
        <ele>511.0</ele>
      </trkpt>
      <trkpt lat="37.80137" lon="-3.69239">
        <ele>507.0</ele>
      </trkpt>
      <trkpt lat="37.80213" lon="-3.68581">
        <ele>518.0</ele>
      </trkpt>
      <trkpt lat="37.8033" lon="-3.68265">
        <ele>526.0</ele>
      </trkpt>
      <trkpt lat="37.80478" lon="-3.67726">
        <ele>518.0</ele>
      </trkpt>
      <trkpt lat="37.80519" lon="-3.67552">
        <ele>520.0</ele>
      </trkpt>
      <trkpt lat="37.80529" lon="-3.67475">
        <ele>522.0</ele>
      </trkpt>
      <trkpt lat="37.80525" lon="-3.6725">
        <ele>529.0</ele>
      </trkpt>
      <trkpt lat="37.80513" lon="-3.67156">
        <ele>534.0</ele>
      </trkpt>
      <trkpt lat="37.80491" lon="-3.67078">
        <ele>537.0</ele>
      </trkpt>
      <trkpt lat="37.80426" lon="-3.66956">
        <ele>541.0</ele>
      </trkpt>
      <trkpt lat="37.80361" lon="-3.66887">
        <ele>545.0</ele>
      </trkpt>
      <trkpt lat="37.80023" lon="-3.666">
        <ele>557.0</ele>
      </trkpt>
      <trkpt lat="37.79967" lon="-3.66526">
        <ele>566.0</ele>
      </trkpt>
      <trkpt lat="37.79946" lon="-3.66416">
        <ele>570.0</ele>
      </trkpt>
      <trkpt lat="37.79965" lon="-3.66329">
        <ele>571.0</ele>
      </trkpt>
      <trkpt lat="37.80074" lon="-3.66158">
        <ele>573.0</ele>
      </trkpt>
      <trkpt lat="37.80103" lon="-3.66105">
        <ele>574.0</ele>
      </trkpt>
      <trkpt lat="37.80104" lon="-3.6609">
        <ele>575.0</ele>
      </trkpt>
      <trkpt lat="37.80062" lon="-3.65999">
        <ele>576.0</ele>
      </trkpt>
      <trkpt lat="37.80021" lon="-3.65861">
        <ele>578.0</ele>
      </trkpt>
      <trkpt lat="37.79857" lon="-3.65294">
        <ele>600.0</ele>
      </trkpt>
      <trkpt lat="37.79873" lon="-3.65151">
        <ele>606.0</ele>
      </trkpt>
      <trkpt lat="37.7975" lon="-3.64918">
        <ele>614.0</ele>
      </trkpt>
      <trkpt lat="37.79562" lon="-3.6469">
        <ele>629.0</ele>
      </trkpt>
      <trkpt lat="37.79262" lon="-3.6443">
        <ele>648.0</ele>
      </trkpt>
      <trkpt lat="37.79226" lon="-3.64348">
        <ele>656.0</ele>
      </trkpt>
      <trkpt lat="37.79258" lon="-3.63807">
        <ele>675.0</ele>
      </trkpt>
      <trkpt lat="37.7922" lon="-3.63557">
        <ele>687.0</ele>
      </trkpt>
      <trkpt lat="37.79173" lon="-3.6299">
        <ele>697.0</ele>
      </trkpt>
      <trkpt lat="37.79095" lon="-3.62778">
        <ele>704.0</ele>
      </trkpt>
      <trkpt lat="37.78967" lon="-3.62322">
        <ele>712.0</ele>
      </trkpt>
      <trkpt lat="37.78945" lon="-3.62304">
        <ele>714.0</ele>
      </trkpt>
      <trkpt lat="37.78937" lon="-3.62267">
        <ele>716.0</ele>
      </trkpt>
      <trkpt lat="37.78929" lon="-3.62104">
        <ele>721.0</ele>
      </trkpt>
      <trkpt lat="37.78907" lon="-3.61978">
        <ele>726.0</ele>
      </trkpt>
      <trkpt lat="37.78874" lon="-3.6179">
        <ele>733.0</ele>
      </trkpt>
      <trkpt lat="37.78856" lon="-3.61698">
        <ele>737.0</ele>
      </trkpt>
      <trkpt lat="37.7885" lon="-3.61675">
        <ele>739.0</ele>
      </trkpt>
      <trkpt lat="37.78852" lon="-3.6166">
        <ele>740.0</ele>
      </trkpt>
      <trkpt lat="37.78856" lon="-3.61617">
        <ele>741.0</ele>
      </trkpt>
      <trkpt lat="37.78872" lon="-3.61441">
        <ele>747.0</ele>
      </trkpt>
      <trkpt lat="37.78878" lon="-3.61371">
        <ele>751.0</ele>
      </trkpt>
      <trkpt lat="37.7889" lon="-3.61243">
        <ele>753.0</ele>
      </trkpt>
      <trkpt lat="37.78915" lon="-3.60907">
        <ele>757.0</ele>
      </trkpt>
      <trkpt lat="37.78903" lon="-3.6089">
        <ele>761.0</ele>
      </trkpt>
      <trkpt lat="37.78903" lon="-3.60871">
        <ele>762.0</ele>
      </trkpt>
      <trkpt lat="37.78923" lon="-3.60839">
        <ele>763.0</ele>
      </trkpt>
      <trkpt lat="37.7897" lon="-3.6023">
        <ele>752.0</ele>
      </trkpt>
      <trkpt lat="37.79133" lon="-3.60109">
        <ele>743.0</ele>
      </trkpt>
      <trkpt lat="37.79653" lon="-3.59831">
        <ele>747.0</ele>
      </trkpt>
      <trkpt lat="37.80085" lon="-3.59314">
        <ele>725.0</ele>
      </trkpt>
      <trkpt lat="37.80301" lon="-3.59205">
        <ele>725.0</ele>
      </trkpt>
      <trkpt lat="37.8102" lon="-3.58629">
        <ele>721.0</ele>
      </trkpt>
      <trkpt lat="37.8162" lon="-3.57905">
        <ele>684.0</ele>
      </trkpt>
      <trkpt lat="37.82464" lon="-3.56912">
        <ele>641.0</ele>
      </trkpt>
      <trkpt lat="37.83266" lon="-3.56295">
        <ele>622.0</ele>
      </trkpt>
      <trkpt lat="37.83355" lon="-3.55369">
        <ele>617.0</ele>
      </trkpt>
      <trkpt lat="37.83555" lon="-3.54431">
        <ele>603.0</ele>
      </trkpt>
      <trkpt lat="37.83598" lon="-3.5392">
        <ele>577.0</ele>
      </trkpt>
      <trkpt lat="37.83573" lon="-3.53825">
        <ele>569.0</ele>
      </trkpt>
      <trkpt lat="37.83599" lon="-3.5372">
        <ele>567.0</ele>
      </trkpt>
      <trkpt lat="37.83653" lon="-3.53663">
        <ele>568.0</ele>
      </trkpt>
      <trkpt lat="37.83722" lon="-3.5365">
        <ele>572.0</ele>
      </trkpt>
      <trkpt lat="37.83781" lon="-3.53675">
        <ele>576.0</ele>
      </trkpt>
      <trkpt lat="37.83867" lon="-3.53751">
        <ele>584.0</ele>
      </trkpt>
      <trkpt lat="37.83915" lon="-3.53757">
        <ele>588.0</ele>
      </trkpt>
      <trkpt lat="37.83962" lon="-3.5373">
        <ele>592.0</ele>
      </trkpt>
      <trkpt lat="37.83997" lon="-3.53654">
        <ele>596.0</ele>
      </trkpt>
      <trkpt lat="37.83986" lon="-3.53557">
        <ele>600.0</ele>
      </trkpt>
      <trkpt lat="37.8395" lon="-3.53331">
        <ele>607.0</ele>
      </trkpt>
      <trkpt lat="37.83951" lon="-3.53177">
        <ele>613.0</ele>
      </trkpt>
      <trkpt lat="37.83972" lon="-3.52956">
        <ele>621.0</ele>
      </trkpt>
      <trkpt lat="37.83948" lon="-3.52929">
        <ele>625.0</ele>
      </trkpt>
      <trkpt lat="37.83744" lon="-3.53003">
        <ele>635.0</ele>
      </trkpt>
      <trkpt lat="37.83487" lon="-3.52883">
        <ele>649.0</ele>
      </trkpt>
      <trkpt lat="37.83045" lon="-3.52592">
        <ele>663.0</ele>
      </trkpt>
      <trkpt lat="37.8295" lon="-3.52646">
        <ele>673.0</ele>
      </trkpt>
      <trkpt lat="37.82823" lon="-3.52828">
        <ele>682.0</ele>
      </trkpt>
      <trkpt lat="37.82617" lon="-3.52816">
        <ele>693.0</ele>
      </trkpt>
      <trkpt lat="37.82312" lon="-3.52695">
        <ele>697.0</ele>
      </trkpt>
      <trkpt lat="37.82189" lon="-3.52786">
        <ele>693.0</ele>
      </trkpt>
      <trkpt lat="37.81985" lon="-3.53299">
        <ele>699.0</ele>
      </trkpt>
      <trkpt lat="37.81787" lon="-3.53285">
        <ele>709.0</ele>
      </trkpt>
      <trkpt lat="37.81681" lon="-3.53334">
        <ele>718.0</ele>
      </trkpt>
      <trkpt lat="37.81692" lon="-3.53557">
        <ele>724.0</ele>
      </trkpt>
      <trkpt lat="37.81577" lon="-3.53629">
        <ele>728.0</ele>
      </trkpt>
      <trkpt lat="37.81325" lon="-3.53545">
        <ele>741.0</ele>
      </trkpt>
      <trkpt lat="37.81232" lon="-3.5344">
        <ele>750.0</ele>
      </trkpt>
      <trkpt lat="37.81136" lon="-3.53435">
        <ele>756.0</ele>
      </trkpt>
      <trkpt lat="37.81059" lon="-3.5355">
        <ele>760.0</ele>
      </trkpt>
      <trkpt lat="37.8093" lon="-3.53401">
        <ele>762.0</ele>
      </trkpt>
      <trkpt lat="37.80751" lon="-3.53229">
        <ele>763.0</ele>
      </trkpt>
      <trkpt lat="37.80679" lon="-3.53095">
        <ele>768.0</ele>
      </trkpt>
      <trkpt lat="37.8061" lon="-3.53197">
        <ele>775.0</ele>
      </trkpt>
      <trkpt lat="37.804" lon="-3.53043">
        <ele>783.0</ele>
      </trkpt>
      <trkpt lat="37.80278" lon="-3.53084">
        <ele>784.0</ele>
      </trkpt>
      <trkpt lat="37.80172" lon="-3.5298">
        <ele>783.0</ele>
      </trkpt>
      <trkpt lat="37.80056" lon="-3.52906">
        <ele>786.0</ele>
      </trkpt>
      <trkpt lat="37.80077" lon="-3.5245">
        <ele>793.0</ele>
      </trkpt>
      <trkpt lat="37.79952" lon="-3.52398">
        <ele>798.0</ele>
      </trkpt>
      <trkpt lat="37.79793" lon="-3.5238">
        <ele>806.0</ele>
      </trkpt>
      <trkpt lat="37.79547" lon="-3.52232">
        <ele>815.0</ele>
      </trkpt>
      <trkpt lat="37.7933" lon="-3.52169">
        <ele>823.0</ele>
      </trkpt>
      <trkpt lat="37.79285" lon="-3.52007">
        <ele>831.0</ele>
      </trkpt>
      <trkpt lat="37.79101" lon="-3.51797">
        <ele>843.0</ele>
      </trkpt>
      <trkpt lat="37.78886" lon="-3.51671">
        <ele>853.0</ele>
      </trkpt>
      <trkpt lat="37.78707" lon="-3.51346">
        <ele>846.0</ele>
      </trkpt>
      <trkpt lat="37.78683" lon="-3.51274">
        <ele>838.0</ele>
      </trkpt>
      <trkpt lat="37.78689" lon="-3.51479">
        <ele>826.0</ele>
      </trkpt>
      <trkpt lat="37.78767" lon="-3.51809">
        <ele>814.0</ele>
      </trkpt>
      <trkpt lat="37.78801" lon="-3.51948">
        <ele>801.0</ele>
      </trkpt>
      <trkpt lat="37.78684" lon="-3.5175">
        <ele>786.0</ele>
      </trkpt>
      <trkpt lat="37.78594" lon="-3.51815">
        <ele>779.0</ele>
      </trkpt>
      <trkpt lat="37.78547" lon="-3.52125">
        <ele>786.0</ele>
      </trkpt>
      <trkpt lat="37.786" lon="-3.5226">
        <ele>799.0</ele>
      </trkpt>
      <trkpt lat="37.78645" lon="-3.52575">
        <ele>819.0</ele>
      </trkpt>
      <trkpt lat="37.78578" lon="-3.52777">
        <ele>832.0</ele>
      </trkpt>
      <trkpt lat="37.78528" lon="-3.52895">
        <ele>843.0</ele>
      </trkpt>
      <trkpt lat="37.78505" lon="-3.53046">
        <ele>852.0</ele>
      </trkpt>
      <trkpt lat="37.78358" lon="-3.53176">
        <ele>862.0</ele>
      </trkpt>
      <trkpt lat="37.78356" lon="-3.53322">
        <ele>869.0</ele>
      </trkpt>
      <trkpt lat="37.78443" lon="-3.53415">
        <ele>875.0</ele>
      </trkpt>
      <trkpt lat="37.78543" lon="-3.53584">
        <ele>885.0</ele>
      </trkpt>
      <trkpt lat="37.78703" lon="-3.53675">
        <ele>896.0</ele>
      </trkpt>
      <trkpt lat="37.78569" lon="-3.53828">
        <ele>912.0</ele>
      </trkpt>
      <trkpt lat="37.78618" lon="-3.53952">
        <ele>930.0</ele>
      </trkpt>
      <trkpt lat="37.78609" lon="-3.54115">
        <ele>940.0</ele>
      </trkpt>
      <trkpt lat="37.78554" lon="-3.54388">
        <ele>947.0</ele>
      </trkpt>
      <trkpt lat="37.78494" lon="-3.54511">
        <ele>945.0</ele>
      </trkpt>
      <trkpt lat="37.78516" lon="-3.5484">
        <ele>938.0</ele>
      </trkpt>
      <trkpt lat="37.78446" lon="-3.54893">
        <ele>929.0</ele>
      </trkpt>
      <trkpt lat="37.78354" lon="-3.5491">
        <ele>923.0</ele>
      </trkpt>
      <trkpt lat="37.78397" lon="-3.55254">
        <ele>911.0</ele>
      </trkpt>
      <trkpt lat="37.78435" lon="-3.55348">
        <ele>906.0</ele>
      </trkpt>
      <trkpt lat="37.7846" lon="-3.55621">
        <ele>906.0</ele>
      </trkpt>
      <trkpt lat="37.78476" lon="-3.55696">
        <ele>906.0</ele>
      </trkpt>
      <trkpt lat="37.78347" lon="-3.55767">
        <ele>906.0</ele>
      </trkpt>
      <trkpt lat="37.78259" lon="-3.55907">
        <ele>911.0</ele>
      </trkpt>
      <trkpt lat="37.7816" lon="-3.56073">
        <ele>914.0</ele>
      </trkpt>
      <trkpt lat="37.78142" lon="-3.56671">
        <ele>904.0</ele>
      </trkpt>
      <trkpt lat="37.77973" lon="-3.56454">
        <ele>894.0</ele>
      </trkpt>
      <trkpt lat="37.7793" lon="-3.56711">
        <ele>894.0</ele>
      </trkpt>
      <trkpt lat="37.77952" lon="-3.57088">
        <ele>891.0</ele>
      </trkpt>
      <trkpt lat="37.77925" lon="-3.57371">
        <ele>883.0</ele>
      </trkpt>
      <trkpt lat="37.78011" lon="-3.57881">
        <ele>873.0</ele>
      </trkpt>
      <trkpt lat="37.77995" lon="-3.58328">
        <ele>854.0</ele>
      </trkpt>
      <trkpt lat="37.779" lon="-3.58454">
        <ele>846.0</ele>
      </trkpt>
      <trkpt lat="37.78083" lon="-3.59098">
        <ele>833.0</ele>
      </trkpt>
      <trkpt lat="37.77944" lon="-3.59157">
        <ele>826.0</ele>
      </trkpt>
      <trkpt lat="37.78023" lon="-3.59296">
        <ele>824.0</ele>
      </trkpt>
      <trkpt lat="37.78241" lon="-3.59604">
        <ele>823.0</ele>
      </trkpt>
      <trkpt lat="37.78344" lon="-3.59879">
        <ele>814.0</ele>
      </trkpt>
      <trkpt lat="37.7851" lon="-3.60332">
        <ele>797.0</ele>
      </trkpt>
      <trkpt lat="37.78526" lon="-3.60334">
        <ele>793.0</ele>
      </trkpt>
      <trkpt lat="37.7853" lon="-3.60361">
        <ele>791.0</ele>
      </trkpt>
      <trkpt lat="37.78516" lon="-3.60364">
        <ele>791.0</ele>
      </trkpt>
      <trkpt lat="37.78495" lon="-3.60416">
        <ele>789.0</ele>
      </trkpt>
      <trkpt lat="37.7848" lon="-3.60591">
        <ele>785.0</ele>
      </trkpt>
      <trkpt lat="37.78491" lon="-3.60733">
        <ele>780.0</ele>
      </trkpt>
      <trkpt lat="37.78441" lon="-3.60964">
        <ele>771.0</ele>
      </trkpt>
      <trkpt lat="37.78479" lon="-3.6117">
        <ele>762.0</ele>
      </trkpt>
      <trkpt lat="37.78378" lon="-3.6127">
        <ele>756.0</ele>
      </trkpt>
      <trkpt lat="37.78366" lon="-3.6128">
        <ele>754.0</ele>
      </trkpt>
      <trkpt lat="37.78364" lon="-3.61292">
        <ele>754.0</ele>
      </trkpt>
      <trkpt lat="37.78355" lon="-3.61293">
        <ele>754.0</ele>
      </trkpt>
      <trkpt lat="37.78322" lon="-3.61333">
        <ele>756.0</ele>
      </trkpt>
      <trkpt lat="37.782" lon="-3.61478">
        <ele>762.0</ele>
      </trkpt>
      <trkpt lat="37.78199" lon="-3.61488">
        <ele>764.0</ele>
      </trkpt>
      <trkpt lat="37.78192" lon="-3.61489">
        <ele>764.0</ele>
      </trkpt>
      <trkpt lat="37.78107" lon="-3.61547">
        <ele>766.0</ele>
      </trkpt>
      <trkpt lat="37.78105" lon="-3.61554">
        <ele>766.0</ele>
      </trkpt>
      <trkpt lat="37.78098" lon="-3.61554">
        <ele>767.0</ele>
      </trkpt>
      <trkpt lat="37.77935" lon="-3.61728">
        <ele>769.0</ele>
      </trkpt>
      <trkpt lat="37.77603" lon="-3.62022">
        <ele>776.0</ele>
      </trkpt>
      <trkpt lat="37.77477" lon="-3.62346">
        <ele>792.0</ele>
      </trkpt>
      <trkpt lat="37.77407" lon="-3.626">
        <ele>810.0</ele>
      </trkpt>
      <trkpt lat="37.77113" lon="-3.6295">
        <ele>827.0</ele>
      </trkpt>
      <trkpt lat="37.76882" lon="-3.63247">
        <ele>828.0</ele>
      </trkpt>
      <trkpt lat="37.76644" lon="-3.634">
        <ele>824.0</ele>
      </trkpt>
      <trkpt lat="37.76435" lon="-3.63574">
        <ele>825.0</ele>
      </trkpt>
      <trkpt lat="37.76255" lon="-3.63738">
        <ele>822.0</ele>
      </trkpt>
      <trkpt lat="37.76086" lon="-3.63885">
        <ele>824.0</ele>
      </trkpt>
      <trkpt lat="37.75815" lon="-3.64237">
        <ele>846.0</ele>
      </trkpt>
      <trkpt lat="37.7557" lon="-3.64386">
        <ele>872.0</ele>
      </trkpt>
      <trkpt lat="37.75326" lon="-3.64413">
        <ele>902.0</ele>
      </trkpt>
      <trkpt lat="37.7515" lon="-3.64484">
        <ele>923.0</ele>
      </trkpt>
      <trkpt lat="37.74933" lon="-3.64349">
        <ele>921.0</ele>
      </trkpt>
      <trkpt lat="37.74781" lon="-3.64312">
        <ele>907.0</ele>
      </trkpt>
      <trkpt lat="37.74734" lon="-3.64151">
        <ele>895.0</ele>
      </trkpt>
      <trkpt lat="37.74824" lon="-3.63888">
        <ele>883.0</ele>
      </trkpt>
      <trkpt lat="37.74658" lon="-3.63831">
        <ele>864.0</ele>
      </trkpt>
      <trkpt lat="37.74464" lon="-3.63906">
        <ele>850.0</ele>
      </trkpt>
      <trkpt lat="37.74321" lon="-3.6401">
        <ele>836.0</ele>
      </trkpt>
      <trkpt lat="37.7406" lon="-3.63991">
        <ele>815.0</ele>
      </trkpt>
      <trkpt lat="37.74114" lon="-3.63849">
        <ele>808.0</ele>
      </trkpt>
      <trkpt lat="37.74107" lon="-3.63836">
        <ele>804.0</ele>
      </trkpt>
      <trkpt lat="37.74084" lon="-3.63824">
        <ele>802.0</ele>
      </trkpt>
      <trkpt lat="37.73772" lon="-3.63867">
        <ele>788.0</ele>
      </trkpt>
      <trkpt lat="37.7342" lon="-3.64095">
        <ele>758.0</ele>
      </trkpt>
      <trkpt lat="37.73096" lon="-3.65272">
        <ele>713.0</ele>
      </trkpt>
      <trkpt lat="37.73013" lon="-3.65395">
        <ele>693.0</ele>
      </trkpt>
      <trkpt lat="37.72481" lon="-3.65708">
        <ele>656.0</ele>
      </trkpt>
      <trkpt lat="37.72284" lon="-3.66323">
        <ele>611.0</ele>
      </trkpt>
      <trkpt lat="37.72243" lon="-3.66708">
        <ele>583.0</ele>
      </trkpt>
      <trkpt lat="37.72363" lon="-3.67351">
        <ele>559.0</ele>
      </trkpt>
      <trkpt lat="37.72371" lon="-3.67474">
        <ele>542.0</ele>
      </trkpt>
      <trkpt lat="37.72367" lon="-3.67558">
        <ele>531.0</ele>
      </trkpt>
      <trkpt lat="37.72344" lon="-3.67639">
        <ele>524.0</ele>
      </trkpt>
      <trkpt lat="37.72351" lon="-3.67707">
        <ele>518.0</ele>
      </trkpt>
      <trkpt lat="37.7239" lon="-3.6776">
        <ele>514.0</ele>
      </trkpt>
      <trkpt lat="37.72525" lon="-3.67798">
        <ele>509.0</ele>
      </trkpt>
      <trkpt lat="37.72546" lon="-3.67807">
        <ele>505.0</ele>
      </trkpt>
      <trkpt lat="37.72579" lon="-3.67821">
        <ele>504.0</ele>
      </trkpt>
      <trkpt lat="37.72619" lon="-3.6787">
        <ele>501.0</ele>
      </trkpt>
      <trkpt lat="37.72689" lon="-3.67987">
        <ele>497.0</ele>
      </trkpt>
      <trkpt lat="37.72767" lon="-3.68064">
        <ele>493.0</ele>
      </trkpt>
      <trkpt lat="37.73033" lon="-3.68251">
        <ele>488.0</ele>
      </trkpt>
      <trkpt lat="37.73254" lon="-3.68384">
        <ele>485.0</ele>
      </trkpt>
      <trkpt lat="37.73524" lon="-3.68357">
        <ele>480.0</ele>
      </trkpt>
      <trkpt lat="37.73694" lon="-3.6831">
        <ele>478.0</ele>
      </trkpt>
      <trkpt lat="37.73677" lon="-3.68366">
        <ele>477.0</ele>
      </trkpt>
      <trkpt lat="37.73706" lon="-3.6846">
        <ele>477.0</ele>
      </trkpt>
      <trkpt lat="37.73685" lon="-3.68552">
        <ele>479.0</ele>
      </trkpt>
      <trkpt lat="37.73705" lon="-3.6857">
        <ele>482.0</ele>
      </trkpt>
      <trkpt lat="37.73868" lon="-3.68516">
        <ele>494.0</ele>
      </trkpt>
      <trkpt lat="37.73886" lon="-3.68547">
        <ele>500.0</ele>
      </trkpt>
      <trkpt lat="37.73824" lon="-3.68671">
        <ele>506.0</ele>
      </trkpt>
      <trkpt lat="37.73742" lon="-3.68782">
        <ele>516.0</ele>
      </trkpt>
      <trkpt lat="37.73727" lon="-3.68815">
        <ele>520.0</ele>
      </trkpt>
      <trkpt lat="37.73741" lon="-3.68947">
        <ele>525.0</ele>
      </trkpt>
      <trkpt lat="37.73756" lon="-3.68987">
        <ele>529.0</ele>
      </trkpt>
      <trkpt lat="37.73789" lon="-3.68972">
        <ele>533.0</ele>
      </trkpt>
      <trkpt lat="37.73793" lon="-3.68869">
        <ele>538.0</ele>
      </trkpt>
      <trkpt lat="37.73825" lon="-3.68842">
        <ele>543.0</ele>
      </trkpt>
      <trkpt lat="37.73857" lon="-3.68873">
        <ele>547.0</ele>
      </trkpt>
      <trkpt lat="37.7388" lon="-3.68922">
        <ele>552.0</ele>
      </trkpt>
      <trkpt lat="37.73954" lon="-3.68915">
        <ele>558.0</ele>
      </trkpt>
      <trkpt lat="37.74083" lon="-3.68912">
        <ele>569.0</ele>
      </trkpt>
      <trkpt lat="37.74125" lon="-3.68903">
        <ele>574.0</ele>
      </trkpt>
      <trkpt lat="37.74193" lon="-3.68906">
        <ele>578.0</ele>
      </trkpt>
      <trkpt lat="37.7426" lon="-3.68996">
        <ele>583.0</ele>
      </trkpt>
      <trkpt lat="37.74293" lon="-3.69212">
        <ele>589.0</ele>
      </trkpt>
      <trkpt lat="37.74331" lon="-3.69271">
        <ele>589.0</ele>
      </trkpt>
      <trkpt lat="37.74384" lon="-3.69349">
        <ele>589.0</ele>
      </trkpt>
      <trkpt lat="37.74462" lon="-3.69499">
        <ele>592.0</ele>
      </trkpt>
      <trkpt lat="37.74614" lon="-3.69566">
        <ele>595.0</ele>
      </trkpt>
      <trkpt lat="37.74805" lon="-3.69831">
        <ele>596.0</ele>
      </trkpt>
      <trkpt lat="37.74995" lon="-3.70038">
        <ele>597.0</ele>
      </trkpt>
      <trkpt lat="37.75045" lon="-3.70318">
        <ele>605.0</ele>
      </trkpt>
      <trkpt lat="37.75202" lon="-3.70423">
        <ele>602.0</ele>
      </trkpt>
      <trkpt lat="37.75251" lon="-3.70474">
        <ele>599.0</ele>
      </trkpt>
      <trkpt lat="37.75406" lon="-3.70805">
        <ele>593.0</ele>
      </trkpt>
      <trkpt lat="37.75463" lon="-3.71064">
        <ele>593.0</ele>
      </trkpt>
      <trkpt lat="37.75537" lon="-3.71147">
        <ele>587.0</ele>
      </trkpt>
      <trkpt lat="37.7568" lon="-3.71226">
        <ele>577.0</ele>
      </trkpt>
      <trkpt lat="37.75808" lon="-3.71991">
        <ele>541.0</ele>
      </trkpt>
      <trkpt lat="37.75844" lon="-3.72459">
        <ele>519.0</ele>
      </trkpt>
      <trkpt lat="37.75814" lon="-3.72769">
        <ele>511.0</ele>
      </trkpt>
      <trkpt lat="37.75874" lon="-3.7326">
        <ele>495.0</ele>
      </trkpt>
      <trkpt lat="37.75934" lon="-3.73432">
        <ele>483.0</ele>
      </trkpt>
      <trkpt lat="37.75949" lon="-3.73685">
        <ele>470.0</ele>
      </trkpt>
      <trkpt lat="37.75995" lon="-3.73917">
        <ele>453.0</ele>
      </trkpt>
      <trkpt lat="37.76064" lon="-3.74158">
        <ele>439.0</ele>
      </trkpt>
      <trkpt lat="37.76011" lon="-3.74473">
        <ele>427.0</ele>
      </trkpt>
      <trkpt lat="37.76036" lon="-3.7463">
        <ele>422.0</ele>
      </trkpt>
      <trkpt lat="37.76079" lon="-3.74943">
        <ele>410.0</ele>
      </trkpt>
      <trkpt lat="37.76068" lon="-3.75179">
        <ele>400.0</ele>
      </trkpt>
      <trkpt lat="37.76075" lon="-3.75371">
        <ele>395.0</ele>
      </trkpt>
      <trkpt lat="37.76143" lon="-3.75765">
        <ele>399.0</ele>
      </trkpt>
      <trkpt lat="37.76145" lon="-3.75899">
        <ele>405.0</ele>
      </trkpt>
      <trkpt lat="37.76087" lon="-3.76158">
        <ele>416.0</ele>
      </trkpt>
      <trkpt lat="37.76104" lon="-3.76635">
        <ele>434.0</ele>
      </trkpt>
      <trkpt lat="37.76247" lon="-3.76763">
        <ele>446.0</ele>
      </trkpt>
      <trkpt lat="37.76305" lon="-3.76799">
        <ele>454.0</ele>
      </trkpt>
      <trkpt lat="37.76357" lon="-3.76866">
        <ele>461.0</ele>
      </trkpt>
      <trkpt lat="37.76465" lon="-3.77188">
        <ele>473.0</ele>
      </trkpt>
      <trkpt lat="37.76607" lon="-3.77397">
        <ele>480.0</ele>
      </trkpt>
      <trkpt lat="37.76671" lon="-3.77443">
        <ele>486.0</ele>
      </trkpt>
      <trkpt lat="37.7672" lon="-3.77514">
        <ele>489.0</ele>
      </trkpt>
      <trkpt lat="37.76687" lon="-3.77555">
        <ele>489.0</ele>
      </trkpt>
      <trkpt lat="37.76644" lon="-3.77629">
        <ele>488.0</ele>
      </trkpt>
      <trkpt lat="37.76575" lon="-3.7776">
        <ele>488.0</ele>
      </trkpt>
      <trkpt lat="37.76533" lon="-3.77847">
        <ele>493.0</ele>
      </trkpt>
      <trkpt lat="37.76531" lon="-3.77867">
        <ele>495.0</ele>
      </trkpt>
      <trkpt lat="37.76518" lon="-3.77877">
        <ele>496.0</ele>
      </trkpt>
      <trkpt lat="37.76493" lon="-3.77925">
        <ele>498.0</ele>
      </trkpt>
      <trkpt lat="37.7648" lon="-3.78038">
        <ele>502.0</ele>
      </trkpt>
      <trkpt lat="37.76504" lon="-3.78139">
        <ele>505.0</ele>
      </trkpt>
      <trkpt lat="37.76487" lon="-3.78279">
        <ele>507.0</ele>
      </trkpt>
      <trkpt lat="37.76496" lon="-3.78363">
        <ele>509.0</ele>
      </trkpt>
      <trkpt lat="37.76468" lon="-3.78471">
        <ele>517.0</ele>
      </trkpt>
      <trkpt lat="37.7635" lon="-3.78601">
        <ele>530.0</ele>
      </trkpt>
      <trkpt lat="37.76308" lon="-3.78708">
        <ele>536.0</ele>
      </trkpt>
      <trkpt lat="37.76288" lon="-3.78776">
        <ele>540.0</ele>
      </trkpt>
      <trkpt lat="37.76239" lon="-3.78858">
        <ele>544.0</ele>
      </trkpt>
      <trkpt lat="37.76233" lon="-3.78908">
        <ele>548.0</ele>
      </trkpt>
      <trkpt lat="37.76233" lon="-3.78927">
        <ele>550.0</ele>
      </trkpt>
      <trkpt lat="37.76223" lon="-3.78936">
        <ele>551.0</ele>
      </trkpt>
      <trkpt lat="37.76211" lon="-3.7893">
        <ele>552.0</ele>
      </trkpt>
      <trkpt lat="37.76174" lon="-3.78976">
        <ele>553.0</ele>
      </trkpt>
      <trkpt lat="37.76107" lon="-3.79046">
        <ele>557.0</ele>
      </trkpt>
      <trkpt lat="37.75963" lon="-3.79125">
        <ele>563.0</ele>
      </trkpt>
      <trkpt lat="37.75762" lon="-3.79261">
        <ele>580.0</ele>
      </trkpt>
      <trkpt lat="37.75621" lon="-3.79398">
        <ele>592.0</ele>
      </trkpt>
      <trkpt lat="37.75619" lon="-3.7942">
        <ele>596.0</ele>
      </trkpt>
      <trkpt lat="37.75606" lon="-3.79435">
        <ele>598.0</ele>
      </trkpt>
      <trkpt lat="37.75474" lon="-3.79552">
        <ele>592.0</ele>
      </trkpt>
      <trkpt lat="37.75295" lon="-3.79684">
        <ele>585.0</ele>
      </trkpt>
      <trkpt lat="37.7524" lon="-3.79785">
        <ele>586.0</ele>
      </trkpt>
      <trkpt lat="37.75073" lon="-3.80226">
        <ele>603.0</ele>
      </trkpt>
      <trkpt lat="37.74953" lon="-3.80584">
        <ele>607.0</ele>
      </trkpt>
      <trkpt lat="37.74929" lon="-3.8072">
        <ele>612.0</ele>
      </trkpt>
      <trkpt lat="37.74931" lon="-3.81034">
        <ele>621.0</ele>
      </trkpt>
      <trkpt lat="37.74728" lon="-3.81383">
        <ele>626.0</ele>
      </trkpt>
      <trkpt lat="37.74535" lon="-3.81467">
        <ele>636.0</ele>
      </trkpt>
      <trkpt lat="37.74253" lon="-3.81474">
        <ele>655.0</ele>
      </trkpt>
      <trkpt lat="37.73933" lon="-3.81253">
        <ele>667.0</ele>
      </trkpt>
      <trkpt lat="37.73802" lon="-3.8126">
        <ele>674.0</ele>
      </trkpt>
      <trkpt lat="37.73679" lon="-3.81227">
        <ele>682.0</ele>
      </trkpt>
      <trkpt lat="37.73562" lon="-3.81061">
        <ele>692.0</ele>
      </trkpt>
      <trkpt lat="37.73319" lon="-3.8098">
        <ele>703.0</ele>
      </trkpt>
      <trkpt lat="37.72901" lon="-3.80846">
        <ele>731.0</ele>
      </trkpt>
      <trkpt lat="37.72859" lon="-3.80715">
        <ele>748.0</ele>
      </trkpt>
      <trkpt lat="37.72682" lon="-3.80561">
        <ele>756.0</ele>
      </trkpt>
      <trkpt lat="37.72628" lon="-3.80543">
        <ele>760.0</ele>
      </trkpt>
      <trkpt lat="37.72455" lon="-3.80596">
        <ele>749.0</ele>
      </trkpt>
      <trkpt lat="37.72118" lon="-3.80498">
        <ele>735.0</ele>
      </trkpt>
      <trkpt lat="37.71912" lon="-3.80468">
        <ele>718.0</ele>
      </trkpt>
      <trkpt lat="37.71705" lon="-3.80391">
        <ele>705.0</ele>
      </trkpt>
      <trkpt lat="37.71515" lon="-3.80308">
        <ele>690.0</ele>
      </trkpt>
      <trkpt lat="37.71281" lon="-3.80236">
        <ele>675.0</ele>
      </trkpt>
      <trkpt lat="37.71081" lon="-3.80333">
        <ele>664.0</ele>
      </trkpt>
      <trkpt lat="37.70876" lon="-3.80325">
        <ele>654.0</ele>
      </trkpt>
      <trkpt lat="37.70767" lon="-3.80432">
        <ele>644.0</ele>
      </trkpt>
      <trkpt lat="37.70648" lon="-3.80442">
        <ele>633.0</ele>
      </trkpt>
      <trkpt lat="37.70583" lon="-3.80515">
        <ele>621.0</ele>
      </trkpt>
      <trkpt lat="37.70502" lon="-3.80681">
        <ele>611.0</ele>
      </trkpt>
      <trkpt lat="37.70426" lon="-3.80734">
        <ele>605.0</ele>
      </trkpt>
      <trkpt lat="37.70035" lon="-3.8089">
        <ele>590.0</ele>
      </trkpt>
      <trkpt lat="37.69988" lon="-3.8093">
        <ele>584.0</ele>
      </trkpt>
      <trkpt lat="37.69966" lon="-3.80937">
        <ele>582.0</ele>
      </trkpt>
      <trkpt lat="37.69934" lon="-3.8093">
        <ele>582.0</ele>
      </trkpt>
      <trkpt lat="37.69863" lon="-3.80974">
        <ele>583.0</ele>
      </trkpt>
      <trkpt lat="37.69666" lon="-3.81241">
        <ele>590.0</ele>
      </trkpt>
      <trkpt lat="37.69623" lon="-3.81288">
        <ele>595.0</ele>
      </trkpt>
      <trkpt lat="37.69574" lon="-3.81346">
        <ele>598.0</ele>
      </trkpt>
      <trkpt lat="37.69499" lon="-3.81425">
        <ele>602.0</ele>
      </trkpt>
      <trkpt lat="37.69468" lon="-3.8152">
        <ele>605.0</ele>
      </trkpt>
      <trkpt lat="37.69422" lon="-3.81616">
        <ele>609.0</ele>
      </trkpt>
      <trkpt lat="37.69406" lon="-3.81632">
        <ele>612.0</ele>
      </trkpt>
      <trkpt lat="37.69378" lon="-3.8163">
        <ele>613.0</ele>
      </trkpt>
      <trkpt lat="37.6926" lon="-3.81614">
        <ele>618.0</ele>
      </trkpt>
      <trkpt lat="37.69223" lon="-3.81603">
        <ele>621.0</ele>
      </trkpt>
      <trkpt lat="37.69068" lon="-3.81504">
        <ele>628.0</ele>
      </trkpt>
      <trkpt lat="37.68959" lon="-3.81437">
        <ele>634.0</ele>
      </trkpt>
      <trkpt lat="37.68804" lon="-3.81358">
        <ele>641.0</ele>
      </trkpt>
      <trkpt lat="37.68676" lon="-3.81318">
        <ele>648.0</ele>
      </trkpt>
      <trkpt lat="37.68608" lon="-3.8133">
        <ele>649.0</ele>
      </trkpt>
      <trkpt lat="37.68496" lon="-3.81276">
        <ele>648.0</ele>
      </trkpt>
      <trkpt lat="37.68418" lon="-3.81255">
        <ele>651.0</ele>
      </trkpt>
      <trkpt lat="37.68358" lon="-3.81182">
        <ele>656.0</ele>
      </trkpt>
      <trkpt lat="37.68329" lon="-3.81142">
        <ele>659.0</ele>
      </trkpt>
      <trkpt lat="37.683" lon="-3.81155">
        <ele>660.0</ele>
      </trkpt>
      <trkpt lat="37.6824" lon="-3.81196">
        <ele>661.0</ele>
      </trkpt>
      <trkpt lat="37.68171" lon="-3.81185">
        <ele>661.0</ele>
      </trkpt>
      <trkpt lat="37.6807" lon="-3.81117">
        <ele>664.0</ele>
      </trkpt>
      <trkpt lat="37.68023" lon="-3.81094">
        <ele>667.0</ele>
      </trkpt>
      <trkpt lat="37.67965" lon="-3.81031">
        <ele>670.0</ele>
      </trkpt>
      <trkpt lat="37.67816" lon="-3.80979">
        <ele>677.0</ele>
      </trkpt>
      <trkpt lat="37.67747" lon="-3.8102">
        <ele>680.0</ele>
      </trkpt>
      <trkpt lat="37.67506" lon="-3.81027">
        <ele>686.0</ele>
      </trkpt>
      <trkpt lat="37.67448" lon="-3.80968">
        <ele>690.0</ele>
      </trkpt>
      <trkpt lat="37.67417" lon="-3.80956">
        <ele>693.0</ele>
      </trkpt>
      <trkpt lat="37.67347" lon="-3.80965">
        <ele>696.0</ele>
      </trkpt>
      <trkpt lat="37.67221" lon="-3.80903">
        <ele>704.0</ele>
      </trkpt>
      <trkpt lat="37.6713" lon="-3.80828">
        <ele>711.0</ele>
      </trkpt>
      <trkpt lat="37.67081" lon="-3.80774">
        <ele>716.0</ele>
      </trkpt>
      <trkpt lat="37.67033" lon="-3.80722">
        <ele>721.0</ele>
      </trkpt>
      <trkpt lat="37.66956" lon="-3.80694">
        <ele>725.0</ele>
      </trkpt>
      <trkpt lat="37.66837" lon="-3.80584">
        <ele>734.0</ele>
      </trkpt>
      <trkpt lat="37.66791" lon="-3.80517">
        <ele>744.0</ele>
      </trkpt>
      <trkpt lat="37.66796" lon="-3.80376">
        <ele>752.0</ele>
      </trkpt>
      <trkpt lat="37.66804" lon="-3.80231">
        <ele>763.0</ele>
      </trkpt>
      <trkpt lat="37.66741" lon="-3.80133">
        <ele>771.0</ele>
      </trkpt>
      <trkpt lat="37.66667" lon="-3.80026">
        <ele>782.0</ele>
      </trkpt>
      <trkpt lat="37.66665" lon="-3.7987">
        <ele>789.0</ele>
      </trkpt>
      <trkpt lat="37.66649" lon="-3.79844">
        <ele>792.0</ele>
      </trkpt>
      <trkpt lat="37.66614" lon="-3.79902">
        <ele>794.0</ele>
      </trkpt>
      <trkpt lat="37.66593" lon="-3.79925">
        <ele>797.0</ele>
      </trkpt>
      <trkpt lat="37.66575" lon="-3.79907">
        <ele>800.0</ele>
      </trkpt>
      <trkpt lat="37.66532" lon="-3.79764">
        <ele>813.0</ele>
      </trkpt>
      <trkpt lat="37.66477" lon="-3.79771">
        <ele>818.0</ele>
      </trkpt>
      <trkpt lat="37.66407" lon="-3.79691">
        <ele>823.0</ele>
      </trkpt>
      <trkpt lat="37.66346" lon="-3.79678">
        <ele>828.0</ele>
      </trkpt>
      <trkpt lat="37.66259" lon="-3.79657">
        <ele>837.0</ele>
      </trkpt>
      <trkpt lat="37.66216" lon="-3.79609">
        <ele>844.0</ele>
      </trkpt>
      <trkpt lat="37.66189" lon="-3.79529">
        <ele>851.0</ele>
      </trkpt>
      <trkpt lat="37.66144" lon="-3.7955">
        <ele>854.0</ele>
      </trkpt>
      <trkpt lat="37.66086" lon="-3.79603">
        <ele>857.0</ele>
      </trkpt>
      <trkpt lat="37.66063" lon="-3.79559">
        <ele>859.0</ele>
      </trkpt>
      <trkpt lat="37.66012" lon="-3.79525">
        <ele>862.0</ele>
      </trkpt>
      <trkpt lat="37.65948" lon="-3.79525">
        <ele>869.0</ele>
      </trkpt>
      <trkpt lat="37.65902" lon="-3.79474">
        <ele>874.0</ele>
      </trkpt>
      <trkpt lat="37.65869" lon="-3.7948">
        <ele>877.0</ele>
      </trkpt>
      <trkpt lat="37.65794" lon="-3.79501">
        <ele>882.0</ele>
      </trkpt>
      <trkpt lat="37.65738" lon="-3.79478">
        <ele>887.0</ele>
      </trkpt>
      <trkpt lat="37.65708" lon="-3.79433">
        <ele>892.0</ele>
      </trkpt>
      <trkpt lat="37.65606" lon="-3.79384">
        <ele>901.0</ele>
      </trkpt>
      <trkpt lat="37.65483" lon="-3.79443">
        <ele>912.0</ele>
      </trkpt>
      <trkpt lat="37.65462" lon="-3.79488">
        <ele>916.0</ele>
      </trkpt>
      <trkpt lat="37.65467" lon="-3.79538">
        <ele>918.0</ele>
      </trkpt>
      <trkpt lat="37.65567" lon="-3.79668">
        <ele>922.0</ele>
      </trkpt>
      <trkpt lat="37.65654" lon="-3.79774">
        <ele>926.0</ele>
      </trkpt>
      <trkpt lat="37.65663" lon="-3.79867">
        <ele>931.0</ele>
      </trkpt>
      <trkpt lat="37.65707" lon="-3.79923">
        <ele>935.0</ele>
      </trkpt>
      <trkpt lat="37.65725" lon="-3.79967">
        <ele>938.0</ele>
      </trkpt>
      <trkpt lat="37.65738" lon="-3.80032">
        <ele>941.0</ele>
      </trkpt>
      <trkpt lat="37.65775" lon="-3.80076">
        <ele>944.0</ele>
      </trkpt>
      <trkpt lat="37.65824" lon="-3.80097">
        <ele>947.0</ele>
      </trkpt>
      <trkpt lat="37.6583" lon="-3.80159">
        <ele>950.0</ele>
      </trkpt>
      <trkpt lat="37.65875" lon="-3.80239">
        <ele>955.0</ele>
      </trkpt>
      <trkpt lat="37.65873" lon="-3.80327">
        <ele>962.0</ele>
      </trkpt>
      <trkpt lat="37.65854" lon="-3.80459">
        <ele>969.0</ele>
      </trkpt>
      <trkpt lat="37.65828" lon="-3.80547">
        <ele>976.0</ele>
      </trkpt>
      <trkpt lat="37.6589" lon="-3.8071">
        <ele>984.0</ele>
      </trkpt>
      <trkpt lat="37.65895" lon="-3.80902">
        <ele>991.0</ele>
      </trkpt>
      <trkpt lat="37.65912" lon="-3.80964">
        <ele>997.0</ele>
      </trkpt>
      <trkpt lat="37.65976" lon="-3.81058">
        <ele>1001.0</ele>
      </trkpt>
      <trkpt lat="37.66022" lon="-3.81109">
        <ele>1005.0</ele>
      </trkpt>
      <trkpt lat="37.65959" lon="-3.81084">
        <ele>1009.0</ele>
      </trkpt>
      <trkpt lat="37.65828" lon="-3.80975">
        <ele>1020.0</ele>
      </trkpt>
      <trkpt lat="37.65718" lon="-3.80773">
        <ele>1033.0</ele>
      </trkpt>
      <trkpt lat="37.65711" lon="-3.80697">
        <ele>1040.0</ele>
      </trkpt>
      <trkpt lat="37.65684" lon="-3.80619">
        <ele>1045.0</ele>
      </trkpt>
      <trkpt lat="37.65663" lon="-3.80609">
        <ele>1048.0</ele>
      </trkpt>
      <trkpt lat="37.65678" lon="-3.8066">
        <ele>1051.0</ele>
      </trkpt>
      <trkpt lat="37.65685" lon="-3.80707">
        <ele>1054.0</ele>
      </trkpt>
      <trkpt lat="37.6565" lon="-3.80782">
        <ele>1057.0</ele>
      </trkpt>
      <trkpt lat="37.65639" lon="-3.80844">
        <ele>1062.0</ele>
      </trkpt>
      <trkpt lat="37.657" lon="-3.80978">
        <ele>1066.0</ele>
      </trkpt>
      <trkpt lat="37.65749" lon="-3.81113">
        <ele>1070.0</ele>
      </trkpt>
      <trkpt lat="37.65796" lon="-3.81302">
        <ele>1079.0</ele>
      </trkpt>
      <trkpt lat="37.65811" lon="-3.81358">
        <ele>1083.0</ele>
      </trkpt>
      <trkpt lat="37.65792" lon="-3.81399">
        <ele>1086.0</ele>
      </trkpt>
      <trkpt lat="37.65795" lon="-3.8147">
        <ele>1089.0</ele>
      </trkpt>
      <trkpt lat="37.65764" lon="-3.81572">
        <ele>1095.0</ele>
      </trkpt>
      <trkpt lat="37.6577" lon="-3.81648">
        <ele>1099.0</ele>
      </trkpt>
      <trkpt lat="37.65747" lon="-3.81757">
        <ele>1103.0</ele>
      </trkpt>
      <trkpt lat="37.65755" lon="-3.81916">
        <ele>1110.0</ele>
      </trkpt>
      <trkpt lat="37.65746" lon="-3.8196">
        <ele>1115.0</ele>
      </trkpt>
      <trkpt lat="37.65663" lon="-3.82033">
        <ele>1120.0</ele>
      </trkpt>
      <trkpt lat="37.65642" lon="-3.82076">
        <ele>1124.0</ele>
      </trkpt>
      <trkpt lat="37.65627" lon="-3.82151">
        <ele>1127.0</ele>
      </trkpt>
      <trkpt lat="37.65595" lon="-3.82173">
        <ele>1128.0</ele>
      </trkpt>
      <trkpt lat="37.65546" lon="-3.82236">
        <ele>1131.0</ele>
      </trkpt>
      <trkpt lat="37.6552" lon="-3.82332">
        <ele>1138.0</ele>
      </trkpt>
      <trkpt lat="37.65549" lon="-3.82364">
        <ele>1141.0</ele>
      </trkpt>
      <trkpt lat="37.65559" lon="-3.82461">
        <ele>1144.0</ele>
      </trkpt>
      <trkpt lat="37.65542" lon="-3.82529">
        <ele>1148.0</ele>
      </trkpt>
      <trkpt lat="37.65455" lon="-3.82635">
        <ele>1153.0</ele>
      </trkpt>
      <trkpt lat="37.65361" lon="-3.82761">
        <ele>1160.0</ele>
      </trkpt>
      <trkpt lat="37.6532" lon="-3.82873">
        <ele>1170.0</ele>
      </trkpt>
      <trkpt lat="37.65216" lon="-3.82987">
        <ele>1189.0</ele>
      </trkpt>
      <trkpt lat="37.65193" lon="-3.83025">
        <ele>1192.0</ele>
      </trkpt>
      <trkpt lat="37.65197" lon="-3.83098">
        <ele>1191.0</ele>
      </trkpt>
      <trkpt lat="37.65241" lon="-3.83443">
        <ele>1184.0</ele>
      </trkpt>
      <trkpt lat="37.65199" lon="-3.83551">
        <ele>1179.0</ele>
      </trkpt>
      <trkpt lat="37.65149" lon="-3.83723">
        <ele>1174.0</ele>
      </trkpt>
      <trkpt lat="37.65188" lon="-3.83931">
        <ele>1167.0</ele>
      </trkpt>
      <trkpt lat="37.65363" lon="-3.84517">
        <ele>1155.0</ele>
      </trkpt>
      <trkpt lat="37.6538" lon="-3.84627">
        <ele>1156.0</ele>
      </trkpt>
      <trkpt lat="37.65363" lon="-3.84845">
        <ele>1153.0</ele>
      </trkpt>
      <trkpt lat="37.65371" lon="-3.85181">
        <ele>1146.0</ele>
      </trkpt>
      <trkpt lat="37.65317" lon="-3.85306">
        <ele>1142.0</ele>
      </trkpt>
      <trkpt lat="37.65313" lon="-3.85502">
        <ele>1132.0</ele>
      </trkpt>
      <trkpt lat="37.65456" lon="-3.86004">
        <ele>1100.0</ele>
      </trkpt>
      <trkpt lat="37.65514" lon="-3.86045">
        <ele>1089.0</ele>
      </trkpt>
      <trkpt lat="37.6554" lon="-3.86146">
        <ele>1085.0</ele>
      </trkpt>
      <trkpt lat="37.65542" lon="-3.86287">
        <ele>1083.0</ele>
      </trkpt>
      <trkpt lat="37.65674" lon="-3.86605">
        <ele>1087.0</ele>
      </trkpt>
      <trkpt lat="37.65815" lon="-3.86951">
        <ele>1079.0</ele>
      </trkpt>
      <trkpt lat="37.65934" lon="-3.872">
        <ele>1062.0</ele>
      </trkpt>
      <trkpt lat="37.65882" lon="-3.87508">
        <ele>1047.0</ele>
      </trkpt>
      <trkpt lat="37.65806" lon="-3.87812">
        <ele>1031.0</ele>
      </trkpt>
      <trkpt lat="37.65636" lon="-3.88072">
        <ele>1012.0</ele>
      </trkpt>
      <trkpt lat="37.65622" lon="-3.88144">
        <ele>1004.0</ele>
      </trkpt>
      <trkpt lat="37.65688" lon="-3.88308">
        <ele>996.0</ele>
      </trkpt>
      <trkpt lat="37.65713" lon="-3.88343">
        <ele>993.0</ele>
      </trkpt>
      <trkpt lat="37.65692" lon="-3.88364">
        <ele>990.0</ele>
      </trkpt>
      <trkpt lat="37.65594" lon="-3.88263">
        <ele>983.0</ele>
      </trkpt>
      <trkpt lat="37.65539" lon="-3.88323">
        <ele>977.0</ele>
      </trkpt>
      <trkpt lat="37.65513" lon="-3.88386">
        <ele>972.0</ele>
      </trkpt>
      <trkpt lat="37.65463" lon="-3.88454">
        <ele>965.0</ele>
      </trkpt>
      <trkpt lat="37.65443" lon="-3.88491">
        <ele>960.0</ele>
      </trkpt>
      <trkpt lat="37.65491" lon="-3.8849">
        <ele>955.0</ele>
      </trkpt>
      <trkpt lat="37.65547" lon="-3.88495">
        <ele>949.0</ele>
      </trkpt>
      <trkpt lat="37.65536" lon="-3.88624">
        <ele>940.0</ele>
      </trkpt>
      <trkpt lat="37.65539" lon="-3.88681">
        <ele>931.0</ele>
      </trkpt>
      <trkpt lat="37.65366" lon="-3.88802">
        <ele>920.0</ele>
      </trkpt>
      <trkpt lat="37.6524" lon="-3.89082">
        <ele>894.0</ele>
      </trkpt>
      <trkpt lat="37.65327" lon="-3.89079">
        <ele>881.0</ele>
      </trkpt>
      <trkpt lat="37.65402" lon="-3.89151">
        <ele>876.0</ele>
      </trkpt>
      <trkpt lat="37.65393" lon="-3.89183">
        <ele>872.0</ele>
      </trkpt>
      <trkpt lat="37.65355" lon="-3.89202">
        <ele>867.0</ele>
      </trkpt>
      <trkpt lat="37.65371" lon="-3.89254">
        <ele>862.0</ele>
      </trkpt>
      <trkpt lat="37.65344" lon="-3.89398">
        <ele>852.0</ele>
      </trkpt>
      <trkpt lat="37.65325" lon="-3.8975">
        <ele>830.0</ele>
      </trkpt>
      <trkpt lat="37.65361" lon="-3.89783">
        <ele>819.0</ele>
      </trkpt>
      <trkpt lat="37.65559" lon="-3.89706">
        <ele>812.0</ele>
      </trkpt>
      <trkpt lat="37.65596" lon="-3.89779">
        <ele>804.0</ele>
      </trkpt>
      <trkpt lat="37.65568" lon="-3.89794">
        <ele>800.0</ele>
      </trkpt>
      <trkpt lat="37.65539" lon="-3.89758">
        <ele>795.0</ele>
      </trkpt>
      <trkpt lat="37.65367" lon="-3.89902">
        <ele>782.0</ele>
      </trkpt>
      <trkpt lat="37.65251" lon="-3.89965">
        <ele>763.0</ele>
      </trkpt>
      <trkpt lat="37.6518" lon="-3.89922">
        <ele>755.0</ele>
      </trkpt>
      <trkpt lat="37.65165" lon="-3.89958">
        <ele>752.0</ele>
      </trkpt>
      <trkpt lat="37.65223" lon="-3.90032">
        <ele>748.0</ele>
      </trkpt>
      <trkpt lat="37.6518" lon="-3.90071">
        <ele>746.0</ele>
      </trkpt>
      <trkpt lat="37.64982" lon="-3.90196">
        <ele>739.0</ele>
      </trkpt>
      <trkpt lat="37.64948" lon="-3.90274">
        <ele>735.0</ele>
      </trkpt>
      <trkpt lat="37.6477" lon="-3.90436">
        <ele>728.0</ele>
      </trkpt>
      <trkpt lat="37.64719" lon="-3.90549">
        <ele>723.0</ele>
      </trkpt>
      <trkpt lat="37.64673" lon="-3.90589">
        <ele>721.0</ele>
      </trkpt>
      <trkpt lat="37.64537" lon="-3.90739">
        <ele>717.0</ele>
      </trkpt>
      <trkpt lat="37.64479" lon="-3.90855">
        <ele>713.0</ele>
      </trkpt>
      <trkpt lat="37.64422" lon="-3.90945">
        <ele>715.0</ele>
      </trkpt>
      <trkpt lat="37.64371" lon="-3.91043">
        <ele>715.0</ele>
      </trkpt>
      <trkpt lat="37.64322" lon="-3.91173">
        <ele>712.0</ele>
      </trkpt>
      <trkpt lat="37.64324" lon="-3.91248">
        <ele>709.0</ele>
      </trkpt>
      <trkpt lat="37.6435" lon="-3.91394">
        <ele>705.0</ele>
      </trkpt>
      <trkpt lat="37.64272" lon="-3.91604">
        <ele>700.0</ele>
      </trkpt>
      <trkpt lat="37.64186" lon="-3.91685">
        <ele>701.0</ele>
      </trkpt>
      <trkpt lat="37.64189" lon="-3.91781">
        <ele>704.0</ele>
      </trkpt>
      <trkpt lat="37.6412" lon="-3.91852">
        <ele>710.0</ele>
      </trkpt>
      <trkpt lat="37.6407" lon="-3.91921">
        <ele>716.0</ele>
      </trkpt>
      <trkpt lat="37.63845" lon="-3.91893">
        <ele>710.0</ele>
      </trkpt>
      <trkpt lat="37.63817" lon="-3.92007">
        <ele>709.0</ele>
      </trkpt>
      <trkpt lat="37.63842" lon="-3.92179">
        <ele>713.0</ele>
      </trkpt>
      <trkpt lat="37.63875" lon="-3.92458">
        <ele>718.0</ele>
      </trkpt>
      <trkpt lat="37.63922" lon="-3.92711">
        <ele>726.0</ele>
      </trkpt>
      <trkpt lat="37.63882" lon="-3.92791">
        <ele>727.0</ele>
      </trkpt>
      <trkpt lat="37.63706" lon="-3.92754">
        <ele>722.0</ele>
      </trkpt>
      <trkpt lat="37.63578" lon="-3.9276">
        <ele>714.0</ele>
      </trkpt>
      <trkpt lat="37.63411" lon="-3.92762">
        <ele>701.0</ele>
      </trkpt>
      <trkpt lat="37.63314" lon="-3.92715">
        <ele>695.0</ele>
      </trkpt>
      <trkpt lat="37.63181" lon="-3.92611">
        <ele>689.0</ele>
      </trkpt>
      <trkpt lat="37.63068" lon="-3.92462">
        <ele>686.0</ele>
      </trkpt>
      <trkpt lat="37.62923" lon="-3.92366">
        <ele>685.0</ele>
      </trkpt>
      <trkpt lat="37.62868" lon="-3.92109">
        <ele>683.0</ele>
      </trkpt>
      <trkpt lat="37.6283" lon="-3.92138">
        <ele>681.0</ele>
      </trkpt>
      <trkpt lat="37.62789" lon="-3.92262">
        <ele>678.0</ele>
      </trkpt>
      <trkpt lat="37.62699" lon="-3.92338">
        <ele>672.0</ele>
      </trkpt>
      <trkpt lat="37.62592" lon="-3.92037">
        <ele>660.0</ele>
      </trkpt>
      <trkpt lat="37.62311" lon="-3.91674">
        <ele>653.0</ele>
      </trkpt>
      <trkpt lat="37.62082" lon="-3.9161">
        <ele>656.0</ele>
      </trkpt>
      <trkpt lat="37.61725" lon="-3.91718">
        <ele>647.0</ele>
      </trkpt>
      <trkpt lat="37.61609" lon="-3.91857">
        <ele>629.0</ele>
      </trkpt>
      <trkpt lat="37.61587" lon="-3.91767">
        <ele>620.0</ele>
      </trkpt>
      <trkpt lat="37.61502" lon="-3.91786">
        <ele>617.0</ele>
      </trkpt>
      <trkpt lat="37.61382" lon="-3.91719">
        <ele>620.0</ele>
      </trkpt>
      <trkpt lat="37.61328" lon="-3.91661">
        <ele>625.0</ele>
      </trkpt>
      <trkpt lat="37.61302" lon="-3.91601">
        <ele>629.0</ele>
      </trkpt>
      <trkpt lat="37.61228" lon="-3.91622">
        <ele>633.0</ele>
      </trkpt>
      <trkpt lat="37.61101" lon="-3.91412">
        <ele>642.0</ele>
      </trkpt>
      <trkpt lat="37.60852" lon="-3.91324">
        <ele>655.0</ele>
      </trkpt>
      <trkpt lat="37.6065" lon="-3.91185">
        <ele>664.0</ele>
      </trkpt>
      <trkpt lat="37.6052" lon="-3.91081">
        <ele>670.0</ele>
      </trkpt>
      <trkpt lat="37.60288" lon="-3.91038">
        <ele>688.0</ele>
      </trkpt>
      <trkpt lat="37.60259" lon="-3.90961">
        <ele>694.0</ele>
      </trkpt>
      <trkpt lat="37.60214" lon="-3.90912">
        <ele>698.0</ele>
      </trkpt>
      <trkpt lat="37.60178" lon="-3.90794">
        <ele>705.0</ele>
      </trkpt>
      <trkpt lat="37.6006" lon="-3.90883">
        <ele>715.0</ele>
      </trkpt>
      <trkpt lat="37.60064" lon="-3.90945">
        <ele>720.0</ele>
      </trkpt>
      <trkpt lat="37.60023" lon="-3.91037">
        <ele>723.0</ele>
      </trkpt>
      <trkpt lat="37.59965" lon="-3.90971">
        <ele>727.0</ele>
      </trkpt>
      <trkpt lat="37.59934" lon="-3.90701">
        <ele>735.0</ele>
      </trkpt>
      <trkpt lat="37.59931" lon="-3.90535">
        <ele>747.0</ele>
      </trkpt>
      <trkpt lat="37.59615" lon="-3.90456">
        <ele>757.0</ele>
      </trkpt>
      <trkpt lat="37.59504" lon="-3.90476">
        <ele>754.0</ele>
      </trkpt>
      <trkpt lat="37.59461" lon="-3.90439">
        <ele>752.0</ele>
      </trkpt>
      <trkpt lat="37.59497" lon="-3.90386">
        <ele>751.0</ele>
      </trkpt>
      <trkpt lat="37.5956" lon="-3.90257">
        <ele>745.0</ele>
      </trkpt>
      <trkpt lat="37.59483" lon="-3.90136">
        <ele>737.0</ele>
      </trkpt>
      <trkpt lat="37.59369" lon="-3.90111">
        <ele>731.0</ele>
      </trkpt>
      <trkpt lat="37.59232" lon="-3.90065">
        <ele>723.0</ele>
      </trkpt>
      <trkpt lat="37.59121" lon="-3.89998">
        <ele>717.0</ele>
      </trkpt>
      <trkpt lat="37.5898" lon="-3.90014">
        <ele>713.0</ele>
      </trkpt>
      <trkpt lat="37.58842" lon="-3.89993">
        <ele>704.0</ele>
      </trkpt>
      <trkpt lat="37.58673" lon="-3.90118">
        <ele>690.0</ele>
      </trkpt>
      <trkpt lat="37.58607" lon="-3.90257">
        <ele>684.0</ele>
      </trkpt>
      <trkpt lat="37.58546" lon="-3.9048">
        <ele>679.0</ele>
      </trkpt>
      <trkpt lat="37.58322" lon="-3.90838">
        <ele>663.0</ele>
      </trkpt>
      <trkpt lat="37.58319" lon="-3.91083">
        <ele>659.0</ele>
      </trkpt>
      <trkpt lat="37.58284" lon="-3.91257">
        <ele>650.0</ele>
      </trkpt>
      <trkpt lat="37.58228" lon="-3.91303">
        <ele>644.0</ele>
      </trkpt>
      <trkpt lat="37.58264" lon="-3.9134">
        <ele>646.0</ele>
      </trkpt>
      <trkpt lat="37.58421" lon="-3.91391">
        <ele>651.0</ele>
      </trkpt>
      <trkpt lat="37.58428" lon="-3.91425">
        <ele>655.0</ele>
      </trkpt>
      <trkpt lat="37.58356" lon="-3.91391">
        <ele>659.0</ele>
      </trkpt>
      <trkpt lat="37.58272" lon="-3.91381">
        <ele>663.0</ele>
      </trkpt>
      <trkpt lat="37.58086" lon="-3.91309">
        <ele>676.0</ele>
      </trkpt>
      <trkpt lat="37.57881" lon="-3.9134">
        <ele>690.0</ele>
      </trkpt>
      <trkpt lat="37.57772" lon="-3.91542">
        <ele>703.0</ele>
      </trkpt>
      <trkpt lat="37.57631" lon="-3.91647">
        <ele>715.0</ele>
      </trkpt>
      <trkpt lat="37.57421" lon="-3.91891">
        <ele>718.0</ele>
      </trkpt>
      <trkpt lat="37.57191" lon="-3.91959">
        <ele>709.0</ele>
      </trkpt>
      <trkpt lat="37.57129" lon="-3.9196">
        <ele>704.0</ele>
      </trkpt>
      <trkpt lat="37.57042" lon="-3.91997">
        <ele>700.0</ele>
      </trkpt>
      <trkpt lat="37.56931" lon="-3.92041">
        <ele>696.0</ele>
      </trkpt>
      <trkpt lat="37.56839" lon="-3.92104">
        <ele>691.0</ele>
      </trkpt>
      <trkpt lat="37.56849" lon="-3.92157">
        <ele>685.0</ele>
      </trkpt>
      <trkpt lat="37.56635" lon="-3.92256">
        <ele>667.0</ele>
      </trkpt>
      <trkpt lat="37.56536" lon="-3.92372">
        <ele>658.0</ele>
      </trkpt>
      <trkpt lat="37.56544" lon="-3.92458">
        <ele>655.0</ele>
      </trkpt>
      <trkpt lat="37.56502" lon="-3.92632">
        <ele>652.0</ele>
      </trkpt>
      <trkpt lat="37.56399" lon="-3.93004">
        <ele>647.0</ele>
      </trkpt>
      <trkpt lat="37.56224" lon="-3.93264">
        <ele>646.0</ele>
      </trkpt>
      <trkpt lat="37.56116" lon="-3.93444">
        <ele>654.0</ele>
      </trkpt>
      <trkpt lat="37.56028" lon="-3.93505">
        <ele>662.0</ele>
      </trkpt>
      <trkpt lat="37.559" lon="-3.93608">
        <ele>668.0</ele>
      </trkpt>
      <trkpt lat="37.55771" lon="-3.93863">
        <ele>668.0</ele>
      </trkpt>
      <trkpt lat="37.55647" lon="-3.94064">
        <ele>666.0</ele>
      </trkpt>
      <trkpt lat="37.55416" lon="-3.94397">
        <ele>666.0</ele>
      </trkpt>
      <trkpt lat="37.55236" lon="-3.94506">
        <ele>669.0</ele>
      </trkpt>
      <trkpt lat="37.55083" lon="-3.94588">
        <ele>670.0</ele>
      </trkpt>
      <trkpt lat="37.54775" lon="-3.946">
        <ele>683.0</ele>
      </trkpt>
      <trkpt lat="37.54457" lon="-3.94545">
        <ele>678.0</ele>
      </trkpt>
      <trkpt lat="37.54281" lon="-3.94506">
        <ele>675.0</ele>
      </trkpt>
      <trkpt lat="37.53895" lon="-3.94543">
        <ele>667.0</ele>
      </trkpt>
      <trkpt lat="37.53671" lon="-3.94599">
        <ele>652.0</ele>
      </trkpt>
      <trkpt lat="37.53531" lon="-3.94508">
        <ele>633.0</ele>
      </trkpt>
      <trkpt lat="37.53413" lon="-3.94451">
        <ele>627.0</ele>
      </trkpt>
      <trkpt lat="37.53227" lon="-3.94508">
        <ele>635.0</ele>
      </trkpt>
      <trkpt lat="37.53237" lon="-3.94358">
        <ele>641.0</ele>
      </trkpt>
      <trkpt lat="37.53304" lon="-3.94205">
        <ele>644.0</ele>
      </trkpt>
      <trkpt lat="37.53312" lon="-3.9403">
        <ele>645.0</ele>
      </trkpt>
      <trkpt lat="37.5331" lon="-3.93985">
        <ele>646.0</ele>
      </trkpt>
      <trkpt lat="37.53386" lon="-3.93724">
        <ele>652.0</ele>
      </trkpt>
      <trkpt lat="37.53433" lon="-3.93723">
        <ele>654.0</ele>
      </trkpt>
      <trkpt lat="37.53548" lon="-3.93716">
        <ele>649.0</ele>
      </trkpt>
      <trkpt lat="37.53582" lon="-3.93627">
        <ele>645.0</ele>
      </trkpt>
      <trkpt lat="37.53612" lon="-3.93544">
        <ele>643.0</ele>
      </trkpt>
      <trkpt lat="37.53747" lon="-3.93469">
        <ele>643.0</ele>
      </trkpt>
      <trkpt lat="37.53787" lon="-3.93432">
        <ele>646.0</ele>
      </trkpt>
      <trkpt lat="37.53865" lon="-3.93357">
        <ele>650.0</ele>
      </trkpt>
      <trkpt lat="37.54008" lon="-3.93186">
        <ele>657.0</ele>
      </trkpt>
      <trkpt lat="37.54097" lon="-3.9308">
        <ele>664.0</ele>
      </trkpt>
      <trkpt lat="37.54233" lon="-3.92946">
        <ele>675.0</ele>
      </trkpt>
      <trkpt lat="37.54319" lon="-3.92857">
        <ele>687.0</ele>
      </trkpt>
      <trkpt lat="37.54374" lon="-3.92766">
        <ele>695.0</ele>
      </trkpt>
      <trkpt lat="37.54467" lon="-3.92702">
        <ele>702.0</ele>
      </trkpt>
      <trkpt lat="37.54495" lon="-3.92648">
        <ele>708.0</ele>
      </trkpt>
      <trkpt lat="37.5452" lon="-3.92584">
        <ele>712.0</ele>
      </trkpt>
      <trkpt lat="37.5452" lon="-3.92533">
        <ele>715.0</ele>
      </trkpt>
      <trkpt lat="37.54545" lon="-3.9246">
        <ele>720.0</ele>
      </trkpt>
      <trkpt lat="37.5458" lon="-3.92449">
        <ele>725.0</ele>
      </trkpt>
      <trkpt lat="37.54653" lon="-3.92461">
        <ele>732.0</ele>
      </trkpt>
      <trkpt lat="37.54715" lon="-3.92377">
        <ele>736.0</ele>
      </trkpt>
      <trkpt lat="37.54723" lon="-3.92332">
        <ele>739.0</ele>
      </trkpt>
      <trkpt lat="37.54704" lon="-3.92273">
        <ele>741.0</ele>
      </trkpt>
      <trkpt lat="37.54728" lon="-3.92212">
        <ele>744.0</ele>
      </trkpt>
      <trkpt lat="37.5477" lon="-3.92178">
        <ele>749.0</ele>
      </trkpt>
      <trkpt lat="37.5487" lon="-3.92117">
        <ele>758.0</ele>
      </trkpt>
      <trkpt lat="37.54899" lon="-3.92072">
        <ele>761.0</ele>
      </trkpt>
      <trkpt lat="37.54876" lon="-3.9205">
        <ele>762.0</ele>
      </trkpt>
      <trkpt lat="37.54742" lon="-3.92045">
        <ele>765.0</ele>
      </trkpt>
      <trkpt lat="37.54729" lon="-3.91995">
        <ele>770.0</ele>
      </trkpt>
      <trkpt lat="37.5476" lon="-3.91942">
        <ele>776.0</ele>
      </trkpt>
      <trkpt lat="37.54815" lon="-3.91881">
        <ele>784.0</ele>
      </trkpt>
      <trkpt lat="37.54873" lon="-3.91811">
        <ele>790.0</ele>
      </trkpt>
      <trkpt lat="37.54913" lon="-3.91771">
        <ele>792.0</ele>
      </trkpt>
      <trkpt lat="37.54899" lon="-3.91717">
        <ele>794.0</ele>
      </trkpt>
      <trkpt lat="37.54901" lon="-3.91669">
        <ele>796.0</ele>
      </trkpt>
      <trkpt lat="37.54868" lon="-3.91668">
        <ele>797.0</ele>
      </trkpt>
      <trkpt lat="37.54818" lon="-3.91677">
        <ele>799.0</ele>
      </trkpt>
      <trkpt lat="37.54809" lon="-3.91635">
        <ele>800.0</ele>
      </trkpt>
      <trkpt lat="37.54806" lon="-3.91554">
        <ele>803.0</ele>
      </trkpt>
      <trkpt lat="37.54734" lon="-3.9153">
        <ele>806.0</ele>
      </trkpt>
      <trkpt lat="37.54724" lon="-3.91483">
        <ele>807.0</ele>
      </trkpt>
      <trkpt lat="37.5477" lon="-3.9141">
        <ele>811.0</ele>
      </trkpt>
      <trkpt lat="37.54779" lon="-3.91318">
        <ele>816.0</ele>
      </trkpt>
      <trkpt lat="37.54812" lon="-3.91205">
        <ele>822.0</ele>
      </trkpt>
      <trkpt lat="37.54853" lon="-3.91151">
        <ele>821.0</ele>
      </trkpt>
      <trkpt lat="37.54963" lon="-3.91127">
        <ele>817.0</ele>
      </trkpt>
      <trkpt lat="37.5505" lon="-3.91049">
        <ele>813.0</ele>
      </trkpt>
      <trkpt lat="37.5505" lon="-3.9098">
        <ele>810.0</ele>
      </trkpt>
      <trkpt lat="37.55107" lon="-3.90862">
        <ele>809.0</ele>
      </trkpt>
      <trkpt lat="37.5513" lon="-3.9075">
        <ele>809.0</ele>
      </trkpt>
      <trkpt lat="37.55129" lon="-3.90651">
        <ele>811.0</ele>
      </trkpt>
      <trkpt lat="37.55165" lon="-3.90633">
        <ele>811.0</ele>
      </trkpt>
      <trkpt lat="37.55233" lon="-3.90603">
        <ele>813.0</ele>
      </trkpt>
      <trkpt lat="37.55277" lon="-3.90619">
        <ele>814.0</ele>
      </trkpt>
      <trkpt lat="37.55302" lon="-3.9069">
        <ele>815.0</ele>
      </trkpt>
      <trkpt lat="37.55332" lon="-3.90718">
        <ele>817.0</ele>
      </trkpt>
      <trkpt lat="37.55377" lon="-3.90659">
        <ele>820.0</ele>
      </trkpt>
      <trkpt lat="37.55414" lon="-3.90643">
        <ele>824.0</ele>
      </trkpt>
      <trkpt lat="37.5543" lon="-3.90675">
        <ele>827.0</ele>
      </trkpt>
      <trkpt lat="37.55439" lon="-3.90765">
        <ele>831.0</ele>
      </trkpt>
      <trkpt lat="37.55463" lon="-3.90803">
        <ele>835.0</ele>
      </trkpt>
      <trkpt lat="37.55493" lon="-3.90787">
        <ele>838.0</ele>
      </trkpt>
      <trkpt lat="37.55604" lon="-3.90581">
        <ele>849.0</ele>
      </trkpt>
      <trkpt lat="37.55635" lon="-3.90506">
        <ele>858.0</ele>
      </trkpt>
      <trkpt lat="37.55613" lon="-3.90428">
        <ele>864.0</ele>
      </trkpt>
      <trkpt lat="37.55636" lon="-3.90355">
        <ele>870.0</ele>
      </trkpt>
      <trkpt lat="37.55651" lon="-3.90269">
        <ele>876.0</ele>
      </trkpt>
      <trkpt lat="37.55676" lon="-3.90235">
        <ele>880.0</ele>
      </trkpt>
      <trkpt lat="37.55712" lon="-3.90252">
        <ele>882.0</ele>
      </trkpt>
      <trkpt lat="37.55774" lon="-3.90246">
        <ele>884.0</ele>
      </trkpt>
      <trkpt lat="37.55814" lon="-3.90168">
        <ele>886.0</ele>
      </trkpt>
      <trkpt lat="37.55835" lon="-3.90049">
        <ele>893.0</ele>
      </trkpt>
      <trkpt lat="37.55917" lon="-3.89992">
        <ele>900.0</ele>
      </trkpt>
      <trkpt lat="37.55949" lon="-3.89994">
        <ele>904.0</ele>
      </trkpt>
      <trkpt lat="37.55974" lon="-3.90013">
        <ele>907.0</ele>
      </trkpt>
      <trkpt lat="37.55998" lon="-3.89977">
        <ele>909.0</ele>
      </trkpt>
      <trkpt lat="37.5599" lon="-3.89894">
        <ele>914.0</ele>
      </trkpt>
      <trkpt lat="37.56009" lon="-3.89822">
        <ele>917.0</ele>
      </trkpt>
      <trkpt lat="37.5604" lon="-3.89767">
        <ele>923.0</ele>
      </trkpt>
      <trkpt lat="37.56092" lon="-3.89713">
        <ele>930.0</ele>
      </trkpt>
      <trkpt lat="37.56084" lon="-3.89622">
        <ele>935.0</ele>
      </trkpt>
      <trkpt lat="37.56056" lon="-3.89578">
        <ele>939.0</ele>
      </trkpt>
      <trkpt lat="37.56065" lon="-3.89462">
        <ele>945.0</ele>
      </trkpt>
      <trkpt lat="37.56077" lon="-3.894">
        <ele>951.0</ele>
      </trkpt>
      <trkpt lat="37.56127" lon="-3.89374">
        <ele>955.0</ele>
      </trkpt>
      <trkpt lat="37.56151" lon="-3.89311">
        <ele>959.0</ele>
      </trkpt>
      <trkpt lat="37.56133" lon="-3.89231">
        <ele>965.0</ele>
      </trkpt>
      <trkpt lat="37.56159" lon="-3.89158">
        <ele>970.0</ele>
      </trkpt>
      <trkpt lat="37.56153" lon="-3.89091">
        <ele>975.0</ele>
      </trkpt>
      <trkpt lat="37.56181" lon="-3.8906">
        <ele>980.0</ele>
      </trkpt>
      <trkpt lat="37.56226" lon="-3.89054">
        <ele>982.0</ele>
      </trkpt>
      <trkpt lat="37.56276" lon="-3.89021">
        <ele>985.0</ele>
      </trkpt>
      <trkpt lat="37.56278" lon="-3.89063">
        <ele>987.0</ele>
      </trkpt>
      <trkpt lat="37.56277" lon="-3.89167">
        <ele>990.0</ele>
      </trkpt>
      <trkpt lat="37.56299" lon="-3.8918">
        <ele>992.0</ele>
      </trkpt>
      <trkpt lat="37.56379" lon="-3.89102">
        <ele>996.0</ele>
      </trkpt>
      <trkpt lat="37.56438" lon="-3.88981">
        <ele>1003.0</ele>
      </trkpt>
      <trkpt lat="37.56422" lon="-3.88935">
        <ele>1007.0</ele>
      </trkpt>
      <trkpt lat="37.56417" lon="-3.88892">
        <ele>1010.0</ele>
      </trkpt>
      <trkpt lat="37.56446" lon="-3.88798">
        <ele>1015.0</ele>
      </trkpt>
      <trkpt lat="37.56416" lon="-3.88742">
        <ele>1020.0</ele>
      </trkpt>
      <trkpt lat="37.56414" lon="-3.88642">
        <ele>1025.0</ele>
      </trkpt>
      <trkpt lat="37.56423" lon="-3.88472">
        <ele>1034.0</ele>
      </trkpt>
      <trkpt lat="37.56404" lon="-3.88394">
        <ele>1038.0</ele>
      </trkpt>
      <trkpt lat="37.56401" lon="-3.88359">
        <ele>1039.0</ele>
      </trkpt>
      <trkpt lat="37.56473" lon="-3.88246">
        <ele>1043.0</ele>
      </trkpt>
      <trkpt lat="37.56465" lon="-3.8811">
        <ele>1053.0</ele>
      </trkpt>
      <trkpt lat="37.5652" lon="-3.88072">
        <ele>1059.0</ele>
      </trkpt>
      <trkpt lat="37.56578" lon="-3.88025">
        <ele>1064.0</ele>
      </trkpt>
      <trkpt lat="37.56592" lon="-3.87946">
        <ele>1067.0</ele>
      </trkpt>
      <trkpt lat="37.56629" lon="-3.87783">
        <ele>1071.0</ele>
      </trkpt>
      <trkpt lat="37.56647" lon="-3.87653">
        <ele>1074.0</ele>
      </trkpt>
      <trkpt lat="37.56658" lon="-3.87534">
        <ele>1076.0</ele>
      </trkpt>
      <trkpt lat="37.56639" lon="-3.87338">
        <ele>1081.0</ele>
      </trkpt>
      <trkpt lat="37.56591" lon="-3.87139">
        <ele>1090.0</ele>
      </trkpt>
      <trkpt lat="37.56555" lon="-3.86953">
        <ele>1088.0</ele>
      </trkpt>
      <trkpt lat="37.5652" lon="-3.8689">
        <ele>1083.0</ele>
      </trkpt>
      <trkpt lat="37.56519" lon="-3.86798">
        <ele>1080.0</ele>
      </trkpt>
      <trkpt lat="37.56481" lon="-3.86747">
        <ele>1076.0</ele>
      </trkpt>
      <trkpt lat="37.56429" lon="-3.8675">
        <ele>1073.0</ele>
      </trkpt>
      <trkpt lat="37.56402" lon="-3.86726">
        <ele>1069.0</ele>
      </trkpt>
      <trkpt lat="37.56389" lon="-3.86649">
        <ele>1064.0</ele>
      </trkpt>
      <trkpt lat="37.56374" lon="-3.86607">
        <ele>1060.0</ele>
      </trkpt>
      <trkpt lat="37.56371" lon="-3.86557">
        <ele>1055.0</ele>
      </trkpt>
      <trkpt lat="37.56332" lon="-3.86541">
        <ele>1052.0</ele>
      </trkpt>
      <trkpt lat="37.56312" lon="-3.8649">
        <ele>1048.0</ele>
      </trkpt>
      <trkpt lat="37.56323" lon="-3.86396">
        <ele>1043.0</ele>
      </trkpt>
      <trkpt lat="37.56288" lon="-3.86286">
        <ele>1036.0</ele>
      </trkpt>
      <trkpt lat="37.56314" lon="-3.86248">
        <ele>1033.0</ele>
      </trkpt>
      <trkpt lat="37.56411" lon="-3.86185">
        <ele>1027.0</ele>
      </trkpt>
      <trkpt lat="37.56493" lon="-3.86052">
        <ele>1017.0</ele>
      </trkpt>
      <trkpt lat="37.56512" lon="-3.85975">
        <ele>1012.0</ele>
      </trkpt>
      <trkpt lat="37.56581" lon="-3.8592">
        <ele>1008.0</ele>
      </trkpt>
      <trkpt lat="37.56626" lon="-3.85832">
        <ele>1003.0</ele>
      </trkpt>
      <trkpt lat="37.56659" lon="-3.85738">
        <ele>1002.0</ele>
      </trkpt>
      <trkpt lat="37.56656" lon="-3.85665">
        <ele>1002.0</ele>
      </trkpt>
      <trkpt lat="37.56697" lon="-3.85634">
        <ele>999.0</ele>
      </trkpt>
      <trkpt lat="37.56732" lon="-3.85548">
        <ele>993.0</ele>
      </trkpt>
      <trkpt lat="37.56766" lon="-3.85478">
        <ele>987.0</ele>
      </trkpt>
      <trkpt lat="37.5685" lon="-3.85482">
        <ele>982.0</ele>
      </trkpt>
      <trkpt lat="37.56915" lon="-3.85452">
        <ele>975.0</ele>
      </trkpt>
      <trkpt lat="37.56967" lon="-3.85382">
        <ele>971.0</ele>
      </trkpt>
      <trkpt lat="37.56946" lon="-3.85346">
        <ele>970.0</ele>
      </trkpt>
      <trkpt lat="37.56854" lon="-3.85347">
        <ele>968.0</ele>
      </trkpt>
      <trkpt lat="37.56821" lon="-3.85315">
        <ele>965.0</ele>
      </trkpt>
      <trkpt lat="37.56832" lon="-3.85248">
        <ele>960.0</ele>
      </trkpt>
      <trkpt lat="37.56881" lon="-3.85198">
        <ele>955.0</ele>
      </trkpt>
      <trkpt lat="37.56883" lon="-3.85124">
        <ele>951.0</ele>
      </trkpt>
      <trkpt lat="37.56913" lon="-3.85086">
        <ele>949.0</ele>
      </trkpt>
      <trkpt lat="37.56981" lon="-3.85078">
        <ele>947.0</ele>
      </trkpt>
      <trkpt lat="37.57026" lon="-3.84975">
        <ele>944.0</ele>
      </trkpt>
      <trkpt lat="37.57062" lon="-3.84937">
        <ele>940.0</ele>
      </trkpt>
      <trkpt lat="37.57146" lon="-3.84924">
        <ele>936.0</ele>
      </trkpt>
      <trkpt lat="37.57221" lon="-3.84828">
        <ele>933.0</ele>
      </trkpt>
      <trkpt lat="37.57296" lon="-3.84787">
        <ele>929.0</ele>
      </trkpt>
      <trkpt lat="37.57344" lon="-3.84814">
        <ele>927.0</ele>
      </trkpt>
      <trkpt lat="37.57391" lon="-3.84846">
        <ele>925.0</ele>
      </trkpt>
      <trkpt lat="37.57445" lon="-3.84717">
        <ele>922.0</ele>
      </trkpt>
      <trkpt lat="37.5747" lon="-3.84688">
        <ele>921.0</ele>
      </trkpt>
      <trkpt lat="37.5752" lon="-3.84727">
        <ele>921.0</ele>
      </trkpt>
      <trkpt lat="37.5757" lon="-3.84749">
        <ele>921.0</ele>
      </trkpt>
      <trkpt lat="37.57665" lon="-3.84748">
        <ele>924.0</ele>
      </trkpt>
      <trkpt lat="37.57739" lon="-3.84785">
        <ele>927.0</ele>
      </trkpt>
      <trkpt lat="37.57802" lon="-3.84714">
        <ele>928.0</ele>
      </trkpt>
      <trkpt lat="37.57888" lon="-3.84633">
        <ele>926.0</ele>
      </trkpt>
      <trkpt lat="37.57931" lon="-3.84438">
        <ele>923.0</ele>
      </trkpt>
      <trkpt lat="37.58002" lon="-3.84274">
        <ele>915.0</ele>
      </trkpt>
      <trkpt lat="37.58086" lon="-3.84255">
        <ele>908.0</ele>
      </trkpt>
      <trkpt lat="37.5812" lon="-3.84222">
        <ele>905.0</ele>
      </trkpt>
      <trkpt lat="37.58219" lon="-3.84117">
        <ele>901.0</ele>
      </trkpt>
      <trkpt lat="37.58319" lon="-3.84074">
        <ele>892.0</ele>
      </trkpt>
      <trkpt lat="37.5842" lon="-3.84013">
        <ele>882.0</ele>
      </trkpt>
      <trkpt lat="37.5843" lon="-3.83945">
        <ele>878.0</ele>
      </trkpt>
      <trkpt lat="37.58434" lon="-3.83821">
        <ele>875.0</ele>
      </trkpt>
      <trkpt lat="37.58427" lon="-3.83683">
        <ele>872.0</ele>
      </trkpt>
      <trkpt lat="37.58411" lon="-3.83613">
        <ele>871.0</ele>
      </trkpt>
      <trkpt lat="37.5846" lon="-3.83538">
        <ele>870.0</ele>
      </trkpt>
      <trkpt lat="37.58497" lon="-3.83419">
        <ele>871.0</ele>
      </trkpt>
      <trkpt lat="37.5854" lon="-3.8315">
        <ele>872.0</ele>
      </trkpt>
      <trkpt lat="37.58549" lon="-3.83041">
        <ele>872.0</ele>
      </trkpt>
      <trkpt lat="37.58535" lon="-3.82982">
        <ele>873.0</ele>
      </trkpt>
      <trkpt lat="37.58583" lon="-3.82869">
        <ele>875.0</ele>
      </trkpt>
      <trkpt lat="37.58624" lon="-3.82665">
        <ele>882.0</ele>
      </trkpt>
      <trkpt lat="37.58677" lon="-3.82496">
        <ele>890.0</ele>
      </trkpt>
      <trkpt lat="37.58747" lon="-3.8227">
        <ele>897.0</ele>
      </trkpt>
      <trkpt lat="37.58778" lon="-3.82124">
        <ele>904.0</ele>
      </trkpt>
      <trkpt lat="37.58785" lon="-3.81996">
        <ele>906.0</ele>
      </trkpt>
      <trkpt lat="37.58837" lon="-3.81911">
        <ele>908.0</ele>
      </trkpt>
      <trkpt lat="37.58885" lon="-3.81861">
        <ele>913.0</ele>
      </trkpt>
      <trkpt lat="37.58993" lon="-3.81703">
        <ele>924.0</ele>
      </trkpt>
      <trkpt lat="37.59019" lon="-3.81598">
        <ele>940.0</ele>
      </trkpt>
      <trkpt lat="37.59008" lon="-3.81363">
        <ele>962.0</ele>
      </trkpt>
      <trkpt lat="37.59" lon="-3.81296">
        <ele>972.0</ele>
      </trkpt>
      <trkpt lat="37.5903" lon="-3.81146">
        <ele>977.0</ele>
      </trkpt>
      <trkpt lat="37.59134" lon="-3.81111">
        <ele>975.0</ele>
      </trkpt>
      <trkpt lat="37.59196" lon="-3.81091">
        <ele>965.0</ele>
      </trkpt>
      <trkpt lat="37.59218" lon="-3.81074">
        <ele>960.0</ele>
      </trkpt>
      <trkpt lat="37.59325" lon="-3.81026">
        <ele>954.0</ele>
      </trkpt>
      <trkpt lat="37.59414" lon="-3.81077">
        <ele>951.0</ele>
      </trkpt>
      <trkpt lat="37.59503" lon="-3.81111">
        <ele>944.0</ele>
      </trkpt>
      <trkpt lat="37.59613" lon="-3.81171">
        <ele>933.0</ele>
      </trkpt>
      <trkpt lat="37.59706" lon="-3.81248">
        <ele>922.0</ele>
      </trkpt>
      <trkpt lat="37.59764" lon="-3.81212">
        <ele>917.0</ele>
      </trkpt>
      <trkpt lat="37.59818" lon="-3.81183">
        <ele>914.0</ele>
      </trkpt>
      <trkpt lat="37.59891" lon="-3.8118">
        <ele>911.0</ele>
      </trkpt>
      <trkpt lat="37.60014" lon="-3.81174">
        <ele>909.0</ele>
      </trkpt>
      <trkpt lat="37.60078" lon="-3.81173">
        <ele>909.0</ele>
      </trkpt>
      <trkpt lat="37.60147" lon="-3.81147">
        <ele>910.0</ele>
      </trkpt>
      <trkpt lat="37.60278" lon="-3.81058">
        <ele>917.0</ele>
      </trkpt>
      <trkpt lat="37.60391" lon="-3.81052">
        <ele>923.0</ele>
      </trkpt>
      <trkpt lat="37.60546" lon="-3.81143">
        <ele>931.0</ele>
      </trkpt>
      <trkpt lat="37.60617" lon="-3.81188">
        <ele>936.0</ele>
      </trkpt>
      <trkpt lat="37.60768" lon="-3.81356">
        <ele>948.0</ele>
      </trkpt>
      <trkpt lat="37.60832" lon="-3.81473">
        <ele>960.0</ele>
      </trkpt>
      <trkpt lat="37.60842" lon="-3.81559">
        <ele>968.0</ele>
      </trkpt>
      <trkpt lat="37.60808" lon="-3.81685">
        <ele>976.0</ele>
      </trkpt>
      <trkpt lat="37.60868" lon="-3.81782">
        <ele>983.0</ele>
      </trkpt>
      <trkpt lat="37.6091" lon="-3.81842">
        <ele>990.0</ele>
      </trkpt>
      <trkpt lat="37.60956" lon="-3.8202">
        <ele>1002.0</ele>
      </trkpt>
      <trkpt lat="37.61033" lon="-3.82092">
        <ele>1012.0</ele>
      </trkpt>
      <trkpt lat="37.61262" lon="-3.82194">
        <ele>1027.0</ele>
      </trkpt>
      <trkpt lat="37.61314" lon="-3.82191">
        <ele>1034.0</ele>
      </trkpt>
      <trkpt lat="37.61399" lon="-3.82159">
        <ele>1043.0</ele>
      </trkpt>
      <trkpt lat="37.6145" lon="-3.82179">
        <ele>1049.0</ele>
      </trkpt>
      <trkpt lat="37.61485" lon="-3.82235">
        <ele>1056.0</ele>
      </trkpt>
      <trkpt lat="37.61493" lon="-3.82357">
        <ele>1068.0</ele>
      </trkpt>
      <trkpt lat="37.61522" lon="-3.82415">
        <ele>1076.0</ele>
      </trkpt>
      <trkpt lat="37.6157" lon="-3.82436">
        <ele>1081.0</ele>
      </trkpt>
      <trkpt lat="37.61782" lon="-3.82415">
        <ele>1093.0</ele>
      </trkpt>
      <trkpt lat="37.62141" lon="-3.82558">
        <ele>1119.0</ele>
      </trkpt>
      <trkpt lat="37.62235" lon="-3.82575">
        <ele>1141.0</ele>
      </trkpt>
      <trkpt lat="37.62673" lon="-3.82421">
        <ele>1165.0</ele>
      </trkpt>
      <trkpt lat="37.62796" lon="-3.8243">
        <ele>1167.0</ele>
      </trkpt>
      <trkpt lat="37.6286" lon="-3.82353">
        <ele>1160.0</ele>
      </trkpt>
      <trkpt lat="37.62913" lon="-3.82305">
        <ele>1150.0</ele>
      </trkpt>
      <trkpt lat="37.62969" lon="-3.82318">
        <ele>1151.0</ele>
      </trkpt>
      <trkpt lat="37.62972" lon="-3.82286">
        <ele>1157.0</ele>
      </trkpt>
      <trkpt lat="37.62953" lon="-3.82079">
        <ele>1170.0</ele>
      </trkpt>
      <trkpt lat="37.62978" lon="-3.81936">
        <ele>1184.0</ele>
      </trkpt>
      <trkpt lat="37.63052" lon="-3.81655">
        <ele>1203.0</ele>
      </trkpt>
      <trkpt lat="37.63082" lon="-3.81554">
        <ele>1217.0</ele>
      </trkpt>
      <trkpt lat="37.63034" lon="-3.81492">
        <ele>1224.0</ele>
      </trkpt>
      <trkpt lat="37.62962" lon="-3.81367">
        <ele>1235.0</ele>
      </trkpt>
      <trkpt lat="37.6297" lon="-3.81307">
        <ele>1247.0</ele>
      </trkpt>
      <trkpt lat="37.63004" lon="-3.81254">
        <ele>1255.0</ele>
      </trkpt>
      <trkpt lat="37.62981" lon="-3.81166">
        <ele>1265.0</ele>
      </trkpt>
      <trkpt lat="37.62885" lon="-3.80874">
        <ele>1297.0</ele>
      </trkpt>
      <trkpt lat="37.62874" lon="-3.80821">
        <ele>1303.0</ele>
      </trkpt>
      <trkpt lat="37.62883" lon="-3.80759">
        <ele>1305.0</ele>
      </trkpt>
      <trkpt lat="37.62907" lon="-3.80754">
        <ele>1306.0</ele>
      </trkpt>
      <trkpt lat="37.6294" lon="-3.808">
        <ele>1307.0</ele>
      </trkpt>
      <trkpt lat="37.63001" lon="-3.8082">
        <ele>1308.0</ele>
      </trkpt>
      <trkpt lat="37.63053" lon="-3.80874">
        <ele>1309.0</ele>
      </trkpt>
      <trkpt lat="37.63157" lon="-3.80973">
        <ele>1315.0</ele>
      </trkpt>
      <trkpt lat="37.63193" lon="-3.81005">
        <ele>1319.0</ele>
      </trkpt>
      <trkpt lat="37.63257" lon="-3.81012">
        <ele>1324.0</ele>
      </trkpt>
      <trkpt lat="37.63299" lon="-3.80996">
        <ele>1330.0</ele>
      </trkpt>
      <trkpt lat="37.63351" lon="-3.81016">
        <ele>1335.0</ele>
      </trkpt>
      <trkpt lat="37.63376" lon="-3.81042">
        <ele>1340.0</ele>
      </trkpt>
      <trkpt lat="37.63384" lon="-3.81116">
        <ele>1343.0</ele>
      </trkpt>
      <trkpt lat="37.63358" lon="-3.81178">
        <ele>1346.0</ele>
      </trkpt>
      <trkpt lat="37.63397" lon="-3.8129">
        <ele>1350.0</ele>
      </trkpt>
      <trkpt lat="37.63441" lon="-3.81419">
        <ele>1355.0</ele>
      </trkpt>
      <trkpt lat="37.63511" lon="-3.81603">
        <ele>1364.0</ele>
      </trkpt>
      <trkpt lat="37.63528" lon="-3.81677">
        <ele>1371.0</ele>
      </trkpt>
      <trkpt lat="37.63565" lon="-3.81669">
        <ele>1375.0</ele>
      </trkpt>
      <trkpt lat="37.6358" lon="-3.8153">
        <ele>1381.0</ele>
      </trkpt>
      <trkpt lat="37.63569" lon="-3.81484">
        <ele>1383.0</ele>
      </trkpt>
      <trkpt lat="37.63513" lon="-3.81334">
        <ele>1388.0</ele>
      </trkpt>
      <trkpt lat="37.63508" lon="-3.81151">
        <ele>1398.0</ele>
      </trkpt>
      <trkpt lat="37.63552" lon="-3.81082">
        <ele>1402.0</ele>
      </trkpt>
      <trkpt lat="37.63618" lon="-3.80981">
        <ele>1408.0</ele>
      </trkpt>
      <trkpt lat="37.63702" lon="-3.80921">
        <ele>1417.0</ele>
      </trkpt>
      <trkpt lat="37.63848" lon="-3.80849">
        <ele>1435.0</ele>
      </trkpt>
      <trkpt lat="37.63844" lon="-3.80769">
        <ele>1442.0</ele>
      </trkpt>
      <trkpt lat="37.63842" lon="-3.80688">
        <ele>1449.0</ele>
      </trkpt>
      <trkpt lat="37.63967" lon="-3.80562">
        <ele>1464.0</ele>
      </trkpt>
      <trkpt lat="37.63956" lon="-3.80531">
        <ele>1472.0</ele>
      </trkpt>
      <trkpt lat="37.63907" lon="-3.80552">
        <ele>1479.0</ele>
      </trkpt>
      <trkpt lat="37.63852" lon="-3.80555">
        <ele>1488.0</ele>
      </trkpt>
      <trkpt lat="37.63764" lon="-3.80588">
        <ele>1499.0</ele>
      </trkpt>
      <trkpt lat="37.63699" lon="-3.80594">
        <ele>1508.0</ele>
      </trkpt>
      <trkpt lat="37.63617" lon="-3.80592">
        <ele>1517.0</ele>
      </trkpt>
      <trkpt lat="37.63531" lon="-3.80474">
        <ele>1536.0</ele>
      </trkpt>
      <trkpt lat="37.63474" lon="-3.80234">
        <ele>1559.0</ele>
      </trkpt>
      <trkpt lat="37.63447" lon="-3.80071">
        <ele>1584.0</ele>
      </trkpt>
      <trkpt lat="37.63479" lon="-3.79949">
        <ele>1605.0</ele>
      </trkpt>
      <trkpt lat="37.63398" lon="-3.79813">
        <ele>1621.0</ele>
      </trkpt>
      <trkpt lat="37.63319" lon="-3.79743">
        <ele>1637.0</ele>
      </trkpt>
      <trkpt lat="37.63307" lon="-3.79718">
        <ele>1643.0</ele>
      </trkpt>
      <trkpt lat="37.63354" lon="-3.79688">
        <ele>1650.0</ele>
      </trkpt>
      <trkpt lat="37.63417" lon="-3.79697">
        <ele>1658.0</ele>
      </trkpt>
      <trkpt lat="37.63419" lon="-3.7964">
        <ele>1664.0</ele>
      </trkpt>
      <trkpt lat="37.63308" lon="-3.79494">
        <ele>1678.0</ele>
      </trkpt>
      <trkpt lat="37.63236" lon="-3.79459">
        <ele>1686.0</ele>
      </trkpt>
      <trkpt lat="37.63253" lon="-3.79425">
        <ele>1691.0</ele>
      </trkpt>
      <trkpt lat="37.633" lon="-3.79396">
        <ele>1700.0</ele>
      </trkpt>
      <trkpt lat="37.63325" lon="-3.79276">
        <ele>1714.0</ele>
      </trkpt>
      <trkpt lat="37.63466" lon="-3.79182">
        <ele>1726.0</ele>
      </trkpt>
      <trkpt lat="37.63504" lon="-3.79145">
        <ele>1732.0</ele>
      </trkpt>
      <trkpt lat="37.63483" lon="-3.79083">
        <ele>1734.0</ele>
      </trkpt>
      <trkpt lat="37.63513" lon="-3.79022">
        <ele>1735.0</ele>
      </trkpt>
      <trkpt lat="37.63546" lon="-3.78952">
        <ele>1737.0</ele>
      </trkpt>
      <trkpt lat="37.63522" lon="-3.78844">
        <ele>1742.0</ele>
      </trkpt>
      <trkpt lat="37.63441" lon="-3.78753">
        <ele>1751.0</ele>
      </trkpt>
      <trkpt lat="37.63449" lon="-3.78726">
        <ele>1757.0</ele>
      </trkpt>
      <trkpt lat="37.63507" lon="-3.7869">
        <ele>1765.0</ele>
      </trkpt>
      <trkpt lat="37.63485" lon="-3.78603">
        <ele>1774.0</ele>
      </trkpt>
      <trkpt lat="37.6344" lon="-3.78479">
        <ele>1789.0</ele>
      </trkpt>
      <trkpt lat="37.63481" lon="-3.78362">
        <ele>1800.0</ele>
      </trkpt>
      <trkpt lat="37.63474" lon="-3.78251">
        <ele>1809.0</ele>
      </trkpt>
      <trkpt lat="37.63443" lon="-3.78203">
        <ele>1813.0</ele>
      </trkpt>
      <trkpt lat="37.63424" lon="-3.78146">
        <ele>1816.0</ele>
      </trkpt>
      <trkpt lat="37.63432" lon="-3.78057">
        <ele>1812.0</ele>
      </trkpt>
      <trkpt lat="37.63369" lon="-3.77979">
        <ele>1805.0</ele>
      </trkpt>
      <trkpt lat="37.63247" lon="-3.77857">
        <ele>1793.0</ele>
      </trkpt>
      <trkpt lat="37.63217" lon="-3.7778">
        <ele>1785.0</ele>
      </trkpt>
      <trkpt lat="37.63192" lon="-3.77666">
        <ele>1791.0</ele>
      </trkpt>
      <trkpt lat="37.63174" lon="-3.77582">
        <ele>1799.0</ele>
      </trkpt>
      <trkpt lat="37.63171" lon="-3.77504">
        <ele>1808.0</ele>
      </trkpt>
      <trkpt lat="37.63193" lon="-3.77449">
        <ele>1812.0</ele>
      </trkpt>
      <trkpt lat="37.63165" lon="-3.7745">
        <ele>1813.0</ele>
      </trkpt>
      <trkpt lat="37.63138" lon="-3.77514">
        <ele>1815.0</ele>
      </trkpt>
      <trkpt lat="37.63131" lon="-3.77602">
        <ele>1817.0</ele>
      </trkpt>
      <trkpt lat="37.631" lon="-3.77589">
        <ele>1819.0</ele>
      </trkpt>
      <trkpt lat="37.63111" lon="-3.77508">
        <ele>1821.0</ele>
      </trkpt>
    </trkseg>
  </trk>
</gpx>