<?xml version="1.0" encoding="UTF-8"?>
<gpx xmlns="http://www.topografix.com/GPX/1/0" xmlns:xsi="http://www.w3.org/2001/XMLSchema-instance" xsi:schemaLocation="http://www.topografix.com/GPX/1/0 http://www.topografix.com/GPX/1/0/gpx.xsd" version="1.0" creator="GPSBabel - https://www.gpsbabel.org">
  <time>2025-12-19T08:03:10.389000Z</time>
  <bounds minlat="37.12988" maxlat="37.32007" minlon="-3.59016" maxlon="-3.08776" />
  <trk>
    <trkseg>
      <trkpt lat="37.17891" lon="-3.08776">
        <ele>1181.0</ele>
      </trkpt>
      <trkpt lat="37.17849" lon="-3.10711">
        <ele>1186.0</ele>
      </trkpt>
      <trkpt lat="37.17842" lon="-3.1074">
        <ele>1185.0</ele>
      </trkpt>
      <trkpt lat="37.17837" lon="-3.10981">
        <ele>1184.0</ele>
      </trkpt>
      <trkpt lat="37.1782" lon="-3.11695">
        <ele>1194.0</ele>
      </trkpt>
      <trkpt lat="37.17935" lon="-3.12369">
        <ele>1204.0</ele>
      </trkpt>
      <trkpt lat="37.1812" lon="-3.12814">
        <ele>1206.0</ele>
      </trkpt>
      <trkpt lat="37.18111" lon="-3.13329">
        <ele>1214.0</ele>
      </trkpt>
      <trkpt lat="37.17742" lon="-3.13488">
        <ele>1226.0</ele>
      </trkpt>
      <trkpt lat="37.17484" lon="-3.13709">
        <ele>1237.0</ele>
      </trkpt>
      <trkpt lat="37.17298" lon="-3.13708">
        <ele>1249.0</ele>
      </trkpt>
      <trkpt lat="37.17213" lon="-3.13841">
        <ele>1257.0</ele>
      </trkpt>
      <trkpt lat="37.1706" lon="-3.13932">
        <ele>1255.0</ele>
      </trkpt>
      <trkpt lat="37.1703" lon="-3.14036">
        <ele>1250.0</ele>
      </trkpt>
      <trkpt lat="37.17326" lon="-3.14163">
        <ele>1251.0</ele>
      </trkpt>
      <trkpt lat="37.17594" lon="-3.14696">
        <ele>1246.0</ele>
      </trkpt>
      <trkpt lat="37.17898" lon="-3.14918">
        <ele>1242.0</ele>
      </trkpt>
      <trkpt lat="37.17989" lon="-3.15278">
        <ele>1238.0</ele>
      </trkpt>
      <trkpt lat="37.17851" lon="-3.15778">
        <ele>1250.0</ele>
      </trkpt>
      <trkpt lat="37.17659" lon="-3.16284">
        <ele>1255.0</ele>
      </trkpt>
      <trkpt lat="37.17574" lon="-3.16416">
        <ele>1250.0</ele>
      </trkpt>
      <trkpt lat="37.17514" lon="-3.16622">
        <ele>1249.0</ele>
      </trkpt>
      <trkpt lat="37.17596" lon="-3.16548">
        <ele>1250.0</ele>
      </trkpt>
      <trkpt lat="37.17687" lon="-3.1652">
        <ele>1249.0</ele>
      </trkpt>
      <trkpt lat="37.17954" lon="-3.16346">
        <ele>1249.0</ele>
      </trkpt>
      <trkpt lat="37.182" lon="-3.16205">
        <ele>1240.0</ele>
      </trkpt>
      <trkpt lat="37.18345" lon="-3.16109">
        <ele>1233.0</ele>
      </trkpt>
      <trkpt lat="37.18681" lon="-3.15795">
        <ele>1227.0</ele>
      </trkpt>
      <trkpt lat="37.19085" lon="-3.1556">
        <ele>1209.0</ele>
      </trkpt>
      <trkpt lat="37.19915" lon="-3.15473">
        <ele>1181.0</ele>
      </trkpt>
      <trkpt lat="37.21435" lon="-3.15161">
        <ele>1166.0</ele>
      </trkpt>
      <trkpt lat="37.22458" lon="-3.14807">
        <ele>1131.0</ele>
      </trkpt>
      <trkpt lat="37.23517" lon="-3.14489">
        <ele>1120.0</ele>
      </trkpt>
      <trkpt lat="37.23702" lon="-3.1443">
        <ele>1102.0</ele>
      </trkpt>
      <trkpt lat="37.2437" lon="-3.14214">
        <ele>1095.0</ele>
      </trkpt>
      <trkpt lat="37.26567" lon="-3.13505">
        <ele>1070.0</ele>
      </trkpt>
      <trkpt lat="37.27237" lon="-3.13486">
        <ele>1065.0</ele>
      </trkpt>
      <trkpt lat="37.2748" lon="-3.13438">
        <ele>1050.0</ele>
      </trkpt>
      <trkpt lat="37.27683" lon="-3.13479">
        <ele>1034.0</ele>
      </trkpt>
      <trkpt lat="37.27775" lon="-3.13414">
        <ele>1025.0</ele>
      </trkpt>
      <trkpt lat="37.27883" lon="-3.13063">
        <ele>1008.0</ele>
      </trkpt>
      <trkpt lat="37.27927" lon="-3.13004">
        <ele>1003.0</ele>
      </trkpt>
      <trkpt lat="37.2806" lon="-3.12987">
        <ele>1003.0</ele>
      </trkpt>
      <trkpt lat="37.2813" lon="-3.12936">
        <ele>1000.0</ele>
      </trkpt>
      <trkpt lat="37.28174" lon="-3.12821">
        <ele>995.0</ele>
      </trkpt>
      <trkpt lat="37.28278" lon="-3.1273">
        <ele>982.0</ele>
      </trkpt>
      <trkpt lat="37.28348" lon="-3.12646">
        <ele>973.0</ele>
      </trkpt>
      <trkpt lat="37.28445" lon="-3.12546">
        <ele>965.0</ele>
      </trkpt>
      <trkpt lat="37.28569" lon="-3.12304">
        <ele>954.0</ele>
      </trkpt>
      <trkpt lat="37.28625" lon="-3.12111">
        <ele>939.0</ele>
      </trkpt>
      <trkpt lat="37.29133" lon="-3.12432">
        <ele>933.0</ele>
      </trkpt>
      <trkpt lat="37.29366" lon="-3.12592">
        <ele>932.0</ele>
      </trkpt>
      <trkpt lat="37.29662" lon="-3.128">
        <ele>926.0</ele>
      </trkpt>
      <trkpt lat="37.29805" lon="-3.12901">
        <ele>919.0</ele>
      </trkpt>
      <trkpt lat="37.2987" lon="-3.12963">
        <ele>916.0</ele>
      </trkpt>
      <trkpt lat="37.29961" lon="-3.13078">
        <ele>914.0</ele>
      </trkpt>
      <trkpt lat="37.30063" lon="-3.13214">
        <ele>913.0</ele>
      </trkpt>
      <trkpt lat="37.30096" lon="-3.13259">
        <ele>911.0</ele>
      </trkpt>
      <trkpt lat="37.30131" lon="-3.13305">
        <ele>910.0</ele>
      </trkpt>
      <trkpt lat="37.30232" lon="-3.13432">
        <ele>907.0</ele>
      </trkpt>
      <trkpt lat="37.30287" lon="-3.13512">
        <ele>908.0</ele>
      </trkpt>
      <trkpt lat="37.30279" lon="-3.13557">
        <ele>909.0</ele>
      </trkpt>
      <trkpt lat="37.30307" lon="-3.13838">
        <ele>907.0</ele>
      </trkpt>
      <trkpt lat="37.30353" lon="-3.14025">
        <ele>911.0</ele>
      </trkpt>
      <trkpt lat="37.30421" lon="-3.1424">
        <ele>914.0</ele>
      </trkpt>
      <trkpt lat="37.30497" lon="-3.1438">
        <ele>912.0</ele>
      </trkpt>
      <trkpt lat="37.30522" lon="-3.14424">
        <ele>911.0</ele>
      </trkpt>
      <trkpt lat="37.30695" lon="-3.14529">
        <ele>907.0</ele>
      </trkpt>
      <trkpt lat="37.30723" lon="-3.14528">
        <ele>904.0</ele>
      </trkpt>
      <trkpt lat="37.30781" lon="-3.14572">
        <ele>902.0</ele>
      </trkpt>
      <trkpt lat="37.30989" lon="-3.14686">
        <ele>899.0</ele>
      </trkpt>
      <trkpt lat="37.31013" lon="-3.14693">
        <ele>898.0</ele>
      </trkpt>
      <trkpt lat="37.31084" lon="-3.14847">
        <ele>897.0</ele>
      </trkpt>
      <trkpt lat="37.31228" lon="-3.15054">
        <ele>898.0</ele>
      </trkpt>
      <trkpt lat="37.31433" lon="-3.15286">
        <ele>898.0</ele>
      </trkpt>
      <trkpt lat="37.31664" lon="-3.156">
        <ele>896.0</ele>
      </trkpt>
      <trkpt lat="37.31704" lon="-3.15914">
        <ele>898.0</ele>
      </trkpt>
      <trkpt lat="37.31714" lon="-3.16231">
        <ele>900.0</ele>
      </trkpt>
      <trkpt lat="37.32007" lon="-3.17278">
        <ele>910.0</ele>
      </trkpt>
      <trkpt lat="37.31781" lon="-3.18011">
        <ele>954.0</ele>
      </trkpt>
      <trkpt lat="37.31682" lon="-3.18342">
        <ele>941.0</ele>
      </trkpt>
      <trkpt lat="37.31685" lon="-3.18486">
        <ele>929.0</ele>
      </trkpt>
      <trkpt lat="37.3168" lon="-3.1873">
        <ele>916.0</ele>
      </trkpt>
      <trkpt lat="37.31685" lon="-3.18912">
        <ele>908.0</ele>
      </trkpt>
      <trkpt lat="37.31669" lon="-3.19132">
        <ele>900.0</ele>
      </trkpt>
      <trkpt lat="37.31548" lon="-3.19258">
        <ele>890.0</ele>
      </trkpt>
      <trkpt lat="37.31328" lon="-3.19412">
        <ele>880.0</ele>
      </trkpt>
      <trkpt lat="37.312" lon="-3.19592">
        <ele>875.0</ele>
      </trkpt>
      <trkpt lat="37.31147" lon="-3.19709">
        <ele>876.0</ele>
      </trkpt>
      <trkpt lat="37.31082" lon="-3.19867">
        <ele>881.0</ele>
      </trkpt>
      <trkpt lat="37.31021" lon="-3.20095">
        <ele>885.0</ele>
      </trkpt>
      <trkpt lat="37.30942" lon="-3.20255">
        <ele>891.0</ele>
      </trkpt>
      <trkpt lat="37.30896" lon="-3.20415">
        <ele>898.0</ele>
      </trkpt>
      <trkpt lat="37.30822" lon="-3.20519">
        <ele>906.0</ele>
      </trkpt>
      <trkpt lat="37.30706" lon="-3.20666">
        <ele>916.0</ele>
      </trkpt>
      <trkpt lat="37.30604" lon="-3.2076">
        <ele>924.0</ele>
      </trkpt>
      <trkpt lat="37.30489" lon="-3.2078">
        <ele>930.0</ele>
      </trkpt>
      <trkpt lat="37.30422" lon="-3.20912">
        <ele>940.0</ele>
      </trkpt>
      <trkpt lat="37.30346" lon="-3.21003">
        <ele>945.0</ele>
      </trkpt>
      <trkpt lat="37.30313" lon="-3.21108">
        <ele>948.0</ele>
      </trkpt>
      <trkpt lat="37.30232" lon="-3.21205">
        <ele>954.0</ele>
      </trkpt>
      <trkpt lat="37.30202" lon="-3.21258">
        <ele>957.0</ele>
      </trkpt>
      <trkpt lat="37.30156" lon="-3.21299">
        <ele>958.0</ele>
      </trkpt>
      <trkpt lat="37.29666" lon="-3.21588">
        <ele>975.0</ele>
      </trkpt>
      <trkpt lat="37.29442" lon="-3.21766">
        <ele>991.0</ele>
      </trkpt>
      <trkpt lat="37.29321" lon="-3.2199">
        <ele>992.0</ele>
      </trkpt>
      <trkpt lat="37.29361" lon="-3.22472">
        <ele>993.0</ele>
      </trkpt>
      <trkpt lat="37.29336" lon="-3.23156">
        <ele>1016.0</ele>
      </trkpt>
      <trkpt lat="37.293" lon="-3.23757">
        <ele>1043.0</ele>
      </trkpt>
      <trkpt lat="37.29282" lon="-3.24075">
        <ele>1040.0</ele>
      </trkpt>
      <trkpt lat="37.29168" lon="-3.2443">
        <ele>1026.0</ele>
      </trkpt>
      <trkpt lat="37.28559" lon="-3.24835">
        <ele>1045.0</ele>
      </trkpt>
      <trkpt lat="37.28316" lon="-3.25153">
        <ele>1060.0</ele>
      </trkpt>
      <trkpt lat="37.28206" lon="-3.253">
        <ele>1072.0</ele>
      </trkpt>
      <trkpt lat="37.28138" lon="-3.25453">
        <ele>1072.0</ele>
      </trkpt>
      <trkpt lat="37.28061" lon="-3.25671">
        <ele>1063.0</ele>
      </trkpt>
      <trkpt lat="37.28021" lon="-3.25817">
        <ele>1062.0</ele>
      </trkpt>
      <trkpt lat="37.27918" lon="-3.2607">
        <ele>1060.0</ele>
      </trkpt>
      <trkpt lat="37.27746" lon="-3.26169">
        <ele>1047.0</ele>
      </trkpt>
      <trkpt lat="37.27818" lon="-3.26282">
        <ele>1034.0</ele>
      </trkpt>
      <trkpt lat="37.27859" lon="-3.26486">
        <ele>1031.0</ele>
      </trkpt>
      <trkpt lat="37.2784" lon="-3.26667">
        <ele>1035.0</ele>
      </trkpt>
      <trkpt lat="37.27801" lon="-3.26918">
        <ele>1042.0</ele>
      </trkpt>
      <trkpt lat="37.27815" lon="-3.26985">
        <ele>1047.0</ele>
      </trkpt>
      <trkpt lat="37.27775" lon="-3.27061">
        <ele>1052.0</ele>
      </trkpt>
      <trkpt lat="37.27772" lon="-3.27112">
        <ele>1059.0</ele>
      </trkpt>
      <trkpt lat="37.27714" lon="-3.27153">
        <ele>1065.0</ele>
      </trkpt>
      <trkpt lat="37.27682" lon="-3.2721">
        <ele>1073.0</ele>
      </trkpt>
      <trkpt lat="37.27667" lon="-3.27273">
        <ele>1080.0</ele>
      </trkpt>
      <trkpt lat="37.27629" lon="-3.27266">
        <ele>1084.0</ele>
      </trkpt>
      <trkpt lat="37.27615" lon="-3.27219">
        <ele>1086.0</ele>
      </trkpt>
      <trkpt lat="37.27589" lon="-3.27219">
        <ele>1088.0</ele>
      </trkpt>
      <trkpt lat="37.27579" lon="-3.27273">
        <ele>1089.0</ele>
      </trkpt>
      <trkpt lat="37.27595" lon="-3.27359">
        <ele>1091.0</ele>
      </trkpt>
      <trkpt lat="37.27544" lon="-3.27618">
        <ele>1096.0</ele>
      </trkpt>
      <trkpt lat="37.27435" lon="-3.27686">
        <ele>1094.0</ele>
      </trkpt>
      <trkpt lat="37.27308" lon="-3.2772">
        <ele>1087.0</ele>
      </trkpt>
      <trkpt lat="37.27223" lon="-3.27828">
        <ele>1079.0</ele>
      </trkpt>
      <trkpt lat="37.27144" lon="-3.27936">
        <ele>1070.0</ele>
      </trkpt>
      <trkpt lat="37.27035" lon="-3.28068">
        <ele>1061.0</ele>
      </trkpt>
      <trkpt lat="37.26957" lon="-3.28149">
        <ele>1053.0</ele>
      </trkpt>
      <trkpt lat="37.27042" lon="-3.28128">
        <ele>1044.0</ele>
      </trkpt>
      <trkpt lat="37.2723" lon="-3.28092">
        <ele>1023.0</ele>
      </trkpt>
      <trkpt lat="37.27396" lon="-3.28105">
        <ele>1009.0</ele>
      </trkpt>
      <trkpt lat="37.2753" lon="-3.28373">
        <ele>991.0</ele>
      </trkpt>
      <trkpt lat="37.27576" lon="-3.28487">
        <ele>987.0</ele>
      </trkpt>
      <trkpt lat="37.27653" lon="-3.28458">
        <ele>989.0</ele>
      </trkpt>
      <trkpt lat="37.27736" lon="-3.28485">
        <ele>986.0</ele>
      </trkpt>
      <trkpt lat="37.27864" lon="-3.28602">
        <ele>980.0</ele>
      </trkpt>
      <trkpt lat="37.27844" lon="-3.29006">
        <ele>987.0</ele>
      </trkpt>
      <trkpt lat="37.27804" lon="-3.29274">
        <ele>994.0</ele>
      </trkpt>
      <trkpt lat="37.27769" lon="-3.29462">
        <ele>995.0</ele>
      </trkpt>
      <trkpt lat="37.27798" lon="-3.29607">
        <ele>998.0</ele>
      </trkpt>
      <trkpt lat="37.27781" lon="-3.29803">
        <ele>1006.0</ele>
      </trkpt>
      <trkpt lat="37.27778" lon="-3.29994">
        <ele>1006.0</ele>
      </trkpt>
      <trkpt lat="37.27715" lon="-3.3026">
        <ele>1014.0</ele>
      </trkpt>
      <trkpt lat="37.27617" lon="-3.30606">
        <ele>1020.0</ele>
      </trkpt>
      <trkpt lat="37.27586" lon="-3.30851">
        <ele>1025.0</ele>
      </trkpt>
      <trkpt lat="37.27625" lon="-3.31176">
        <ele>1036.0</ele>
      </trkpt>
      <trkpt lat="37.27665" lon="-3.31457">
        <ele>1041.0</ele>
      </trkpt>
      <trkpt lat="37.27654" lon="-3.31572">
        <ele>1046.0</ele>
      </trkpt>
      <trkpt lat="37.27579" lon="-3.31915">
        <ele>1063.0</ele>
      </trkpt>
      <trkpt lat="37.2752" lon="-3.3202">
        <ele>1069.0</ele>
      </trkpt>
      <trkpt lat="37.27432" lon="-3.32315">
        <ele>1081.0</ele>
      </trkpt>
      <trkpt lat="37.27395" lon="-3.3241">
        <ele>1087.0</ele>
      </trkpt>
      <trkpt lat="37.27336" lon="-3.32489">
        <ele>1088.0</ele>
      </trkpt>
      <trkpt lat="37.27278" lon="-3.32564">
        <ele>1089.0</ele>
      </trkpt>
      <trkpt lat="37.27283" lon="-3.3264">
        <ele>1091.0</ele>
      </trkpt>
      <trkpt lat="37.27271" lon="-3.32825">
        <ele>1097.0</ele>
      </trkpt>
      <trkpt lat="37.27284" lon="-3.32924">
        <ele>1102.0</ele>
      </trkpt>
      <trkpt lat="37.27239" lon="-3.33086">
        <ele>1111.0</ele>
      </trkpt>
      <trkpt lat="37.27206" lon="-3.33189">
        <ele>1113.0</ele>
      </trkpt>
      <trkpt lat="37.27123" lon="-3.33284">
        <ele>1116.0</ele>
      </trkpt>
      <trkpt lat="37.27088" lon="-3.33361">
        <ele>1121.0</ele>
      </trkpt>
      <trkpt lat="37.27027" lon="-3.33422">
        <ele>1126.0</ele>
      </trkpt>
      <trkpt lat="37.26977" lon="-3.33465">
        <ele>1133.0</ele>
      </trkpt>
      <trkpt lat="37.26937" lon="-3.33522">
        <ele>1141.0</ele>
      </trkpt>
      <trkpt lat="37.26807" lon="-3.33579">
        <ele>1151.0</ele>
      </trkpt>
      <trkpt lat="37.2647" lon="-3.3392">
        <ele>1181.0</ele>
      </trkpt>
      <trkpt lat="37.2637" lon="-3.34246">
        <ele>1194.0</ele>
      </trkpt>
      <trkpt lat="37.26481" lon="-3.34895">
        <ele>1211.0</ele>
      </trkpt>
      <trkpt lat="37.26141" lon="-3.35687">
        <ele>1228.0</ele>
      </trkpt>
      <trkpt lat="37.25588" lon="-3.36374">
        <ele>1243.0</ele>
      </trkpt>
      <trkpt lat="37.25322" lon="-3.37367">
        <ele>1274.0</ele>
      </trkpt>
      <trkpt lat="37.24954" lon="-3.37554">
        <ele>1292.0</ele>
      </trkpt>
      <trkpt lat="37.24772" lon="-3.37673">
        <ele>1284.0</ele>
      </trkpt>
      <trkpt lat="37.24695" lon="-3.37884">
        <ele>1274.0</ele>
      </trkpt>
      <trkpt lat="37.24512" lon="-3.37895">
        <ele>1268.0</ele>
      </trkpt>
      <trkpt lat="37.24339" lon="-3.37845">
        <ele>1246.0</ele>
      </trkpt>
      <trkpt lat="37.24299" lon="-3.37912">
        <ele>1238.0</ele>
      </trkpt>
      <trkpt lat="37.24323" lon="-3.38026">
        <ele>1231.0</ele>
      </trkpt>
      <trkpt lat="37.24354" lon="-3.3818">
        <ele>1222.0</ele>
      </trkpt>
      <trkpt lat="37.24253" lon="-3.38151">
        <ele>1215.0</ele>
      </trkpt>
      <trkpt lat="37.23954" lon="-3.38445">
        <ele>1204.0</ele>
      </trkpt>
      <trkpt lat="37.23772" lon="-3.38549">
        <ele>1202.0</ele>
      </trkpt>
      <trkpt lat="37.23634" lon="-3.38678">
        <ele>1205.0</ele>
      </trkpt>
      <trkpt lat="37.23543" lon="-3.38912">
        <ele>1213.0</ele>
      </trkpt>
      <trkpt lat="37.23362" lon="-3.39305">
        <ele>1204.0</ele>
      </trkpt>
      <trkpt lat="37.23132" lon="-3.39579">
        <ele>1175.0</ele>
      </trkpt>
      <trkpt lat="37.22978" lon="-3.39807">
        <ele>1180.0</ele>
      </trkpt>
      <trkpt lat="37.22754" lon="-3.39934">
        <ele>1171.0</ele>
      </trkpt>
      <trkpt lat="37.22506" lon="-3.40297">
        <ele>1164.0</ele>
      </trkpt>
      <trkpt lat="37.22372" lon="-3.4068">
        <ele>1155.0</ele>
      </trkpt>
      <trkpt lat="37.22363" lon="-3.41014">
        <ele>1134.0</ele>
      </trkpt>
      <trkpt lat="37.22191" lon="-3.41225">
        <ele>1124.0</ele>
      </trkpt>
      <trkpt lat="37.2228" lon="-3.41388">
        <ele>1120.0</ele>
      </trkpt>
      <trkpt lat="37.22265" lon="-3.41648">
        <ele>1107.0</ele>
      </trkpt>
      <trkpt lat="37.22198" lon="-3.41851">
        <ele>1095.0</ele>
      </trkpt>
      <trkpt lat="37.2207" lon="-3.42329">
        <ele>1088.0</ele>
      </trkpt>
      <trkpt lat="37.22052" lon="-3.42731">
        <ele>1072.0</ele>
      </trkpt>
      <trkpt lat="37.21924" lon="-3.4298">
        <ele>1071.0</ele>
      </trkpt>
      <trkpt lat="37.21695" lon="-3.43412">
        <ele>1070.0</ele>
      </trkpt>
      <trkpt lat="37.21561" lon="-3.43607">
        <ele>1070.0</ele>
      </trkpt>
      <trkpt lat="37.21248" lon="-3.43452">
        <ele>1066.0</ele>
      </trkpt>
      <trkpt lat="37.21133" lon="-3.43525">
        <ele>1072.0</ele>
      </trkpt>
      <trkpt lat="37.21016" lon="-3.43582">
        <ele>1094.0</ele>
      </trkpt>
      <trkpt lat="37.20919" lon="-3.43621">
        <ele>1109.0</ele>
      </trkpt>
      <trkpt lat="37.20835" lon="-3.43602">
        <ele>1094.0</ele>
      </trkpt>
      <trkpt lat="37.20761" lon="-3.43648">
        <ele>1087.0</ele>
      </trkpt>
      <trkpt lat="37.20668" lon="-3.43752">
        <ele>1087.0</ele>
      </trkpt>
      <trkpt lat="37.20575" lon="-3.4377">
        <ele>1089.0</ele>
      </trkpt>
      <trkpt lat="37.20507" lon="-3.43834">
        <ele>1092.0</ele>
      </trkpt>
      <trkpt lat="37.20381" lon="-3.4395">
        <ele>1078.0</ele>
      </trkpt>
      <trkpt lat="37.2042" lon="-3.44054">
        <ele>1064.0</ele>
      </trkpt>
      <trkpt lat="37.20467" lon="-3.44183">
        <ele>1051.0</ele>
      </trkpt>
      <trkpt lat="37.20508" lon="-3.44231">
        <ele>1046.0</ele>
      </trkpt>
      <trkpt lat="37.20788" lon="-3.44218">
        <ele>1037.0</ele>
      </trkpt>
      <trkpt lat="37.20836" lon="-3.44287">
        <ele>1034.0</ele>
      </trkpt>
      <trkpt lat="37.2076" lon="-3.4433">
        <ele>1031.0</ele>
      </trkpt>
      <trkpt lat="37.20602" lon="-3.44479">
        <ele>1029.0</ele>
      </trkpt>
      <trkpt lat="37.20411" lon="-3.44528">
        <ele>1019.0</ele>
      </trkpt>
      <trkpt lat="37.20284" lon="-3.44744">
        <ele>1000.0</ele>
      </trkpt>
      <trkpt lat="37.20361" lon="-3.4489">
        <ele>990.0</ele>
      </trkpt>
      <trkpt lat="37.20231" lon="-3.45113">
        <ele>977.0</ele>
      </trkpt>
      <trkpt lat="37.20059" lon="-3.45302">
        <ele>973.0</ele>
      </trkpt>
      <trkpt lat="37.19956" lon="-3.45416">
        <ele>974.0</ele>
      </trkpt>
      <trkpt lat="37.1991" lon="-3.45638">
        <ele>973.0</ele>
      </trkpt>
      <trkpt lat="37.19775" lon="-3.45797">
        <ele>970.0</ele>
      </trkpt>
      <trkpt lat="37.19619" lon="-3.45978">
        <ele>955.0</ele>
      </trkpt>
      <trkpt lat="37.19538" lon="-3.46189">
        <ele>945.0</ele>
      </trkpt>
      <trkpt lat="37.19499" lon="-3.46359">
        <ele>924.0</ele>
      </trkpt>
      <trkpt lat="37.19474" lon="-3.46545">
        <ele>917.0</ele>
      </trkpt>
      <trkpt lat="37.19387" lon="-3.4663">
        <ele>908.0</ele>
      </trkpt>
      <trkpt lat="37.19365" lon="-3.46805">
        <ele>904.0</ele>
      </trkpt>
      <trkpt lat="37.19377" lon="-3.46964">
        <ele>896.0</ele>
      </trkpt>
      <trkpt lat="37.19571" lon="-3.47131">
        <ele>875.0</ele>
      </trkpt>
      <trkpt lat="37.19634" lon="-3.47238">
        <ele>868.0</ele>
      </trkpt>
      <trkpt lat="37.19712" lon="-3.47276">
        <ele>866.0</ele>
      </trkpt>
      <trkpt lat="37.19656" lon="-3.4727">
        <ele>865.0</ele>
      </trkpt>
      <trkpt lat="37.19384" lon="-3.47167">
        <ele>850.0</ele>
      </trkpt>
      <trkpt lat="37.19274" lon="-3.47119">
        <ele>840.0</ele>
      </trkpt>
      <trkpt lat="37.19103" lon="-3.47332">
        <ele>829.0</ele>
      </trkpt>
      <trkpt lat="37.1892" lon="-3.47567">
        <ele>833.0</ele>
      </trkpt>
      <trkpt lat="37.18894" lon="-3.47736">
        <ele>825.0</ele>
      </trkpt>
      <trkpt lat="37.18733" lon="-3.48019">
        <ele>822.0</ele>
      </trkpt>
      <trkpt lat="37.18704" lon="-3.48202">
        <ele>816.0</ele>
      </trkpt>
      <trkpt lat="37.18627" lon="-3.48336">
        <ele>813.0</ele>
      </trkpt>
      <trkpt lat="37.18636" lon="-3.48408">
        <ele>813.0</ele>
      </trkpt>
      <trkpt lat="37.18594" lon="-3.48557">
        <ele>818.0</ele>
      </trkpt>
      <trkpt lat="37.18501" lon="-3.48932">
        <ele>809.0</ele>
      </trkpt>
      <trkpt lat="37.18303" lon="-3.49281">
        <ele>802.0</ele>
      </trkpt>
      <trkpt lat="37.18108" lon="-3.49517">
        <ele>797.0</ele>
      </trkpt>
      <trkpt lat="37.17854" lon="-3.49985">
        <ele>797.0</ele>
      </trkpt>
      <trkpt lat="37.17529" lon="-3.50449">
        <ele>795.0</ele>
      </trkpt>
      <trkpt lat="37.17326" lon="-3.50784">
        <ele>787.0</ele>
      </trkpt>
      <trkpt lat="37.17134" lon="-3.50996">
        <ele>775.0</ele>
      </trkpt>
      <trkpt lat="37.16814" lon="-3.51345">
        <ele>770.0</ele>
      </trkpt>
      <trkpt lat="37.1664" lon="-3.51602">
        <ele>770.0</ele>
      </trkpt>
      <trkpt lat="37.16444" lon="-3.51629">
        <ele>764.0</ele>
      </trkpt>
      <trkpt lat="37.1635" lon="-3.51699">
        <ele>760.0</ele>
      </trkpt>
      <trkpt lat="37.16337" lon="-3.51614">
        <ele>755.0</ele>
      </trkpt>
      <trkpt lat="37.16309" lon="-3.51268">
        <ele>758.0</ele>
      </trkpt>
      <trkpt lat="37.1632" lon="-3.511">
        <ele>767.0</ele>
      </trkpt>
      <trkpt lat="37.16247" lon="-3.50828">
        <ele>771.0</ele>
      </trkpt>
      <trkpt lat="37.16322" lon="-3.5071">
        <ele>776.0</ele>
      </trkpt>
      <trkpt lat="37.16378" lon="-3.50437">
        <ele>789.0</ele>
      </trkpt>
      <trkpt lat="37.16457" lon="-3.50282">
        <ele>800.0</ele>
      </trkpt>
      <trkpt lat="37.16428" lon="-3.50085">
        <ele>804.0</ele>
      </trkpt>
      <trkpt lat="37.16457" lon="-3.49892">
        <ele>801.0</ele>
      </trkpt>
      <trkpt lat="37.16517" lon="-3.49735">
        <ele>806.0</ele>
      </trkpt>
      <trkpt lat="37.16427" lon="-3.49584">
        <ele>808.0</ele>
      </trkpt>
      <trkpt lat="37.16422" lon="-3.49388">
        <ele>814.0</ele>
      </trkpt>
      <trkpt lat="37.16353" lon="-3.49187">
        <ele>827.0</ele>
      </trkpt>
      <trkpt lat="37.16264" lon="-3.49068">
        <ele>843.0</ele>
      </trkpt>
      <trkpt lat="37.16176" lon="-3.49017">
        <ele>846.0</ele>
      </trkpt>
      <trkpt lat="37.16121" lon="-3.48988">
        <ele>851.0</ele>
      </trkpt>
      <trkpt lat="37.16274" lon="-3.48951">
        <ele>868.0</ele>
      </trkpt>
      <trkpt lat="37.16283" lon="-3.48866">
        <ele>880.0</ele>
      </trkpt>
      <trkpt lat="37.16197" lon="-3.48888">
        <ele>889.0</ele>
      </trkpt>
      <trkpt lat="37.1623" lon="-3.48793">
        <ele>902.0</ele>
      </trkpt>
      <trkpt lat="37.16256" lon="-3.487">
        <ele>914.0</ele>
      </trkpt>
      <trkpt lat="37.16246" lon="-3.4854">
        <ele>927.0</ele>
      </trkpt>
      <trkpt lat="37.16344" lon="-3.48312">
        <ele>942.0</ele>
      </trkpt>
      <trkpt lat="37.16237" lon="-3.4824">
        <ele>950.0</ele>
      </trkpt>
      <trkpt lat="37.16128" lon="-3.48085">
        <ele>962.0</ele>
      </trkpt>
      <trkpt lat="37.16143" lon="-3.47982">
        <ele>971.0</ele>
      </trkpt>
      <trkpt lat="37.1617" lon="-3.47816">
        <ele>979.0</ele>
      </trkpt>
      <trkpt lat="37.16141" lon="-3.47681">
        <ele>972.0</ele>
      </trkpt>
      <trkpt lat="37.16061" lon="-3.47541">
        <ele>967.0</ele>
      </trkpt>
      <trkpt lat="37.15989" lon="-3.47381">
        <ele>965.0</ele>
      </trkpt>
      <trkpt lat="37.1597" lon="-3.47181">
        <ele>960.0</ele>
      </trkpt>
      <trkpt lat="37.16143" lon="-3.46927">
        <ele>978.0</ele>
      </trkpt>
      <trkpt lat="37.16299" lon="-3.46749">
        <ele>1000.0</ele>
      </trkpt>
      <trkpt lat="37.16317" lon="-3.46671">
        <ele>1010.0</ele>
      </trkpt>
      <trkpt lat="37.16195" lon="-3.46578">
        <ele>1019.0</ele>
      </trkpt>
      <trkpt lat="37.16165" lon="-3.46378">
        <ele>1024.0</ele>
      </trkpt>
      <trkpt lat="37.16231" lon="-3.46231">
        <ele>1030.0</ele>
      </trkpt>
      <trkpt lat="37.16222" lon="-3.46127">
        <ele>1034.0</ele>
      </trkpt>
      <trkpt lat="37.16121" lon="-3.46074">
        <ele>1040.0</ele>
      </trkpt>
      <trkpt lat="37.16103" lon="-3.45923">
        <ele>1049.0</ele>
      </trkpt>
      <trkpt lat="37.16074" lon="-3.45568">
        <ele>1073.0</ele>
      </trkpt>
      <trkpt lat="37.16084" lon="-3.45353">
        <ele>1082.0</ele>
      </trkpt>
      <trkpt lat="37.16019" lon="-3.45173">
        <ele>1076.0</ele>
      </trkpt>
      <trkpt lat="37.15928" lon="-3.45055">
        <ele>1068.0</ele>
      </trkpt>
      <trkpt lat="37.15897" lon="-3.44944">
        <ele>1062.0</ele>
      </trkpt>
      <trkpt lat="37.1591" lon="-3.44772">
        <ele>1064.0</ele>
      </trkpt>
      <trkpt lat="37.15821" lon="-3.4474">
        <ele>1068.0</ele>
      </trkpt>
      <trkpt lat="37.15735" lon="-3.44678">
        <ele>1067.0</ele>
      </trkpt>
      <trkpt lat="37.15697" lon="-3.44593">
        <ele>1066.0</ele>
      </trkpt>
      <trkpt lat="37.15695" lon="-3.445">
        <ele>1066.0</ele>
      </trkpt>
      <trkpt lat="37.15864" lon="-3.44333">
        <ele>1070.0</ele>
      </trkpt>
      <trkpt lat="37.15889" lon="-3.44094">
        <ele>1073.0</ele>
      </trkpt>
      <trkpt lat="37.15842" lon="-3.43957">
        <ele>1069.0</ele>
      </trkpt>
      <trkpt lat="37.15859" lon="-3.43873">
        <ele>1066.0</ele>
      </trkpt>
      <trkpt lat="37.15795" lon="-3.43796">
        <ele>1060.0</ele>
      </trkpt>
      <trkpt lat="37.15755" lon="-3.43704">
        <ele>1055.0</ele>
      </trkpt>
      <trkpt lat="37.15664" lon="-3.43639">
        <ele>1047.0</ele>
      </trkpt>
      <trkpt lat="37.15581" lon="-3.43508">
        <ele>1029.0</ele>
      </trkpt>
      <trkpt lat="37.15505" lon="-3.43337">
        <ele>1013.0</ele>
      </trkpt>
      <trkpt lat="37.15393" lon="-3.43179">
        <ele>996.0</ele>
      </trkpt>
      <trkpt lat="37.1546" lon="-3.43287">
        <ele>986.0</ele>
      </trkpt>
      <trkpt lat="37.15456" lon="-3.43429">
        <ele>981.0</ele>
      </trkpt>
      <trkpt lat="37.15415" lon="-3.43433">
        <ele>983.0</ele>
      </trkpt>
      <trkpt lat="37.15367" lon="-3.43576">
        <ele>987.0</ele>
      </trkpt>
      <trkpt lat="37.15344" lon="-3.43589">
        <ele>996.0</ele>
      </trkpt>
      <trkpt lat="37.15357" lon="-3.43498">
        <ele>1006.0</ele>
      </trkpt>
      <trkpt lat="37.15335" lon="-3.43521">
        <ele>1011.0</ele>
      </trkpt>
      <trkpt lat="37.15323" lon="-3.4349">
        <ele>1016.0</ele>
      </trkpt>
      <trkpt lat="37.1533" lon="-3.4343">
        <ele>1023.0</ele>
      </trkpt>
      <trkpt lat="37.15237" lon="-3.43617">
        <ele>1041.0</ele>
      </trkpt>
      <trkpt lat="37.15212" lon="-3.43645">
        <ele>1057.0</ele>
      </trkpt>
      <trkpt lat="37.15222" lon="-3.4354">
        <ele>1069.0</ele>
      </trkpt>
      <trkpt lat="37.15171" lon="-3.43582">
        <ele>1079.0</ele>
      </trkpt>
      <trkpt lat="37.15107" lon="-3.43717">
        <ele>1097.0</ele>
      </trkpt>
      <trkpt lat="37.15114" lon="-3.43648">
        <ele>1109.0</ele>
      </trkpt>
      <trkpt lat="37.1506" lon="-3.43689">
        <ele>1117.0</ele>
      </trkpt>
      <trkpt lat="37.15043" lon="-3.43692">
        <ele>1122.0</ele>
      </trkpt>
      <trkpt lat="37.1508" lon="-3.43526">
        <ele>1131.0</ele>
      </trkpt>
      <trkpt lat="37.15071" lon="-3.43339">
        <ele>1131.0</ele>
      </trkpt>
      <trkpt lat="37.15038" lon="-3.43203">
        <ele>1136.0</ele>
      </trkpt>
      <trkpt lat="37.14971" lon="-3.43083">
        <ele>1143.0</ele>
      </trkpt>
      <trkpt lat="37.14898" lon="-3.4295">
        <ele>1164.0</ele>
      </trkpt>
      <trkpt lat="37.14882" lon="-3.43096">
        <ele>1176.0</ele>
      </trkpt>
      <trkpt lat="37.14849" lon="-3.43292">
        <ele>1196.0</ele>
      </trkpt>
      <trkpt lat="37.14767" lon="-3.43085">
        <ele>1222.0</ele>
      </trkpt>
      <trkpt lat="37.14715" lon="-3.42909">
        <ele>1254.0</ele>
      </trkpt>
      <trkpt lat="37.14607" lon="-3.43013">
        <ele>1284.0</ele>
      </trkpt>
      <trkpt lat="37.14582" lon="-3.42946">
        <ele>1301.0</ele>
      </trkpt>
      <trkpt lat="37.14538" lon="-3.43006">
        <ele>1315.0</ele>
      </trkpt>
      <trkpt lat="37.14289" lon="-3.4269">
        <ele>1358.0</ele>
      </trkpt>
      <trkpt lat="37.1418" lon="-3.42422">
        <ele>1397.0</ele>
      </trkpt>
      <trkpt lat="37.14079" lon="-3.42184">
        <ele>1423.0</ele>
      </trkpt>
      <trkpt lat="37.14052" lon="-3.42353">
        <ele>1446.0</ele>
      </trkpt>
      <trkpt lat="37.1402" lon="-3.42288">
        <ele>1456.0</ele>
      </trkpt>
      <trkpt lat="37.13989" lon="-3.42122">
        <ele>1472.0</ele>
      </trkpt>
      <trkpt lat="37.13903" lon="-3.41993">
        <ele>1489.0</ele>
      </trkpt>
      <trkpt lat="37.13808" lon="-3.41947">
        <ele>1499.0</ele>
      </trkpt>
      <trkpt lat="37.13713" lon="-3.41761">
        <ele>1518.0</ele>
      </trkpt>
      <trkpt lat="37.13676" lon="-3.41852">
        <ele>1531.0</ele>
      </trkpt>
      <trkpt lat="37.13718" lon="-3.41932">
        <ele>1537.0</ele>
      </trkpt>
      <trkpt lat="37.1369" lon="-3.42027">
        <ele>1543.0</ele>
      </trkpt>
      <trkpt lat="37.13739" lon="-3.42096">
        <ele>1548.0</ele>
      </trkpt>
      <trkpt lat="37.13741" lon="-3.42187">
        <ele>1555.0</ele>
      </trkpt>
      <trkpt lat="37.13778" lon="-3.42315">
        <ele>1562.0</ele>
      </trkpt>
      <trkpt lat="37.13764" lon="-3.42482">
        <ele>1570.0</ele>
      </trkpt>
      <trkpt lat="37.13771" lon="-3.42634">
        <ele>1581.0</ele>
      </trkpt>
      <trkpt lat="37.13785" lon="-3.42782">
        <ele>1589.0</ele>
      </trkpt>
      <trkpt lat="37.13856" lon="-3.42936">
        <ele>1600.0</ele>
      </trkpt>
      <trkpt lat="37.13776" lon="-3.42951">
        <ele>1609.0</ele>
      </trkpt>
      <trkpt lat="37.13753" lon="-3.42866">
        <ele>1614.0</ele>
      </trkpt>
      <trkpt lat="37.13714" lon="-3.42945">
        <ele>1619.0</ele>
      </trkpt>
      <trkpt lat="37.13675" lon="-3.42987">
        <ele>1624.0</ele>
      </trkpt>
      <trkpt lat="37.13682" lon="-3.42886">
        <ele>1630.0</ele>
      </trkpt>
      <trkpt lat="37.13668" lon="-3.42895">
        <ele>1635.0</ele>
      </trkpt>
      <trkpt lat="37.13616" lon="-3.43009">
        <ele>1644.0</ele>
      </trkpt>
      <trkpt lat="37.13535" lon="-3.43108">
        <ele>1656.0</ele>
      </trkpt>
      <trkpt lat="37.13449" lon="-3.43183">
        <ele>1662.0</ele>
      </trkpt>
      <trkpt lat="37.13316" lon="-3.43313">
        <ele>1669.0</ele>
      </trkpt>
      <trkpt lat="37.13266" lon="-3.43454">
        <ele>1670.0</ele>
      </trkpt>
      <trkpt lat="37.13283" lon="-3.43574">
        <ele>1657.0</ele>
      </trkpt>
      <trkpt lat="37.13279" lon="-3.43768">
        <ele>1647.0</ele>
      </trkpt>
      <trkpt lat="37.13313" lon="-3.43899">
        <ele>1642.0</ele>
      </trkpt>
      <trkpt lat="37.1343" lon="-3.44028">
        <ele>1630.0</ele>
      </trkpt>
      <trkpt lat="37.13478" lon="-3.44157">
        <ele>1621.0</ele>
      </trkpt>
      <trkpt lat="37.13424" lon="-3.44267">
        <ele>1614.0</ele>
      </trkpt>
      <trkpt lat="37.13287" lon="-3.44291">
        <ele>1606.0</ele>
      </trkpt>
      <trkpt lat="37.13273" lon="-3.44479">
        <ele>1589.0</ele>
      </trkpt>
      <trkpt lat="37.13144" lon="-3.4468">
        <ele>1576.0</ele>
      </trkpt>
      <trkpt lat="37.13054" lon="-3.44835">
        <ele>1574.0</ele>
      </trkpt>
      <trkpt lat="37.13189" lon="-3.44928">
        <ele>1574.0</ele>
      </trkpt>
      <trkpt lat="37.13218" lon="-3.45002">
        <ele>1573.0</ele>
      </trkpt>
      <trkpt lat="37.13305" lon="-3.4507">
        <ele>1572.0</ele>
      </trkpt>
      <trkpt lat="37.13465" lon="-3.45163">
        <ele>1568.0</ele>
      </trkpt>
      <trkpt lat="37.13545" lon="-3.45284">
        <ele>1564.0</ele>
      </trkpt>
      <trkpt lat="37.13617" lon="-3.45372">
        <ele>1561.0</ele>
      </trkpt>
      <trkpt lat="37.13612" lon="-3.45521">
        <ele>1558.0</ele>
      </trkpt>
      <trkpt lat="37.1358" lon="-3.45758">
        <ele>1546.0</ele>
      </trkpt>
      <trkpt lat="37.13816" lon="-3.45675">
        <ele>1523.0</ele>
      </trkpt>
      <trkpt lat="37.13912" lon="-3.45697">
        <ele>1516.0</ele>
      </trkpt>
      <trkpt lat="37.13882" lon="-3.45865">
        <ele>1513.0</ele>
      </trkpt>
      <trkpt lat="37.13865" lon="-3.46088">
        <ele>1502.0</ele>
      </trkpt>
      <trkpt lat="37.13934" lon="-3.46036">
        <ele>1493.0</ele>
      </trkpt>
      <trkpt lat="37.14013" lon="-3.46142">
        <ele>1482.0</ele>
      </trkpt>
      <trkpt lat="37.14134" lon="-3.46315">
        <ele>1467.0</ele>
      </trkpt>
      <trkpt lat="37.14021" lon="-3.46503">
        <ele>1455.0</ele>
      </trkpt>
      <trkpt lat="37.13916" lon="-3.46664">
        <ele>1441.0</ele>
      </trkpt>
      <trkpt lat="37.13781" lon="-3.46764">
        <ele>1432.0</ele>
      </trkpt>
      <trkpt lat="37.13874" lon="-3.46876">
        <ele>1419.0</ele>
      </trkpt>
      <trkpt lat="37.14012" lon="-3.47054">
        <ele>1399.0</ele>
      </trkpt>
      <trkpt lat="37.13998" lon="-3.47162">
        <ele>1392.0</ele>
      </trkpt>
      <trkpt lat="37.14034" lon="-3.47403">
        <ele>1376.0</ele>
      </trkpt>
      <trkpt lat="37.14112" lon="-3.47846">
        <ele>1362.0</ele>
      </trkpt>
      <trkpt lat="37.14129" lon="-3.47965">
        <ele>1358.0</ele>
      </trkpt>
      <trkpt lat="37.14089" lon="-3.48035">
        <ele>1357.0</ele>
      </trkpt>
      <trkpt lat="37.14036" lon="-3.48174">
        <ele>1350.0</ele>
      </trkpt>
      <trkpt lat="37.13899" lon="-3.48311">
        <ele>1337.0</ele>
      </trkpt>
      <trkpt lat="37.13993" lon="-3.48498">
        <ele>1329.0</ele>
      </trkpt>
      <trkpt lat="37.14147" lon="-3.48639">
        <ele>1314.0</ele>
      </trkpt>
      <trkpt lat="37.14235" lon="-3.4878">
        <ele>1303.0</ele>
      </trkpt>
      <trkpt lat="37.14343" lon="-3.48634">
        <ele>1287.0</ele>
      </trkpt>
      <trkpt lat="37.1446" lon="-3.48711">
        <ele>1275.0</ele>
      </trkpt>
      <trkpt lat="37.14543" lon="-3.48751">
        <ele>1266.0</ele>
      </trkpt>
      <trkpt lat="37.14621" lon="-3.48562">
        <ele>1252.0</ele>
      </trkpt>
      <trkpt lat="37.14914" lon="-3.48536">
        <ele>1236.0</ele>
      </trkpt>
      <trkpt lat="37.15002" lon="-3.48411">
        <ele>1217.0</ele>
      </trkpt>
      <trkpt lat="37.15025" lon="-3.48126">
        <ele>1195.0</ele>
      </trkpt>
      <trkpt lat="37.15222" lon="-3.48027">
        <ele>1178.0</ele>
      </trkpt>
      <trkpt lat="37.15223" lon="-3.47944">
        <ele>1175.0</ele>
      </trkpt>
      <trkpt lat="37.15215" lon="-3.47847">
        <ele>1169.0</ele>
      </trkpt>
      <trkpt lat="37.15255" lon="-3.47847">
        <ele>1164.0</ele>
      </trkpt>
      <trkpt lat="37.153" lon="-3.48082">
        <ele>1148.0</ele>
      </trkpt>
      <trkpt lat="37.15196" lon="-3.48224">
        <ele>1134.0</ele>
      </trkpt>
      <trkpt lat="37.15344" lon="-3.48534">
        <ele>1113.0</ele>
      </trkpt>
      <trkpt lat="37.15522" lon="-3.48957">
        <ele>1077.0</ele>
      </trkpt>
      <trkpt lat="37.15399" lon="-3.49057">
        <ele>1065.0</ele>
      </trkpt>
      <trkpt lat="37.15496" lon="-3.49227">
        <ele>1049.0</ele>
      </trkpt>
      <trkpt lat="37.15494" lon="-3.49381">
        <ele>1037.0</ele>
      </trkpt>
      <trkpt lat="37.15434" lon="-3.49629">
        <ele>1022.0</ele>
      </trkpt>
      <trkpt lat="37.15409" lon="-3.49837">
        <ele>1015.0</ele>
      </trkpt>
      <trkpt lat="37.15261" lon="-3.49951">
        <ele>1014.0</ele>
      </trkpt>
      <trkpt lat="37.15342" lon="-3.50171">
        <ele>1012.0</ele>
      </trkpt>
      <trkpt lat="37.15528" lon="-3.5083">
        <ele>995.0</ele>
      </trkpt>
      <trkpt lat="37.15615" lon="-3.51002">
        <ele>977.0</ele>
      </trkpt>
      <trkpt lat="37.15638" lon="-3.51329">
        <ele>957.0</ele>
      </trkpt>
      <trkpt lat="37.15729" lon="-3.51686">
        <ele>931.0</ele>
      </trkpt>
      <trkpt lat="37.15611" lon="-3.51857">
        <ele>910.0</ele>
      </trkpt>
      <trkpt lat="37.15637" lon="-3.52013">
        <ele>891.0</ele>
      </trkpt>
      <trkpt lat="37.15782" lon="-3.51925">
        <ele>875.0</ele>
      </trkpt>
      <trkpt lat="37.1591" lon="-3.51797">
        <ele>863.0</ele>
      </trkpt>
      <trkpt lat="37.15964" lon="-3.51905">
        <ele>853.0</ele>
      </trkpt>
      <trkpt lat="37.1586" lon="-3.52117">
        <ele>834.0</ele>
      </trkpt>
      <trkpt lat="37.15851" lon="-3.5232">
        <ele>814.0</ele>
      </trkpt>
      <trkpt lat="37.15612" lon="-3.52458">
        <ele>793.0</ele>
      </trkpt>
      <trkpt lat="37.15501" lon="-3.52741">
        <ele>776.0</ele>
      </trkpt>
      <trkpt lat="37.15389" lon="-3.53081">
        <ele>760.0</ele>
      </trkpt>
      <trkpt lat="37.15444" lon="-3.53346">
        <ele>744.0</ele>
      </trkpt>
      <trkpt lat="37.15626" lon="-3.53069">
        <ele>737.0</ele>
      </trkpt>
      <trkpt lat="37.15717" lon="-3.52987">
        <ele>745.0</ele>
      </trkpt>
      <trkpt lat="37.15736" lon="-3.5298">
        <ele>747.0</ele>
      </trkpt>
      <trkpt lat="37.1576" lon="-3.53058">
        <ele>747.0</ele>
      </trkpt>
      <trkpt lat="37.15872" lon="-3.53417">
        <ele>744.0</ele>
      </trkpt>
      <trkpt lat="37.15854" lon="-3.53612">
        <ele>742.0</ele>
      </trkpt>
      <trkpt lat="37.15953" lon="-3.53924">
        <ele>741.0</ele>
      </trkpt>
      <trkpt lat="37.16027" lon="-3.54187">
        <ele>741.0</ele>
      </trkpt>
      <trkpt lat="37.16168" lon="-3.54617">
        <ele>740.0</ele>
      </trkpt>
      <trkpt lat="37.162" lon="-3.54656">
        <ele>740.0</ele>
      </trkpt>
      <trkpt lat="37.16193" lon="-3.54743">
        <ele>740.0</ele>
      </trkpt>
      <trkpt lat="37.16251" lon="-3.55081">
        <ele>738.0</ele>
      </trkpt>
      <trkpt lat="37.16125" lon="-3.55354">
        <ele>730.0</ele>
      </trkpt>
      <trkpt lat="37.16127" lon="-3.55473">
        <ele>726.0</ele>
      </trkpt>
      <trkpt lat="37.16242" lon="-3.55815">
        <ele>716.0</ele>
      </trkpt>
      <trkpt lat="37.16272" lon="-3.55955">
        <ele>714.0</ele>
      </trkpt>
      <trkpt lat="37.16271" lon="-3.56159">
        <ele>712.0</ele>
      </trkpt>
      <trkpt lat="37.16302" lon="-3.56315">
        <ele>709.0</ele>
      </trkpt>
      <trkpt lat="37.16291" lon="-3.5645">
        <ele>709.0</ele>
      </trkpt>
      <trkpt lat="37.16309" lon="-3.56556">
        <ele>709.0</ele>
      </trkpt>
      <trkpt lat="37.16306" lon="-3.56718">
        <ele>708.0</ele>
      </trkpt>
      <trkpt lat="37.16265" lon="-3.56806">
        <ele>706.0</ele>
      </trkpt>
      <trkpt lat="37.16235" lon="-3.5691">
        <ele>703.0</ele>
      </trkpt>
      <trkpt lat="37.16277" lon="-3.57085">
        <ele>701.0</ele>
      </trkpt>
      <trkpt lat="37.16359" lon="-3.57385">
        <ele>695.0</ele>
      </trkpt>
      <trkpt lat="37.16371" lon="-3.57456">
        <ele>693.0</ele>
      </trkpt>
      <trkpt lat="37.16408" lon="-3.57658">
        <ele>689.0</ele>
      </trkpt>
      <trkpt lat="37.16464" lon="-3.57882">
        <ele>689.0</ele>
      </trkpt>
      <trkpt lat="37.16539" lon="-3.58146">
        <ele>689.0</ele>
      </trkpt>
      <trkpt lat="37.16584" lon="-3.58302">
        <ele>685.0</ele>
      </trkpt>
      <trkpt lat="37.16627" lon="-3.58452">
        <ele>682.0</ele>
      </trkpt>
      <trkpt lat="37.16692" lon="-3.58676">
        <ele>679.0</ele>
      </trkpt>
      <trkpt lat="37.16729" lon="-3.58766">
        <ele>678.0</ele>
      </trkpt>
      <trkpt lat="37.16795" lon="-3.58871">
        <ele>678.0</ele>
      </trkpt>
      <trkpt lat="37.1679" lon="-3.58904">
        <ele>678.0</ele>
      </trkpt>
      <trkpt lat="37.16752" lon="-3.58917">
        <ele>679.0</ele>
      </trkpt>
      <trkpt lat="37.16694" lon="-3.58975">
        <ele>680.0</ele>
      </trkpt>
      <trkpt lat="37.1666" lon="-3.5901">
        <ele>682.0</ele>
      </trkpt>
      <trkpt lat="37.16648" lon="-3.59015">
        <ele>683.0</ele>
      </trkpt>
      <trkpt lat="37.16633" lon="-3.58995">
        <ele>683.0</ele>
      </trkpt>
      <trkpt lat="37.16555" lon="-3.58929">
        <ele>686.0</ele>
      </trkpt>
      <trkpt lat="37.16481" lon="-3.58866">
        <ele>691.0</ele>
      </trkpt>
      <trkpt lat="37.16379" lon="-3.58779">
        <ele>697.0</ele>
      </trkpt>
      <trkpt lat="37.16322" lon="-3.58752">
        <ele>698.0</ele>
      </trkpt>
      <trkpt lat="37.16292" lon="-3.58717">
        <ele>699.0</ele>
      </trkpt>
      <trkpt lat="37.16238" lon="-3.58702">
        <ele>699.0</ele>
      </trkpt>
      <trkpt lat="37.16154" lon="-3.58683">
        <ele>701.0</ele>
      </trkpt>
      <trkpt lat="37.16126" lon="-3.58691">
        <ele>702.0</ele>
      </trkpt>
      <trkpt lat="37.16065" lon="-3.58664">
        <ele>703.0</ele>
      </trkpt>
      <trkpt lat="37.15987" lon="-3.5859">
        <ele>703.0</ele>
      </trkpt>
      <trkpt lat="37.15886" lon="-3.58466">
        <ele>702.0</ele>
      </trkpt>
      <trkpt lat="37.15877" lon="-3.58458">
        <ele>701.0</ele>
      </trkpt>
      <trkpt lat="37.1582" lon="-3.58424">
        <ele>699.0</ele>
      </trkpt>
      <trkpt lat="37.15779" lon="-3.58451">
        <ele>698.0</ele>
      </trkpt>
      <trkpt lat="37.15632" lon="-3.58556">
        <ele>695.0</ele>
      </trkpt>
      <trkpt lat="37.15589" lon="-3.58595">
        <ele>694.0</ele>
      </trkpt>
      <trkpt lat="37.15504" lon="-3.58522">
        <ele>695.0</ele>
      </trkpt>
      <trkpt lat="37.15425" lon="-3.58372">
        <ele>698.0</ele>
      </trkpt>
      <trkpt lat="37.15352" lon="-3.58267">
        <ele>704.0</ele>
      </trkpt>
      <trkpt lat="37.15276" lon="-3.58191">
        <ele>707.0</ele>
      </trkpt>
      <trkpt lat="37.15143" lon="-3.58039">
        <ele>709.0</ele>
      </trkpt>
      <trkpt lat="37.14998" lon="-3.5788">
        <ele>710.0</ele>
      </trkpt>
      <trkpt lat="37.14936" lon="-3.57804">
        <ele>711.0</ele>
      </trkpt>
      <trkpt lat="37.148" lon="-3.57775">
        <ele>713.0</ele>
      </trkpt>
      <trkpt lat="37.14729" lon="-3.57706">
        <ele>716.0</ele>
      </trkpt>
      <trkpt lat="37.14655" lon="-3.57547">
        <ele>719.0</ele>
      </trkpt>
      <trkpt lat="37.14641" lon="-3.57505">
        <ele>720.0</ele>
      </trkpt>
      <trkpt lat="37.14476" lon="-3.57216">
        <ele>722.0</ele>
      </trkpt>
      <trkpt lat="37.14354" lon="-3.57123">
        <ele>725.0</ele>
      </trkpt>
      <trkpt lat="37.14316" lon="-3.57068">
        <ele>727.0</ele>
      </trkpt>
      <trkpt lat="37.14292" lon="-3.57033">
        <ele>728.0</ele>
      </trkpt>
      <trkpt lat="37.14196" lon="-3.56964">
        <ele>729.0</ele>
      </trkpt>
      <trkpt lat="37.14093" lon="-3.56956">
        <ele>730.0</ele>
      </trkpt>
      <trkpt lat="37.14017" lon="-3.57001">
        <ele>728.0</ele>
      </trkpt>
      <trkpt lat="37.14004" lon="-3.57015">
        <ele>728.0</ele>
      </trkpt>
      <trkpt lat="37.13982" lon="-3.56963">
        <ele>728.0</ele>
      </trkpt>
      <trkpt lat="37.13814" lon="-3.56733">
        <ele>731.0</ele>
      </trkpt>
      <trkpt lat="37.13678" lon="-3.56546">
        <ele>743.0</ele>
      </trkpt>
      <trkpt lat="37.13686" lon="-3.56461">
        <ele>752.0</ele>
      </trkpt>
      <trkpt lat="37.13655" lon="-3.56358">
        <ele>758.0</ele>
      </trkpt>
      <trkpt lat="37.13645" lon="-3.56146">
        <ele>766.0</ele>
      </trkpt>
      <trkpt lat="37.13618" lon="-3.55944">
        <ele>776.0</ele>
      </trkpt>
      <trkpt lat="37.13602" lon="-3.55879">
        <ele>780.0</ele>
      </trkpt>
      <trkpt lat="37.13642" lon="-3.55884">
        <ele>783.0</ele>
      </trkpt>
      <trkpt lat="37.13691" lon="-3.55953">
        <ele>787.0</ele>
      </trkpt>
      <trkpt lat="37.13718" lon="-3.55907">
        <ele>790.0</ele>
      </trkpt>
      <trkpt lat="37.13627" lon="-3.55675">
        <ele>804.0</ele>
      </trkpt>
      <trkpt lat="37.13568" lon="-3.55606">
        <ele>815.0</ele>
      </trkpt>
      <trkpt lat="37.13502" lon="-3.55491">
        <ele>817.0</ele>
      </trkpt>
      <trkpt lat="37.13483" lon="-3.55352">
        <ele>812.0</ele>
      </trkpt>
      <trkpt lat="37.13423" lon="-3.55171">
        <ele>802.0</ele>
      </trkpt>
      <trkpt lat="37.1339" lon="-3.551">
        <ele>800.0</ele>
      </trkpt>
      <trkpt lat="37.13378" lon="-3.5495">
        <ele>800.0</ele>
      </trkpt>
      <trkpt lat="37.13366" lon="-3.54857">
        <ele>801.0</ele>
      </trkpt>
      <trkpt lat="37.13299" lon="-3.54652">
        <ele>804.0</ele>
      </trkpt>
      <trkpt lat="37.13232" lon="-3.5456">
        <ele>806.0</ele>
      </trkpt>
      <trkpt lat="37.13215" lon="-3.54403">
        <ele>807.0</ele>
      </trkpt>
      <trkpt lat="37.13185" lon="-3.54299">
        <ele>803.0</ele>
      </trkpt>
      <trkpt lat="37.13177" lon="-3.54189">
        <ele>800.0</ele>
      </trkpt>
      <trkpt lat="37.13197" lon="-3.54088">
        <ele>802.0</ele>
      </trkpt>
      <trkpt lat="37.13225" lon="-3.54003">
        <ele>803.0</ele>
      </trkpt>
      <trkpt lat="37.1321" lon="-3.53943">
        <ele>805.0</ele>
      </trkpt>
      <trkpt lat="37.13249" lon="-3.53917">
        <ele>806.0</ele>
      </trkpt>
      <trkpt lat="37.13167" lon="-3.53726">
        <ele>809.0</ele>
      </trkpt>
      <trkpt lat="37.13049" lon="-3.53553">
        <ele>816.0</ele>
      </trkpt>
      <trkpt lat="37.13042" lon="-3.53414">
        <ele>821.0</ele>
      </trkpt>
      <trkpt lat="37.13018" lon="-3.53339">
        <ele>825.0</ele>
      </trkpt>
      <trkpt lat="37.13118" lon="-3.53433">
        <ele>835.0</ele>
      </trkpt>
      <trkpt lat="37.13135" lon="-3.53326">
        <ele>847.0</ele>
      </trkpt>
      <trkpt lat="37.12998" lon="-3.53181">
        <ele>873.0</ele>
      </trkpt>
      <trkpt lat="37.12995" lon="-3.53066">
        <ele>887.0</ele>
      </trkpt>
      <trkpt lat="37.13064" lon="-3.52895">
        <ele>905.0</ele>
      </trkpt>
      <trkpt lat="37.13189" lon="-3.52739">
        <ele>927.0</ele>
      </trkpt>
      <trkpt lat="37.13342" lon="-3.52558">
        <ele>956.0</ele>
      </trkpt>
      <trkpt lat="37.13453" lon="-3.52441">
        <ele>977.0</ele>
      </trkpt>
      <trkpt lat="37.13517" lon="-3.52216">
        <ele>1002.0</ele>
      </trkpt>
      <trkpt lat="37.13576" lon="-3.52233">
        <ele>1015.0</ele>
      </trkpt>
      <trkpt lat="37.13635" lon="-3.52166">
        <ele>1026.0</ele>
      </trkpt>
      <trkpt lat="37.13739" lon="-3.51996">
        <ele>1055.0</ele>
      </trkpt>
      <trkpt lat="37.13686" lon="-3.51889">
        <ele>1071.0</ele>
      </trkpt>
      <trkpt lat="37.13635" lon="-3.51589">
        <ele>1087.0</ele>
      </trkpt>
      <trkpt lat="37.13681" lon="-3.51602">
        <ele>1100.0</ele>
      </trkpt>
      <trkpt lat="37.13649" lon="-3.51467">
        <ele>1115.0</ele>
      </trkpt>
      <trkpt lat="37.13657" lon="-3.51363">
        <ele>1133.0</ele>
      </trkpt>
      <trkpt lat="37.13605" lon="-3.51218">
        <ele>1141.0</ele>
      </trkpt>
      <trkpt lat="37.13667" lon="-3.51067">
        <ele>1160.0</ele>
      </trkpt>
      <trkpt lat="37.13716" lon="-3.50983">
        <ele>1171.0</ele>
      </trkpt>
      <trkpt lat="37.13705" lon="-3.50927">
        <ele>1177.0</ele>
      </trkpt>
      <trkpt lat="37.13729" lon="-3.50816">
        <ele>1188.0</ele>
      </trkpt>
      <trkpt lat="37.13737" lon="-3.50899">
        <ele>1193.0</ele>
      </trkpt>
      <trkpt lat="37.13781" lon="-3.50942">
        <ele>1198.0</ele>
      </trkpt>
      <trkpt lat="37.13798" lon="-3.51101">
        <ele>1205.0</ele>
      </trkpt>
      <trkpt lat="37.13837" lon="-3.5123">
        <ele>1216.0</ele>
      </trkpt>
      <trkpt lat="37.13902" lon="-3.5139">
        <ele>1228.0</ele>
      </trkpt>
      <trkpt lat="37.13904" lon="-3.51363">
        <ele>1233.0</ele>
      </trkpt>
      <trkpt lat="37.13877" lon="-3.51243">
        <ele>1242.0</ele>
      </trkpt>
      <trkpt lat="37.13914" lon="-3.5103">
        <ele>1259.0</ele>
      </trkpt>
      <trkpt lat="37.1399" lon="-3.50892">
        <ele>1273.0</ele>
      </trkpt>
      <trkpt lat="37.14049" lon="-3.5063">
        <ele>1289.0</ele>
      </trkpt>
      <trkpt lat="37.14042" lon="-3.50494">
        <ele>1302.0</ele>
      </trkpt>
      <trkpt lat="37.13977" lon="-3.5034">
        <ele>1312.0</ele>
      </trkpt>
      <trkpt lat="37.13855" lon="-3.50126">
        <ele>1330.0</ele>
      </trkpt>
      <trkpt lat="37.13764" lon="-3.49891">
        <ele>1354.0</ele>
      </trkpt>
      <trkpt lat="37.13846" lon="-3.49811">
        <ele>1366.0</ele>
      </trkpt>
      <trkpt lat="37.13847" lon="-3.49613">
        <ele>1389.0</ele>
      </trkpt>
      <trkpt lat="37.13874" lon="-3.49458">
        <ele>1416.0</ele>
      </trkpt>
      <trkpt lat="37.13847" lon="-3.49322">
        <ele>1431.0</ele>
      </trkpt>
      <trkpt lat="37.13838" lon="-3.49167">
        <ele>1430.0</ele>
      </trkpt>
      <trkpt lat="37.13818" lon="-3.49039">
        <ele>1433.0</ele>
      </trkpt>
      <trkpt lat="37.13756" lon="-3.48823">
        <ele>1436.0</ele>
      </trkpt>
      <trkpt lat="37.13633" lon="-3.48555">
        <ele>1420.0</ele>
      </trkpt>
      <trkpt lat="37.1365" lon="-3.48215">
        <ele>1406.0</ele>
      </trkpt>
      <trkpt lat="37.13595" lon="-3.47572">
        <ele>1449.0</ele>
      </trkpt>
      <trkpt lat="37.13618" lon="-3.47386">
        <ele>1479.0</ele>
      </trkpt>
      <trkpt lat="37.13642" lon="-3.47301">
        <ele>1488.0</ele>
      </trkpt>
      <trkpt lat="37.13703" lon="-3.46968">
        <ele>1469.0</ele>
      </trkpt>
      <trkpt lat="37.13699" lon="-3.46794">
        <ele>1457.0</ele>
      </trkpt>
      <trkpt lat="37.1387" lon="-3.46702">
        <ele>1438.0</ele>
      </trkpt>
      <trkpt lat="37.13818" lon="-3.46858">
        <ele>1425.0</ele>
      </trkpt>
      <trkpt lat="37.13979" lon="-3.46977">
        <ele>1409.0</ele>
      </trkpt>
      <trkpt lat="37.13994" lon="-3.47119">
        <ele>1393.0</ele>
      </trkpt>
      <trkpt lat="37.14042" lon="-3.47245">
        <ele>1386.0</ele>
      </trkpt>
      <trkpt lat="37.14081" lon="-3.47594">
        <ele>1369.0</ele>
      </trkpt>
      <trkpt lat="37.14128" lon="-3.47898">
        <ele>1359.0</ele>
      </trkpt>
      <trkpt lat="37.1412" lon="-3.47992">
        <ele>1358.0</ele>
      </trkpt>
      <trkpt lat="37.1407" lon="-3.481">
        <ele>1354.0</ele>
      </trkpt>
      <trkpt lat="37.13934" lon="-3.48261">
        <ele>1343.0</ele>
      </trkpt>
      <trkpt lat="37.13905" lon="-3.48352">
        <ele>1335.0</ele>
      </trkpt>
      <trkpt lat="37.14033" lon="-3.48576">
        <ele>1322.0</ele>
      </trkpt>
      <trkpt lat="37.14161" lon="-3.48669">
        <ele>1312.0</ele>
      </trkpt>
      <trkpt lat="37.14251" lon="-3.48776">
        <ele>1301.0</ele>
      </trkpt>
      <trkpt lat="37.14366" lon="-3.48606">
        <ele>1283.0</ele>
      </trkpt>
      <trkpt lat="37.14471" lon="-3.48731">
        <ele>1274.0</ele>
      </trkpt>
      <trkpt lat="37.14543" lon="-3.48751">
        <ele>1266.0</ele>
      </trkpt>
      <trkpt lat="37.14608" lon="-3.48582">
        <ele>1254.0</ele>
      </trkpt>
      <trkpt lat="37.14887" lon="-3.48537">
        <ele>1240.0</ele>
      </trkpt>
      <trkpt lat="37.15002" lon="-3.48411">
        <ele>1217.0</ele>
      </trkpt>
      <trkpt lat="37.15006" lon="-3.48144">
        <ele>1198.0</ele>
      </trkpt>
      <trkpt lat="37.15222" lon="-3.48027">
        <ele>1178.0</ele>
      </trkpt>
      <trkpt lat="37.15223" lon="-3.47944">
        <ele>1175.0</ele>
      </trkpt>
      <trkpt lat="37.1521" lon="-3.47852">
        <ele>1170.0</ele>
      </trkpt>
      <trkpt lat="37.15255" lon="-3.47847">
        <ele>1164.0</ele>
      </trkpt>
      <trkpt lat="37.15306" lon="-3.48062">
        <ele>1150.0</ele>
      </trkpt>
      <trkpt lat="37.15196" lon="-3.48224">
        <ele>1134.0</ele>
      </trkpt>
      <trkpt lat="37.15344" lon="-3.48534">
        <ele>1113.0</ele>
      </trkpt>
      <trkpt lat="37.15528" lon="-3.48938">
        <ele>1079.0</ele>
      </trkpt>
      <trkpt lat="37.15399" lon="-3.49057">
        <ele>1065.0</ele>
      </trkpt>
      <trkpt lat="37.15483" lon="-3.49205">
        <ele>1052.0</ele>
      </trkpt>
      <trkpt lat="37.15494" lon="-3.49381">
        <ele>1036.0</ele>
      </trkpt>
      <trkpt lat="37.15455" lon="-3.49595">
        <ele>1021.0</ele>
      </trkpt>
      <trkpt lat="37.15485" lon="-3.49605">
        <ele>1015.0</ele>
      </trkpt>
      <trkpt lat="37.15494" lon="-3.49514">
        <ele>1009.0</ele>
      </trkpt>
      <trkpt lat="37.15635" lon="-3.49403">
        <ele>999.0</ele>
      </trkpt>
      <trkpt lat="37.15749" lon="-3.49292">
        <ele>983.0</ele>
      </trkpt>
      <trkpt lat="37.15837" lon="-3.49336">
        <ele>975.0</ele>
      </trkpt>
      <trkpt lat="37.15833" lon="-3.49461">
        <ele>972.0</ele>
      </trkpt>
      <trkpt lat="37.15726" lon="-3.49544">
        <ele>964.0</ele>
      </trkpt>
      <trkpt lat="37.15664" lon="-3.49618">
        <ele>956.0</ele>
      </trkpt>
      <trkpt lat="37.15733" lon="-3.49654">
        <ele>950.0</ele>
      </trkpt>
      <trkpt lat="37.15849" lon="-3.49722">
        <ele>937.0</ele>
      </trkpt>
      <trkpt lat="37.15762" lon="-3.49862">
        <ele>925.0</ele>
      </trkpt>
      <trkpt lat="37.15909" lon="-3.50119">
        <ele>909.0</ele>
      </trkpt>
      <trkpt lat="37.16007" lon="-3.50051">
        <ele>896.0</ele>
      </trkpt>
      <trkpt lat="37.16026" lon="-3.49855">
        <ele>883.0</ele>
      </trkpt>
      <trkpt lat="37.16098" lon="-3.49579">
        <ele>862.0</ele>
      </trkpt>
      <trkpt lat="37.16174" lon="-3.49552">
        <ele>856.0</ele>
      </trkpt>
      <trkpt lat="37.16146" lon="-3.49436">
        <ele>850.0</ele>
      </trkpt>
      <trkpt lat="37.16195" lon="-3.49496">
        <ele>841.0</ele>
      </trkpt>
      <trkpt lat="37.16277" lon="-3.49677">
        <ele>824.0</ele>
      </trkpt>
      <trkpt lat="37.16266" lon="-3.49875">
        <ele>810.0</ele>
      </trkpt>
      <trkpt lat="37.16267" lon="-3.50092">
        <ele>801.0</ele>
      </trkpt>
      <trkpt lat="37.16279" lon="-3.50267">
        <ele>788.0</ele>
      </trkpt>
      <trkpt lat="37.16282" lon="-3.50285">
        <ele>786.0</ele>
      </trkpt>
      <trkpt lat="37.16226" lon="-3.50354">
        <ele>785.0</ele>
      </trkpt>
      <trkpt lat="37.16154" lon="-3.5058">
        <ele>780.0</ele>
      </trkpt>
      <trkpt lat="37.1616" lon="-3.50703">
        <ele>776.0</ele>
      </trkpt>
      <trkpt lat="37.16238" lon="-3.50805">
        <ele>773.0</ele>
      </trkpt>
      <trkpt lat="37.16324" lon="-3.50702">
        <ele>777.0</ele>
      </trkpt>
      <trkpt lat="37.16401" lon="-3.50387">
        <ele>796.0</ele>
      </trkpt>
      <trkpt lat="37.16461" lon="-3.50269">
        <ele>801.0</ele>
      </trkpt>
      <trkpt lat="37.16425" lon="-3.50067">
        <ele>804.0</ele>
      </trkpt>
      <trkpt lat="37.16477" lon="-3.49852">
        <ele>801.0</ele>
      </trkpt>
      <trkpt lat="37.16508" lon="-3.49719">
        <ele>806.0</ele>
      </trkpt>
      <trkpt lat="37.1641" lon="-3.49547">
        <ele>808.0</ele>
      </trkpt>
      <trkpt lat="37.16418" lon="-3.49375">
        <ele>815.0</ele>
      </trkpt>
      <trkpt lat="37.16353" lon="-3.4917">
        <ele>830.0</ele>
      </trkpt>
      <trkpt lat="37.16249" lon="-3.49003">
        <ele>845.0</ele>
      </trkpt>
      <trkpt lat="37.16135" lon="-3.4903">
        <ele>847.0</ele>
      </trkpt>
      <trkpt lat="37.16186" lon="-3.48977">
        <ele>858.0</ele>
      </trkpt>
      <trkpt lat="37.16302" lon="-3.48922">
        <ele>874.0</ele>
      </trkpt>
      <trkpt lat="37.16246" lon="-3.48872">
        <ele>884.0</ele>
      </trkpt>
      <trkpt lat="37.16179" lon="-3.48835">
        <ele>895.0</ele>
      </trkpt>
      <trkpt lat="37.16255" lon="-3.48765">
        <ele>908.0</ele>
      </trkpt>
      <trkpt lat="37.16231" lon="-3.48616">
        <ele>921.0</ele>
      </trkpt>
      <trkpt lat="37.16328" lon="-3.48415">
        <ele>935.0</ele>
      </trkpt>
      <trkpt lat="37.16329" lon="-3.48276">
        <ele>945.0</ele>
      </trkpt>
      <trkpt lat="37.16172" lon="-3.48171">
        <ele>957.0</ele>
      </trkpt>
      <trkpt lat="37.16119" lon="-3.48045">
        <ele>966.0</ele>
      </trkpt>
      <trkpt lat="37.16141" lon="-3.47912">
        <ele>975.0</ele>
      </trkpt>
      <trkpt lat="37.16164" lon="-3.47731">
        <ele>976.0</ele>
      </trkpt>
      <trkpt lat="37.16088" lon="-3.47641">
        <ele>969.0</ele>
      </trkpt>
      <trkpt lat="37.16046" lon="-3.47475">
        <ele>967.0</ele>
      </trkpt>
      <trkpt lat="37.15957" lon="-3.47295">
        <ele>961.0</ele>
      </trkpt>
      <trkpt lat="37.16047" lon="-3.4701">
        <ele>965.0</ele>
      </trkpt>
      <trkpt lat="37.16179" lon="-3.46851">
        <ele>989.0</ele>
      </trkpt>
      <trkpt lat="37.16319" lon="-3.46721">
        <ele>1006.0</ele>
      </trkpt>
      <trkpt lat="37.1625" lon="-3.46604">
        <ele>1014.0</ele>
      </trkpt>
      <trkpt lat="37.16167" lon="-3.46542">
        <ele>1021.0</ele>
      </trkpt>
      <trkpt lat="37.16176" lon="-3.46329">
        <ele>1027.0</ele>
      </trkpt>
      <trkpt lat="37.16237" lon="-3.46175">
        <ele>1032.0</ele>
      </trkpt>
      <trkpt lat="37.16194" lon="-3.46096">
        <ele>1036.0</ele>
      </trkpt>
      <trkpt lat="37.16097" lon="-3.46024">
        <ele>1044.0</ele>
      </trkpt>
      <trkpt lat="37.16127" lon="-3.45808">
        <ele>1058.0</ele>
      </trkpt>
      <trkpt lat="37.16083" lon="-3.45485">
        <ele>1080.0</ele>
      </trkpt>
      <trkpt lat="37.16108" lon="-3.45226">
        <ele>1080.0</ele>
      </trkpt>
      <trkpt lat="37.15983" lon="-3.45106">
        <ele>1073.0</ele>
      </trkpt>
      <trkpt lat="37.1593" lon="-3.44996">
        <ele>1065.0</ele>
      </trkpt>
      <trkpt lat="37.15896" lon="-3.44888">
        <ele>1061.0</ele>
      </trkpt>
      <trkpt lat="37.15903" lon="-3.44743">
        <ele>1066.0</ele>
      </trkpt>
      <trkpt lat="37.15757" lon="-3.44752">
        <ele>1068.0</ele>
      </trkpt>
      <trkpt lat="37.15696" lon="-3.44639">
        <ele>1066.0</ele>
      </trkpt>
      <trkpt lat="37.15677" lon="-3.44544">
        <ele>1066.0</ele>
      </trkpt>
      <trkpt lat="37.15752" lon="-3.4443">
        <ele>1066.0</ele>
      </trkpt>
      <trkpt lat="37.15903" lon="-3.44249">
        <ele>1074.0</ele>
      </trkpt>
      <trkpt lat="37.15864" lon="-3.44024">
        <ele>1071.0</ele>
      </trkpt>
      <trkpt lat="37.15854" lon="-3.43934">
        <ele>1068.0</ele>
      </trkpt>
      <trkpt lat="37.15812" lon="-3.43821">
        <ele>1063.0</ele>
      </trkpt>
      <trkpt lat="37.15792" lon="-3.43739">
        <ele>1058.0</ele>
      </trkpt>
      <trkpt lat="37.15733" lon="-3.43715">
        <ele>1052.0</ele>
      </trkpt>
      <trkpt lat="37.15596" lon="-3.4358">
        <ele>1037.0</ele>
      </trkpt>
      <trkpt lat="37.15556" lon="-3.43413">
        <ele>1022.0</ele>
      </trkpt>
      <trkpt lat="37.15486" lon="-3.43273">
        <ele>1006.0</ele>
      </trkpt>
      <trkpt lat="37.15393" lon="-3.43197">
        <ele>992.0</ele>
      </trkpt>
      <trkpt lat="37.15461" lon="-3.43363">
        <ele>982.0</ele>
      </trkpt>
      <trkpt lat="37.15448" lon="-3.4344">
        <ele>982.0</ele>
      </trkpt>
      <trkpt lat="37.15412" lon="-3.43467">
        <ele>983.0</ele>
      </trkpt>
      <trkpt lat="37.1536" lon="-3.43612">
        <ele>992.0</ele>
      </trkpt>
      <trkpt lat="37.15348" lon="-3.43549">
        <ele>1000.0</ele>
      </trkpt>
      <trkpt lat="37.15347" lon="-3.43494">
        <ele>1008.0</ele>
      </trkpt>
      <trkpt lat="37.15321" lon="-3.43528">
        <ele>1013.0</ele>
      </trkpt>
      <trkpt lat="37.15345" lon="-3.43449">
        <ele>1019.0</ele>
      </trkpt>
      <trkpt lat="37.15296" lon="-3.4348">
        <ele>1028.0</ele>
      </trkpt>
      <trkpt lat="37.15224" lon="-3.43657">
        <ele>1051.0</ele>
      </trkpt>
      <trkpt lat="37.15212" lon="-3.43581">
        <ele>1062.0</ele>
      </trkpt>
      <trkpt lat="37.15214" lon="-3.43529">
        <ele>1073.0</ele>
      </trkpt>
      <trkpt lat="37.1515" lon="-3.43639">
        <ele>1086.0</ele>
      </trkpt>
      <trkpt lat="37.15093" lon="-3.4371">
        <ele>1102.0</ele>
      </trkpt>
      <trkpt lat="37.15107" lon="-3.4364">
        <ele>1112.0</ele>
      </trkpt>
      <trkpt lat="37.15053" lon="-3.437">
        <ele>1120.0</ele>
      </trkpt>
      <trkpt lat="37.15057" lon="-3.43614">
        <ele>1125.0</ele>
      </trkpt>
      <trkpt lat="37.15078" lon="-3.43481">
        <ele>1132.0</ele>
      </trkpt>
      <trkpt lat="37.15055" lon="-3.43266">
        <ele>1131.0</ele>
      </trkpt>
      <trkpt lat="37.15019" lon="-3.43155">
        <ele>1138.0</ele>
      </trkpt>
      <trkpt lat="37.14909" lon="-3.4299">
        <ele>1154.0</ele>
      </trkpt>
      <trkpt lat="37.14887" lon="-3.42962">
        <ele>1167.0</ele>
      </trkpt>
      <trkpt lat="37.1488" lon="-3.43261">
        <ele>1187.0</ele>
      </trkpt>
      <trkpt lat="37.14821" lon="-3.43246">
        <ele>1204.0</ele>
      </trkpt>
      <trkpt lat="37.14737" lon="-3.42918">
        <ele>1241.0</ele>
      </trkpt>
      <trkpt lat="37.14647" lon="-3.43006">
        <ele>1267.0</ele>
      </trkpt>
      <trkpt lat="37.14624" lon="-3.42938">
        <ele>1294.0</ele>
      </trkpt>
      <trkpt lat="37.14558" lon="-3.43012">
        <ele>1309.0</ele>
      </trkpt>
      <trkpt lat="37.14469" lon="-3.42836">
        <ele>1325.0</ele>
      </trkpt>
      <trkpt lat="37.14257" lon="-3.42557">
        <ele>1377.0</ele>
      </trkpt>
      <trkpt lat="37.14185" lon="-3.42341">
        <ele>1406.0</ele>
      </trkpt>
      <trkpt lat="37.14053" lon="-3.42266">
        <ele>1435.0</ele>
      </trkpt>
      <trkpt lat="37.1403" lon="-3.42356">
        <ele>1450.0</ele>
      </trkpt>
      <trkpt lat="37.14005" lon="-3.42234">
        <ele>1461.0</ele>
      </trkpt>
      <trkpt lat="37.13954" lon="-3.42057">
        <ele>1479.0</ele>
      </trkpt>
      <trkpt lat="37.13857" lon="-3.41974">
        <ele>1494.0</ele>
      </trkpt>
      <trkpt lat="37.13795" lon="-3.4187">
        <ele>1505.0</ele>
      </trkpt>
      <trkpt lat="37.13712" lon="-3.41784">
        <ele>1524.0</ele>
      </trkpt>
      <trkpt lat="37.13682" lon="-3.41895">
        <ele>1534.0</ele>
      </trkpt>
      <trkpt lat="37.1369" lon="-3.41987">
        <ele>1540.0</ele>
      </trkpt>
      <trkpt lat="37.13706" lon="-3.42042">
        <ele>1545.0</ele>
      </trkpt>
      <trkpt lat="37.13728" lon="-3.42153">
        <ele>1552.0</ele>
      </trkpt>
      <trkpt lat="37.13752" lon="-3.42227">
        <ele>1557.0</ele>
      </trkpt>
      <trkpt lat="37.13781" lon="-3.42367">
        <ele>1564.0</ele>
      </trkpt>
      <trkpt lat="37.13755" lon="-3.4256">
        <ele>1576.0</ele>
      </trkpt>
      <trkpt lat="37.13779" lon="-3.42698">
        <ele>1584.0</ele>
      </trkpt>
      <trkpt lat="37.13834" lon="-3.4285">
        <ele>1593.0</ele>
      </trkpt>
      <trkpt lat="37.13836" lon="-3.42956">
        <ele>1603.0</ele>
      </trkpt>
      <trkpt lat="37.13767" lon="-3.42921">
        <ele>1611.0</ele>
      </trkpt>
      <trkpt lat="37.13717" lon="-3.42874">
        <ele>1616.0</ele>
      </trkpt>
      <trkpt lat="37.13699" lon="-3.42985">
        <ele>1621.0</ele>
      </trkpt>
      <trkpt lat="37.13656" lon="-3.42959">
        <ele>1626.0</ele>
      </trkpt>
      <trkpt lat="37.13679" lon="-3.42871">
        <ele>1633.0</ele>
      </trkpt>
      <trkpt lat="37.13641" lon="-3.42939">
        <ele>1638.0</ele>
      </trkpt>
      <trkpt lat="37.13566" lon="-3.43088">
        <ele>1652.0</ele>
      </trkpt>
      <trkpt lat="37.1351" lon="-3.43146">
        <ele>1658.0</ele>
      </trkpt>
      <trkpt lat="37.13399" lon="-3.43257">
        <ele>1666.0</ele>
      </trkpt>
      <trkpt lat="37.13273" lon="-3.43369">
        <ele>1672.0</ele>
      </trkpt>
      <trkpt lat="37.1327" lon="-3.43487">
        <ele>1665.0</ele>
      </trkpt>
      <trkpt lat="37.13304" lon="-3.4361">
        <ele>1650.0</ele>
      </trkpt>
      <trkpt lat="37.1328" lon="-3.43826">
        <ele>1646.0</ele>
      </trkpt>
      <trkpt lat="37.13372" lon="-3.43953">
        <ele>1636.0</ele>
      </trkpt>
      <trkpt lat="37.1348" lon="-3.4411">
        <ele>1625.0</ele>
      </trkpt>
      <trkpt lat="37.13452" lon="-3.44236">
        <ele>1617.0</ele>
      </trkpt>
      <trkpt lat="37.13304" lon="-3.44284">
        <ele>1609.0</ele>
      </trkpt>
      <trkpt lat="37.13259" lon="-3.44448">
        <ele>1594.0</ele>
      </trkpt>
      <trkpt lat="37.13219" lon="-3.44625">
        <ele>1579.0</ele>
      </trkpt>
      <trkpt lat="37.13048" lon="-3.44764">
        <ele>1574.0</ele>
      </trkpt>
      <trkpt lat="37.13144" lon="-3.44916">
        <ele>1574.0</ele>
      </trkpt>
      <trkpt lat="37.13219" lon="-3.44966">
        <ele>1573.0</ele>
      </trkpt>
      <trkpt lat="37.13272" lon="-3.45061">
        <ele>1572.0</ele>
      </trkpt>
      <trkpt lat="37.13362" lon="-3.45105">
        <ele>1570.0</ele>
      </trkpt>
      <trkpt lat="37.13493" lon="-3.45201">
        <ele>1566.0</ele>
      </trkpt>
      <trkpt lat="37.13552" lon="-3.4532">
        <ele>1563.0</ele>
      </trkpt>
      <trkpt lat="37.13648" lon="-3.4539">
        <ele>1560.0</ele>
      </trkpt>
      <trkpt lat="37.13578" lon="-3.45669">
        <ele>1555.0</ele>
      </trkpt>
      <trkpt lat="37.13681" lon="-3.45762">
        <ele>1538.0</ele>
      </trkpt>
      <trkpt lat="37.13832" lon="-3.45663">
        <ele>1520.0</ele>
      </trkpt>
      <trkpt lat="37.13901" lon="-3.45734">
        <ele>1516.0</ele>
      </trkpt>
      <trkpt lat="37.13853" lon="-3.45946">
        <ele>1510.0</ele>
      </trkpt>
      <trkpt lat="37.13889" lon="-3.4609">
        <ele>1500.0</ele>
      </trkpt>
      <trkpt lat="37.1399" lon="-3.46075">
        <ele>1489.0</ele>
      </trkpt>
      <trkpt lat="37.14066" lon="-3.46221">
        <ele>1478.0</ele>
      </trkpt>
      <trkpt lat="37.14138" lon="-3.46342">
        <ele>1465.0</ele>
      </trkpt>
      <trkpt lat="37.1394" lon="-3.4659">
        <ele>1448.0</ele>
      </trkpt>
      <trkpt lat="37.13881" lon="-3.46696">
        <ele>1439.0</ele>
      </trkpt>
      <trkpt lat="37.13811" lon="-3.46848">
        <ele>1427.0</ele>
      </trkpt>
      <trkpt lat="37.13958" lon="-3.46934">
        <ele>1413.0</ele>
      </trkpt>
      <trkpt lat="37.14009" lon="-3.47089">
        <ele>1395.0</ele>
      </trkpt>
      <trkpt lat="37.14035" lon="-3.47228">
        <ele>1388.0</ele>
      </trkpt>
      <trkpt lat="37.14074" lon="-3.47554">
        <ele>1371.0</ele>
      </trkpt>
      <trkpt lat="37.14126" lon="-3.47888">
        <ele>1360.0</ele>
      </trkpt>
      <trkpt lat="37.14126" lon="-3.47982">
        <ele>1358.0</ele>
      </trkpt>
      <trkpt lat="37.14087" lon="-3.48072">
        <ele>1356.0</ele>
      </trkpt>
      <trkpt lat="37.14001" lon="-3.48213">
        <ele>1346.0</ele>
      </trkpt>
      <trkpt lat="37.139" lon="-3.48339">
        <ele>1335.0</ele>
      </trkpt>
      <trkpt lat="37.14032" lon="-3.48575">
        <ele>1324.0</ele>
      </trkpt>
      <trkpt lat="37.14181" lon="-3.48699">
        <ele>1311.0</ele>
      </trkpt>
      <trkpt lat="37.14268" lon="-3.48762">
        <ele>1300.0</ele>
      </trkpt>
      <trkpt lat="37.14382" lon="-3.48601">
        <ele>1282.0</ele>
      </trkpt>
      <trkpt lat="37.14478" lon="-3.48737">
        <ele>1273.0</ele>
      </trkpt>
      <trkpt lat="37.14566" lon="-3.48724">
        <ele>1263.0</ele>
      </trkpt>
      <trkpt lat="37.14656" lon="-3.4853">
        <ele>1250.0</ele>
      </trkpt>
      <trkpt lat="37.14928" lon="-3.48532">
        <ele>1230.0</ele>
      </trkpt>
      <trkpt lat="37.14999" lon="-3.48386">
        <ele>1215.0</ele>
      </trkpt>
      <trkpt lat="37.15025" lon="-3.48126">
        <ele>1195.0</ele>
      </trkpt>
      <trkpt lat="37.15222" lon="-3.48027">
        <ele>1178.0</ele>
      </trkpt>
      <trkpt lat="37.15207" lon="-3.47905">
        <ele>1175.0</ele>
      </trkpt>
      <trkpt lat="37.15215" lon="-3.47847">
        <ele>1169.0</ele>
      </trkpt>
      <trkpt lat="37.1526" lon="-3.47852">
        <ele>1164.0</ele>
      </trkpt>
      <trkpt lat="37.153" lon="-3.48082">
        <ele>1148.0</ele>
      </trkpt>
      <trkpt lat="37.15196" lon="-3.48224">
        <ele>1134.0</ele>
      </trkpt>
      <trkpt lat="37.15354" lon="-3.48555">
        <ele>1109.0</ele>
      </trkpt>
      <trkpt lat="37.15522" lon="-3.48957">
        <ele>1077.0</ele>
      </trkpt>
      <trkpt lat="37.15396" lon="-3.49076">
        <ele>1063.0</ele>
      </trkpt>
      <trkpt lat="37.15496" lon="-3.49227">
        <ele>1049.0</ele>
      </trkpt>
      <trkpt lat="37.15494" lon="-3.49381">
        <ele>1036.0</ele>
      </trkpt>
      <trkpt lat="37.15458" lon="-3.49601">
        <ele>1019.0</ele>
      </trkpt>
      <trkpt lat="37.15489" lon="-3.496">
        <ele>1015.0</ele>
      </trkpt>
      <trkpt lat="37.15501" lon="-3.49506">
        <ele>1009.0</ele>
      </trkpt>
      <trkpt lat="37.15642" lon="-3.49397">
        <ele>997.0</ele>
      </trkpt>
      <trkpt lat="37.15749" lon="-3.49292">
        <ele>983.0</ele>
      </trkpt>
      <trkpt lat="37.15845" lon="-3.49351">
        <ele>975.0</ele>
      </trkpt>
      <trkpt lat="37.15826" lon="-3.49494">
        <ele>971.0</ele>
      </trkpt>
      <trkpt lat="37.15718" lon="-3.49548">
        <ele>963.0</ele>
      </trkpt>
      <trkpt lat="37.15666" lon="-3.49627">
        <ele>956.0</ele>
      </trkpt>
      <trkpt lat="37.15733" lon="-3.49654">
        <ele>950.0</ele>
      </trkpt>
      <trkpt lat="37.15849" lon="-3.49739">
        <ele>936.0</ele>
      </trkpt>
      <trkpt lat="37.15754" lon="-3.4996">
        <ele>922.0</ele>
      </trkpt>
      <trkpt lat="37.15927" lon="-3.50132">
        <ele>906.0</ele>
      </trkpt>
      <trkpt lat="37.16027" lon="-3.50035">
        <ele>895.0</ele>
      </trkpt>
      <trkpt lat="37.16026" lon="-3.49855">
        <ele>883.0</ele>
      </trkpt>
      <trkpt lat="37.1609" lon="-3.4959">
        <ele>862.0</ele>
      </trkpt>
      <trkpt lat="37.16169" lon="-3.49564">
        <ele>856.0</ele>
      </trkpt>
      <trkpt lat="37.16139" lon="-3.49451">
        <ele>852.0</ele>
      </trkpt>
      <trkpt lat="37.16188" lon="-3.4948">
        <ele>843.0</ele>
      </trkpt>
      <trkpt lat="37.16257" lon="-3.49614">
        <ele>829.0</ele>
      </trkpt>
      <trkpt lat="37.16264" lon="-3.49857">
        <ele>811.0</ele>
      </trkpt>
      <trkpt lat="37.16265" lon="-3.50075">
        <ele>803.0</ele>
      </trkpt>
      <trkpt lat="37.16281" lon="-3.50262">
        <ele>788.0</ele>
      </trkpt>
      <trkpt lat="37.16281" lon="-3.50283">
        <ele>786.0</ele>
      </trkpt>
      <trkpt lat="37.16272" lon="-3.50298">
        <ele>786.0</ele>
      </trkpt>
      <trkpt lat="37.16168" lon="-3.50521">
        <ele>781.0</ele>
      </trkpt>
      <trkpt lat="37.16158" lon="-3.507">
        <ele>776.0</ele>
      </trkpt>
      <trkpt lat="37.16255" lon="-3.50788">
        <ele>772.0</ele>
      </trkpt>
      <trkpt lat="37.16322" lon="-3.5071">
        <ele>777.0</ele>
      </trkpt>
      <trkpt lat="37.16378" lon="-3.50437">
        <ele>789.0</ele>
      </trkpt>
      <trkpt lat="37.16457" lon="-3.50282">
        <ele>800.0</ele>
      </trkpt>
      <trkpt lat="37.16428" lon="-3.50085">
        <ele>804.0</ele>
      </trkpt>
      <trkpt lat="37.16472" lon="-3.49867">
        <ele>801.0</ele>
      </trkpt>
      <trkpt lat="37.16517" lon="-3.49735">
        <ele>806.0</ele>
      </trkpt>
      <trkpt lat="37.16427" lon="-3.49584">
        <ele>808.0</ele>
      </trkpt>
      <trkpt lat="37.16422" lon="-3.49388">
        <ele>814.0</ele>
      </trkpt>
      <trkpt lat="37.16353" lon="-3.49187">
        <ele>827.0</ele>
      </trkpt>
      <trkpt lat="37.16256" lon="-3.49012">
        <ele>844.0</ele>
      </trkpt>
      <trkpt lat="37.16146" lon="-3.49031">
        <ele>846.0</ele>
      </trkpt>
      <trkpt lat="37.16145" lon="-3.48976">
        <ele>854.0</ele>
      </trkpt>
      <trkpt lat="37.16294" lon="-3.48936">
        <ele>872.0</ele>
      </trkpt>
      <trkpt lat="37.16256" lon="-3.48866">
        <ele>882.0</ele>
      </trkpt>
      <trkpt lat="37.16178" lon="-3.48849">
        <ele>893.0</ele>
      </trkpt>
      <trkpt lat="37.16249" lon="-3.48776">
        <ele>906.0</ele>
      </trkpt>
      <trkpt lat="37.16237" lon="-3.48651">
        <ele>918.0</ele>
      </trkpt>
      <trkpt lat="37.16321" lon="-3.4843">
        <ele>932.0</ele>
      </trkpt>
      <trkpt lat="37.16337" lon="-3.48285">
        <ele>945.0</ele>
      </trkpt>
      <trkpt lat="37.16204" lon="-3.48199">
        <ele>953.0</ele>
      </trkpt>
      <trkpt lat="37.16118" lon="-3.48058">
        <ele>965.0</ele>
      </trkpt>
      <trkpt lat="37.16139" lon="-3.47928">
        <ele>973.0</ele>
      </trkpt>
      <trkpt lat="37.1616" lon="-3.47768">
        <ele>978.0</ele>
      </trkpt>
      <trkpt lat="37.16094" lon="-3.47649">
        <ele>970.0</ele>
      </trkpt>
      <trkpt lat="37.16062" lon="-3.47495">
        <ele>967.0</ele>
      </trkpt>
      <trkpt lat="37.15962" lon="-3.47318">
        <ele>963.0</ele>
      </trkpt>
      <trkpt lat="37.16036" lon="-3.47029">
        <ele>963.0</ele>
      </trkpt>
      <trkpt lat="37.16172" lon="-3.46864">
        <ele>986.0</ele>
      </trkpt>
      <trkpt lat="37.16315" lon="-3.46731">
        <ele>1004.0</ele>
      </trkpt>
      <trkpt lat="37.16305" lon="-3.46653">
        <ele>1012.0</ele>
      </trkpt>
      <trkpt lat="37.16175" lon="-3.46557">
        <ele>1021.0</ele>
      </trkpt>
      <trkpt lat="37.16172" lon="-3.46341">
        <ele>1027.0</ele>
      </trkpt>
      <trkpt lat="37.16237" lon="-3.4619">
        <ele>1031.0</ele>
      </trkpt>
      <trkpt lat="37.16204" lon="-3.46106">
        <ele>1035.0</ele>
      </trkpt>
      <trkpt lat="37.1611" lon="-3.46062">
        <ele>1042.0</ele>
      </trkpt>
      <trkpt lat="37.16131" lon="-3.45819">
        <ele>1055.0</ele>
      </trkpt>
      <trkpt lat="37.16075" lon="-3.45548">
        <ele>1077.0</ele>
      </trkpt>
      <trkpt lat="37.1611" lon="-3.45241">
        <ele>1080.0</ele>
      </trkpt>
      <trkpt lat="37.15992" lon="-3.4513">
        <ele>1074.0</ele>
      </trkpt>
      <trkpt lat="37.15934" lon="-3.45018">
        <ele>1067.0</ele>
      </trkpt>
      <trkpt lat="37.15897" lon="-3.44944">
        <ele>1062.0</ele>
      </trkpt>
      <trkpt lat="37.1591" lon="-3.44772">
        <ele>1064.0</ele>
      </trkpt>
      <trkpt lat="37.15775" lon="-3.44756">
        <ele>1068.0</ele>
      </trkpt>
      <trkpt lat="37.15735" lon="-3.44678">
        <ele>1067.0</ele>
      </trkpt>
      <trkpt lat="37.15697" lon="-3.44593">
        <ele>1066.0</ele>
      </trkpt>
      <trkpt lat="37.15695" lon="-3.445">
        <ele>1066.0</ele>
      </trkpt>
      <trkpt lat="37.15801" lon="-3.44401">
        <ele>1068.0</ele>
      </trkpt>
      <trkpt lat="37.15895" lon="-3.44108">
        <ele>1073.0</ele>
      </trkpt>
      <trkpt lat="37.15844" lon="-3.43982">
        <ele>1070.0</ele>
      </trkpt>
      <trkpt lat="37.15862" lon="-3.43912">
        <ele>1067.0</ele>
      </trkpt>
      <trkpt lat="37.15798" lon="-3.43813">
        <ele>1061.0</ele>
      </trkpt>
      <trkpt lat="37.15771" lon="-3.43709">
        <ele>1056.0</ele>
      </trkpt>
      <trkpt lat="37.15729" lon="-3.43643">
        <ele>1062.0</ele>
      </trkpt>
      <trkpt lat="37.1579" lon="-3.43585">
        <ele>1077.0</ele>
      </trkpt>
      <trkpt lat="37.15761" lon="-3.43475">
        <ele>1089.0</ele>
      </trkpt>
      <trkpt lat="37.15726" lon="-3.43315">
        <ele>1094.0</ele>
      </trkpt>
      <trkpt lat="37.15712" lon="-3.43235">
        <ele>1106.0</ele>
      </trkpt>
      <trkpt lat="37.15697" lon="-3.43127">
        <ele>1123.0</ele>
      </trkpt>
      <trkpt lat="37.15638" lon="-3.43088">
        <ele>1131.0</ele>
      </trkpt>
      <trkpt lat="37.15546" lon="-3.42846">
        <ele>1133.0</ele>
      </trkpt>
      <trkpt lat="37.15474" lon="-3.42721">
        <ele>1141.0</ele>
      </trkpt>
      <trkpt lat="37.15429" lon="-3.42633">
        <ele>1150.0</ele>
      </trkpt>
      <trkpt lat="37.15393" lon="-3.42468">
        <ele>1167.0</ele>
      </trkpt>
      <trkpt lat="37.15455" lon="-3.42348">
        <ele>1183.0</ele>
      </trkpt>
      <trkpt lat="37.15498" lon="-3.42254">
        <ele>1197.0</ele>
      </trkpt>
      <trkpt lat="37.15468" lon="-3.42175">
        <ele>1204.0</ele>
      </trkpt>
      <trkpt lat="37.1542" lon="-3.42025">
        <ele>1214.0</ele>
      </trkpt>
      <trkpt lat="37.15449" lon="-3.41853">
        <ele>1234.0</ele>
      </trkpt>
      <trkpt lat="37.15463" lon="-3.41693">
        <ele>1245.0</ele>
      </trkpt>
      <trkpt lat="37.1543" lon="-3.41556">
        <ele>1255.0</ele>
      </trkpt>
      <trkpt lat="37.15504" lon="-3.41251">
        <ele>1277.0</ele>
      </trkpt>
      <trkpt lat="37.1555" lon="-3.41138">
        <ele>1291.0</ele>
      </trkpt>
      <trkpt lat="37.1562" lon="-3.41076">
        <ele>1300.0</ele>
      </trkpt>
      <trkpt lat="37.15734" lon="-3.40966">
        <ele>1313.0</ele>
      </trkpt>
      <trkpt lat="37.15836" lon="-3.4088">
        <ele>1328.0</ele>
      </trkpt>
      <trkpt lat="37.15951" lon="-3.40739">
        <ele>1343.0</ele>
      </trkpt>
      <trkpt lat="37.16086" lon="-3.40644">
        <ele>1358.0</ele>
      </trkpt>
      <trkpt lat="37.1617" lon="-3.40616">
        <ele>1369.0</ele>
      </trkpt>
      <trkpt lat="37.16151" lon="-3.40682">
        <ele>1376.0</ele>
      </trkpt>
      <trkpt lat="37.1614" lon="-3.40763">
        <ele>1386.0</ele>
      </trkpt>
      <trkpt lat="37.1626" lon="-3.40677">
        <ele>1405.0</ele>
      </trkpt>
      <trkpt lat="37.16299" lon="-3.40611">
        <ele>1414.0</ele>
      </trkpt>
      <trkpt lat="37.16311" lon="-3.40451">
        <ele>1427.0</ele>
      </trkpt>
      <trkpt lat="37.16289" lon="-3.40266">
        <ele>1444.0</ele>
      </trkpt>
      <trkpt lat="37.16388" lon="-3.40212">
        <ele>1461.0</ele>
      </trkpt>
      <trkpt lat="37.16443" lon="-3.40192">
        <ele>1472.0</ele>
      </trkpt>
      <trkpt lat="37.16489" lon="-3.40162">
        <ele>1480.0</ele>
      </trkpt>
      <trkpt lat="37.16535" lon="-3.4002">
        <ele>1489.0</ele>
      </trkpt>
      <trkpt lat="37.16568" lon="-3.39917">
        <ele>1501.0</ele>
      </trkpt>
      <trkpt lat="37.16615" lon="-3.39804">
        <ele>1512.0</ele>
      </trkpt>
      <trkpt lat="37.16661" lon="-3.39724">
        <ele>1523.0</ele>
      </trkpt>
      <trkpt lat="37.16701" lon="-3.39688">
        <ele>1532.0</ele>
      </trkpt>
      <trkpt lat="37.16785" lon="-3.39703">
        <ele>1545.0</ele>
      </trkpt>
      <trkpt lat="37.16806" lon="-3.39634">
        <ele>1553.0</ele>
      </trkpt>
      <trkpt lat="37.16875" lon="-3.39617">
        <ele>1562.0</ele>
      </trkpt>
      <trkpt lat="37.1691" lon="-3.39569">
        <ele>1571.0</ele>
      </trkpt>
      <trkpt lat="37.16985" lon="-3.39498">
        <ele>1581.0</ele>
      </trkpt>
      <trkpt lat="37.16962" lon="-3.39416">
        <ele>1590.0</ele>
      </trkpt>
      <trkpt lat="37.17002" lon="-3.39167">
        <ele>1606.0</ele>
      </trkpt>
      <trkpt lat="37.17017" lon="-3.39072">
        <ele>1621.0</ele>
      </trkpt>
      <trkpt lat="37.16967" lon="-3.38928">
        <ele>1637.0</ele>
      </trkpt>
      <trkpt lat="37.16914" lon="-3.38825">
        <ele>1647.0</ele>
      </trkpt>
      <trkpt lat="37.16914" lon="-3.38663">
        <ele>1662.0</ele>
      </trkpt>
      <trkpt lat="37.1692" lon="-3.38482">
        <ele>1680.0</ele>
      </trkpt>
      <trkpt lat="37.16942" lon="-3.38345">
        <ele>1691.0</ele>
      </trkpt>
      <trkpt lat="37.16925" lon="-3.38227">
        <ele>1701.0</ele>
      </trkpt>
      <trkpt lat="37.16932" lon="-3.37982">
        <ele>1721.0</ele>
      </trkpt>
      <trkpt lat="37.16932" lon="-3.37905">
        <ele>1730.0</ele>
      </trkpt>
      <trkpt lat="37.17085" lon="-3.37775">
        <ele>1750.0</ele>
      </trkpt>
      <trkpt lat="37.17132" lon="-3.3777">
        <ele>1765.0</ele>
      </trkpt>
      <trkpt lat="37.17305" lon="-3.37666">
        <ele>1791.0</ele>
      </trkpt>
      <trkpt lat="37.17381" lon="-3.37561">
        <ele>1803.0</ele>
      </trkpt>
      <trkpt lat="37.17359" lon="-3.37341">
        <ele>1818.0</ele>
      </trkpt>
      <trkpt lat="37.17303" lon="-3.37199">
        <ele>1840.0</ele>
      </trkpt>
      <trkpt lat="37.17334" lon="-3.37142">
        <ele>1848.0</ele>
      </trkpt>
      <trkpt lat="37.17437" lon="-3.37132">
        <ele>1863.0</ele>
      </trkpt>
      <trkpt lat="37.1746" lon="-3.36898">
        <ele>1880.0</ele>
      </trkpt>
    </trkseg>
  </trk>
</gpx>